{
"type": "FeatureCollection",
"name": "ACA",
"crs": { "type": "name", "properties": { "name": "urn:ogc:def:crs:OGC:1.3:CRS84" } },
"xy_coordinate_resolution": 1e-05,
"features": [
{ "type": "Feature", "properties": { "objectid": 9211, "fid_establecimientos_de_salud": null, "código_an": "24-424", "código_vi": 124424, "código__m": " ", "código_nu": 0, "código_re": 10, "nombre_reg": "Los Lagos", "código_de": 24, "nombre_dep": "Servicio de Salud Del Reloncaví", "pertenenci": "Perteneciente al Sistema Nacional de Servicios de Salud", "tipo_estab": null, "ámbito_de": "Establecimiento de Salud", "nombre_ofi": null, "certificac": "No Aplica", "dependenci": "Servicio de Salud Del Reloncaví", "nivel_de_a": "Primario", "código_co": "10109", "nombre_com": "PUERTO VARAS", "vía": "Calle", "número": 0, "dirección": "Caserío de Petrohué", "teléfono": 0, "fecha_inic": "38716", "tiene_serv": null, "tipo_de_ur": "No Aplica", "tipo_de_sa": null, "latitud": -41.137238, "longitud__": -72.401892, "tipo_de_pr": null, "estado_de": null, "nivel_de_c": "Primario", "modalidad": null, "simbologia": "Atención Primaria de Salud (APS)", "fid_comunas_v1": null, "cut_reg": "10", "cut_prov": "101", "cut_com": "10109", "region": "Los Lagos", "provincia": "LLANQUIHUE", "comuna": "PUERTO VARAS", "superficie": null }, "geometry": { "type": "Point", "coordinates": [ -72.40189, -41.13724 ] } },
{ "type": "Feature", "properties": { "objectid": 9219, "fid_establecimientos_de_salud": null, "código_an": "24-422", "código_vi": 124422, "código__m": " ", "código_nu": 0, "código_re": 10, "nombre_reg": "Los Lagos", "código_de": 24, "nombre_dep": "Servicio de Salud Del Reloncaví", "pertenenci": "Perteneciente al Sistema Nacional de Servicios de Salud", "tipo_estab": null, "ámbito_de": "Establecimiento de Salud", "nombre_ofi": null, "certificac": "No Aplica", "dependenci": "Servicio de Salud Del Reloncaví", "nivel_de_a": "Primario", "código_co": "10109", "nombre_com": "PUERTO VARAS", "vía": "Calle", "número": 0, "dirección": "Caserío de Peulla", "teléfono": 0, "fecha_inic": "38716", "tiene_serv": null, "tipo_de_ur": "No Aplica", "tipo_de_sa": null, "latitud": -41.08556, "longitud__": -72.01926, "tipo_de_pr": null, "estado_de": null, "nivel_de_c": "Primario", "modalidad": null, "simbologia": "Atención Primaria de Salud (APS)", "fid_comunas_v1": null, "cut_reg": "10", "cut_prov": "101", "cut_com": "10109", "region": "Los Lagos", "provincia": "LLANQUIHUE", "comuna": "PUERTO VARAS", "superficie": null }, "geometry": { "type": "Point", "coordinates": [ -72.01926, -41.08556 ] } },
{ "type": "Feature", "properties": { "objectid": 9229, "fid_establecimientos_de_salud": null, "código_an": "23-428", "código_vi": 123428, "código__m": " ", "código_nu": 0, "código_re": 10, "nombre_reg": "Los Lagos", "código_de": 23, "nombre_dep": "Servicio de Salud Osorno", "pertenenci": "Perteneciente al Sistema Nacional de Servicios de Salud", "tipo_estab": null, "ámbito_de": "Establecimiento de Salud", "nombre_ofi": null, "certificac": "No Aplica", "dependenci": "Servicio de Salud Osorno", "nivel_de_a": "Primario", "código_co": "10302", "nombre_com": "PUERTO OCTAY", "vía": "Calle", "número": 0, "dirección": "Sector Coihueco", "teléfono": 0, "fecha_inic": "38716", "tiene_serv": null, "tipo_de_ur": "No Aplica", "tipo_de_sa": null, "latitud": -40.97189, "longitud__": -72.5846, "tipo_de_pr": null, "estado_de": null, "nivel_de_c": "Primario", "modalidad": null, "simbologia": "Atención Primaria de Salud (APS)", "fid_comunas_v1": null, "cut_reg": "10", "cut_prov": "103", "cut_com": "10302", "region": "Los Lagos", "provincia": "OSORNO", "comuna": "PUERTO OCTAY", "superficie": null }, "geometry": { "type": "Point", "coordinates": [ -72.5846, -40.97189 ] } },
{ "type": "Feature", "properties": { "objectid": 9239, "fid_establecimientos_de_salud": null, "código_an": "23-424", "código_vi": 123424, "código__m": " ", "código_nu": 0, "código_re": 10, "nombre_reg": "Los Lagos", "código_de": 23, "nombre_dep": "Servicio de Salud Osorno", "pertenenci": "Perteneciente al Sistema Nacional de Servicios de Salud", "tipo_estab": null, "ámbito_de": "Establecimiento de Salud", "nombre_ofi": null, "certificac": "No Aplica", "dependenci": "Servicio de Salud Osorno", "nivel_de_a": "Primario", "código_co": "10302", "nombre_com": "PUERTO OCTAY", "vía": "Calle", "número": 0, "dirección": "Caserío de Piedras Negras", "teléfono": 0, "fecha_inic": "38716", "tiene_serv": null, "tipo_de_ur": "No Aplica", "tipo_de_sa": null, "latitud": -40.88598, "longitud__": -72.47821, "tipo_de_pr": null, "estado_de": null, "nivel_de_c": "Primario", "modalidad": null, "simbologia": "Atención Primaria de Salud (APS)", "fid_comunas_v1": null, "cut_reg": "10", "cut_prov": "103", "cut_com": "10302", "region": "Los Lagos", "provincia": "OSORNO", "comuna": "PUERTO OCTAY", "superficie": null }, "geometry": { "type": "Point", "coordinates": [ -72.47821, -40.88598 ] } },
{ "type": "Feature", "properties": { "objectid": 9241, "fid_establecimientos_de_salud": null, "código_an": "23-426", "código_vi": 123426, "código__m": " ", "código_nu": 0, "código_re": 10, "nombre_reg": "Los Lagos", "código_de": 23, "nombre_dep": "Servicio de Salud Osorno", "pertenenci": "Perteneciente al Sistema Nacional de Servicios de Salud", "tipo_estab": null, "ámbito_de": "Establecimiento de Salud", "nombre_ofi": null, "certificac": "No Aplica", "dependenci": "Servicio de Salud Osorno", "nivel_de_a": "Primario", "código_co": "10302", "nombre_com": "PUERTO OCTAY", "vía": "Calle", "número": 0, "dirección": "Sector Pellinada", "teléfono": 0, "fecha_inic": "38716", "tiene_serv": null, "tipo_de_ur": "No Aplica", "tipo_de_sa": null, "latitud": -40.87358, "longitud__": -72.5922, "tipo_de_pr": null, "estado_de": null, "nivel_de_c": "Primario", "modalidad": null, "simbologia": "Atención Primaria de Salud (APS)", "fid_comunas_v1": null, "cut_reg": "10", "cut_prov": "103", "cut_com": "10302", "region": "Los Lagos", "provincia": "OSORNO", "comuna": "PUERTO OCTAY", "superficie": null }, "geometry": { "type": "Point", "coordinates": [ -72.5922, -40.87358 ] } },
{ "type": "Feature", "properties": { "objectid": 9246, "fid_establecimientos_de_salud": null, "código_an": "23-705", "código_vi": 123705, "código__m": "23-304", "código_nu": 123304, "código_re": 10, "nombre_reg": "Los Lagos", "código_de": 23, "nombre_dep": "Servicio de Salud Osorno", "pertenenci": "Perteneciente al Sistema Nacional de Servicios de Salud", "tipo_estab": null, "ámbito_de": "Establecimiento de Salud", "nombre_ofi": null, "certificac": "No Aplica", "dependenci": "Servicio de Salud Osorno", "nivel_de_a": "Primario", "código_co": "10304", "nombre_com": "PUYEHUE", "vía": "Calle", "número": 0, "dirección": "Caserío el Encanto", "teléfono": 0, "fecha_inic": "38716", "tiene_serv": null, "tipo_de_ur": "No Aplica", "tipo_de_sa": null, "latitud": -40.76724, "longitud__": -72.44009, "tipo_de_pr": null, "estado_de": null, "nivel_de_c": "Primario", "modalidad": null, "simbologia": "Atención Primaria de Salud (APS)", "fid_comunas_v1": null, "cut_reg": "10", "cut_prov": "103", "cut_com": "10304", "region": "Los Lagos", "provincia": "OSORNO", "comuna": "PUYEHUE", "superficie": null }, "geometry": { "type": "Point", "coordinates": [ -72.44009, -40.76724 ] } },
{ "type": "Feature", "properties": { "objectid": 9247, "fid_establecimientos_de_salud": null, "código_an": "23-407", "código_vi": 123407, "código__m": " ", "código_nu": 0, "código_re": 10, "nombre_reg": "Los Lagos", "código_de": 23, "nombre_dep": "Servicio de Salud Osorno", "pertenenci": "Perteneciente al Sistema Nacional de Servicios de Salud", "tipo_estab": null, "ámbito_de": "Establecimiento de Salud", "nombre_ofi": null, "certificac": "No Aplica", "dependenci": "Servicio de Salud Osorno", "nivel_de_a": "Primario", "código_co": "10304", "nombre_com": "PUYEHUE", "vía": "Calle", "número": 0, "dirección": "Sector Desagüe Rupanco", "teléfono": 0, "fecha_inic": "38716", "tiene_serv": null, "tipo_de_ur": "No Aplica", "tipo_de_sa": null, "latitud": -40.762064, "longitud__": -72.679532, "tipo_de_pr": null, "estado_de": null, "nivel_de_c": "Primario", "modalidad": null, "simbologia": "Atención Primaria de Salud (APS)", "fid_comunas_v1": null, "cut_reg": "10", "cut_prov": "103", "cut_com": "10304", "region": "Los Lagos", "provincia": "OSORNO", "comuna": "PUYEHUE", "superficie": null }, "geometry": { "type": "Point", "coordinates": [ -72.67953, -40.76206 ] } },
{ "type": "Feature", "properties": { "objectid": 9251, "fid_establecimientos_de_salud": null, "código_an": "23-406", "código_vi": 123406, "código__m": " ", "código_nu": 0, "código_re": 10, "nombre_reg": "Los Lagos", "código_de": 23, "nombre_dep": "Servicio de Salud Osorno", "pertenenci": "Perteneciente al Sistema Nacional de Servicios de Salud", "tipo_estab": null, "ámbito_de": "Establecimiento de Salud", "nombre_ofi": null, "certificac": "No Aplica", "dependenci": "Servicio de Salud Osorno", "nivel_de_a": "Primario", "código_co": "10304", "nombre_com": "PUYEHUE", "vía": "Calle", "número": 0, "dirección": "Sector Puyehue", "teléfono": 0, "fecha_inic": "38716", "tiene_serv": null, "tipo_de_ur": "No Aplica", "tipo_de_sa": null, "latitud": -40.696344, "longitud__": -72.335555, "tipo_de_pr": null, "estado_de": null, "nivel_de_c": "Primario", "modalidad": null, "simbologia": "Atención Primaria de Salud (APS)", "fid_comunas_v1": null, "cut_reg": "10", "cut_prov": "103", "cut_com": "10304", "region": "Los Lagos", "provincia": "OSORNO", "comuna": "PUYEHUE", "superficie": null }, "geometry": { "type": "Point", "coordinates": [ -72.33555, -40.69634 ] } },
{ "type": "Feature", "properties": { "objectid": 9253, "fid_establecimientos_de_salud": null, "código_an": "23-304", "código_vi": 123304, "código__m": " ", "código_nu": 0, "código_re": 10, "nombre_reg": "Los Lagos", "código_de": 23, "nombre_dep": "Servicio de Salud Osorno", "pertenenci": "Perteneciente al Sistema Nacional de Servicios de Salud", "tipo_estab": null, "ámbito_de": "Establecimiento de Salud", "nombre_ofi": null, "certificac": "Centro de Salud Familiar", "dependenci": "Servicio de Salud Osorno", "nivel_de_a": "Primario", "código_co": "10304", "nombre_com": "PUYEHUE", "vía": "Calle", "número": 0, "dirección": "Luis Pasteur", "teléfono": 800500300, "fecha_inic": "38716", "tiene_serv": null, "tipo_de_ur": "No Aplica", "tipo_de_sa": null, "latitud": -40.6844, "longitud__": -72.60264, "tipo_de_pr": null, "estado_de": null, "nivel_de_c": "Primario", "modalidad": null, "simbologia": "Atención Primaria de Salud (APS)", "fid_comunas_v1": null, "cut_reg": "10", "cut_prov": "103", "cut_com": "10304", "region": "Los Lagos", "provincia": "OSORNO", "comuna": "PUYEHUE", "superficie": null }, "geometry": { "type": "Point", "coordinates": [ -72.60264, -40.6844 ] } },
{ "type": "Feature", "properties": { "objectid": 9254, "fid_establecimientos_de_salud": null, "código_an": "23-910", "código_vi": 200747, "código__m": "23-304", "código_nu": 123304, "código_re": 10, "nombre_reg": "Los Lagos", "código_de": 23, "nombre_dep": "Servicio de Salud Osorno", "pertenenci": "Perteneciente al Sistema Nacional de Servicios de Salud", "tipo_estab": null, "ámbito_de": "Establecimiento de Salud", "nombre_ofi": null, "certificac": "No Aplica", "dependenci": "Servicio de Salud Osorno", "nivel_de_a": "Primario", "código_co": "10304", "nombre_com": "PUYEHUE", "vía": "Calle", "número": 0, "dirección": "Luis Pasteur", "teléfono": 800500300, "fecha_inic": null, "tiene_serv": null, "tipo_de_ur": "Urgencia Ambulatoria (SAPU)", "tipo_de_sa": null, "latitud": -40.684258, "longitud__": -72.602616, "tipo_de_pr": null, "estado_de": null, "nivel_de_c": "Primario", "modalidad": null, "simbologia": "Servicios de Urgencia de Atención Primaria", "fid_comunas_v1": null, "cut_reg": "10", "cut_prov": "103", "cut_com": "10304", "region": "Los Lagos", "provincia": "OSORNO", "comuna": "PUYEHUE", "superficie": null }, "geometry": { "type": "Point", "coordinates": [ -72.60262, -40.68426 ] } },
{ "type": "Feature", "properties": { "objectid": 9256, "fid_establecimientos_de_salud": null, "código_an": "22-455", "código_vi": 122455, "código__m": " ", "código_nu": 0, "código_re": 14, "nombre_reg": "Los Ríos", "código_de": 22, "nombre_dep": "Servicio de Salud Los Rios", "pertenenci": "Perteneciente al Sistema Nacional de Servicios de Salud", "tipo_estab": null, "ámbito_de": "Establecimiento de Salud", "nombre_ofi": null, "certificac": "No Aplica", "dependenci": "Servicio de Salud Los Rios", "nivel_de_a": "Primario", "código_co": "14204", "nombre_com": "RÍO BUENO", "vía": "Calle", "número": 0, "dirección": "Sector Mantilhue", "teléfono": 0, "fecha_inic": "38716", "tiene_serv": null, "tipo_de_ur": "No Aplica", "tipo_de_sa": null, "latitud": -40.620541, "longitud__": -72.490048, "tipo_de_pr": null, "estado_de": null, "nivel_de_c": "Primario", "modalidad": null, "simbologia": "Atención Primaria de Salud (APS)", "fid_comunas_v1": null, "cut_reg": "14", "cut_prov": "142", "cut_com": "14204", "region": "Los Ríos", "provincia": "RANCO", "comuna": "RÍO BUENO", "superficie": null }, "geometry": { "type": "Point", "coordinates": [ -72.49005, -40.62054 ] } },
{ "type": "Feature", "properties": { "objectid": 9316, "fid_establecimientos_de_salud": null, "código_an": "22-460", "código_vi": 122460, "código__m": " ", "código_nu": 0, "código_re": 14, "nombre_reg": "Los Ríos", "código_de": 22, "nombre_dep": "Servicio de Salud Los Rios", "pertenenci": "Perteneciente al Sistema Nacional de Servicios de Salud", "tipo_estab": null, "ámbito_de": "Establecimiento de Salud", "nombre_ofi": null, "certificac": "No Aplica", "dependenci": "Servicio de Salud Los Rios", "nivel_de_a": "Primario", "código_co": "14203", "nombre_com": "LAGO RANCO", "vía": "Calle", "número": 0, "dirección": "Sector Polcura", "teléfono": 0, "fecha_inic": "38716", "tiene_serv": null, "tipo_de_ur": "No Aplica", "tipo_de_sa": null, "latitud": -40.34034, "longitud__": -72.10343, "tipo_de_pr": null, "estado_de": null, "nivel_de_c": "Primario", "modalidad": null, "simbologia": "Atención Primaria de Salud (APS)", "fid_comunas_v1": null, "cut_reg": "14", "cut_prov": "142", "cut_com": "14203", "region": "Los Ríos", "provincia": "RANCO", "comuna": "LAGO RANCO", "superficie": null }, "geometry": { "type": "Point", "coordinates": [ -72.10343, -40.34034 ] } }
]
}
