{
"type": "FeatureCollection",
"name": "ANT",
"crs": { "type": "name", "properties": { "name": "urn:ogc:def:crs:OGC:1.3:CRS84" } },
"xy_coordinate_resolution": 1e-05,
"features": [
{ "type": "Feature", "properties": { "objectid": 10267, "fid_establecimientos_de_salud": null, "código_an": "20-441", "código_vi": 120441, "código__m": " ", "código_nu": 0, "código_re": 8, "nombre_reg": "Región Del Bíobío", "código_de": 20, "nombre_dep": "Servicio de Salud Biobío", "pertenenci": "Perteneciente al Sistema Nacional de Servicios de Salud", "tipo_estab": null, "ámbito_de": "Establecimiento de Salud", "nombre_ofi": null, "certificac": "No Aplica", "dependenci": "Servicio de Salud Biobío", "nivel_de_a": "Primario", "código_co": "08314", "nombre_com": "ALTO BIOBÍO", "vía": "Calle", "número": 0, "dirección": "Caserío Los Canelos", "teléfono": 0, "fecha_inic": "38716", "tiene_serv": null, "tipo_de_ur": "No Aplica", "tipo_de_sa": null, "latitud": -37.81947, "longitud__": -71.55706, "tipo_de_pr": null, "estado_de": null, "nivel_de_c": "Primario", "modalidad": null, "simbologia": "Atención Primaria de Salud (APS)", "fid_comunas_v1": null, "cut_reg": "8", "cut_prov": "083", "cut_com": "08314", "region": "Región Del Bíobío", "provincia": "BIOBÍO", "comuna": "ALTO BIOBÍO", "superficie": null }, "geometry": { "type": "Point", "coordinates": [ -71.55706, -37.81947 ] } },
{ "type": "Feature", "properties": { "objectid": 10303, "fid_establecimientos_de_salud": null, "código_an": "20-471", "código_vi": 120471, "código__m": " ", "código_nu": 0, "código_re": 8, "nombre_reg": "Región Del Bíobío", "código_de": 20, "nombre_dep": "Servicio de Salud Biobío", "pertenenci": "Perteneciente al Sistema Nacional de Servicios de Salud", "tipo_estab": null, "ámbito_de": "Establecimiento de Salud", "nombre_ofi": null, "certificac": "No Aplica", "dependenci": "Servicio de Salud Biobío", "nivel_de_a": "Primario", "código_co": "08314", "nombre_com": "ALTO BIOBÍO", "vía": "Calle", "número": 0, "dirección": "Sector Butalelbum", "teléfono": 0, "fecha_inic": "38716", "tiene_serv": null, "tipo_de_ur": "No Aplica", "tipo_de_sa": null, "latitud": -37.753, "longitud__": -71.21514, "tipo_de_pr": null, "estado_de": null, "nivel_de_c": "Primario", "modalidad": null, "simbologia": "Atención Primaria de Salud (APS)", "fid_comunas_v1": null, "cut_reg": "8", "cut_prov": "083", "cut_com": "08314", "region": "Región Del Bíobío", "provincia": "BIOBÍO", "comuna": "ALTO BIOBÍO", "superficie": null }, "geometry": { "type": "Point", "coordinates": [ -71.21514, -37.753 ] } },
{ "type": "Feature", "properties": { "objectid": 10308, "fid_establecimientos_de_salud": null, "código_an": "20-464", "código_vi": 120464, "código__m": " ", "código_nu": 0, "código_re": 8, "nombre_reg": "Región Del Bíobío", "código_de": 20, "nombre_dep": "Servicio de Salud Biobío", "pertenenci": "Perteneciente al Sistema Nacional de Servicios de Salud", "tipo_estab": null, "ámbito_de": "Establecimiento de Salud", "nombre_ofi": null, "certificac": "No Aplica", "dependenci": "Servicio de Salud Biobío", "nivel_de_a": "Primario", "código_co": "08314", "nombre_com": "ALTO BIOBÍO", "vía": "Calle", "número": 0, "dirección": "Sector Cauñicú", "teléfono": 0, "fecha_inic": "38716", "tiene_serv": null, "tipo_de_ur": "No Aplica", "tipo_de_sa": null, "latitud": -37.71329, "longitud__": -71.48377, "tipo_de_pr": null, "estado_de": null, "nivel_de_c": "Primario", "modalidad": null, "simbologia": "Atención Primaria de Salud (APS)", "fid_comunas_v1": null, "cut_reg": "8", "cut_prov": "083", "cut_com": "08314", "region": "Región Del Bíobío", "provincia": "BIOBÍO", "comuna": "ALTO BIOBÍO", "superficie": null }, "geometry": { "type": "Point", "coordinates": [ -71.48377, -37.71329 ] } },
{ "type": "Feature", "properties": { "objectid": 10310, "fid_establecimientos_de_salud": null, "código_an": "20-449", "código_vi": 120449, "código__m": " ", "código_nu": 0, "código_re": 8, "nombre_reg": "Región Del Bíobío", "código_de": 20, "nombre_dep": "Servicio de Salud Biobío", "pertenenci": "Perteneciente al Sistema Nacional de Servicios de Salud", "tipo_estab": null, "ámbito_de": "Establecimiento de Salud", "nombre_ofi": null, "certificac": "No Aplica", "dependenci": "Servicio de Salud Biobío", "nivel_de_a": "Primario", "código_co": "08314", "nombre_com": "ALTO BIOBÍO", "vía": "Calle", "número": 0, "dirección": "Sector Malla Malla", "teléfono": 0, "fecha_inic": "38716", "tiene_serv": null, "tipo_de_ur": "No Aplica", "tipo_de_sa": null, "latitud": -37.71095, "longitud__": -71.34136, "tipo_de_pr": null, "estado_de": null, "nivel_de_c": "Primario", "modalidad": null, "simbologia": "Atención Primaria de Salud (APS)", "fid_comunas_v1": null, "cut_reg": "8", "cut_prov": "083", "cut_com": "08314", "region": "Región Del Bíobío", "provincia": "BIOBÍO", "comuna": "ALTO BIOBÍO", "superficie": null }, "geometry": { "type": "Point", "coordinates": [ -71.34136, -37.71095 ] } },
{ "type": "Feature", "properties": { "objectid": 10312, "fid_establecimientos_de_salud": null, "código_an": "20-445", "código_vi": 120445, "código__m": " ", "código_nu": 0, "código_re": 8, "nombre_reg": "Región Del Bíobío", "código_de": 20, "nombre_dep": "Servicio de Salud Biobío", "pertenenci": "Perteneciente al Sistema Nacional de Servicios de Salud", "tipo_estab": null, "ámbito_de": "Establecimiento de Salud", "nombre_ofi": null, "certificac": "No Aplica", "dependenci": "Servicio de Salud Biobío", "nivel_de_a": "Primario", "código_co": "08314", "nombre_com": "ALTO BIOBÍO", "vía": "Calle", "número": 0, "dirección": "Sector Trapa Trapa", "teléfono": 0, "fecha_inic": "38716", "tiene_serv": null, "tipo_de_ur": "No Aplica", "tipo_de_sa": null, "latitud": -37.71043, "longitud__": -71.26598, "tipo_de_pr": null, "estado_de": null, "nivel_de_c": "Primario", "modalidad": null, "simbologia": "Atención Primaria de Salud (APS)", "fid_comunas_v1": null, "cut_reg": "8", "cut_prov": "083", "cut_com": "08314", "region": "Región Del Bíobío", "provincia": "BIOBÍO", "comuna": "ALTO BIOBÍO", "superficie": null }, "geometry": { "type": "Point", "coordinates": [ -71.26598, -37.71043 ] } },
{ "type": "Feature", "properties": { "objectid": 10325, "fid_establecimientos_de_salud": null, "código_an": "20-443", "código_vi": 120443, "código__m": " ", "código_nu": 0, "código_re": 8, "nombre_reg": "Región Del Bíobío", "código_de": 20, "nombre_dep": "Servicio de Salud Biobío", "pertenenci": "Perteneciente al Sistema Nacional de Servicios de Salud", "tipo_estab": null, "ámbito_de": "Establecimiento de Salud", "nombre_ofi": null, "certificac": "No Aplica", "dependenci": "Servicio de Salud Biobío", "nivel_de_a": "Primario", "código_co": "08311", "nombre_com": "SANTA BÁRBARA", "vía": "Calle", "número": 0, "dirección": "Sector El Huachi", "teléfono": 0, "fecha_inic": "38716", "tiene_serv": null, "tipo_de_ur": "No Aplica", "tipo_de_sa": null, "latitud": -37.640871, "longitud__": -71.772998, "tipo_de_pr": null, "estado_de": null, "nivel_de_c": "Primario", "modalidad": null, "simbologia": "Atención Primaria de Salud (APS)", "fid_comunas_v1": null, "cut_reg": "8", "cut_prov": "083", "cut_com": "08311", "region": "Región Del Bíobío", "provincia": "BIOBÍO", "comuna": "SANTA BÁRBARA", "superficie": null }, "geometry": { "type": "Point", "coordinates": [ -71.773, -37.64087 ] } },
{ "type": "Feature", "properties": { "objectid": 10351, "fid_establecimientos_de_salud": null, "código_an": "20-472", "código_vi": 120472, "código__m": " ", "código_nu": 0, "código_re": 8, "nombre_reg": "Región Del Bíobío", "código_de": 20, "nombre_dep": "Servicio de Salud Biobío", "pertenenci": "Perteneciente al Sistema Nacional de Servicios de Salud", "tipo_estab": null, "ámbito_de": "Establecimiento de Salud", "nombre_ofi": null, "certificac": "No Aplica", "dependenci": "Servicio de Salud Biobío", "nivel_de_a": "Primario", "código_co": "08311", "nombre_com": "SANTA BÁRBARA", "vía": "Calle", "número": 0, "dirección": "Sector El Castillo", "teléfono": 0, "fecha_inic": "38716", "tiene_serv": null, "tipo_de_ur": "No Aplica", "tipo_de_sa": null, "latitud": -37.51806, "longitud__": -71.84861, "tipo_de_pr": null, "estado_de": null, "nivel_de_c": "Primario", "modalidad": null, "simbologia": "Atención Primaria de Salud (APS)", "fid_comunas_v1": null, "cut_reg": "8", "cut_prov": "083", "cut_com": "08311", "region": "Región Del Bíobío", "provincia": "BIOBÍO", "comuna": "SANTA BÁRBARA", "superficie": null }, "geometry": { "type": "Point", "coordinates": [ -71.84861, -37.51806 ] } },
{ "type": "Feature", "properties": { "objectid": 10361, "fid_establecimientos_de_salud": null, "código_an": "20-463", "código_vi": 120463, "código__m": " ", "código_nu": 0, "código_re": 8, "nombre_reg": "Región Del Bíobío", "código_de": 20, "nombre_dep": "Servicio de Salud Biobío", "pertenenci": "Perteneciente al Sistema Nacional de Servicios de Salud", "tipo_estab": null, "ámbito_de": "Establecimiento de Salud", "nombre_ofi": null, "certificac": "No Aplica", "dependenci": "Servicio de Salud Biobío", "nivel_de_a": "Primario", "código_co": "08309", "nombre_com": "QUILLECO", "vía": "Calle", "número": 0, "dirección": "Sector Cañicura", "teléfono": 0, "fecha_inic": "38716", "tiene_serv": null, "tipo_de_ur": "No Aplica", "tipo_de_sa": null, "latitud": -37.48622, "longitud__": -71.81804, "tipo_de_pr": null, "estado_de": null, "nivel_de_c": "Primario", "modalidad": null, "simbologia": "Atención Primaria de Salud (APS)", "fid_comunas_v1": null, "cut_reg": "8", "cut_prov": "083", "cut_com": "08309", "region": "Región Del Bíobío", "provincia": "BIOBÍO", "comuna": "QUILLECO", "superficie": null }, "geometry": { "type": "Point", "coordinates": [ -71.81804, -37.48622 ] } },
{ "type": "Feature", "properties": { "objectid": 10405, "fid_establecimientos_de_salud": null, "código_an": "20-435", "código_vi": 120435, "código__m": " ", "código_nu": 0, "código_re": 8, "nombre_reg": "Región Del Bíobío", "código_de": 20, "nombre_dep": "Servicio de Salud Biobío", "pertenenci": "Perteneciente al Sistema Nacional de Servicios de Salud", "tipo_estab": null, "ámbito_de": "Establecimiento de Salud", "nombre_ofi": null, "certificac": "No Aplica", "dependenci": "Servicio de Salud Biobío", "nivel_de_a": "Primario", "código_co": "08309", "nombre_com": "QUILLECO", "vía": "Calle", "número": 0, "dirección": "Sector Tinajón", "teléfono": 0, "fecha_inic": "38716", "tiene_serv": null, "tipo_de_ur": "No Aplica", "tipo_de_sa": null, "latitud": -37.43222, "longitud__": -71.81611, "tipo_de_pr": null, "estado_de": null, "nivel_de_c": "Primario", "modalidad": null, "simbologia": "Atención Primaria de Salud (APS)", "fid_comunas_v1": null, "cut_reg": "8", "cut_prov": "083", "cut_com": "08309", "region": "Región Del Bíobío", "provincia": "BIOBÍO", "comuna": "QUILLECO", "superficie": null }, "geometry": { "type": "Point", "coordinates": [ -71.81611, -37.43222 ] } },
{ "type": "Feature", "properties": { "objectid": 10419, "fid_establecimientos_de_salud": null, "código_an": "20-415", "código_vi": 120415, "código__m": " ", "código_nu": 0, "código_re": 8, "nombre_reg": "Región Del Bíobío", "código_de": 20, "nombre_dep": "Servicio de Salud Biobío", "pertenenci": "Perteneciente al Sistema Nacional de Servicios de Salud", "tipo_estab": null, "ámbito_de": "Establecimiento de Salud", "nombre_ofi": null, "certificac": "No Aplica", "dependenci": "Servicio de Salud Biobío", "nivel_de_a": "Primario", "código_co": "08302", "nombre_com": "ANTUCO", "vía": "Calle", "número": 0, "dirección": "Caserío Los Canelos", "teléfono": 0, "fecha_inic": "38716", "tiene_serv": null, "tipo_de_ur": "No Aplica", "tipo_de_sa": null, "latitud": -37.35775, "longitud__": -71.53499, "tipo_de_pr": null, "estado_de": null, "nivel_de_c": "Primario", "modalidad": null, "simbologia": "Atención Primaria de Salud (APS)", "fid_comunas_v1": null, "cut_reg": "8", "cut_prov": "083", "cut_com": "08302", "region": "Región Del Bíobío", "provincia": "BIOBÍO", "comuna": "ANTUCO", "superficie": null }, "geometry": { "type": "Point", "coordinates": [ -71.53499, -37.35775 ] } },
{ "type": "Feature", "properties": { "objectid": 10423, "fid_establecimientos_de_salud": null, "código_an": "20-303", "código_vi": 120303, "código__m": " ", "código_nu": 0, "código_re": 8, "nombre_reg": "Región Del Bíobío", "código_de": 20, "nombre_dep": "Servicio de Salud Biobío", "pertenenci": "Perteneciente al Sistema Nacional de Servicios de Salud", "tipo_estab": null, "ámbito_de": "Establecimiento de Salud", "nombre_ofi": null, "certificac": "Centro de Salud Familiar", "dependenci": "Servicio de Salud Biobío", "nivel_de_a": "Primario", "código_co": "08302", "nombre_com": "ANTUCO", "vía": "Calle", "número": 0, "dirección": "Arturo Prat", "teléfono": 432621002, "fecha_inic": "38716", "tiene_serv": null, "tipo_de_ur": "No Aplica", "tipo_de_sa": null, "latitud": -37.329753, "longitud__": -71.672907, "tipo_de_pr": null, "estado_de": null, "nivel_de_c": "Primario", "modalidad": null, "simbologia": "Atención Primaria de Salud (APS)", "fid_comunas_v1": null, "cut_reg": "8", "cut_prov": "083", "cut_com": "08302", "region": "Región Del Bíobío", "provincia": "BIOBÍO", "comuna": "ANTUCO", "superficie": null }, "geometry": { "type": "Point", "coordinates": [ -71.67291, -37.32975 ] } },
{ "type": "Feature", "properties": { "objectid": 10424, "fid_establecimientos_de_salud": null, "código_an": "20-917", "código_vi": 200973, "código__m": "20-303", "código_nu": 120303, "código_re": 8, "nombre_reg": "Región Del Bíobío", "código_de": 20, "nombre_dep": "Servicio de Salud Biobío", "pertenenci": "Perteneciente al Sistema Nacional de Servicios de Salud", "tipo_estab": null, "ámbito_de": "Establecimiento de Salud", "nombre_ofi": null, "certificac": "No Aplica", "dependenci": "Servicio de Salud Biobío", "nivel_de_a": "Primario", "código_co": "08302", "nombre_com": "ANTUCO", "vía": "Calle", "número": 0, "dirección": "Arturo Prat", "teléfono": 432621002, "fecha_inic": "38716", "tiene_serv": null, "tipo_de_ur": "Urgencia Ambulatoria (SUR)", "tipo_de_sa": null, "latitud": -37.33143, "longitud__": -71.671956, "tipo_de_pr": null, "estado_de": null, "nivel_de_c": "Primario", "modalidad": null, "simbologia": "Servicios de Urgencia de Atención Primaria", "fid_comunas_v1": null, "cut_reg": "8", "cut_prov": "083", "cut_com": "08302", "region": "Región Del Bíobío", "provincia": "BIOBÍO", "comuna": "ANTUCO", "superficie": null }, "geometry": { "type": "Point", "coordinates": [ -71.67196, -37.33143 ] } },
{ "type": "Feature", "properties": { "objectid": 10431, "fid_establecimientos_de_salud": null, "código_an": "20-460", "código_vi": 120460, "código__m": " ", "código_nu": 0, "código_re": 8, "nombre_reg": "Región Del Bíobío", "código_de": 20, "nombre_dep": "Servicio de Salud Biobío", "pertenenci": "Perteneciente al Sistema Nacional de Servicios de Salud", "tipo_estab": null, "ámbito_de": "Establecimiento de Salud", "nombre_ofi": null, "certificac": "No Aplica", "dependenci": "Servicio de Salud Biobío", "nivel_de_a": "Primario", "código_co": "08312", "nombre_com": "TUCAPEL", "vía": "Calle", "número": 0, "dirección": "Aldea de Polcura", "teléfono": 0, "fecha_inic": "38716", "tiene_serv": null, "tipo_de_ur": "No Aplica", "tipo_de_sa": null, "latitud": -37.2863, "longitud__": -71.72706, "tipo_de_pr": null, "estado_de": null, "nivel_de_c": "Primario", "modalidad": null, "simbologia": "Atención Primaria de Salud (APS)", "fid_comunas_v1": null, "cut_reg": "8", "cut_prov": "083", "cut_com": "08312", "region": "Región Del Bíobío", "provincia": "BIOBÍO", "comuna": "TUCAPEL", "superficie": null }, "geometry": { "type": "Point", "coordinates": [ -71.72706, -37.2863 ] } },
{ "type": "Feature", "properties": { "objectid": 10438, "fid_establecimientos_de_salud": null, "código_an": "20-459", "código_vi": 120459, "código__m": " ", "código_nu": 0, "código_re": 8, "nombre_reg": "Región Del Bíobío", "código_de": 20, "nombre_dep": "Servicio de Salud Biobío", "pertenenci": "Perteneciente al Sistema Nacional de Servicios de Salud", "tipo_estab": null, "ámbito_de": "Establecimiento de Salud", "nombre_ofi": null, "certificac": "No Aplica", "dependenci": "Servicio de Salud Biobío", "nivel_de_a": "Primario", "código_co": "08312", "nombre_com": "TUCAPEL", "vía": "Calle", "número": 0, "dirección": "Aldea de Trupán", "teléfono": 0, "fecha_inic": "38716", "tiene_serv": null, "tipo_de_ur": "No Aplica", "tipo_de_sa": null, "latitud": -37.2752, "longitud__": -71.83752, "tipo_de_pr": null, "estado_de": null, "nivel_de_c": "Primario", "modalidad": null, "simbologia": "Atención Primaria de Salud (APS)", "fid_comunas_v1": null, "cut_reg": "8", "cut_prov": "083", "cut_com": "08312", "region": "Región Del Bíobío", "provincia": "BIOBÍO", "comuna": "TUCAPEL", "superficie": null }, "geometry": { "type": "Point", "coordinates": [ -71.83752, -37.2752 ] } }
]
}
