{
"type": "FeatureCollection",
"name": "CAL",
"crs": { "type": "name", "properties": { "name": "urn:ogc:def:crs:OGC:1.3:CRS84" } },
"xy_coordinate_resolution": 1e-05,
"features": [
{ "type": "Feature", "properties": { "objectid": 10204, "fid_establecimientos_de_salud": null, "código_an": "29-456", "código_vi": 129456, "código__m": " ", "código_nu": 0, "código_re": 9, "nombre_reg": "La Araucanía", "código_de": 29, "nombre_dep": "Servicio de Salud Araucanía Norte", "pertenenci": "Perteneciente al Sistema Nacional de Servicios de Salud", "tipo_estab": null, "ámbito_de": "Establecimiento de Salud", "nombre_ofi": null, "certificac": "No Aplica", "dependenci": "Servicio de Salud Araucanía Norte", "nivel_de_a": "Primario", "código_co": "09205", "nombre_com": "LONQUIMAY", "vía": "Calle", "número": 0, "dirección": "Ranquil Km. 7", "teléfono": 0, "fecha_inic": "38716", "tiene_serv": null, "tipo_de_ur": "No Aplica", "tipo_de_sa": null, "latitud": -38.256895, "longitud__": -71.244419, "tipo_de_pr": null, "estado_de": null, "nivel_de_c": "Primario", "modalidad": null, "simbologia": "Atención Primaria de Salud (APS)", "fid_comunas_v1": null, "cut_reg": "9", "cut_prov": "092", "cut_com": "09205", "region": "La Araucanía", "provincia": "MALLECO", "comuna": "LONQUIMAY", "superficie": null }, "geometry": { "type": "Point", "coordinates": [ -71.24442, -38.25689 ] } },
{ "type": "Feature", "properties": { "objectid": 10205, "fid_establecimientos_de_salud": null, "código_an": "29-455", "código_vi": 129455, "código__m": " ", "código_nu": 0, "código_re": 9, "nombre_reg": "La Araucanía", "código_de": 29, "nombre_dep": "Servicio de Salud Araucanía Norte", "pertenenci": "Perteneciente al Sistema Nacional de Servicios de Salud", "tipo_estab": null, "ámbito_de": "Establecimiento de Salud", "nombre_ofi": null, "certificac": "No Aplica", "dependenci": "Servicio de Salud Araucanía Norte", "nivel_de_a": "Primario", "código_co": "09205", "nombre_com": "LONQUIMAY", "vía": "Calle", "número": 0, "dirección": "Caserío de Troyo", "teléfono": 0, "fecha_inic": "38716", "tiene_serv": null, "tipo_de_ur": "No Aplica", "tipo_de_sa": null, "latitud": -38.25247, "longitud__": -71.30361, "tipo_de_pr": null, "estado_de": null, "nivel_de_c": "Primario", "modalidad": null, "simbologia": "Atención Primaria de Salud (APS)", "fid_comunas_v1": null, "cut_reg": "9", "cut_prov": "092", "cut_com": "09205", "region": "La Araucanía", "provincia": "MALLECO", "comuna": "LONQUIMAY", "superficie": null }, "geometry": { "type": "Point", "coordinates": [ -71.30361, -38.25247 ] } },
{ "type": "Feature", "properties": { "objectid": 10221, "fid_establecimientos_de_salud": null, "código_an": "29-414", "código_vi": 129414, "código__m": " ", "código_nu": 0, "código_re": 9, "nombre_reg": "La Araucanía", "código_de": 29, "nombre_dep": "Servicio de Salud Araucanía Norte", "pertenenci": "Perteneciente al Sistema Nacional de Servicios de Salud", "tipo_estab": null, "ámbito_de": "Establecimiento de Salud", "nombre_ofi": null, "certificac": "No Aplica", "dependenci": "Servicio de Salud Araucanía Norte", "nivel_de_a": "Primario", "código_co": "09202", "nombre_com": "COLLIPULLI", "vía": "Calle", "número": 0, "dirección": "Sector Niblinto", "teléfono": 0, "fecha_inic": "38716", "tiene_serv": null, "tipo_de_ur": "No Aplica", "tipo_de_sa": null, "latitud": -38.147351, "longitud__": -71.868654, "tipo_de_pr": null, "estado_de": null, "nivel_de_c": "Primario", "modalidad": null, "simbologia": "Atención Primaria de Salud (APS)", "fid_comunas_v1": null, "cut_reg": "9", "cut_prov": "092", "cut_com": "09202", "region": "La Araucanía", "provincia": "MALLECO", "comuna": "COLLIPULLI", "superficie": null }, "geometry": { "type": "Point", "coordinates": [ -71.86865, -38.14735 ] } },
{ "type": "Feature", "properties": { "objectid": 10225, "fid_establecimientos_de_salud": null, "código_an": "29-448", "código_vi": 129448, "código__m": " ", "código_nu": 0, "código_re": 9, "nombre_reg": "La Araucanía", "código_de": 29, "nombre_dep": "Servicio de Salud Araucanía Norte", "pertenenci": "Perteneciente al Sistema Nacional de Servicios de Salud", "tipo_estab": null, "ámbito_de": "Establecimiento de Salud", "nombre_ofi": null, "certificac": "No Aplica", "dependenci": "Servicio de Salud Araucanía Norte", "nivel_de_a": "Primario", "código_co": "09205", "nombre_com": "LONQUIMAY", "vía": "Calle", "número": 0, "dirección": "Sector Contraco", "teléfono": 0, "fecha_inic": "38716", "tiene_serv": null, "tipo_de_ur": "No Aplica", "tipo_de_sa": null, "latitud": -38.14474, "longitud__": -71.33622, "tipo_de_pr": null, "estado_de": null, "nivel_de_c": "Primario", "modalidad": null, "simbologia": "Atención Primaria de Salud (APS)", "fid_comunas_v1": null, "cut_reg": "9", "cut_prov": "092", "cut_com": "09205", "region": "La Araucanía", "provincia": "MALLECO", "comuna": "LONQUIMAY", "superficie": null }, "geometry": { "type": "Point", "coordinates": [ -71.33622, -38.14474 ] } },
{ "type": "Feature", "properties": { "objectid": 10234, "fid_establecimientos_de_salud": null, "código_an": "29-413", "código_vi": 129413, "código__m": " ", "código_nu": 0, "código_re": 9, "nombre_reg": "La Araucanía", "código_de": 29, "nombre_dep": "Servicio de Salud Araucanía Norte", "pertenenci": "Perteneciente al Sistema Nacional de Servicios de Salud", "tipo_estab": null, "ámbito_de": "Establecimiento de Salud", "nombre_ofi": null, "certificac": "No Aplica", "dependenci": "Servicio de Salud Araucanía Norte", "nivel_de_a": "Primario", "código_co": "09202", "nombre_com": "COLLIPULLI", "vía": "Calle", "número": 0, "dirección": "Sector Amargo", "teléfono": 0, "fecha_inic": "38716", "tiene_serv": null, "tipo_de_ur": "No Aplica", "tipo_de_sa": null, "latitud": -38.07701, "longitud__": -71.86998, "tipo_de_pr": null, "estado_de": null, "nivel_de_c": "Primario", "modalidad": null, "simbologia": "Atención Primaria de Salud (APS)", "fid_comunas_v1": null, "cut_reg": "9", "cut_prov": "092", "cut_com": "09202", "region": "La Araucanía", "provincia": "MALLECO", "comuna": "COLLIPULLI", "superficie": null }, "geometry": { "type": "Point", "coordinates": [ -71.86998, -38.07701 ] } },
{ "type": "Feature", "properties": { "objectid": 10237, "fid_establecimientos_de_salud": null, "código_an": "20-448", "código_vi": 120448, "código__m": " ", "código_nu": 0, "código_re": 8, "nombre_reg": "Región Del Bíobío", "código_de": 20, "nombre_dep": "Servicio de Salud Biobío", "pertenenci": "Perteneciente al Sistema Nacional de Servicios de Salud", "tipo_estab": null, "ámbito_de": "Establecimiento de Salud", "nombre_ofi": null, "certificac": "No Aplica", "dependenci": "Servicio de Salud Biobío", "nivel_de_a": "Primario", "código_co": "08314", "nombre_com": "ALTO BIOBÍO", "vía": "Calle", "número": 0, "dirección": "Sector Ralco Lepoy", "teléfono": 0, "fecha_inic": "38716", "tiene_serv": null, "tipo_de_ur": "No Aplica", "tipo_de_sa": null, "latitud": -38.063025, "longitud__": -71.35695, "tipo_de_pr": null, "estado_de": null, "nivel_de_c": "Primario", "modalidad": null, "simbologia": "Atención Primaria de Salud (APS)", "fid_comunas_v1": null, "cut_reg": "8", "cut_prov": "083", "cut_com": "08314", "region": "Región Del Bíobío", "provincia": "BIOBÍO", "comuna": "ALTO BIOBÍO", "superficie": null }, "geometry": { "type": "Point", "coordinates": [ -71.35695, -38.06303 ] } },
{ "type": "Feature", "properties": { "objectid": 10242, "fid_establecimientos_de_salud": null, "código_an": "20-450", "código_vi": 120450, "código__m": " ", "código_nu": 0, "código_re": 8, "nombre_reg": "Región Del Bíobío", "código_de": 20, "nombre_dep": "Servicio de Salud Biobío", "pertenenci": "Perteneciente al Sistema Nacional de Servicios de Salud", "tipo_estab": null, "ámbito_de": "Establecimiento de Salud", "nombre_ofi": null, "certificac": "No Aplica", "dependenci": "Servicio de Salud Biobío", "nivel_de_a": "Primario", "código_co": "08314", "nombre_com": "ALTO BIOBÍO", "vía": "Calle", "número": 0, "dirección": "Sector Malla Palmucho", "teléfono": 0, "fecha_inic": "38716", "tiene_serv": null, "tipo_de_ur": "No Aplica", "tipo_de_sa": null, "latitud": -38.0216, "longitud__": -71.468207, "tipo_de_pr": null, "estado_de": null, "nivel_de_c": "Primario", "modalidad": null, "simbologia": "Atención Primaria de Salud (APS)", "fid_comunas_v1": null, "cut_reg": "8", "cut_prov": "083", "cut_com": "08314", "region": "Región Del Bíobío", "provincia": "BIOBÍO", "comuna": "ALTO BIOBÍO", "superficie": null }, "geometry": { "type": "Point", "coordinates": [ -71.46821, -38.0216 ] } },
{ "type": "Feature", "properties": { "objectid": 10262, "fid_establecimientos_de_salud": null, "código_an": "20-312", "código_vi": 120312, "código__m": " ", "código_nu": 0, "código_re": 8, "nombre_reg": "Región Del Bíobío", "código_de": 20, "nombre_dep": "Servicio de Salud Biobío", "pertenenci": "Perteneciente al Sistema Nacional de Servicios de Salud", "tipo_estab": null, "ámbito_de": "Establecimiento de Salud", "nombre_ofi": null, "certificac": "Centro de Salud Familiar", "dependenci": "Servicio de Salud Biobío", "nivel_de_a": "Primario", "código_co": "08314", "nombre_com": "ALTO BIOBÍO", "vía": "Calle", "número": 0, "dirección": "Domingo Salvo", "teléfono": 432374151, "fecha_inic": "38716", "tiene_serv": null, "tipo_de_ur": "No Aplica", "tipo_de_sa": null, "latitud": -37.880787, "longitud__": -71.638608, "tipo_de_pr": null, "estado_de": null, "nivel_de_c": "Primario", "modalidad": null, "simbologia": "Atención Primaria de Salud (APS)", "fid_comunas_v1": null, "cut_reg": "8", "cut_prov": "083", "cut_com": "08314", "region": "Región Del Bíobío", "provincia": "BIOBÍO", "comuna": "ALTO BIOBÍO", "superficie": null }, "geometry": { "type": "Point", "coordinates": [ -71.63861, -37.88079 ] } },
{ "type": "Feature", "properties": { "objectid": 10263, "fid_establecimientos_de_salud": null, "código_an": "20-922", "código_vi": 200978, "código__m": "20-312", "código_nu": 120312, "código_re": 8, "nombre_reg": "Región Del Bíobío", "código_de": 20, "nombre_dep": "Servicio de Salud Biobío", "pertenenci": "Perteneciente al Sistema Nacional de Servicios de Salud", "tipo_estab": null, "ámbito_de": "Establecimiento de Salud", "nombre_ofi": null, "certificac": "No Aplica", "dependenci": "Servicio de Salud Biobío", "nivel_de_a": "Primario", "código_co": "08314", "nombre_com": "ALTO BIOBÍO", "vía": "Calle", "número": 0, "dirección": "Domingo Salvo", "teléfono": 432374151, "fecha_inic": "38716", "tiene_serv": null, "tipo_de_ur": "Urgencia Ambulatoria (SUR)", "tipo_de_sa": null, "latitud": -37.880521, "longitud__": -71.637247, "tipo_de_pr": null, "estado_de": null, "nivel_de_c": "Primario", "modalidad": null, "simbologia": "Servicios de Urgencia de Atención Primaria", "fid_comunas_v1": null, "cut_reg": "8", "cut_prov": "083", "cut_com": "08314", "region": "Región Del Bíobío", "provincia": "BIOBÍO", "comuna": "ALTO BIOBÍO", "superficie": null }, "geometry": { "type": "Point", "coordinates": [ -71.63725, -37.88052 ] } },
{ "type": "Feature", "properties": { "objectid": 10265, "fid_establecimientos_de_salud": null, "código_an": "20-444", "código_vi": 120444, "código__m": " ", "código_nu": 0, "código_re": 8, "nombre_reg": "Región Del Bíobío", "código_de": 20, "nombre_dep": "Servicio de Salud Biobío", "pertenenci": "Perteneciente al Sistema Nacional de Servicios de Salud", "tipo_estab": null, "ámbito_de": "Establecimiento de Salud", "nombre_ofi": null, "certificac": "No Aplica", "dependenci": "Servicio de Salud Biobío", "nivel_de_a": "Primario", "código_co": "08314", "nombre_com": "ALTO BIOBÍO", "vía": "Calle", "número": 0, "dirección": "Sector Callaqui", "teléfono": 0, "fecha_inic": "38716", "tiene_serv": null, "tipo_de_ur": "No Aplica", "tipo_de_sa": null, "latitud": -37.85576, "longitud__": -71.67115, "tipo_de_pr": null, "estado_de": null, "nivel_de_c": "Primario", "modalidad": null, "simbologia": "Atención Primaria de Salud (APS)", "fid_comunas_v1": null, "cut_reg": "8", "cut_prov": "083", "cut_com": "08314", "region": "Región Del Bíobío", "provincia": "BIOBÍO", "comuna": "ALTO BIOBÍO", "superficie": null }, "geometry": { "type": "Point", "coordinates": [ -71.67115, -37.85576 ] } },
{ "type": "Feature", "properties": { "objectid": 10267, "fid_establecimientos_de_salud": null, "código_an": "20-441", "código_vi": 120441, "código__m": " ", "código_nu": 0, "código_re": 8, "nombre_reg": "Región Del Bíobío", "código_de": 20, "nombre_dep": "Servicio de Salud Biobío", "pertenenci": "Perteneciente al Sistema Nacional de Servicios de Salud", "tipo_estab": null, "ámbito_de": "Establecimiento de Salud", "nombre_ofi": null, "certificac": "No Aplica", "dependenci": "Servicio de Salud Biobío", "nivel_de_a": "Primario", "código_co": "08314", "nombre_com": "ALTO BIOBÍO", "vía": "Calle", "número": 0, "dirección": "Caserío Los Canelos", "teléfono": 0, "fecha_inic": "38716", "tiene_serv": null, "tipo_de_ur": "No Aplica", "tipo_de_sa": null, "latitud": -37.81947, "longitud__": -71.55706, "tipo_de_pr": null, "estado_de": null, "nivel_de_c": "Primario", "modalidad": null, "simbologia": "Atención Primaria de Salud (APS)", "fid_comunas_v1": null, "cut_reg": "8", "cut_prov": "083", "cut_com": "08314", "region": "Región Del Bíobío", "provincia": "BIOBÍO", "comuna": "ALTO BIOBÍO", "superficie": null }, "geometry": { "type": "Point", "coordinates": [ -71.55706, -37.81947 ] } },
{ "type": "Feature", "properties": { "objectid": 10283, "fid_establecimientos_de_salud": null, "código_an": "20-438", "código_vi": 120438, "código__m": " ", "código_nu": 0, "código_re": 8, "nombre_reg": "Región Del Bíobío", "código_de": 20, "nombre_dep": "Servicio de Salud Biobío", "pertenenci": "Perteneciente al Sistema Nacional de Servicios de Salud", "tipo_estab": null, "ámbito_de": "Establecimiento de Salud", "nombre_ofi": null, "certificac": "No Aplica", "dependenci": "Servicio de Salud Biobío", "nivel_de_a": "Primario", "código_co": "08308", "nombre_com": "QUILACO", "vía": "Calle", "número": 0, "dirección": "Sector Piñiquihue", "teléfono": 0, "fecha_inic": "38716", "tiene_serv": null, "tipo_de_ur": "No Aplica", "tipo_de_sa": null, "latitud": -37.79993, "longitud__": -71.85917, "tipo_de_pr": null, "estado_de": null, "nivel_de_c": "Primario", "modalidad": null, "simbologia": "Atención Primaria de Salud (APS)", "fid_comunas_v1": null, "cut_reg": "8", "cut_prov": "083", "cut_com": "08308", "region": "Región Del Bíobío", "provincia": "BIOBÍO", "comuna": "QUILACO", "superficie": null }, "geometry": { "type": "Point", "coordinates": [ -71.85917, -37.79993 ] } },
{ "type": "Feature", "properties": { "objectid": 10300, "fid_establecimientos_de_salud": null, "código_an": "20-432", "código_vi": 120432, "código__m": " ", "código_nu": 0, "código_re": 8, "nombre_reg": "Región Del Bíobío", "código_de": 20, "nombre_dep": "Servicio de Salud Biobío", "pertenenci": "Perteneciente al Sistema Nacional de Servicios de Salud", "tipo_estab": null, "ámbito_de": "Establecimiento de Salud", "nombre_ofi": null, "certificac": "No Aplica", "dependenci": "Servicio de Salud Biobío", "nivel_de_a": "Primario", "código_co": "08308", "nombre_com": "QUILACO", "vía": "Calle", "número": 0, "dirección": "Caserío de Loncopangue", "teléfono": 0, "fecha_inic": "38716", "tiene_serv": null, "tipo_de_ur": "No Aplica", "tipo_de_sa": null, "latitud": -37.77972, "longitud__": -71.75583, "tipo_de_pr": null, "estado_de": null, "nivel_de_c": "Primario", "modalidad": null, "simbologia": "Atención Primaria de Salud (APS)", "fid_comunas_v1": null, "cut_reg": "8", "cut_prov": "083", "cut_com": "08308", "region": "Región Del Bíobío", "provincia": "BIOBÍO", "comuna": "QUILACO", "superficie": null }, "geometry": { "type": "Point", "coordinates": [ -71.75583, -37.77972 ] } },
{ "type": "Feature", "properties": { "objectid": 10303, "fid_establecimientos_de_salud": null, "código_an": "20-471", "código_vi": 120471, "código__m": " ", "código_nu": 0, "código_re": 8, "nombre_reg": "Región Del Bíobío", "código_de": 20, "nombre_dep": "Servicio de Salud Biobío", "pertenenci": "Perteneciente al Sistema Nacional de Servicios de Salud", "tipo_estab": null, "ámbito_de": "Establecimiento de Salud", "nombre_ofi": null, "certificac": "No Aplica", "dependenci": "Servicio de Salud Biobío", "nivel_de_a": "Primario", "código_co": "08314", "nombre_com": "ALTO BIOBÍO", "vía": "Calle", "número": 0, "dirección": "Sector Butalelbum", "teléfono": 0, "fecha_inic": "38716", "tiene_serv": null, "tipo_de_ur": "No Aplica", "tipo_de_sa": null, "latitud": -37.753, "longitud__": -71.21514, "tipo_de_pr": null, "estado_de": null, "nivel_de_c": "Primario", "modalidad": null, "simbologia": "Atención Primaria de Salud (APS)", "fid_comunas_v1": null, "cut_reg": "8", "cut_prov": "083", "cut_com": "08314", "region": "Región Del Bíobío", "provincia": "BIOBÍO", "comuna": "ALTO BIOBÍO", "superficie": null }, "geometry": { "type": "Point", "coordinates": [ -71.21514, -37.753 ] } },
{ "type": "Feature", "properties": { "objectid": 10308, "fid_establecimientos_de_salud": null, "código_an": "20-464", "código_vi": 120464, "código__m": " ", "código_nu": 0, "código_re": 8, "nombre_reg": "Región Del Bíobío", "código_de": 20, "nombre_dep": "Servicio de Salud Biobío", "pertenenci": "Perteneciente al Sistema Nacional de Servicios de Salud", "tipo_estab": null, "ámbito_de": "Establecimiento de Salud", "nombre_ofi": null, "certificac": "No Aplica", "dependenci": "Servicio de Salud Biobío", "nivel_de_a": "Primario", "código_co": "08314", "nombre_com": "ALTO BIOBÍO", "vía": "Calle", "número": 0, "dirección": "Sector Cauñicú", "teléfono": 0, "fecha_inic": "38716", "tiene_serv": null, "tipo_de_ur": "No Aplica", "tipo_de_sa": null, "latitud": -37.71329, "longitud__": -71.48377, "tipo_de_pr": null, "estado_de": null, "nivel_de_c": "Primario", "modalidad": null, "simbologia": "Atención Primaria de Salud (APS)", "fid_comunas_v1": null, "cut_reg": "8", "cut_prov": "083", "cut_com": "08314", "region": "Región Del Bíobío", "provincia": "BIOBÍO", "comuna": "ALTO BIOBÍO", "superficie": null }, "geometry": { "type": "Point", "coordinates": [ -71.48377, -37.71329 ] } },
{ "type": "Feature", "properties": { "objectid": 10309, "fid_establecimientos_de_salud": null, "código_an": "20-431", "código_vi": 120431, "código__m": " ", "código_nu": 0, "código_re": 8, "nombre_reg": "Región Del Bíobío", "código_de": 20, "nombre_dep": "Servicio de Salud Biobío", "pertenenci": "Perteneciente al Sistema Nacional de Servicios de Salud", "tipo_estab": null, "ámbito_de": "Establecimiento de Salud", "nombre_ofi": null, "certificac": "No Aplica", "dependenci": "Servicio de Salud Biobío", "nivel_de_a": "Primario", "código_co": "08308", "nombre_com": "QUILACO", "vía": "Calle", "número": 0, "dirección": "Caserío de Ricalhue", "teléfono": 0, "fecha_inic": "38716", "tiene_serv": null, "tipo_de_ur": "No Aplica", "tipo_de_sa": null, "latitud": -37.71179, "longitud__": -71.90647, "tipo_de_pr": null, "estado_de": null, "nivel_de_c": "Primario", "modalidad": null, "simbologia": "Atención Primaria de Salud (APS)", "fid_comunas_v1": null, "cut_reg": "8", "cut_prov": "083", "cut_com": "08308", "region": "Región Del Bíobío", "provincia": "BIOBÍO", "comuna": "QUILACO", "superficie": null }, "geometry": { "type": "Point", "coordinates": [ -71.90647, -37.71179 ] } },
{ "type": "Feature", "properties": { "objectid": 10310, "fid_establecimientos_de_salud": null, "código_an": "20-449", "código_vi": 120449, "código__m": " ", "código_nu": 0, "código_re": 8, "nombre_reg": "Región Del Bíobío", "código_de": 20, "nombre_dep": "Servicio de Salud Biobío", "pertenenci": "Perteneciente al Sistema Nacional de Servicios de Salud", "tipo_estab": null, "ámbito_de": "Establecimiento de Salud", "nombre_ofi": null, "certificac": "No Aplica", "dependenci": "Servicio de Salud Biobío", "nivel_de_a": "Primario", "código_co": "08314", "nombre_com": "ALTO BIOBÍO", "vía": "Calle", "número": 0, "dirección": "Sector Malla Malla", "teléfono": 0, "fecha_inic": "38716", "tiene_serv": null, "tipo_de_ur": "No Aplica", "tipo_de_sa": null, "latitud": -37.71095, "longitud__": -71.34136, "tipo_de_pr": null, "estado_de": null, "nivel_de_c": "Primario", "modalidad": null, "simbologia": "Atención Primaria de Salud (APS)", "fid_comunas_v1": null, "cut_reg": "8", "cut_prov": "083", "cut_com": "08314", "region": "Región Del Bíobío", "provincia": "BIOBÍO", "comuna": "ALTO BIOBÍO", "superficie": null }, "geometry": { "type": "Point", "coordinates": [ -71.34136, -37.71095 ] } },
{ "type": "Feature", "properties": { "objectid": 10312, "fid_establecimientos_de_salud": null, "código_an": "20-445", "código_vi": 120445, "código__m": " ", "código_nu": 0, "código_re": 8, "nombre_reg": "Región Del Bíobío", "código_de": 20, "nombre_dep": "Servicio de Salud Biobío", "pertenenci": "Perteneciente al Sistema Nacional de Servicios de Salud", "tipo_estab": null, "ámbito_de": "Establecimiento de Salud", "nombre_ofi": null, "certificac": "No Aplica", "dependenci": "Servicio de Salud Biobío", "nivel_de_a": "Primario", "código_co": "08314", "nombre_com": "ALTO BIOBÍO", "vía": "Calle", "número": 0, "dirección": "Sector Trapa Trapa", "teléfono": 0, "fecha_inic": "38716", "tiene_serv": null, "tipo_de_ur": "No Aplica", "tipo_de_sa": null, "latitud": -37.71043, "longitud__": -71.26598, "tipo_de_pr": null, "estado_de": null, "nivel_de_c": "Primario", "modalidad": null, "simbologia": "Atención Primaria de Salud (APS)", "fid_comunas_v1": null, "cut_reg": "8", "cut_prov": "083", "cut_com": "08314", "region": "Región Del Bíobío", "provincia": "BIOBÍO", "comuna": "ALTO BIOBÍO", "superficie": null }, "geometry": { "type": "Point", "coordinates": [ -71.26598, -37.71043 ] } },
{ "type": "Feature", "properties": { "objectid": 10322, "fid_establecimientos_de_salud": null, "código_an": "20-469", "código_vi": 120469, "código__m": " ", "código_nu": 0, "código_re": 8, "nombre_reg": "Región Del Bíobío", "código_de": 20, "nombre_dep": "Servicio de Salud Biobío", "pertenenci": "Perteneciente al Sistema Nacional de Servicios de Salud", "tipo_estab": null, "ámbito_de": "Establecimiento de Salud", "nombre_ofi": null, "certificac": "No Aplica", "dependenci": "Servicio de Salud Biobío", "nivel_de_a": "Primario", "código_co": "08311", "nombre_com": "SANTA BÁRBARA", "vía": "Calle", "número": 0, "dirección": "Sector Los Junquillos", "teléfono": 0, "fecha_inic": "38716", "tiene_serv": null, "tipo_de_ur": "No Aplica", "tipo_de_sa": null, "latitud": -37.66194, "longitud__": -71.86417, "tipo_de_pr": null, "estado_de": null, "nivel_de_c": "Primario", "modalidad": null, "simbologia": "Atención Primaria de Salud (APS)", "fid_comunas_v1": null, "cut_reg": "8", "cut_prov": "083", "cut_com": "08311", "region": "Región Del Bíobío", "provincia": "BIOBÍO", "comuna": "SANTA BÁRBARA", "superficie": null }, "geometry": { "type": "Point", "coordinates": [ -71.86417, -37.66194 ] } },
{ "type": "Feature", "properties": { "objectid": 10325, "fid_establecimientos_de_salud": null, "código_an": "20-443", "código_vi": 120443, "código__m": " ", "código_nu": 0, "código_re": 8, "nombre_reg": "Región Del Bíobío", "código_de": 20, "nombre_dep": "Servicio de Salud Biobío", "pertenenci": "Perteneciente al Sistema Nacional de Servicios de Salud", "tipo_estab": null, "ámbito_de": "Establecimiento de Salud", "nombre_ofi": null, "certificac": "No Aplica", "dependenci": "Servicio de Salud Biobío", "nivel_de_a": "Primario", "código_co": "08311", "nombre_com": "SANTA BÁRBARA", "vía": "Calle", "número": 0, "dirección": "Sector El Huachi", "teléfono": 0, "fecha_inic": "38716", "tiene_serv": null, "tipo_de_ur": "No Aplica", "tipo_de_sa": null, "latitud": -37.640871, "longitud__": -71.772998, "tipo_de_pr": null, "estado_de": null, "nivel_de_c": "Primario", "modalidad": null, "simbologia": "Atención Primaria de Salud (APS)", "fid_comunas_v1": null, "cut_reg": "8", "cut_prov": "083", "cut_com": "08311", "region": "Región Del Bíobío", "provincia": "BIOBÍO", "comuna": "SANTA BÁRBARA", "superficie": null }, "geometry": { "type": "Point", "coordinates": [ -71.773, -37.64087 ] } }
]
}
