{
"type": "FeatureCollection",
"name": "CAY",
"crs": { "type": "name", "properties": { "name": "urn:ogc:def:crs:OGC:1.3:CRS84" } },
"xy_coordinate_resolution": 1e-05,
"features": [
{ "type": "Feature", "properties": { "objectid": 8888, "fid_establecimientos_de_salud": null, "código_an": "25-203", "código_vi": 125203, "código__m": " ", "código_nu": 0, "código_re": 11, "nombre_reg": "Aysén del General Carlos Ibáñez del Campo", "código_de": 11, "nombre_dep": "SEREMI De Aysén del General Carlos Ibáñez del Campo", "pertenenci": "No perteneciente al Sistema Nacional de Servicios de Salud", "tipo_estab": null, "ámbito_de": "Establecimiento de Salud", "nombre_ofi": null, "certificac": "No Aplica", "dependenci": "SEREMI De Aysén del General Carlos Ibáñez del Campo", "nivel_de_a": "Secundario", "código_co": "11201", "nombre_com": "AYSÉN", "vía": "Calle", "número": 270, "dirección": "O'Higgins", "teléfono": 672351129, "fecha_inic": "38716", "tiene_serv": null, "tipo_de_ur": "No Aplica", "tipo_de_sa": null, "latitud": -45.461797, "longitud__": -72.818164, "tipo_de_pr": null, "estado_de": null, "nivel_de_c": "Secundario", "modalidad": null, "simbologia": "Centros de Salud y Clínicas Privadas", "fid_comunas_v1": null, "cut_reg": "11", "cut_prov": "112", "cut_com": "11201", "region": "Aysén del General Carlos Ibáñez del Campo", "provincia": "AYSÉN", "comuna": "AYSÉN", "superficie": null }, "geometry": { "type": "Point", "coordinates": [ -72.81816, -45.4618 ] } },
{ "type": "Feature", "properties": { "objectid": 8889, "fid_establecimientos_de_salud": null, "código_an": "25-417", "código_vi": 125417, "código__m": "25-101", "código_nu": 125101, "código_re": 11, "nombre_reg": "Aysén del General Carlos Ibáñez del Campo", "código_de": 25, "nombre_dep": "Servicio de Salud Aysén", "pertenenci": "Perteneciente al Sistema Nacional de Servicios de Salud", "tipo_estab": null, "ámbito_de": "Establecimiento de Salud", "nombre_ofi": null, "certificac": "No Aplica", "dependenci": "Servicio de Salud Aysén", "nivel_de_a": "Primario", "código_co": "11201", "nombre_com": "AYSÉN", "vía": "Calle", "número": 331, "dirección": "O\"higgins, Puerto Chacabuco", "teléfono": 0, "fecha_inic": "38716", "tiene_serv": null, "tipo_de_ur": "No Aplica", "tipo_de_sa": null, "latitud": -45.461686, "longitud__": -72.816539, "tipo_de_pr": null, "estado_de": null, "nivel_de_c": "Primario", "modalidad": null, "simbologia": "Atención Primaria de Salud (APS)", "fid_comunas_v1": null, "cut_reg": "11", "cut_prov": "112", "cut_com": "11201", "region": "Aysén del General Carlos Ibáñez del Campo", "provincia": "AYSÉN", "comuna": "AYSÉN", "superficie": null }, "geometry": { "type": "Point", "coordinates": [ -72.81654, -45.46169 ] } },
{ "type": "Feature", "properties": { "objectid": 8890, "fid_establecimientos_de_salud": null, "código_an": "25-701", "código_vi": 125701, "código__m": "25-101", "código_nu": 125101, "código_re": 11, "nombre_reg": "Aysén del General Carlos Ibáñez del Campo", "código_de": 25, "nombre_dep": "Servicio de Salud Aysén", "pertenenci": "Perteneciente al Sistema Nacional de Servicios de Salud", "tipo_estab": null, "ámbito_de": "Establecimiento de Salud", "nombre_ofi": null, "certificac": "No Aplica", "dependenci": "Servicio de Salud Aysén", "nivel_de_a": "Primario", "código_co": "11201", "nombre_com": "AYSÉN", "vía": "Calle", "número": 0, "dirección": "Lago Portales", "teléfono": 672261600, "fecha_inic": "38716", "tiene_serv": null, "tipo_de_ur": "No Aplica", "tipo_de_sa": null, "latitud": -45.41131, "longitud__": -72.69291, "tipo_de_pr": null, "estado_de": null, "nivel_de_c": "Primario", "modalidad": null, "simbologia": "Atención Primaria de Salud (APS)", "fid_comunas_v1": null, "cut_reg": "11", "cut_prov": "112", "cut_com": "11201", "region": "Aysén del General Carlos Ibáñez del Campo", "provincia": "AYSÉN", "comuna": "AYSÉN", "superficie": null }, "geometry": { "type": "Point", "coordinates": [ -72.69291, -45.41131 ] } },
{ "type": "Feature", "properties": { "objectid": 8891, "fid_establecimientos_de_salud": null, "código_an": "25-101", "código_vi": 125101, "código__m": " ", "código_nu": 0, "código_re": 11, "nombre_reg": "Aysén del General Carlos Ibáñez del Campo", "código_de": 25, "nombre_dep": "Servicio de Salud Aysén", "pertenenci": "Perteneciente al Sistema Nacional de Servicios de Salud", "tipo_estab": null, "ámbito_de": "Establecimiento de Salud", "nombre_ofi": null, "certificac": "No Aplica", "dependenci": "Servicio de Salud Aysén", "nivel_de_a": "Terciario", "código_co": "11201", "nombre_com": "AYSÉN", "vía": "Calle", "número": 180, "dirección": "Yussef Laibe", "teléfono": 672262830, "fecha_inic": "30317", "tiene_serv": null, "tipo_de_ur": "Urgencia Hospitalaria (UEH)", "tipo_de_sa": null, "latitud": -45.408518, "longitud__": -72.683815, "tipo_de_pr": null, "estado_de": null, "nivel_de_c": "Terciario", "modalidad": null, "simbologia": "Hospitales y Unidades de Hospitalización", "fid_comunas_v1": null, "cut_reg": "11", "cut_prov": "112", "cut_com": "11201", "region": "Aysén del General Carlos Ibáñez del Campo", "provincia": "AYSÉN", "comuna": "AYSÉN", "superficie": null }, "geometry": { "type": "Point", "coordinates": [ -72.68381, -45.40852 ] } },
{ "type": "Feature", "properties": { "objectid": 8892, "fid_establecimientos_de_salud": null, "código_an": "25-204", "código_vi": 125204, "código__m": " ", "código_nu": 0, "código_re": 11, "nombre_reg": "Aysén del General Carlos Ibáñez del Campo", "código_de": 11, "nombre_dep": "SEREMI De Aysén del General Carlos Ibáñez del Campo", "pertenenci": "No perteneciente al Sistema Nacional de Servicios de Salud", "tipo_estab": null, "ámbito_de": "Establecimiento de Salud", "nombre_ofi": null, "certificac": "No Aplica", "dependenci": "SEREMI De Aysén del General Carlos Ibáñez del Campo", "nivel_de_a": "No Aplica", "código_co": "11201", "nombre_com": "AYSÉN", "vía": "Avenida", "número": 0, "dirección": "Circunvalación", "teléfono": 672336680, "fecha_inic": "38716", "tiene_serv": null, "tipo_de_ur": "No Aplica", "tipo_de_sa": null, "latitud": -45.407546, "longitud__": -72.684468, "tipo_de_pr": null, "estado_de": null, "nivel_de_c": "No Aplica", "modalidad": null, "simbologia": "Centros de Salud y Clínicas Privadas", "fid_comunas_v1": null, "cut_reg": "11", "cut_prov": "112", "cut_com": "11201", "region": "Aysén del General Carlos Ibáñez del Campo", "provincia": "AYSÉN", "comuna": "AYSÉN", "superficie": null }, "geometry": { "type": "Point", "coordinates": [ -72.68447, -45.40755 ] } },
{ "type": "Feature", "properties": { "objectid": 8893, "fid_establecimientos_de_salud": null, "código_an": "25-905", "código_vi": 200380, "código__m": " ", "código_nu": 0, "código_re": 11, "nombre_reg": "Aysén del General Carlos Ibáñez del Campo", "código_de": 25, "nombre_dep": "Servicio de Salud Aysén", "pertenenci": "Perteneciente al Sistema Nacional de Servicios de Salud", "tipo_estab": null, "ámbito_de": "Establecimiento de Salud", "nombre_ofi": null, "certificac": "Centro de Salud Familiar", "dependenci": "Servicio de Salud Aysén", "nivel_de_a": "Primario", "código_co": "11201", "nombre_com": "AYSÉN", "vía": "Calle", "número": 1035, "dirección": "Eleuterio Ramirez", "teléfono": 672261151, "fecha_inic": "43024", "tiene_serv": null, "tipo_de_ur": "No Aplica", "tipo_de_sa": null, "latitud": -45.405278, "longitud__": -72.702222, "tipo_de_pr": null, "estado_de": null, "nivel_de_c": "Primario", "modalidad": null, "simbologia": "Atención Primaria de Salud (APS)", "fid_comunas_v1": null, "cut_reg": "11", "cut_prov": "112", "cut_com": "11201", "region": "Aysén del General Carlos Ibáñez del Campo", "provincia": "AYSÉN", "comuna": "AYSÉN", "superficie": null }, "geometry": { "type": "Point", "coordinates": [ -72.70222, -45.40528 ] } },
{ "type": "Feature", "properties": { "objectid": 8897, "fid_establecimientos_de_salud": null, "código_an": "25-402", "código_vi": 125402, "código__m": " ", "código_nu": 0, "código_re": 11, "nombre_reg": "Aysén del General Carlos Ibáñez del Campo", "código_de": 25, "nombre_dep": "Servicio de Salud Aysén", "pertenenci": "Perteneciente al Sistema Nacional de Servicios de Salud", "tipo_estab": null, "ámbito_de": "Establecimiento de Salud", "nombre_ofi": null, "certificac": "No Aplica", "dependenci": "Servicio de Salud Aysén", "nivel_de_a": "Primario", "código_co": "11201", "nombre_com": "AYSÉN", "vía": "Calle", "número": 0, "dirección": "Aldea de Puerto Aguirre", "teléfono": 0, "fecha_inic": "38716", "tiene_serv": null, "tipo_de_ur": "No Aplica", "tipo_de_sa": null, "latitud": -45.16343, "longitud__": -73.52313, "tipo_de_pr": null, "estado_de": null, "nivel_de_c": "Primario", "modalidad": null, "simbologia": "Atención Primaria de Salud (APS)", "fid_comunas_v1": null, "cut_reg": "11", "cut_prov": "112", "cut_com": "11201", "region": "Aysén del General Carlos Ibáñez del Campo", "provincia": "AYSÉN", "comuna": "AYSÉN", "superficie": null }, "geometry": { "type": "Point", "coordinates": [ -73.52313, -45.16343 ] } },
{ "type": "Feature", "properties": { "objectid": 8898, "fid_establecimientos_de_salud": null, "código_an": "25-403", "código_vi": 125403, "código__m": " ", "código_nu": 0, "código_re": 11, "nombre_reg": "Aysén del General Carlos Ibáñez del Campo", "código_de": 25, "nombre_dep": "Servicio de Salud Aysén", "pertenenci": "Perteneciente al Sistema Nacional de Servicios de Salud", "tipo_estab": null, "ámbito_de": "Establecimiento de Salud", "nombre_ofi": null, "certificac": "No Aplica", "dependenci": "Servicio de Salud Aysén", "nivel_de_a": "Primario", "código_co": "11201", "nombre_com": "AYSÉN", "vía": "Calle", "número": 0, "dirección": "Aldea de Caleta Andrade", "teléfono": 0, "fecha_inic": "38716", "tiene_serv": null, "tipo_de_ur": "No Aplica", "tipo_de_sa": null, "latitud": -45.15335, "longitud__": -73.51016, "tipo_de_pr": null, "estado_de": null, "nivel_de_c": "Primario", "modalidad": null, "simbologia": "Atención Primaria de Salud (APS)", "fid_comunas_v1": null, "cut_reg": "11", "cut_prov": "112", "cut_com": "11201", "region": "Aysén del General Carlos Ibáñez del Campo", "provincia": "AYSÉN", "comuna": "AYSÉN", "superficie": null }, "geometry": { "type": "Point", "coordinates": [ -73.51016, -45.15335 ] } },
{ "type": "Feature", "properties": { "objectid": 8901, "fid_establecimientos_de_salud": null, "código_an": "25-104", "código_vi": 125104, "código__m": " ", "código_nu": 0, "código_re": 11, "nombre_reg": "Aysén del General Carlos Ibáñez del Campo", "código_de": 25, "nombre_dep": "Servicio de Salud Aysén", "pertenenci": "Perteneciente al Sistema Nacional de Servicios de Salud", "tipo_estab": null, "ámbito_de": "Establecimiento de Salud", "nombre_ofi": null, "certificac": "No Aplica", "dependenci": "Servicio de Salud Aysén", "nivel_de_a": "Pendiente", "código_co": "11202", "nombre_com": "CISNES", "vía": "Calle", "número": 869, "dirección": "Rafael Sotomayor", "teléfono": 672261302, "fecha_inic": "38716", "tiene_serv": null, "tipo_de_ur": "Urgencia Hospitalaria (UEH)", "tipo_de_sa": null, "latitud": -44.72603, "longitud__": -72.68078, "tipo_de_pr": null, "estado_de": null, "nivel_de_c": "Pendiente", "modalidad": null, "simbologia": "Hospitales y Unidades de Hospitalización", "fid_comunas_v1": null, "cut_reg": "11", "cut_prov": "112", "cut_com": "11202", "region": "Aysén del General Carlos Ibáñez del Campo", "provincia": "AYSÉN", "comuna": "CISNES", "superficie": null }, "geometry": { "type": "Point", "coordinates": [ -72.68078, -44.72603 ] } },
{ "type": "Feature", "properties": { "objectid": 13830, "fid_establecimientos_de_salud": null, "código_an": "202081", "código_vi": 202081, "código__m": "25-101", "código_nu": 125101, "código_re": 11, "nombre_reg": "Aysén del General Carlos Ibáñez del Campo", "código_de": 25, "nombre_dep": "Servicio de Salud Aysén", "pertenenci": "Perteneciente al Sistema Nacional de Servicios de Salud", "tipo_estab": null, "ámbito_de": "Establecimiento de Salud", "nombre_ofi": null, "certificac": "No Aplica", "dependenci": "Servicio de Salud Aysén", "nivel_de_a": "Secundario", "código_co": "11201", "nombre_com": "Aisén", "vía": "Calle", "número": 571, "dirección": "Bernardo Ohiggins 571", "teléfono": 0, "fecha_inic": "45826", "tiene_serv": null, "tipo_de_ur": "No Aplica", "tipo_de_sa": null, "latitud": -45.405916, "longitud__": -72.697322, "tipo_de_pr": null, "estado_de": null, "nivel_de_c": "Secundario", "modalidad": null, "simbologia": "Centros Especializados y de Diagnóstico", "fid_comunas_v1": null, "cut_reg": "11", "cut_prov": "112", "cut_com": "11201", "region": "Aysén del General Carlos Ibáñez del Campo", "provincia": "AYSÉN", "comuna": "Aisén", "superficie": null }, "geometry": { "type": "Point", "coordinates": [ -72.69732, -45.40592 ] } }
]
}
