{
"type": "FeatureCollection",
"name": "CLV",
"crs": { "type": "name", "properties": { "name": "urn:ogc:def:crs:OGC:1.3:CRS84" } },
"xy_coordinate_resolution": 1e-05,
"features": [
{ "type": "Feature", "properties": { "objectid": 9251, "fid_establecimientos_de_salud": null, "código_an": "23-406", "código_vi": 123406, "código__m": " ", "código_nu": 0, "código_re": 10, "nombre_reg": "Los Lagos", "código_de": 23, "nombre_dep": "Servicio de Salud Osorno", "pertenenci": "Perteneciente al Sistema Nacional de Servicios de Salud", "tipo_estab": null, "ámbito_de": "Establecimiento de Salud", "nombre_ofi": null, "certificac": "No Aplica", "dependenci": "Servicio de Salud Osorno", "nivel_de_a": "Primario", "código_co": "10304", "nombre_com": "PUYEHUE", "vía": "Calle", "número": 0, "dirección": "Sector Puyehue", "teléfono": 0, "fecha_inic": "38716", "tiene_serv": null, "tipo_de_ur": "No Aplica", "tipo_de_sa": null, "latitud": -40.696344, "longitud__": -72.335555, "tipo_de_pr": null, "estado_de": null, "nivel_de_c": "Primario", "modalidad": null, "simbologia": "Atención Primaria de Salud (APS)", "fid_comunas_v1": null, "cut_reg": "10", "cut_prov": "103", "cut_com": "10304", "region": "Los Lagos", "provincia": "OSORNO", "comuna": "PUYEHUE", "superficie": null }, "geometry": { "type": "Point", "coordinates": [ -72.33555, -40.69634 ] } },
{ "type": "Feature", "properties": { "objectid": 9256, "fid_establecimientos_de_salud": null, "código_an": "22-455", "código_vi": 122455, "código__m": " ", "código_nu": 0, "código_re": 14, "nombre_reg": "Los Ríos", "código_de": 22, "nombre_dep": "Servicio de Salud Los Rios", "pertenenci": "Perteneciente al Sistema Nacional de Servicios de Salud", "tipo_estab": null, "ámbito_de": "Establecimiento de Salud", "nombre_ofi": null, "certificac": "No Aplica", "dependenci": "Servicio de Salud Los Rios", "nivel_de_a": "Primario", "código_co": "14204", "nombre_com": "RÍO BUENO", "vía": "Calle", "número": 0, "dirección": "Sector Mantilhue", "teléfono": 0, "fecha_inic": "38716", "tiene_serv": null, "tipo_de_ur": "No Aplica", "tipo_de_sa": null, "latitud": -40.620541, "longitud__": -72.490048, "tipo_de_pr": null, "estado_de": null, "nivel_de_c": "Primario", "modalidad": null, "simbologia": "Atención Primaria de Salud (APS)", "fid_comunas_v1": null, "cut_reg": "14", "cut_prov": "142", "cut_com": "14204", "region": "Los Ríos", "provincia": "RANCO", "comuna": "RÍO BUENO", "superficie": null }, "geometry": { "type": "Point", "coordinates": [ -72.49005, -40.62054 ] } },
{ "type": "Feature", "properties": { "objectid": 9314, "fid_establecimientos_de_salud": null, "código_an": "22-435", "código_vi": 122435, "código__m": " ", "código_nu": 0, "código_re": 14, "nombre_reg": "Los Ríos", "código_de": 22, "nombre_dep": "Servicio de Salud Los Rios", "pertenenci": "Perteneciente al Sistema Nacional de Servicios de Salud", "tipo_estab": null, "ámbito_de": "Establecimiento de Salud", "nombre_ofi": null, "certificac": "No Aplica", "dependenci": "Servicio de Salud Los Rios", "nivel_de_a": "Primario", "código_co": "14204", "nombre_com": "RÍO BUENO", "vía": "Calle", "número": 0, "dirección": "Aldea de Vivanco", "teléfono": 0, "fecha_inic": "38716", "tiene_serv": null, "tipo_de_ur": "No Aplica", "tipo_de_sa": null, "latitud": -40.37395, "longitud__": -72.61872, "tipo_de_pr": null, "estado_de": null, "nivel_de_c": "Primario", "modalidad": null, "simbologia": "Atención Primaria de Salud (APS)", "fid_comunas_v1": null, "cut_reg": "14", "cut_prov": "142", "cut_com": "14204", "region": "Los Ríos", "provincia": "RANCO", "comuna": "RÍO BUENO", "superficie": null }, "geometry": { "type": "Point", "coordinates": [ -72.61872, -40.37395 ] } },
{ "type": "Feature", "properties": { "objectid": 9316, "fid_establecimientos_de_salud": null, "código_an": "22-460", "código_vi": 122460, "código__m": " ", "código_nu": 0, "código_re": 14, "nombre_reg": "Los Ríos", "código_de": 22, "nombre_dep": "Servicio de Salud Los Rios", "pertenenci": "Perteneciente al Sistema Nacional de Servicios de Salud", "tipo_estab": null, "ámbito_de": "Establecimiento de Salud", "nombre_ofi": null, "certificac": "No Aplica", "dependenci": "Servicio de Salud Los Rios", "nivel_de_a": "Primario", "código_co": "14203", "nombre_com": "LAGO RANCO", "vía": "Calle", "número": 0, "dirección": "Sector Polcura", "teléfono": 0, "fecha_inic": "38716", "tiene_serv": null, "tipo_de_ur": "No Aplica", "tipo_de_sa": null, "latitud": -40.34034, "longitud__": -72.10343, "tipo_de_pr": null, "estado_de": null, "nivel_de_c": "Primario", "modalidad": null, "simbologia": "Atención Primaria de Salud (APS)", "fid_comunas_v1": null, "cut_reg": "14", "cut_prov": "142", "cut_com": "14203", "region": "Los Ríos", "provincia": "RANCO", "comuna": "LAGO RANCO", "superficie": null }, "geometry": { "type": "Point", "coordinates": [ -72.10343, -40.34034 ] } },
{ "type": "Feature", "properties": { "objectid": 9324, "fid_establecimientos_de_salud": null, "código_an": "22-450", "código_vi": 122450, "código__m": "22-306", "código_nu": 122306, "código_re": 14, "nombre_reg": "Los Ríos", "código_de": 22, "nombre_dep": "Servicio de Salud Los Rios", "pertenenci": "Perteneciente al Sistema Nacional de Servicios de Salud", "tipo_estab": null, "ámbito_de": "Establecimiento de Salud", "nombre_ofi": null, "certificac": "No Aplica", "dependenci": "Servicio de Salud Los Rios", "nivel_de_a": "Primario", "código_co": "14203", "nombre_com": "LAGO RANCO", "vía": "Calle", "número": 0, "dirección": "Ruta T-85, Localidad de Riñinahue", "teléfono": 0, "fecha_inic": "38716", "tiene_serv": null, "tipo_de_ur": "No Aplica", "tipo_de_sa": null, "latitud": -40.322263, "longitud__": -72.213426, "tipo_de_pr": null, "estado_de": null, "nivel_de_c": "Primario", "modalidad": null, "simbologia": "Atención Primaria de Salud (APS)", "fid_comunas_v1": null, "cut_reg": "14", "cut_prov": "142", "cut_com": "14203", "region": "Los Ríos", "provincia": "RANCO", "comuna": "LAGO RANCO", "superficie": null }, "geometry": { "type": "Point", "coordinates": [ -72.21343, -40.32226 ] } },
{ "type": "Feature", "properties": { "objectid": 9325, "fid_establecimientos_de_salud": null, "código_an": "22-901", "código_vi": 200164, "código__m": "22-306", "código_nu": 122306, "código_re": 14, "nombre_reg": "Los Ríos", "código_de": 22, "nombre_dep": "Servicio de Salud Los Rios", "pertenenci": "Perteneciente al Sistema Nacional de Servicios de Salud", "tipo_estab": null, "ámbito_de": "Establecimiento de Salud", "nombre_ofi": null, "certificac": "No Aplica", "dependenci": "Servicio de Salud Los Rios", "nivel_de_a": "Primario", "código_co": "14203", "nombre_com": "LAGO RANCO", "vía": "Calle", "número": 662, "dirección": "Concepción", "teléfono": 632491504, "fecha_inic": "38716", "tiene_serv": null, "tipo_de_ur": "Urgencia Ambulatoria (SAPU)", "tipo_de_sa": null, "latitud": -40.32203, "longitud__": -72.471707, "tipo_de_pr": null, "estado_de": null, "nivel_de_c": "Primario", "modalidad": null, "simbologia": "Servicios de Urgencia de Atención Primaria", "fid_comunas_v1": null, "cut_reg": "14", "cut_prov": "142", "cut_com": "14203", "region": "Los Ríos", "provincia": "RANCO", "comuna": "LAGO RANCO", "superficie": null }, "geometry": { "type": "Point", "coordinates": [ -72.47171, -40.32203 ] } },
{ "type": "Feature", "properties": { "objectid": 9326, "fid_establecimientos_de_salud": null, "código_an": "22-306", "código_vi": 122306, "código__m": " ", "código_nu": 0, "código_re": 14, "nombre_reg": "Los Ríos", "código_de": 22, "nombre_dep": "Servicio de Salud Los Rios", "pertenenci": "Perteneciente al Sistema Nacional de Servicios de Salud", "tipo_estab": null, "ámbito_de": "Establecimiento de Salud", "nombre_ofi": null, "certificac": "Centro de Salud Familiar", "dependenci": "Servicio de Salud Los Rios", "nivel_de_a": "Primario", "código_co": "14203", "nombre_com": "LAGO RANCO", "vía": "Calle", "número": 655, "dirección": "Concepción", "teléfono": 632491505, "fecha_inic": "38716", "tiene_serv": null, "tipo_de_ur": "No Aplica", "tipo_de_sa": null, "latitud": -40.32184, "longitud__": -72.47154, "tipo_de_pr": null, "estado_de": null, "nivel_de_c": "Primario", "modalidad": null, "simbologia": "Atención Primaria de Salud (APS)", "fid_comunas_v1": null, "cut_reg": "14", "cut_prov": "142", "cut_com": "14203", "region": "Los Ríos", "provincia": "RANCO", "comuna": "LAGO RANCO", "superficie": null }, "geometry": { "type": "Point", "coordinates": [ -72.47154, -40.32184 ] } },
{ "type": "Feature", "properties": { "objectid": 9329, "fid_establecimientos_de_salud": null, "código_an": "22-461", "código_vi": 122461, "código__m": " ", "código_nu": 0, "código_re": 14, "nombre_reg": "Los Ríos", "código_de": 22, "nombre_dep": "Servicio de Salud Los Rios", "pertenenci": "Perteneciente al Sistema Nacional de Servicios de Salud", "tipo_estab": null, "ámbito_de": "Establecimiento de Salud", "nombre_ofi": null, "certificac": "No Aplica", "dependenci": "Servicio de Salud Los Rios", "nivel_de_a": "Primario", "código_co": "14203", "nombre_com": "LAGO RANCO", "vía": "Calle", "número": 0, "dirección": "Sector Rupumeica", "teléfono": 0, "fecha_inic": "38716", "tiene_serv": null, "tipo_de_ur": "No Aplica", "tipo_de_sa": null, "latitud": -40.319279, "longitud__": -71.961554, "tipo_de_pr": null, "estado_de": null, "nivel_de_c": "Primario", "modalidad": null, "simbologia": "Atención Primaria de Salud (APS)", "fid_comunas_v1": null, "cut_reg": "14", "cut_prov": "142", "cut_com": "14203", "region": "Los Ríos", "provincia": "RANCO", "comuna": "LAGO RANCO", "superficie": null }, "geometry": { "type": "Point", "coordinates": [ -71.96155, -40.31928 ] } },
{ "type": "Feature", "properties": { "objectid": 9347, "fid_establecimientos_de_salud": null, "código_an": "22-448", "código_vi": 122448, "código__m": " ", "código_nu": 0, "código_re": 14, "nombre_reg": "Los Ríos", "código_de": 22, "nombre_dep": "Servicio de Salud Los Rios", "pertenenci": "Perteneciente al Sistema Nacional de Servicios de Salud", "tipo_estab": null, "ámbito_de": "Establecimiento de Salud", "nombre_ofi": null, "certificac": "No Aplica", "dependenci": "Servicio de Salud Los Rios", "nivel_de_a": "Primario", "código_co": "14203", "nombre_com": "LAGO RANCO", "vía": "Calle", "número": 0, "dirección": "Sector Pitriuco", "teléfono": 0, "fecha_inic": "38716", "tiene_serv": null, "tipo_de_ur": "No Aplica", "tipo_de_sa": null, "latitud": -40.27991, "longitud__": -72.61971, "tipo_de_pr": null, "estado_de": null, "nivel_de_c": "Primario", "modalidad": null, "simbologia": "Atención Primaria de Salud (APS)", "fid_comunas_v1": null, "cut_reg": "14", "cut_prov": "142", "cut_com": "14203", "region": "Los Ríos", "provincia": "RANCO", "comuna": "LAGO RANCO", "superficie": null }, "geometry": { "type": "Point", "coordinates": [ -72.61971, -40.27991 ] } },
{ "type": "Feature", "properties": { "objectid": 9349, "fid_establecimientos_de_salud": null, "código_an": "22-449", "código_vi": 122449, "código__m": " ", "código_nu": 0, "código_re": 14, "nombre_reg": "Los Ríos", "código_de": 22, "nombre_dep": "Servicio de Salud Los Rios", "pertenenci": "Perteneciente al Sistema Nacional de Servicios de Salud", "tipo_estab": null, "ámbito_de": "Establecimiento de Salud", "nombre_ofi": null, "certificac": "No Aplica", "dependenci": "Servicio de Salud Los Rios", "nivel_de_a": "Primario", "código_co": "14203", "nombre_com": "LAGO RANCO", "vía": "Calle", "número": 0, "dirección": "Sector Illahupe", "teléfono": 0, "fecha_inic": "38716", "tiene_serv": null, "tipo_de_ur": "No Aplica", "tipo_de_sa": null, "latitud": -40.271142, "longitud__": -72.311919, "tipo_de_pr": null, "estado_de": null, "nivel_de_c": "Primario", "modalidad": null, "simbologia": "Atención Primaria de Salud (APS)", "fid_comunas_v1": null, "cut_reg": "14", "cut_prov": "142", "cut_com": "14203", "region": "Los Ríos", "provincia": "RANCO", "comuna": "LAGO RANCO", "superficie": null }, "geometry": { "type": "Point", "coordinates": [ -72.31192, -40.27114 ] } },
{ "type": "Feature", "properties": { "objectid": 9350, "fid_establecimientos_de_salud": null, "código_an": "22-445", "código_vi": 122445, "código__m": " ", "código_nu": 0, "código_re": 14, "nombre_reg": "Los Ríos", "código_de": 22, "nombre_dep": "Servicio de Salud Los Rios", "pertenenci": "Perteneciente al Sistema Nacional de Servicios de Salud", "tipo_estab": null, "ámbito_de": "Establecimiento de Salud", "nombre_ofi": null, "certificac": "No Aplica", "dependenci": "Servicio de Salud Los Rios", "nivel_de_a": "Primario", "código_co": "14202", "nombre_com": "FUTRONO", "vía": "Calle", "número": 0, "dirección": "Sector Maihue", "teléfono": 0, "fecha_inic": "38716", "tiene_serv": null, "tipo_de_ur": "No Aplica", "tipo_de_sa": null, "latitud": -40.25136, "longitud__": -72.01755, "tipo_de_pr": null, "estado_de": null, "nivel_de_c": "Primario", "modalidad": null, "simbologia": "Atención Primaria de Salud (APS)", "fid_comunas_v1": null, "cut_reg": "14", "cut_prov": "142", "cut_com": "14202", "region": "Los Ríos", "provincia": "RANCO", "comuna": "FUTRONO", "superficie": null }, "geometry": { "type": "Point", "coordinates": [ -72.01755, -40.25136 ] } },
{ "type": "Feature", "properties": { "objectid": 9351, "fid_establecimientos_de_salud": null, "código_an": "22-429", "código_vi": 122429, "código__m": " ", "código_nu": 0, "código_re": 14, "nombre_reg": "Los Ríos", "código_de": 22, "nombre_dep": "Servicio de Salud Los Rios", "pertenenci": "Perteneciente al Sistema Nacional de Servicios de Salud", "tipo_estab": null, "ámbito_de": "Establecimiento de Salud", "nombre_ofi": null, "certificac": "No Aplica", "dependenci": "Servicio de Salud Los Rios", "nivel_de_a": "Primario", "código_co": "14201", "nombre_com": "LA UNIÓN", "vía": "Calle", "número": 0, "dirección": "Aldea de Puerto Nuevo", "teléfono": 0, "fecha_inic": "38716", "tiene_serv": null, "tipo_de_ur": "No Aplica", "tipo_de_sa": null, "latitud": -40.24128, "longitud__": -72.58979, "tipo_de_pr": null, "estado_de": null, "nivel_de_c": "Primario", "modalidad": null, "simbologia": "Atención Primaria de Salud (APS)", "fid_comunas_v1": null, "cut_reg": "14", "cut_prov": "142", "cut_com": "14201", "region": "Los Ríos", "provincia": "RANCO", "comuna": "LA UNIÓN", "superficie": null }, "geometry": { "type": "Point", "coordinates": [ -72.58979, -40.24128 ] } },
{ "type": "Feature", "properties": { "objectid": 9352, "fid_establecimientos_de_salud": null, "código_an": "22-458", "código_vi": 122458, "código__m": " ", "código_nu": 0, "código_re": 14, "nombre_reg": "Los Ríos", "código_de": 22, "nombre_dep": "Servicio de Salud Los Rios", "pertenenci": "Perteneciente al Sistema Nacional de Servicios de Salud", "tipo_estab": null, "ámbito_de": "Establecimiento de Salud", "nombre_ofi": null, "certificac": "No Aplica", "dependenci": "Servicio de Salud Los Rios", "nivel_de_a": "Primario", "código_co": "14203", "nombre_com": "LAGO RANCO", "vía": "Calle", "número": 0, "dirección": "Sector Calcurrupe", "teléfono": 0, "fecha_inic": "38716", "tiene_serv": null, "tipo_de_ur": "No Aplica", "tipo_de_sa": null, "latitud": -40.23517, "longitud__": -72.25226, "tipo_de_pr": null, "estado_de": null, "nivel_de_c": "Primario", "modalidad": null, "simbologia": "Atención Primaria de Salud (APS)", "fid_comunas_v1": null, "cut_reg": "14", "cut_prov": "142", "cut_com": "14203", "region": "Los Ríos", "provincia": "RANCO", "comuna": "LAGO RANCO", "superficie": null }, "geometry": { "type": "Point", "coordinates": [ -72.25226, -40.23517 ] } },
{ "type": "Feature", "properties": { "objectid": 9353, "fid_establecimientos_de_salud": null, "código_an": "22-446", "código_vi": 122446, "código__m": " ", "código_nu": 0, "código_re": 14, "nombre_reg": "Los Ríos", "código_de": 22, "nombre_dep": "Servicio de Salud Los Rios", "pertenenci": "Perteneciente al Sistema Nacional de Servicios de Salud", "tipo_estab": null, "ámbito_de": "Establecimiento de Salud", "nombre_ofi": null, "certificac": "No Aplica", "dependenci": "Servicio de Salud Los Rios", "nivel_de_a": "Primario", "código_co": "14202", "nombre_com": "FUTRONO", "vía": "Calle", "número": 0, "dirección": "Sector Huapi", "teléfono": 0, "fecha_inic": "38716", "tiene_serv": null, "tipo_de_ur": "No Aplica", "tipo_de_sa": null, "latitud": -40.214606, "longitud__": -72.382411, "tipo_de_pr": null, "estado_de": null, "nivel_de_c": "Primario", "modalidad": null, "simbologia": "Atención Primaria de Salud (APS)", "fid_comunas_v1": null, "cut_reg": "14", "cut_prov": "142", "cut_com": "14202", "region": "Los Ríos", "provincia": "RANCO", "comuna": "FUTRONO", "superficie": null }, "geometry": { "type": "Point", "coordinates": [ -72.38241, -40.21461 ] } },
{ "type": "Feature", "properties": { "objectid": 9356, "fid_establecimientos_de_salud": null, "código_an": "22-447", "código_vi": 122447, "código__m": " ", "código_nu": 0, "código_re": 14, "nombre_reg": "Los Ríos", "código_de": 22, "nombre_dep": "Servicio de Salud Los Rios", "pertenenci": "Perteneciente al Sistema Nacional de Servicios de Salud", "tipo_estab": null, "ámbito_de": "Establecimiento de Salud", "nombre_ofi": null, "certificac": "No Aplica", "dependenci": "Servicio de Salud Los Rios", "nivel_de_a": "Primario", "código_co": "14202", "nombre_com": "FUTRONO", "vía": "Calle", "número": 0, "dirección": "Pueblo de Llifén", "teléfono": 0, "fecha_inic": "38716", "tiene_serv": null, "tipo_de_ur": "No Aplica", "tipo_de_sa": null, "latitud": -40.19843, "longitud__": -72.25862, "tipo_de_pr": null, "estado_de": null, "nivel_de_c": "Primario", "modalidad": null, "simbologia": "Atención Primaria de Salud (APS)", "fid_comunas_v1": null, "cut_reg": "14", "cut_prov": "142", "cut_com": "14202", "region": "Los Ríos", "provincia": "RANCO", "comuna": "FUTRONO", "superficie": null }, "geometry": { "type": "Point", "coordinates": [ -72.25862, -40.19843 ] } },
{ "type": "Feature", "properties": { "objectid": 9357, "fid_establecimientos_de_salud": null, "código_an": "22-443", "código_vi": 122443, "código__m": " ", "código_nu": 0, "código_re": 14, "nombre_reg": "Los Ríos", "código_de": 22, "nombre_dep": "Servicio de Salud Los Rios", "pertenenci": "Perteneciente al Sistema Nacional de Servicios de Salud", "tipo_estab": null, "ámbito_de": "Establecimiento de Salud", "nombre_ofi": null, "certificac": "No Aplica", "dependenci": "Servicio de Salud Los Rios", "nivel_de_a": "Primario", "código_co": "14202", "nombre_com": "FUTRONO", "vía": "Calle", "número": 0, "dirección": "Sector Curiñanco - Niebla", "teléfono": 0, "fecha_inic": "38716", "tiene_serv": null, "tipo_de_ur": "No Aplica", "tipo_de_sa": null, "latitud": -40.195872, "longitud__": -72.042471, "tipo_de_pr": null, "estado_de": null, "nivel_de_c": "Primario", "modalidad": null, "simbologia": "Atención Primaria de Salud (APS)", "fid_comunas_v1": null, "cut_reg": "14", "cut_prov": "142", "cut_com": "14202", "region": "Los Ríos", "provincia": "RANCO", "comuna": "FUTRONO", "superficie": null }, "geometry": { "type": "Point", "coordinates": [ -72.04247, -40.19587 ] } },
{ "type": "Feature", "properties": { "objectid": 9358, "fid_establecimientos_de_salud": null, "código_an": "22-456", "código_vi": 122456, "código__m": " ", "código_nu": 0, "código_re": 14, "nombre_reg": "Los Ríos", "código_de": 22, "nombre_dep": "Servicio de Salud Los Rios", "pertenenci": "Perteneciente al Sistema Nacional de Servicios de Salud", "tipo_estab": null, "ámbito_de": "Establecimiento de Salud", "nombre_ofi": null, "certificac": "No Aplica", "dependenci": "Servicio de Salud Los Rios", "nivel_de_a": "Primario", "código_co": "14107", "nombre_com": "PAILLACO", "vía": "Calle", "número": 0, "dirección": "Caserío de Santa Rosa", "teléfono": 0, "fecha_inic": "38716", "tiene_serv": null, "tipo_de_ur": "No Aplica", "tipo_de_sa": null, "latitud": -40.16537, "longitud__": -72.592454, "tipo_de_pr": null, "estado_de": null, "nivel_de_c": "Primario", "modalidad": null, "simbologia": "Atención Primaria de Salud (APS)", "fid_comunas_v1": null, "cut_reg": "14", "cut_prov": "141", "cut_com": "14107", "region": "Los Ríos", "provincia": "VALDIVIA", "comuna": "PAILLACO", "superficie": null }, "geometry": { "type": "Point", "coordinates": [ -72.59245, -40.16537 ] } },
{ "type": "Feature", "properties": { "objectid": 9362, "fid_establecimientos_de_salud": null, "código_an": "22-305", "código_vi": 122305, "código__m": " ", "código_nu": 0, "código_re": 14, "nombre_reg": "Los Ríos", "código_de": 22, "nombre_dep": "Servicio de Salud Los Rios", "pertenenci": "Perteneciente al Sistema Nacional de Servicios de Salud", "tipo_estab": null, "ámbito_de": "Establecimiento de Salud", "nombre_ofi": null, "certificac": "Centro de Salud Familiar", "dependenci": "Servicio de Salud Los Rios", "nivel_de_a": "Primario", "código_co": "14202", "nombre_com": "FUTRONO", "vía": "Calle", "número": 0, "dirección": "Acharan Arce", "teléfono": 632264591, "fecha_inic": "37987", "tiene_serv": null, "tipo_de_ur": "No Aplica", "tipo_de_sa": null, "latitud": -40.12564, "longitud__": -72.38267, "tipo_de_pr": null, "estado_de": null, "nivel_de_c": "Primario", "modalidad": null, "simbologia": "Atención Primaria de Salud (APS)", "fid_comunas_v1": null, "cut_reg": "14", "cut_prov": "142", "cut_com": "14202", "region": "Los Ríos", "provincia": "RANCO", "comuna": "FUTRONO", "superficie": null }, "geometry": { "type": "Point", "coordinates": [ -72.38267, -40.12564 ] } },
{ "type": "Feature", "properties": { "objectid": 9363, "fid_establecimientos_de_salud": null, "código_an": "22-900", "código_vi": 200163, "código__m": "22-305", "código_nu": 122305, "código_re": 14, "nombre_reg": "Los Ríos", "código_de": 22, "nombre_dep": "Servicio de Salud Los Rios", "pertenenci": "Perteneciente al Sistema Nacional de Servicios de Salud", "tipo_estab": null, "ámbito_de": "Establecimiento de Salud", "nombre_ofi": null, "certificac": "No Aplica", "dependenci": "Servicio de Salud Los Rios", "nivel_de_a": "Primario", "código_co": "14202", "nombre_com": "FUTRONO", "vía": "Calle", "número": 305, "dirección": "German Riesco", "teléfono": 632481079, "fecha_inic": "38716", "tiene_serv": null, "tipo_de_ur": "Urgencia Ambulatoria (SAPU)", "tipo_de_sa": null, "latitud": -40.125493, "longitud__": -72.382859, "tipo_de_pr": null, "estado_de": null, "nivel_de_c": "Primario", "modalidad": null, "simbologia": "Servicios de Urgencia de Atención Primaria", "fid_comunas_v1": null, "cut_reg": "14", "cut_prov": "142", "cut_com": "14202", "region": "Los Ríos", "provincia": "RANCO", "comuna": "FUTRONO", "superficie": null }, "geometry": { "type": "Point", "coordinates": [ -72.38286, -40.12549 ] } },
{ "type": "Feature", "properties": { "objectid": 9370, "fid_establecimientos_de_salud": null, "código_an": "22-426", "código_vi": 122426, "código__m": " ", "código_nu": 0, "código_re": 14, "nombre_reg": "Los Ríos", "código_de": 22, "nombre_dep": "Servicio de Salud Los Rios", "pertenenci": "Perteneciente al Sistema Nacional de Servicios de Salud", "tipo_estab": null, "ámbito_de": "Establecimiento de Salud", "nombre_ofi": null, "certificac": "No Aplica", "dependenci": "Servicio de Salud Los Rios", "nivel_de_a": "Primario", "código_co": "14108", "nombre_com": "PANGUIPULLI", "vía": "Calle", "número": 0, "dirección": "Caserío de Pirihueico", "teléfono": 0, "fecha_inic": "38716", "tiene_serv": null, "tipo_de_ur": "No Aplica", "tipo_de_sa": null, "latitud": -40.087675, "longitud__": -71.700596, "tipo_de_pr": null, "estado_de": null, "nivel_de_c": "Primario", "modalidad": null, "simbologia": "Atención Primaria de Salud (APS)", "fid_comunas_v1": null, "cut_reg": "14", "cut_prov": "141", "cut_com": "14108", "region": "Los Ríos", "provincia": "VALDIVIA", "comuna": "PANGUIPULLI", "superficie": null }, "geometry": { "type": "Point", "coordinates": [ -71.7006, -40.08767 ] } },
{ "type": "Feature", "properties": { "objectid": 13819, "fid_establecimientos_de_salud": null, "código_an": "202064", "código_vi": 202064, "código__m": " ", "código_nu": 0, "código_re": 14, "nombre_reg": "Los Ríos", "código_de": 22, "nombre_dep": "Servicio de Salud Los Rios", "pertenenci": "Perteneciente al Sistema Nacional de Servicios de Salud", "tipo_estab": null, "ámbito_de": "Establecimiento de Salud", "nombre_ofi": null, "certificac": "No Aplica", "dependenci": "Servicio de Salud Los Rios", "nivel_de_a": "Primario", "código_co": "14108", "nombre_com": "Panguipulli", "vía": "Otro", "número": 0, "dirección": "PIREHUEICO S/N", "teléfono": 0, "fecha_inic": "45658", "tiene_serv": null, "tipo_de_ur": "Urgencia Ambulatoria (SUR)", "tipo_de_sa": null, "latitud": -40.087675, "longitud__": -71.700596, "tipo_de_pr": null, "estado_de": null, "nivel_de_c": "Primario", "modalidad": null, "simbologia": "Servicios de Urgencia de Atención Primaria", "fid_comunas_v1": null, "cut_reg": "14", "cut_prov": "141", "cut_com": "14108", "region": "Los Ríos", "provincia": "VALDIVIA", "comuna": "Panguipulli", "superficie": null }, "geometry": { "type": "Point", "coordinates": [ -71.7006, -40.08767 ] } },
{ "type": "Feature", "properties": { "objectid": 13878, "fid_establecimientos_de_salud": null, "código_an": "202132", "código_vi": 202132, "código__m": " ", "código_nu": 0, "código_re": 14, "nombre_reg": "Los Ríos", "código_de": 22, "nombre_dep": "Servicio de Salud Los Rios", "pertenenci": "Perteneciente al Sistema Nacional de Servicios de Salud", "tipo_estab": null, "ámbito_de": "Establecimiento de Salud", "nombre_ofi": null, "certificac": "No Aplica", "dependenci": "Servicio de Salud Los Rios", "nivel_de_a": "Primario", "código_co": "14107", "nombre_com": "Paillaco", "vía": "Otro", "número": 0, "dirección": "SECTOR SANTA ROSA S/N", "teléfono": 632264517, "fecha_inic": "45658", "tiene_serv": null, "tipo_de_ur": "Urgencia Ambulatoria (SUR)", "tipo_de_sa": null, "latitud": -40.16537, "longitud__": -72.592454, "tipo_de_pr": null, "estado_de": null, "nivel_de_c": "Primario", "modalidad": null, "simbologia": "Servicios de Urgencia de Atención Primaria", "fid_comunas_v1": null, "cut_reg": "14", "cut_prov": "141", "cut_com": "14107", "region": "Los Ríos", "provincia": "VALDIVIA", "comuna": "Paillaco", "superficie": null }, "geometry": { "type": "Point", "coordinates": [ -72.59245, -40.16537 ] } },
{ "type": "Feature", "properties": { "objectid": 13960, "fid_establecimientos_de_salud": null, "código_an": "202203", "código_vi": 202203, "código__m": " ", "código_nu": 0, "código_re": 14, "nombre_reg": "Los Ríos", "código_de": 14, "nombre_dep": "SEREMI de Los Ríos", "pertenenci": "No Perteneciente al Sistema Nacional de Servicios de Salud", "tipo_estab": null, "ámbito_de": "Establecimiento de Salud", "nombre_ofi": null, "certificac": "No Aplica", "dependenci": "SEREMI de Los Ríos", "nivel_de_a": "No Aplica", "código_co": "14202", "nombre_com": "Futrono", "vía": "Calle", "número": 56, "dirección": "Arturo Alessandri N° 56", "teléfono": 0, "fecha_inic": "45930", "tiene_serv": null, "tipo_de_ur": "No Aplica", "tipo_de_sa": null, "latitud": -40.130055, "longitud__": -72.389775, "tipo_de_pr": null, "estado_de": null, "nivel_de_c": "No Aplica", "modalidad": null, "simbologia": "Centros de Salud y Clínicas Privadas", "fid_comunas_v1": null, "cut_reg": "14", "cut_prov": "142", "cut_com": "14202", "region": "Los Ríos", "provincia": "RANCO", "comuna": "Futrono", "superficie": null }, "geometry": { "type": "Point", "coordinates": [ -72.38978, -40.13006 ] } }
]
}
