{
"type": "FeatureCollection",
"name": "COP",
"crs": { "type": "name", "properties": { "name": "urn:ogc:def:crs:OGC:1.3:CRS84" } },
"xy_coordinate_resolution": 1e-05,
"features": [
{ "type": "Feature", "properties": { "objectid": 12797, "fid_establecimientos_de_salud": null, "código_an": "201433", "código_vi": 201433, "código__m": " ", "código_nu": 0, "código_re": 3, "nombre_reg": "Atacama", "código_de": 3, "nombre_dep": "SEREMI De Atacama", "pertenenci": "No perteneciente al Sistema Nacional de Servicios de Salud", "tipo_estab": null, "ámbito_de": "Unidad de Atención", "nombre_ofi": null, "certificac": "No Aplica", "dependenci": "SEREMI De Atacama", "nivel_de_a": "No Aplica", "código_co": "03101", "nombre_com": "COPIAPÓ", "vía": "Otro", "número": 0, "dirección": "Faena La Coipa", "teléfono": 0, "fecha_inic": "39805", "tiene_serv": null, "tipo_de_ur": "No Aplica", "tipo_de_sa": null, "latitud": -26.828425, "longitud__": -69.263703, "tipo_de_pr": null, "estado_de": null, "nivel_de_c": "No Aplica", "modalidad": null, "simbologia": "Programas y Dispositivos Especiales", "fid_comunas_v1": null, "cut_reg": "3", "cut_prov": "031", "cut_com": "03101", "region": "Atacama", "provincia": "COPIAPÓ", "comuna": "COPIAPÓ", "superficie": null }, "geometry": { "type": "Point", "coordinates": [ -69.2637, -26.82842 ] } }
]
}
