{
"type": "FeatureCollection",
"name": "COR",
"crs": { "type": "name", "properties": { "name": "urn:ogc:def:crs:OGC:1.3:CRS84" } },
"xy_coordinate_resolution": 1e-05,
"features": [
{ "type": "Feature", "properties": { "objectid": 8913, "fid_establecimientos_de_salud": null, "código_an": "24-532", "código_vi": 124532, "código__m": " ", "código_nu": 0, "código_re": 10, "nombre_reg": "Los Lagos", "código_de": 24, "nombre_dep": "Servicio de Salud Del Reloncaví", "pertenenci": "Perteneciente al Sistema Nacional de Servicios de Salud", "tipo_estab": null, "ámbito_de": "Establecimiento de Salud", "nombre_ofi": null, "certificac": "No Aplica", "dependenci": "Servicio de Salud Del Reloncaví", "nivel_de_a": "Primario", "código_co": "10401", "nombre_com": "CHAITÉN", "vía": "Calle", "número": 0, "dirección": "Sector El Frío o Santa Lucía", "teléfono": 0, "fecha_inic": "38716", "tiene_serv": null, "tipo_de_ur": "No Aplica", "tipo_de_sa": null, "latitud": -43.41555, "longitud__": -72.36728, "tipo_de_pr": null, "estado_de": null, "nivel_de_c": "Primario", "modalidad": null, "simbologia": "Atención Primaria de Salud (APS)", "fid_comunas_v1": null, "cut_reg": "10", "cut_prov": "104", "cut_com": "10401", "region": "Los Lagos", "provincia": "PALENA", "comuna": "CHAITÉN", "superficie": null }, "geometry": { "type": "Point", "coordinates": [ -72.36728, -43.41555 ] } },
{ "type": "Feature", "properties": { "objectid": 8943, "fid_establecimientos_de_salud": null, "código_an": "24-976", "código_vi": 200076, "código__m": " ", "código_nu": 0, "código_re": 10, "nombre_reg": "Los Lagos", "código_de": 24, "nombre_dep": "Servicio de Salud Del Reloncaví", "pertenenci": "Perteneciente al Sistema Nacional de Servicios de Salud", "tipo_estab": null, "ámbito_de": "Establecimiento de Salud", "nombre_ofi": null, "certificac": "No Aplica", "dependenci": "Servicio de Salud Del Reloncaví", "nivel_de_a": "Pendiente", "código_co": "10401", "nombre_com": "CHAITÉN", "vía": "Calle", "número": 153, "dirección": "Ignacio Carrera Pinto", "teléfono": 652731344, "fecha_inic": "41886", "tiene_serv": null, "tipo_de_ur": "Urgencia Hospitalaria (UEH)", "tipo_de_sa": null, "latitud": -42.91862, "longitud__": -72.71026, "tipo_de_pr": null, "estado_de": null, "nivel_de_c": "Pendiente", "modalidad": null, "simbologia": "Hospitales y Unidades de Hospitalización", "fid_comunas_v1": null, "cut_reg": "10", "cut_prov": "104", "cut_com": "10401", "region": "Los Lagos", "provincia": "PALENA", "comuna": "CHAITÉN", "superficie": null }, "geometry": { "type": "Point", "coordinates": [ -72.71026, -42.91862 ] } },
{ "type": "Feature", "properties": { "objectid": 8953, "fid_establecimientos_de_salud": null, "código_an": "24-533", "código_vi": 124533, "código__m": " ", "código_nu": 0, "código_re": 10, "nombre_reg": "Los Lagos", "código_de": 24, "nombre_dep": "Servicio de Salud Del Reloncaví", "pertenenci": "Perteneciente al Sistema Nacional de Servicios de Salud", "tipo_estab": null, "ámbito_de": "Establecimiento de Salud", "nombre_ofi": null, "certificac": "No Aplica", "dependenci": "Servicio de Salud Del Reloncaví", "nivel_de_a": "Primario", "código_co": "10401", "nombre_com": "CHAITÉN", "vía": "Calle", "número": 0, "dirección": "Caserío de Chana", "teléfono": 0, "fecha_inic": "38716", "tiene_serv": null, "tipo_de_ur": "No Aplica", "tipo_de_sa": null, "latitud": -42.745111, "longitud__": -72.831228, "tipo_de_pr": null, "estado_de": null, "nivel_de_c": "Primario", "modalidad": null, "simbologia": "Atención Primaria de Salud (APS)", "fid_comunas_v1": null, "cut_reg": "10", "cut_prov": "104", "cut_com": "10401", "region": "Los Lagos", "provincia": "PALENA", "comuna": "CHAITÉN", "superficie": null }, "geometry": { "type": "Point", "coordinates": [ -72.83123, -42.74511 ] } }
]
}
