{
"type": "FeatureCollection",
"name": "GUA",
"crs": { "type": "name", "properties": { "name": "urn:ogc:def:crs:OGC:1.3:CRS84" } },
"xy_coordinate_resolution": 1e-05,
"features": [
{ "type": "Feature", "properties": { "objectid": 13217, "fid_establecimientos_de_salud": null, "código_an": "01-407", "código_vi": 101407, "código__m": " ", "código_nu": 0, "código_re": 15, "nombre_reg": "Arica y Parinacota", "código_de": 1, "nombre_dep": "Servicio de Salud Arica y Parinacota", "pertenenci": "Perteneciente al Sistema Nacional de Servicios de Salud", "tipo_estab": null, "ámbito_de": "Establecimiento de Salud", "nombre_ofi": null, "certificac": "No Aplica", "dependenci": "Servicio de Salud Arica y Parinacota", "nivel_de_a": "Primario", "código_co": "15201", "nombre_com": "PUTRE", "vía": "Calle", "número": 0, "dirección": "Caserío de Tignamar", "teléfono": 0, "fecha_inic": null, "tiene_serv": null, "tipo_de_ur": "No Aplica", "tipo_de_sa": null, "latitud": -18.58171, "longitud__": -69.4944, "tipo_de_pr": null, "estado_de": null, "nivel_de_c": "Primario", "modalidad": null, "simbologia": "Atención Primaria de Salud (APS)", "fid_comunas_v1": null, "cut_reg": "15", "cut_prov": "152", "cut_com": "15201", "region": "Arica y Parinacota", "provincia": "PARINACOTA", "comuna": "PUTRE", "superficie": null }, "geometry": { "type": "Point", "coordinates": [ -69.4944, -18.58171 ] } },
{ "type": "Feature", "properties": { "objectid": 13269, "fid_establecimientos_de_salud": null, "código_an": "01-402", "código_vi": 101402, "código__m": " ", "código_nu": 0, "código_re": 15, "nombre_reg": "Arica y Parinacota", "código_de": 1, "nombre_dep": "Servicio de Salud Arica y Parinacota", "pertenenci": "Perteneciente al Sistema Nacional de Servicios de Salud", "tipo_estab": null, "ámbito_de": "Establecimiento de Salud", "nombre_ofi": null, "certificac": "No Aplica", "dependenci": "Servicio de Salud Arica y Parinacota", "nivel_de_a": "Primario", "código_co": "15201", "nombre_com": "PUTRE", "vía": "Calle", "número": 0, "dirección": "Caserío de Belén", "teléfono": 0, "fecha_inic": null, "tiene_serv": null, "tipo_de_ur": "No Aplica", "tipo_de_sa": null, "latitud": -18.4681, "longitud__": -69.51474, "tipo_de_pr": null, "estado_de": null, "nivel_de_c": "Primario", "modalidad": null, "simbologia": "Atención Primaria de Salud (APS)", "fid_comunas_v1": null, "cut_reg": "15", "cut_prov": "152", "cut_com": "15201", "region": "Arica y Parinacota", "provincia": "PARINACOTA", "comuna": "PUTRE", "superficie": null }, "geometry": { "type": "Point", "coordinates": [ -69.51474, -18.4681 ] } }
]
}
