{
"type": "FeatureCollection",
"name": "HUE",
"crs": { "type": "name", "properties": { "name": "urn:ogc:def:crs:OGC:1.3:CRS84" } },
"xy_coordinate_resolution": 1e-05,
"features": [
{ "type": "Feature", "properties": { "objectid": 8953, "fid_establecimientos_de_salud": null, "código_an": "24-533", "código_vi": 124533, "código__m": " ", "código_nu": 0, "código_re": 10, "nombre_reg": "Los Lagos", "código_de": 24, "nombre_dep": "Servicio de Salud Del Reloncaví", "pertenenci": "Perteneciente al Sistema Nacional de Servicios de Salud", "tipo_estab": null, "ámbito_de": "Establecimiento de Salud", "nombre_ofi": null, "certificac": "No Aplica", "dependenci": "Servicio de Salud Del Reloncaví", "nivel_de_a": "Primario", "código_co": "10401", "nombre_com": "CHAITÉN", "vía": "Calle", "número": 0, "dirección": "Caserío de Chana", "teléfono": 0, "fecha_inic": "38716", "tiene_serv": null, "tipo_de_ur": "No Aplica", "tipo_de_sa": null, "latitud": -42.745111, "longitud__": -72.831228, "tipo_de_pr": null, "estado_de": null, "nivel_de_c": "Primario", "modalidad": null, "simbologia": "Atención Primaria de Salud (APS)", "fid_comunas_v1": null, "cut_reg": "10", "cut_prov": "104", "cut_com": "10401", "region": "Los Lagos", "provincia": "PALENA", "comuna": "CHAITÉN", "superficie": null }, "geometry": { "type": "Point", "coordinates": [ -72.83123, -42.74511 ] } },
{ "type": "Feature", "properties": { "objectid": 8962, "fid_establecimientos_de_salud": null, "código_an": "24-518", "código_vi": 124518, "código__m": " ", "código_nu": 0, "código_re": 10, "nombre_reg": "Los Lagos", "código_de": 24, "nombre_dep": "Servicio de Salud Del Reloncaví", "pertenenci": "Perteneciente al Sistema Nacional de Servicios de Salud", "tipo_estab": null, "ámbito_de": "Establecimiento de Salud", "nombre_ofi": null, "certificac": "No Aplica", "dependenci": "Servicio de Salud Del Reloncaví", "nivel_de_a": "Primario", "código_co": "10401", "nombre_com": "CHAITÉN", "vía": "Calle", "número": 0, "dirección": "Sector Chulín", "teléfono": 0, "fecha_inic": "38716", "tiene_serv": null, "tipo_de_ur": "No Aplica", "tipo_de_sa": null, "latitud": -42.63047, "longitud__": -73.04044, "tipo_de_pr": null, "estado_de": null, "nivel_de_c": "Primario", "modalidad": null, "simbologia": "Atención Primaria de Salud (APS)", "fid_comunas_v1": null, "cut_reg": "10", "cut_prov": "104", "cut_com": "10401", "region": "Los Lagos", "provincia": "PALENA", "comuna": "CHAITÉN", "superficie": null }, "geometry": { "type": "Point", "coordinates": [ -73.04044, -42.63047 ] } },
{ "type": "Feature", "properties": { "objectid": 8977, "fid_establecimientos_de_salud": null, "código_an": "24-550", "código_vi": 124550, "código__m": " ", "código_nu": 0, "código_re": 10, "nombre_reg": "Los Lagos", "código_de": 24, "nombre_dep": "Servicio de Salud Del Reloncaví", "pertenenci": "Perteneciente al Sistema Nacional de Servicios de Salud", "tipo_estab": null, "ámbito_de": "Establecimiento de Salud", "nombre_ofi": null, "certificac": "No Aplica", "dependenci": "Servicio de Salud Del Reloncaví", "nivel_de_a": "Primario", "código_co": "10401", "nombre_com": "CHAITÉN", "vía": "Calle", "número": 0, "dirección": "Sector Casa de Pesca", "teléfono": 0, "fecha_inic": "38716", "tiene_serv": null, "tipo_de_ur": "No Aplica", "tipo_de_sa": null, "latitud": -42.56428, "longitud__": -72.82447, "tipo_de_pr": null, "estado_de": null, "nivel_de_c": "Primario", "modalidad": null, "simbologia": "Atención Primaria de Salud (APS)", "fid_comunas_v1": null, "cut_reg": "10", "cut_prov": "104", "cut_com": "10401", "region": "Los Lagos", "provincia": "PALENA", "comuna": "CHAITÉN", "superficie": null }, "geometry": { "type": "Point", "coordinates": [ -72.82447, -42.56428 ] } },
{ "type": "Feature", "properties": { "objectid": 8982, "fid_establecimientos_de_salud": null, "código_an": "24-530", "código_vi": 124530, "código__m": " ", "código_nu": 0, "código_re": 10, "nombre_reg": "Los Lagos", "código_de": 24, "nombre_dep": "Servicio de Salud Del Reloncaví", "pertenenci": "Perteneciente al Sistema Nacional de Servicios de Salud", "tipo_estab": null, "ámbito_de": "Establecimiento de Salud", "nombre_ofi": null, "certificac": "No Aplica", "dependenci": "Servicio de Salud Del Reloncaví", "nivel_de_a": "Primario", "código_co": "10401", "nombre_com": "CHAITÉN", "vía": "Calle", "número": 0, "dirección": "Sector Chumeldén", "teléfono": 0, "fecha_inic": "38716", "tiene_serv": null, "tipo_de_ur": "No Aplica", "tipo_de_sa": null, "latitud": -42.52119, "longitud__": -72.81197, "tipo_de_pr": null, "estado_de": null, "nivel_de_c": "Primario", "modalidad": null, "simbologia": "Atención Primaria de Salud (APS)", "fid_comunas_v1": null, "cut_reg": "10", "cut_prov": "104", "cut_com": "10401", "region": "Los Lagos", "provincia": "PALENA", "comuna": "CHAITÉN", "superficie": null }, "geometry": { "type": "Point", "coordinates": [ -72.81197, -42.52119 ] } },
{ "type": "Feature", "properties": { "objectid": 9017, "fid_establecimientos_de_salud": null, "código_an": "24-519", "código_vi": 124519, "código__m": " ", "código_nu": 0, "código_re": 10, "nombre_reg": "Los Lagos", "código_de": 24, "nombre_dep": "Servicio de Salud Del Reloncaví", "pertenenci": "Perteneciente al Sistema Nacional de Servicios de Salud", "tipo_estab": null, "ámbito_de": "Establecimiento de Salud", "nombre_ofi": null, "certificac": "No Aplica", "dependenci": "Servicio de Salud Del Reloncaví", "nivel_de_a": "Primario", "código_co": "10401", "nombre_com": "CHAITÉN", "vía": "Calle", "número": 0, "dirección": "Caserío Buill", "teléfono": 0, "fecha_inic": "38716", "tiene_serv": null, "tipo_de_ur": "No Aplica", "tipo_de_sa": null, "latitud": -42.40182, "longitud__": -72.71769, "tipo_de_pr": null, "estado_de": null, "nivel_de_c": "Primario", "modalidad": null, "simbologia": "Atención Primaria de Salud (APS)", "fid_comunas_v1": null, "cut_reg": "10", "cut_prov": "104", "cut_com": "10401", "region": "Los Lagos", "provincia": "PALENA", "comuna": "CHAITÉN", "superficie": null }, "geometry": { "type": "Point", "coordinates": [ -72.71769, -42.40182 ] } },
{ "type": "Feature", "properties": { "objectid": 9019, "fid_establecimientos_de_salud": null, "código_an": "33-515", "código_vi": 133515, "código__m": " ", "código_nu": 0, "código_re": 10, "nombre_reg": "Los Lagos", "código_de": 33, "nombre_dep": "Servicio de Salud Chiloé", "pertenenci": "Perteneciente al Sistema Nacional de Servicios de Salud", "tipo_estab": null, "ámbito_de": "Establecimiento de Salud", "nombre_ofi": null, "certificac": "No Aplica", "dependenci": "Servicio de Salud Chiloé", "nivel_de_a": "Primario", "código_co": "10209", "nombre_com": "QUEMCHI", "vía": "Calle", "número": 0, "dirección": "Isla Tac", "teléfono": 993232823, "fecha_inic": "38716", "tiene_serv": null, "tipo_de_ur": "No Aplica", "tipo_de_sa": null, "latitud": -42.38676, "longitud__": -73.13622, "tipo_de_pr": null, "estado_de": null, "nivel_de_c": "Primario", "modalidad": null, "simbologia": "Atención Primaria de Salud (APS)", "fid_comunas_v1": null, "cut_reg": "10", "cut_prov": "102", "cut_com": "10209", "region": "Los Lagos", "provincia": "CHILOÉ", "comuna": "QUEMCHI", "superficie": null }, "geometry": { "type": "Point", "coordinates": [ -73.13622, -42.38676 ] } },
{ "type": "Feature", "properties": { "objectid": 9025, "fid_establecimientos_de_salud": null, "código_an": "24-731", "código_vi": 124731, "código__m": "24-531", "código_nu": 124531, "código_re": 10, "nombre_reg": "Los Lagos", "código_de": 24, "nombre_dep": "Servicio de Salud Del Reloncaví", "pertenenci": "Perteneciente al Sistema Nacional de Servicios de Salud", "tipo_estab": null, "ámbito_de": "Establecimiento de Salud", "nombre_ofi": null, "certificac": "No Aplica", "dependenci": "Servicio de Salud Del Reloncaví", "nivel_de_a": "Primario", "código_co": "10401", "nombre_com": "CHAITÉN", "vía": "Calle", "número": 0, "dirección": "Sector Ayacara", "teléfono": 0, "fecha_inic": "38716", "tiene_serv": null, "tipo_de_ur": "No Aplica", "tipo_de_sa": null, "latitud": -42.31861, "longitud__": -72.78786, "tipo_de_pr": null, "estado_de": null, "nivel_de_c": "Primario", "modalidad": null, "simbologia": "Atención Primaria de Salud (APS)", "fid_comunas_v1": null, "cut_reg": "10", "cut_prov": "104", "cut_com": "10401", "region": "Los Lagos", "provincia": "PALENA", "comuna": "CHAITÉN", "superficie": null }, "geometry": { "type": "Point", "coordinates": [ -72.78786, -42.31861 ] } },
{ "type": "Feature", "properties": { "objectid": 9029, "fid_establecimientos_de_salud": null, "código_an": "33-740", "código_vi": 133740, "código__m": "33-340", "código_nu": 133340, "código_re": 10, "nombre_reg": "Los Lagos", "código_de": 33, "nombre_dep": "Servicio de Salud Chiloé", "pertenenci": "Perteneciente al Sistema Nacional de Servicios de Salud", "tipo_estab": null, "ámbito_de": "Establecimiento de Salud", "nombre_ofi": null, "certificac": "No Aplica", "dependenci": "Servicio de Salud Chiloé", "nivel_de_a": "Primario", "código_co": "10209", "nombre_com": "QUEMCHI", "vía": "Calle", "número": 0, "dirección": "Isla Butachauques, sector Metahue", "teléfono": 0, "fecha_inic": "38716", "tiene_serv": null, "tipo_de_ur": "No Aplica", "tipo_de_sa": null, "latitud": -42.299393, "longitud__": -73.127329, "tipo_de_pr": null, "estado_de": null, "nivel_de_c": "Primario", "modalidad": null, "simbologia": "Atención Primaria de Salud (APS)", "fid_comunas_v1": null, "cut_reg": "10", "cut_prov": "102", "cut_com": "10209", "region": "Los Lagos", "provincia": "CHILOÉ", "comuna": "QUEMCHI", "superficie": null }, "geometry": { "type": "Point", "coordinates": [ -73.12733, -42.29939 ] } },
{ "type": "Feature", "properties": { "objectid": 9034, "fid_establecimientos_de_salud": null, "código_an": "24-548", "código_vi": 124548, "código__m": " ", "código_nu": 0, "código_re": 10, "nombre_reg": "Los Lagos", "código_de": 24, "nombre_dep": "Servicio de Salud Del Reloncaví", "pertenenci": "Perteneciente al Sistema Nacional de Servicios de Salud", "tipo_estab": null, "ámbito_de": "Establecimiento de Salud", "nombre_ofi": null, "certificac": "No Aplica", "dependenci": "Servicio de Salud Del Reloncaví", "nivel_de_a": "Primario", "código_co": "10401", "nombre_com": "CHAITÉN", "vía": "Calle", "número": 0, "dirección": "Sector Hueque", "teléfono": 0, "fecha_inic": "38716", "tiene_serv": null, "tipo_de_ur": "No Aplica", "tipo_de_sa": null, "latitud": -42.24919, "longitud__": -72.73722, "tipo_de_pr": null, "estado_de": null, "nivel_de_c": "Primario", "modalidad": null, "simbologia": "Atención Primaria de Salud (APS)", "fid_comunas_v1": null, "cut_reg": "10", "cut_prov": "104", "cut_com": "10401", "region": "Los Lagos", "provincia": "PALENA", "comuna": "CHAITÉN", "superficie": null }, "geometry": { "type": "Point", "coordinates": [ -72.73722, -42.24919 ] } },
{ "type": "Feature", "properties": { "objectid": 9043, "fid_establecimientos_de_salud": null, "código_an": "24-420", "código_vi": 124420, "código__m": " ", "código_nu": 0, "código_re": 10, "nombre_reg": "Los Lagos", "código_de": 24, "nombre_dep": "Servicio de Salud Del Reloncaví", "pertenenci": "Perteneciente al Sistema Nacional de Servicios de Salud", "tipo_estab": null, "ámbito_de": "Establecimiento de Salud", "nombre_ofi": null, "certificac": "No Aplica", "dependenci": "Servicio de Salud Del Reloncaví", "nivel_de_a": "Primario", "código_co": "10403", "nombre_com": "HUALAIHUÉ", "vía": "Calle", "número": 0, "dirección": "Hualaihué Puerto", "teléfono": 0, "fecha_inic": "38716", "tiene_serv": null, "tipo_de_ur": "No Aplica", "tipo_de_sa": null, "latitud": -42.02333, "longitud__": -72.68656, "tipo_de_pr": null, "estado_de": null, "nivel_de_c": "Primario", "modalidad": null, "simbologia": "Atención Primaria de Salud (APS)", "fid_comunas_v1": null, "cut_reg": "10", "cut_prov": "104", "cut_com": "10403", "region": "Los Lagos", "provincia": "PALENA", "comuna": "HUALAIHUÉ", "superficie": null }, "geometry": { "type": "Point", "coordinates": [ -72.68656, -42.02333 ] } },
{ "type": "Feature", "properties": { "objectid": 9044, "fid_establecimientos_de_salud": null, "código_an": "24-982", "código_vi": 200082, "código__m": " ", "código_nu": 0, "código_re": 10, "nombre_reg": "Los Lagos", "código_de": 24, "nombre_dep": "Servicio de Salud Del Reloncaví", "pertenenci": "Perteneciente al Sistema Nacional de Servicios de Salud", "tipo_estab": null, "ámbito_de": "Establecimiento de Salud", "nombre_ofi": null, "certificac": "No Aplica", "dependenci": "Servicio de Salud Del Reloncaví", "nivel_de_a": "Primario", "código_co": "10403", "nombre_com": "HUALAIHUÉ", "vía": "Calle", "número": 0, "dirección": "Sector Chauchil", "teléfono": 0, "fecha_inic": "41936", "tiene_serv": null, "tipo_de_ur": "No Aplica", "tipo_de_sa": null, "latitud": -41.973619, "longitud__": -72.799798, "tipo_de_pr": null, "estado_de": null, "nivel_de_c": "Primario", "modalidad": null, "simbologia": "Atención Primaria de Salud (APS)", "fid_comunas_v1": null, "cut_reg": "10", "cut_prov": "104", "cut_com": "10403", "region": "Los Lagos", "provincia": "PALENA", "comuna": "HUALAIHUÉ", "superficie": null }, "geometry": { "type": "Point", "coordinates": [ -72.7998, -41.97362 ] } },
{ "type": "Feature", "properties": { "objectid": 9046, "fid_establecimientos_de_salud": null, "código_an": "24-380", "código_vi": 124380, "código__m": " ", "código_nu": 0, "código_re": 10, "nombre_reg": "Los Lagos", "código_de": 24, "nombre_dep": "Servicio de Salud Del Reloncaví", "pertenenci": "Perteneciente al Sistema Nacional de Servicios de Salud", "tipo_estab": null, "ámbito_de": "Establecimiento de Salud", "nombre_ofi": null, "certificac": "Centro de Salud Familiar", "dependenci": "Servicio de Salud Del Reloncaví", "nivel_de_a": "Primario", "código_co": "10403", "nombre_com": "HUALAIHUÉ", "vía": "Calle", "número": 25, "dirección": "Diego Portales", "teléfono": 652328630, "fecha_inic": "38716", "tiene_serv": null, "tipo_de_ur": " ", "tipo_de_sa": null, "latitud": -41.96271, "longitud__": -72.4689, "tipo_de_pr": null, "estado_de": null, "nivel_de_c": "Primario", "modalidad": null, "simbologia": "Atención Primaria de Salud (APS)", "fid_comunas_v1": null, "cut_reg": "10", "cut_prov": "104", "cut_com": "10403", "region": "Los Lagos", "provincia": "PALENA", "comuna": "HUALAIHUÉ", "superficie": null }, "geometry": { "type": "Point", "coordinates": [ -72.4689, -41.96271 ] } }
]
}
