{
"type": "FeatureCollection",
"name": "IRR",
"crs": { "type": "name", "properties": { "name": "urn:ogc:def:crs:OGC:1.3:CRS84" } },
"xy_coordinate_resolution": 1e-05,
"features": [
{ "type": "Feature", "properties": { "objectid": 12726, "fid_establecimientos_de_salud": null, "código_an": "02-926", "código_vi": 200908, "código__m": " ", "código_nu": 0, "código_re": 1, "nombre_reg": "Tarapacá", "código_de": 1, "nombre_dep": "SEREMI De Tarapacá", "pertenenci": "No perteneciente al Sistema Nacional de Servicios de Salud", "tipo_estab": null, "ámbito_de": "Establecimiento de Salud", "nombre_ofi": null, "certificac": "No Aplica", "dependenci": "SEREMI De Tarapacá", "nivel_de_a": "Secundario", "código_co": "01405", "nombre_com": "PICA", "vía": "Calle", "número": 0, "dirección": "Faena minera Teck quebrada blanca, campamento 1700", "teléfono": 0, "fecha_inic": "41758", "tiene_serv": null, "tipo_de_ur": "No Aplica", "tipo_de_sa": null, "latitud": -21.005193, "longitud__": -68.804842, "tipo_de_pr": null, "estado_de": null, "nivel_de_c": "Secundario", "modalidad": null, "simbologia": "Centros de Salud y Clínicas Privadas", "fid_comunas_v1": null, "cut_reg": "1", "cut_prov": "014", "cut_com": "01405", "region": "Tarapacá", "provincia": "TAMARUGAL", "comuna": "PICA", "superficie": null }, "geometry": { "type": "Point", "coordinates": [ -68.80484, -21.00519 ] } },
{ "type": "Feature", "properties": { "objectid": 12727, "fid_establecimientos_de_salud": null, "código_an": "02-220", "código_vi": 102220, "código__m": " ", "código_nu": 0, "código_re": 1, "nombre_reg": "Tarapacá", "código_de": 1, "nombre_dep": "SEREMI De Tarapacá", "pertenenci": "No perteneciente al Sistema Nacional de Servicios de Salud", "tipo_estab": null, "ámbito_de": "Establecimiento de Salud", "nombre_ofi": null, "certificac": "No Aplica", "dependenci": "SEREMI De Tarapacá", "nivel_de_a": "No Aplica", "código_co": "01405", "nombre_com": "PICA", "vía": "Calle", "número": 0, "dirección": "Coposa Hostal Pabellón del Inca", "teléfono": 572516621, "fecha_inic": "39814", "tiene_serv": null, "tipo_de_ur": "No Aplica", "tipo_de_sa": null, "latitud": -20.826793, "longitud__": -68.657633, "tipo_de_pr": null, "estado_de": null, "nivel_de_c": "No Aplica", "modalidad": null, "simbologia": "Centros de Salud y Clínicas Privadas", "fid_comunas_v1": null, "cut_reg": "1", "cut_prov": "014", "cut_com": "01405", "region": "Tarapacá", "provincia": "TAMARUGAL", "comuna": "PICA", "superficie": null }, "geometry": { "type": "Point", "coordinates": [ -68.65763, -20.82679 ] } }
]
}
