{
"type": "FeatureCollection",
"name": "LAN",
"crs": { "type": "name", "properties": { "name": "urn:ogc:def:crs:OGC:1.3:CRS84" } },
"xy_coordinate_resolution": 1e-05,
"features": [
{ "type": "Feature", "properties": { "objectid": 9388, "fid_establecimientos_de_salud": null, "código_an": "22-924", "código_vi": 200826, "código__m": "22-309", "código_nu": 122309, "código_re": 14, "nombre_reg": "Los Ríos", "código_de": 22, "nombre_dep": "Servicio de Salud Los Rios", "pertenenci": "Perteneciente al Sistema Nacional de Servicios de Salud", "tipo_estab": null, "ámbito_de": "Establecimiento de Salud", "nombre_ofi": null, "certificac": "No Aplica", "dependenci": "Servicio de Salud Los Rios", "nivel_de_a": "Primario", "código_co": "14108", "nombre_com": "PANGUIPULLI", "vía": "Calle", "número": 0, "dirección": "La Cancha", "teléfono": 63265741, "fecha_inic": "38716", "tiene_serv": null, "tipo_de_ur": "Urgencia Ambulatoria (SUR)", "tipo_de_sa": null, "latitud": -39.850159, "longitud__": -71.940779, "tipo_de_pr": null, "estado_de": null, "nivel_de_c": "Primario", "modalidad": null, "simbologia": "Servicios de Urgencia de Atención Primaria", "fid_comunas_v1": null, "cut_reg": "14", "cut_prov": "141", "cut_com": "14108", "region": "Los Ríos", "provincia": "VALDIVIA", "comuna": "PANGUIPULLI", "superficie": null }, "geometry": { "type": "Point", "coordinates": [ -71.94078, -39.85016 ] } },
{ "type": "Feature", "properties": { "objectid": 9389, "fid_establecimientos_de_salud": null, "código_an": "22-709", "código_vi": 122709, "código__m": "22-309", "código_nu": 122309, "código_re": 14, "nombre_reg": "Los Ríos", "código_de": 22, "nombre_dep": "Servicio de Salud Los Rios", "pertenenci": "Perteneciente al Sistema Nacional de Servicios de Salud", "tipo_estab": null, "ámbito_de": "Establecimiento de Salud", "nombre_ofi": null, "certificac": "No Aplica", "dependenci": "Servicio de Salud Los Rios", "nivel_de_a": "Primario", "código_co": "14108", "nombre_com": "PANGUIPULLI", "vía": "Calle", "número": 0, "dirección": "Los Álamos", "teléfono": 631973672, "fecha_inic": "38716", "tiene_serv": null, "tipo_de_ur": "No Aplica", "tipo_de_sa": null, "latitud": -39.85015, "longitud__": -71.94059, "tipo_de_pr": null, "estado_de": null, "nivel_de_c": "Primario", "modalidad": null, "simbologia": "Atención Primaria de Salud (APS)", "fid_comunas_v1": null, "cut_reg": "14", "cut_prov": "141", "cut_com": "14108", "region": "Los Ríos", "provincia": "VALDIVIA", "comuna": "PANGUIPULLI", "superficie": null }, "geometry": { "type": "Point", "coordinates": [ -71.94059, -39.85015 ] } },
{ "type": "Feature", "properties": { "objectid": 9455, "fid_establecimientos_de_salud": null, "código_an": "22-464", "código_vi": 122464, "código__m": " ", "código_nu": 0, "código_re": 14, "nombre_reg": "Los Ríos", "código_de": 22, "nombre_dep": "Servicio de Salud Los Rios", "pertenenci": "Perteneciente al Sistema Nacional de Servicios de Salud", "tipo_estab": null, "ámbito_de": "Establecimiento de Salud", "nombre_ofi": null, "certificac": "No Aplica", "dependenci": "Servicio de Salud Los Rios", "nivel_de_a": "Primario", "código_co": "14108", "nombre_com": "PANGUIPULLI", "vía": "Calle", "número": 0, "dirección": "Localidad Lago Neltume", "teléfono": 632310465, "fecha_inic": "38716", "tiene_serv": null, "tipo_de_ur": "No Aplica", "tipo_de_sa": null, "latitud": -39.78821, "longitud__": -71.9624, "tipo_de_pr": null, "estado_de": null, "nivel_de_c": "Primario", "modalidad": null, "simbologia": "Atención Primaria de Salud (APS)", "fid_comunas_v1": null, "cut_reg": "14", "cut_prov": "141", "cut_com": "14108", "region": "Los Ríos", "provincia": "VALDIVIA", "comuna": "PANGUIPULLI", "superficie": null }, "geometry": { "type": "Point", "coordinates": [ -71.9624, -39.78821 ] } },
{ "type": "Feature", "properties": { "objectid": 9457, "fid_establecimientos_de_salud": null, "código_an": "22-425", "código_vi": 122425, "código__m": "22-308", "código_nu": 122308, "código_re": 14, "nombre_reg": "Los Ríos", "código_de": 22, "nombre_dep": "Servicio de Salud Los Rios", "pertenenci": "Perteneciente al Sistema Nacional de Servicios de Salud", "tipo_estab": null, "ámbito_de": "Establecimiento de Salud", "nombre_ofi": null, "certificac": "No Aplica", "dependenci": "Servicio de Salud Los Rios", "nivel_de_a": "Primario", "código_co": "14108", "nombre_com": "PANGUIPULLI", "vía": "Calle", "número": 0, "dirección": "Camino Internacional, Liquiñe", "teléfono": 0, "fecha_inic": "38716", "tiene_serv": null, "tipo_de_ur": "No Aplica", "tipo_de_sa": null, "latitud": -39.74693, "longitud__": -71.85428, "tipo_de_pr": null, "estado_de": null, "nivel_de_c": "Primario", "modalidad": null, "simbologia": "Atención Primaria de Salud (APS)", "fid_comunas_v1": null, "cut_reg": "14", "cut_prov": "141", "cut_com": "14108", "region": "Los Ríos", "provincia": "VALDIVIA", "comuna": "PANGUIPULLI", "superficie": null }, "geometry": { "type": "Point", "coordinates": [ -71.85428, -39.74693 ] } },
{ "type": "Feature", "properties": { "objectid": 9478, "fid_establecimientos_de_salud": null, "código_an": "22-308", "código_vi": 122308, "código__m": " ", "código_nu": 0, "código_re": 14, "nombre_reg": "Los Ríos", "código_de": 22, "nombre_dep": "Servicio de Salud Los Rios", "pertenenci": "Perteneciente al Sistema Nacional de Servicios de Salud", "tipo_estab": null, "ámbito_de": "Establecimiento de Salud", "nombre_ofi": null, "certificac": "Centro de Salud Familiar", "dependenci": "Servicio de Salud Los Rios", "nivel_de_a": "Primario", "código_co": "14108", "nombre_com": "PANGUIPULLI", "vía": "Calle", "número": 0, "dirección": "Las Tepas", "teléfono": 632317274, "fecha_inic": "38716", "tiene_serv": null, "tipo_de_ur": "No Aplica", "tipo_de_sa": null, "latitud": -39.56825, "longitud__": -72.00839, "tipo_de_pr": null, "estado_de": null, "nivel_de_c": "Primario", "modalidad": null, "simbologia": "Atención Primaria de Salud (APS)", "fid_comunas_v1": null, "cut_reg": "14", "cut_prov": "141", "cut_com": "14108", "region": "Los Ríos", "provincia": "VALDIVIA", "comuna": "PANGUIPULLI", "superficie": null }, "geometry": { "type": "Point", "coordinates": [ -72.00839, -39.56825 ] } },
{ "type": "Feature", "properties": { "objectid": 9493, "fid_establecimientos_de_salud": null, "código_an": "21-598", "código_vi": 121598, "código__m": " ", "código_nu": 0, "código_re": 9, "nombre_reg": "La Araucanía", "código_de": 21, "nombre_dep": "Servicio de Salud Araucanía Sur", "pertenenci": "Perteneciente al Sistema Nacional de Servicios de Salud", "tipo_estab": null, "ámbito_de": "Establecimiento de Salud", "nombre_ofi": null, "certificac": "No Aplica", "dependenci": "Servicio de Salud Araucanía Sur", "nivel_de_a": "Primario", "código_co": "09104", "nombre_com": "CURARREHUE", "vía": "Calle", "número": 0, "dirección": "Camino Internacional", "teléfono": 0, "fecha_inic": "38716", "tiene_serv": null, "tipo_de_ur": "No Aplica", "tipo_de_sa": null, "latitud": -39.439687, "longitud__": -71.55406, "tipo_de_pr": null, "estado_de": null, "nivel_de_c": "Primario", "modalidad": null, "simbologia": "Atención Primaria de Salud (APS)", "fid_comunas_v1": null, "cut_reg": "9", "cut_prov": "091", "cut_com": "09104", "region": "La Araucanía", "provincia": "CAUTÍN", "comuna": "CURARREHUE", "superficie": null }, "geometry": { "type": "Point", "coordinates": [ -71.55406, -39.43969 ] } },
{ "type": "Feature", "properties": { "objectid": 9501, "fid_establecimientos_de_salud": null, "código_an": "21-313", "código_vi": 121313, "código__m": " ", "código_nu": 0, "código_re": 9, "nombre_reg": "La Araucanía", "código_de": 21, "nombre_dep": "Servicio de Salud Araucanía Sur", "pertenenci": "Perteneciente al Sistema Nacional de Servicios de Salud", "tipo_estab": null, "ámbito_de": "Establecimiento de Salud", "nombre_ofi": null, "certificac": "No Aplica", "dependenci": "Servicio de Salud Araucanía Sur", "nivel_de_a": "Primario", "código_co": "09104", "nombre_com": "CURARREHUE", "vía": "Calle", "número": 888, "dirección": "Cacique Catriqui", "teléfono": 452351579, "fecha_inic": "38716", "tiene_serv": null, "tipo_de_ur": "No Aplica", "tipo_de_sa": null, "latitud": -39.36619, "longitud__": -71.58278, "tipo_de_pr": null, "estado_de": null, "nivel_de_c": "Primario", "modalidad": null, "simbologia": "Atención Primaria de Salud (APS)", "fid_comunas_v1": null, "cut_reg": "9", "cut_prov": "091", "cut_com": "09104", "region": "La Araucanía", "provincia": "CAUTÍN", "comuna": "CURARREHUE", "superficie": null }, "geometry": { "type": "Point", "coordinates": [ -71.58278, -39.36619 ] } },
{ "type": "Feature", "properties": { "objectid": 9502, "fid_establecimientos_de_salud": null, "código_an": "21-934", "código_vi": 200929, "código__m": "21-313", "código_nu": 121313, "código_re": 9, "nombre_reg": "La Araucanía", "código_de": 21, "nombre_dep": "Servicio de Salud Araucanía Sur", "pertenenci": "Perteneciente al Sistema Nacional de Servicios de Salud", "tipo_estab": null, "ámbito_de": "Establecimiento de Salud", "nombre_ofi": null, "certificac": "No Aplica", "dependenci": "Servicio de Salud Araucanía Sur", "nivel_de_a": "Primario", "código_co": "09104", "nombre_com": "CURARREHUE", "vía": "Calle", "número": 888, "dirección": "Cacique Catriqui", "teléfono": 452351579, "fecha_inic": "38716", "tiene_serv": null, "tipo_de_ur": "Urgencia Ambulatoria (SUR)", "tipo_de_sa": null, "latitud": -39.366187, "longitud__": -71.582775, "tipo_de_pr": null, "estado_de": null, "nivel_de_c": "Primario", "modalidad": null, "simbologia": "Servicios de Urgencia de Atención Primaria", "fid_comunas_v1": null, "cut_reg": "9", "cut_prov": "091", "cut_com": "09104", "region": "La Araucanía", "provincia": "CAUTÍN", "comuna": "CURARREHUE", "superficie": null }, "geometry": { "type": "Point", "coordinates": [ -71.58277, -39.36619 ] } },
{ "type": "Feature", "properties": { "objectid": 9503, "fid_establecimientos_de_salud": null, "código_an": "21-581", "código_vi": 121581, "código__m": " ", "código_nu": 0, "código_re": 9, "nombre_reg": "La Araucanía", "código_de": 21, "nombre_dep": "Servicio de Salud Araucanía Sur", "pertenenci": "Perteneciente al Sistema Nacional de Servicios de Salud", "tipo_estab": null, "ámbito_de": "Establecimiento de Salud", "nombre_ofi": null, "certificac": "No Aplica", "dependenci": "Servicio de Salud Araucanía Sur", "nivel_de_a": "Primario", "código_co": "09104", "nombre_com": "CURARREHUE", "vía": "Calle", "número": 0, "dirección": "Sector Catripulli", "teléfono": 0, "fecha_inic": "38716", "tiene_serv": null, "tipo_de_ur": "No Aplica", "tipo_de_sa": null, "latitud": -39.350452, "longitud__": -71.70723, "tipo_de_pr": null, "estado_de": null, "nivel_de_c": "Primario", "modalidad": null, "simbologia": "Atención Primaria de Salud (APS)", "fid_comunas_v1": null, "cut_reg": "9", "cut_prov": "091", "cut_com": "09104", "region": "La Araucanía", "provincia": "CAUTÍN", "comuna": "CURARREHUE", "superficie": null }, "geometry": { "type": "Point", "coordinates": [ -71.70723, -39.35045 ] } },
{ "type": "Feature", "properties": { "objectid": 9505, "fid_establecimientos_de_salud": null, "código_an": "21-582", "código_vi": 121582, "código__m": " ", "código_nu": 0, "código_re": 9, "nombre_reg": "La Araucanía", "código_de": 21, "nombre_dep": "Servicio de Salud Araucanía Sur", "pertenenci": "Perteneciente al Sistema Nacional de Servicios de Salud", "tipo_estab": null, "ámbito_de": "Establecimiento de Salud", "nombre_ofi": null, "certificac": "No Aplica", "dependenci": "Servicio de Salud Araucanía Sur", "nivel_de_a": "Primario", "código_co": "09104", "nombre_com": "CURARREHUE", "vía": "Calle", "número": 0, "dirección": "Sector Maite", "teléfono": 0, "fecha_inic": "38716", "tiene_serv": null, "tipo_de_ur": "No Aplica", "tipo_de_sa": null, "latitud": -39.31083, "longitud__": -71.4545, "tipo_de_pr": null, "estado_de": null, "nivel_de_c": "Primario", "modalidad": null, "simbologia": "Atención Primaria de Salud (APS)", "fid_comunas_v1": null, "cut_reg": "9", "cut_prov": "091", "cut_com": "09104", "region": "La Araucanía", "provincia": "CAUTÍN", "comuna": "CURARREHUE", "superficie": null }, "geometry": { "type": "Point", "coordinates": [ -71.4545, -39.31083 ] } },
{ "type": "Feature", "properties": { "objectid": 9523, "fid_establecimientos_de_salud": null, "código_an": "21-573", "código_vi": 121573, "código__m": " ", "código_nu": 0, "código_re": 9, "nombre_reg": "La Araucanía", "código_de": 21, "nombre_dep": "Servicio de Salud Araucanía Sur", "pertenenci": "Perteneciente al Sistema Nacional de Servicios de Salud", "tipo_estab": null, "ámbito_de": "Establecimiento de Salud", "nombre_ofi": null, "certificac": "No Aplica", "dependenci": "Servicio de Salud Araucanía Sur", "nivel_de_a": "Primario", "código_co": "09115", "nombre_com": "PUCÓN", "vía": "Calle", "número": 1424, "dirección": "Ejercito", "teléfono": 0, "fecha_inic": "38716", "tiene_serv": null, "tipo_de_ur": "No Aplica", "tipo_de_sa": null, "latitud": -39.26434, "longitud__": -71.77723, "tipo_de_pr": null, "estado_de": null, "nivel_de_c": "Primario", "modalidad": null, "simbologia": "Atención Primaria de Salud (APS)", "fid_comunas_v1": null, "cut_reg": "9", "cut_prov": "091", "cut_com": "09115", "region": "La Araucanía", "provincia": "CAUTÍN", "comuna": "PUCÓN", "superficie": null }, "geometry": { "type": "Point", "coordinates": [ -71.77723, -39.26434 ] } },
{ "type": "Feature", "properties": { "objectid": 9529, "fid_establecimientos_de_salud": null, "código_an": "21-586", "código_vi": 121586, "código__m": " ", "código_nu": 0, "código_re": 9, "nombre_reg": "La Araucanía", "código_de": 21, "nombre_dep": "Servicio de Salud Araucanía Sur", "pertenenci": "Perteneciente al Sistema Nacional de Servicios de Salud", "tipo_estab": null, "ámbito_de": "Establecimiento de Salud", "nombre_ofi": null, "certificac": "No Aplica", "dependenci": "Servicio de Salud Araucanía Sur", "nivel_de_a": "Primario", "código_co": "09104", "nombre_com": "CURARREHUE", "vía": "Calle", "número": 0, "dirección": "PUCON", "teléfono": 0, "fecha_inic": "38716", "tiene_serv": null, "tipo_de_ur": "No Aplica", "tipo_de_sa": null, "latitud": -39.21826, "longitud__": -71.4353, "tipo_de_pr": null, "estado_de": null, "nivel_de_c": "Primario", "modalidad": null, "simbologia": "Atención Primaria de Salud (APS)", "fid_comunas_v1": null, "cut_reg": "9", "cut_prov": "091", "cut_com": "09104", "region": "La Araucanía", "provincia": "CAUTÍN", "comuna": "CURARREHUE", "superficie": null }, "geometry": { "type": "Point", "coordinates": [ -71.4353, -39.21826 ] } },
{ "type": "Feature", "properties": { "objectid": 13346, "fid_establecimientos_de_salud": null, "código_an": "201161", "código_vi": 201161, "código__m": "22-308", "código_nu": 0, "código_re": 14, "nombre_reg": "Los Ríos", "código_de": 22, "nombre_dep": "Servicio de Salud Los Rios", "pertenenci": "Perteneciente al Sistema Nacional de Servicios de Salud", "tipo_estab": null, "ámbito_de": "Establecimiento de Salud", "nombre_ofi": null, "certificac": "No Aplica", "dependenci": "Servicio de Salud Los Rios", "nivel_de_a": "Primario", "código_co": "14108", "nombre_com": "PANGUIPULLI", "vía": "Calle", "número": 0, "dirección": "Las Tepas", "teléfono": 0, "fecha_inic": null, "tiene_serv": null, "tipo_de_ur": "Urgencia Ambulatoria (SAPU)", "tipo_de_sa": null, "latitud": -39.568231, "longitud__": -72.008145, "tipo_de_pr": null, "estado_de": null, "nivel_de_c": "Primario", "modalidad": null, "simbologia": "Servicios de Urgencia de Atención Primaria", "fid_comunas_v1": null, "cut_reg": "14", "cut_prov": "141", "cut_com": "14108", "region": "Los Ríos", "provincia": "VALDIVIA", "comuna": "PANGUIPULLI", "superficie": null }, "geometry": { "type": "Point", "coordinates": [ -72.00814, -39.56823 ] } },
{ "type": "Feature", "properties": { "objectid": 13805, "fid_establecimientos_de_salud": null, "código_an": "202050", "código_vi": 202050, "código__m": "22-308", "código_nu": 122308, "código_re": 14, "nombre_reg": "Los Ríos", "código_de": 22, "nombre_dep": "Servicio de Salud Los Rios", "pertenenci": "Perteneciente al Sistema Nacional de Servicios de Salud", "tipo_estab": null, "ámbito_de": "Establecimiento de Salud", "nombre_ofi": null, "certificac": "No Aplica", "dependenci": "Servicio de Salud Los Rios", "nivel_de_a": "Primario", "código_co": "14108", "nombre_com": "PANGUIPULLI", "vía": "Camino", "número": 0, "dirección": "INTERNACIONAL LIQUIÑE", "teléfono": 632317231, "fecha_inic": "43279", "tiene_serv": null, "tipo_de_ur": "Urgencia Ambulatoria (SUR)", "tipo_de_sa": null, "latitud": -39.74693, "longitud__": -71.85428, "tipo_de_pr": null, "estado_de": null, "nivel_de_c": "Primario", "modalidad": null, "simbologia": "Servicios de Urgencia de Atención Primaria", "fid_comunas_v1": null, "cut_reg": "14", "cut_prov": "141", "cut_com": "14108", "region": "Los Ríos", "provincia": "VALDIVIA", "comuna": "PANGUIPULLI", "superficie": null }, "geometry": { "type": "Point", "coordinates": [ -71.85428, -39.74693 ] } }
]
}
