{
"type": "FeatureCollection",
"name": "LAS",
"crs": { "type": "name", "properties": { "name": "urn:ogc:def:crs:OGC:1.3:CRS84" } },
"xy_coordinate_resolution": 1e-05,
"features": [
{ "type": "Feature", "properties": { "objectid": 12580, "fid_establecimientos_de_salud": null, "código_an": "03-404", "código_vi": 103404, "código__m": " ", "código_nu": 0, "código_re": 2, "nombre_reg": "Antofagasta", "código_de": 3, "nombre_dep": "Servicio de Salud Antofagasta", "pertenenci": "Perteneciente al Sistema Nacional de Servicios de Salud", "tipo_estab": null, "ámbito_de": "Establecimiento de Salud", "nombre_ofi": null, "certificac": "No Aplica", "dependenci": "Servicio de Salud Antofagasta", "nivel_de_a": "Primario", "código_co": "02203", "nombre_com": "SAN PEDRO DE ATACAMA", "vía": "Calle", "número": 0, "dirección": "Sector de Peine", "teléfono": 0, "fecha_inic": "38716", "tiene_serv": null, "tipo_de_ur": "No Aplica", "tipo_de_sa": null, "latitud": -23.68293, "longitud__": -68.06543, "tipo_de_pr": null, "estado_de": null, "nivel_de_c": "Primario", "modalidad": null, "simbologia": "Atención Primaria de Salud (APS)", "fid_comunas_v1": null, "cut_reg": "2", "cut_prov": "022", "cut_com": "02203", "region": "Antofagasta", "provincia": "EL LOA", "comuna": "SAN PEDRO DE ATACAMA", "superficie": null }, "geometry": { "type": "Point", "coordinates": [ -68.06543, -23.68293 ] } },
{ "type": "Feature", "properties": { "objectid": 12653, "fid_establecimientos_de_salud": null, "código_an": "03-405", "código_vi": 103405, "código__m": " ", "código_nu": 0, "código_re": 2, "nombre_reg": "Antofagasta", "código_de": 3, "nombre_dep": "Servicio de Salud Antofagasta", "pertenenci": "Perteneciente al Sistema Nacional de Servicios de Salud", "tipo_estab": null, "ámbito_de": "Establecimiento de Salud", "nombre_ofi": null, "certificac": "No Aplica", "dependenci": "Servicio de Salud Antofagasta", "nivel_de_a": "Primario", "código_co": "02203", "nombre_com": "SAN PEDRO DE ATACAMA", "vía": "Calle", "número": 0, "dirección": "Sector de Socaire", "teléfono": 0, "fecha_inic": "38716", "tiene_serv": null, "tipo_de_ur": "No Aplica", "tipo_de_sa": null, "latitud": -23.59124, "longitud__": -67.89035, "tipo_de_pr": null, "estado_de": null, "nivel_de_c": "Primario", "modalidad": null, "simbologia": "Atención Primaria de Salud (APS)", "fid_comunas_v1": null, "cut_reg": "2", "cut_prov": "022", "cut_com": "02203", "region": "Antofagasta", "provincia": "EL LOA", "comuna": "SAN PEDRO DE ATACAMA", "superficie": null }, "geometry": { "type": "Point", "coordinates": [ -67.89035, -23.59124 ] } },
{ "type": "Feature", "properties": { "objectid": 12654, "fid_establecimientos_de_salud": null, "código_an": "03-932", "código_vi": 200911, "código__m": "03-405", "código_nu": 103405, "código_re": 2, "nombre_reg": "Antofagasta", "código_de": 3, "nombre_dep": "Servicio de Salud Antofagasta", "pertenenci": "Perteneciente al Sistema Nacional de Servicios de Salud", "tipo_estab": null, "ámbito_de": "Establecimiento de Salud", "nombre_ofi": null, "certificac": "No Aplica", "dependenci": "Servicio de Salud Antofagasta", "nivel_de_a": "Primario", "código_co": "02203", "nombre_com": "SAN PEDRO DE ATACAMA", "vía": "Calle", "número": 0, "dirección": "Sector de Socaire", "teléfono": 0, "fecha_inic": "38716", "tiene_serv": null, "tipo_de_ur": "Urgencia Ambulatoria (SUR)", "tipo_de_sa": null, "latitud": -23.591237, "longitud__": -67.890345, "tipo_de_pr": null, "estado_de": null, "nivel_de_c": "Primario", "modalidad": null, "simbologia": "Servicios de Urgencia de Atención Primaria", "fid_comunas_v1": null, "cut_reg": "2", "cut_prov": "022", "cut_com": "02203", "region": "Antofagasta", "provincia": "EL LOA", "comuna": "SAN PEDRO DE ATACAMA", "superficie": null }, "geometry": { "type": "Point", "coordinates": [ -67.89034, -23.59124 ] } },
{ "type": "Feature", "properties": { "objectid": 12666, "fid_establecimientos_de_salud": null, "código_an": "03-403", "código_vi": 103403, "código__m": " ", "código_nu": 0, "código_re": 2, "nombre_reg": "Antofagasta", "código_de": 3, "nombre_dep": "Servicio de Salud Antofagasta", "pertenenci": "Perteneciente al Sistema Nacional de Servicios de Salud", "tipo_estab": null, "ámbito_de": "Establecimiento de Salud", "nombre_ofi": null, "certificac": "No Aplica", "dependenci": "Servicio de Salud Antofagasta", "nivel_de_a": "Primario", "código_co": "02203", "nombre_com": "SAN PEDRO DE ATACAMA", "vía": "Calle", "número": 0, "dirección": "Aldea de Toconao", "teléfono": 0, "fecha_inic": "38716", "tiene_serv": null, "tipo_de_ur": "No Aplica", "tipo_de_sa": null, "latitud": -23.189834, "longitud__": -68.005229, "tipo_de_pr": null, "estado_de": null, "nivel_de_c": "Primario", "modalidad": null, "simbologia": "Atención Primaria de Salud (APS)", "fid_comunas_v1": null, "cut_reg": "2", "cut_prov": "022", "cut_com": "02203", "region": "Antofagasta", "provincia": "EL LOA", "comuna": "SAN PEDRO DE ATACAMA", "superficie": null }, "geometry": { "type": "Point", "coordinates": [ -68.00523, -23.18983 ] } }
]
}
