{
"type": "FeatureCollection",
"name": "LDM",
"crs": { "type": "name", "properties": { "name": "urn:ogc:def:crs:OGC:1.3:CRS84" } },
"xy_coordinate_resolution": 1e-05,
"features": [
{ "type": "Feature", "properties": { "objectid": 9718, "fid_establecimientos_de_salud": null, "código_an": "16-570", "código_vi": 116570, "código__m": " ", "código_nu": 0, "código_re": 7, "nombre_reg": "Maule", "código_de": 16, "nombre_dep": "Servicio de Salud Del Maule", "pertenenci": "Perteneciente al Sistema Nacional de Servicios de Salud", "tipo_estab": null, "ámbito_de": "Establecimiento de Salud", "nombre_ofi": null, "certificac": "No Aplica", "dependenci": "Servicio de Salud Del Maule", "nivel_de_a": "Primario", "código_co": "07109", "nombre_com": "SAN CLEMENTE", "vía": "Calle", "número": 0, "dirección": "Camino Internacional, Sector La Mina", "teléfono": 0, "fecha_inic": "38716", "tiene_serv": null, "tipo_de_ur": "No Aplica", "tipo_de_sa": null, "latitud": -35.818226, "longitud__": -70.820148, "tipo_de_pr": null, "estado_de": null, "nivel_de_c": "Primario", "modalidad": null, "simbologia": "Atención Primaria de Salud (APS)", "fid_comunas_v1": null, "cut_reg": "7", "cut_prov": "071", "cut_com": "07109", "region": "Maule", "provincia": "TALCA", "comuna": "SAN CLEMENTE", "superficie": null }, "geometry": { "type": "Point", "coordinates": [ -70.82015, -35.81823 ] } },
{ "type": "Feature", "properties": { "objectid": 9719, "fid_establecimientos_de_salud": null, "código_an": "16-957", "código_vi": 200770, "código__m": "16-570", "código_nu": 116570, "código_re": 7, "nombre_reg": "Maule", "código_de": 16, "nombre_dep": "Servicio de Salud Del Maule", "pertenenci": "Perteneciente al Sistema Nacional de Servicios de Salud", "tipo_estab": null, "ámbito_de": "Establecimiento de Salud", "nombre_ofi": null, "certificac": "No Aplica", "dependenci": "Servicio de Salud Del Maule", "nivel_de_a": "Primario", "código_co": "07109", "nombre_com": "SAN CLEMENTE", "vía": "Calle", "número": 0, "dirección": "Camino Internacional, Sector La Mina", "teléfono": 0, "fecha_inic": "38716", "tiene_serv": null, "tipo_de_ur": "Urgencia Ambulatoria (SUR)", "tipo_de_sa": null, "latitud": -35.818345, "longitud__": -70.820292, "tipo_de_pr": null, "estado_de": null, "nivel_de_c": "Primario", "modalidad": null, "simbologia": "Servicios de Urgencia de Atención Primaria", "fid_comunas_v1": null, "cut_reg": "7", "cut_prov": "071", "cut_com": "07109", "region": "Maule", "provincia": "TALCA", "comuna": "SAN CLEMENTE", "superficie": null }, "geometry": { "type": "Point", "coordinates": [ -70.82029, -35.81835 ] } },
{ "type": "Feature", "properties": { "objectid": 9730, "fid_establecimientos_de_salud": null, "código_an": "16-452", "código_vi": 116452, "código__m": " ", "código_nu": 0, "código_re": 7, "nombre_reg": "Maule", "código_de": 16, "nombre_dep": "Servicio de Salud Del Maule", "pertenenci": "Perteneciente al Sistema Nacional de Servicios de Salud", "tipo_estab": null, "ámbito_de": "Establecimiento de Salud", "nombre_ofi": null, "certificac": "No Aplica", "dependenci": "Servicio de Salud Del Maule", "nivel_de_a": "Primario", "código_co": "07109", "nombre_com": "SAN CLEMENTE", "vía": "Calle", "número": 0, "dirección": "Sector La Suiza", "teléfono": 0, "fecha_inic": "38716", "tiene_serv": null, "tipo_de_ur": "No Aplica", "tipo_de_sa": null, "latitud": -35.758084, "longitud__": -71.001592, "tipo_de_pr": null, "estado_de": null, "nivel_de_c": "Primario", "modalidad": null, "simbologia": "Atención Primaria de Salud (APS)", "fid_comunas_v1": null, "cut_reg": "7", "cut_prov": "071", "cut_com": "07109", "region": "Maule", "provincia": "TALCA", "comuna": "SAN CLEMENTE", "superficie": null }, "geometry": { "type": "Point", "coordinates": [ -71.00159, -35.75808 ] } }
]
}
