{
"type": "FeatureCollection",
"name": "LLA",
"crs": { "type": "name", "properties": { "name": "urn:ogc:def:crs:OGC:1.3:CRS84" } },
"xy_coordinate_resolution": 1e-05,
"features": [
{ "type": "Feature", "properties": { "objectid": 9556, "fid_establecimientos_de_salud": null, "código_an": "21-494", "código_vi": 121494, "código__m": " ", "código_nu": 0, "código_re": 9, "nombre_reg": "La Araucanía", "código_de": 21, "nombre_dep": "Servicio de Salud Araucanía Sur", "pertenenci": "Perteneciente al Sistema Nacional de Servicios de Salud", "tipo_estab": null, "ámbito_de": "Establecimiento de Salud", "nombre_ofi": null, "certificac": "No Aplica", "dependenci": "Servicio de Salud Araucanía Sur", "nivel_de_a": "Primario", "código_co": "09103", "nombre_com": "CUNCO", "vía": "Calle", "número": 0, "dirección": "Sector Quecheregue", "teléfono": 0, "fecha_inic": "38716", "tiene_serv": null, "tipo_de_ur": "No Aplica", "tipo_de_sa": null, "latitud": -38.99723, "longitud__": -72.04485, "tipo_de_pr": null, "estado_de": null, "nivel_de_c": "Primario", "modalidad": null, "simbologia": "Atención Primaria de Salud (APS)", "fid_comunas_v1": null, "cut_reg": "9", "cut_prov": "091", "cut_com": "09103", "region": "La Araucanía", "provincia": "CAUTÍN", "comuna": "CUNCO", "superficie": null }, "geometry": { "type": "Point", "coordinates": [ -72.04485, -38.99723 ] } },
{ "type": "Feature", "properties": { "objectid": 9571, "fid_establecimientos_de_salud": null, "código_an": "21-493", "código_vi": 121493, "código__m": " ", "código_nu": 0, "código_re": 9, "nombre_reg": "La Araucanía", "código_de": 21, "nombre_dep": "Servicio de Salud Araucanía Sur", "pertenenci": "Perteneciente al Sistema Nacional de Servicios de Salud", "tipo_estab": null, "ámbito_de": "Establecimiento de Salud", "nombre_ofi": null, "certificac": "No Aplica", "dependenci": "Servicio de Salud Araucanía Sur", "nivel_de_a": "Primario", "código_co": "09103", "nombre_com": "CUNCO", "vía": "Calle", "número": 0, "dirección": "Sector Leufuche", "teléfono": 0, "fecha_inic": "38716", "tiene_serv": null, "tipo_de_ur": "No Aplica", "tipo_de_sa": null, "latitud": -38.95887, "longitud__": -72.11408, "tipo_de_pr": null, "estado_de": null, "nivel_de_c": "Primario", "modalidad": null, "simbologia": "Atención Primaria de Salud (APS)", "fid_comunas_v1": null, "cut_reg": "9", "cut_prov": "091", "cut_com": "09103", "region": "La Araucanía", "provincia": "CAUTÍN", "comuna": "CUNCO", "superficie": null }, "geometry": { "type": "Point", "coordinates": [ -72.11408, -38.95887 ] } },
{ "type": "Feature", "properties": { "objectid": 9577, "fid_establecimientos_de_salud": null, "código_an": "21-919", "código_vi": 200383, "código__m": "21-326", "código_nu": 121326, "código_re": 9, "nombre_reg": "La Araucanía", "código_de": 21, "nombre_dep": "Servicio de Salud Araucanía Sur", "pertenenci": "Perteneciente al Sistema Nacional de Servicios de Salud", "tipo_estab": null, "ámbito_de": "Establecimiento de Salud", "nombre_ofi": null, "certificac": "No Aplica", "dependenci": "Servicio de Salud Araucanía Sur", "nivel_de_a": "Primario", "código_co": "09103", "nombre_com": "CUNCO", "vía": "Calle", "número": 1871, "dirección": "Parque Nahuelbuta, Villa los Parques", "teléfono": 0, "fecha_inic": "43018", "tiene_serv": null, "tipo_de_ur": "No Aplica", "tipo_de_sa": null, "latitud": -38.94465, "longitud__": -72.03505, "tipo_de_pr": null, "estado_de": null, "nivel_de_c": "Primario", "modalidad": null, "simbologia": "Atención Primaria de Salud (APS)", "fid_comunas_v1": null, "cut_reg": "9", "cut_prov": "091", "cut_com": "09103", "region": "La Araucanía", "provincia": "CAUTÍN", "comuna": "CUNCO", "superficie": null }, "geometry": { "type": "Point", "coordinates": [ -72.03505, -38.94465 ] } },
{ "type": "Feature", "properties": { "objectid": 9578, "fid_establecimientos_de_salud": null, "código_an": "21-491", "código_vi": 121491, "código__m": " ", "código_nu": 0, "código_re": 9, "nombre_reg": "La Araucanía", "código_de": 21, "nombre_dep": "Servicio de Salud Araucanía Sur", "pertenenci": "Perteneciente al Sistema Nacional de Servicios de Salud", "tipo_estab": null, "ámbito_de": "Establecimiento de Salud", "nombre_ofi": null, "certificac": "No Aplica", "dependenci": "Servicio de Salud Araucanía Sur", "nivel_de_a": "Primario", "código_co": "09103", "nombre_com": "CUNCO", "vía": "Calle", "número": 0, "dirección": "Aldea Las Hortensias", "teléfono": 0, "fecha_inic": "38716", "tiene_serv": null, "tipo_de_ur": "No Aplica", "tipo_de_sa": null, "latitud": -38.94096, "longitud__": -72.15235, "tipo_de_pr": null, "estado_de": null, "nivel_de_c": "Primario", "modalidad": null, "simbologia": "Atención Primaria de Salud (APS)", "fid_comunas_v1": null, "cut_reg": "9", "cut_prov": "091", "cut_com": "09103", "region": "La Araucanía", "provincia": "CAUTÍN", "comuna": "CUNCO", "superficie": null }, "geometry": { "type": "Point", "coordinates": [ -72.15235, -38.94096 ] } },
{ "type": "Feature", "properties": { "objectid": 9580, "fid_establecimientos_de_salud": null, "código_an": "21-113", "código_vi": 121113, "código__m": " ", "código_nu": 0, "código_re": 9, "nombre_reg": "La Araucanía", "código_de": 21, "nombre_dep": "Servicio de Salud Araucanía Sur", "pertenenci": "Perteneciente al Sistema Nacional de Servicios de Salud", "tipo_estab": null, "ámbito_de": "Establecimiento de Salud", "nombre_ofi": null, "certificac": "No Aplica", "dependenci": "Servicio de Salud Araucanía Sur", "nivel_de_a": "Pendiente", "código_co": "09103", "nombre_com": "CUNCO", "vía": "Avenida", "número": 31, "dirección": "Santa María", "teléfono": 452552050, "fecha_inic": "26665", "tiene_serv": null, "tipo_de_ur": "Urgencia Hospitalaria (UEH)", "tipo_de_sa": null, "latitud": -38.93094, "longitud__": -72.03761, "tipo_de_pr": null, "estado_de": null, "nivel_de_c": "Pendiente", "modalidad": null, "simbologia": "Hospitales y Unidades de Hospitalización", "fid_comunas_v1": null, "cut_reg": "9", "cut_prov": "091", "cut_com": "09103", "region": "La Araucanía", "provincia": "CAUTÍN", "comuna": "CUNCO", "superficie": null }, "geometry": { "type": "Point", "coordinates": [ -72.03761, -38.93094 ] } },
{ "type": "Feature", "properties": { "objectid": 9586, "fid_establecimientos_de_salud": null, "código_an": "21-492", "código_vi": 121492, "código__m": " ", "código_nu": 0, "código_re": 9, "nombre_reg": "La Araucanía", "código_de": 21, "nombre_dep": "Servicio de Salud Araucanía Sur", "pertenenci": "Perteneciente al Sistema Nacional de Servicios de Salud", "tipo_estab": null, "ámbito_de": "Establecimiento de Salud", "nombre_ofi": null, "certificac": "No Aplica", "dependenci": "Servicio de Salud Araucanía Sur", "nivel_de_a": "Primario", "código_co": "09103", "nombre_com": "CUNCO", "vía": "Calle", "número": 0, "dirección": "Caserío Villa García", "teléfono": 0, "fecha_inic": "38716", "tiene_serv": null, "tipo_de_ur": "No Aplica", "tipo_de_sa": null, "latitud": -38.90106, "longitud__": -71.91998, "tipo_de_pr": null, "estado_de": null, "nivel_de_c": "Primario", "modalidad": null, "simbologia": "Atención Primaria de Salud (APS)", "fid_comunas_v1": null, "cut_reg": "9", "cut_prov": "091", "cut_com": "09103", "region": "La Araucanía", "provincia": "CAUTÍN", "comuna": "CUNCO", "superficie": null }, "geometry": { "type": "Point", "coordinates": [ -71.91998, -38.90106 ] } },
{ "type": "Feature", "properties": { "objectid": 9588, "fid_establecimientos_de_salud": null, "código_an": "21-570", "código_vi": 121570, "código__m": " ", "código_nu": 0, "código_re": 9, "nombre_reg": "La Araucanía", "código_de": 21, "nombre_dep": "Servicio de Salud Araucanía Sur", "pertenenci": "Perteneciente al Sistema Nacional de Servicios de Salud", "tipo_estab": null, "ámbito_de": "Establecimiento de Salud", "nombre_ofi": null, "certificac": "No Aplica", "dependenci": "Servicio de Salud Araucanía Sur", "nivel_de_a": "Primario", "código_co": "09110", "nombre_com": "MELIPEUCO", "vía": "Calle", "número": 0, "dirección": "Sector Santa María Llaima", "teléfono": 0, "fecha_inic": "38716", "tiene_serv": null, "tipo_de_ur": "No Aplica", "tipo_de_sa": null, "latitud": -38.883859, "longitud__": -71.754691, "tipo_de_pr": null, "estado_de": null, "nivel_de_c": "Primario", "modalidad": null, "simbologia": "Atención Primaria de Salud (APS)", "fid_comunas_v1": null, "cut_reg": "9", "cut_prov": "091", "cut_com": "09110", "region": "La Araucanía", "provincia": "CAUTÍN", "comuna": "MELIPEUCO", "superficie": null }, "geometry": { "type": "Point", "coordinates": [ -71.75469, -38.88386 ] } },
{ "type": "Feature", "properties": { "objectid": 9590, "fid_establecimientos_de_salud": null, "código_an": "21-571", "código_vi": 121571, "código__m": " ", "código_nu": 0, "código_re": 9, "nombre_reg": "La Araucanía", "código_de": 21, "nombre_dep": "Servicio de Salud Araucanía Sur", "pertenenci": "Perteneciente al Sistema Nacional de Servicios de Salud", "tipo_estab": null, "ámbito_de": "Establecimiento de Salud", "nombre_ofi": null, "certificac": "No Aplica", "dependenci": "Servicio de Salud Araucanía Sur", "nivel_de_a": "Primario", "código_co": "09110", "nombre_com": "MELIPEUCO", "vía": "Calle", "número": 0, "dirección": "Sector Alto Carén", "teléfono": 0, "fecha_inic": "38716", "tiene_serv": null, "tipo_de_ur": "No Aplica", "tipo_de_sa": null, "latitud": -38.880756, "longitud__": -71.52936, "tipo_de_pr": null, "estado_de": null, "nivel_de_c": "Primario", "modalidad": null, "simbologia": "Atención Primaria de Salud (APS)", "fid_comunas_v1": null, "cut_reg": "9", "cut_prov": "091", "cut_com": "09110", "region": "La Araucanía", "provincia": "CAUTÍN", "comuna": "MELIPEUCO", "superficie": null }, "geometry": { "type": "Point", "coordinates": [ -71.52936, -38.88076 ] } },
{ "type": "Feature", "properties": { "objectid": 9995, "fid_establecimientos_de_salud": null, "código_an": "21-311", "código_vi": 121311, "código__m": " ", "código_nu": 0, "código_re": 9, "nombre_reg": "La Araucanía", "código_de": 21, "nombre_dep": "Servicio de Salud Araucanía Sur", "pertenenci": "Perteneciente al Sistema Nacional de Servicios de Salud", "tipo_estab": null, "ámbito_de": "Establecimiento de Salud", "nombre_ofi": null, "certificac": "Centro de Salud Familiar", "dependenci": "Servicio de Salud Araucanía Sur", "nivel_de_a": "Primario", "código_co": "09110", "nombre_com": "MELIPEUCO", "vía": "Calle", "número": 14, "dirección": "Pedro Aguirre Cerda", "teléfono": 452581051, "fecha_inic": "33878", "tiene_serv": null, "tipo_de_ur": "No Aplica", "tipo_de_sa": null, "latitud": -38.85498, "longitud__": -71.69824, "tipo_de_pr": null, "estado_de": null, "nivel_de_c": "Primario", "modalidad": null, "simbologia": "Atención Primaria de Salud (APS)", "fid_comunas_v1": null, "cut_reg": "9", "cut_prov": "091", "cut_com": "09110", "region": "La Araucanía", "provincia": "CAUTÍN", "comuna": "MELIPEUCO", "superficie": null }, "geometry": { "type": "Point", "coordinates": [ -71.69824, -38.85498 ] } },
{ "type": "Feature", "properties": { "objectid": 9996, "fid_establecimientos_de_salud": null, "código_an": "21-941", "código_vi": 200944, "código__m": "21-311", "código_nu": 121311, "código_re": 9, "nombre_reg": "La Araucanía", "código_de": 21, "nombre_dep": "Servicio de Salud Araucanía Sur", "pertenenci": "Perteneciente al Sistema Nacional de Servicios de Salud", "tipo_estab": null, "ámbito_de": "Establecimiento de Salud", "nombre_ofi": null, "certificac": "No Aplica", "dependenci": "Servicio de Salud Araucanía Sur", "nivel_de_a": "Primario", "código_co": "09110", "nombre_com": "MELIPEUCO", "vía": "Calle", "número": 14, "dirección": "Pedro Aguirre Cerda", "teléfono": 452581051, "fecha_inic": "38716", "tiene_serv": null, "tipo_de_ur": "Urgencia Ambulatoria (SUR)", "tipo_de_sa": null, "latitud": -38.854976, "longitud__": -71.698239, "tipo_de_pr": null, "estado_de": null, "nivel_de_c": "Primario", "modalidad": null, "simbologia": "Servicios de Urgencia de Atención Primaria", "fid_comunas_v1": null, "cut_reg": "9", "cut_prov": "091", "cut_com": "09110", "region": "La Araucanía", "provincia": "CAUTÍN", "comuna": "MELIPEUCO", "superficie": null }, "geometry": { "type": "Point", "coordinates": [ -71.69824, -38.85498 ] } },
{ "type": "Feature", "properties": { "objectid": 9997, "fid_establecimientos_de_salud": null, "código_an": "21-572", "código_vi": 121572, "código__m": " ", "código_nu": 0, "código_re": 9, "nombre_reg": "La Araucanía", "código_de": 21, "nombre_dep": "Servicio de Salud Araucanía Sur", "pertenenci": "Perteneciente al Sistema Nacional de Servicios de Salud", "tipo_estab": null, "ámbito_de": "Establecimiento de Salud", "nombre_ofi": null, "certificac": "No Aplica", "dependenci": "Servicio de Salud Araucanía Sur", "nivel_de_a": "Primario", "código_co": "09110", "nombre_com": "MELIPEUCO", "vía": "Calle", "número": 0, "dirección": "Sector Cumcumllaque", "teléfono": 0, "fecha_inic": "38716", "tiene_serv": null, "tipo_de_ur": "No Aplica", "tipo_de_sa": null, "latitud": -38.85453, "longitud__": -71.60633, "tipo_de_pr": null, "estado_de": null, "nivel_de_c": "Primario", "modalidad": null, "simbologia": "Atención Primaria de Salud (APS)", "fid_comunas_v1": null, "cut_reg": "9", "cut_prov": "091", "cut_com": "09110", "region": "La Araucanía", "provincia": "CAUTÍN", "comuna": "MELIPEUCO", "superficie": null }, "geometry": { "type": "Point", "coordinates": [ -71.60633, -38.85453 ] } },
{ "type": "Feature", "properties": { "objectid": 10003, "fid_establecimientos_de_salud": null, "código_an": "21-462", "código_vi": 121462, "código__m": " ", "código_nu": 0, "código_re": 9, "nombre_reg": "La Araucanía", "código_de": 21, "nombre_dep": "Servicio de Salud Araucanía Sur", "pertenenci": "Perteneciente al Sistema Nacional de Servicios de Salud", "tipo_estab": null, "ámbito_de": "Establecimiento de Salud", "nombre_ofi": null, "certificac": "No Aplica", "dependenci": "Servicio de Salud Araucanía Sur", "nivel_de_a": "Primario", "código_co": "09103", "nombre_com": "CUNCO", "vía": "Calle", "número": 0, "dirección": "Sector Pedregoso", "teléfono": 0, "fecha_inic": "38716", "tiene_serv": null, "tipo_de_ur": "No Aplica", "tipo_de_sa": null, "latitud": -38.880975, "longitud__": -72.129129, "tipo_de_pr": null, "estado_de": null, "nivel_de_c": "Primario", "modalidad": null, "simbologia": "Atención Primaria de Salud (APS)", "fid_comunas_v1": null, "cut_reg": "9", "cut_prov": "091", "cut_com": "09103", "region": "La Araucanía", "provincia": "CAUTÍN", "comuna": "CUNCO", "superficie": null }, "geometry": { "type": "Point", "coordinates": [ -72.12913, -38.88097 ] } },
{ "type": "Feature", "properties": { "objectid": 10009, "fid_establecimientos_de_salud": null, "código_an": "29-451", "código_vi": 129451, "código__m": " ", "código_nu": 0, "código_re": 9, "nombre_reg": "La Araucanía", "código_de": 29, "nombre_dep": "Servicio de Salud Araucanía Norte", "pertenenci": "Perteneciente al Sistema Nacional de Servicios de Salud", "tipo_estab": null, "ámbito_de": "Establecimiento de Salud", "nombre_ofi": null, "certificac": "No Aplica", "dependenci": "Servicio de Salud Araucanía Norte", "nivel_de_a": "Primario", "código_co": "09205", "nombre_com": "LONQUIMAY", "vía": "Calle", "número": 0, "dirección": "Sector Icalma", "teléfono": 0, "fecha_inic": "38716", "tiene_serv": null, "tipo_de_ur": "No Aplica", "tipo_de_sa": null, "latitud": -38.81402, "longitud__": -71.28119, "tipo_de_pr": null, "estado_de": null, "nivel_de_c": "Primario", "modalidad": null, "simbologia": "Atención Primaria de Salud (APS)", "fid_comunas_v1": null, "cut_reg": "9", "cut_prov": "092", "cut_com": "09205", "region": "La Araucanía", "provincia": "MALLECO", "comuna": "LONQUIMAY", "superficie": null }, "geometry": { "type": "Point", "coordinates": [ -71.28119, -38.81402 ] } },
{ "type": "Feature", "properties": { "objectid": 10015, "fid_establecimientos_de_salud": null, "código_an": "21-488", "código_vi": 121488, "código__m": " ", "código_nu": 0, "código_re": 9, "nombre_reg": "La Araucanía", "código_de": 21, "nombre_dep": "Servicio de Salud Araucanía Sur", "pertenenci": "Perteneciente al Sistema Nacional de Servicios de Salud", "tipo_estab": null, "ámbito_de": "Establecimiento de Salud", "nombre_ofi": null, "certificac": "No Aplica", "dependenci": "Servicio de Salud Araucanía Sur", "nivel_de_a": "Primario", "código_co": "09119", "nombre_com": "VILCÚN", "vía": "Calle", "número": 0, "dirección": "Sector Codinhue", "teléfono": 0, "fecha_inic": "38716", "tiene_serv": null, "tipo_de_ur": "No Aplica", "tipo_de_sa": null, "latitud": -38.78359, "longitud__": -72.2636, "tipo_de_pr": null, "estado_de": null, "nivel_de_c": "Primario", "modalidad": null, "simbologia": "Atención Primaria de Salud (APS)", "fid_comunas_v1": null, "cut_reg": "9", "cut_prov": "091", "cut_com": "09119", "region": "La Araucanía", "provincia": "CAUTÍN", "comuna": "VILCÚN", "superficie": null }, "geometry": { "type": "Point", "coordinates": [ -72.2636, -38.78359 ] } },
{ "type": "Feature", "properties": { "objectid": 10109, "fid_establecimientos_de_salud": null, "código_an": "21-485", "código_vi": 121485, "código__m": "21-010", "código_nu": 121010, "código_re": 9, "nombre_reg": "La Araucanía", "código_de": 21, "nombre_dep": "Servicio de Salud Araucanía Sur", "pertenenci": "Perteneciente al Sistema Nacional de Servicios de Salud", "tipo_estab": null, "ámbito_de": "Establecimiento de Salud", "nombre_ofi": null, "certificac": "No Aplica", "dependenci": "Servicio de Salud Araucanía Sur", "nivel_de_a": "Primario", "código_co": "09119", "nombre_com": "VILCÚN", "vía": "Calle", "número": 0, "dirección": "Mendoza, Cherquenco", "teléfono": 452603100, "fecha_inic": "38716", "tiene_serv": null, "tipo_de_ur": "No Aplica", "tipo_de_sa": null, "latitud": -38.68633, "longitud__": -72.00333, "tipo_de_pr": null, "estado_de": null, "nivel_de_c": "Primario", "modalidad": null, "simbologia": "Atención Primaria de Salud (APS)", "fid_comunas_v1": null, "cut_reg": "9", "cut_prov": "091", "cut_com": "09119", "region": "La Araucanía", "provincia": "CAUTÍN", "comuna": "VILCÚN", "superficie": null }, "geometry": { "type": "Point", "coordinates": [ -72.00333, -38.68633 ] } },
{ "type": "Feature", "properties": { "objectid": 10111, "fid_establecimientos_de_salud": null, "código_an": "21-112", "código_vi": 121112, "código__m": " ", "código_nu": 0, "código_re": 9, "nombre_reg": "La Araucanía", "código_de": 21, "nombre_dep": "Servicio de Salud Araucanía Sur", "pertenenci": "Perteneciente al Sistema Nacional de Servicios de Salud", "tipo_estab": null, "ámbito_de": "Establecimiento de Salud", "nombre_ofi": null, "certificac": "No Aplica", "dependenci": "Servicio de Salud Araucanía Sur", "nivel_de_a": "Pendiente", "código_co": "09119", "nombre_com": "VILCÚN", "vía": "Calle", "número": 680, "dirección": "Bulnes", "teléfono": 452555450, "fecha_inic": "38716", "tiene_serv": null, "tipo_de_ur": "Urgencia Hospitalaria (UEH)", "tipo_de_sa": null, "latitud": -38.66638, "longitud__": -72.22757, "tipo_de_pr": null, "estado_de": null, "nivel_de_c": "Pendiente", "modalidad": null, "simbologia": "Hospitales y Unidades de Hospitalización", "fid_comunas_v1": null, "cut_reg": "9", "cut_prov": "091", "cut_com": "09119", "region": "La Araucanía", "provincia": "CAUTÍN", "comuna": "VILCÚN", "superficie": null }, "geometry": { "type": "Point", "coordinates": [ -72.22757, -38.66638 ] } },
{ "type": "Feature", "properties": { "objectid": 10114, "fid_establecimientos_de_salud": null, "código_an": "21-486", "código_vi": 121486, "código__m": " ", "código_nu": 0, "código_re": 9, "nombre_reg": "La Araucanía", "código_de": 21, "nombre_dep": "Servicio de Salud Araucanía Sur", "pertenenci": "Perteneciente al Sistema Nacional de Servicios de Salud", "tipo_estab": null, "ámbito_de": "Establecimiento de Salud", "nombre_ofi": null, "certificac": "No Aplica", "dependenci": "Servicio de Salud Araucanía Sur", "nivel_de_a": "Primario", "código_co": "09119", "nombre_com": "VILCÚN", "vía": "Calle", "número": 0, "dirección": "Aldea de San Patricio", "teléfono": 0, "fecha_inic": "38716", "tiene_serv": null, "tipo_de_ur": "No Aplica", "tipo_de_sa": null, "latitud": -38.65818, "longitud__": -72.1153, "tipo_de_pr": null, "estado_de": null, "nivel_de_c": "Primario", "modalidad": null, "simbologia": "Atención Primaria de Salud (APS)", "fid_comunas_v1": null, "cut_reg": "9", "cut_prov": "091", "cut_com": "09119", "region": "La Araucanía", "provincia": "CAUTÍN", "comuna": "VILCÚN", "superficie": null }, "geometry": { "type": "Point", "coordinates": [ -72.1153, -38.65818 ] } },
{ "type": "Feature", "properties": { "objectid": 10136, "fid_establecimientos_de_salud": null, "código_an": "21-476", "código_vi": 121476, "código__m": " ", "código_nu": 0, "código_re": 9, "nombre_reg": "La Araucanía", "código_de": 21, "nombre_dep": "Servicio de Salud Araucanía Sur", "pertenenci": "Perteneciente al Sistema Nacional de Servicios de Salud", "tipo_estab": null, "ámbito_de": "Establecimiento de Salud", "nombre_ofi": null, "certificac": "No Aplica", "dependenci": "Servicio de Salud Araucanía Sur", "nivel_de_a": "Primario", "código_co": "09119", "nombre_com": "VILCÚN", "vía": "Calle", "número": 0, "dirección": "Sector Vega Redonda", "teléfono": 0, "fecha_inic": "38716", "tiene_serv": null, "tipo_de_ur": "No Aplica", "tipo_de_sa": null, "latitud": -38.577229, "longitud__": -72.268622, "tipo_de_pr": null, "estado_de": null, "nivel_de_c": "Primario", "modalidad": null, "simbologia": "Atención Primaria de Salud (APS)", "fid_comunas_v1": null, "cut_reg": "9", "cut_prov": "091", "cut_com": "09119", "region": "La Araucanía", "provincia": "CAUTÍN", "comuna": "VILCÚN", "superficie": null }, "geometry": { "type": "Point", "coordinates": [ -72.26862, -38.57723 ] } },
{ "type": "Feature", "properties": { "objectid": 10138, "fid_establecimientos_de_salud": null, "código_an": "21-590", "código_vi": 121590, "código__m": " ", "código_nu": 0, "código_re": 9, "nombre_reg": "La Araucanía", "código_de": 21, "nombre_dep": "Servicio de Salud Araucanía Sur", "pertenenci": "Perteneciente al Sistema Nacional de Servicios de Salud", "tipo_estab": null, "ámbito_de": "Establecimiento de Salud", "nombre_ofi": null, "certificac": "No Aplica", "dependenci": "Servicio de Salud Araucanía Sur", "nivel_de_a": "Primario", "código_co": "09108", "nombre_com": "LAUTARO", "vía": "Calle", "número": 0, "dirección": "Sector El Escudo", "teléfono": 0, "fecha_inic": "38716", "tiene_serv": null, "tipo_de_ur": "No Aplica", "tipo_de_sa": null, "latitud": -38.56446, "longitud__": -72.08726, "tipo_de_pr": null, "estado_de": null, "nivel_de_c": "Primario", "modalidad": null, "simbologia": "Atención Primaria de Salud (APS)", "fid_comunas_v1": null, "cut_reg": "9", "cut_prov": "091", "cut_com": "09108", "region": "La Araucanía", "provincia": "CAUTÍN", "comuna": "LAUTARO", "superficie": null }, "geometry": { "type": "Point", "coordinates": [ -72.08726, -38.56446 ] } },
{ "type": "Feature", "properties": { "objectid": 10139, "fid_establecimientos_de_salud": null, "código_an": "29-450", "código_vi": 129450, "código__m": " ", "código_nu": 0, "código_re": 9, "nombre_reg": "La Araucanía", "código_de": 29, "nombre_dep": "Servicio de Salud Araucanía Norte", "pertenenci": "Perteneciente al Sistema Nacional de Servicios de Salud", "tipo_estab": null, "ámbito_de": "Establecimiento de Salud", "nombre_ofi": null, "certificac": "No Aplica", "dependenci": "Servicio de Salud Araucanía Norte", "nivel_de_a": "Primario", "código_co": "09205", "nombre_com": "LONQUIMAY", "vía": "Calle", "número": 0, "dirección": "Caserío de Sierra Nevada", "teléfono": 0, "fecha_inic": "38716", "tiene_serv": null, "tipo_de_ur": "No Aplica", "tipo_de_sa": null, "latitud": -38.56314, "longitud__": -71.47661, "tipo_de_pr": null, "estado_de": null, "nivel_de_c": "Primario", "modalidad": null, "simbologia": "Atención Primaria de Salud (APS)", "fid_comunas_v1": null, "cut_reg": "9", "cut_prov": "092", "cut_com": "09205", "region": "La Araucanía", "provincia": "MALLECO", "comuna": "LONQUIMAY", "superficie": null }, "geometry": { "type": "Point", "coordinates": [ -71.47661, -38.56314 ] } },
{ "type": "Feature", "properties": { "objectid": 10145, "fid_establecimientos_de_salud": null, "código_an": "29-453", "código_vi": 129453, "código__m": " ", "código_nu": 0, "código_re": 9, "nombre_reg": "La Araucanía", "código_de": 29, "nombre_dep": "Servicio de Salud Araucanía Norte", "pertenenci": "Perteneciente al Sistema Nacional de Servicios de Salud", "tipo_estab": null, "ámbito_de": "Establecimiento de Salud", "nombre_ofi": null, "certificac": "No Aplica", "dependenci": "Servicio de Salud Araucanía Norte", "nivel_de_a": "Primario", "código_co": "09205", "nombre_com": "LONQUIMAY", "vía": "Calle", "número": 0, "dirección": "Sector Pedregoso", "teléfono": 0, "fecha_inic": "38716", "tiene_serv": null, "tipo_de_ur": "No Aplica", "tipo_de_sa": null, "latitud": -38.53627, "longitud__": -71.25676, "tipo_de_pr": null, "estado_de": null, "nivel_de_c": "Primario", "modalidad": null, "simbologia": "Atención Primaria de Salud (APS)", "fid_comunas_v1": null, "cut_reg": "9", "cut_prov": "092", "cut_com": "09205", "region": "La Araucanía", "provincia": "MALLECO", "comuna": "LONQUIMAY", "superficie": null }, "geometry": { "type": "Point", "coordinates": [ -71.25676, -38.53627 ] } },
{ "type": "Feature", "properties": { "objectid": 10154, "fid_establecimientos_de_salud": null, "código_an": "29-443", "código_vi": 129443, "código__m": " ", "código_nu": 0, "código_re": 9, "nombre_reg": "La Araucanía", "código_de": 29, "nombre_dep": "Servicio de Salud Araucanía Norte", "pertenenci": "Perteneciente al Sistema Nacional de Servicios de Salud", "tipo_estab": null, "ámbito_de": "Establecimiento de Salud", "nombre_ofi": null, "certificac": "No Aplica", "dependenci": "Servicio de Salud Araucanía Norte", "nivel_de_a": "Primario", "código_co": "09203", "nombre_com": "CURACAUTÍN", "vía": "Calle", "número": 0, "dirección": "Sector La Tepa", "teléfono": 0, "fecha_inic": "38716", "tiene_serv": null, "tipo_de_ur": "No Aplica", "tipo_de_sa": null, "latitud": -38.50738, "longitud__": -71.82475, "tipo_de_pr": null, "estado_de": null, "nivel_de_c": "Primario", "modalidad": null, "simbologia": "Atención Primaria de Salud (APS)", "fid_comunas_v1": null, "cut_reg": "9", "cut_prov": "092", "cut_com": "09203", "region": "La Araucanía", "provincia": "MALLECO", "comuna": "CURACAUTÍN", "superficie": null }, "geometry": { "type": "Point", "coordinates": [ -71.82475, -38.50738 ] } },
{ "type": "Feature", "properties": { "objectid": 10160, "fid_establecimientos_de_salud": null, "código_an": "29-442", "código_vi": 129442, "código__m": " ", "código_nu": 0, "código_re": 9, "nombre_reg": "La Araucanía", "código_de": 29, "nombre_dep": "Servicio de Salud Araucanía Norte", "pertenenci": "Perteneciente al Sistema Nacional de Servicios de Salud", "tipo_estab": null, "ámbito_de": "Establecimiento de Salud", "nombre_ofi": null, "certificac": "No Aplica", "dependenci": "Servicio de Salud Araucanía Norte", "nivel_de_a": "Primario", "código_co": "09203", "nombre_com": "CURACAUTÍN", "vía": "Calle", "número": 0, "dirección": "Sector Río Blanco", "teléfono": 0, "fecha_inic": "38716", "tiene_serv": null, "tipo_de_ur": "No Aplica", "tipo_de_sa": null, "latitud": -38.48628, "longitud__": -71.72659, "tipo_de_pr": null, "estado_de": null, "nivel_de_c": "Primario", "modalidad": null, "simbologia": "Atención Primaria de Salud (APS)", "fid_comunas_v1": null, "cut_reg": "9", "cut_prov": "092", "cut_com": "09203", "region": "La Araucanía", "provincia": "MALLECO", "comuna": "CURACAUTÍN", "superficie": null }, "geometry": { "type": "Point", "coordinates": [ -71.72659, -38.48628 ] } },
{ "type": "Feature", "properties": { "objectid": 10162, "fid_establecimientos_de_salud": null, "código_an": "29-588", "código_vi": 129588, "código__m": " ", "código_nu": 0, "código_re": 9, "nombre_reg": "La Araucanía", "código_de": 29, "nombre_dep": "Servicio de Salud Araucanía Norte", "pertenenci": "Perteneciente al Sistema Nacional de Servicios de Salud", "tipo_estab": null, "ámbito_de": "Establecimiento de Salud", "nombre_ofi": null, "certificac": "No Aplica", "dependenci": "Servicio de Salud Araucanía Norte", "nivel_de_a": "Primario", "código_co": "09203", "nombre_com": "CURACAUTÍN", "vía": "Calle", "número": 0, "dirección": "Caserío de Santa Julia", "teléfono": 0, "fecha_inic": "38716", "tiene_serv": null, "tipo_de_ur": "No Aplica", "tipo_de_sa": null, "latitud": -38.48147, "longitud__": -71.98348, "tipo_de_pr": null, "estado_de": null, "nivel_de_c": "Primario", "modalidad": null, "simbologia": "Atención Primaria de Salud (APS)", "fid_comunas_v1": null, "cut_reg": "9", "cut_prov": "092", "cut_com": "09203", "region": "La Araucanía", "provincia": "MALLECO", "comuna": "CURACAUTÍN", "superficie": null }, "geometry": { "type": "Point", "coordinates": [ -71.98348, -38.48147 ] } },
{ "type": "Feature", "properties": { "objectid": 10163, "fid_establecimientos_de_salud": null, "código_an": "29-441", "código_vi": 129441, "código__m": " ", "código_nu": 0, "código_re": 9, "nombre_reg": "La Araucanía", "código_de": 29, "nombre_dep": "Servicio de Salud Araucanía Norte", "pertenenci": "Perteneciente al Sistema Nacional de Servicios de Salud", "tipo_estab": null, "ámbito_de": "Establecimiento de Salud", "nombre_ofi": null, "certificac": "No Aplica", "dependenci": "Servicio de Salud Araucanía Norte", "nivel_de_a": "Primario", "código_co": "09203", "nombre_com": "CURACAUTÍN", "vía": "Calle", "número": 0, "dirección": "Aldea de Malalcahuello", "teléfono": 0, "fecha_inic": "38716", "tiene_serv": null, "tipo_de_ur": "No Aplica", "tipo_de_sa": null, "latitud": -38.47497, "longitud__": -71.58215, "tipo_de_pr": null, "estado_de": null, "nivel_de_c": "Primario", "modalidad": null, "simbologia": "Atención Primaria de Salud (APS)", "fid_comunas_v1": null, "cut_reg": "9", "cut_prov": "092", "cut_com": "09203", "region": "La Araucanía", "provincia": "MALLECO", "comuna": "CURACAUTÍN", "superficie": null }, "geometry": { "type": "Point", "coordinates": [ -71.58215, -38.47497 ] } },
{ "type": "Feature", "properties": { "objectid": 10164, "fid_establecimientos_de_salud": null, "código_an": "29-444", "código_vi": 129444, "código__m": " ", "código_nu": 0, "código_re": 9, "nombre_reg": "La Araucanía", "código_de": 29, "nombre_dep": "Servicio de Salud Araucanía Norte", "pertenenci": "Perteneciente al Sistema Nacional de Servicios de Salud", "tipo_estab": null, "ámbito_de": "Establecimiento de Salud", "nombre_ofi": null, "certificac": "No Aplica", "dependenci": "Servicio de Salud Araucanía Norte", "nivel_de_a": "Primario", "código_co": "09203", "nombre_com": "CURACAUTÍN", "vía": "Calle", "número": 0, "dirección": "Aldea de Santa Ana", "teléfono": 0, "fecha_inic": "38716", "tiene_serv": null, "tipo_de_ur": "No Aplica", "tipo_de_sa": null, "latitud": -38.47129, "longitud__": -72.0331, "tipo_de_pr": null, "estado_de": null, "nivel_de_c": "Primario", "modalidad": null, "simbologia": "Atención Primaria de Salud (APS)", "fid_comunas_v1": null, "cut_reg": "9", "cut_prov": "092", "cut_com": "09203", "region": "La Araucanía", "provincia": "MALLECO", "comuna": "CURACAUTÍN", "superficie": null }, "geometry": { "type": "Point", "coordinates": [ -72.0331, -38.47129 ] } },
{ "type": "Feature", "properties": { "objectid": 10170, "fid_establecimientos_de_salud": null, "código_an": "29-447", "código_vi": 129447, "código__m": " ", "código_nu": 0, "código_re": 9, "nombre_reg": "La Araucanía", "código_de": 29, "nombre_dep": "Servicio de Salud Araucanía Norte", "pertenenci": "Perteneciente al Sistema Nacional de Servicios de Salud", "tipo_estab": null, "ámbito_de": "Establecimiento de Salud", "nombre_ofi": null, "certificac": "No Aplica", "dependenci": "Servicio de Salud Araucanía Norte", "nivel_de_a": "Primario", "código_co": "09203", "nombre_com": "CURACAUTÍN", "vía": "Calle", "número": 0, "dirección": "Caserío de Manzanar", "teléfono": 0, "fecha_inic": "38716", "tiene_serv": null, "tipo_de_ur": "No Aplica", "tipo_de_sa": null, "latitud": -38.466115, "longitud__": -71.698397, "tipo_de_pr": null, "estado_de": null, "nivel_de_c": "Primario", "modalidad": null, "simbologia": "Atención Primaria de Salud (APS)", "fid_comunas_v1": null, "cut_reg": "9", "cut_prov": "092", "cut_com": "09203", "region": "La Araucanía", "provincia": "MALLECO", "comuna": "CURACAUTÍN", "superficie": null }, "geometry": { "type": "Point", "coordinates": [ -71.6984, -38.46611 ] } },
{ "type": "Feature", "properties": { "objectid": 10173, "fid_establecimientos_de_salud": null, "código_an": "29-108", "código_vi": 129108, "código__m": " ", "código_nu": 0, "código_re": 9, "nombre_reg": "La Araucanía", "código_de": 29, "nombre_dep": "Servicio de Salud Araucanía Norte", "pertenenci": "Perteneciente al Sistema Nacional de Servicios de Salud", "tipo_estab": null, "ámbito_de": "Establecimiento de Salud", "nombre_ofi": null, "certificac": "No Aplica", "dependenci": "Servicio de Salud Araucanía Norte", "nivel_de_a": "Pendiente", "código_co": "09205", "nombre_com": "LONQUIMAY", "vía": "Calle", "número": 1060, "dirección": "O'Higgins", "teléfono": 452557500, "fecha_inic": "38716", "tiene_serv": null, "tipo_de_ur": "Urgencia Hospitalaria (UEH)", "tipo_de_sa": null, "latitud": -38.458231, "longitud__": -71.365218, "tipo_de_pr": null, "estado_de": null, "nivel_de_c": "Pendiente", "modalidad": null, "simbologia": "Hospitales y Unidades de Hospitalización", "fid_comunas_v1": null, "cut_reg": "9", "cut_prov": "092", "cut_com": "09205", "region": "La Araucanía", "provincia": "MALLECO", "comuna": "LONQUIMAY", "superficie": null }, "geometry": { "type": "Point", "coordinates": [ -71.36522, -38.45823 ] } },
{ "type": "Feature", "properties": { "objectid": 10177, "fid_establecimientos_de_salud": null, "código_an": "29-107", "código_vi": 129107, "código__m": " ", "código_nu": 0, "código_re": 9, "nombre_reg": "La Araucanía", "código_de": 29, "nombre_dep": "Servicio de Salud Araucanía Norte", "pertenenci": "Perteneciente al Sistema Nacional de Servicios de Salud", "tipo_estab": null, "ámbito_de": "Establecimiento de Salud", "nombre_ofi": null, "certificac": "No Aplica", "dependenci": "Servicio de Salud Araucanía Norte", "nivel_de_a": "Pendiente", "código_co": "09203", "nombre_com": "CURACAUTÍN", "vía": "Calle", "número": 0, "dirección": "Serrano", "teléfono": 452551800, "fecha_inic": "38716", "tiene_serv": null, "tipo_de_ur": "Urgencia Hospitalaria (UEH)", "tipo_de_sa": null, "latitud": -38.43933, "longitud__": -71.89136, "tipo_de_pr": null, "estado_de": null, "nivel_de_c": "Pendiente", "modalidad": null, "simbologia": "Hospitales y Unidades de Hospitalización", "fid_comunas_v1": null, "cut_reg": "9", "cut_prov": "092", "cut_com": "09203", "region": "La Araucanía", "provincia": "MALLECO", "comuna": "CURACAUTÍN", "superficie": null }, "geometry": { "type": "Point", "coordinates": [ -71.89136, -38.43933 ] } },
{ "type": "Feature", "properties": { "objectid": 10178, "fid_establecimientos_de_salud": null, "código_an": "29-446", "código_vi": 129446, "código__m": " ", "código_nu": 0, "código_re": 9, "nombre_reg": "La Araucanía", "código_de": 29, "nombre_dep": "Servicio de Salud Araucanía Norte", "pertenenci": "Perteneciente al Sistema Nacional de Servicios de Salud", "tipo_estab": null, "ámbito_de": "Establecimiento de Salud", "nombre_ofi": null, "certificac": "No Aplica", "dependenci": "Servicio de Salud Araucanía Norte", "nivel_de_a": "Primario", "código_co": "09203", "nombre_com": "CURACAUTÍN", "vía": "Calle", "número": 0, "dirección": "Caserío de Rariruca", "teléfono": 0, "fecha_inic": "38716", "tiene_serv": null, "tipo_de_ur": "No Aplica", "tipo_de_sa": null, "latitud": -38.42829, "longitud__": -72.00895, "tipo_de_pr": null, "estado_de": null, "nivel_de_c": "Primario", "modalidad": null, "simbologia": "Atención Primaria de Salud (APS)", "fid_comunas_v1": null, "cut_reg": "9", "cut_prov": "092", "cut_com": "09203", "region": "La Araucanía", "provincia": "MALLECO", "comuna": "CURACAUTÍN", "superficie": null }, "geometry": { "type": "Point", "coordinates": [ -72.00895, -38.42829 ] } },
{ "type": "Feature", "properties": { "objectid": 10188, "fid_establecimientos_de_salud": null, "código_an": "29-445", "código_vi": 129445, "código__m": " ", "código_nu": 0, "código_re": 9, "nombre_reg": "La Araucanía", "código_de": 29, "nombre_dep": "Servicio de Salud Araucanía Norte", "pertenenci": "Perteneciente al Sistema Nacional de Servicios de Salud", "tipo_estab": null, "ámbito_de": "Establecimiento de Salud", "nombre_ofi": null, "certificac": "No Aplica", "dependenci": "Servicio de Salud Araucanía Norte", "nivel_de_a": "Primario", "código_co": "09203", "nombre_com": "CURACAUTÍN", "vía": "Calle", "número": 0, "dirección": "Sector Radalco", "teléfono": 0, "fecha_inic": "38716", "tiene_serv": null, "tipo_de_ur": "No Aplica", "tipo_de_sa": null, "latitud": -38.373, "longitud__": -71.95952, "tipo_de_pr": null, "estado_de": null, "nivel_de_c": "Primario", "modalidad": null, "simbologia": "Atención Primaria de Salud (APS)", "fid_comunas_v1": null, "cut_reg": "9", "cut_prov": "092", "cut_com": "09203", "region": "La Araucanía", "provincia": "MALLECO", "comuna": "CURACAUTÍN", "superficie": null }, "geometry": { "type": "Point", "coordinates": [ -71.95952, -38.373 ] } },
{ "type": "Feature", "properties": { "objectid": 12850, "fid_establecimientos_de_salud": null, "código_an": "201488", "código_vi": 201488, "código__m": " ", "código_nu": 0, "código_re": 9, "nombre_reg": "La Araucanía", "código_de": 29, "nombre_dep": "Servicio de Salud Araucanía Norte", "pertenenci": "Perteneciente al Sistema Nacional de Servicios de Salud", "tipo_estab": null, "ámbito_de": "Establecimiento de Salud", "nombre_ofi": null, "certificac": "No Aplica", "dependenci": "Servicio de Salud Araucanía Norte", "nivel_de_a": "Primario", "código_co": "09205", "nombre_com": "LONQUIMAY", "vía": "Otro", "número": 0, "dirección": "sector Huallen Mapu", "teléfono": 0, "fecha_inic": null, "tiene_serv": null, "tipo_de_ur": "No Aplica", "tipo_de_sa": null, "latitud": -38.708478, "longitud__": -71.217513, "tipo_de_pr": null, "estado_de": null, "nivel_de_c": "Primario", "modalidad": null, "simbologia": "Atención Primaria de Salud (APS)", "fid_comunas_v1": null, "cut_reg": "9", "cut_prov": "092", "cut_com": "09205", "region": "La Araucanía", "provincia": "MALLECO", "comuna": "LONQUIMAY", "superficie": null }, "geometry": { "type": "Point", "coordinates": [ -71.21751, -38.70848 ] } },
{ "type": "Feature", "properties": { "objectid": 13075, "fid_establecimientos_de_salud": null, "código_an": "201717", "código_vi": 201717, "código__m": " ", "código_nu": 0, "código_re": 9, "nombre_reg": "La Araucanía", "código_de": 29, "nombre_dep": "Servicio de Salud Araucanía Norte", "pertenenci": "Perteneciente al Sistema Nacional de Servicios de Salud", "tipo_estab": null, "ámbito_de": "Establecimiento de Salud", "nombre_ofi": null, "certificac": "No Aplica", "dependenci": "Servicio de Salud Araucanía Norte", "nivel_de_a": "Primario", "código_co": "09205", "nombre_com": "LONQUIMAY", "vía": "Otro", "número": 0, "dirección": "Sector Icalma S/N", "teléfono": 0, "fecha_inic": "45536", "tiene_serv": null, "tipo_de_ur": "Urgencia Ambulatoria (SUR)", "tipo_de_sa": null, "latitud": -38.814076, "longitud__": -71.281172, "tipo_de_pr": null, "estado_de": null, "nivel_de_c": "Primario", "modalidad": null, "simbologia": "Servicios de Urgencia de Atención Primaria", "fid_comunas_v1": null, "cut_reg": "9", "cut_prov": "092", "cut_com": "09205", "region": "La Araucanía", "provincia": "MALLECO", "comuna": "LONQUIMAY", "superficie": null }, "geometry": { "type": "Point", "coordinates": [ -71.28117, -38.81408 ] } }
]
}
