{
"type": "FeatureCollection",
"name": "LON",
"crs": { "type": "name", "properties": { "name": "urn:ogc:def:crs:OGC:1.3:CRS84" } },
"xy_coordinate_resolution": 1e-05,
"features": [
{ "type": "Feature", "properties": { "objectid": 10138, "fid_establecimientos_de_salud": null, "código_an": "21-590", "código_vi": 121590, "código__m": " ", "código_nu": 0, "código_re": 9, "nombre_reg": "La Araucanía", "código_de": 21, "nombre_dep": "Servicio de Salud Araucanía Sur", "pertenenci": "Perteneciente al Sistema Nacional de Servicios de Salud", "tipo_estab": null, "ámbito_de": "Establecimiento de Salud", "nombre_ofi": null, "certificac": "No Aplica", "dependenci": "Servicio de Salud Araucanía Sur", "nivel_de_a": "Primario", "código_co": "09108", "nombre_com": "LAUTARO", "vía": "Calle", "número": 0, "dirección": "Sector El Escudo", "teléfono": 0, "fecha_inic": "38716", "tiene_serv": null, "tipo_de_ur": "No Aplica", "tipo_de_sa": null, "latitud": -38.56446, "longitud__": -72.08726, "tipo_de_pr": null, "estado_de": null, "nivel_de_c": "Primario", "modalidad": null, "simbologia": "Atención Primaria de Salud (APS)", "fid_comunas_v1": null, "cut_reg": "9", "cut_prov": "091", "cut_com": "09108", "region": "La Araucanía", "provincia": "CAUTÍN", "comuna": "LAUTARO", "superficie": null }, "geometry": { "type": "Point", "coordinates": [ -72.08726, -38.56446 ] } },
{ "type": "Feature", "properties": { "objectid": 10139, "fid_establecimientos_de_salud": null, "código_an": "29-450", "código_vi": 129450, "código__m": " ", "código_nu": 0, "código_re": 9, "nombre_reg": "La Araucanía", "código_de": 29, "nombre_dep": "Servicio de Salud Araucanía Norte", "pertenenci": "Perteneciente al Sistema Nacional de Servicios de Salud", "tipo_estab": null, "ámbito_de": "Establecimiento de Salud", "nombre_ofi": null, "certificac": "No Aplica", "dependenci": "Servicio de Salud Araucanía Norte", "nivel_de_a": "Primario", "código_co": "09205", "nombre_com": "LONQUIMAY", "vía": "Calle", "número": 0, "dirección": "Caserío de Sierra Nevada", "teléfono": 0, "fecha_inic": "38716", "tiene_serv": null, "tipo_de_ur": "No Aplica", "tipo_de_sa": null, "latitud": -38.56314, "longitud__": -71.47661, "tipo_de_pr": null, "estado_de": null, "nivel_de_c": "Primario", "modalidad": null, "simbologia": "Atención Primaria de Salud (APS)", "fid_comunas_v1": null, "cut_reg": "9", "cut_prov": "092", "cut_com": "09205", "region": "La Araucanía", "provincia": "MALLECO", "comuna": "LONQUIMAY", "superficie": null }, "geometry": { "type": "Point", "coordinates": [ -71.47661, -38.56314 ] } },
{ "type": "Feature", "properties": { "objectid": 10140, "fid_establecimientos_de_salud": null, "código_an": "29-454", "código_vi": 129454, "código__m": " ", "código_nu": 0, "código_re": 9, "nombre_reg": "La Araucanía", "código_de": 29, "nombre_dep": "Servicio de Salud Araucanía Norte", "pertenenci": "Perteneciente al Sistema Nacional de Servicios de Salud", "tipo_estab": null, "ámbito_de": "Establecimiento de Salud", "nombre_ofi": null, "certificac": "No Aplica", "dependenci": "Servicio de Salud Araucanía Norte", "nivel_de_a": "Primario", "código_co": "09205", "nombre_com": "LONQUIMAY", "vía": "Calle", "número": 0, "dirección": "Sector Pichipihuenco", "teléfono": 0, "fecha_inic": "38716", "tiene_serv": null, "tipo_de_ur": "No Aplica", "tipo_de_sa": null, "latitud": -38.5548, "longitud__": -71.163, "tipo_de_pr": null, "estado_de": null, "nivel_de_c": "Primario", "modalidad": null, "simbologia": "Atención Primaria de Salud (APS)", "fid_comunas_v1": null, "cut_reg": "9", "cut_prov": "092", "cut_com": "09205", "region": "La Araucanía", "provincia": "MALLECO", "comuna": "LONQUIMAY", "superficie": null }, "geometry": { "type": "Point", "coordinates": [ -71.163, -38.5548 ] } },
{ "type": "Feature", "properties": { "objectid": 10145, "fid_establecimientos_de_salud": null, "código_an": "29-453", "código_vi": 129453, "código__m": " ", "código_nu": 0, "código_re": 9, "nombre_reg": "La Araucanía", "código_de": 29, "nombre_dep": "Servicio de Salud Araucanía Norte", "pertenenci": "Perteneciente al Sistema Nacional de Servicios de Salud", "tipo_estab": null, "ámbito_de": "Establecimiento de Salud", "nombre_ofi": null, "certificac": "No Aplica", "dependenci": "Servicio de Salud Araucanía Norte", "nivel_de_a": "Primario", "código_co": "09205", "nombre_com": "LONQUIMAY", "vía": "Calle", "número": 0, "dirección": "Sector Pedregoso", "teléfono": 0, "fecha_inic": "38716", "tiene_serv": null, "tipo_de_ur": "No Aplica", "tipo_de_sa": null, "latitud": -38.53627, "longitud__": -71.25676, "tipo_de_pr": null, "estado_de": null, "nivel_de_c": "Primario", "modalidad": null, "simbologia": "Atención Primaria de Salud (APS)", "fid_comunas_v1": null, "cut_reg": "9", "cut_prov": "092", "cut_com": "09205", "region": "La Araucanía", "provincia": "MALLECO", "comuna": "LONQUIMAY", "superficie": null }, "geometry": { "type": "Point", "coordinates": [ -71.25676, -38.53627 ] } },
{ "type": "Feature", "properties": { "objectid": 10154, "fid_establecimientos_de_salud": null, "código_an": "29-443", "código_vi": 129443, "código__m": " ", "código_nu": 0, "código_re": 9, "nombre_reg": "La Araucanía", "código_de": 29, "nombre_dep": "Servicio de Salud Araucanía Norte", "pertenenci": "Perteneciente al Sistema Nacional de Servicios de Salud", "tipo_estab": null, "ámbito_de": "Establecimiento de Salud", "nombre_ofi": null, "certificac": "No Aplica", "dependenci": "Servicio de Salud Araucanía Norte", "nivel_de_a": "Primario", "código_co": "09203", "nombre_com": "CURACAUTÍN", "vía": "Calle", "número": 0, "dirección": "Sector La Tepa", "teléfono": 0, "fecha_inic": "38716", "tiene_serv": null, "tipo_de_ur": "No Aplica", "tipo_de_sa": null, "latitud": -38.50738, "longitud__": -71.82475, "tipo_de_pr": null, "estado_de": null, "nivel_de_c": "Primario", "modalidad": null, "simbologia": "Atención Primaria de Salud (APS)", "fid_comunas_v1": null, "cut_reg": "9", "cut_prov": "092", "cut_com": "09203", "region": "La Araucanía", "provincia": "MALLECO", "comuna": "CURACAUTÍN", "superficie": null }, "geometry": { "type": "Point", "coordinates": [ -71.82475, -38.50738 ] } },
{ "type": "Feature", "properties": { "objectid": 10160, "fid_establecimientos_de_salud": null, "código_an": "29-442", "código_vi": 129442, "código__m": " ", "código_nu": 0, "código_re": 9, "nombre_reg": "La Araucanía", "código_de": 29, "nombre_dep": "Servicio de Salud Araucanía Norte", "pertenenci": "Perteneciente al Sistema Nacional de Servicios de Salud", "tipo_estab": null, "ámbito_de": "Establecimiento de Salud", "nombre_ofi": null, "certificac": "No Aplica", "dependenci": "Servicio de Salud Araucanía Norte", "nivel_de_a": "Primario", "código_co": "09203", "nombre_com": "CURACAUTÍN", "vía": "Calle", "número": 0, "dirección": "Sector Río Blanco", "teléfono": 0, "fecha_inic": "38716", "tiene_serv": null, "tipo_de_ur": "No Aplica", "tipo_de_sa": null, "latitud": -38.48628, "longitud__": -71.72659, "tipo_de_pr": null, "estado_de": null, "nivel_de_c": "Primario", "modalidad": null, "simbologia": "Atención Primaria de Salud (APS)", "fid_comunas_v1": null, "cut_reg": "9", "cut_prov": "092", "cut_com": "09203", "region": "La Araucanía", "provincia": "MALLECO", "comuna": "CURACAUTÍN", "superficie": null }, "geometry": { "type": "Point", "coordinates": [ -71.72659, -38.48628 ] } },
{ "type": "Feature", "properties": { "objectid": 10162, "fid_establecimientos_de_salud": null, "código_an": "29-588", "código_vi": 129588, "código__m": " ", "código_nu": 0, "código_re": 9, "nombre_reg": "La Araucanía", "código_de": 29, "nombre_dep": "Servicio de Salud Araucanía Norte", "pertenenci": "Perteneciente al Sistema Nacional de Servicios de Salud", "tipo_estab": null, "ámbito_de": "Establecimiento de Salud", "nombre_ofi": null, "certificac": "No Aplica", "dependenci": "Servicio de Salud Araucanía Norte", "nivel_de_a": "Primario", "código_co": "09203", "nombre_com": "CURACAUTÍN", "vía": "Calle", "número": 0, "dirección": "Caserío de Santa Julia", "teléfono": 0, "fecha_inic": "38716", "tiene_serv": null, "tipo_de_ur": "No Aplica", "tipo_de_sa": null, "latitud": -38.48147, "longitud__": -71.98348, "tipo_de_pr": null, "estado_de": null, "nivel_de_c": "Primario", "modalidad": null, "simbologia": "Atención Primaria de Salud (APS)", "fid_comunas_v1": null, "cut_reg": "9", "cut_prov": "092", "cut_com": "09203", "region": "La Araucanía", "provincia": "MALLECO", "comuna": "CURACAUTÍN", "superficie": null }, "geometry": { "type": "Point", "coordinates": [ -71.98348, -38.48147 ] } },
{ "type": "Feature", "properties": { "objectid": 10163, "fid_establecimientos_de_salud": null, "código_an": "29-441", "código_vi": 129441, "código__m": " ", "código_nu": 0, "código_re": 9, "nombre_reg": "La Araucanía", "código_de": 29, "nombre_dep": "Servicio de Salud Araucanía Norte", "pertenenci": "Perteneciente al Sistema Nacional de Servicios de Salud", "tipo_estab": null, "ámbito_de": "Establecimiento de Salud", "nombre_ofi": null, "certificac": "No Aplica", "dependenci": "Servicio de Salud Araucanía Norte", "nivel_de_a": "Primario", "código_co": "09203", "nombre_com": "CURACAUTÍN", "vía": "Calle", "número": 0, "dirección": "Aldea de Malalcahuello", "teléfono": 0, "fecha_inic": "38716", "tiene_serv": null, "tipo_de_ur": "No Aplica", "tipo_de_sa": null, "latitud": -38.47497, "longitud__": -71.58215, "tipo_de_pr": null, "estado_de": null, "nivel_de_c": "Primario", "modalidad": null, "simbologia": "Atención Primaria de Salud (APS)", "fid_comunas_v1": null, "cut_reg": "9", "cut_prov": "092", "cut_com": "09203", "region": "La Araucanía", "provincia": "MALLECO", "comuna": "CURACAUTÍN", "superficie": null }, "geometry": { "type": "Point", "coordinates": [ -71.58215, -38.47497 ] } },
{ "type": "Feature", "properties": { "objectid": 10164, "fid_establecimientos_de_salud": null, "código_an": "29-444", "código_vi": 129444, "código__m": " ", "código_nu": 0, "código_re": 9, "nombre_reg": "La Araucanía", "código_de": 29, "nombre_dep": "Servicio de Salud Araucanía Norte", "pertenenci": "Perteneciente al Sistema Nacional de Servicios de Salud", "tipo_estab": null, "ámbito_de": "Establecimiento de Salud", "nombre_ofi": null, "certificac": "No Aplica", "dependenci": "Servicio de Salud Araucanía Norte", "nivel_de_a": "Primario", "código_co": "09203", "nombre_com": "CURACAUTÍN", "vía": "Calle", "número": 0, "dirección": "Aldea de Santa Ana", "teléfono": 0, "fecha_inic": "38716", "tiene_serv": null, "tipo_de_ur": "No Aplica", "tipo_de_sa": null, "latitud": -38.47129, "longitud__": -72.0331, "tipo_de_pr": null, "estado_de": null, "nivel_de_c": "Primario", "modalidad": null, "simbologia": "Atención Primaria de Salud (APS)", "fid_comunas_v1": null, "cut_reg": "9", "cut_prov": "092", "cut_com": "09203", "region": "La Araucanía", "provincia": "MALLECO", "comuna": "CURACAUTÍN", "superficie": null }, "geometry": { "type": "Point", "coordinates": [ -72.0331, -38.47129 ] } },
{ "type": "Feature", "properties": { "objectid": 10170, "fid_establecimientos_de_salud": null, "código_an": "29-447", "código_vi": 129447, "código__m": " ", "código_nu": 0, "código_re": 9, "nombre_reg": "La Araucanía", "código_de": 29, "nombre_dep": "Servicio de Salud Araucanía Norte", "pertenenci": "Perteneciente al Sistema Nacional de Servicios de Salud", "tipo_estab": null, "ámbito_de": "Establecimiento de Salud", "nombre_ofi": null, "certificac": "No Aplica", "dependenci": "Servicio de Salud Araucanía Norte", "nivel_de_a": "Primario", "código_co": "09203", "nombre_com": "CURACAUTÍN", "vía": "Calle", "número": 0, "dirección": "Caserío de Manzanar", "teléfono": 0, "fecha_inic": "38716", "tiene_serv": null, "tipo_de_ur": "No Aplica", "tipo_de_sa": null, "latitud": -38.466115, "longitud__": -71.698397, "tipo_de_pr": null, "estado_de": null, "nivel_de_c": "Primario", "modalidad": null, "simbologia": "Atención Primaria de Salud (APS)", "fid_comunas_v1": null, "cut_reg": "9", "cut_prov": "092", "cut_com": "09203", "region": "La Araucanía", "provincia": "MALLECO", "comuna": "CURACAUTÍN", "superficie": null }, "geometry": { "type": "Point", "coordinates": [ -71.6984, -38.46611 ] } },
{ "type": "Feature", "properties": { "objectid": 10173, "fid_establecimientos_de_salud": null, "código_an": "29-108", "código_vi": 129108, "código__m": " ", "código_nu": 0, "código_re": 9, "nombre_reg": "La Araucanía", "código_de": 29, "nombre_dep": "Servicio de Salud Araucanía Norte", "pertenenci": "Perteneciente al Sistema Nacional de Servicios de Salud", "tipo_estab": null, "ámbito_de": "Establecimiento de Salud", "nombre_ofi": null, "certificac": "No Aplica", "dependenci": "Servicio de Salud Araucanía Norte", "nivel_de_a": "Pendiente", "código_co": "09205", "nombre_com": "LONQUIMAY", "vía": "Calle", "número": 1060, "dirección": "O'Higgins", "teléfono": 452557500, "fecha_inic": "38716", "tiene_serv": null, "tipo_de_ur": "Urgencia Hospitalaria (UEH)", "tipo_de_sa": null, "latitud": -38.458231, "longitud__": -71.365218, "tipo_de_pr": null, "estado_de": null, "nivel_de_c": "Pendiente", "modalidad": null, "simbologia": "Hospitales y Unidades de Hospitalización", "fid_comunas_v1": null, "cut_reg": "9", "cut_prov": "092", "cut_com": "09205", "region": "La Araucanía", "provincia": "MALLECO", "comuna": "LONQUIMAY", "superficie": null }, "geometry": { "type": "Point", "coordinates": [ -71.36522, -38.45823 ] } },
{ "type": "Feature", "properties": { "objectid": 10174, "fid_establecimientos_de_salud": null, "código_an": "29-449", "código_vi": 129449, "código__m": " ", "código_nu": 0, "código_re": 9, "nombre_reg": "La Araucanía", "código_de": 29, "nombre_dep": "Servicio de Salud Araucanía Norte", "pertenenci": "Perteneciente al Sistema Nacional de Servicios de Salud", "tipo_estab": null, "ámbito_de": "Establecimiento de Salud", "nombre_ofi": null, "certificac": "No Aplica", "dependenci": "Servicio de Salud Araucanía Norte", "nivel_de_a": "Primario", "código_co": "09205", "nombre_com": "LONQUIMAY", "vía": "Calle", "número": 0, "dirección": "Sector Lolén", "teléfono": 0, "fecha_inic": "38716", "tiene_serv": null, "tipo_de_ur": "No Aplica", "tipo_de_sa": null, "latitud": -38.464233, "longitud__": -71.234104, "tipo_de_pr": null, "estado_de": null, "nivel_de_c": "Primario", "modalidad": null, "simbologia": "Atención Primaria de Salud (APS)", "fid_comunas_v1": null, "cut_reg": "9", "cut_prov": "092", "cut_com": "09205", "region": "La Araucanía", "provincia": "MALLECO", "comuna": "LONQUIMAY", "superficie": null }, "geometry": { "type": "Point", "coordinates": [ -71.2341, -38.46423 ] } },
{ "type": "Feature", "properties": { "objectid": 10177, "fid_establecimientos_de_salud": null, "código_an": "29-107", "código_vi": 129107, "código__m": " ", "código_nu": 0, "código_re": 9, "nombre_reg": "La Araucanía", "código_de": 29, "nombre_dep": "Servicio de Salud Araucanía Norte", "pertenenci": "Perteneciente al Sistema Nacional de Servicios de Salud", "tipo_estab": null, "ámbito_de": "Establecimiento de Salud", "nombre_ofi": null, "certificac": "No Aplica", "dependenci": "Servicio de Salud Araucanía Norte", "nivel_de_a": "Pendiente", "código_co": "09203", "nombre_com": "CURACAUTÍN", "vía": "Calle", "número": 0, "dirección": "Serrano", "teléfono": 452551800, "fecha_inic": "38716", "tiene_serv": null, "tipo_de_ur": "Urgencia Hospitalaria (UEH)", "tipo_de_sa": null, "latitud": -38.43933, "longitud__": -71.89136, "tipo_de_pr": null, "estado_de": null, "nivel_de_c": "Pendiente", "modalidad": null, "simbologia": "Hospitales y Unidades de Hospitalización", "fid_comunas_v1": null, "cut_reg": "9", "cut_prov": "092", "cut_com": "09203", "region": "La Araucanía", "provincia": "MALLECO", "comuna": "CURACAUTÍN", "superficie": null }, "geometry": { "type": "Point", "coordinates": [ -71.89136, -38.43933 ] } },
{ "type": "Feature", "properties": { "objectid": 10178, "fid_establecimientos_de_salud": null, "código_an": "29-446", "código_vi": 129446, "código__m": " ", "código_nu": 0, "código_re": 9, "nombre_reg": "La Araucanía", "código_de": 29, "nombre_dep": "Servicio de Salud Araucanía Norte", "pertenenci": "Perteneciente al Sistema Nacional de Servicios de Salud", "tipo_estab": null, "ámbito_de": "Establecimiento de Salud", "nombre_ofi": null, "certificac": "No Aplica", "dependenci": "Servicio de Salud Araucanía Norte", "nivel_de_a": "Primario", "código_co": "09203", "nombre_com": "CURACAUTÍN", "vía": "Calle", "número": 0, "dirección": "Caserío de Rariruca", "teléfono": 0, "fecha_inic": "38716", "tiene_serv": null, "tipo_de_ur": "No Aplica", "tipo_de_sa": null, "latitud": -38.42829, "longitud__": -72.00895, "tipo_de_pr": null, "estado_de": null, "nivel_de_c": "Primario", "modalidad": null, "simbologia": "Atención Primaria de Salud (APS)", "fid_comunas_v1": null, "cut_reg": "9", "cut_prov": "092", "cut_com": "09203", "region": "La Araucanía", "provincia": "MALLECO", "comuna": "CURACAUTÍN", "superficie": null }, "geometry": { "type": "Point", "coordinates": [ -72.00895, -38.42829 ] } },
{ "type": "Feature", "properties": { "objectid": 10188, "fid_establecimientos_de_salud": null, "código_an": "29-445", "código_vi": 129445, "código__m": " ", "código_nu": 0, "código_re": 9, "nombre_reg": "La Araucanía", "código_de": 29, "nombre_dep": "Servicio de Salud Araucanía Norte", "pertenenci": "Perteneciente al Sistema Nacional de Servicios de Salud", "tipo_estab": null, "ámbito_de": "Establecimiento de Salud", "nombre_ofi": null, "certificac": "No Aplica", "dependenci": "Servicio de Salud Araucanía Norte", "nivel_de_a": "Primario", "código_co": "09203", "nombre_com": "CURACAUTÍN", "vía": "Calle", "número": 0, "dirección": "Sector Radalco", "teléfono": 0, "fecha_inic": "38716", "tiene_serv": null, "tipo_de_ur": "No Aplica", "tipo_de_sa": null, "latitud": -38.373, "longitud__": -71.95952, "tipo_de_pr": null, "estado_de": null, "nivel_de_c": "Primario", "modalidad": null, "simbologia": "Atención Primaria de Salud (APS)", "fid_comunas_v1": null, "cut_reg": "9", "cut_prov": "092", "cut_com": "09203", "region": "La Araucanía", "provincia": "MALLECO", "comuna": "CURACAUTÍN", "superficie": null }, "geometry": { "type": "Point", "coordinates": [ -71.95952, -38.373 ] } },
{ "type": "Feature", "properties": { "objectid": 10199, "fid_establecimientos_de_salud": null, "código_an": "29-435", "código_vi": 129435, "código__m": " ", "código_nu": 0, "código_re": 9, "nombre_reg": "La Araucanía", "código_de": 29, "nombre_dep": "Servicio de Salud Araucanía Norte", "pertenenci": "Perteneciente al Sistema Nacional de Servicios de Salud", "tipo_estab": null, "ámbito_de": "Establecimiento de Salud", "nombre_ofi": null, "certificac": "No Aplica", "dependenci": "Servicio de Salud Araucanía Norte", "nivel_de_a": "Primario", "código_co": "09211", "nombre_com": "VICTORIA", "vía": "Calle", "número": 0, "dirección": "Sector California", "teléfono": 0, "fecha_inic": "38716", "tiene_serv": null, "tipo_de_ur": "No Aplica", "tipo_de_sa": null, "latitud": -38.30027, "longitud__": -72.07961, "tipo_de_pr": null, "estado_de": null, "nivel_de_c": "Primario", "modalidad": null, "simbologia": "Atención Primaria de Salud (APS)", "fid_comunas_v1": null, "cut_reg": "9", "cut_prov": "092", "cut_com": "09211", "region": "La Araucanía", "provincia": "MALLECO", "comuna": "VICTORIA", "superficie": null }, "geometry": { "type": "Point", "coordinates": [ -72.07961, -38.30027 ] } },
{ "type": "Feature", "properties": { "objectid": 10204, "fid_establecimientos_de_salud": null, "código_an": "29-456", "código_vi": 129456, "código__m": " ", "código_nu": 0, "código_re": 9, "nombre_reg": "La Araucanía", "código_de": 29, "nombre_dep": "Servicio de Salud Araucanía Norte", "pertenenci": "Perteneciente al Sistema Nacional de Servicios de Salud", "tipo_estab": null, "ámbito_de": "Establecimiento de Salud", "nombre_ofi": null, "certificac": "No Aplica", "dependenci": "Servicio de Salud Araucanía Norte", "nivel_de_a": "Primario", "código_co": "09205", "nombre_com": "LONQUIMAY", "vía": "Calle", "número": 0, "dirección": "Ranquil Km. 7", "teléfono": 0, "fecha_inic": "38716", "tiene_serv": null, "tipo_de_ur": "No Aplica", "tipo_de_sa": null, "latitud": -38.256895, "longitud__": -71.244419, "tipo_de_pr": null, "estado_de": null, "nivel_de_c": "Primario", "modalidad": null, "simbologia": "Atención Primaria de Salud (APS)", "fid_comunas_v1": null, "cut_reg": "9", "cut_prov": "092", "cut_com": "09205", "region": "La Araucanía", "provincia": "MALLECO", "comuna": "LONQUIMAY", "superficie": null }, "geometry": { "type": "Point", "coordinates": [ -71.24442, -38.25689 ] } },
{ "type": "Feature", "properties": { "objectid": 10205, "fid_establecimientos_de_salud": null, "código_an": "29-455", "código_vi": 129455, "código__m": " ", "código_nu": 0, "código_re": 9, "nombre_reg": "La Araucanía", "código_de": 29, "nombre_dep": "Servicio de Salud Araucanía Norte", "pertenenci": "Perteneciente al Sistema Nacional de Servicios de Salud", "tipo_estab": null, "ámbito_de": "Establecimiento de Salud", "nombre_ofi": null, "certificac": "No Aplica", "dependenci": "Servicio de Salud Araucanía Norte", "nivel_de_a": "Primario", "código_co": "09205", "nombre_com": "LONQUIMAY", "vía": "Calle", "número": 0, "dirección": "Caserío de Troyo", "teléfono": 0, "fecha_inic": "38716", "tiene_serv": null, "tipo_de_ur": "No Aplica", "tipo_de_sa": null, "latitud": -38.25247, "longitud__": -71.30361, "tipo_de_pr": null, "estado_de": null, "nivel_de_c": "Primario", "modalidad": null, "simbologia": "Atención Primaria de Salud (APS)", "fid_comunas_v1": null, "cut_reg": "9", "cut_prov": "092", "cut_com": "09205", "region": "La Araucanía", "provincia": "MALLECO", "comuna": "LONQUIMAY", "superficie": null }, "geometry": { "type": "Point", "coordinates": [ -71.30361, -38.25247 ] } },
{ "type": "Feature", "properties": { "objectid": 10215, "fid_establecimientos_de_salud": null, "código_an": "29-433", "código_vi": 129433, "código__m": " ", "código_nu": 0, "código_re": 9, "nombre_reg": "La Araucanía", "código_de": 29, "nombre_dep": "Servicio de Salud Araucanía Norte", "pertenenci": "Perteneciente al Sistema Nacional de Servicios de Salud", "tipo_estab": null, "ámbito_de": "Establecimiento de Salud", "nombre_ofi": null, "certificac": "No Aplica", "dependenci": "Servicio de Salud Araucanía Norte", "nivel_de_a": "Primario", "código_co": "09211", "nombre_com": "VICTORIA", "vía": "Calle", "número": 0, "dirección": "Sector Rosario", "teléfono": 0, "fecha_inic": "38716", "tiene_serv": null, "tipo_de_ur": "No Aplica", "tipo_de_sa": null, "latitud": -38.2185, "longitud__": -72.07173, "tipo_de_pr": null, "estado_de": null, "nivel_de_c": "Primario", "modalidad": null, "simbologia": "Atención Primaria de Salud (APS)", "fid_comunas_v1": null, "cut_reg": "9", "cut_prov": "092", "cut_com": "09211", "region": "La Araucanía", "provincia": "MALLECO", "comuna": "VICTORIA", "superficie": null }, "geometry": { "type": "Point", "coordinates": [ -72.07173, -38.2185 ] } },
{ "type": "Feature", "properties": { "objectid": 10221, "fid_establecimientos_de_salud": null, "código_an": "29-414", "código_vi": 129414, "código__m": " ", "código_nu": 0, "código_re": 9, "nombre_reg": "La Araucanía", "código_de": 29, "nombre_dep": "Servicio de Salud Araucanía Norte", "pertenenci": "Perteneciente al Sistema Nacional de Servicios de Salud", "tipo_estab": null, "ámbito_de": "Establecimiento de Salud", "nombre_ofi": null, "certificac": "No Aplica", "dependenci": "Servicio de Salud Araucanía Norte", "nivel_de_a": "Primario", "código_co": "09202", "nombre_com": "COLLIPULLI", "vía": "Calle", "número": 0, "dirección": "Sector Niblinto", "teléfono": 0, "fecha_inic": "38716", "tiene_serv": null, "tipo_de_ur": "No Aplica", "tipo_de_sa": null, "latitud": -38.147351, "longitud__": -71.868654, "tipo_de_pr": null, "estado_de": null, "nivel_de_c": "Primario", "modalidad": null, "simbologia": "Atención Primaria de Salud (APS)", "fid_comunas_v1": null, "cut_reg": "9", "cut_prov": "092", "cut_com": "09202", "region": "La Araucanía", "provincia": "MALLECO", "comuna": "COLLIPULLI", "superficie": null }, "geometry": { "type": "Point", "coordinates": [ -71.86865, -38.14735 ] } },
{ "type": "Feature", "properties": { "objectid": 10225, "fid_establecimientos_de_salud": null, "código_an": "29-448", "código_vi": 129448, "código__m": " ", "código_nu": 0, "código_re": 9, "nombre_reg": "La Araucanía", "código_de": 29, "nombre_dep": "Servicio de Salud Araucanía Norte", "pertenenci": "Perteneciente al Sistema Nacional de Servicios de Salud", "tipo_estab": null, "ámbito_de": "Establecimiento de Salud", "nombre_ofi": null, "certificac": "No Aplica", "dependenci": "Servicio de Salud Araucanía Norte", "nivel_de_a": "Primario", "código_co": "09205", "nombre_com": "LONQUIMAY", "vía": "Calle", "número": 0, "dirección": "Sector Contraco", "teléfono": 0, "fecha_inic": "38716", "tiene_serv": null, "tipo_de_ur": "No Aplica", "tipo_de_sa": null, "latitud": -38.14474, "longitud__": -71.33622, "tipo_de_pr": null, "estado_de": null, "nivel_de_c": "Primario", "modalidad": null, "simbologia": "Atención Primaria de Salud (APS)", "fid_comunas_v1": null, "cut_reg": "9", "cut_prov": "092", "cut_com": "09205", "region": "La Araucanía", "provincia": "MALLECO", "comuna": "LONQUIMAY", "superficie": null }, "geometry": { "type": "Point", "coordinates": [ -71.33622, -38.14474 ] } },
{ "type": "Feature", "properties": { "objectid": 10234, "fid_establecimientos_de_salud": null, "código_an": "29-413", "código_vi": 129413, "código__m": " ", "código_nu": 0, "código_re": 9, "nombre_reg": "La Araucanía", "código_de": 29, "nombre_dep": "Servicio de Salud Araucanía Norte", "pertenenci": "Perteneciente al Sistema Nacional de Servicios de Salud", "tipo_estab": null, "ámbito_de": "Establecimiento de Salud", "nombre_ofi": null, "certificac": "No Aplica", "dependenci": "Servicio de Salud Araucanía Norte", "nivel_de_a": "Primario", "código_co": "09202", "nombre_com": "COLLIPULLI", "vía": "Calle", "número": 0, "dirección": "Sector Amargo", "teléfono": 0, "fecha_inic": "38716", "tiene_serv": null, "tipo_de_ur": "No Aplica", "tipo_de_sa": null, "latitud": -38.07701, "longitud__": -71.86998, "tipo_de_pr": null, "estado_de": null, "nivel_de_c": "Primario", "modalidad": null, "simbologia": "Atención Primaria de Salud (APS)", "fid_comunas_v1": null, "cut_reg": "9", "cut_prov": "092", "cut_com": "09202", "region": "La Araucanía", "provincia": "MALLECO", "comuna": "COLLIPULLI", "superficie": null }, "geometry": { "type": "Point", "coordinates": [ -71.86998, -38.07701 ] } },
{ "type": "Feature", "properties": { "objectid": 10237, "fid_establecimientos_de_salud": null, "código_an": "20-448", "código_vi": 120448, "código__m": " ", "código_nu": 0, "código_re": 8, "nombre_reg": "Región Del Bíobío", "código_de": 20, "nombre_dep": "Servicio de Salud Biobío", "pertenenci": "Perteneciente al Sistema Nacional de Servicios de Salud", "tipo_estab": null, "ámbito_de": "Establecimiento de Salud", "nombre_ofi": null, "certificac": "No Aplica", "dependenci": "Servicio de Salud Biobío", "nivel_de_a": "Primario", "código_co": "08314", "nombre_com": "ALTO BIOBÍO", "vía": "Calle", "número": 0, "dirección": "Sector Ralco Lepoy", "teléfono": 0, "fecha_inic": "38716", "tiene_serv": null, "tipo_de_ur": "No Aplica", "tipo_de_sa": null, "latitud": -38.063025, "longitud__": -71.35695, "tipo_de_pr": null, "estado_de": null, "nivel_de_c": "Primario", "modalidad": null, "simbologia": "Atención Primaria de Salud (APS)", "fid_comunas_v1": null, "cut_reg": "8", "cut_prov": "083", "cut_com": "08314", "region": "Región Del Bíobío", "provincia": "BIOBÍO", "comuna": "ALTO BIOBÍO", "superficie": null }, "geometry": { "type": "Point", "coordinates": [ -71.35695, -38.06303 ] } },
{ "type": "Feature", "properties": { "objectid": 10242, "fid_establecimientos_de_salud": null, "código_an": "20-450", "código_vi": 120450, "código__m": " ", "código_nu": 0, "código_re": 8, "nombre_reg": "Región Del Bíobío", "código_de": 20, "nombre_dep": "Servicio de Salud Biobío", "pertenenci": "Perteneciente al Sistema Nacional de Servicios de Salud", "tipo_estab": null, "ámbito_de": "Establecimiento de Salud", "nombre_ofi": null, "certificac": "No Aplica", "dependenci": "Servicio de Salud Biobío", "nivel_de_a": "Primario", "código_co": "08314", "nombre_com": "ALTO BIOBÍO", "vía": "Calle", "número": 0, "dirección": "Sector Malla Palmucho", "teléfono": 0, "fecha_inic": "38716", "tiene_serv": null, "tipo_de_ur": "No Aplica", "tipo_de_sa": null, "latitud": -38.0216, "longitud__": -71.468207, "tipo_de_pr": null, "estado_de": null, "nivel_de_c": "Primario", "modalidad": null, "simbologia": "Atención Primaria de Salud (APS)", "fid_comunas_v1": null, "cut_reg": "8", "cut_prov": "083", "cut_com": "08314", "region": "Región Del Bíobío", "provincia": "BIOBÍO", "comuna": "ALTO BIOBÍO", "superficie": null }, "geometry": { "type": "Point", "coordinates": [ -71.46821, -38.0216 ] } },
{ "type": "Feature", "properties": { "objectid": 12850, "fid_establecimientos_de_salud": null, "código_an": "201488", "código_vi": 201488, "código__m": " ", "código_nu": 0, "código_re": 9, "nombre_reg": "La Araucanía", "código_de": 29, "nombre_dep": "Servicio de Salud Araucanía Norte", "pertenenci": "Perteneciente al Sistema Nacional de Servicios de Salud", "tipo_estab": null, "ámbito_de": "Establecimiento de Salud", "nombre_ofi": null, "certificac": "No Aplica", "dependenci": "Servicio de Salud Araucanía Norte", "nivel_de_a": "Primario", "código_co": "09205", "nombre_com": "LONQUIMAY", "vía": "Otro", "número": 0, "dirección": "sector Huallen Mapu", "teléfono": 0, "fecha_inic": null, "tiene_serv": null, "tipo_de_ur": "No Aplica", "tipo_de_sa": null, "latitud": -38.708478, "longitud__": -71.217513, "tipo_de_pr": null, "estado_de": null, "nivel_de_c": "Primario", "modalidad": null, "simbologia": "Atención Primaria de Salud (APS)", "fid_comunas_v1": null, "cut_reg": "9", "cut_prov": "092", "cut_com": "09205", "region": "La Araucanía", "provincia": "MALLECO", "comuna": "LONQUIMAY", "superficie": null }, "geometry": { "type": "Point", "coordinates": [ -71.21751, -38.70848 ] } }
]
}
