{
"type": "FeatureCollection",
"name": "MAC",
"crs": { "type": "name", "properties": { "name": "urn:ogc:def:crs:OGC:1.3:CRS84" } },
"xy_coordinate_resolution": 1e-05,
"features": [
{ "type": "Feature", "properties": { "objectid": 8888, "fid_establecimientos_de_salud": null, "código_an": "25-203", "código_vi": 125203, "código__m": " ", "código_nu": 0, "código_re": 11, "nombre_reg": "Aysén del General Carlos Ibáñez del Campo", "código_de": 11, "nombre_dep": "SEREMI De Aysén del General Carlos Ibáñez del Campo", "pertenenci": "No perteneciente al Sistema Nacional de Servicios de Salud", "tipo_estab": null, "ámbito_de": "Establecimiento de Salud", "nombre_ofi": null, "certificac": "No Aplica", "dependenci": "SEREMI De Aysén del General Carlos Ibáñez del Campo", "nivel_de_a": "Secundario", "código_co": "11201", "nombre_com": "AYSÉN", "vía": "Calle", "número": 270, "dirección": "O'Higgins", "teléfono": 672351129, "fecha_inic": "38716", "tiene_serv": null, "tipo_de_ur": "No Aplica", "tipo_de_sa": null, "latitud": -45.461797, "longitud__": -72.818164, "tipo_de_pr": null, "estado_de": null, "nivel_de_c": "Secundario", "modalidad": null, "simbologia": "Centros de Salud y Clínicas Privadas", "fid_comunas_v1": null, "cut_reg": "11", "cut_prov": "112", "cut_com": "11201", "region": "Aysén del General Carlos Ibáñez del Campo", "provincia": "AYSÉN", "comuna": "AYSÉN", "superficie": null }, "geometry": { "type": "Point", "coordinates": [ -72.81816, -45.4618 ] } },
{ "type": "Feature", "properties": { "objectid": 8889, "fid_establecimientos_de_salud": null, "código_an": "25-417", "código_vi": 125417, "código__m": "25-101", "código_nu": 125101, "código_re": 11, "nombre_reg": "Aysén del General Carlos Ibáñez del Campo", "código_de": 25, "nombre_dep": "Servicio de Salud Aysén", "pertenenci": "Perteneciente al Sistema Nacional de Servicios de Salud", "tipo_estab": null, "ámbito_de": "Establecimiento de Salud", "nombre_ofi": null, "certificac": "No Aplica", "dependenci": "Servicio de Salud Aysén", "nivel_de_a": "Primario", "código_co": "11201", "nombre_com": "AYSÉN", "vía": "Calle", "número": 331, "dirección": "O\"higgins, Puerto Chacabuco", "teléfono": 0, "fecha_inic": "38716", "tiene_serv": null, "tipo_de_ur": "No Aplica", "tipo_de_sa": null, "latitud": -45.461686, "longitud__": -72.816539, "tipo_de_pr": null, "estado_de": null, "nivel_de_c": "Primario", "modalidad": null, "simbologia": "Atención Primaria de Salud (APS)", "fid_comunas_v1": null, "cut_reg": "11", "cut_prov": "112", "cut_com": "11201", "region": "Aysén del General Carlos Ibáñez del Campo", "provincia": "AYSÉN", "comuna": "AYSÉN", "superficie": null }, "geometry": { "type": "Point", "coordinates": [ -72.81654, -45.46169 ] } },
{ "type": "Feature", "properties": { "objectid": 8897, "fid_establecimientos_de_salud": null, "código_an": "25-402", "código_vi": 125402, "código__m": " ", "código_nu": 0, "código_re": 11, "nombre_reg": "Aysén del General Carlos Ibáñez del Campo", "código_de": 25, "nombre_dep": "Servicio de Salud Aysén", "pertenenci": "Perteneciente al Sistema Nacional de Servicios de Salud", "tipo_estab": null, "ámbito_de": "Establecimiento de Salud", "nombre_ofi": null, "certificac": "No Aplica", "dependenci": "Servicio de Salud Aysén", "nivel_de_a": "Primario", "código_co": "11201", "nombre_com": "AYSÉN", "vía": "Calle", "número": 0, "dirección": "Aldea de Puerto Aguirre", "teléfono": 0, "fecha_inic": "38716", "tiene_serv": null, "tipo_de_ur": "No Aplica", "tipo_de_sa": null, "latitud": -45.16343, "longitud__": -73.52313, "tipo_de_pr": null, "estado_de": null, "nivel_de_c": "Primario", "modalidad": null, "simbologia": "Atención Primaria de Salud (APS)", "fid_comunas_v1": null, "cut_reg": "11", "cut_prov": "112", "cut_com": "11201", "region": "Aysén del General Carlos Ibáñez del Campo", "provincia": "AYSÉN", "comuna": "AYSÉN", "superficie": null }, "geometry": { "type": "Point", "coordinates": [ -73.52313, -45.16343 ] } },
{ "type": "Feature", "properties": { "objectid": 8898, "fid_establecimientos_de_salud": null, "código_an": "25-403", "código_vi": 125403, "código__m": " ", "código_nu": 0, "código_re": 11, "nombre_reg": "Aysén del General Carlos Ibáñez del Campo", "código_de": 25, "nombre_dep": "Servicio de Salud Aysén", "pertenenci": "Perteneciente al Sistema Nacional de Servicios de Salud", "tipo_estab": null, "ámbito_de": "Establecimiento de Salud", "nombre_ofi": null, "certificac": "No Aplica", "dependenci": "Servicio de Salud Aysén", "nivel_de_a": "Primario", "código_co": "11201", "nombre_com": "AYSÉN", "vía": "Calle", "número": 0, "dirección": "Aldea de Caleta Andrade", "teléfono": 0, "fecha_inic": "38716", "tiene_serv": null, "tipo_de_ur": "No Aplica", "tipo_de_sa": null, "latitud": -45.15335, "longitud__": -73.51016, "tipo_de_pr": null, "estado_de": null, "nivel_de_c": "Primario", "modalidad": null, "simbologia": "Atención Primaria de Salud (APS)", "fid_comunas_v1": null, "cut_reg": "11", "cut_prov": "112", "cut_com": "11201", "region": "Aysén del General Carlos Ibáñez del Campo", "provincia": "AYSÉN", "comuna": "AYSÉN", "superficie": null }, "geometry": { "type": "Point", "coordinates": [ -73.51016, -45.15335 ] } }
]
}
