{
"type": "FeatureCollection",
"name": "MEL",
"crs": { "type": "name", "properties": { "name": "urn:ogc:def:crs:OGC:1.3:CRS84" } },
"xy_coordinate_resolution": 1e-05,
"features": [
{ "type": "Feature", "properties": { "objectid": 8903, "fid_establecimientos_de_salud": null, "código_an": "25-421", "código_vi": 125421, "código__m": " ", "código_nu": 0, "código_re": 11, "nombre_reg": "Aysén del General Carlos Ibáñez del Campo", "código_de": 25, "nombre_dep": "Servicio de Salud Aysén", "pertenenci": "Perteneciente al Sistema Nacional de Servicios de Salud", "tipo_estab": null, "ámbito_de": "Establecimiento de Salud", "nombre_ofi": null, "certificac": "No Aplica", "dependenci": "Servicio de Salud Aysén", "nivel_de_a": "Primario", "código_co": "11202", "nombre_com": "CISNES", "vía": "Calle", "número": 0, "dirección": "Aldea Puerto Puyuhuapi", "teléfono": 0, "fecha_inic": "38716", "tiene_serv": null, "tipo_de_ur": "No Aplica", "tipo_de_sa": null, "latitud": -44.32358, "longitud__": -72.5573, "tipo_de_pr": null, "estado_de": null, "nivel_de_c": "Primario", "modalidad": null, "simbologia": "Atención Primaria de Salud (APS)", "fid_comunas_v1": null, "cut_reg": "11", "cut_prov": "112", "cut_com": "11202", "region": "Aysén del General Carlos Ibáñez del Campo", "provincia": "AYSÉN", "comuna": "CISNES", "superficie": null }, "geometry": { "type": "Point", "coordinates": [ -72.5573, -44.32358 ] } },
{ "type": "Feature", "properties": { "objectid": 8904, "fid_establecimientos_de_salud": null, "código_an": "25-429", "código_vi": 125429, "código__m": " ", "código_nu": 0, "código_re": 11, "nombre_reg": "Aysén del General Carlos Ibáñez del Campo", "código_de": 25, "nombre_dep": "Servicio de Salud Aysén", "pertenenci": "Perteneciente al Sistema Nacional de Servicios de Salud", "tipo_estab": null, "ámbito_de": "Establecimiento de Salud", "nombre_ofi": null, "certificac": "No Aplica", "dependenci": "Servicio de Salud Aysén", "nivel_de_a": "Primario", "código_co": "11202", "nombre_com": "CISNES", "vía": "Calle", "número": 0, "dirección": "Sector Isla Toto", "teléfono": 0, "fecha_inic": "38716", "tiene_serv": null, "tipo_de_ur": "No Aplica", "tipo_de_sa": null, "latitud": -44.25715, "longitud__": -73.208813, "tipo_de_pr": null, "estado_de": null, "nivel_de_c": "Primario", "modalidad": null, "simbologia": "Atención Primaria de Salud (APS)", "fid_comunas_v1": null, "cut_reg": "11", "cut_prov": "112", "cut_com": "11202", "region": "Aysén del General Carlos Ibáñez del Campo", "provincia": "AYSÉN", "comuna": "CISNES", "superficie": null }, "geometry": { "type": "Point", "coordinates": [ -73.20881, -44.25715 ] } },
{ "type": "Feature", "properties": { "objectid": 8906, "fid_establecimientos_de_salud": null, "código_an": "25-427", "código_vi": 125427, "código__m": " ", "código_nu": 0, "código_re": 11, "nombre_reg": "Aysén del General Carlos Ibáñez del Campo", "código_de": 25, "nombre_dep": "Servicio de Salud Aysén", "pertenenci": "Perteneciente al Sistema Nacional de Servicios de Salud", "tipo_estab": null, "ámbito_de": "Establecimiento de Salud", "nombre_ofi": null, "certificac": "No Aplica", "dependenci": "Servicio de Salud Aysén", "nivel_de_a": "Primario", "código_co": "11202", "nombre_com": "CISNES", "vía": "Calle", "número": 0, "dirección": "Caserío de Melimoyu", "teléfono": 0, "fecha_inic": "38716", "tiene_serv": null, "tipo_de_ur": "No Aplica", "tipo_de_sa": null, "latitud": -44.10994, "longitud__": -73.11775, "tipo_de_pr": null, "estado_de": null, "nivel_de_c": "Primario", "modalidad": null, "simbologia": "Atención Primaria de Salud (APS)", "fid_comunas_v1": null, "cut_reg": "11", "cut_prov": "112", "cut_com": "11202", "region": "Aysén del General Carlos Ibáñez del Campo", "provincia": "AYSÉN", "comuna": "CISNES", "superficie": null }, "geometry": { "type": "Point", "coordinates": [ -73.11775, -44.10994 ] } },
{ "type": "Feature", "properties": { "objectid": 8907, "fid_establecimientos_de_salud": null, "código_an": "25-442", "código_vi": 125442, "código__m": " ", "código_nu": 0, "código_re": 11, "nombre_reg": "Aysén del General Carlos Ibáñez del Campo", "código_de": 25, "nombre_dep": "Servicio de Salud Aysén", "pertenenci": "Perteneciente al Sistema Nacional de Servicios de Salud", "tipo_estab": null, "ámbito_de": "Establecimiento de Salud", "nombre_ofi": null, "certificac": "Centro de Salud Familiar", "dependenci": "Servicio de Salud Aysén", "nivel_de_a": "Primario", "código_co": "11202", "nombre_com": "CISNES", "vía": "Calle", "número": 0, "dirección": "Diego Portales, La Junta", "teléfono": 0, "fecha_inic": "38716", "tiene_serv": null, "tipo_de_ur": "No Aplica", "tipo_de_sa": null, "latitud": -43.97125, "longitud__": -72.40613, "tipo_de_pr": null, "estado_de": null, "nivel_de_c": "Primario", "modalidad": null, "simbologia": "Atención Primaria de Salud (APS)", "fid_comunas_v1": null, "cut_reg": "11", "cut_prov": "112", "cut_com": "11202", "region": "Aysén del General Carlos Ibáñez del Campo", "provincia": "AYSÉN", "comuna": "CISNES", "superficie": null }, "geometry": { "type": "Point", "coordinates": [ -72.40613, -43.97125 ] } },
{ "type": "Feature", "properties": { "objectid": 8909, "fid_establecimientos_de_salud": null, "código_an": "25-424", "código_vi": 125424, "código__m": " ", "código_nu": 0, "código_re": 11, "nombre_reg": "Aysén del General Carlos Ibáñez del Campo", "código_de": 25, "nombre_dep": "Servicio de Salud Aysén", "pertenenci": "Perteneciente al Sistema Nacional de Servicios de Salud", "tipo_estab": null, "ámbito_de": "Establecimiento de Salud", "nombre_ofi": null, "certificac": "No Aplica", "dependenci": "Servicio de Salud Aysén", "nivel_de_a": "Primario", "código_co": "11202", "nombre_com": "CISNES", "vía": "Calle", "número": 0, "dirección": "Caserío Raúl Marín Balmaceda", "teléfono": 0, "fecha_inic": "38716", "tiene_serv": null, "tipo_de_ur": "No Aplica", "tipo_de_sa": null, "latitud": -43.773497, "longitud__": -72.954818, "tipo_de_pr": null, "estado_de": null, "nivel_de_c": "Primario", "modalidad": null, "simbologia": "Atención Primaria de Salud (APS)", "fid_comunas_v1": null, "cut_reg": "11", "cut_prov": "112", "cut_com": "11202", "region": "Aysén del General Carlos Ibáñez del Campo", "provincia": "AYSÉN", "comuna": "CISNES", "superficie": null }, "geometry": { "type": "Point", "coordinates": [ -72.95482, -43.7735 ] } }
]
}
