{
"type": "FeatureCollection",
"name": "NCH",
"crs": { "type": "name", "properties": { "name": "urn:ogc:def:crs:OGC:1.3:CRS84" } },
"xy_coordinate_resolution": 1e-05,
"features": [
{ "type": "Feature", "properties": { "objectid": 10474, "fid_establecimientos_de_salud": null, "código_an": "17-458", "código_vi": 117458, "código__m": " ", "código_nu": 0, "código_re": 16, "nombre_reg": "Ñuble", "código_de": 17, "nombre_dep": "Servicio de Salud Ñuble", "pertenenci": "Perteneciente al Sistema Nacional de Servicios de Salud", "tipo_estab": null, "ámbito_de": "Establecimiento de Salud", "nombre_ofi": null, "certificac": "No Aplica", "dependenci": "Servicio de Salud Ñuble", "nivel_de_a": "Primario", "código_co": "16109", "nombre_com": "YUNGAY", "vía": "Calle", "número": 0, "dirección": "Sector San Antonio", "teléfono": 0, "fecha_inic": "38716", "tiene_serv": null, "tipo_de_ur": "No Aplica", "tipo_de_sa": null, "latitud": -37.101717, "longitud__": -71.809897, "tipo_de_pr": null, "estado_de": null, "nivel_de_c": "Primario", "modalidad": null, "simbologia": "Atención Primaria de Salud (APS)", "fid_comunas_v1": null, "cut_reg": "16", "cut_prov": "161", "cut_com": "16109", "region": "Ñuble", "provincia": "DIGUILLÍN", "comuna": "YUNGAY", "superficie": null }, "geometry": { "type": "Point", "coordinates": [ -71.8099, -37.10172 ] } },
{ "type": "Feature", "properties": { "objectid": 10498, "fid_establecimientos_de_salud": null, "código_an": "17-430", "código_vi": 117430, "código__m": " ", "código_nu": 0, "código_re": 16, "nombre_reg": "Ñuble", "código_de": 17, "nombre_dep": "Servicio de Salud Ñuble", "pertenenci": "Perteneciente al Sistema Nacional de Servicios de Salud", "tipo_estab": null, "ámbito_de": "Establecimiento de Salud", "nombre_ofi": null, "certificac": "No Aplica", "dependenci": "Servicio de Salud Ñuble", "nivel_de_a": "Primario", "código_co": "16105", "nombre_com": "PEMUCO", "vía": "Calle", "número": 0, "dirección": "Sector Cartago", "teléfono": 0, "fecha_inic": "38716", "tiene_serv": null, "tipo_de_ur": "No Aplica", "tipo_de_sa": null, "latitud": -37.021262, "longitud__": -71.855669, "tipo_de_pr": null, "estado_de": null, "nivel_de_c": "Primario", "modalidad": null, "simbologia": "Atención Primaria de Salud (APS)", "fid_comunas_v1": null, "cut_reg": "16", "cut_prov": "161", "cut_com": "16105", "region": "Ñuble", "provincia": "DIGUILLÍN", "comuna": "PEMUCO", "superficie": null }, "geometry": { "type": "Point", "coordinates": [ -71.85567, -37.02126 ] } },
{ "type": "Feature", "properties": { "objectid": 10505, "fid_establecimientos_de_salud": null, "código_an": "17-477", "código_vi": 117477, "código__m": " ", "código_nu": 0, "código_re": 16, "nombre_reg": "Ñuble", "código_de": 17, "nombre_dep": "Servicio de Salud Ñuble", "pertenenci": "Perteneciente al Sistema Nacional de Servicios de Salud", "tipo_estab": null, "ámbito_de": "Establecimiento de Salud", "nombre_ofi": null, "certificac": "No Aplica", "dependenci": "Servicio de Salud Ñuble", "nivel_de_a": "Primario", "código_co": "16104", "nombre_com": "EL CARMEN", "vía": "Calle", "número": 0, "dirección": "Sector Chamizal", "teléfono": 0, "fecha_inic": "38716", "tiene_serv": null, "tipo_de_ur": "No Aplica", "tipo_de_sa": null, "latitud": -36.98869, "longitud__": -71.84967, "tipo_de_pr": null, "estado_de": null, "nivel_de_c": "Primario", "modalidad": null, "simbologia": "Atención Primaria de Salud (APS)", "fid_comunas_v1": null, "cut_reg": "16", "cut_prov": "161", "cut_com": "16104", "region": "Ñuble", "provincia": "DIGUILLÍN", "comuna": "EL CARMEN", "superficie": null }, "geometry": { "type": "Point", "coordinates": [ -71.84967, -36.98869 ] } },
{ "type": "Feature", "properties": { "objectid": 10508, "fid_establecimientos_de_salud": null, "código_an": "17-475", "código_vi": 117475, "código__m": " ", "código_nu": 0, "código_re": 16, "nombre_reg": "Ñuble", "código_de": 17, "nombre_dep": "Servicio de Salud Ñuble", "pertenenci": "Perteneciente al Sistema Nacional de Servicios de Salud", "tipo_estab": null, "ámbito_de": "Establecimiento de Salud", "nombre_ofi": null, "certificac": "No Aplica", "dependenci": "Servicio de Salud Ñuble", "nivel_de_a": "Primario", "código_co": "16104", "nombre_com": "EL CARMEN", "vía": "Calle", "número": 0, "dirección": "Sector Castañal", "teléfono": 0, "fecha_inic": "38716", "tiene_serv": null, "tipo_de_ur": "No Aplica", "tipo_de_sa": null, "latitud": -36.979455, "longitud__": -71.794461, "tipo_de_pr": null, "estado_de": null, "nivel_de_c": "Primario", "modalidad": null, "simbologia": "Atención Primaria de Salud (APS)", "fid_comunas_v1": null, "cut_reg": "16", "cut_prov": "161", "cut_com": "16104", "region": "Ñuble", "provincia": "DIGUILLÍN", "comuna": "EL CARMEN", "superficie": null }, "geometry": { "type": "Point", "coordinates": [ -71.79446, -36.97946 ] } },
{ "type": "Feature", "properties": { "objectid": 10520, "fid_establecimientos_de_salud": null, "código_an": "17-473", "código_vi": 117473, "código__m": " ", "código_nu": 0, "código_re": 16, "nombre_reg": "Ñuble", "código_de": 17, "nombre_dep": "Servicio de Salud Ñuble", "pertenenci": "Perteneciente al Sistema Nacional de Servicios de Salud", "tipo_estab": null, "ámbito_de": "Establecimiento de Salud", "nombre_ofi": null, "certificac": "No Aplica", "dependenci": "Servicio de Salud Ñuble", "nivel_de_a": "Primario", "código_co": "16104", "nombre_com": "EL CARMEN", "vía": "Calle", "número": 0, "dirección": "Sector Capilla Sur", "teléfono": 0, "fecha_inic": "38716", "tiene_serv": null, "tipo_de_ur": "No Aplica", "tipo_de_sa": null, "latitud": -36.95312, "longitud__": -71.78529, "tipo_de_pr": null, "estado_de": null, "nivel_de_c": "Primario", "modalidad": null, "simbologia": "Atención Primaria de Salud (APS)", "fid_comunas_v1": null, "cut_reg": "16", "cut_prov": "161", "cut_com": "16104", "region": "Ñuble", "provincia": "DIGUILLÍN", "comuna": "EL CARMEN", "superficie": null }, "geometry": { "type": "Point", "coordinates": [ -71.78529, -36.95312 ] } },
{ "type": "Feature", "properties": { "objectid": 10524, "fid_establecimientos_de_salud": null, "código_an": "17-435", "código_vi": 117435, "código__m": " ", "código_nu": 0, "código_re": 16, "nombre_reg": "Ñuble", "código_de": 17, "nombre_dep": "Servicio de Salud Ñuble", "pertenenci": "Perteneciente al Sistema Nacional de Servicios de Salud", "tipo_estab": null, "ámbito_de": "Establecimiento de Salud", "nombre_ofi": null, "certificac": "No Aplica", "dependenci": "Servicio de Salud Ñuble", "nivel_de_a": "Primario", "código_co": "16104", "nombre_com": "EL CARMEN", "vía": "Calle", "número": 0, "dirección": "Sector Trehualemu", "teléfono": 0, "fecha_inic": "38716", "tiene_serv": null, "tipo_de_ur": "No Aplica", "tipo_de_sa": null, "latitud": -36.932195, "longitud__": -71.869185, "tipo_de_pr": null, "estado_de": null, "nivel_de_c": "Primario", "modalidad": null, "simbologia": "Atención Primaria de Salud (APS)", "fid_comunas_v1": null, "cut_reg": "16", "cut_prov": "161", "cut_com": "16104", "region": "Ñuble", "provincia": "DIGUILLÍN", "comuna": "EL CARMEN", "superficie": null }, "geometry": { "type": "Point", "coordinates": [ -71.86919, -36.9322 ] } },
{ "type": "Feature", "properties": { "objectid": 10531, "fid_establecimientos_de_salud": null, "código_an": "17-457", "código_vi": 117457, "código__m": " ", "código_nu": 0, "código_re": 16, "nombre_reg": "Ñuble", "código_de": 17, "nombre_dep": "Servicio de Salud Ñuble", "pertenenci": "Perteneciente al Sistema Nacional de Servicios de Salud", "tipo_estab": null, "ámbito_de": "Establecimiento de Salud", "nombre_ofi": null, "certificac": "No Aplica", "dependenci": "Servicio de Salud Ñuble", "nivel_de_a": "Primario", "código_co": "16104", "nombre_com": "EL CARMEN", "vía": "Calle", "número": 0, "dirección": "Sector Capilla Norte", "teléfono": 0, "fecha_inic": "38716", "tiene_serv": null, "tipo_de_ur": "No Aplica", "tipo_de_sa": null, "latitud": -36.91785, "longitud__": -71.80548, "tipo_de_pr": null, "estado_de": null, "nivel_de_c": "Primario", "modalidad": null, "simbologia": "Atención Primaria de Salud (APS)", "fid_comunas_v1": null, "cut_reg": "16", "cut_prov": "161", "cut_com": "16104", "region": "Ñuble", "provincia": "DIGUILLÍN", "comuna": "EL CARMEN", "superficie": null }, "geometry": { "type": "Point", "coordinates": [ -71.80548, -36.91785 ] } },
{ "type": "Feature", "properties": { "objectid": 10534, "fid_establecimientos_de_salud": null, "código_an": "17-438", "código_vi": 117438, "código__m": " ", "código_nu": 0, "código_re": 16, "nombre_reg": "Ñuble", "código_de": 17, "nombre_dep": "Servicio de Salud Ñuble", "pertenenci": "Perteneciente al Sistema Nacional de Servicios de Salud", "tipo_estab": null, "ámbito_de": "Establecimiento de Salud", "nombre_ofi": null, "certificac": "No Aplica", "dependenci": "Servicio de Salud Ñuble", "nivel_de_a": "Primario", "código_co": "16104", "nombre_com": "EL CARMEN", "vía": "Calle", "número": 0, "dirección": "Sector Huemul", "teléfono": 0, "fecha_inic": "38716", "tiene_serv": null, "tipo_de_ur": "No Aplica", "tipo_de_sa": null, "latitud": -36.89697, "longitud__": -71.81535, "tipo_de_pr": null, "estado_de": null, "nivel_de_c": "Primario", "modalidad": null, "simbologia": "Atención Primaria de Salud (APS)", "fid_comunas_v1": null, "cut_reg": "16", "cut_prov": "161", "cut_com": "16104", "region": "Ñuble", "provincia": "DIGUILLÍN", "comuna": "EL CARMEN", "superficie": null }, "geometry": { "type": "Point", "coordinates": [ -71.81535, -36.89697 ] } },
{ "type": "Feature", "properties": { "objectid": 10535, "fid_establecimientos_de_salud": null, "código_an": "17-474", "código_vi": 117474, "código__m": " ", "código_nu": 0, "código_re": 16, "nombre_reg": "Ñuble", "código_de": 17, "nombre_dep": "Servicio de Salud Ñuble", "pertenenci": "Perteneciente al Sistema Nacional de Servicios de Salud", "tipo_estab": null, "ámbito_de": "Establecimiento de Salud", "nombre_ofi": null, "certificac": "No Aplica", "dependenci": "Servicio de Salud Ñuble", "nivel_de_a": "Primario", "código_co": "16104", "nombre_com": "EL CARMEN", "vía": "Calle", "número": 0, "dirección": "Sector Agua Santa", "teléfono": 0, "fecha_inic": "38716", "tiene_serv": null, "tipo_de_ur": "No Aplica", "tipo_de_sa": null, "latitud": -36.89613, "longitud__": -71.77485, "tipo_de_pr": null, "estado_de": null, "nivel_de_c": "Primario", "modalidad": null, "simbologia": "Atención Primaria de Salud (APS)", "fid_comunas_v1": null, "cut_reg": "16", "cut_prov": "161", "cut_com": "16104", "region": "Ñuble", "provincia": "DIGUILLÍN", "comuna": "EL CARMEN", "superficie": null }, "geometry": { "type": "Point", "coordinates": [ -71.77485, -36.89613 ] } },
{ "type": "Feature", "properties": { "objectid": 10540, "fid_establecimientos_de_salud": null, "código_an": "17-476", "código_vi": 117476, "código__m": " ", "código_nu": 0, "código_re": 16, "nombre_reg": "Ñuble", "código_de": 17, "nombre_dep": "Servicio de Salud Ñuble", "pertenenci": "Perteneciente al Sistema Nacional de Servicios de Salud", "tipo_estab": null, "ámbito_de": "Establecimiento de Salud", "nombre_ofi": null, "certificac": "No Aplica", "dependenci": "Servicio de Salud Ñuble", "nivel_de_a": "Primario", "código_co": "16104", "nombre_com": "EL CARMEN", "vía": "Calle", "número": 0, "dirección": "Sector Las Hormigas", "teléfono": 0, "fecha_inic": "38716", "tiene_serv": null, "tipo_de_ur": "No Aplica", "tipo_de_sa": null, "latitud": -36.87134, "longitud__": -71.74159, "tipo_de_pr": null, "estado_de": null, "nivel_de_c": "Primario", "modalidad": null, "simbologia": "Atención Primaria de Salud (APS)", "fid_comunas_v1": null, "cut_reg": "16", "cut_prov": "161", "cut_com": "16104", "region": "Ñuble", "provincia": "DIGUILLÍN", "comuna": "EL CARMEN", "superficie": null }, "geometry": { "type": "Point", "coordinates": [ -71.74159, -36.87134 ] } },
{ "type": "Feature", "properties": { "objectid": 10541, "fid_establecimientos_de_salud": null, "código_an": "17-437", "código_vi": 117437, "código__m": " ", "código_nu": 0, "código_re": 16, "nombre_reg": "Ñuble", "código_de": 17, "nombre_dep": "Servicio de Salud Ñuble", "pertenenci": "Perteneciente al Sistema Nacional de Servicios de Salud", "tipo_estab": null, "ámbito_de": "Establecimiento de Salud", "nombre_ofi": null, "certificac": "No Aplica", "dependenci": "Servicio de Salud Ñuble", "nivel_de_a": "Primario", "código_co": "16104", "nombre_com": "EL CARMEN", "vía": "Calle", "número": 0, "dirección": "Sector San Vicente", "teléfono": 0, "fecha_inic": "38716", "tiene_serv": null, "tipo_de_ur": "No Aplica", "tipo_de_sa": null, "latitud": -36.85906, "longitud__": -71.80213, "tipo_de_pr": null, "estado_de": null, "nivel_de_c": "Primario", "modalidad": null, "simbologia": "Atención Primaria de Salud (APS)", "fid_comunas_v1": null, "cut_reg": "16", "cut_prov": "161", "cut_com": "16104", "region": "Ñuble", "provincia": "DIGUILLÍN", "comuna": "EL CARMEN", "superficie": null }, "geometry": { "type": "Point", "coordinates": [ -71.80213, -36.85906 ] } },
{ "type": "Feature", "properties": { "objectid": 10544, "fid_establecimientos_de_salud": null, "código_an": "17-454", "código_vi": 117454, "código__m": " ", "código_nu": 0, "código_re": 16, "nombre_reg": "Ñuble", "código_de": 17, "nombre_dep": "Servicio de Salud Ñuble", "pertenenci": "Perteneciente al Sistema Nacional de Servicios de Salud", "tipo_estab": null, "ámbito_de": "Establecimiento de Salud", "nombre_ofi": null, "certificac": "No Aplica", "dependenci": "Servicio de Salud Ñuble", "nivel_de_a": "Primario", "código_co": "16108", "nombre_com": "SAN IGNACIO", "vía": "Calle", "número": 0, "dirección": "Caserío El Calvario", "teléfono": 0, "fecha_inic": "38716", "tiene_serv": null, "tipo_de_ur": "No Aplica", "tipo_de_sa": null, "latitud": -36.846459, "longitud__": -71.900979, "tipo_de_pr": null, "estado_de": null, "nivel_de_c": "Primario", "modalidad": null, "simbologia": "Atención Primaria de Salud (APS)", "fid_comunas_v1": null, "cut_reg": "16", "cut_prov": "161", "cut_com": "16108", "region": "Ñuble", "provincia": "DIGUILLÍN", "comuna": "SAN IGNACIO", "superficie": null }, "geometry": { "type": "Point", "coordinates": [ -71.90098, -36.84646 ] } },
{ "type": "Feature", "properties": { "objectid": 10547, "fid_establecimientos_de_salud": null, "código_an": "17-409", "código_vi": 117409, "código__m": " ", "código_nu": 0, "código_re": 16, "nombre_reg": "Ñuble", "código_de": 17, "nombre_dep": "Servicio de Salud Ñuble", "pertenenci": "Perteneciente al Sistema Nacional de Servicios de Salud", "tipo_estab": null, "ámbito_de": "Establecimiento de Salud", "nombre_ofi": null, "certificac": "No Aplica", "dependenci": "Servicio de Salud Ñuble", "nivel_de_a": "Primario", "código_co": "16106", "nombre_com": "PINTO", "vía": "Calle", "número": 0, "dirección": "Pueblo Recinto - Los Lleuques", "teléfono": 0, "fecha_inic": "38716", "tiene_serv": null, "tipo_de_ur": "No Aplica", "tipo_de_sa": null, "latitud": -36.84335, "longitud__": -71.65908, "tipo_de_pr": null, "estado_de": null, "nivel_de_c": "Primario", "modalidad": null, "simbologia": "Atención Primaria de Salud (APS)", "fid_comunas_v1": null, "cut_reg": "16", "cut_prov": "161", "cut_com": "16106", "region": "Ñuble", "provincia": "DIGUILLÍN", "comuna": "PINTO", "superficie": null }, "geometry": { "type": "Point", "coordinates": [ -71.65908, -36.84335 ] } },
{ "type": "Feature", "properties": { "objectid": 10553, "fid_establecimientos_de_salud": null, "código_an": "17-436", "código_vi": 117436, "código__m": " ", "código_nu": 0, "código_re": 16, "nombre_reg": "Ñuble", "código_de": 17, "nombre_dep": "Servicio de Salud Ñuble", "pertenenci": "Perteneciente al Sistema Nacional de Servicios de Salud", "tipo_estab": null, "ámbito_de": "Establecimiento de Salud", "nombre_ofi": null, "certificac": "No Aplica", "dependenci": "Servicio de Salud Ñuble", "nivel_de_a": "Primario", "código_co": "16104", "nombre_com": "EL CARMEN", "vía": "Calle", "número": 0, "dirección": "Caserío de Zapallar - Pedregal", "teléfono": 0, "fecha_inic": "38716", "tiene_serv": null, "tipo_de_ur": "No Aplica", "tipo_de_sa": null, "latitud": -36.84251, "longitud__": -71.80011, "tipo_de_pr": null, "estado_de": null, "nivel_de_c": "Primario", "modalidad": null, "simbologia": "Atención Primaria de Salud (APS)", "fid_comunas_v1": null, "cut_reg": "16", "cut_prov": "161", "cut_com": "16104", "region": "Ñuble", "provincia": "DIGUILLÍN", "comuna": "EL CARMEN", "superficie": null }, "geometry": { "type": "Point", "coordinates": [ -71.80011, -36.84251 ] } },
{ "type": "Feature", "properties": { "objectid": 10653, "fid_establecimientos_de_salud": null, "código_an": "17-469", "código_vi": 117469, "código__m": " ", "código_nu": 0, "código_re": 16, "nombre_reg": "Ñuble", "código_de": 17, "nombre_dep": "Servicio de Salud Ñuble", "pertenenci": "Perteneciente al Sistema Nacional de Servicios de Salud", "tipo_estab": null, "ámbito_de": "Establecimiento de Salud", "nombre_ofi": null, "certificac": "No Aplica", "dependenci": "Servicio de Salud Ñuble", "nivel_de_a": "Primario", "código_co": "16106", "nombre_com": "PINTO", "vía": "Calle", "número": 0, "dirección": "Sector Ciruelito", "teléfono": 0, "fecha_inic": "38716", "tiene_serv": null, "tipo_de_ur": "No Aplica", "tipo_de_sa": null, "latitud": -36.7725, "longitud__": -71.82028, "tipo_de_pr": null, "estado_de": null, "nivel_de_c": "Primario", "modalidad": null, "simbologia": "Atención Primaria de Salud (APS)", "fid_comunas_v1": null, "cut_reg": "16", "cut_prov": "161", "cut_com": "16106", "region": "Ñuble", "provincia": "DIGUILLÍN", "comuna": "PINTO", "superficie": null }, "geometry": { "type": "Point", "coordinates": [ -71.82028, -36.7725 ] } },
{ "type": "Feature", "properties": { "objectid": 10676, "fid_establecimientos_de_salud": null, "código_an": "17-407", "código_vi": 117407, "código__m": " ", "código_nu": 0, "código_re": 16, "nombre_reg": "Ñuble", "código_de": 17, "nombre_dep": "Servicio de Salud Ñuble", "pertenenci": "Perteneciente al Sistema Nacional de Servicios de Salud", "tipo_estab": null, "ámbito_de": "Establecimiento de Salud", "nombre_ofi": null, "certificac": "No Aplica", "dependenci": "Servicio de Salud Ñuble", "nivel_de_a": "Primario", "código_co": "16302", "nombre_com": "COIHUECO", "vía": "Calle", "número": 0, "dirección": "Aldea de Tanilvoro", "teléfono": 0, "fecha_inic": "38716", "tiene_serv": null, "tipo_de_ur": "No Aplica", "tipo_de_sa": null, "latitud": -36.726, "longitud__": -71.82131, "tipo_de_pr": null, "estado_de": null, "nivel_de_c": "Primario", "modalidad": null, "simbologia": "Atención Primaria de Salud (APS)", "fid_comunas_v1": null, "cut_reg": "16", "cut_prov": "163", "cut_com": "16302", "region": "Ñuble", "provincia": "PUNILLA", "comuna": "COIHUECO", "superficie": null }, "geometry": { "type": "Point", "coordinates": [ -71.82131, -36.726 ] } },
{ "type": "Feature", "properties": { "objectid": 10688, "fid_establecimientos_de_salud": null, "código_an": "17-317", "código_vi": 117317, "código__m": " ", "código_nu": 0, "código_re": 16, "nombre_reg": "Ñuble", "código_de": 17, "nombre_dep": "Servicio de Salud Ñuble", "pertenenci": "Perteneciente al Sistema Nacional de Servicios de Salud", "tipo_estab": null, "ámbito_de": "Establecimiento de Salud", "nombre_ofi": null, "certificac": "Centro de Salud Familiar", "dependenci": "Servicio de Salud Ñuble", "nivel_de_a": "Primario", "código_co": "16106", "nombre_com": "PINTO", "vía": "Calle", "número": 0, "dirección": "Ernesto Riquelme", "teléfono": 422484015, "fecha_inic": "38716", "tiene_serv": null, "tipo_de_ur": "No Aplica", "tipo_de_sa": null, "latitud": -36.70465, "longitud__": -71.8931, "tipo_de_pr": null, "estado_de": null, "nivel_de_c": "Primario", "modalidad": null, "simbologia": "Atención Primaria de Salud (APS)", "fid_comunas_v1": null, "cut_reg": "16", "cut_prov": "161", "cut_com": "16106", "region": "Ñuble", "provincia": "DIGUILLÍN", "comuna": "PINTO", "superficie": null }, "geometry": { "type": "Point", "coordinates": [ -71.8931, -36.70465 ] } },
{ "type": "Feature", "properties": { "objectid": 10689, "fid_establecimientos_de_salud": null, "código_an": "17-920", "código_vi": 200837, "código__m": "17-317", "código_nu": 117317, "código_re": 16, "nombre_reg": "Ñuble", "código_de": 17, "nombre_dep": "Servicio de Salud Ñuble", "pertenenci": "Perteneciente al Sistema Nacional de Servicios de Salud", "tipo_estab": null, "ámbito_de": "Establecimiento de Salud", "nombre_ofi": null, "certificac": "No Aplica", "dependenci": "Servicio de Salud Ñuble", "nivel_de_a": "Primario", "código_co": "16106", "nombre_com": "PINTO", "vía": "Calle", "número": 0, "dirección": "Ernesto Riquelme", "teléfono": 422484015, "fecha_inic": "38716", "tiene_serv": null, "tipo_de_ur": "Urgencia Ambulatoria (SUR)", "tipo_de_sa": null, "latitud": -36.704575, "longitud__": -71.893164, "tipo_de_pr": null, "estado_de": null, "nivel_de_c": "Primario", "modalidad": null, "simbologia": "Servicios de Urgencia de Atención Primaria", "fid_comunas_v1": null, "cut_reg": "16", "cut_prov": "161", "cut_com": "16106", "region": "Ñuble", "provincia": "DIGUILLÍN", "comuna": "PINTO", "superficie": null }, "geometry": { "type": "Point", "coordinates": [ -71.89316, -36.70457 ] } },
{ "type": "Feature", "properties": { "objectid": 10694, "fid_establecimientos_de_salud": null, "código_an": "17-406", "código_vi": 117406, "código__m": " ", "código_nu": 0, "código_re": 16, "nombre_reg": "Ñuble", "código_de": 17, "nombre_dep": "Servicio de Salud Ñuble", "pertenenci": "Perteneciente al Sistema Nacional de Servicios de Salud", "tipo_estab": null, "ámbito_de": "Establecimiento de Salud", "nombre_ofi": null, "certificac": "No Aplica", "dependenci": "Servicio de Salud Ñuble", "nivel_de_a": "Primario", "código_co": "16302", "nombre_com": "COIHUECO", "vía": "Calle", "número": 0, "dirección": "Aldea Minas del Prado", "teléfono": 0, "fecha_inic": "38716", "tiene_serv": null, "tipo_de_ur": "No Aplica", "tipo_de_sa": null, "latitud": -36.664799, "longitud__": -71.706641, "tipo_de_pr": null, "estado_de": null, "nivel_de_c": "Primario", "modalidad": null, "simbologia": "Atención Primaria de Salud (APS)", "fid_comunas_v1": null, "cut_reg": "16", "cut_prov": "163", "cut_com": "16302", "region": "Ñuble", "provincia": "PUNILLA", "comuna": "COIHUECO", "superficie": null }, "geometry": { "type": "Point", "coordinates": [ -71.70664, -36.6648 ] } },
{ "type": "Feature", "properties": { "objectid": 10696, "fid_establecimientos_de_salud": null, "código_an": "17-467", "código_vi": 117467, "código__m": " ", "código_nu": 0, "código_re": 16, "nombre_reg": "Ñuble", "código_de": 17, "nombre_dep": "Servicio de Salud Ñuble", "pertenenci": "Perteneciente al Sistema Nacional de Servicios de Salud", "tipo_estab": null, "ámbito_de": "Establecimiento de Salud", "nombre_ofi": null, "certificac": "No Aplica", "dependenci": "Servicio de Salud Ñuble", "nivel_de_a": "Primario", "código_co": "16304", "nombre_com": "SAN FABIÁN", "vía": "Calle", "número": 0, "dirección": "Sector El Caracol", "teléfono": 0, "fecha_inic": "38716", "tiene_serv": null, "tipo_de_ur": "No Aplica", "tipo_de_sa": null, "latitud": -36.649791, "longitud__": -71.389733, "tipo_de_pr": null, "estado_de": null, "nivel_de_c": "Primario", "modalidad": null, "simbologia": "Atención Primaria de Salud (APS)", "fid_comunas_v1": null, "cut_reg": "16", "cut_prov": "163", "cut_com": "16304", "region": "Ñuble", "provincia": "PUNILLA", "comuna": "SAN FABIÁN", "superficie": null }, "geometry": { "type": "Point", "coordinates": [ -71.38973, -36.64979 ] } },
{ "type": "Feature", "properties": { "objectid": 10702, "fid_establecimientos_de_salud": null, "código_an": "17-318", "código_vi": 117318, "código__m": " ", "código_nu": 0, "código_re": 16, "nombre_reg": "Ñuble", "código_de": 17, "nombre_dep": "Servicio de Salud Ñuble", "pertenenci": "Perteneciente al Sistema Nacional de Servicios de Salud", "tipo_estab": null, "ámbito_de": "Establecimiento de Salud", "nombre_ofi": null, "certificac": "Centro de Salud Familiar", "dependenci": "Servicio de Salud Ñuble", "nivel_de_a": "Primario", "código_co": "16302", "nombre_com": "COIHUECO", "vía": "Calle", "número": 0, "dirección": "Eleuterio Ramirez", "teléfono": 0, "fecha_inic": "38716", "tiene_serv": null, "tipo_de_ur": "No Aplica", "tipo_de_sa": null, "latitud": -36.625324, "longitud__": -71.828417, "tipo_de_pr": null, "estado_de": null, "nivel_de_c": "Primario", "modalidad": null, "simbologia": "Atención Primaria de Salud (APS)", "fid_comunas_v1": null, "cut_reg": "16", "cut_prov": "163", "cut_com": "16302", "region": "Ñuble", "provincia": "PUNILLA", "comuna": "COIHUECO", "superficie": null }, "geometry": { "type": "Point", "coordinates": [ -71.82842, -36.62532 ] } },
{ "type": "Feature", "properties": { "objectid": 10758, "fid_establecimientos_de_salud": null, "código_an": "17-403", "código_vi": 117403, "código__m": " ", "código_nu": 0, "código_re": 16, "nombre_reg": "Ñuble", "código_de": 17, "nombre_dep": "Servicio de Salud Ñuble", "pertenenci": "Perteneciente al Sistema Nacional de Servicios de Salud", "tipo_estab": null, "ámbito_de": "Establecimiento de Salud", "nombre_ofi": null, "certificac": "No Aplica", "dependenci": "Servicio de Salud Ñuble", "nivel_de_a": "Primario", "código_co": "16302", "nombre_com": "COIHUECO", "vía": "Calle", "número": 0, "dirección": "Aldea de Bustamante", "teléfono": 0, "fecha_inic": "38716", "tiene_serv": null, "tipo_de_ur": "No Aplica", "tipo_de_sa": null, "latitud": -36.59078, "longitud__": -71.7649, "tipo_de_pr": null, "estado_de": null, "nivel_de_c": "Primario", "modalidad": null, "simbologia": "Atención Primaria de Salud (APS)", "fid_comunas_v1": null, "cut_reg": "16", "cut_prov": "163", "cut_com": "16302", "region": "Ñuble", "provincia": "PUNILLA", "comuna": "COIHUECO", "superficie": null }, "geometry": { "type": "Point", "coordinates": [ -71.7649, -36.59078 ] } },
{ "type": "Feature", "properties": { "objectid": 10763, "fid_establecimientos_de_salud": null, "código_an": "17-309", "código_vi": 117309, "código__m": " ", "código_nu": 0, "código_re": 16, "nombre_reg": "Ñuble", "código_de": 17, "nombre_dep": "Servicio de Salud Ñuble", "pertenenci": "Perteneciente al Sistema Nacional de Servicios de Salud", "tipo_estab": null, "ámbito_de": "Establecimiento de Salud", "nombre_ofi": null, "certificac": "Centro de Salud Familiar", "dependenci": "Servicio de Salud Ñuble", "nivel_de_a": "Primario", "código_co": "16304", "nombre_com": "SAN FABIÁN", "vía": "Calle", "número": 0, "dirección": "21 de Mayo", "teléfono": 422375131, "fecha_inic": "38716", "tiene_serv": null, "tipo_de_ur": "No Aplica", "tipo_de_sa": null, "latitud": -36.55429, "longitud__": -71.55393, "tipo_de_pr": null, "estado_de": null, "nivel_de_c": "Primario", "modalidad": null, "simbologia": "Atención Primaria de Salud (APS)", "fid_comunas_v1": null, "cut_reg": "16", "cut_prov": "163", "cut_com": "16304", "region": "Ñuble", "provincia": "PUNILLA", "comuna": "SAN FABIÁN", "superficie": null }, "geometry": { "type": "Point", "coordinates": [ -71.55393, -36.55429 ] } },
{ "type": "Feature", "properties": { "objectid": 10765, "fid_establecimientos_de_salud": null, "código_an": "17-914", "código_vi": 200831, "código__m": "17-309", "código_nu": 117309, "código_re": 16, "nombre_reg": "Ñuble", "código_de": 17, "nombre_dep": "Servicio de Salud Ñuble", "pertenenci": "Perteneciente al Sistema Nacional de Servicios de Salud", "tipo_estab": null, "ámbito_de": "Establecimiento de Salud", "nombre_ofi": null, "certificac": "No Aplica", "dependenci": "Servicio de Salud Ñuble", "nivel_de_a": "Primario", "código_co": "16304", "nombre_com": "SAN FABIÁN", "vía": "Calle", "número": 0, "dirección": "21 de Mayo", "teléfono": 422375131, "fecha_inic": "38716", "tiene_serv": null, "tipo_de_ur": "Urgencia Ambulatoria (SUR)", "tipo_de_sa": null, "latitud": -36.554259, "longitud__": -71.553989, "tipo_de_pr": null, "estado_de": null, "nivel_de_c": "Primario", "modalidad": null, "simbologia": "Servicios de Urgencia de Atención Primaria", "fid_comunas_v1": null, "cut_reg": "16", "cut_prov": "163", "cut_com": "16304", "region": "Ñuble", "provincia": "PUNILLA", "comuna": "SAN FABIÁN", "superficie": null }, "geometry": { "type": "Point", "coordinates": [ -71.55399, -36.55426 ] } },
{ "type": "Feature", "properties": { "objectid": 12933, "fid_establecimientos_de_salud": null, "código_an": "201571", "código_vi": 201571, "código__m": " ", "código_nu": 0, "código_re": 16, "nombre_reg": "Ñuble", "código_de": 16, "nombre_dep": "SEREMI Del Ñuble", "pertenenci": "No perteneciente al Sistema Nacional de Servicios de Salud", "tipo_estab": null, "ámbito_de": "Establecimiento de Salud", "nombre_ofi": null, "certificac": "No Aplica", "dependenci": "SEREMI Del Ñuble", "nivel_de_a": "No Aplica", "código_co": "16302", "nombre_com": "COIHUECO", "vía": "Calle", "número": 1444, "dirección": "Camilo Henriquez", "teléfono": 938616444, "fecha_inic": "43852", "tiene_serv": null, "tipo_de_ur": "No Aplica", "tipo_de_sa": null, "latitud": -36.623149, "longitud__": -71.833989, "tipo_de_pr": null, "estado_de": null, "nivel_de_c": "No Aplica", "modalidad": null, "simbologia": "Servicios de Apoyo Diagnóstico y Terapéutico", "fid_comunas_v1": null, "cut_reg": "16", "cut_prov": "163", "cut_com": "16302", "region": "Ñuble", "provincia": "PUNILLA", "comuna": "COIHUECO", "superficie": null }, "geometry": { "type": "Point", "coordinates": [ -71.83399, -36.62315 ] } },
{ "type": "Feature", "properties": { "objectid": 13605, "fid_establecimientos_de_salud": null, "código_an": "201849", "código_vi": 201849, "código__m": "17-318", "código_nu": 117318, "código_re": 16, "nombre_reg": "Ñuble", "código_de": 17, "nombre_dep": "Servicio de Salud Ñuble", "pertenenci": "Perteneciente al Sistema Nacional de Servicios de Salud", "tipo_estab": null, "ámbito_de": "Establecimiento de Salud", "nombre_ofi": null, "certificac": "No Aplica", "dependenci": "Servicio de Salud Ñuble", "nivel_de_a": "Primario", "código_co": "16302", "nombre_com": "COIHUECO", "vía": "Calle", "número": 1233, "dirección": "Eleuterio Ramirez", "teléfono": 0, "fecha_inic": "45658", "tiene_serv": null, "tipo_de_ur": "Urgencia Ambulatoria (SAR)", "tipo_de_sa": null, "latitud": -36.625454, "longitud__": -71.828114, "tipo_de_pr": null, "estado_de": null, "nivel_de_c": "Primario", "modalidad": null, "simbologia": "Servicios de Urgencia de Atención Primaria", "fid_comunas_v1": null, "cut_reg": "16", "cut_prov": "163", "cut_com": "16302", "region": "Ñuble", "provincia": "PUNILLA", "comuna": "COIHUECO", "superficie": null }, "geometry": { "type": "Point", "coordinates": [ -71.82811, -36.62545 ] } }
]
}
