{
"type": "FeatureCollection",
"name": "NLO",
"crs": { "type": "name", "properties": { "name": "urn:ogc:def:crs:OGC:1.3:CRS84" } },
"xy_coordinate_resolution": 1e-05,
"features": [
{ "type": "Feature", "properties": { "objectid": 9598, "fid_establecimientos_de_salud": null, "código_an": "16-564", "código_vi": 116564, "código__m": " ", "código_nu": 0, "código_re": 7, "nombre_reg": "Maule", "código_de": 16, "nombre_dep": "Servicio de Salud Del Maule", "pertenenci": "Perteneciente al Sistema Nacional de Servicios de Salud", "tipo_estab": null, "ámbito_de": "Establecimiento de Salud", "nombre_ofi": null, "certificac": "No Aplica", "dependenci": "Servicio de Salud Del Maule", "nivel_de_a": "Primario", "código_co": "07404", "nombre_com": "PARRAL", "vía": "Calle", "número": 0, "dirección": "Camino a Catillo", "teléfono": 0, "fecha_inic": "38716", "tiene_serv": null, "tipo_de_ur": "No Aplica", "tipo_de_sa": null, "latitud": -36.387935, "longitud__": -71.585985, "tipo_de_pr": null, "estado_de": null, "nivel_de_c": "Primario", "modalidad": null, "simbologia": "Atención Primaria de Salud (APS)", "fid_comunas_v1": null, "cut_reg": "7", "cut_prov": "074", "cut_com": "07404", "region": "Maule", "provincia": "LINARES", "comuna": "PARRAL", "superficie": null }, "geometry": { "type": "Point", "coordinates": [ -71.58598, -36.38793 ] } },
{ "type": "Feature", "properties": { "objectid": 9599, "fid_establecimientos_de_salud": null, "código_an": "16-924", "código_vi": 200411, "código__m": " ", "código_nu": 0, "código_re": 7, "nombre_reg": "Maule", "código_de": 7, "nombre_dep": "SEREMI Del Maule", "pertenenci": "No perteneciente al Sistema Nacional de Servicios de Salud", "tipo_estab": null, "ámbito_de": "Establecimiento de Salud", "nombre_ofi": null, "certificac": "No Aplica", "dependenci": "SEREMI Del Maule", "nivel_de_a": "No Aplica", "código_co": "07404", "nombre_com": "PARRAL", "vía": "Calle", "número": 6, "dirección": "Parcela, Villa Baviera", "teléfono": 0, "fecha_inic": "43004", "tiene_serv": null, "tipo_de_ur": "No Aplica", "tipo_de_sa": null, "latitud": -36.387277, "longitud__": -71.588431, "tipo_de_pr": null, "estado_de": null, "nivel_de_c": "No Aplica", "modalidad": null, "simbologia": "Servicios de Apoyo Diagnóstico y Terapéutico", "fid_comunas_v1": null, "cut_reg": "7", "cut_prov": "074", "cut_com": "07404", "region": "Maule", "provincia": "LINARES", "comuna": "PARRAL", "superficie": null }, "geometry": { "type": "Point", "coordinates": [ -71.58843, -36.38728 ] } },
{ "type": "Feature", "properties": { "objectid": 9606, "fid_establecimientos_de_salud": null, "código_an": "16-493", "código_vi": 116493, "código__m": " ", "código_nu": 0, "código_re": 7, "nombre_reg": "Maule", "código_de": 16, "nombre_dep": "Servicio de Salud Del Maule", "pertenenci": "Perteneciente al Sistema Nacional de Servicios de Salud", "tipo_estab": null, "ámbito_de": "Establecimiento de Salud", "nombre_ofi": null, "certificac": "No Aplica", "dependenci": "Servicio de Salud Del Maule", "nivel_de_a": "Primario", "código_co": "07404", "nombre_com": "PARRAL", "vía": "Calle", "número": 0, "dirección": "Caserío Los Canelos", "teléfono": 0, "fecha_inic": "38716", "tiene_serv": null, "tipo_de_ur": "No Aplica", "tipo_de_sa": null, "latitud": -36.303463, "longitud__": -71.31812, "tipo_de_pr": null, "estado_de": null, "nivel_de_c": "Primario", "modalidad": null, "simbologia": "Atención Primaria de Salud (APS)", "fid_comunas_v1": null, "cut_reg": "7", "cut_prov": "074", "cut_com": "07404", "region": "Maule", "provincia": "LINARES", "comuna": "PARRAL", "superficie": null }, "geometry": { "type": "Point", "coordinates": [ -71.31812, -36.30346 ] } },
{ "type": "Feature", "properties": { "objectid": 9608, "fid_establecimientos_de_salud": null, "código_an": "16-494", "código_vi": 116494, "código__m": " ", "código_nu": 0, "código_re": 7, "nombre_reg": "Maule", "código_de": 16, "nombre_dep": "Servicio de Salud Del Maule", "pertenenci": "Perteneciente al Sistema Nacional de Servicios de Salud", "tipo_estab": null, "ámbito_de": "Establecimiento de Salud", "nombre_ofi": null, "certificac": "No Aplica", "dependenci": "Servicio de Salud Del Maule", "nivel_de_a": "Primario", "código_co": "07404", "nombre_com": "PARRAL", "vía": "Calle", "número": 0, "dirección": "Caserío Bullileo", "teléfono": 0, "fecha_inic": "38716", "tiene_serv": null, "tipo_de_ur": "No Aplica", "tipo_de_sa": null, "latitud": -36.288958, "longitud__": -71.414922, "tipo_de_pr": null, "estado_de": null, "nivel_de_c": "Primario", "modalidad": null, "simbologia": "Atención Primaria de Salud (APS)", "fid_comunas_v1": null, "cut_reg": "7", "cut_prov": "074", "cut_com": "07404", "region": "Maule", "provincia": "LINARES", "comuna": "PARRAL", "superficie": null }, "geometry": { "type": "Point", "coordinates": [ -71.41492, -36.28896 ] } },
{ "type": "Feature", "properties": { "objectid": 9612, "fid_establecimientos_de_salud": null, "código_an": "16-496", "código_vi": 116496, "código__m": " ", "código_nu": 0, "código_re": 7, "nombre_reg": "Maule", "código_de": 16, "nombre_dep": "Servicio de Salud Del Maule", "pertenenci": "Perteneciente al Sistema Nacional de Servicios de Salud", "tipo_estab": null, "ámbito_de": "Establecimiento de Salud", "nombre_ofi": null, "certificac": "No Aplica", "dependenci": "Servicio de Salud Del Maule", "nivel_de_a": "Primario", "código_co": "07404", "nombre_com": "PARRAL", "vía": "Calle", "número": 0, "dirección": "Caserío Cruce Catillo", "teléfono": 0, "fecha_inic": "38716", "tiene_serv": null, "tipo_de_ur": "No Aplica", "tipo_de_sa": null, "latitud": -36.28591, "longitud__": -71.65239, "tipo_de_pr": null, "estado_de": null, "nivel_de_c": "Primario", "modalidad": null, "simbologia": "Atención Primaria de Salud (APS)", "fid_comunas_v1": null, "cut_reg": "7", "cut_prov": "074", "cut_com": "07404", "region": "Maule", "provincia": "LINARES", "comuna": "PARRAL", "superficie": null }, "geometry": { "type": "Point", "coordinates": [ -71.65239, -36.28591 ] } },
{ "type": "Feature", "properties": { "objectid": 9617, "fid_establecimientos_de_salud": null, "código_an": "16-943", "código_vi": 200728, "código__m": " ", "código_nu": 0, "código_re": 7, "nombre_reg": "Maule", "código_de": 16, "nombre_dep": "Servicio de Salud Del Maule", "pertenenci": "Perteneciente al Sistema Nacional de Servicios de Salud", "tipo_estab": null, "ámbito_de": "Establecimiento de Salud", "nombre_ofi": null, "certificac": "No Aplica", "dependenci": "Servicio de Salud Del Maule", "nivel_de_a": "Primario", "código_co": "07404", "nombre_com": "PARRAL", "vía": "Camino", "número": 27, "dirección": "Camino público, Sector San Alejo", "teléfono": 0, "fecha_inic": "43913", "tiene_serv": null, "tipo_de_ur": "No Aplica", "tipo_de_sa": null, "latitud": -36.234775, "longitud__": -71.550264, "tipo_de_pr": null, "estado_de": null, "nivel_de_c": "Primario", "modalidad": null, "simbologia": "Atención Primaria de Salud (APS)", "fid_comunas_v1": null, "cut_reg": "7", "cut_prov": "074", "cut_com": "07404", "region": "Maule", "provincia": "LINARES", "comuna": "PARRAL", "superficie": null }, "geometry": { "type": "Point", "coordinates": [ -71.55026, -36.23477 ] } },
{ "type": "Feature", "properties": { "objectid": 9621, "fid_establecimientos_de_salud": null, "código_an": "16-486", "código_vi": 116486, "código__m": " ", "código_nu": 0, "código_re": 7, "nombre_reg": "Maule", "código_de": 16, "nombre_dep": "Servicio de Salud Del Maule", "pertenenci": "Perteneciente al Sistema Nacional de Servicios de Salud", "tipo_estab": null, "ámbito_de": "Establecimiento de Salud", "nombre_ofi": null, "certificac": "No Aplica", "dependenci": "Servicio de Salud Del Maule", "nivel_de_a": "Primario", "código_co": "07403", "nombre_com": "LONGAVÍ", "vía": "Calle", "número": 0, "dirección": "Caserío Loma de Vásquez", "teléfono": 0, "fecha_inic": "38716", "tiene_serv": null, "tipo_de_ur": "No Aplica", "tipo_de_sa": null, "latitud": -36.223188, "longitud__": -71.446623, "tipo_de_pr": null, "estado_de": null, "nivel_de_c": "Primario", "modalidad": null, "simbologia": "Atención Primaria de Salud (APS)", "fid_comunas_v1": null, "cut_reg": "7", "cut_prov": "074", "cut_com": "07403", "region": "Maule", "provincia": "LINARES", "comuna": "LONGAVÍ", "superficie": null }, "geometry": { "type": "Point", "coordinates": [ -71.44662, -36.22319 ] } },
{ "type": "Feature", "properties": { "objectid": 9623, "fid_establecimientos_de_salud": null, "código_an": "16-490", "código_vi": 116490, "código__m": "16-321", "código_nu": 0, "código_re": 7, "nombre_reg": "Maule", "código_de": 16, "nombre_dep": "Servicio de Salud Del Maule", "pertenenci": "Perteneciente al Sistema Nacional de Servicios de Salud", "tipo_estab": null, "ámbito_de": "Establecimiento de Salud", "nombre_ofi": null, "certificac": "No Aplica", "dependenci": "Servicio de Salud Del Maule", "nivel_de_a": "Primario", "código_co": "07405", "nombre_com": "RETIRO", "vía": "Calle", "número": 0, "dirección": "Camino a la Montaña,  Las Camelias", "teléfono": 732971043, "fecha_inic": "38716", "tiene_serv": null, "tipo_de_ur": "No Aplica", "tipo_de_sa": null, "latitud": -36.21106, "longitud__": -71.60496, "tipo_de_pr": null, "estado_de": null, "nivel_de_c": "Primario", "modalidad": null, "simbologia": "Atención Primaria de Salud (APS)", "fid_comunas_v1": null, "cut_reg": "7", "cut_prov": "074", "cut_com": "07405", "region": "Maule", "provincia": "LINARES", "comuna": "RETIRO", "superficie": null }, "geometry": { "type": "Point", "coordinates": [ -71.60496, -36.21106 ] } },
{ "type": "Feature", "properties": { "objectid": 9624, "fid_establecimientos_de_salud": null, "código_an": "16-560", "código_vi": 116560, "código__m": " ", "código_nu": 0, "código_re": 7, "nombre_reg": "Maule", "código_de": 16, "nombre_dep": "Servicio de Salud Del Maule", "pertenenci": "Perteneciente al Sistema Nacional de Servicios de Salud", "tipo_estab": null, "ámbito_de": "Establecimiento de Salud", "nombre_ofi": null, "certificac": "No Aplica", "dependenci": "Servicio de Salud Del Maule", "nivel_de_a": "Primario", "código_co": "07404", "nombre_com": "PARRAL", "vía": "Calle", "número": 0, "dirección": "Aldea La Orilla", "teléfono": 0, "fecha_inic": "38716", "tiene_serv": null, "tipo_de_ur": "No Aplica", "tipo_de_sa": null, "latitud": -36.2101, "longitud__": -71.5761, "tipo_de_pr": null, "estado_de": null, "nivel_de_c": "Primario", "modalidad": null, "simbologia": "Atención Primaria de Salud (APS)", "fid_comunas_v1": null, "cut_reg": "7", "cut_prov": "074", "cut_com": "07404", "region": "Maule", "provincia": "LINARES", "comuna": "PARRAL", "superficie": null }, "geometry": { "type": "Point", "coordinates": [ -71.5761, -36.2101 ] } },
{ "type": "Feature", "properties": { "objectid": 9629, "fid_establecimientos_de_salud": null, "código_an": "16-484", "código_vi": 116484, "código__m": " ", "código_nu": 0, "código_re": 7, "nombre_reg": "Maule", "código_de": 16, "nombre_dep": "Servicio de Salud Del Maule", "pertenenci": "Perteneciente al Sistema Nacional de Servicios de Salud", "tipo_estab": null, "ámbito_de": "Establecimiento de Salud", "nombre_ofi": null, "certificac": "No Aplica", "dependenci": "Servicio de Salud Del Maule", "nivel_de_a": "Primario", "código_co": "07403", "nombre_com": "LONGAVÍ", "vía": "Calle", "número": 0, "dirección": "Sector San José", "teléfono": 0, "fecha_inic": "38716", "tiene_serv": null, "tipo_de_ur": "No Aplica", "tipo_de_sa": null, "latitud": -36.151157, "longitud__": -71.581084, "tipo_de_pr": null, "estado_de": null, "nivel_de_c": "Primario", "modalidad": null, "simbologia": "Atención Primaria de Salud (APS)", "fid_comunas_v1": null, "cut_reg": "7", "cut_prov": "074", "cut_com": "07403", "region": "Maule", "provincia": "LINARES", "comuna": "LONGAVÍ", "superficie": null }, "geometry": { "type": "Point", "coordinates": [ -71.58108, -36.15116 ] } },
{ "type": "Feature", "properties": { "objectid": 9634, "fid_establecimientos_de_salud": null, "código_an": "16-526", "código_vi": 116526, "código__m": " ", "código_nu": 0, "código_re": 7, "nombre_reg": "Maule", "código_de": 16, "nombre_dep": "Servicio de Salud Del Maule", "pertenenci": "Perteneciente al Sistema Nacional de Servicios de Salud", "tipo_estab": null, "ámbito_de": "Establecimiento de Salud", "nombre_ofi": null, "certificac": "No Aplica", "dependenci": "Servicio de Salud Del Maule", "nivel_de_a": "Primario", "código_co": "07405", "nombre_com": "RETIRO", "vía": "Calle", "número": 0, "dirección": "Caserío Santa Delfina", "teléfono": 732971040, "fecha_inic": "38716", "tiene_serv": null, "tipo_de_ur": "No Aplica", "tipo_de_sa": null, "latitud": -36.1431, "longitud__": -71.65764, "tipo_de_pr": null, "estado_de": null, "nivel_de_c": "Primario", "modalidad": null, "simbologia": "Atención Primaria de Salud (APS)", "fid_comunas_v1": null, "cut_reg": "7", "cut_prov": "074", "cut_com": "07405", "region": "Maule", "provincia": "LINARES", "comuna": "RETIRO", "superficie": null }, "geometry": { "type": "Point", "coordinates": [ -71.65764, -36.1431 ] } },
{ "type": "Feature", "properties": { "objectid": 9642, "fid_establecimientos_de_salud": null, "código_an": "16-478", "código_vi": 116478, "código__m": " ", "código_nu": 0, "código_re": 7, "nombre_reg": "Maule", "código_de": 16, "nombre_dep": "Servicio de Salud Del Maule", "pertenenci": "Perteneciente al Sistema Nacional de Servicios de Salud", "tipo_estab": null, "ámbito_de": "Establecimiento de Salud", "nombre_ofi": null, "certificac": "No Aplica", "dependenci": "Servicio de Salud Del Maule", "nivel_de_a": "Primario", "código_co": "07401", "nombre_com": "LINARES", "vía": "Calle", "número": 0, "dirección": "Caserío Los Hualles", "teléfono": 0, "fecha_inic": "38716", "tiene_serv": null, "tipo_de_ur": "No Aplica", "tipo_de_sa": null, "latitud": -36.133306, "longitud__": -71.324424, "tipo_de_pr": null, "estado_de": null, "nivel_de_c": "Primario", "modalidad": null, "simbologia": "Atención Primaria de Salud (APS)", "fid_comunas_v1": null, "cut_reg": "7", "cut_prov": "074", "cut_com": "07401", "region": "Maule", "provincia": "LINARES", "comuna": "LINARES", "superficie": null }, "geometry": { "type": "Point", "coordinates": [ -71.32442, -36.13331 ] } },
{ "type": "Feature", "properties": { "objectid": 9646, "fid_establecimientos_de_salud": null, "código_an": "16-516", "código_vi": 116516, "código__m": " ", "código_nu": 0, "código_re": 7, "nombre_reg": "Maule", "código_de": 16, "nombre_dep": "Servicio de Salud Del Maule", "pertenenci": "Perteneciente al Sistema Nacional de Servicios de Salud", "tipo_estab": null, "ámbito_de": "Establecimiento de Salud", "nombre_ofi": null, "certificac": "No Aplica", "dependenci": "Servicio de Salud Del Maule", "nivel_de_a": "Primario", "código_co": "07403", "nombre_com": "LONGAVÍ", "vía": "Calle", "número": 0, "dirección": "Sector El Carmen", "teléfono": 0, "fecha_inic": "38716", "tiene_serv": null, "tipo_de_ur": "No Aplica", "tipo_de_sa": null, "latitud": -36.08982, "longitud__": -71.5577, "tipo_de_pr": null, "estado_de": null, "nivel_de_c": "Primario", "modalidad": null, "simbologia": "Atención Primaria de Salud (APS)", "fid_comunas_v1": null, "cut_reg": "7", "cut_prov": "074", "cut_com": "07403", "region": "Maule", "provincia": "LINARES", "comuna": "LONGAVÍ", "superficie": null }, "geometry": { "type": "Point", "coordinates": [ -71.5577, -36.08982 ] } },
{ "type": "Feature", "properties": { "objectid": 9650, "fid_establecimientos_de_salud": null, "código_an": "16-532", "código_vi": 116532, "código__m": " ", "código_nu": 0, "código_re": 7, "nombre_reg": "Maule", "código_de": 16, "nombre_dep": "Servicio de Salud Del Maule", "pertenenci": "Perteneciente al Sistema Nacional de Servicios de Salud", "tipo_estab": null, "ámbito_de": "Establecimiento de Salud", "nombre_ofi": null, "certificac": "No Aplica", "dependenci": "Servicio de Salud Del Maule", "nivel_de_a": "Primario", "código_co": "07403", "nombre_com": "LONGAVÍ", "vía": "Calle", "número": 0, "dirección": "Sector Lomas de la Tercera", "teléfono": 0, "fecha_inic": "38716", "tiene_serv": null, "tipo_de_ur": "No Aplica", "tipo_de_sa": null, "latitud": -36.05508, "longitud__": -71.64008, "tipo_de_pr": null, "estado_de": null, "nivel_de_c": "Primario", "modalidad": null, "simbologia": "Atención Primaria de Salud (APS)", "fid_comunas_v1": null, "cut_reg": "7", "cut_prov": "074", "cut_com": "07403", "region": "Maule", "provincia": "LINARES", "comuna": "LONGAVÍ", "superficie": null }, "geometry": { "type": "Point", "coordinates": [ -71.64008, -36.05508 ] } },
{ "type": "Feature", "properties": { "objectid": 9651, "fid_establecimientos_de_salud": null, "código_an": "16-412", "código_vi": 116412, "código__m": " ", "código_nu": 0, "código_re": 7, "nombre_reg": "Maule", "código_de": 16, "nombre_dep": "Servicio de Salud Del Maule", "pertenenci": "Perteneciente al Sistema Nacional de Servicios de Salud", "tipo_estab": null, "ámbito_de": "Establecimiento de Salud", "nombre_ofi": null, "certificac": "No Aplica", "dependenci": "Servicio de Salud Del Maule", "nivel_de_a": "Primario", "código_co": "07401", "nombre_com": "LINARES", "vía": "Calle", "número": 0, "dirección": "Caserío Pejerrey", "teléfono": 0, "fecha_inic": "38716", "tiene_serv": null, "tipo_de_ur": "No Aplica", "tipo_de_sa": null, "latitud": -36.0538, "longitud__": -71.40136, "tipo_de_pr": null, "estado_de": null, "nivel_de_c": "Primario", "modalidad": null, "simbologia": "Atención Primaria de Salud (APS)", "fid_comunas_v1": null, "cut_reg": "7", "cut_prov": "074", "cut_com": "07401", "region": "Maule", "provincia": "LINARES", "comuna": "LINARES", "superficie": null }, "geometry": { "type": "Point", "coordinates": [ -71.40136, -36.0538 ] } },
{ "type": "Feature", "properties": { "objectid": 9653, "fid_establecimientos_de_salud": null, "código_an": "16-483", "código_vi": 116483, "código__m": " ", "código_nu": 0, "código_re": 7, "nombre_reg": "Maule", "código_de": 16, "nombre_dep": "Servicio de Salud Del Maule", "pertenenci": "Perteneciente al Sistema Nacional de Servicios de Salud", "tipo_estab": null, "ámbito_de": "Establecimiento de Salud", "nombre_ofi": null, "certificac": "No Aplica", "dependenci": "Servicio de Salud Del Maule", "nivel_de_a": "Primario", "código_co": "07403", "nombre_com": "LONGAVÍ", "vía": "Calle", "número": 0, "dirección": "Aldea La Quinta", "teléfono": 0, "fecha_inic": "38716", "tiene_serv": null, "tipo_de_ur": "No Aplica", "tipo_de_sa": null, "latitud": -36.05223, "longitud__": -71.56868, "tipo_de_pr": null, "estado_de": null, "nivel_de_c": "Primario", "modalidad": null, "simbologia": "Atención Primaria de Salud (APS)", "fid_comunas_v1": null, "cut_reg": "7", "cut_prov": "074", "cut_com": "07403", "region": "Maule", "provincia": "LINARES", "comuna": "LONGAVÍ", "superficie": null }, "geometry": { "type": "Point", "coordinates": [ -71.56868, -36.05223 ] } },
{ "type": "Feature", "properties": { "objectid": 9656, "fid_establecimientos_de_salud": null, "código_an": "16-762", "código_vi": 116762, "código__m": "16-320", "código_nu": 116320, "código_re": 7, "nombre_reg": "Maule", "código_de": 16, "nombre_dep": "Servicio de Salud Del Maule", "pertenenci": "Perteneciente al Sistema Nacional de Servicios de Salud", "tipo_estab": null, "ámbito_de": "Establecimiento de Salud", "nombre_ofi": null, "certificac": "No Aplica", "dependenci": "Servicio de Salud Del Maule", "nivel_de_a": "Primario", "código_co": "07403", "nombre_com": "LONGAVÍ", "vía": "Calle", "número": 0, "dirección": "Los Cristales", "teléfono": 0, "fecha_inic": "38716", "tiene_serv": null, "tipo_de_ur": "No Aplica", "tipo_de_sa": null, "latitud": -36.01465, "longitud__": -71.65108, "tipo_de_pr": null, "estado_de": null, "nivel_de_c": "Primario", "modalidad": null, "simbologia": "Atención Primaria de Salud (APS)", "fid_comunas_v1": null, "cut_reg": "7", "cut_prov": "074", "cut_com": "07403", "region": "Maule", "provincia": "LINARES", "comuna": "LONGAVÍ", "superficie": null }, "geometry": { "type": "Point", "coordinates": [ -71.65108, -36.01465 ] } },
{ "type": "Feature", "properties": { "objectid": 9659, "fid_establecimientos_de_salud": null, "código_an": "16-476", "código_vi": 116476, "código__m": " ", "código_nu": 0, "código_re": 7, "nombre_reg": "Maule", "código_de": 16, "nombre_dep": "Servicio de Salud Del Maule", "pertenenci": "Perteneciente al Sistema Nacional de Servicios de Salud", "tipo_estab": null, "ámbito_de": "Establecimiento de Salud", "nombre_ofi": null, "certificac": "No Aplica", "dependenci": "Servicio de Salud Del Maule", "nivel_de_a": "Primario", "código_co": "07401", "nombre_com": "LINARES", "vía": "Calle", "número": 0, "dirección": "Caserío Cajón Vega de Salas", "teléfono": 0, "fecha_inic": "38716", "tiene_serv": null, "tipo_de_ur": "No Aplica", "tipo_de_sa": null, "latitud": -35.98172, "longitud__": -71.38849, "tipo_de_pr": null, "estado_de": null, "nivel_de_c": "Primario", "modalidad": null, "simbologia": "Atención Primaria de Salud (APS)", "fid_comunas_v1": null, "cut_reg": "7", "cut_prov": "074", "cut_com": "07401", "region": "Maule", "provincia": "LINARES", "comuna": "LINARES", "superficie": null }, "geometry": { "type": "Point", "coordinates": [ -71.38849, -35.98172 ] } },
{ "type": "Feature", "properties": { "objectid": 9662, "fid_establecimientos_de_salud": null, "código_an": "16-482", "código_vi": 116482, "código__m": " ", "código_nu": 0, "código_re": 7, "nombre_reg": "Maule", "código_de": 16, "nombre_dep": "Servicio de Salud Del Maule", "pertenenci": "Perteneciente al Sistema Nacional de Servicios de Salud", "tipo_estab": null, "ámbito_de": "Establecimiento de Salud", "nombre_ofi": null, "certificac": "No Aplica", "dependenci": "Servicio de Salud Del Maule", "nivel_de_a": "Primario", "código_co": "07403", "nombre_com": "LONGAVÍ", "vía": "Calle", "número": 0, "dirección": "Caserío Camino a Mesamávida", "teléfono": 0, "fecha_inic": "38716", "tiene_serv": null, "tipo_de_ur": "No Aplica", "tipo_de_sa": null, "latitud": -35.9772, "longitud__": -71.56887, "tipo_de_pr": null, "estado_de": null, "nivel_de_c": "Primario", "modalidad": null, "simbologia": "Atención Primaria de Salud (APS)", "fid_comunas_v1": null, "cut_reg": "7", "cut_prov": "074", "cut_com": "07403", "region": "Maule", "provincia": "LINARES", "comuna": "LONGAVÍ", "superficie": null }, "geometry": { "type": "Point", "coordinates": [ -71.56887, -35.9772 ] } },
{ "type": "Feature", "properties": { "objectid": 9681, "fid_establecimientos_de_salud": null, "código_an": "16-474", "código_vi": 116474, "código__m": " ", "código_nu": 0, "código_re": 7, "nombre_reg": "Maule", "código_de": 16, "nombre_dep": "Servicio de Salud Del Maule", "pertenenci": "Perteneciente al Sistema Nacional de Servicios de Salud", "tipo_estab": null, "ámbito_de": "Establecimiento de Salud", "nombre_ofi": null, "certificac": "No Aplica", "dependenci": "Servicio de Salud Del Maule", "nivel_de_a": "Primario", "código_co": "07401", "nombre_com": "LINARES", "vía": "Calle", "número": 0, "dirección": "Caserío Embalse Ancoa", "teléfono": 0, "fecha_inic": "38716", "tiene_serv": null, "tipo_de_ur": "No Aplica", "tipo_de_sa": null, "latitud": -35.9059, "longitud__": -71.28942, "tipo_de_pr": null, "estado_de": null, "nivel_de_c": "Primario", "modalidad": null, "simbologia": "Atención Primaria de Salud (APS)", "fid_comunas_v1": null, "cut_reg": "7", "cut_prov": "074", "cut_com": "07401", "region": "Maule", "provincia": "LINARES", "comuna": "LINARES", "superficie": null }, "geometry": { "type": "Point", "coordinates": [ -71.28942, -35.9059 ] } },
{ "type": "Feature", "properties": { "objectid": 9682, "fid_establecimientos_de_salud": null, "código_an": "16-537", "código_vi": 116537, "código__m": " ", "código_nu": 0, "código_re": 7, "nombre_reg": "Maule", "código_de": 16, "nombre_dep": "Servicio de Salud Del Maule", "pertenenci": "Perteneciente al Sistema Nacional de Servicios de Salud", "tipo_estab": null, "ámbito_de": "Establecimiento de Salud", "nombre_ofi": null, "certificac": "No Aplica", "dependenci": "Servicio de Salud Del Maule", "nivel_de_a": "Primario", "código_co": "07401", "nombre_com": "LINARES", "vía": "Calle", "número": 0, "dirección": "Aldea Llancanao", "teléfono": 0, "fecha_inic": "38716", "tiene_serv": null, "tipo_de_ur": "No Aplica", "tipo_de_sa": null, "latitud": -35.89484, "longitud__": -71.52145, "tipo_de_pr": null, "estado_de": null, "nivel_de_c": "Primario", "modalidad": null, "simbologia": "Atención Primaria de Salud (APS)", "fid_comunas_v1": null, "cut_reg": "7", "cut_prov": "074", "cut_com": "07401", "region": "Maule", "provincia": "LINARES", "comuna": "LINARES", "superficie": null }, "geometry": { "type": "Point", "coordinates": [ -71.52145, -35.89484 ] } },
{ "type": "Feature", "properties": { "objectid": 9684, "fid_establecimientos_de_salud": null, "código_an": "16-531", "código_vi": 116531, "código__m": " ", "código_nu": 0, "código_re": 7, "nombre_reg": "Maule", "código_de": 16, "nombre_dep": "Servicio de Salud Del Maule", "pertenenci": "Perteneciente al Sistema Nacional de Servicios de Salud", "tipo_estab": null, "ámbito_de": "Establecimiento de Salud", "nombre_ofi": null, "certificac": "No Aplica", "dependenci": "Servicio de Salud Del Maule", "nivel_de_a": "Primario", "código_co": "07401", "nombre_com": "LINARES", "vía": "Calle", "número": 0, "dirección": "Aldea San Víctor Álamos", "teléfono": 0, "fecha_inic": "38716", "tiene_serv": null, "tipo_de_ur": "No Aplica", "tipo_de_sa": null, "latitud": -35.886161, "longitud__": -71.471983, "tipo_de_pr": null, "estado_de": null, "nivel_de_c": "Primario", "modalidad": null, "simbologia": "Atención Primaria de Salud (APS)", "fid_comunas_v1": null, "cut_reg": "7", "cut_prov": "074", "cut_com": "07401", "region": "Maule", "provincia": "LINARES", "comuna": "LINARES", "superficie": null }, "geometry": { "type": "Point", "coordinates": [ -71.47198, -35.88616 ] } },
{ "type": "Feature", "properties": { "objectid": 9687, "fid_establecimientos_de_salud": null, "código_an": "16-477", "código_vi": 116477, "código__m": " ", "código_nu": 0, "código_re": 7, "nombre_reg": "Maule", "código_de": 16, "nombre_dep": "Servicio de Salud Del Maule", "pertenenci": "Perteneciente al Sistema Nacional de Servicios de Salud", "tipo_estab": null, "ámbito_de": "Establecimiento de Salud", "nombre_ofi": null, "certificac": "No Aplica", "dependenci": "Servicio de Salud Del Maule", "nivel_de_a": "Primario", "código_co": "07401", "nombre_com": "LINARES", "vía": "Calle", "número": 0, "dirección": "Caserío Chupallar", "teléfono": 0, "fecha_inic": "38716", "tiene_serv": null, "tipo_de_ur": "No Aplica", "tipo_de_sa": null, "latitud": -35.86576, "longitud__": -71.23652, "tipo_de_pr": null, "estado_de": null, "nivel_de_c": "Primario", "modalidad": null, "simbologia": "Atención Primaria de Salud (APS)", "fid_comunas_v1": null, "cut_reg": "7", "cut_prov": "074", "cut_com": "07401", "region": "Maule", "provincia": "LINARES", "comuna": "LINARES", "superficie": null }, "geometry": { "type": "Point", "coordinates": [ -71.23652, -35.86576 ] } },
{ "type": "Feature", "properties": { "objectid": 9715, "fid_establecimientos_de_salud": null, "código_an": "16-505", "código_vi": 116505, "código__m": " ", "código_nu": 0, "código_re": 7, "nombre_reg": "Maule", "código_de": 16, "nombre_dep": "Servicio de Salud Del Maule", "pertenenci": "Perteneciente al Sistema Nacional de Servicios de Salud", "tipo_estab": null, "ámbito_de": "Establecimiento de Salud", "nombre_ofi": null, "certificac": "No Aplica", "dependenci": "Servicio de Salud Del Maule", "nivel_de_a": "Primario", "código_co": "07402", "nombre_com": "COLBÚN", "vía": "Calle", "número": 0, "dirección": "Aldea Lomas de Putagán", "teléfono": 0, "fecha_inic": "38716", "tiene_serv": null, "tipo_de_ur": "No Aplica", "tipo_de_sa": null, "latitud": -35.828413, "longitud__": -71.446164, "tipo_de_pr": null, "estado_de": null, "nivel_de_c": "Primario", "modalidad": null, "simbologia": "Atención Primaria de Salud (APS)", "fid_comunas_v1": null, "cut_reg": "7", "cut_prov": "074", "cut_com": "07402", "region": "Maule", "provincia": "LINARES", "comuna": "COLBÚN", "superficie": null }, "geometry": { "type": "Point", "coordinates": [ -71.44616, -35.82841 ] } },
{ "type": "Feature", "properties": { "objectid": 9721, "fid_establecimientos_de_salud": null, "código_an": "16-906", "código_vi": 200350, "código__m": " ", "código_nu": 0, "código_re": 7, "nombre_reg": "Maule", "código_de": 16, "nombre_dep": "Servicio de Salud Del Maule", "pertenenci": "Perteneciente al Sistema Nacional de Servicios de Salud", "tipo_estab": null, "ámbito_de": "Establecimiento de Salud", "nombre_ofi": null, "certificac": "No Aplica", "dependenci": "Servicio de Salud Del Maule", "nivel_de_a": "Primario", "código_co": "07402", "nombre_com": "COLBÚN", "vía": "Calle", "número": 0, "dirección": "Quinamávida", "teléfono": 0, "fecha_inic": "42895", "tiene_serv": null, "tipo_de_ur": "No Aplica", "tipo_de_sa": null, "latitud": -35.80495, "longitud__": -71.43757, "tipo_de_pr": null, "estado_de": null, "nivel_de_c": "Primario", "modalidad": null, "simbologia": "Atención Primaria de Salud (APS)", "fid_comunas_v1": null, "cut_reg": "7", "cut_prov": "074", "cut_com": "07402", "region": "Maule", "provincia": "LINARES", "comuna": "COLBÚN", "superficie": null }, "geometry": { "type": "Point", "coordinates": [ -71.43757, -35.80495 ] } },
{ "type": "Feature", "properties": { "objectid": 10793, "fid_establecimientos_de_salud": null, "código_an": "17-470", "código_vi": 117470, "código__m": " ", "código_nu": 0, "código_re": 16, "nombre_reg": "Ñuble", "código_de": 17, "nombre_dep": "Servicio de Salud Ñuble", "pertenenci": "Perteneciente al Sistema Nacional de Servicios de Salud", "tipo_estab": null, "ámbito_de": "Establecimiento de Salud", "nombre_ofi": null, "certificac": "No Aplica", "dependenci": "Servicio de Salud Ñuble", "nivel_de_a": "Primario", "código_co": "16304", "nombre_com": "SAN FABIÁN", "vía": "Calle", "número": 0, "dirección": "Sector Trabuncura", "teléfono": 0, "fecha_inic": "38716", "tiene_serv": null, "tipo_de_ur": "No Aplica", "tipo_de_sa": null, "latitud": -36.40534, "longitud__": -71.62036, "tipo_de_pr": null, "estado_de": null, "nivel_de_c": "Primario", "modalidad": null, "simbologia": "Atención Primaria de Salud (APS)", "fid_comunas_v1": null, "cut_reg": "16", "cut_prov": "163", "cut_com": "16304", "region": "Ñuble", "provincia": "PUNILLA", "comuna": "SAN FABIÁN", "superficie": null }, "geometry": { "type": "Point", "coordinates": [ -71.62036, -36.40534 ] } }
]
}
