{
"type": "FeatureCollection",
"name": "OSO",
"crs": { "type": "name", "properties": { "name": "urn:ogc:def:crs:OGC:1.3:CRS84" } },
"xy_coordinate_resolution": 1e-05,
"features": [
{ "type": "Feature", "properties": { "objectid": 9114, "fid_establecimientos_de_salud": null, "código_an": "24-411", "código_vi": 124411, "código__m": " ", "código_nu": 0, "código_re": 10, "nombre_reg": "Los Lagos", "código_de": 24, "nombre_dep": "Servicio de Salud Del Reloncaví", "pertenenci": "Perteneciente al Sistema Nacional de Servicios de Salud", "tipo_estab": null, "ámbito_de": "Establecimiento de Salud", "nombre_ofi": null, "certificac": "No Aplica", "dependenci": "Servicio de Salud Del Reloncaví", "nivel_de_a": "Primario", "código_co": "10103", "nombre_com": "COCHAMÓ", "vía": "Calle", "número": 0, "dirección": "Aldea de Cochamó", "teléfono": 0, "fecha_inic": "38716", "tiene_serv": null, "tipo_de_ur": "No Aplica", "tipo_de_sa": null, "latitud": -41.494152, "longitud__": -72.307398, "tipo_de_pr": null, "estado_de": null, "nivel_de_c": "Primario", "modalidad": null, "simbologia": "Atención Primaria de Salud (APS)", "fid_comunas_v1": null, "cut_reg": "10", "cut_prov": "101", "cut_com": "10103", "region": "Los Lagos", "provincia": "LLANQUIHUE", "comuna": "COCHAMÓ", "superficie": null }, "geometry": { "type": "Point", "coordinates": [ -72.3074, -41.49415 ] } },
{ "type": "Feature", "properties": { "objectid": 9145, "fid_establecimientos_de_salud": null, "código_an": "24-539", "código_vi": 124539, "código__m": " ", "código_nu": 0, "código_re": 10, "nombre_reg": "Los Lagos", "código_de": 24, "nombre_dep": "Servicio de Salud Del Reloncaví", "pertenenci": "Perteneciente al Sistema Nacional de Servicios de Salud", "tipo_estab": null, "ámbito_de": "Establecimiento de Salud", "nombre_ofi": null, "certificac": "No Aplica", "dependenci": "Servicio de Salud Del Reloncaví", "nivel_de_a": "Primario", "código_co": "10103", "nombre_com": "COCHAMÓ", "vía": "Calle", "número": 0, "dirección": "Caserío Pocoihuén", "teléfono": 0, "fecha_inic": "38716", "tiene_serv": null, "tipo_de_ur": "No Aplica", "tipo_de_sa": null, "latitud": -41.494831, "longitud__": -72.332956, "tipo_de_pr": null, "estado_de": null, "nivel_de_c": "Primario", "modalidad": null, "simbologia": "Atención Primaria de Salud (APS)", "fid_comunas_v1": null, "cut_reg": "10", "cut_prov": "101", "cut_com": "10103", "region": "Los Lagos", "provincia": "LLANQUIHUE", "comuna": "COCHAMÓ", "superficie": null }, "geometry": { "type": "Point", "coordinates": [ -72.33296, -41.49483 ] } },
{ "type": "Feature", "properties": { "objectid": 9172, "fid_establecimientos_de_salud": null, "código_an": "24-402", "código_vi": 124402, "código__m": " ", "código_nu": 0, "código_re": 10, "nombre_reg": "Los Lagos", "código_de": 24, "nombre_dep": "Servicio de Salud Del Reloncaví", "pertenenci": "Perteneciente al Sistema Nacional de Servicios de Salud", "tipo_estab": null, "ámbito_de": "Establecimiento de Salud", "nombre_ofi": null, "certificac": "No Aplica", "dependenci": "Servicio de Salud Del Reloncaví", "nivel_de_a": "Primario", "código_co": "10101", "nombre_com": "PUERTO MONTT", "vía": "Calle", "número": 0, "dirección": "Caserío Correntoso", "teléfono": 0, "fecha_inic": "38716", "tiene_serv": null, "tipo_de_ur": "No Aplica", "tipo_de_sa": null, "latitud": -41.45321, "longitud__": -72.65837, "tipo_de_pr": null, "estado_de": null, "nivel_de_c": "Primario", "modalidad": null, "simbologia": "Atención Primaria de Salud (APS)", "fid_comunas_v1": null, "cut_reg": "10", "cut_prov": "101", "cut_com": "10101", "region": "Los Lagos", "provincia": "LLANQUIHUE", "comuna": "PUERTO MONTT", "superficie": null }, "geometry": { "type": "Point", "coordinates": [ -72.65837, -41.45321 ] } },
{ "type": "Feature", "properties": { "objectid": 9175, "fid_establecimientos_de_salud": null, "código_an": "24-401", "código_vi": 124401, "código__m": " ", "código_nu": 0, "código_re": 10, "nombre_reg": "Los Lagos", "código_de": 24, "nombre_dep": "Servicio de Salud Del Reloncaví", "pertenenci": "Perteneciente al Sistema Nacional de Servicios de Salud", "tipo_estab": null, "ámbito_de": "Establecimiento de Salud", "nombre_ofi": null, "certificac": "No Aplica", "dependenci": "Servicio de Salud Del Reloncaví", "nivel_de_a": "Primario", "código_co": "10101", "nombre_com": "PUERTO MONTT", "vía": "Calle", "número": 0, "dirección": "Caserío Lago Chapo", "teléfono": 0, "fecha_inic": "38716", "tiene_serv": null, "tipo_de_ur": "No Aplica", "tipo_de_sa": null, "latitud": -41.4157, "longitud__": -72.59474, "tipo_de_pr": null, "estado_de": null, "nivel_de_c": "Primario", "modalidad": null, "simbologia": "Atención Primaria de Salud (APS)", "fid_comunas_v1": null, "cut_reg": "10", "cut_prov": "101", "cut_com": "10101", "region": "Los Lagos", "provincia": "LLANQUIHUE", "comuna": "PUERTO MONTT", "superficie": null }, "geometry": { "type": "Point", "coordinates": [ -72.59474, -41.4157 ] } },
{ "type": "Feature", "properties": { "objectid": 9176, "fid_establecimientos_de_salud": null, "código_an": "24-916", "código_vi": 200652, "código__m": " ", "código_nu": 0, "código_re": 10, "nombre_reg": "Los Lagos", "código_de": 10, "nombre_dep": "SEREMI De Los Lagos", "pertenenci": "No perteneciente al Sistema Nacional de Servicios de Salud", "tipo_estab": null, "ámbito_de": "Establecimiento de Salud", "nombre_ofi": null, "certificac": "No Aplica", "dependenci": "SEREMI De Los Lagos", "nivel_de_a": "No Aplica", "código_co": "10101", "nombre_com": "PUERTO MONTT", "vía": "Avenida", "número": 939, "dirección": "Gabriela Mistral, Local 19, sector Alerce", "teléfono": 652242483, "fecha_inic": "42667", "tiene_serv": null, "tipo_de_ur": "No Aplica", "tipo_de_sa": null, "latitud": -41.405327, "longitud__": -72.916592, "tipo_de_pr": null, "estado_de": null, "nivel_de_c": "No Aplica", "modalidad": null, "simbologia": "Servicios de Apoyo Diagnóstico y Terapéutico", "fid_comunas_v1": null, "cut_reg": "10", "cut_prov": "101", "cut_com": "10101", "region": "Los Lagos", "provincia": "LLANQUIHUE", "comuna": "PUERTO MONTT", "superficie": null }, "geometry": { "type": "Point", "coordinates": [ -72.91659, -41.40533 ] } },
{ "type": "Feature", "properties": { "objectid": 9181, "fid_establecimientos_de_salud": null, "código_an": "24-895", "código_vi": 124895, "código__m": "24-395", "código_nu": 124395, "código_re": 10, "nombre_reg": "Los Lagos", "código_de": 24, "nombre_dep": "Servicio de Salud Del Reloncaví", "pertenenci": "Perteneciente al Sistema Nacional de Servicios de Salud", "tipo_estab": null, "ámbito_de": "Establecimiento de Salud", "nombre_ofi": null, "certificac": "No Aplica", "dependenci": "Servicio de Salud Del Reloncaví", "nivel_de_a": "Primario", "código_co": "10101", "nombre_com": "PUERTO MONTT", "vía": "Avenida", "número": 5231, "dirección": "Violeta Parra, Sector Alerce", "teléfono": 0, "fecha_inic": "43858", "tiene_serv": null, "tipo_de_ur": "Urgencia ambulatoria (SAR)", "tipo_de_sa": null, "latitud": -41.397673, "longitud__": -72.903457, "tipo_de_pr": null, "estado_de": null, "nivel_de_c": "Primario", "modalidad": null, "simbologia": "Servicios de Urgencia de Atención Primaria", "fid_comunas_v1": null, "cut_reg": "10", "cut_prov": "101", "cut_com": "10101", "region": "Los Lagos", "provincia": "LLANQUIHUE", "comuna": "PUERTO MONTT", "superficie": null }, "geometry": { "type": "Point", "coordinates": [ -72.90346, -41.39767 ] } },
{ "type": "Feature", "properties": { "objectid": 9182, "fid_establecimientos_de_salud": null, "código_an": "24-395", "código_vi": 124395, "código__m": " ", "código_nu": 0, "código_re": 10, "nombre_reg": "Los Lagos", "código_de": 24, "nombre_dep": "Servicio de Salud Del Reloncaví", "pertenenci": "Perteneciente al Sistema Nacional de Servicios de Salud", "tipo_estab": null, "ámbito_de": "Establecimiento de Salud", "nombre_ofi": null, "certificac": "Centro de Salud Familiar", "dependenci": "Servicio de Salud Del Reloncaví", "nivel_de_a": "Primario", "código_co": "10101", "nombre_com": "PUERTO MONTT", "vía": "Calle", "número": 0, "dirección": "Alerce", "teléfono": 652330087, "fecha_inic": "38716", "tiene_serv": null, "tipo_de_ur": "No Aplica", "tipo_de_sa": null, "latitud": -41.39764, "longitud__": -72.90352, "tipo_de_pr": null, "estado_de": null, "nivel_de_c": "Primario", "modalidad": null, "simbologia": "Atención Primaria de Salud (APS)", "fid_comunas_v1": null, "cut_reg": "10", "cut_prov": "101", "cut_com": "10101", "region": "Los Lagos", "provincia": "LLANQUIHUE", "comuna": "PUERTO MONTT", "superficie": null }, "geometry": { "type": "Point", "coordinates": [ -72.90352, -41.39764 ] } },
{ "type": "Feature", "properties": { "objectid": 9183, "fid_establecimientos_de_salud": null, "código_an": "24-915", "código_vi": 200630, "código__m": " ", "código_nu": 0, "código_re": 10, "nombre_reg": "Los Lagos", "código_de": 10, "nombre_dep": "SEREMI De Los Lagos", "pertenenci": "No perteneciente al Sistema Nacional de Servicios de Salud", "tipo_estab": null, "ámbito_de": "Establecimiento de Salud", "nombre_ofi": null, "certificac": "No Aplica", "dependenci": "SEREMI De Los Lagos", "nivel_de_a": "No Aplica", "código_co": "10101", "nombre_com": "PUERTO MONTT", "vía": "Avenida", "número": 1315, "dirección": "Los Alerces", "teléfono": 652332569, "fecha_inic": "43721", "tiene_serv": null, "tipo_de_ur": "No Aplica", "tipo_de_sa": null, "latitud": -41.396956, "longitud__": -72.907248, "tipo_de_pr": null, "estado_de": null, "nivel_de_c": "No Aplica", "modalidad": null, "simbologia": "Servicios de Apoyo Diagnóstico y Terapéutico", "fid_comunas_v1": null, "cut_reg": "10", "cut_prov": "101", "cut_com": "10101", "region": "Los Lagos", "provincia": "LLANQUIHUE", "comuna": "PUERTO MONTT", "superficie": null }, "geometry": { "type": "Point", "coordinates": [ -72.90725, -41.39696 ] } },
{ "type": "Feature", "properties": { "objectid": 9184, "fid_establecimientos_de_salud": null, "código_an": "201089", "código_vi": 201089, "código__m": " ", "código_nu": 0, "código_re": 10, "nombre_reg": "Los Lagos", "código_de": 10, "nombre_dep": "SEREMI De Los Lagos", "pertenenci": "No perteneciente al Sistema Nacional de Servicios de Salud", "tipo_estab": null, "ámbito_de": "Establecimiento de Salud", "nombre_ofi": null, "certificac": "No Aplica", "dependenci": "SEREMI De Los Lagos", "nivel_de_a": "Secundario", "código_co": "10101", "nombre_com": "PUERTO MONTT", "vía": "Calle", "número": 1315, "dirección": "Los Alerces", "teléfono": 944377137, "fecha_inic": "43721", "tiene_serv": null, "tipo_de_ur": "No Aplica", "tipo_de_sa": null, "latitud": -41.396897, "longitud__": -72.90669, "tipo_de_pr": null, "estado_de": null, "nivel_de_c": "Secundario", "modalidad": null, "simbologia": "Centros de Salud y Clínicas Privadas", "fid_comunas_v1": null, "cut_reg": "10", "cut_prov": "101", "cut_com": "10101", "region": "Los Lagos", "provincia": "LLANQUIHUE", "comuna": "PUERTO MONTT", "superficie": null }, "geometry": { "type": "Point", "coordinates": [ -72.90669, -41.3969 ] } },
{ "type": "Feature", "properties": { "objectid": 9185, "fid_establecimientos_de_salud": null, "código_an": "24-426", "código_vi": 124426, "código__m": " ", "código_nu": 0, "código_re": 10, "nombre_reg": "Los Lagos", "código_de": 24, "nombre_dep": "Servicio de Salud Del Reloncaví", "pertenenci": "Perteneciente al Sistema Nacional de Servicios de Salud", "tipo_estab": null, "ámbito_de": "Establecimiento de Salud", "nombre_ofi": null, "certificac": "No Aplica", "dependenci": "Servicio de Salud Del Reloncaví", "nivel_de_a": "Primario", "código_co": "10109", "nombre_com": "PUERTO VARAS", "vía": "Calle", "número": 0, "dirección": "Sector Ralún", "teléfono": 0, "fecha_inic": "38716", "tiene_serv": null, "tipo_de_ur": "No Aplica", "tipo_de_sa": null, "latitud": -41.38861, "longitud__": -72.32793, "tipo_de_pr": null, "estado_de": null, "nivel_de_c": "Primario", "modalidad": null, "simbologia": "Atención Primaria de Salud (APS)", "fid_comunas_v1": null, "cut_reg": "10", "cut_prov": "101", "cut_com": "10109", "region": "Los Lagos", "provincia": "LLANQUIHUE", "comuna": "PUERTO VARAS", "superficie": null }, "geometry": { "type": "Point", "coordinates": [ -72.32793, -41.38861 ] } },
{ "type": "Feature", "properties": { "objectid": 9186, "fid_establecimientos_de_salud": null, "código_an": "24-907", "código_vi": 200440, "código__m": "24-395", "código_nu": 124395, "código_re": 10, "nombre_reg": "Los Lagos", "código_de": 24, "nombre_dep": "Servicio de Salud Del Reloncaví", "pertenenci": "Perteneciente al Sistema Nacional de Servicios de Salud", "tipo_estab": null, "ámbito_de": "Establecimiento de Salud", "nombre_ofi": null, "certificac": "No Aplica", "dependenci": "Servicio de Salud Del Reloncaví", "nivel_de_a": "Primario", "código_co": "10101", "nombre_com": "PUERTO MONTT", "vía": "Calle", "número": 18, "dirección": "Los Mañios, Alerce Norte", "teléfono": 652213800, "fecha_inic": "43081", "tiene_serv": null, "tipo_de_ur": "No Aplica", "tipo_de_sa": null, "latitud": -41.38398, "longitud__": -72.91582, "tipo_de_pr": null, "estado_de": null, "nivel_de_c": "Primario", "modalidad": null, "simbologia": "Atención Primaria de Salud (APS)", "fid_comunas_v1": null, "cut_reg": "10", "cut_prov": "101", "cut_com": "10101", "region": "Los Lagos", "provincia": "LLANQUIHUE", "comuna": "PUERTO MONTT", "superficie": null }, "geometry": { "type": "Point", "coordinates": [ -72.91582, -41.38398 ] } },
{ "type": "Feature", "properties": { "objectid": 9188, "fid_establecimientos_de_salud": null, "código_an": "24-425", "código_vi": 124425, "código__m": " ", "código_nu": 0, "código_re": 10, "nombre_reg": "Los Lagos", "código_de": 24, "nombre_dep": "Servicio de Salud Del Reloncaví", "pertenenci": "Perteneciente al Sistema Nacional de Servicios de Salud", "tipo_estab": null, "ámbito_de": "Establecimiento de Salud", "nombre_ofi": null, "certificac": "No Aplica", "dependenci": "Servicio de Salud Del Reloncaví", "nivel_de_a": "Primario", "código_co": "10109", "nombre_com": "PUERTO VARAS", "vía": "Calle", "número": 0, "dirección": "Caserío de Colonia Río Sur", "teléfono": 0, "fecha_inic": "38716", "tiene_serv": null, "tipo_de_ur": "No Aplica", "tipo_de_sa": null, "latitud": -41.33979, "longitud__": -72.7007, "tipo_de_pr": null, "estado_de": null, "nivel_de_c": "Primario", "modalidad": null, "simbologia": "Atención Primaria de Salud (APS)", "fid_comunas_v1": null, "cut_reg": "10", "cut_prov": "101", "cut_com": "10109", "region": "Los Lagos", "provincia": "LLANQUIHUE", "comuna": "PUERTO VARAS", "superficie": null }, "geometry": { "type": "Point", "coordinates": [ -72.7007, -41.33979 ] } },
{ "type": "Feature", "properties": { "objectid": 9189, "fid_establecimientos_de_salud": null, "código_an": "24-810", "código_vi": 124810, "código__m": "24-335", "código_nu": 124335, "código_re": 10, "nombre_reg": "Los Lagos", "código_de": 24, "nombre_dep": "Servicio de Salud Del Reloncaví", "pertenenci": "Perteneciente al Sistema Nacional de Servicios de Salud", "tipo_estab": null, "ámbito_de": "Establecimiento de Salud", "nombre_ofi": null, "certificac": "No Aplica", "dependenci": "Servicio de Salud Del Reloncaví", "nivel_de_a": "Primario", "código_co": "10109", "nombre_com": "PUERTO VARAS", "vía": "Calle", "número": 0, "dirección": "Antonio Varas esquina Errázuriz", "teléfono": 0, "fecha_inic": "38716", "tiene_serv": null, "tipo_de_ur": "Urgencia ambulatoria (SAR)", "tipo_de_sa": null, "latitud": -41.329068, "longitud__": -72.969229, "tipo_de_pr": null, "estado_de": null, "nivel_de_c": "Primario", "modalidad": null, "simbologia": "Servicios de Urgencia de Atención Primaria", "fid_comunas_v1": null, "cut_reg": "10", "cut_prov": "101", "cut_com": "10109", "region": "Los Lagos", "provincia": "LLANQUIHUE", "comuna": "PUERTO VARAS", "superficie": null }, "geometry": { "type": "Point", "coordinates": [ -72.96923, -41.32907 ] } },
{ "type": "Feature", "properties": { "objectid": 9190, "fid_establecimientos_de_salud": null, "código_an": "24-335", "código_vi": 124335, "código__m": " ", "código_nu": 0, "código_re": 10, "nombre_reg": "Los Lagos", "código_de": 24, "nombre_dep": "Servicio de Salud Del Reloncaví", "pertenenci": "Perteneciente al Sistema Nacional de Servicios de Salud", "tipo_estab": null, "ámbito_de": "Establecimiento de Salud", "nombre_ofi": null, "certificac": "Centro de Salud Familiar", "dependenci": "Servicio de Salud Del Reloncaví", "nivel_de_a": "Primario", "código_co": "10109", "nombre_com": "PUERTO VARAS", "vía": "Calle", "número": 0, "dirección": "Puerto Varas", "teléfono": 800500008, "fecha_inic": "38716", "tiene_serv": null, "tipo_de_ur": "No Aplica", "tipo_de_sa": null, "latitud": -41.32902, "longitud__": -72.96906, "tipo_de_pr": null, "estado_de": null, "nivel_de_c": "Primario", "modalidad": null, "simbologia": "Atención Primaria de Salud (APS)", "fid_comunas_v1": null, "cut_reg": "10", "cut_prov": "101", "cut_com": "10109", "region": "Los Lagos", "provincia": "LLANQUIHUE", "comuna": "PUERTO VARAS", "superficie": null }, "geometry": { "type": "Point", "coordinates": [ -72.96906, -41.32902 ] } },
{ "type": "Feature", "properties": { "objectid": 9192, "fid_establecimientos_de_salud": null, "código_an": "24-277", "código_vi": 124277, "código__m": " ", "código_nu": 0, "código_re": 10, "nombre_reg": "Los Lagos", "código_de": 10, "nombre_dep": "SEREMI De Los Lagos", "pertenenci": "No perteneciente al Sistema Nacional de Servicios de Salud", "tipo_estab": null, "ámbito_de": "Establecimiento de Salud", "nombre_ofi": null, "certificac": "No Aplica", "dependenci": "SEREMI De Los Lagos", "nivel_de_a": "No Aplica", "código_co": "10109", "nombre_com": "PUERTO VARAS", "vía": "Calle", "número": 1428, "dirección": "Alfonso Brintrup", "teléfono": 0, "fecha_inic": "39814", "tiene_serv": null, "tipo_de_ur": "No Aplica", "tipo_de_sa": null, "latitud": -41.324542, "longitud__": -72.989944, "tipo_de_pr": null, "estado_de": null, "nivel_de_c": "No Aplica", "modalidad": null, "simbologia": "Servicios de Apoyo Diagnóstico y Terapéutico", "fid_comunas_v1": null, "cut_reg": "10", "cut_prov": "101", "cut_com": "10109", "region": "Los Lagos", "provincia": "LLANQUIHUE", "comuna": "PUERTO VARAS", "superficie": null }, "geometry": { "type": "Point", "coordinates": [ -72.98994, -41.32454 ] } },
{ "type": "Feature", "properties": { "objectid": 9193, "fid_establecimientos_de_salud": null, "código_an": "24-247", "código_vi": 200247, "código__m": " ", "código_nu": 0, "código_re": 10, "nombre_reg": "Los Lagos", "código_de": 10, "nombre_dep": "SEREMI De Los Lagos", "pertenenci": "No perteneciente al Sistema Nacional de Servicios de Salud", "tipo_estab": null, "ámbito_de": "Establecimiento de Salud", "nombre_ofi": null, "certificac": "No Aplica", "dependenci": "SEREMI De Los Lagos", "nivel_de_a": "Primario", "código_co": "10109", "nombre_com": "PUERTO VARAS", "vía": "Calle", "número": 971, "dirección": "San Ignacio", "teléfono": 652231067, "fecha_inic": "42487", "tiene_serv": null, "tipo_de_ur": "No Aplica", "tipo_de_sa": null, "latitud": -41.319647, "longitud__": -72.988863, "tipo_de_pr": null, "estado_de": null, "nivel_de_c": "Primario", "modalidad": null, "simbologia": "Servicios de Apoyo Diagnóstico y Terapéutico", "fid_comunas_v1": null, "cut_reg": "10", "cut_prov": "101", "cut_com": "10109", "region": "Los Lagos", "provincia": "LLANQUIHUE", "comuna": "PUERTO VARAS", "superficie": null }, "geometry": { "type": "Point", "coordinates": [ -72.98886, -41.31965 ] } },
{ "type": "Feature", "properties": { "objectid": 9194, "fid_establecimientos_de_salud": null, "código_an": "24-210", "código_vi": 124210, "código__m": " ", "código_nu": 0, "código_re": 10, "nombre_reg": "Los Lagos", "código_de": 10, "nombre_dep": "SEREMI De Los Lagos", "pertenenci": "No perteneciente al Sistema Nacional de Servicios de Salud", "tipo_estab": null, "ámbito_de": "Establecimiento de Salud", "nombre_ofi": null, "certificac": "No Aplica", "dependenci": "SEREMI De Los Lagos", "nivel_de_a": "Terciario", "código_co": "10109", "nombre_com": "PUERTO VARAS", "vía": "Calle", "número": 810, "dirección": "Otto Bader", "teléfono": 652261100, "fecha_inic": "39814", "tiene_serv": null, "tipo_de_ur": "Urgencia Hospitalaria (UEH)", "tipo_de_sa": null, "latitud": -41.318975, "longitud__": -72.991294, "tipo_de_pr": null, "estado_de": null, "nivel_de_c": "Terciario", "modalidad": null, "simbologia": "Centros de Salud y Clínicas Privadas", "fid_comunas_v1": null, "cut_reg": "10", "cut_prov": "101", "cut_com": "10109", "region": "Los Lagos", "provincia": "LLANQUIHUE", "comuna": "PUERTO VARAS", "superficie": null }, "geometry": { "type": "Point", "coordinates": [ -72.99129, -41.31898 ] } },
{ "type": "Feature", "properties": { "objectid": 9195, "fid_establecimientos_de_salud": null, "código_an": "24-906", "código_vi": 200390, "código__m": " ", "código_nu": 0, "código_re": 10, "nombre_reg": "Los Lagos", "código_de": 10, "nombre_dep": "SEREMI De Los Lagos", "pertenenci": "No perteneciente al Sistema Nacional de Servicios de Salud", "tipo_estab": null, "ámbito_de": "Establecimiento de Salud", "nombre_ofi": null, "certificac": "No Aplica", "dependenci": "SEREMI De Los Lagos", "nivel_de_a": "No Aplica", "código_co": "10109", "nombre_com": "PUERTO VARAS", "vía": "Calle", "número": 430, "dirección": "Pio Nono", "teléfono": 652346474, "fecha_inic": "41481", "tiene_serv": null, "tipo_de_ur": "No Aplica", "tipo_de_sa": null, "latitud": -41.318205, "longitud__": -72.985865, "tipo_de_pr": null, "estado_de": null, "nivel_de_c": "No Aplica", "modalidad": null, "simbologia": "Servicios de Apoyo Diagnóstico y Terapéutico", "fid_comunas_v1": null, "cut_reg": "10", "cut_prov": "101", "cut_com": "10109", "region": "Los Lagos", "provincia": "LLANQUIHUE", "comuna": "PUERTO VARAS", "superficie": null }, "geometry": { "type": "Point", "coordinates": [ -72.98586, -41.3182 ] } },
{ "type": "Feature", "properties": { "objectid": 9199, "fid_establecimientos_de_salud": null, "código_an": "24-370", "código_vi": 124370, "código__m": " ", "código_nu": 0, "código_re": 10, "nombre_reg": "Los Lagos", "código_de": 24, "nombre_dep": "Servicio de Salud Del Reloncaví", "pertenenci": "Perteneciente al Sistema Nacional de Servicios de Salud", "tipo_estab": null, "ámbito_de": "Establecimiento de Salud", "nombre_ofi": null, "certificac": "Centro de Salud Familiar", "dependenci": "Servicio de Salud Del Reloncaví", "nivel_de_a": "Primario", "código_co": "10107", "nombre_com": "LLANQUIHUE", "vía": "Calle", "número": 0, "dirección": "Llanquihue", "teléfono": 642336700, "fecha_inic": "38716", "tiene_serv": null, "tipo_de_ur": "No Aplica", "tipo_de_sa": null, "latitud": -41.26876, "longitud__": -72.99869, "tipo_de_pr": null, "estado_de": null, "nivel_de_c": "Primario", "modalidad": null, "simbologia": "Atención Primaria de Salud (APS)", "fid_comunas_v1": null, "cut_reg": "10", "cut_prov": "101", "cut_com": "10107", "region": "Los Lagos", "provincia": "LLANQUIHUE", "comuna": "LLANQUIHUE", "superficie": null }, "geometry": { "type": "Point", "coordinates": [ -72.99869, -41.26876 ] } },
{ "type": "Feature", "properties": { "objectid": 9201, "fid_establecimientos_de_salud": null, "código_an": "24-110", "código_vi": 124110, "código__m": " ", "código_nu": 0, "código_re": 10, "nombre_reg": "Los Lagos", "código_de": 24, "nombre_dep": "Servicio de Salud Del Reloncaví", "pertenenci": "Perteneciente al Sistema Nacional de Servicios de Salud", "tipo_estab": null, "ámbito_de": "Establecimiento de Salud", "nombre_ofi": null, "certificac": "No Aplica", "dependenci": "Servicio de Salud Del Reloncaví", "nivel_de_a": "Pendiente", "código_co": "10107", "nombre_com": "LLANQUIHUE", "vía": "Calle", "número": 645, "dirección": "Erardo Werner", "teléfono": 652326781, "fecha_inic": "38716", "tiene_serv": null, "tipo_de_ur": "Urgencia Hospitalaria (UEH)", "tipo_de_sa": null, "latitud": -41.25647, "longitud__": -73.01059, "tipo_de_pr": null, "estado_de": null, "nivel_de_c": "Pendiente", "modalidad": null, "simbologia": "Hospitales y Unidades de Hospitalización", "fid_comunas_v1": null, "cut_reg": "10", "cut_prov": "101", "cut_com": "10107", "region": "Los Lagos", "provincia": "LLANQUIHUE", "comuna": "LLANQUIHUE", "superficie": null }, "geometry": { "type": "Point", "coordinates": [ -73.01059, -41.25647 ] } },
{ "type": "Feature", "properties": { "objectid": 9203, "fid_establecimientos_de_salud": null, "código_an": "24-421", "código_vi": 124421, "código__m": " ", "código_nu": 0, "código_re": 10, "nombre_reg": "Los Lagos", "código_de": 24, "nombre_dep": "Servicio de Salud Del Reloncaví", "pertenenci": "Perteneciente al Sistema Nacional de Servicios de Salud", "tipo_estab": null, "ámbito_de": "Establecimiento de Salud", "nombre_ofi": null, "certificac": "No Aplica", "dependenci": "Servicio de Salud Del Reloncaví", "nivel_de_a": "Primario", "código_co": "10109", "nombre_com": "PUERTO VARAS", "vía": "Calle", "número": 0, "dirección": "Aldea de Ensenada", "teléfono": 0, "fecha_inic": "38716", "tiene_serv": null, "tipo_de_ur": "No Aplica", "tipo_de_sa": null, "latitud": -41.20855, "longitud__": -72.538156, "tipo_de_pr": null, "estado_de": null, "nivel_de_c": "Primario", "modalidad": null, "simbologia": "Atención Primaria de Salud (APS)", "fid_comunas_v1": null, "cut_reg": "10", "cut_prov": "101", "cut_com": "10109", "region": "Los Lagos", "provincia": "LLANQUIHUE", "comuna": "PUERTO VARAS", "superficie": null }, "geometry": { "type": "Point", "coordinates": [ -72.53816, -41.20855 ] } },
{ "type": "Feature", "properties": { "objectid": 9207, "fid_establecimientos_de_salud": null, "código_an": "24-428", "código_vi": 124428, "código__m": " ", "código_nu": 0, "código_re": 10, "nombre_reg": "Los Lagos", "código_de": 24, "nombre_dep": "Servicio de Salud Del Reloncaví", "pertenenci": "Perteneciente al Sistema Nacional de Servicios de Salud", "tipo_estab": null, "ámbito_de": "Establecimiento de Salud", "nombre_ofi": null, "certificac": "No Aplica", "dependenci": "Servicio de Salud Del Reloncaví", "nivel_de_a": "Primario", "código_co": "10107", "nombre_com": "LLANQUIHUE", "vía": "Calle", "número": 0, "dirección": "Pueblo Los Pellines", "teléfono": 0, "fecha_inic": "38716", "tiene_serv": null, "tipo_de_ur": "No Aplica", "tipo_de_sa": null, "latitud": -41.189503, "longitud__": -73.068386, "tipo_de_pr": null, "estado_de": null, "nivel_de_c": "Primario", "modalidad": null, "simbologia": "Atención Primaria de Salud (APS)", "fid_comunas_v1": null, "cut_reg": "10", "cut_prov": "101", "cut_com": "10107", "region": "Los Lagos", "provincia": "LLANQUIHUE", "comuna": "LLANQUIHUE", "superficie": null }, "geometry": { "type": "Point", "coordinates": [ -73.06839, -41.1895 ] } },
{ "type": "Feature", "properties": { "objectid": 9210, "fid_establecimientos_de_salud": null, "código_an": "24-115", "código_vi": 124115, "código__m": " ", "código_nu": 0, "código_re": 10, "nombre_reg": "Los Lagos", "código_de": 24, "nombre_dep": "Servicio de Salud Del Reloncaví", "pertenenci": "Perteneciente al Sistema Nacional de Servicios de Salud", "tipo_estab": null, "ámbito_de": "Establecimiento de Salud", "nombre_ofi": null, "certificac": "No Aplica", "dependenci": "Servicio de Salud Del Reloncaví", "nivel_de_a": "Pendiente", "código_co": "10105", "nombre_com": "FRUTILLAR", "vía": "Calle", "número": 0, "dirección": "Las Piedras", "teléfono": 652326929, "fecha_inic": "38716", "tiene_serv": null, "tipo_de_ur": "Urgencia Hospitalaria (UEH)", "tipo_de_sa": null, "latitud": -41.13808, "longitud__": -73.03152, "tipo_de_pr": null, "estado_de": null, "nivel_de_c": "Pendiente", "modalidad": null, "simbologia": "Hospitales y Unidades de Hospitalización", "fid_comunas_v1": null, "cut_reg": "10", "cut_prov": "101", "cut_com": "10105", "region": "Los Lagos", "provincia": "LLANQUIHUE", "comuna": "FRUTILLAR", "superficie": null }, "geometry": { "type": "Point", "coordinates": [ -73.03152, -41.13808 ] } },
{ "type": "Feature", "properties": { "objectid": 9211, "fid_establecimientos_de_salud": null, "código_an": "24-424", "código_vi": 124424, "código__m": " ", "código_nu": 0, "código_re": 10, "nombre_reg": "Los Lagos", "código_de": 24, "nombre_dep": "Servicio de Salud Del Reloncaví", "pertenenci": "Perteneciente al Sistema Nacional de Servicios de Salud", "tipo_estab": null, "ámbito_de": "Establecimiento de Salud", "nombre_ofi": null, "certificac": "No Aplica", "dependenci": "Servicio de Salud Del Reloncaví", "nivel_de_a": "Primario", "código_co": "10109", "nombre_com": "PUERTO VARAS", "vía": "Calle", "número": 0, "dirección": "Caserío de Petrohué", "teléfono": 0, "fecha_inic": "38716", "tiene_serv": null, "tipo_de_ur": "No Aplica", "tipo_de_sa": null, "latitud": -41.137238, "longitud__": -72.401892, "tipo_de_pr": null, "estado_de": null, "nivel_de_c": "Primario", "modalidad": null, "simbologia": "Atención Primaria de Salud (APS)", "fid_comunas_v1": null, "cut_reg": "10", "cut_prov": "101", "cut_com": "10109", "region": "Los Lagos", "provincia": "LLANQUIHUE", "comuna": "PUERTO VARAS", "superficie": null }, "geometry": { "type": "Point", "coordinates": [ -72.40189, -41.13724 ] } },
{ "type": "Feature", "properties": { "objectid": 9213, "fid_establecimientos_de_salud": null, "código_an": "24-901", "código_vi": 200168, "código__m": "24-365", "código_nu": 124365, "código_re": 10, "nombre_reg": "Los Lagos", "código_de": 24, "nombre_dep": "Servicio de Salud Del Reloncaví", "pertenenci": "Perteneciente al Sistema Nacional de Servicios de Salud", "tipo_estab": null, "ámbito_de": "Establecimiento de Salud", "nombre_ofi": null, "certificac": "No Aplica", "dependenci": "Servicio de Salud Del Reloncaví", "nivel_de_a": "Primario", "código_co": "10105", "nombre_com": "FRUTILLAR", "vía": "Calle", "número": 753, "dirección": "Cristino Winkler", "teléfono": 652421405, "fecha_inic": "38716", "tiene_serv": null, "tipo_de_ur": "Urgencia Ambulatoria (SAPU)", "tipo_de_sa": null, "latitud": -41.129588, "longitud__": -73.059637, "tipo_de_pr": null, "estado_de": null, "nivel_de_c": "Primario", "modalidad": null, "simbologia": "Servicios de Urgencia de Atención Primaria", "fid_comunas_v1": null, "cut_reg": "10", "cut_prov": "101", "cut_com": "10105", "region": "Los Lagos", "provincia": "LLANQUIHUE", "comuna": "FRUTILLAR", "superficie": null }, "geometry": { "type": "Point", "coordinates": [ -73.05964, -41.12959 ] } },
{ "type": "Feature", "properties": { "objectid": 9214, "fid_establecimientos_de_salud": null, "código_an": "24-365", "código_vi": 124365, "código__m": " ", "código_nu": 0, "código_re": 10, "nombre_reg": "Los Lagos", "código_de": 24, "nombre_dep": "Servicio de Salud Del Reloncaví", "pertenenci": "Perteneciente al Sistema Nacional de Servicios de Salud", "tipo_estab": null, "ámbito_de": "Establecimiento de Salud", "nombre_ofi": null, "certificac": "Centro de Salud Familiar", "dependenci": "Servicio de Salud Del Reloncaví", "nivel_de_a": "Primario", "código_co": "10105", "nombre_com": "FRUTILLAR", "vía": "Calle", "número": 0, "dirección": "Frutillar", "teléfono": 800500003, "fecha_inic": "38716", "tiene_serv": null, "tipo_de_ur": "No Aplica", "tipo_de_sa": null, "latitud": -41.12948, "longitud__": -73.05945, "tipo_de_pr": null, "estado_de": null, "nivel_de_c": "Primario", "modalidad": null, "simbologia": "Atención Primaria de Salud (APS)", "fid_comunas_v1": null, "cut_reg": "10", "cut_prov": "101", "cut_com": "10105", "region": "Los Lagos", "provincia": "LLANQUIHUE", "comuna": "FRUTILLAR", "superficie": null }, "geometry": { "type": "Point", "coordinates": [ -73.05945, -41.12948 ] } },
{ "type": "Feature", "properties": { "objectid": 9216, "fid_establecimientos_de_salud": null, "código_an": "24-765", "código_vi": 124765, "código__m": "24-365", "código_nu": 124365, "código_re": 10, "nombre_reg": "Los Lagos", "código_de": 24, "nombre_dep": "Servicio de Salud Del Reloncaví", "pertenenci": "Perteneciente al Sistema Nacional de Servicios de Salud", "tipo_estab": null, "ámbito_de": "Establecimiento de Salud", "nombre_ofi": null, "certificac": "No Aplica", "dependenci": "Servicio de Salud Del Reloncaví", "nivel_de_a": "Primario", "código_co": "10105", "nombre_com": "FRUTILLAR", "vía": "Calle", "número": 0, "dirección": "Violeta Parra", "teléfono": 0, "fecha_inic": "38716", "tiene_serv": null, "tipo_de_ur": "No Aplica", "tipo_de_sa": null, "latitud": -41.1118, "longitud__": -73.05492, "tipo_de_pr": null, "estado_de": null, "nivel_de_c": "Primario", "modalidad": null, "simbologia": "Atención Primaria de Salud (APS)", "fid_comunas_v1": null, "cut_reg": "10", "cut_prov": "101", "cut_com": "10105", "region": "Los Lagos", "provincia": "LLANQUIHUE", "comuna": "FRUTILLAR", "superficie": null }, "geometry": { "type": "Point", "coordinates": [ -73.05492, -41.1118 ] } },
{ "type": "Feature", "properties": { "objectid": 9218, "fid_establecimientos_de_salud": null, "código_an": "23-423", "código_vi": 123423, "código__m": " ", "código_nu": 0, "código_re": 10, "nombre_reg": "Los Lagos", "código_de": 23, "nombre_dep": "Servicio de Salud Osorno", "pertenenci": "Perteneciente al Sistema Nacional de Servicios de Salud", "tipo_estab": null, "ámbito_de": "Establecimiento de Salud", "nombre_ofi": null, "certificac": "No Aplica", "dependenci": "Servicio de Salud Osorno", "nivel_de_a": "Primario", "código_co": "10302", "nombre_com": "PUERTO OCTAY", "vía": "Calle", "número": 0, "dirección": "Pueblo de Cascadas", "teléfono": 0, "fecha_inic": "38716", "tiene_serv": null, "tipo_de_ur": "No Aplica", "tipo_de_sa": null, "latitud": -41.082404, "longitud__": -72.636287, "tipo_de_pr": null, "estado_de": null, "nivel_de_c": "Primario", "modalidad": null, "simbologia": "Atención Primaria de Salud (APS)", "fid_comunas_v1": null, "cut_reg": "10", "cut_prov": "103", "cut_com": "10302", "region": "Los Lagos", "provincia": "OSORNO", "comuna": "PUERTO OCTAY", "superficie": null }, "geometry": { "type": "Point", "coordinates": [ -72.63629, -41.0824 ] } },
{ "type": "Feature", "properties": { "objectid": 9219, "fid_establecimientos_de_salud": null, "código_an": "24-422", "código_vi": 124422, "código__m": " ", "código_nu": 0, "código_re": 10, "nombre_reg": "Los Lagos", "código_de": 24, "nombre_dep": "Servicio de Salud Del Reloncaví", "pertenenci": "Perteneciente al Sistema Nacional de Servicios de Salud", "tipo_estab": null, "ámbito_de": "Establecimiento de Salud", "nombre_ofi": null, "certificac": "No Aplica", "dependenci": "Servicio de Salud Del Reloncaví", "nivel_de_a": "Primario", "código_co": "10109", "nombre_com": "PUERTO VARAS", "vía": "Calle", "número": 0, "dirección": "Caserío de Peulla", "teléfono": 0, "fecha_inic": "38716", "tiene_serv": null, "tipo_de_ur": "No Aplica", "tipo_de_sa": null, "latitud": -41.08556, "longitud__": -72.01926, "tipo_de_pr": null, "estado_de": null, "nivel_de_c": "Primario", "modalidad": null, "simbologia": "Atención Primaria de Salud (APS)", "fid_comunas_v1": null, "cut_reg": "10", "cut_prov": "101", "cut_com": "10109", "region": "Los Lagos", "provincia": "LLANQUIHUE", "comuna": "PUERTO VARAS", "superficie": null }, "geometry": { "type": "Point", "coordinates": [ -72.01926, -41.08556 ] } },
{ "type": "Feature", "properties": { "objectid": 9226, "fid_establecimientos_de_salud": null, "código_an": "23-416", "código_vi": 123416, "código__m": " ", "código_nu": 0, "código_re": 10, "nombre_reg": "Los Lagos", "código_de": 23, "nombre_dep": "Servicio de Salud Osorno", "pertenenci": "Perteneciente al Sistema Nacional de Servicios de Salud", "tipo_estab": null, "ámbito_de": "Establecimiento de Salud", "nombre_ofi": null, "certificac": "No Aplica", "dependenci": "Servicio de Salud Osorno", "nivel_de_a": "Primario", "código_co": "10303", "nombre_com": "PURRANQUE", "vía": "Calle", "número": 0, "dirección": "Caserío de Colonia Ponce", "teléfono": 0, "fecha_inic": "38716", "tiene_serv": null, "tipo_de_ur": "No Aplica", "tipo_de_sa": null, "latitud": -40.991508, "longitud__": -73.053042, "tipo_de_pr": null, "estado_de": null, "nivel_de_c": "Primario", "modalidad": null, "simbologia": "Atención Primaria de Salud (APS)", "fid_comunas_v1": null, "cut_reg": "10", "cut_prov": "103", "cut_com": "10303", "region": "Los Lagos", "provincia": "OSORNO", "comuna": "PURRANQUE", "superficie": null }, "geometry": { "type": "Point", "coordinates": [ -73.05304, -40.99151 ] } },
{ "type": "Feature", "properties": { "objectid": 9227, "fid_establecimientos_de_salud": null, "código_an": "23-427", "código_vi": 123427, "código__m": " ", "código_nu": 0, "código_re": 10, "nombre_reg": "Los Lagos", "código_de": 23, "nombre_dep": "Servicio de Salud Osorno", "pertenenci": "Perteneciente al Sistema Nacional de Servicios de Salud", "tipo_estab": null, "ámbito_de": "Establecimiento de Salud", "nombre_ofi": null, "certificac": "No Aplica", "dependenci": "Servicio de Salud Osorno", "nivel_de_a": "Primario", "código_co": "10302", "nombre_com": "PUERTO OCTAY", "vía": "Calle", "número": 0, "dirección": "Sector La Calo", "teléfono": 0, "fecha_inic": "38716", "tiene_serv": null, "tipo_de_ur": "No Aplica", "tipo_de_sa": null, "latitud": -40.9746, "longitud__": -72.73914, "tipo_de_pr": null, "estado_de": null, "nivel_de_c": "Primario", "modalidad": null, "simbologia": "Atención Primaria de Salud (APS)", "fid_comunas_v1": null, "cut_reg": "10", "cut_prov": "103", "cut_com": "10302", "region": "Los Lagos", "provincia": "OSORNO", "comuna": "PUERTO OCTAY", "superficie": null }, "geometry": { "type": "Point", "coordinates": [ -72.73914, -40.9746 ] } },
{ "type": "Feature", "properties": { "objectid": 9228, "fid_establecimientos_de_salud": null, "código_an": "23-103", "código_vi": 123103, "código__m": " ", "código_nu": 0, "código_re": 10, "nombre_reg": "Los Lagos", "código_de": 23, "nombre_dep": "Servicio de Salud Osorno", "pertenenci": "Perteneciente al Sistema Nacional de Servicios de Salud", "tipo_estab": null, "ámbito_de": "Establecimiento de Salud", "nombre_ofi": null, "certificac": "No Aplica", "dependenci": "Servicio de Salud Osorno", "nivel_de_a": "Pendiente", "código_co": "10302", "nombre_com": "PUERTO OCTAY", "vía": "Calle", "número": 601, "dirección": "Pedro Montt", "teléfono": 642335932, "fecha_inic": "38716", "tiene_serv": null, "tipo_de_ur": "Urgencia Hospitalaria (UEH)", "tipo_de_sa": null, "latitud": -40.97256, "longitud__": -72.88318, "tipo_de_pr": null, "estado_de": null, "nivel_de_c": "Pendiente", "modalidad": null, "simbologia": "Hospitales y Unidades de Hospitalización", "fid_comunas_v1": null, "cut_reg": "10", "cut_prov": "103", "cut_com": "10302", "region": "Los Lagos", "provincia": "OSORNO", "comuna": "PUERTO OCTAY", "superficie": null }, "geometry": { "type": "Point", "coordinates": [ -72.88318, -40.97256 ] } },
{ "type": "Feature", "properties": { "objectid": 9229, "fid_establecimientos_de_salud": null, "código_an": "23-428", "código_vi": 123428, "código__m": " ", "código_nu": 0, "código_re": 10, "nombre_reg": "Los Lagos", "código_de": 23, "nombre_dep": "Servicio de Salud Osorno", "pertenenci": "Perteneciente al Sistema Nacional de Servicios de Salud", "tipo_estab": null, "ámbito_de": "Establecimiento de Salud", "nombre_ofi": null, "certificac": "No Aplica", "dependenci": "Servicio de Salud Osorno", "nivel_de_a": "Primario", "código_co": "10302", "nombre_com": "PUERTO OCTAY", "vía": "Calle", "número": 0, "dirección": "Sector Coihueco", "teléfono": 0, "fecha_inic": "38716", "tiene_serv": null, "tipo_de_ur": "No Aplica", "tipo_de_sa": null, "latitud": -40.97189, "longitud__": -72.5846, "tipo_de_pr": null, "estado_de": null, "nivel_de_c": "Primario", "modalidad": null, "simbologia": "Atención Primaria de Salud (APS)", "fid_comunas_v1": null, "cut_reg": "10", "cut_prov": "103", "cut_com": "10302", "region": "Los Lagos", "provincia": "OSORNO", "comuna": "PUERTO OCTAY", "superficie": null }, "geometry": { "type": "Point", "coordinates": [ -72.5846, -40.97189 ] } },
{ "type": "Feature", "properties": { "objectid": 9239, "fid_establecimientos_de_salud": null, "código_an": "23-424", "código_vi": 123424, "código__m": " ", "código_nu": 0, "código_re": 10, "nombre_reg": "Los Lagos", "código_de": 23, "nombre_dep": "Servicio de Salud Osorno", "pertenenci": "Perteneciente al Sistema Nacional de Servicios de Salud", "tipo_estab": null, "ámbito_de": "Establecimiento de Salud", "nombre_ofi": null, "certificac": "No Aplica", "dependenci": "Servicio de Salud Osorno", "nivel_de_a": "Primario", "código_co": "10302", "nombre_com": "PUERTO OCTAY", "vía": "Calle", "número": 0, "dirección": "Caserío de Piedras Negras", "teléfono": 0, "fecha_inic": "38716", "tiene_serv": null, "tipo_de_ur": "No Aplica", "tipo_de_sa": null, "latitud": -40.88598, "longitud__": -72.47821, "tipo_de_pr": null, "estado_de": null, "nivel_de_c": "Primario", "modalidad": null, "simbologia": "Atención Primaria de Salud (APS)", "fid_comunas_v1": null, "cut_reg": "10", "cut_prov": "103", "cut_com": "10302", "region": "Los Lagos", "provincia": "OSORNO", "comuna": "PUERTO OCTAY", "superficie": null }, "geometry": { "type": "Point", "coordinates": [ -72.47821, -40.88598 ] } },
{ "type": "Feature", "properties": { "objectid": 9240, "fid_establecimientos_de_salud": null, "código_an": "23-422", "código_vi": 123422, "código__m": " ", "código_nu": 0, "código_re": 10, "nombre_reg": "Los Lagos", "código_de": 23, "nombre_dep": "Servicio de Salud Osorno", "pertenenci": "Perteneciente al Sistema Nacional de Servicios de Salud", "tipo_estab": null, "ámbito_de": "Establecimiento de Salud", "nombre_ofi": null, "certificac": "No Aplica", "dependenci": "Servicio de Salud Osorno", "nivel_de_a": "Primario", "código_co": "10302", "nombre_com": "PUERTO OCTAY", "vía": "Calle", "número": 0, "dirección": "Sector Rupanco", "teléfono": 0, "fecha_inic": "38716", "tiene_serv": null, "tipo_de_ur": "No Aplica", "tipo_de_sa": null, "latitud": -40.83015, "longitud__": -72.89012, "tipo_de_pr": null, "estado_de": null, "nivel_de_c": "Primario", "modalidad": null, "simbologia": "Atención Primaria de Salud (APS)", "fid_comunas_v1": null, "cut_reg": "10", "cut_prov": "103", "cut_com": "10302", "region": "Los Lagos", "provincia": "OSORNO", "comuna": "PUERTO OCTAY", "superficie": null }, "geometry": { "type": "Point", "coordinates": [ -72.89012, -40.83015 ] } },
{ "type": "Feature", "properties": { "objectid": 9241, "fid_establecimientos_de_salud": null, "código_an": "23-426", "código_vi": 123426, "código__m": " ", "código_nu": 0, "código_re": 10, "nombre_reg": "Los Lagos", "código_de": 23, "nombre_dep": "Servicio de Salud Osorno", "pertenenci": "Perteneciente al Sistema Nacional de Servicios de Salud", "tipo_estab": null, "ámbito_de": "Establecimiento de Salud", "nombre_ofi": null, "certificac": "No Aplica", "dependenci": "Servicio de Salud Osorno", "nivel_de_a": "Primario", "código_co": "10302", "nombre_com": "PUERTO OCTAY", "vía": "Calle", "número": 0, "dirección": "Sector Pellinada", "teléfono": 0, "fecha_inic": "38716", "tiene_serv": null, "tipo_de_ur": "No Aplica", "tipo_de_sa": null, "latitud": -40.87358, "longitud__": -72.5922, "tipo_de_pr": null, "estado_de": null, "nivel_de_c": "Primario", "modalidad": null, "simbologia": "Atención Primaria de Salud (APS)", "fid_comunas_v1": null, "cut_reg": "10", "cut_prov": "103", "cut_com": "10302", "region": "Los Lagos", "provincia": "OSORNO", "comuna": "PUERTO OCTAY", "superficie": null }, "geometry": { "type": "Point", "coordinates": [ -72.5922, -40.87358 ] } },
{ "type": "Feature", "properties": { "objectid": 9246, "fid_establecimientos_de_salud": null, "código_an": "23-705", "código_vi": 123705, "código__m": "23-304", "código_nu": 123304, "código_re": 10, "nombre_reg": "Los Lagos", "código_de": 23, "nombre_dep": "Servicio de Salud Osorno", "pertenenci": "Perteneciente al Sistema Nacional de Servicios de Salud", "tipo_estab": null, "ámbito_de": "Establecimiento de Salud", "nombre_ofi": null, "certificac": "No Aplica", "dependenci": "Servicio de Salud Osorno", "nivel_de_a": "Primario", "código_co": "10304", "nombre_com": "PUYEHUE", "vía": "Calle", "número": 0, "dirección": "Caserío el Encanto", "teléfono": 0, "fecha_inic": "38716", "tiene_serv": null, "tipo_de_ur": "No Aplica", "tipo_de_sa": null, "latitud": -40.76724, "longitud__": -72.44009, "tipo_de_pr": null, "estado_de": null, "nivel_de_c": "Primario", "modalidad": null, "simbologia": "Atención Primaria de Salud (APS)", "fid_comunas_v1": null, "cut_reg": "10", "cut_prov": "103", "cut_com": "10304", "region": "Los Lagos", "provincia": "OSORNO", "comuna": "PUYEHUE", "superficie": null }, "geometry": { "type": "Point", "coordinates": [ -72.44009, -40.76724 ] } },
{ "type": "Feature", "properties": { "objectid": 9247, "fid_establecimientos_de_salud": null, "código_an": "23-407", "código_vi": 123407, "código__m": " ", "código_nu": 0, "código_re": 10, "nombre_reg": "Los Lagos", "código_de": 23, "nombre_dep": "Servicio de Salud Osorno", "pertenenci": "Perteneciente al Sistema Nacional de Servicios de Salud", "tipo_estab": null, "ámbito_de": "Establecimiento de Salud", "nombre_ofi": null, "certificac": "No Aplica", "dependenci": "Servicio de Salud Osorno", "nivel_de_a": "Primario", "código_co": "10304", "nombre_com": "PUYEHUE", "vía": "Calle", "número": 0, "dirección": "Sector Desagüe Rupanco", "teléfono": 0, "fecha_inic": "38716", "tiene_serv": null, "tipo_de_ur": "No Aplica", "tipo_de_sa": null, "latitud": -40.762064, "longitud__": -72.679532, "tipo_de_pr": null, "estado_de": null, "nivel_de_c": "Primario", "modalidad": null, "simbologia": "Atención Primaria de Salud (APS)", "fid_comunas_v1": null, "cut_reg": "10", "cut_prov": "103", "cut_com": "10304", "region": "Los Lagos", "provincia": "OSORNO", "comuna": "PUYEHUE", "superficie": null }, "geometry": { "type": "Point", "coordinates": [ -72.67953, -40.76206 ] } },
{ "type": "Feature", "properties": { "objectid": 9251, "fid_establecimientos_de_salud": null, "código_an": "23-406", "código_vi": 123406, "código__m": " ", "código_nu": 0, "código_re": 10, "nombre_reg": "Los Lagos", "código_de": 23, "nombre_dep": "Servicio de Salud Osorno", "pertenenci": "Perteneciente al Sistema Nacional de Servicios de Salud", "tipo_estab": null, "ámbito_de": "Establecimiento de Salud", "nombre_ofi": null, "certificac": "No Aplica", "dependenci": "Servicio de Salud Osorno", "nivel_de_a": "Primario", "código_co": "10304", "nombre_com": "PUYEHUE", "vía": "Calle", "número": 0, "dirección": "Sector Puyehue", "teléfono": 0, "fecha_inic": "38716", "tiene_serv": null, "tipo_de_ur": "No Aplica", "tipo_de_sa": null, "latitud": -40.696344, "longitud__": -72.335555, "tipo_de_pr": null, "estado_de": null, "nivel_de_c": "Primario", "modalidad": null, "simbologia": "Atención Primaria de Salud (APS)", "fid_comunas_v1": null, "cut_reg": "10", "cut_prov": "103", "cut_com": "10304", "region": "Los Lagos", "provincia": "OSORNO", "comuna": "PUYEHUE", "superficie": null }, "geometry": { "type": "Point", "coordinates": [ -72.33555, -40.69634 ] } },
{ "type": "Feature", "properties": { "objectid": 9253, "fid_establecimientos_de_salud": null, "código_an": "23-304", "código_vi": 123304, "código__m": " ", "código_nu": 0, "código_re": 10, "nombre_reg": "Los Lagos", "código_de": 23, "nombre_dep": "Servicio de Salud Osorno", "pertenenci": "Perteneciente al Sistema Nacional de Servicios de Salud", "tipo_estab": null, "ámbito_de": "Establecimiento de Salud", "nombre_ofi": null, "certificac": "Centro de Salud Familiar", "dependenci": "Servicio de Salud Osorno", "nivel_de_a": "Primario", "código_co": "10304", "nombre_com": "PUYEHUE", "vía": "Calle", "número": 0, "dirección": "Luis Pasteur", "teléfono": 800500300, "fecha_inic": "38716", "tiene_serv": null, "tipo_de_ur": "No Aplica", "tipo_de_sa": null, "latitud": -40.6844, "longitud__": -72.60264, "tipo_de_pr": null, "estado_de": null, "nivel_de_c": "Primario", "modalidad": null, "simbologia": "Atención Primaria de Salud (APS)", "fid_comunas_v1": null, "cut_reg": "10", "cut_prov": "103", "cut_com": "10304", "region": "Los Lagos", "provincia": "OSORNO", "comuna": "PUYEHUE", "superficie": null }, "geometry": { "type": "Point", "coordinates": [ -72.60264, -40.6844 ] } },
{ "type": "Feature", "properties": { "objectid": 9254, "fid_establecimientos_de_salud": null, "código_an": "23-910", "código_vi": 200747, "código__m": "23-304", "código_nu": 123304, "código_re": 10, "nombre_reg": "Los Lagos", "código_de": 23, "nombre_dep": "Servicio de Salud Osorno", "pertenenci": "Perteneciente al Sistema Nacional de Servicios de Salud", "tipo_estab": null, "ámbito_de": "Establecimiento de Salud", "nombre_ofi": null, "certificac": "No Aplica", "dependenci": "Servicio de Salud Osorno", "nivel_de_a": "Primario", "código_co": "10304", "nombre_com": "PUYEHUE", "vía": "Calle", "número": 0, "dirección": "Luis Pasteur", "teléfono": 800500300, "fecha_inic": null, "tiene_serv": null, "tipo_de_ur": "Urgencia Ambulatoria (SAPU)", "tipo_de_sa": null, "latitud": -40.684258, "longitud__": -72.602616, "tipo_de_pr": null, "estado_de": null, "nivel_de_c": "Primario", "modalidad": null, "simbologia": "Servicios de Urgencia de Atención Primaria", "fid_comunas_v1": null, "cut_reg": "10", "cut_prov": "103", "cut_com": "10304", "region": "Los Lagos", "provincia": "OSORNO", "comuna": "PUYEHUE", "superficie": null }, "geometry": { "type": "Point", "coordinates": [ -72.60262, -40.68426 ] } },
{ "type": "Feature", "properties": { "objectid": 12845, "fid_establecimientos_de_salud": null, "código_an": "201483", "código_vi": 201483, "código__m": " ", "código_nu": 0, "código_re": 10, "nombre_reg": "Los Lagos", "código_de": 23, "nombre_dep": "Servicio de Salud Osorno", "pertenenci": "Perteneciente al Sistema Nacional de Servicios de Salud", "tipo_estab": null, "ámbito_de": "Establecimiento de Salud", "nombre_ofi": null, "certificac": "No Aplica", "dependenci": "Servicio de Salud Osorno", "nivel_de_a": "Primario", "código_co": "10302", "nombre_com": "PUERTO OCTAY", "vía": "Calle", "número": 595, "dirección": "Muñoz Gamero", "teléfono": 0, "fecha_inic": "45363", "tiene_serv": null, "tipo_de_ur": "No Aplica", "tipo_de_sa": null, "latitud": -41.080106, "longitud__": -72.641119, "tipo_de_pr": null, "estado_de": null, "nivel_de_c": "Primario", "modalidad": null, "simbologia": "Atención Primaria de Salud (APS)", "fid_comunas_v1": null, "cut_reg": "10", "cut_prov": "103", "cut_com": "10302", "region": "Los Lagos", "provincia": "OSORNO", "comuna": "PUERTO OCTAY", "superficie": null }, "geometry": { "type": "Point", "coordinates": [ -72.64112, -41.08011 ] } },
{ "type": "Feature", "properties": { "objectid": 13054, "fid_establecimientos_de_salud": null, "código_an": "201696", "código_vi": 201696, "código__m": " ", "código_nu": 0, "código_re": 10, "nombre_reg": "Los Lagos", "código_de": 24, "nombre_dep": "Servicio de Salud Del Reloncaví", "pertenenci": "Perteneciente al Sistema Nacional de Servicios de Salud", "tipo_estab": null, "ámbito_de": "Establecimiento de Salud", "nombre_ofi": null, "certificac": "No Aplica", "dependenci": "Servicio de Salud Del Reloncaví", "nivel_de_a": "Primario", "código_co": "10109", "nombre_com": "PUERTO VARAS", "vía": "Calle", "número": 60, "dirección": "Estacion", "teléfono": 0, "fecha_inic": "45470", "tiene_serv": null, "tipo_de_ur": "No Aplica", "tipo_de_sa": null, "latitud": -41.313291, "longitud__": -72.987584, "tipo_de_pr": null, "estado_de": null, "nivel_de_c": "Primario", "modalidad": null, "simbologia": "Atención Primaria de Salud (APS)", "fid_comunas_v1": null, "cut_reg": "10", "cut_prov": "101", "cut_com": "10109", "region": "Los Lagos", "provincia": "LLANQUIHUE", "comuna": "PUERTO VARAS", "superficie": null }, "geometry": { "type": "Point", "coordinates": [ -72.98758, -41.31329 ] } },
{ "type": "Feature", "properties": { "objectid": 13083, "fid_establecimientos_de_salud": null, "código_an": "201725", "código_vi": 201725, "código__m": " ", "código_nu": 0, "código_re": 10, "nombre_reg": "Los Lagos", "código_de": 10, "nombre_dep": "SEREMI De Los Lagos", "pertenenci": "No perteneciente al Sistema Nacional de Servicios de Salud", "tipo_estab": null, "ámbito_de": "Establecimiento de Salud", "nombre_ofi": null, "certificac": "No Aplica", "dependenci": "SEREMI De Los Lagos", "nivel_de_a": "No Aplica", "código_co": "10109", "nombre_com": "PUERTO VARAS", "vía": "Calle", "número": 539, "dirección": "Santa Rosa", "teléfono": 0, "fecha_inic": "45616", "tiene_serv": null, "tipo_de_ur": "No Aplica", "tipo_de_sa": null, "latitud": -41.318523, "longitud__": -72.983114, "tipo_de_pr": null, "estado_de": null, "nivel_de_c": "No Aplica", "modalidad": null, "simbologia": "Centros de Salud y Clínicas Privadas", "fid_comunas_v1": null, "cut_reg": "10", "cut_prov": "101", "cut_com": "10109", "region": "Los Lagos", "provincia": "LLANQUIHUE", "comuna": "PUERTO VARAS", "superficie": null }, "geometry": { "type": "Point", "coordinates": [ -72.98311, -41.31852 ] } },
{ "type": "Feature", "properties": { "objectid": 13088, "fid_establecimientos_de_salud": null, "código_an": "201730", "código_vi": 201730, "código__m": " ", "código_nu": 0, "código_re": 10, "nombre_reg": "Los Lagos", "código_de": 10, "nombre_dep": "SEREMI De Los Lagos", "pertenenci": "No perteneciente al Sistema Nacional de Servicios de Salud", "tipo_estab": null, "ámbito_de": "Establecimiento de Salud", "nombre_ofi": null, "certificac": "No Aplica", "dependenci": "SEREMI De Los Lagos", "nivel_de_a": "Secundario", "código_co": "10109", "nombre_com": "PUERTO VARAS", "vía": "Calle", "número": 530, "dirección": "Santa Rosa", "teléfono": 964973636, "fecha_inic": "44552", "tiene_serv": null, "tipo_de_ur": "No Aplica", "tipo_de_sa": null, "latitud": -41.318494, "longitud__": -72.983189, "tipo_de_pr": null, "estado_de": null, "nivel_de_c": "Secundario", "modalidad": null, "simbologia": "Centros de Salud y Clínicas Privadas", "fid_comunas_v1": null, "cut_reg": "10", "cut_prov": "101", "cut_com": "10109", "region": "Los Lagos", "provincia": "LLANQUIHUE", "comuna": "PUERTO VARAS", "superficie": null }, "geometry": { "type": "Point", "coordinates": [ -72.98319, -41.31849 ] } },
{ "type": "Feature", "properties": { "objectid": 13958, "fid_establecimientos_de_salud": null, "código_an": "202201", "código_vi": 202201, "código__m": " ", "código_nu": 0, "código_re": 10, "nombre_reg": "Los Lagos", "código_de": 24, "nombre_dep": "Servicio de Salud Del Reloncaví", "pertenenci": "Perteneciente al Sistema Nacional de Servicios de Salud", "tipo_estab": null, "ámbito_de": "Establecimiento de Salud", "nombre_ofi": null, "certificac": "No Aplica", "dependenci": "Servicio de Salud Del Reloncaví", "nivel_de_a": "Secundario", "código_co": "10105", "nombre_com": "Frutillar", "vía": "Otro", "número": 0, "dirección": "Las Piedras, S/N,", "teléfono": 652326929, "fecha_inic": "45903", "tiene_serv": null, "tipo_de_ur": "No Aplica", "tipo_de_sa": null, "latitud": -41.137709, "longitud__": -73.031976, "tipo_de_pr": null, "estado_de": null, "nivel_de_c": "Secundario", "modalidad": null, "simbologia": "Centros Especializados y de Diagnóstico", "fid_comunas_v1": null, "cut_reg": "10", "cut_prov": "101", "cut_com": "10105", "region": "Los Lagos", "provincia": "LLANQUIHUE", "comuna": "Frutillar", "superficie": null }, "geometry": { "type": "Point", "coordinates": [ -73.03198, -41.13771 ] } }
]
}
