{
"type": "FeatureCollection",
"name": "PAR",
"crs": { "type": "name", "properties": { "name": "urn:ogc:def:crs:OGC:1.3:CRS84" } },
"xy_coordinate_resolution": 1e-05,
"features": [
{ "type": "Feature", "properties": { "objectid": 13280, "fid_establecimientos_de_salud": null, "código_an": "01-304", "código_vi": 101304, "código__m": " ", "código_nu": 0, "código_re": 15, "nombre_reg": "Arica y Parinacota", "código_de": 1, "nombre_dep": "Servicio de Salud Arica y Parinacota", "pertenenci": "Perteneciente al Sistema Nacional de Servicios de Salud", "tipo_estab": null, "ámbito_de": "Establecimiento de Salud", "nombre_ofi": null, "certificac": "Centro de Salud Familiar", "dependenci": "Servicio de Salud Arica y Parinacota", "nivel_de_a": "Primario", "código_co": "15201", "nombre_com": "PUTRE", "vía": "Calle", "número": 261, "dirección": "Baquedano", "teléfono": 582200261, "fecha_inic": null, "tiene_serv": null, "tipo_de_ur": "No Aplica", "tipo_de_sa": null, "latitud": -18.19761, "longitud__": -69.55734, "tipo_de_pr": null, "estado_de": null, "nivel_de_c": "Primario", "modalidad": null, "simbologia": "Atención Primaria de Salud (APS)", "fid_comunas_v1": null, "cut_reg": "15", "cut_prov": "152", "cut_com": "15201", "region": "Arica y Parinacota", "provincia": "PARINACOTA", "comuna": "PUTRE", "superficie": null }, "geometry": { "type": "Point", "coordinates": [ -69.55734, -18.19761 ] } },
{ "type": "Feature", "properties": { "objectid": 13281, "fid_establecimientos_de_salud": null, "código_an": "01-912", "código_vi": 200849, "código__m": "01-304", "código_nu": 101304, "código_re": 15, "nombre_reg": "Arica y Parinacota", "código_de": 1, "nombre_dep": "Servicio de Salud Arica y Parinacota", "pertenenci": "Perteneciente al Sistema Nacional de Servicios de Salud", "tipo_estab": null, "ámbito_de": "Establecimiento de Salud", "nombre_ofi": null, "certificac": "No Aplica", "dependenci": "Servicio de Salud Arica y Parinacota", "nivel_de_a": "Primario", "código_co": "15201", "nombre_com": "PUTRE", "vía": "Calle", "número": 121, "dirección": "Baquedano", "teléfono": 582594740, "fecha_inic": "43900", "tiene_serv": null, "tipo_de_ur": "Urgencia Ambulatoria (SUR)", "tipo_de_sa": null, "latitud": -18.197592, "longitud__": -69.557384, "tipo_de_pr": null, "estado_de": null, "nivel_de_c": "Primario", "modalidad": null, "simbologia": "Servicios de Urgencia de Atención Primaria", "fid_comunas_v1": null, "cut_reg": "15", "cut_prov": "152", "cut_com": "15201", "region": "Arica y Parinacota", "provincia": "PARINACOTA", "comuna": "PUTRE", "superficie": null }, "geometry": { "type": "Point", "coordinates": [ -69.55738, -18.19759 ] } }
]
}
