{
"type": "FeatureCollection",
"name": "PCC",
"crs": { "type": "name", "properties": { "name": "urn:ogc:def:crs:OGC:1.3:CRS84" } },
"xy_coordinate_resolution": 1e-05,
"features": [
{ "type": "Feature", "properties": { "objectid": 9239, "fid_establecimientos_de_salud": null, "código_an": "23-424", "código_vi": 123424, "código__m": " ", "código_nu": 0, "código_re": 10, "nombre_reg": "Los Lagos", "código_de": 23, "nombre_dep": "Servicio de Salud Osorno", "pertenenci": "Perteneciente al Sistema Nacional de Servicios de Salud", "tipo_estab": null, "ámbito_de": "Establecimiento de Salud", "nombre_ofi": null, "certificac": "No Aplica", "dependenci": "Servicio de Salud Osorno", "nivel_de_a": "Primario", "código_co": "10302", "nombre_com": "PUERTO OCTAY", "vía": "Calle", "número": 0, "dirección": "Caserío de Piedras Negras", "teléfono": 0, "fecha_inic": "38716", "tiene_serv": null, "tipo_de_ur": "No Aplica", "tipo_de_sa": null, "latitud": -40.88598, "longitud__": -72.47821, "tipo_de_pr": null, "estado_de": null, "nivel_de_c": "Primario", "modalidad": null, "simbologia": "Atención Primaria de Salud (APS)", "fid_comunas_v1": null, "cut_reg": "10", "cut_prov": "103", "cut_com": "10302", "region": "Los Lagos", "provincia": "OSORNO", "comuna": "PUERTO OCTAY", "superficie": null }, "geometry": { "type": "Point", "coordinates": [ -72.47821, -40.88598 ] } },
{ "type": "Feature", "properties": { "objectid": 9246, "fid_establecimientos_de_salud": null, "código_an": "23-705", "código_vi": 123705, "código__m": "23-304", "código_nu": 123304, "código_re": 10, "nombre_reg": "Los Lagos", "código_de": 23, "nombre_dep": "Servicio de Salud Osorno", "pertenenci": "Perteneciente al Sistema Nacional de Servicios de Salud", "tipo_estab": null, "ámbito_de": "Establecimiento de Salud", "nombre_ofi": null, "certificac": "No Aplica", "dependenci": "Servicio de Salud Osorno", "nivel_de_a": "Primario", "código_co": "10304", "nombre_com": "PUYEHUE", "vía": "Calle", "número": 0, "dirección": "Caserío el Encanto", "teléfono": 0, "fecha_inic": "38716", "tiene_serv": null, "tipo_de_ur": "No Aplica", "tipo_de_sa": null, "latitud": -40.76724, "longitud__": -72.44009, "tipo_de_pr": null, "estado_de": null, "nivel_de_c": "Primario", "modalidad": null, "simbologia": "Atención Primaria de Salud (APS)", "fid_comunas_v1": null, "cut_reg": "10", "cut_prov": "103", "cut_com": "10304", "region": "Los Lagos", "provincia": "OSORNO", "comuna": "PUYEHUE", "superficie": null }, "geometry": { "type": "Point", "coordinates": [ -72.44009, -40.76724 ] } },
{ "type": "Feature", "properties": { "objectid": 9251, "fid_establecimientos_de_salud": null, "código_an": "23-406", "código_vi": 123406, "código__m": " ", "código_nu": 0, "código_re": 10, "nombre_reg": "Los Lagos", "código_de": 23, "nombre_dep": "Servicio de Salud Osorno", "pertenenci": "Perteneciente al Sistema Nacional de Servicios de Salud", "tipo_estab": null, "ámbito_de": "Establecimiento de Salud", "nombre_ofi": null, "certificac": "No Aplica", "dependenci": "Servicio de Salud Osorno", "nivel_de_a": "Primario", "código_co": "10304", "nombre_com": "PUYEHUE", "vía": "Calle", "número": 0, "dirección": "Sector Puyehue", "teléfono": 0, "fecha_inic": "38716", "tiene_serv": null, "tipo_de_ur": "No Aplica", "tipo_de_sa": null, "latitud": -40.696344, "longitud__": -72.335555, "tipo_de_pr": null, "estado_de": null, "nivel_de_c": "Primario", "modalidad": null, "simbologia": "Atención Primaria de Salud (APS)", "fid_comunas_v1": null, "cut_reg": "10", "cut_prov": "103", "cut_com": "10304", "region": "Los Lagos", "provincia": "OSORNO", "comuna": "PUYEHUE", "superficie": null }, "geometry": { "type": "Point", "coordinates": [ -72.33555, -40.69634 ] } },
{ "type": "Feature", "properties": { "objectid": 9253, "fid_establecimientos_de_salud": null, "código_an": "23-304", "código_vi": 123304, "código__m": " ", "código_nu": 0, "código_re": 10, "nombre_reg": "Los Lagos", "código_de": 23, "nombre_dep": "Servicio de Salud Osorno", "pertenenci": "Perteneciente al Sistema Nacional de Servicios de Salud", "tipo_estab": null, "ámbito_de": "Establecimiento de Salud", "nombre_ofi": null, "certificac": "Centro de Salud Familiar", "dependenci": "Servicio de Salud Osorno", "nivel_de_a": "Primario", "código_co": "10304", "nombre_com": "PUYEHUE", "vía": "Calle", "número": 0, "dirección": "Luis Pasteur", "teléfono": 800500300, "fecha_inic": "38716", "tiene_serv": null, "tipo_de_ur": "No Aplica", "tipo_de_sa": null, "latitud": -40.6844, "longitud__": -72.60264, "tipo_de_pr": null, "estado_de": null, "nivel_de_c": "Primario", "modalidad": null, "simbologia": "Atención Primaria de Salud (APS)", "fid_comunas_v1": null, "cut_reg": "10", "cut_prov": "103", "cut_com": "10304", "region": "Los Lagos", "provincia": "OSORNO", "comuna": "PUYEHUE", "superficie": null }, "geometry": { "type": "Point", "coordinates": [ -72.60264, -40.6844 ] } },
{ "type": "Feature", "properties": { "objectid": 9254, "fid_establecimientos_de_salud": null, "código_an": "23-910", "código_vi": 200747, "código__m": "23-304", "código_nu": 123304, "código_re": 10, "nombre_reg": "Los Lagos", "código_de": 23, "nombre_dep": "Servicio de Salud Osorno", "pertenenci": "Perteneciente al Sistema Nacional de Servicios de Salud", "tipo_estab": null, "ámbito_de": "Establecimiento de Salud", "nombre_ofi": null, "certificac": "No Aplica", "dependenci": "Servicio de Salud Osorno", "nivel_de_a": "Primario", "código_co": "10304", "nombre_com": "PUYEHUE", "vía": "Calle", "número": 0, "dirección": "Luis Pasteur", "teléfono": 800500300, "fecha_inic": null, "tiene_serv": null, "tipo_de_ur": "Urgencia Ambulatoria (SAPU)", "tipo_de_sa": null, "latitud": -40.684258, "longitud__": -72.602616, "tipo_de_pr": null, "estado_de": null, "nivel_de_c": "Primario", "modalidad": null, "simbologia": "Servicios de Urgencia de Atención Primaria", "fid_comunas_v1": null, "cut_reg": "10", "cut_prov": "103", "cut_com": "10304", "region": "Los Lagos", "provincia": "OSORNO", "comuna": "PUYEHUE", "superficie": null }, "geometry": { "type": "Point", "coordinates": [ -72.60262, -40.68426 ] } },
{ "type": "Feature", "properties": { "objectid": 9256, "fid_establecimientos_de_salud": null, "código_an": "22-455", "código_vi": 122455, "código__m": " ", "código_nu": 0, "código_re": 14, "nombre_reg": "Los Ríos", "código_de": 22, "nombre_dep": "Servicio de Salud Los Rios", "pertenenci": "Perteneciente al Sistema Nacional de Servicios de Salud", "tipo_estab": null, "ámbito_de": "Establecimiento de Salud", "nombre_ofi": null, "certificac": "No Aplica", "dependenci": "Servicio de Salud Los Rios", "nivel_de_a": "Primario", "código_co": "14204", "nombre_com": "RÍO BUENO", "vía": "Calle", "número": 0, "dirección": "Sector Mantilhue", "teléfono": 0, "fecha_inic": "38716", "tiene_serv": null, "tipo_de_ur": "No Aplica", "tipo_de_sa": null, "latitud": -40.620541, "longitud__": -72.490048, "tipo_de_pr": null, "estado_de": null, "nivel_de_c": "Primario", "modalidad": null, "simbologia": "Atención Primaria de Salud (APS)", "fid_comunas_v1": null, "cut_reg": "14", "cut_prov": "142", "cut_com": "14204", "region": "Los Ríos", "provincia": "RANCO", "comuna": "RÍO BUENO", "superficie": null }, "geometry": { "type": "Point", "coordinates": [ -72.49005, -40.62054 ] } },
{ "type": "Feature", "properties": { "objectid": 9314, "fid_establecimientos_de_salud": null, "código_an": "22-435", "código_vi": 122435, "código__m": " ", "código_nu": 0, "código_re": 14, "nombre_reg": "Los Ríos", "código_de": 22, "nombre_dep": "Servicio de Salud Los Rios", "pertenenci": "Perteneciente al Sistema Nacional de Servicios de Salud", "tipo_estab": null, "ámbito_de": "Establecimiento de Salud", "nombre_ofi": null, "certificac": "No Aplica", "dependenci": "Servicio de Salud Los Rios", "nivel_de_a": "Primario", "código_co": "14204", "nombre_com": "RÍO BUENO", "vía": "Calle", "número": 0, "dirección": "Aldea de Vivanco", "teléfono": 0, "fecha_inic": "38716", "tiene_serv": null, "tipo_de_ur": "No Aplica", "tipo_de_sa": null, "latitud": -40.37395, "longitud__": -72.61872, "tipo_de_pr": null, "estado_de": null, "nivel_de_c": "Primario", "modalidad": null, "simbologia": "Atención Primaria de Salud (APS)", "fid_comunas_v1": null, "cut_reg": "14", "cut_prov": "142", "cut_com": "14204", "region": "Los Ríos", "provincia": "RANCO", "comuna": "RÍO BUENO", "superficie": null }, "geometry": { "type": "Point", "coordinates": [ -72.61872, -40.37395 ] } },
{ "type": "Feature", "properties": { "objectid": 9316, "fid_establecimientos_de_salud": null, "código_an": "22-460", "código_vi": 122460, "código__m": " ", "código_nu": 0, "código_re": 14, "nombre_reg": "Los Ríos", "código_de": 22, "nombre_dep": "Servicio de Salud Los Rios", "pertenenci": "Perteneciente al Sistema Nacional de Servicios de Salud", "tipo_estab": null, "ámbito_de": "Establecimiento de Salud", "nombre_ofi": null, "certificac": "No Aplica", "dependenci": "Servicio de Salud Los Rios", "nivel_de_a": "Primario", "código_co": "14203", "nombre_com": "LAGO RANCO", "vía": "Calle", "número": 0, "dirección": "Sector Polcura", "teléfono": 0, "fecha_inic": "38716", "tiene_serv": null, "tipo_de_ur": "No Aplica", "tipo_de_sa": null, "latitud": -40.34034, "longitud__": -72.10343, "tipo_de_pr": null, "estado_de": null, "nivel_de_c": "Primario", "modalidad": null, "simbologia": "Atención Primaria de Salud (APS)", "fid_comunas_v1": null, "cut_reg": "14", "cut_prov": "142", "cut_com": "14203", "region": "Los Ríos", "provincia": "RANCO", "comuna": "LAGO RANCO", "superficie": null }, "geometry": { "type": "Point", "coordinates": [ -72.10343, -40.34034 ] } },
{ "type": "Feature", "properties": { "objectid": 9324, "fid_establecimientos_de_salud": null, "código_an": "22-450", "código_vi": 122450, "código__m": "22-306", "código_nu": 122306, "código_re": 14, "nombre_reg": "Los Ríos", "código_de": 22, "nombre_dep": "Servicio de Salud Los Rios", "pertenenci": "Perteneciente al Sistema Nacional de Servicios de Salud", "tipo_estab": null, "ámbito_de": "Establecimiento de Salud", "nombre_ofi": null, "certificac": "No Aplica", "dependenci": "Servicio de Salud Los Rios", "nivel_de_a": "Primario", "código_co": "14203", "nombre_com": "LAGO RANCO", "vía": "Calle", "número": 0, "dirección": "Ruta T-85, Localidad de Riñinahue", "teléfono": 0, "fecha_inic": "38716", "tiene_serv": null, "tipo_de_ur": "No Aplica", "tipo_de_sa": null, "latitud": -40.322263, "longitud__": -72.213426, "tipo_de_pr": null, "estado_de": null, "nivel_de_c": "Primario", "modalidad": null, "simbologia": "Atención Primaria de Salud (APS)", "fid_comunas_v1": null, "cut_reg": "14", "cut_prov": "142", "cut_com": "14203", "region": "Los Ríos", "provincia": "RANCO", "comuna": "LAGO RANCO", "superficie": null }, "geometry": { "type": "Point", "coordinates": [ -72.21343, -40.32226 ] } },
{ "type": "Feature", "properties": { "objectid": 9325, "fid_establecimientos_de_salud": null, "código_an": "22-901", "código_vi": 200164, "código__m": "22-306", "código_nu": 122306, "código_re": 14, "nombre_reg": "Los Ríos", "código_de": 22, "nombre_dep": "Servicio de Salud Los Rios", "pertenenci": "Perteneciente al Sistema Nacional de Servicios de Salud", "tipo_estab": null, "ámbito_de": "Establecimiento de Salud", "nombre_ofi": null, "certificac": "No Aplica", "dependenci": "Servicio de Salud Los Rios", "nivel_de_a": "Primario", "código_co": "14203", "nombre_com": "LAGO RANCO", "vía": "Calle", "número": 662, "dirección": "Concepción", "teléfono": 632491504, "fecha_inic": "38716", "tiene_serv": null, "tipo_de_ur": "Urgencia Ambulatoria (SAPU)", "tipo_de_sa": null, "latitud": -40.32203, "longitud__": -72.471707, "tipo_de_pr": null, "estado_de": null, "nivel_de_c": "Primario", "modalidad": null, "simbologia": "Servicios de Urgencia de Atención Primaria", "fid_comunas_v1": null, "cut_reg": "14", "cut_prov": "142", "cut_com": "14203", "region": "Los Ríos", "provincia": "RANCO", "comuna": "LAGO RANCO", "superficie": null }, "geometry": { "type": "Point", "coordinates": [ -72.47171, -40.32203 ] } },
{ "type": "Feature", "properties": { "objectid": 9326, "fid_establecimientos_de_salud": null, "código_an": "22-306", "código_vi": 122306, "código__m": " ", "código_nu": 0, "código_re": 14, "nombre_reg": "Los Ríos", "código_de": 22, "nombre_dep": "Servicio de Salud Los Rios", "pertenenci": "Perteneciente al Sistema Nacional de Servicios de Salud", "tipo_estab": null, "ámbito_de": "Establecimiento de Salud", "nombre_ofi": null, "certificac": "Centro de Salud Familiar", "dependenci": "Servicio de Salud Los Rios", "nivel_de_a": "Primario", "código_co": "14203", "nombre_com": "LAGO RANCO", "vía": "Calle", "número": 655, "dirección": "Concepción", "teléfono": 632491505, "fecha_inic": "38716", "tiene_serv": null, "tipo_de_ur": "No Aplica", "tipo_de_sa": null, "latitud": -40.32184, "longitud__": -72.47154, "tipo_de_pr": null, "estado_de": null, "nivel_de_c": "Primario", "modalidad": null, "simbologia": "Atención Primaria de Salud (APS)", "fid_comunas_v1": null, "cut_reg": "14", "cut_prov": "142", "cut_com": "14203", "region": "Los Ríos", "provincia": "RANCO", "comuna": "LAGO RANCO", "superficie": null }, "geometry": { "type": "Point", "coordinates": [ -72.47154, -40.32184 ] } },
{ "type": "Feature", "properties": { "objectid": 9329, "fid_establecimientos_de_salud": null, "código_an": "22-461", "código_vi": 122461, "código__m": " ", "código_nu": 0, "código_re": 14, "nombre_reg": "Los Ríos", "código_de": 22, "nombre_dep": "Servicio de Salud Los Rios", "pertenenci": "Perteneciente al Sistema Nacional de Servicios de Salud", "tipo_estab": null, "ámbito_de": "Establecimiento de Salud", "nombre_ofi": null, "certificac": "No Aplica", "dependenci": "Servicio de Salud Los Rios", "nivel_de_a": "Primario", "código_co": "14203", "nombre_com": "LAGO RANCO", "vía": "Calle", "número": 0, "dirección": "Sector Rupumeica", "teléfono": 0, "fecha_inic": "38716", "tiene_serv": null, "tipo_de_ur": "No Aplica", "tipo_de_sa": null, "latitud": -40.319279, "longitud__": -71.961554, "tipo_de_pr": null, "estado_de": null, "nivel_de_c": "Primario", "modalidad": null, "simbologia": "Atención Primaria de Salud (APS)", "fid_comunas_v1": null, "cut_reg": "14", "cut_prov": "142", "cut_com": "14203", "region": "Los Ríos", "provincia": "RANCO", "comuna": "LAGO RANCO", "superficie": null }, "geometry": { "type": "Point", "coordinates": [ -71.96155, -40.31928 ] } },
{ "type": "Feature", "properties": { "objectid": 9349, "fid_establecimientos_de_salud": null, "código_an": "22-449", "código_vi": 122449, "código__m": " ", "código_nu": 0, "código_re": 14, "nombre_reg": "Los Ríos", "código_de": 22, "nombre_dep": "Servicio de Salud Los Rios", "pertenenci": "Perteneciente al Sistema Nacional de Servicios de Salud", "tipo_estab": null, "ámbito_de": "Establecimiento de Salud", "nombre_ofi": null, "certificac": "No Aplica", "dependenci": "Servicio de Salud Los Rios", "nivel_de_a": "Primario", "código_co": "14203", "nombre_com": "LAGO RANCO", "vía": "Calle", "número": 0, "dirección": "Sector Illahupe", "teléfono": 0, "fecha_inic": "38716", "tiene_serv": null, "tipo_de_ur": "No Aplica", "tipo_de_sa": null, "latitud": -40.271142, "longitud__": -72.311919, "tipo_de_pr": null, "estado_de": null, "nivel_de_c": "Primario", "modalidad": null, "simbologia": "Atención Primaria de Salud (APS)", "fid_comunas_v1": null, "cut_reg": "14", "cut_prov": "142", "cut_com": "14203", "region": "Los Ríos", "provincia": "RANCO", "comuna": "LAGO RANCO", "superficie": null }, "geometry": { "type": "Point", "coordinates": [ -72.31192, -40.27114 ] } },
{ "type": "Feature", "properties": { "objectid": 9350, "fid_establecimientos_de_salud": null, "código_an": "22-445", "código_vi": 122445, "código__m": " ", "código_nu": 0, "código_re": 14, "nombre_reg": "Los Ríos", "código_de": 22, "nombre_dep": "Servicio de Salud Los Rios", "pertenenci": "Perteneciente al Sistema Nacional de Servicios de Salud", "tipo_estab": null, "ámbito_de": "Establecimiento de Salud", "nombre_ofi": null, "certificac": "No Aplica", "dependenci": "Servicio de Salud Los Rios", "nivel_de_a": "Primario", "código_co": "14202", "nombre_com": "FUTRONO", "vía": "Calle", "número": 0, "dirección": "Sector Maihue", "teléfono": 0, "fecha_inic": "38716", "tiene_serv": null, "tipo_de_ur": "No Aplica", "tipo_de_sa": null, "latitud": -40.25136, "longitud__": -72.01755, "tipo_de_pr": null, "estado_de": null, "nivel_de_c": "Primario", "modalidad": null, "simbologia": "Atención Primaria de Salud (APS)", "fid_comunas_v1": null, "cut_reg": "14", "cut_prov": "142", "cut_com": "14202", "region": "Los Ríos", "provincia": "RANCO", "comuna": "FUTRONO", "superficie": null }, "geometry": { "type": "Point", "coordinates": [ -72.01755, -40.25136 ] } },
{ "type": "Feature", "properties": { "objectid": 9352, "fid_establecimientos_de_salud": null, "código_an": "22-458", "código_vi": 122458, "código__m": " ", "código_nu": 0, "código_re": 14, "nombre_reg": "Los Ríos", "código_de": 22, "nombre_dep": "Servicio de Salud Los Rios", "pertenenci": "Perteneciente al Sistema Nacional de Servicios de Salud", "tipo_estab": null, "ámbito_de": "Establecimiento de Salud", "nombre_ofi": null, "certificac": "No Aplica", "dependenci": "Servicio de Salud Los Rios", "nivel_de_a": "Primario", "código_co": "14203", "nombre_com": "LAGO RANCO", "vía": "Calle", "número": 0, "dirección": "Sector Calcurrupe", "teléfono": 0, "fecha_inic": "38716", "tiene_serv": null, "tipo_de_ur": "No Aplica", "tipo_de_sa": null, "latitud": -40.23517, "longitud__": -72.25226, "tipo_de_pr": null, "estado_de": null, "nivel_de_c": "Primario", "modalidad": null, "simbologia": "Atención Primaria de Salud (APS)", "fid_comunas_v1": null, "cut_reg": "14", "cut_prov": "142", "cut_com": "14203", "region": "Los Ríos", "provincia": "RANCO", "comuna": "LAGO RANCO", "superficie": null }, "geometry": { "type": "Point", "coordinates": [ -72.25226, -40.23517 ] } },
{ "type": "Feature", "properties": { "objectid": 9353, "fid_establecimientos_de_salud": null, "código_an": "22-446", "código_vi": 122446, "código__m": " ", "código_nu": 0, "código_re": 14, "nombre_reg": "Los Ríos", "código_de": 22, "nombre_dep": "Servicio de Salud Los Rios", "pertenenci": "Perteneciente al Sistema Nacional de Servicios de Salud", "tipo_estab": null, "ámbito_de": "Establecimiento de Salud", "nombre_ofi": null, "certificac": "No Aplica", "dependenci": "Servicio de Salud Los Rios", "nivel_de_a": "Primario", "código_co": "14202", "nombre_com": "FUTRONO", "vía": "Calle", "número": 0, "dirección": "Sector Huapi", "teléfono": 0, "fecha_inic": "38716", "tiene_serv": null, "tipo_de_ur": "No Aplica", "tipo_de_sa": null, "latitud": -40.214606, "longitud__": -72.382411, "tipo_de_pr": null, "estado_de": null, "nivel_de_c": "Primario", "modalidad": null, "simbologia": "Atención Primaria de Salud (APS)", "fid_comunas_v1": null, "cut_reg": "14", "cut_prov": "142", "cut_com": "14202", "region": "Los Ríos", "provincia": "RANCO", "comuna": "FUTRONO", "superficie": null }, "geometry": { "type": "Point", "coordinates": [ -72.38241, -40.21461 ] } },
{ "type": "Feature", "properties": { "objectid": 9356, "fid_establecimientos_de_salud": null, "código_an": "22-447", "código_vi": 122447, "código__m": " ", "código_nu": 0, "código_re": 14, "nombre_reg": "Los Ríos", "código_de": 22, "nombre_dep": "Servicio de Salud Los Rios", "pertenenci": "Perteneciente al Sistema Nacional de Servicios de Salud", "tipo_estab": null, "ámbito_de": "Establecimiento de Salud", "nombre_ofi": null, "certificac": "No Aplica", "dependenci": "Servicio de Salud Los Rios", "nivel_de_a": "Primario", "código_co": "14202", "nombre_com": "FUTRONO", "vía": "Calle", "número": 0, "dirección": "Pueblo de Llifén", "teléfono": 0, "fecha_inic": "38716", "tiene_serv": null, "tipo_de_ur": "No Aplica", "tipo_de_sa": null, "latitud": -40.19843, "longitud__": -72.25862, "tipo_de_pr": null, "estado_de": null, "nivel_de_c": "Primario", "modalidad": null, "simbologia": "Atención Primaria de Salud (APS)", "fid_comunas_v1": null, "cut_reg": "14", "cut_prov": "142", "cut_com": "14202", "region": "Los Ríos", "provincia": "RANCO", "comuna": "FUTRONO", "superficie": null }, "geometry": { "type": "Point", "coordinates": [ -72.25862, -40.19843 ] } },
{ "type": "Feature", "properties": { "objectid": 9357, "fid_establecimientos_de_salud": null, "código_an": "22-443", "código_vi": 122443, "código__m": " ", "código_nu": 0, "código_re": 14, "nombre_reg": "Los Ríos", "código_de": 22, "nombre_dep": "Servicio de Salud Los Rios", "pertenenci": "Perteneciente al Sistema Nacional de Servicios de Salud", "tipo_estab": null, "ámbito_de": "Establecimiento de Salud", "nombre_ofi": null, "certificac": "No Aplica", "dependenci": "Servicio de Salud Los Rios", "nivel_de_a": "Primario", "código_co": "14202", "nombre_com": "FUTRONO", "vía": "Calle", "número": 0, "dirección": "Sector Curiñanco - Niebla", "teléfono": 0, "fecha_inic": "38716", "tiene_serv": null, "tipo_de_ur": "No Aplica", "tipo_de_sa": null, "latitud": -40.195872, "longitud__": -72.042471, "tipo_de_pr": null, "estado_de": null, "nivel_de_c": "Primario", "modalidad": null, "simbologia": "Atención Primaria de Salud (APS)", "fid_comunas_v1": null, "cut_reg": "14", "cut_prov": "142", "cut_com": "14202", "region": "Los Ríos", "provincia": "RANCO", "comuna": "FUTRONO", "superficie": null }, "geometry": { "type": "Point", "coordinates": [ -72.04247, -40.19587 ] } }
]
}
