{
"type": "FeatureCollection",
"name": "PUT",
"crs": { "type": "name", "properties": { "name": "urn:ogc:def:crs:OGC:1.3:CRS84" } },
"xy_coordinate_resolution": 1e-05,
"features": [
{ "type": "Feature", "properties": { "objectid": 12670, "fid_establecimientos_de_salud": null, "código_an": "03-311", "código_vi": 103311, "código__m": " ", "código_nu": 0, "código_re": 2, "nombre_reg": "Antofagasta", "código_de": 3, "nombre_dep": "Servicio de Salud Antofagasta", "pertenenci": "Perteneciente al Sistema Nacional de Servicios de Salud", "tipo_estab": null, "ámbito_de": "Establecimiento de Salud", "nombre_ofi": null, "certificac": "Centro de Salud Familiar", "dependenci": "Servicio de Salud Antofagasta", "nivel_de_a": "Primario", "código_co": "02203", "nombre_com": "SAN PEDRO DE ATACAMA", "vía": "Calle", "número": 0, "dirección": "Gustavo Le Paige", "teléfono": 0, "fecha_inic": "38716", "tiene_serv": null, "tipo_de_ur": "No Aplica", "tipo_de_sa": null, "latitud": -22.91066, "longitud__": -68.19927, "tipo_de_pr": null, "estado_de": null, "nivel_de_c": "Primario", "modalidad": null, "simbologia": "Atención Primaria de Salud (APS)", "fid_comunas_v1": null, "cut_reg": "2", "cut_prov": "022", "cut_com": "02203", "region": "Antofagasta", "provincia": "EL LOA", "comuna": "SAN PEDRO DE ATACAMA", "superficie": null }, "geometry": { "type": "Point", "coordinates": [ -68.19927, -22.91066 ] } },
{ "type": "Feature", "properties": { "objectid": 12671, "fid_establecimientos_de_salud": null, "código_an": "03-931", "código_vi": 200910, "código__m": "03-311", "código_nu": 103311, "código_re": 2, "nombre_reg": "Antofagasta", "código_de": 3, "nombre_dep": "Servicio de Salud Antofagasta", "pertenenci": "Perteneciente al Sistema Nacional de Servicios de Salud", "tipo_estab": null, "ámbito_de": "Establecimiento de Salud", "nombre_ofi": null, "certificac": "No Aplica", "dependenci": "Servicio de Salud Antofagasta", "nivel_de_a": "Primario", "código_co": "02203", "nombre_com": "SAN PEDRO DE ATACAMA", "vía": "Calle", "número": 0, "dirección": "Atacama", "teléfono": 0, "fecha_inic": "38716", "tiene_serv": null, "tipo_de_ur": "Urgencia Ambulatoria (SUR)", "tipo_de_sa": null, "latitud": -22.910658, "longitud__": -68.199265, "tipo_de_pr": null, "estado_de": null, "nivel_de_c": "Primario", "modalidad": null, "simbologia": "Servicios de Urgencia de Atención Primaria", "fid_comunas_v1": null, "cut_reg": "2", "cut_prov": "022", "cut_com": "02203", "region": "Antofagasta", "provincia": "EL LOA", "comuna": "SAN PEDRO DE ATACAMA", "superficie": null }, "geometry": { "type": "Point", "coordinates": [ -68.19926, -22.91066 ] } },
{ "type": "Feature", "properties": { "objectid": 12674, "fid_establecimientos_de_salud": null, "código_an": "03-414", "código_vi": 103414, "código__m": "03-311", "código_nu": 103311, "código_re": 2, "nombre_reg": "Antofagasta", "código_de": 3, "nombre_dep": "Servicio de Salud Antofagasta", "pertenenci": "Perteneciente al Sistema Nacional de Servicios de Salud", "tipo_estab": null, "ámbito_de": "Establecimiento de Salud", "nombre_ofi": null, "certificac": "No Aplica", "dependenci": "Servicio de Salud Antofagasta", "nivel_de_a": "Primario", "código_co": "02203", "nombre_com": "SAN PEDRO DE ATACAMA", "vía": "Calle", "número": 0, "dirección": "Sector Río Grande", "teléfono": 0, "fecha_inic": "38716", "tiene_serv": null, "tipo_de_ur": "No Aplica", "tipo_de_sa": null, "latitud": -22.65204, "longitud__": -68.16641, "tipo_de_pr": null, "estado_de": null, "nivel_de_c": "Primario", "modalidad": null, "simbologia": "Atención Primaria de Salud (APS)", "fid_comunas_v1": null, "cut_reg": "2", "cut_prov": "022", "cut_com": "02203", "region": "Antofagasta", "provincia": "EL LOA", "comuna": "SAN PEDRO DE ATACAMA", "superficie": null }, "geometry": { "type": "Point", "coordinates": [ -68.16641, -22.65204 ] } },
{ "type": "Feature", "properties": { "objectid": 12718, "fid_establecimientos_de_salud": null, "código_an": "03-406", "código_vi": 103406, "código__m": " ", "código_nu": 0, "código_re": 2, "nombre_reg": "Antofagasta", "código_de": 3, "nombre_dep": "Servicio de Salud Antofagasta", "pertenenci": "Perteneciente al Sistema Nacional de Servicios de Salud", "tipo_estab": null, "ámbito_de": "Establecimiento de Salud", "nombre_ofi": null, "certificac": "No Aplica", "dependenci": "Servicio de Salud Antofagasta", "nivel_de_a": "Primario", "código_co": "02201", "nombre_com": "CALAMA", "vía": "Calle", "número": 0, "dirección": "Sector de Caspana", "teléfono": 0, "fecha_inic": "38716", "tiene_serv": null, "tipo_de_ur": "No Aplica", "tipo_de_sa": null, "latitud": -22.33517, "longitud__": -68.21267, "tipo_de_pr": null, "estado_de": null, "nivel_de_c": "Primario", "modalidad": null, "simbologia": "Atención Primaria de Salud (APS)", "fid_comunas_v1": null, "cut_reg": "2", "cut_prov": "022", "cut_com": "02201", "region": "Antofagasta", "provincia": "EL LOA", "comuna": "CALAMA", "superficie": null }, "geometry": { "type": "Point", "coordinates": [ -68.21267, -22.33517 ] } }
]
}
