{
"type": "FeatureCollection",
"name": "SJO",
"crs": { "type": "name", "properties": { "name": "urn:ogc:def:crs:OGC:1.3:CRS84" } },
"xy_coordinate_resolution": 1e-05,
"features": [
{ "type": "Feature", "properties": { "objectid": 11480, "fid_establecimientos_de_salud": null, "código_an": "14-408", "código_vi": 114408, "código__m": " ", "código_nu": 0, "código_re": 13, "nombre_reg": "Metropolitana de Santiago", "código_de": 14, "nombre_dep": "Servicio de Salud Metropolitano Sur Oriente", "pertenenci": "Perteneciente al Sistema Nacional de Servicios de Salud", "tipo_estab": null, "ámbito_de": "Establecimiento de Salud", "nombre_ofi": null, "certificac": "No Aplica", "dependenci": "Servicio de Salud Metropolitano Sur Oriente", "nivel_de_a": "Primario", "código_co": "13203", "nombre_com": "SAN JOSÉ DE MAIPO", "vía": "Calle", "número": 0, "dirección": "Camino El Volcán", "teléfono": 0, "fecha_inic": "38716", "tiene_serv": null, "tipo_de_ur": "No Aplica", "tipo_de_sa": null, "latitud": -33.815209, "longitud__": -70.169449, "tipo_de_pr": null, "estado_de": null, "nivel_de_c": "Primario", "modalidad": null, "simbologia": "Atención Primaria de Salud (APS)", "fid_comunas_v1": null, "cut_reg": "13", "cut_prov": "132", "cut_com": "13203", "region": "Metropolitana de Santiago", "provincia": "CORDILLERA", "comuna": "SAN JOSÉ DE MAIPO", "superficie": null }, "geometry": { "type": "Point", "coordinates": [ -70.16945, -33.81521 ] } },
{ "type": "Feature", "properties": { "objectid": 11488, "fid_establecimientos_de_salud": null, "código_an": "14-410", "código_vi": 114410, "código__m": " ", "código_nu": 0, "código_re": 13, "nombre_reg": "Metropolitana de Santiago", "código_de": 14, "nombre_dep": "Servicio de Salud Metropolitano Sur Oriente", "pertenenci": "Perteneciente al Sistema Nacional de Servicios de Salud", "tipo_estab": null, "ámbito_de": "Establecimiento de Salud", "nombre_ofi": null, "certificac": "No Aplica", "dependenci": "Servicio de Salud Metropolitano Sur Oriente", "nivel_de_a": "Primario", "código_co": "13203", "nombre_com": "SAN JOSÉ DE MAIPO", "vía": "Calle", "número": 41687, "dirección": "Los Rodados", "teléfono": 228611836, "fecha_inic": "38716", "tiene_serv": null, "tipo_de_ur": "No Aplica", "tipo_de_sa": null, "latitud": -33.78344, "longitud__": -70.23606, "tipo_de_pr": null, "estado_de": null, "nivel_de_c": "Primario", "modalidad": null, "simbologia": "Atención Primaria de Salud (APS)", "fid_comunas_v1": null, "cut_reg": "13", "cut_prov": "132", "cut_com": "13203", "region": "Metropolitana de Santiago", "provincia": "CORDILLERA", "comuna": "SAN JOSÉ DE MAIPO", "superficie": null }, "geometry": { "type": "Point", "coordinates": [ -70.23606, -33.78344 ] } },
{ "type": "Feature", "properties": { "objectid": 11557, "fid_establecimientos_de_salud": null, "código_an": "14-102", "código_vi": 114102, "código__m": " ", "código_nu": 0, "código_re": 13, "nombre_reg": "Metropolitana de Santiago", "código_de": 14, "nombre_dep": "Servicio de Salud Metropolitano Sur Oriente", "pertenenci": "Perteneciente al Sistema Nacional de Servicios de Salud", "tipo_estab": null, "ámbito_de": "Establecimiento de Salud", "nombre_ofi": null, "certificac": "No Aplica", "dependenci": "Servicio de Salud Metropolitano Sur Oriente", "nivel_de_a": "Terciario", "código_co": "13203", "nombre_com": "SAN JOSÉ DE MAIPO", "vía": "Avenida", "número": 19856, "dirección": "Comercio", "teléfono": 225762700, "fecha_inic": "38716", "tiene_serv": null, "tipo_de_ur": "Urgencia Hospitalaria (UEH)", "tipo_de_sa": null, "latitud": -33.639361, "longitud__": -70.351496, "tipo_de_pr": null, "estado_de": null, "nivel_de_c": "Terciario", "modalidad": null, "simbologia": "Hospitales y Unidades de Hospitalización", "fid_comunas_v1": null, "cut_reg": "13", "cut_prov": "132", "cut_com": "13203", "region": "Metropolitana de Santiago", "provincia": "CORDILLERA", "comuna": "SAN JOSÉ DE MAIPO", "superficie": null }, "geometry": { "type": "Point", "coordinates": [ -70.3515, -33.63936 ] } },
{ "type": "Feature", "properties": { "objectid": 11558, "fid_establecimientos_de_salud": null, "código_an": "14-901", "código_vi": 200200, "código__m": "14-102", "código_nu": 114102, "código_re": 13, "nombre_reg": "Metropolitana de Santiago", "código_de": 14, "nombre_dep": "Servicio de Salud Metropolitano Sur Oriente", "pertenenci": "Perteneciente al Sistema Nacional de Servicios de Salud", "tipo_estab": null, "ámbito_de": "Unidad de Atención", "nombre_ofi": null, "certificac": "No Aplica", "dependenci": "Servicio de Salud Metropolitano Sur Oriente", "nivel_de_a": "Secundario", "código_co": "13203", "nombre_com": "SAN JOSÉ DE MAIPO", "vía": "Calle", "número": 0, "dirección": "1 Sur con calle del Cerro", "teléfono": 225762760, "fecha_inic": "41627", "tiene_serv": null, "tipo_de_ur": "No Aplica", "tipo_de_sa": null, "latitud": -33.64097, "longitud__": -70.351681, "tipo_de_pr": null, "estado_de": null, "nivel_de_c": "Secundario", "modalidad": null, "simbologia": "Centros Especializados y de Diagnóstico", "fid_comunas_v1": null, "cut_reg": "13", "cut_prov": "132", "cut_com": "13203", "region": "Metropolitana de Santiago", "provincia": "CORDILLERA", "comuna": "SAN JOSÉ DE MAIPO", "superficie": null }, "geometry": { "type": "Point", "coordinates": [ -70.35168, -33.64097 ] } }
]
}
