{
"type": "FeatureCollection",
"name": "SOL",
"crs": { "type": "name", "properties": { "name": "urn:ogc:def:crs:OGC:1.3:CRS84" } },
"xy_coordinate_resolution": 1e-05,
"features": [
{ "type": "Feature", "properties": { "objectid": 9501, "fid_establecimientos_de_salud": null, "código_an": "21-313", "código_vi": 121313, "código__m": " ", "código_nu": 0, "código_re": 9, "nombre_reg": "La Araucanía", "código_de": 21, "nombre_dep": "Servicio de Salud Araucanía Sur", "pertenenci": "Perteneciente al Sistema Nacional de Servicios de Salud", "tipo_estab": null, "ámbito_de": "Establecimiento de Salud", "nombre_ofi": null, "certificac": "No Aplica", "dependenci": "Servicio de Salud Araucanía Sur", "nivel_de_a": "Primario", "código_co": "09104", "nombre_com": "CURARREHUE", "vía": "Calle", "número": 888, "dirección": "Cacique Catriqui", "teléfono": 452351579, "fecha_inic": "38716", "tiene_serv": null, "tipo_de_ur": "No Aplica", "tipo_de_sa": null, "latitud": -39.36619, "longitud__": -71.58278, "tipo_de_pr": null, "estado_de": null, "nivel_de_c": "Primario", "modalidad": null, "simbologia": "Atención Primaria de Salud (APS)", "fid_comunas_v1": null, "cut_reg": "9", "cut_prov": "091", "cut_com": "09104", "region": "La Araucanía", "provincia": "CAUTÍN", "comuna": "CURARREHUE", "superficie": null }, "geometry": { "type": "Point", "coordinates": [ -71.58278, -39.36619 ] } },
{ "type": "Feature", "properties": { "objectid": 9502, "fid_establecimientos_de_salud": null, "código_an": "21-934", "código_vi": 200929, "código__m": "21-313", "código_nu": 121313, "código_re": 9, "nombre_reg": "La Araucanía", "código_de": 21, "nombre_dep": "Servicio de Salud Araucanía Sur", "pertenenci": "Perteneciente al Sistema Nacional de Servicios de Salud", "tipo_estab": null, "ámbito_de": "Establecimiento de Salud", "nombre_ofi": null, "certificac": "No Aplica", "dependenci": "Servicio de Salud Araucanía Sur", "nivel_de_a": "Primario", "código_co": "09104", "nombre_com": "CURARREHUE", "vía": "Calle", "número": 888, "dirección": "Cacique Catriqui", "teléfono": 452351579, "fecha_inic": "38716", "tiene_serv": null, "tipo_de_ur": "Urgencia Ambulatoria (SUR)", "tipo_de_sa": null, "latitud": -39.366187, "longitud__": -71.582775, "tipo_de_pr": null, "estado_de": null, "nivel_de_c": "Primario", "modalidad": null, "simbologia": "Servicios de Urgencia de Atención Primaria", "fid_comunas_v1": null, "cut_reg": "9", "cut_prov": "091", "cut_com": "09104", "region": "La Araucanía", "provincia": "CAUTÍN", "comuna": "CURARREHUE", "superficie": null }, "geometry": { "type": "Point", "coordinates": [ -71.58277, -39.36619 ] } },
{ "type": "Feature", "properties": { "objectid": 9503, "fid_establecimientos_de_salud": null, "código_an": "21-581", "código_vi": 121581, "código__m": " ", "código_nu": 0, "código_re": 9, "nombre_reg": "La Araucanía", "código_de": 21, "nombre_dep": "Servicio de Salud Araucanía Sur", "pertenenci": "Perteneciente al Sistema Nacional de Servicios de Salud", "tipo_estab": null, "ámbito_de": "Establecimiento de Salud", "nombre_ofi": null, "certificac": "No Aplica", "dependenci": "Servicio de Salud Araucanía Sur", "nivel_de_a": "Primario", "código_co": "09104", "nombre_com": "CURARREHUE", "vía": "Calle", "número": 0, "dirección": "Sector Catripulli", "teléfono": 0, "fecha_inic": "38716", "tiene_serv": null, "tipo_de_ur": "No Aplica", "tipo_de_sa": null, "latitud": -39.350452, "longitud__": -71.70723, "tipo_de_pr": null, "estado_de": null, "nivel_de_c": "Primario", "modalidad": null, "simbologia": "Atención Primaria de Salud (APS)", "fid_comunas_v1": null, "cut_reg": "9", "cut_prov": "091", "cut_com": "09104", "region": "La Araucanía", "provincia": "CAUTÍN", "comuna": "CURARREHUE", "superficie": null }, "geometry": { "type": "Point", "coordinates": [ -71.70723, -39.35045 ] } },
{ "type": "Feature", "properties": { "objectid": 9505, "fid_establecimientos_de_salud": null, "código_an": "21-582", "código_vi": 121582, "código__m": " ", "código_nu": 0, "código_re": 9, "nombre_reg": "La Araucanía", "código_de": 21, "nombre_dep": "Servicio de Salud Araucanía Sur", "pertenenci": "Perteneciente al Sistema Nacional de Servicios de Salud", "tipo_estab": null, "ámbito_de": "Establecimiento de Salud", "nombre_ofi": null, "certificac": "No Aplica", "dependenci": "Servicio de Salud Araucanía Sur", "nivel_de_a": "Primario", "código_co": "09104", "nombre_com": "CURARREHUE", "vía": "Calle", "número": 0, "dirección": "Sector Maite", "teléfono": 0, "fecha_inic": "38716", "tiene_serv": null, "tipo_de_ur": "No Aplica", "tipo_de_sa": null, "latitud": -39.31083, "longitud__": -71.4545, "tipo_de_pr": null, "estado_de": null, "nivel_de_c": "Primario", "modalidad": null, "simbologia": "Atención Primaria de Salud (APS)", "fid_comunas_v1": null, "cut_reg": "9", "cut_prov": "091", "cut_com": "09104", "region": "La Araucanía", "provincia": "CAUTÍN", "comuna": "CURARREHUE", "superficie": null }, "geometry": { "type": "Point", "coordinates": [ -71.4545, -39.31083 ] } },
{ "type": "Feature", "properties": { "objectid": 9523, "fid_establecimientos_de_salud": null, "código_an": "21-573", "código_vi": 121573, "código__m": " ", "código_nu": 0, "código_re": 9, "nombre_reg": "La Araucanía", "código_de": 21, "nombre_dep": "Servicio de Salud Araucanía Sur", "pertenenci": "Perteneciente al Sistema Nacional de Servicios de Salud", "tipo_estab": null, "ámbito_de": "Establecimiento de Salud", "nombre_ofi": null, "certificac": "No Aplica", "dependenci": "Servicio de Salud Araucanía Sur", "nivel_de_a": "Primario", "código_co": "09115", "nombre_com": "PUCÓN", "vía": "Calle", "número": 1424, "dirección": "Ejercito", "teléfono": 0, "fecha_inic": "38716", "tiene_serv": null, "tipo_de_ur": "No Aplica", "tipo_de_sa": null, "latitud": -39.26434, "longitud__": -71.77723, "tipo_de_pr": null, "estado_de": null, "nivel_de_c": "Primario", "modalidad": null, "simbologia": "Atención Primaria de Salud (APS)", "fid_comunas_v1": null, "cut_reg": "9", "cut_prov": "091", "cut_com": "09115", "region": "La Araucanía", "provincia": "CAUTÍN", "comuna": "PUCÓN", "superficie": null }, "geometry": { "type": "Point", "coordinates": [ -71.77723, -39.26434 ] } },
{ "type": "Feature", "properties": { "objectid": 9525, "fid_establecimientos_de_salud": null, "código_an": "21-560", "código_vi": 121560, "código__m": " ", "código_nu": 0, "código_re": 9, "nombre_reg": "La Araucanía", "código_de": 21, "nombre_dep": "Servicio de Salud Araucanía Sur", "pertenenci": "Perteneciente al Sistema Nacional de Servicios de Salud", "tipo_estab": null, "ámbito_de": "Establecimiento de Salud", "nombre_ofi": null, "certificac": "No Aplica", "dependenci": "Servicio de Salud Araucanía Sur", "nivel_de_a": "Primario", "código_co": "09115", "nombre_com": "PUCÓN", "vía": "Calle", "número": 0, "dirección": "Sector Quelhue", "teléfono": 0, "fecha_inic": "38716", "tiene_serv": null, "tipo_de_ur": "No Aplica", "tipo_de_sa": null, "latitud": -39.26109, "longitud__": -71.91999, "tipo_de_pr": null, "estado_de": null, "nivel_de_c": "Primario", "modalidad": null, "simbologia": "Atención Primaria de Salud (APS)", "fid_comunas_v1": null, "cut_reg": "9", "cut_prov": "091", "cut_com": "09115", "region": "La Araucanía", "provincia": "CAUTÍN", "comuna": "PUCÓN", "superficie": null }, "geometry": { "type": "Point", "coordinates": [ -71.91999, -39.26109 ] } },
{ "type": "Feature", "properties": { "objectid": 9529, "fid_establecimientos_de_salud": null, "código_an": "21-586", "código_vi": 121586, "código__m": " ", "código_nu": 0, "código_re": 9, "nombre_reg": "La Araucanía", "código_de": 21, "nombre_dep": "Servicio de Salud Araucanía Sur", "pertenenci": "Perteneciente al Sistema Nacional de Servicios de Salud", "tipo_estab": null, "ámbito_de": "Establecimiento de Salud", "nombre_ofi": null, "certificac": "No Aplica", "dependenci": "Servicio de Salud Araucanía Sur", "nivel_de_a": "Primario", "código_co": "09104", "nombre_com": "CURARREHUE", "vía": "Calle", "número": 0, "dirección": "PUCON", "teléfono": 0, "fecha_inic": "38716", "tiene_serv": null, "tipo_de_ur": "No Aplica", "tipo_de_sa": null, "latitud": -39.21826, "longitud__": -71.4353, "tipo_de_pr": null, "estado_de": null, "nivel_de_c": "Primario", "modalidad": null, "simbologia": "Atención Primaria de Salud (APS)", "fid_comunas_v1": null, "cut_reg": "9", "cut_prov": "091", "cut_com": "09104", "region": "La Araucanía", "provincia": "CAUTÍN", "comuna": "CURARREHUE", "superficie": null }, "geometry": { "type": "Point", "coordinates": [ -71.4353, -39.21826 ] } },
{ "type": "Feature", "properties": { "objectid": 9533, "fid_establecimientos_de_salud": null, "código_an": "21-559", "código_vi": 121559, "código__m": " ", "código_nu": 0, "código_re": 9, "nombre_reg": "La Araucanía", "código_de": 21, "nombre_dep": "Servicio de Salud Araucanía Sur", "pertenenci": "Perteneciente al Sistema Nacional de Servicios de Salud", "tipo_estab": null, "ámbito_de": "Establecimiento de Salud", "nombre_ofi": null, "certificac": "No Aplica", "dependenci": "Servicio de Salud Araucanía Sur", "nivel_de_a": "Primario", "código_co": "09115", "nombre_com": "PUCÓN", "vía": "Calle", "número": 0, "dirección": "Sector Paillaco", "teléfono": 0, "fecha_inic": "38716", "tiene_serv": null, "tipo_de_ur": "No Aplica", "tipo_de_sa": null, "latitud": -39.19671, "longitud__": -71.76048, "tipo_de_pr": null, "estado_de": null, "nivel_de_c": "Primario", "modalidad": null, "simbologia": "Atención Primaria de Salud (APS)", "fid_comunas_v1": null, "cut_reg": "9", "cut_prov": "091", "cut_com": "09115", "region": "La Araucanía", "provincia": "CAUTÍN", "comuna": "PUCÓN", "superficie": null }, "geometry": { "type": "Point", "coordinates": [ -71.76048, -39.19671 ] } },
{ "type": "Feature", "properties": { "objectid": 9535, "fid_establecimientos_de_salud": null, "código_an": "21-587", "código_vi": 121587, "código__m": " ", "código_nu": 0, "código_re": 9, "nombre_reg": "La Araucanía", "código_de": 21, "nombre_dep": "Servicio de Salud Araucanía Sur", "pertenenci": "Perteneciente al Sistema Nacional de Servicios de Salud", "tipo_estab": null, "ámbito_de": "Establecimiento de Salud", "nombre_ofi": null, "certificac": "No Aplica", "dependenci": "Servicio de Salud Araucanía Sur", "nivel_de_a": "Primario", "código_co": "09104", "nombre_com": "CURARREHUE", "vía": "Calle", "número": 0, "dirección": "Camino a Reilgolil", "teléfono": 0, "fecha_inic": "38716", "tiene_serv": null, "tipo_de_ur": "No Aplica", "tipo_de_sa": null, "latitud": -39.18122, "longitud__": -71.47427, "tipo_de_pr": null, "estado_de": null, "nivel_de_c": "Primario", "modalidad": null, "simbologia": "Atención Primaria de Salud (APS)", "fid_comunas_v1": null, "cut_reg": "9", "cut_prov": "091", "cut_com": "09104", "region": "La Araucanía", "provincia": "CAUTÍN", "comuna": "CURARREHUE", "superficie": null }, "geometry": { "type": "Point", "coordinates": [ -71.47427, -39.18122 ] } },
{ "type": "Feature", "properties": { "objectid": 9542, "fid_establecimientos_de_salud": null, "código_an": "21-583", "código_vi": 121583, "código__m": " ", "código_nu": 0, "código_re": 9, "nombre_reg": "La Araucanía", "código_de": 21, "nombre_dep": "Servicio de Salud Araucanía Sur", "pertenenci": "Perteneciente al Sistema Nacional de Servicios de Salud", "tipo_estab": null, "ámbito_de": "Establecimiento de Salud", "nombre_ofi": null, "certificac": "No Aplica", "dependenci": "Servicio de Salud Araucanía Sur", "nivel_de_a": "Primario", "código_co": "09104", "nombre_com": "CURARREHUE", "vía": "Calle", "número": 0, "dirección": "Sector Reigolil", "teléfono": 0, "fecha_inic": "38716", "tiene_serv": null, "tipo_de_ur": "No Aplica", "tipo_de_sa": null, "latitud": -39.11739, "longitud__": -71.47434, "tipo_de_pr": null, "estado_de": null, "nivel_de_c": "Primario", "modalidad": null, "simbologia": "Atención Primaria de Salud (APS)", "fid_comunas_v1": null, "cut_reg": "9", "cut_prov": "091", "cut_com": "09104", "region": "La Araucanía", "provincia": "CAUTÍN", "comuna": "CURARREHUE", "superficie": null }, "geometry": { "type": "Point", "coordinates": [ -71.47434, -39.11739 ] } },
{ "type": "Feature", "properties": { "objectid": 9556, "fid_establecimientos_de_salud": null, "código_an": "21-494", "código_vi": 121494, "código__m": " ", "código_nu": 0, "código_re": 9, "nombre_reg": "La Araucanía", "código_de": 21, "nombre_dep": "Servicio de Salud Araucanía Sur", "pertenenci": "Perteneciente al Sistema Nacional de Servicios de Salud", "tipo_estab": null, "ámbito_de": "Establecimiento de Salud", "nombre_ofi": null, "certificac": "No Aplica", "dependenci": "Servicio de Salud Araucanía Sur", "nivel_de_a": "Primario", "código_co": "09103", "nombre_com": "CUNCO", "vía": "Calle", "número": 0, "dirección": "Sector Quecheregue", "teléfono": 0, "fecha_inic": "38716", "tiene_serv": null, "tipo_de_ur": "No Aplica", "tipo_de_sa": null, "latitud": -38.99723, "longitud__": -72.04485, "tipo_de_pr": null, "estado_de": null, "nivel_de_c": "Primario", "modalidad": null, "simbologia": "Atención Primaria de Salud (APS)", "fid_comunas_v1": null, "cut_reg": "9", "cut_prov": "091", "cut_com": "09103", "region": "La Araucanía", "provincia": "CAUTÍN", "comuna": "CUNCO", "superficie": null }, "geometry": { "type": "Point", "coordinates": [ -72.04485, -38.99723 ] } },
{ "type": "Feature", "properties": { "objectid": 9577, "fid_establecimientos_de_salud": null, "código_an": "21-919", "código_vi": 200383, "código__m": "21-326", "código_nu": 121326, "código_re": 9, "nombre_reg": "La Araucanía", "código_de": 21, "nombre_dep": "Servicio de Salud Araucanía Sur", "pertenenci": "Perteneciente al Sistema Nacional de Servicios de Salud", "tipo_estab": null, "ámbito_de": "Establecimiento de Salud", "nombre_ofi": null, "certificac": "No Aplica", "dependenci": "Servicio de Salud Araucanía Sur", "nivel_de_a": "Primario", "código_co": "09103", "nombre_com": "CUNCO", "vía": "Calle", "número": 1871, "dirección": "Parque Nahuelbuta, Villa los Parques", "teléfono": 0, "fecha_inic": "43018", "tiene_serv": null, "tipo_de_ur": "No Aplica", "tipo_de_sa": null, "latitud": -38.94465, "longitud__": -72.03505, "tipo_de_pr": null, "estado_de": null, "nivel_de_c": "Primario", "modalidad": null, "simbologia": "Atención Primaria de Salud (APS)", "fid_comunas_v1": null, "cut_reg": "9", "cut_prov": "091", "cut_com": "09103", "region": "La Araucanía", "provincia": "CAUTÍN", "comuna": "CUNCO", "superficie": null }, "geometry": { "type": "Point", "coordinates": [ -72.03505, -38.94465 ] } },
{ "type": "Feature", "properties": { "objectid": 9580, "fid_establecimientos_de_salud": null, "código_an": "21-113", "código_vi": 121113, "código__m": " ", "código_nu": 0, "código_re": 9, "nombre_reg": "La Araucanía", "código_de": 21, "nombre_dep": "Servicio de Salud Araucanía Sur", "pertenenci": "Perteneciente al Sistema Nacional de Servicios de Salud", "tipo_estab": null, "ámbito_de": "Establecimiento de Salud", "nombre_ofi": null, "certificac": "No Aplica", "dependenci": "Servicio de Salud Araucanía Sur", "nivel_de_a": "Pendiente", "código_co": "09103", "nombre_com": "CUNCO", "vía": "Avenida", "número": 31, "dirección": "Santa María", "teléfono": 452552050, "fecha_inic": "26665", "tiene_serv": null, "tipo_de_ur": "Urgencia Hospitalaria (UEH)", "tipo_de_sa": null, "latitud": -38.93094, "longitud__": -72.03761, "tipo_de_pr": null, "estado_de": null, "nivel_de_c": "Pendiente", "modalidad": null, "simbologia": "Hospitales y Unidades de Hospitalización", "fid_comunas_v1": null, "cut_reg": "9", "cut_prov": "091", "cut_com": "09103", "region": "La Araucanía", "provincia": "CAUTÍN", "comuna": "CUNCO", "superficie": null }, "geometry": { "type": "Point", "coordinates": [ -72.03761, -38.93094 ] } },
{ "type": "Feature", "properties": { "objectid": 9586, "fid_establecimientos_de_salud": null, "código_an": "21-492", "código_vi": 121492, "código__m": " ", "código_nu": 0, "código_re": 9, "nombre_reg": "La Araucanía", "código_de": 21, "nombre_dep": "Servicio de Salud Araucanía Sur", "pertenenci": "Perteneciente al Sistema Nacional de Servicios de Salud", "tipo_estab": null, "ámbito_de": "Establecimiento de Salud", "nombre_ofi": null, "certificac": "No Aplica", "dependenci": "Servicio de Salud Araucanía Sur", "nivel_de_a": "Primario", "código_co": "09103", "nombre_com": "CUNCO", "vía": "Calle", "número": 0, "dirección": "Caserío Villa García", "teléfono": 0, "fecha_inic": "38716", "tiene_serv": null, "tipo_de_ur": "No Aplica", "tipo_de_sa": null, "latitud": -38.90106, "longitud__": -71.91998, "tipo_de_pr": null, "estado_de": null, "nivel_de_c": "Primario", "modalidad": null, "simbologia": "Atención Primaria de Salud (APS)", "fid_comunas_v1": null, "cut_reg": "9", "cut_prov": "091", "cut_com": "09103", "region": "La Araucanía", "provincia": "CAUTÍN", "comuna": "CUNCO", "superficie": null }, "geometry": { "type": "Point", "coordinates": [ -71.91998, -38.90106 ] } },
{ "type": "Feature", "properties": { "objectid": 9588, "fid_establecimientos_de_salud": null, "código_an": "21-570", "código_vi": 121570, "código__m": " ", "código_nu": 0, "código_re": 9, "nombre_reg": "La Araucanía", "código_de": 21, "nombre_dep": "Servicio de Salud Araucanía Sur", "pertenenci": "Perteneciente al Sistema Nacional de Servicios de Salud", "tipo_estab": null, "ámbito_de": "Establecimiento de Salud", "nombre_ofi": null, "certificac": "No Aplica", "dependenci": "Servicio de Salud Araucanía Sur", "nivel_de_a": "Primario", "código_co": "09110", "nombre_com": "MELIPEUCO", "vía": "Calle", "número": 0, "dirección": "Sector Santa María Llaima", "teléfono": 0, "fecha_inic": "38716", "tiene_serv": null, "tipo_de_ur": "No Aplica", "tipo_de_sa": null, "latitud": -38.883859, "longitud__": -71.754691, "tipo_de_pr": null, "estado_de": null, "nivel_de_c": "Primario", "modalidad": null, "simbologia": "Atención Primaria de Salud (APS)", "fid_comunas_v1": null, "cut_reg": "9", "cut_prov": "091", "cut_com": "09110", "region": "La Araucanía", "provincia": "CAUTÍN", "comuna": "MELIPEUCO", "superficie": null }, "geometry": { "type": "Point", "coordinates": [ -71.75469, -38.88386 ] } },
{ "type": "Feature", "properties": { "objectid": 9590, "fid_establecimientos_de_salud": null, "código_an": "21-571", "código_vi": 121571, "código__m": " ", "código_nu": 0, "código_re": 9, "nombre_reg": "La Araucanía", "código_de": 21, "nombre_dep": "Servicio de Salud Araucanía Sur", "pertenenci": "Perteneciente al Sistema Nacional de Servicios de Salud", "tipo_estab": null, "ámbito_de": "Establecimiento de Salud", "nombre_ofi": null, "certificac": "No Aplica", "dependenci": "Servicio de Salud Araucanía Sur", "nivel_de_a": "Primario", "código_co": "09110", "nombre_com": "MELIPEUCO", "vía": "Calle", "número": 0, "dirección": "Sector Alto Carén", "teléfono": 0, "fecha_inic": "38716", "tiene_serv": null, "tipo_de_ur": "No Aplica", "tipo_de_sa": null, "latitud": -38.880756, "longitud__": -71.52936, "tipo_de_pr": null, "estado_de": null, "nivel_de_c": "Primario", "modalidad": null, "simbologia": "Atención Primaria de Salud (APS)", "fid_comunas_v1": null, "cut_reg": "9", "cut_prov": "091", "cut_com": "09110", "region": "La Araucanía", "provincia": "CAUTÍN", "comuna": "MELIPEUCO", "superficie": null }, "geometry": { "type": "Point", "coordinates": [ -71.52936, -38.88076 ] } },
{ "type": "Feature", "properties": { "objectid": 9995, "fid_establecimientos_de_salud": null, "código_an": "21-311", "código_vi": 121311, "código__m": " ", "código_nu": 0, "código_re": 9, "nombre_reg": "La Araucanía", "código_de": 21, "nombre_dep": "Servicio de Salud Araucanía Sur", "pertenenci": "Perteneciente al Sistema Nacional de Servicios de Salud", "tipo_estab": null, "ámbito_de": "Establecimiento de Salud", "nombre_ofi": null, "certificac": "Centro de Salud Familiar", "dependenci": "Servicio de Salud Araucanía Sur", "nivel_de_a": "Primario", "código_co": "09110", "nombre_com": "MELIPEUCO", "vía": "Calle", "número": 14, "dirección": "Pedro Aguirre Cerda", "teléfono": 452581051, "fecha_inic": "33878", "tiene_serv": null, "tipo_de_ur": "No Aplica", "tipo_de_sa": null, "latitud": -38.85498, "longitud__": -71.69824, "tipo_de_pr": null, "estado_de": null, "nivel_de_c": "Primario", "modalidad": null, "simbologia": "Atención Primaria de Salud (APS)", "fid_comunas_v1": null, "cut_reg": "9", "cut_prov": "091", "cut_com": "09110", "region": "La Araucanía", "provincia": "CAUTÍN", "comuna": "MELIPEUCO", "superficie": null }, "geometry": { "type": "Point", "coordinates": [ -71.69824, -38.85498 ] } },
{ "type": "Feature", "properties": { "objectid": 9996, "fid_establecimientos_de_salud": null, "código_an": "21-941", "código_vi": 200944, "código__m": "21-311", "código_nu": 121311, "código_re": 9, "nombre_reg": "La Araucanía", "código_de": 21, "nombre_dep": "Servicio de Salud Araucanía Sur", "pertenenci": "Perteneciente al Sistema Nacional de Servicios de Salud", "tipo_estab": null, "ámbito_de": "Establecimiento de Salud", "nombre_ofi": null, "certificac": "No Aplica", "dependenci": "Servicio de Salud Araucanía Sur", "nivel_de_a": "Primario", "código_co": "09110", "nombre_com": "MELIPEUCO", "vía": "Calle", "número": 14, "dirección": "Pedro Aguirre Cerda", "teléfono": 452581051, "fecha_inic": "38716", "tiene_serv": null, "tipo_de_ur": "Urgencia Ambulatoria (SUR)", "tipo_de_sa": null, "latitud": -38.854976, "longitud__": -71.698239, "tipo_de_pr": null, "estado_de": null, "nivel_de_c": "Primario", "modalidad": null, "simbologia": "Servicios de Urgencia de Atención Primaria", "fid_comunas_v1": null, "cut_reg": "9", "cut_prov": "091", "cut_com": "09110", "region": "La Araucanía", "provincia": "CAUTÍN", "comuna": "MELIPEUCO", "superficie": null }, "geometry": { "type": "Point", "coordinates": [ -71.69824, -38.85498 ] } },
{ "type": "Feature", "properties": { "objectid": 9997, "fid_establecimientos_de_salud": null, "código_an": "21-572", "código_vi": 121572, "código__m": " ", "código_nu": 0, "código_re": 9, "nombre_reg": "La Araucanía", "código_de": 21, "nombre_dep": "Servicio de Salud Araucanía Sur", "pertenenci": "Perteneciente al Sistema Nacional de Servicios de Salud", "tipo_estab": null, "ámbito_de": "Establecimiento de Salud", "nombre_ofi": null, "certificac": "No Aplica", "dependenci": "Servicio de Salud Araucanía Sur", "nivel_de_a": "Primario", "código_co": "09110", "nombre_com": "MELIPEUCO", "vía": "Calle", "número": 0, "dirección": "Sector Cumcumllaque", "teléfono": 0, "fecha_inic": "38716", "tiene_serv": null, "tipo_de_ur": "No Aplica", "tipo_de_sa": null, "latitud": -38.85453, "longitud__": -71.60633, "tipo_de_pr": null, "estado_de": null, "nivel_de_c": "Primario", "modalidad": null, "simbologia": "Atención Primaria de Salud (APS)", "fid_comunas_v1": null, "cut_reg": "9", "cut_prov": "091", "cut_com": "09110", "region": "La Araucanía", "provincia": "CAUTÍN", "comuna": "MELIPEUCO", "superficie": null }, "geometry": { "type": "Point", "coordinates": [ -71.60633, -38.85453 ] } },
{ "type": "Feature", "properties": { "objectid": 10009, "fid_establecimientos_de_salud": null, "código_an": "29-451", "código_vi": 129451, "código__m": " ", "código_nu": 0, "código_re": 9, "nombre_reg": "La Araucanía", "código_de": 29, "nombre_dep": "Servicio de Salud Araucanía Norte", "pertenenci": "Perteneciente al Sistema Nacional de Servicios de Salud", "tipo_estab": null, "ámbito_de": "Establecimiento de Salud", "nombre_ofi": null, "certificac": "No Aplica", "dependenci": "Servicio de Salud Araucanía Norte", "nivel_de_a": "Primario", "código_co": "09205", "nombre_com": "LONQUIMAY", "vía": "Calle", "número": 0, "dirección": "Sector Icalma", "teléfono": 0, "fecha_inic": "38716", "tiene_serv": null, "tipo_de_ur": "No Aplica", "tipo_de_sa": null, "latitud": -38.81402, "longitud__": -71.28119, "tipo_de_pr": null, "estado_de": null, "nivel_de_c": "Primario", "modalidad": null, "simbologia": "Atención Primaria de Salud (APS)", "fid_comunas_v1": null, "cut_reg": "9", "cut_prov": "092", "cut_com": "09205", "region": "La Araucanía", "provincia": "MALLECO", "comuna": "LONQUIMAY", "superficie": null }, "geometry": { "type": "Point", "coordinates": [ -71.28119, -38.81402 ] } },
{ "type": "Feature", "properties": { "objectid": 10139, "fid_establecimientos_de_salud": null, "código_an": "29-450", "código_vi": 129450, "código__m": " ", "código_nu": 0, "código_re": 9, "nombre_reg": "La Araucanía", "código_de": 29, "nombre_dep": "Servicio de Salud Araucanía Norte", "pertenenci": "Perteneciente al Sistema Nacional de Servicios de Salud", "tipo_estab": null, "ámbito_de": "Establecimiento de Salud", "nombre_ofi": null, "certificac": "No Aplica", "dependenci": "Servicio de Salud Araucanía Norte", "nivel_de_a": "Primario", "código_co": "09205", "nombre_com": "LONQUIMAY", "vía": "Calle", "número": 0, "dirección": "Caserío de Sierra Nevada", "teléfono": 0, "fecha_inic": "38716", "tiene_serv": null, "tipo_de_ur": "No Aplica", "tipo_de_sa": null, "latitud": -38.56314, "longitud__": -71.47661, "tipo_de_pr": null, "estado_de": null, "nivel_de_c": "Primario", "modalidad": null, "simbologia": "Atención Primaria de Salud (APS)", "fid_comunas_v1": null, "cut_reg": "9", "cut_prov": "092", "cut_com": "09205", "region": "La Araucanía", "provincia": "MALLECO", "comuna": "LONQUIMAY", "superficie": null }, "geometry": { "type": "Point", "coordinates": [ -71.47661, -38.56314 ] } },
{ "type": "Feature", "properties": { "objectid": 12834, "fid_establecimientos_de_salud": null, "código_an": "201472", "código_vi": 201472, "código__m": " ", "código_nu": 0, "código_re": 9, "nombre_reg": "La Araucanía", "código_de": 21, "nombre_dep": "Servicio de Salud Araucanía Sur", "pertenenci": "Perteneciente al Sistema Nacional de Servicios de Salud", "tipo_estab": null, "ámbito_de": "Establecimiento de Salud", "nombre_ofi": null, "certificac": "No Aplica", "dependenci": "Servicio de Salud Araucanía Sur", "nivel_de_a": "Primario", "código_co": "09115", "nombre_com": "PUCÓN", "vía": "Otro", "número": 0, "dirección": "Caburga Km. 17,5", "teléfono": 0, "fecha_inic": "45289", "tiene_serv": null, "tipo_de_ur": "No Aplica", "tipo_de_sa": null, "latitud": -39.234533, "longitud__": -71.824486, "tipo_de_pr": null, "estado_de": null, "nivel_de_c": "Primario", "modalidad": null, "simbologia": "Atención Primaria de Salud (APS)", "fid_comunas_v1": null, "cut_reg": "9", "cut_prov": "091", "cut_com": "09115", "region": "La Araucanía", "provincia": "CAUTÍN", "comuna": "PUCÓN", "superficie": null }, "geometry": { "type": "Point", "coordinates": [ -71.82449, -39.23453 ] } },
{ "type": "Feature", "properties": { "objectid": 12848, "fid_establecimientos_de_salud": null, "código_an": "201486", "código_vi": 201486, "código__m": " ", "código_nu": 0, "código_re": 9, "nombre_reg": "La Araucanía", "código_de": 21, "nombre_dep": "Servicio de Salud Araucanía Sur", "pertenenci": "Perteneciente al Sistema Nacional de Servicios de Salud", "tipo_estab": null, "ámbito_de": "Establecimiento de Salud", "nombre_ofi": null, "certificac": "No Aplica", "dependenci": "Servicio de Salud Araucanía Sur", "nivel_de_a": "Primario", "código_co": "09115", "nombre_com": "PUCÓN", "vía": "Otro", "número": 0, "dirección": "Caburga Km. 17,5", "teléfono": 0, "fecha_inic": null, "tiene_serv": null, "tipo_de_ur": "Urgencia ambulatoria (SUR)", "tipo_de_sa": null, "latitud": -39.234574, "longitud__": -71.824522, "tipo_de_pr": null, "estado_de": null, "nivel_de_c": "Primario", "modalidad": null, "simbologia": "Servicios de Urgencia de Atención Primaria", "fid_comunas_v1": null, "cut_reg": "9", "cut_prov": "091", "cut_com": "09115", "region": "La Araucanía", "provincia": "CAUTÍN", "comuna": "PUCÓN", "superficie": null }, "geometry": { "type": "Point", "coordinates": [ -71.82452, -39.23457 ] } },
{ "type": "Feature", "properties": { "objectid": 12850, "fid_establecimientos_de_salud": null, "código_an": "201488", "código_vi": 201488, "código__m": " ", "código_nu": 0, "código_re": 9, "nombre_reg": "La Araucanía", "código_de": 29, "nombre_dep": "Servicio de Salud Araucanía Norte", "pertenenci": "Perteneciente al Sistema Nacional de Servicios de Salud", "tipo_estab": null, "ámbito_de": "Establecimiento de Salud", "nombre_ofi": null, "certificac": "No Aplica", "dependenci": "Servicio de Salud Araucanía Norte", "nivel_de_a": "Primario", "código_co": "09205", "nombre_com": "LONQUIMAY", "vía": "Otro", "número": 0, "dirección": "sector Huallen Mapu", "teléfono": 0, "fecha_inic": null, "tiene_serv": null, "tipo_de_ur": "No Aplica", "tipo_de_sa": null, "latitud": -38.708478, "longitud__": -71.217513, "tipo_de_pr": null, "estado_de": null, "nivel_de_c": "Primario", "modalidad": null, "simbologia": "Atención Primaria de Salud (APS)", "fid_comunas_v1": null, "cut_reg": "9", "cut_prov": "092", "cut_com": "09205", "region": "La Araucanía", "provincia": "MALLECO", "comuna": "LONQUIMAY", "superficie": null }, "geometry": { "type": "Point", "coordinates": [ -71.21751, -38.70848 ] } },
{ "type": "Feature", "properties": { "objectid": 13075, "fid_establecimientos_de_salud": null, "código_an": "201717", "código_vi": 201717, "código__m": " ", "código_nu": 0, "código_re": 9, "nombre_reg": "La Araucanía", "código_de": 29, "nombre_dep": "Servicio de Salud Araucanía Norte", "pertenenci": "Perteneciente al Sistema Nacional de Servicios de Salud", "tipo_estab": null, "ámbito_de": "Establecimiento de Salud", "nombre_ofi": null, "certificac": "No Aplica", "dependenci": "Servicio de Salud Araucanía Norte", "nivel_de_a": "Primario", "código_co": "09205", "nombre_com": "LONQUIMAY", "vía": "Otro", "número": 0, "dirección": "Sector Icalma S/N", "teléfono": 0, "fecha_inic": "45536", "tiene_serv": null, "tipo_de_ur": "Urgencia Ambulatoria (SUR)", "tipo_de_sa": null, "latitud": -38.814076, "longitud__": -71.281172, "tipo_de_pr": null, "estado_de": null, "nivel_de_c": "Primario", "modalidad": null, "simbologia": "Servicios de Urgencia de Atención Primaria", "fid_comunas_v1": null, "cut_reg": "9", "cut_prov": "092", "cut_com": "09205", "region": "La Araucanía", "provincia": "MALLECO", "comuna": "LONQUIMAY", "superficie": null }, "geometry": { "type": "Point", "coordinates": [ -71.28117, -38.81408 ] } }
]
}
