{
"type": "FeatureCollection",
"name": "TAT",
"crs": { "type": "name", "properties": { "name": "urn:ogc:def:crs:OGC:1.3:CRS84" } },
"xy_coordinate_resolution": 1e-05,
"features": [
{ "type": "Feature", "properties": { "objectid": 13208, "fid_establecimientos_de_salud": null, "código_an": "02-415", "código_vi": 102415, "código__m": " ", "código_nu": 0, "código_re": 1, "nombre_reg": "Tarapacá", "código_de": 2, "nombre_dep": "Servicio de Salud Tarapacá", "pertenenci": "Perteneciente al Sistema Nacional de Servicios de Salud", "tipo_estab": null, "ámbito_de": "Establecimiento de Salud", "nombre_ofi": null, "certificac": "No Aplica", "dependenci": "Servicio de Salud Tarapacá", "nivel_de_a": "Primario", "código_co": "01403", "nombre_com": "COLCHANE", "vía": "Calle", "número": 0, "dirección": "Sector de Cariquima", "teléfono": 0, "fecha_inic": "38716", "tiene_serv": null, "tipo_de_ur": "No Aplica", "tipo_de_sa": null, "latitud": -19.4692, "longitud__": -68.64482, "tipo_de_pr": null, "estado_de": null, "nivel_de_c": "Primario", "modalidad": null, "simbologia": "Atención Primaria de Salud (APS)", "fid_comunas_v1": null, "cut_reg": "1", "cut_prov": "014", "cut_com": "01403", "region": "Tarapacá", "provincia": "TAMARUGAL", "comuna": "COLCHANE", "superficie": null }, "geometry": { "type": "Point", "coordinates": [ -68.64482, -19.4692 ] } },
{ "type": "Feature", "properties": { "objectid": 13209, "fid_establecimientos_de_salud": null, "código_an": "02-919", "código_vi": 200753, "código__m": "02-415", "código_nu": 102415, "código_re": 1, "nombre_reg": "Tarapacá", "código_de": 2, "nombre_dep": "Servicio de Salud Tarapacá", "pertenenci": "Perteneciente al Sistema Nacional de Servicios de Salud", "tipo_estab": null, "ámbito_de": "Establecimiento de Salud", "nombre_ofi": null, "certificac": "No Aplica", "dependenci": "Servicio de Salud Tarapacá", "nivel_de_a": "Primario", "código_co": "01403", "nombre_com": "COLCHANE", "vía": "Calle", "número": 0, "dirección": "Sector de Cariquima", "teléfono": 0, "fecha_inic": "38716", "tiene_serv": null, "tipo_de_ur": "Urgencia Ambulatoria (SUR)", "tipo_de_sa": null, "latitud": -19.469182, "longitud__": -68.644846, "tipo_de_pr": null, "estado_de": null, "nivel_de_c": "Primario", "modalidad": null, "simbologia": "Servicios de Urgencia de Atención Primaria", "fid_comunas_v1": null, "cut_reg": "1", "cut_prov": "014", "cut_com": "01403", "region": "Tarapacá", "provincia": "TAMARUGAL", "comuna": "COLCHANE", "superficie": null }, "geometry": { "type": "Point", "coordinates": [ -68.64485, -19.46918 ] } },
{ "type": "Feature", "properties": { "objectid": 13213, "fid_establecimientos_de_salud": null, "código_an": "02-918", "código_vi": 200752, "código__m": "02-310", "código_nu": 102310, "código_re": 1, "nombre_reg": "Tarapacá", "código_de": 2, "nombre_dep": "Servicio de Salud Tarapacá", "pertenenci": "Perteneciente al Sistema Nacional de Servicios de Salud", "tipo_estab": null, "ámbito_de": "Establecimiento de Salud", "nombre_ofi": null, "certificac": "No Aplica", "dependenci": "Servicio de Salud Tarapacá", "nivel_de_a": "Primario", "código_co": "01403", "nombre_com": "COLCHANE", "vía": "Calle", "número": 0, "dirección": "Sector de Colchane", "teléfono": 0, "fecha_inic": "38716", "tiene_serv": null, "tipo_de_ur": "Urgencia Ambulatoria (SUR)", "tipo_de_sa": null, "latitud": -19.276089, "longitud__": -68.636574, "tipo_de_pr": null, "estado_de": null, "nivel_de_c": "Primario", "modalidad": null, "simbologia": "Servicios de Urgencia de Atención Primaria", "fid_comunas_v1": null, "cut_reg": "1", "cut_prov": "014", "cut_com": "01403", "region": "Tarapacá", "provincia": "TAMARUGAL", "comuna": "COLCHANE", "superficie": null }, "geometry": { "type": "Point", "coordinates": [ -68.63657, -19.27609 ] } },
{ "type": "Feature", "properties": { "objectid": 13214, "fid_establecimientos_de_salud": null, "código_an": "02-310", "código_vi": 102310, "código__m": " ", "código_nu": 0, "código_re": 1, "nombre_reg": "Tarapacá", "código_de": 2, "nombre_dep": "Servicio de Salud Tarapacá", "pertenenci": "Perteneciente al Sistema Nacional de Servicios de Salud", "tipo_estab": null, "ámbito_de": "Establecimiento de Salud", "nombre_ofi": null, "certificac": "Centro de Salud Familiar", "dependenci": "Servicio de Salud Tarapacá", "nivel_de_a": "Primario", "código_co": "01403", "nombre_com": "COLCHANE", "vía": "Calle", "número": 0, "dirección": "Sector de Colchane", "teléfono": 0, "fecha_inic": "38716", "tiene_serv": null, "tipo_de_ur": "No Aplica", "tipo_de_sa": null, "latitud": -19.27507, "longitud__": -68.64021, "tipo_de_pr": null, "estado_de": null, "nivel_de_c": "Primario", "modalidad": null, "simbologia": "Atención Primaria de Salud (APS)", "fid_comunas_v1": null, "cut_reg": "1", "cut_prov": "014", "cut_com": "01403", "region": "Tarapacá", "provincia": "TAMARUGAL", "comuna": "COLCHANE", "superficie": null }, "geometry": { "type": "Point", "coordinates": [ -68.64021, -19.27507 ] } },
{ "type": "Feature", "properties": { "objectid": 13215, "fid_establecimientos_de_salud": null, "código_an": "02-409", "código_vi": 102409, "código__m": " ", "código_nu": 0, "código_re": 1, "nombre_reg": "Tarapacá", "código_de": 2, "nombre_dep": "Servicio de Salud Tarapacá", "pertenenci": "Perteneciente al Sistema Nacional de Servicios de Salud", "tipo_estab": null, "ámbito_de": "Establecimiento de Salud", "nombre_ofi": null, "certificac": "No Aplica", "dependenci": "Servicio de Salud Tarapacá", "nivel_de_a": "Primario", "código_co": "01403", "nombre_com": "COLCHANE", "vía": "Calle", "número": 0, "dirección": "Sector Enquelga", "teléfono": 0, "fecha_inic": "38716", "tiene_serv": null, "tipo_de_ur": "No Aplica", "tipo_de_sa": null, "latitud": -19.22906, "longitud__": -68.804202, "tipo_de_pr": null, "estado_de": null, "nivel_de_c": "Primario", "modalidad": null, "simbologia": "Atención Primaria de Salud (APS)", "fid_comunas_v1": null, "cut_reg": "1", "cut_prov": "014", "cut_com": "01403", "region": "Tarapacá", "provincia": "TAMARUGAL", "comuna": "COLCHANE", "superficie": null }, "geometry": { "type": "Point", "coordinates": [ -68.8042, -19.22906 ] } }
]
}
