{
"type": "FeatureCollection",
"name": "TIN",
"crs": { "type": "name", "properties": { "name": "urn:ogc:def:crs:OGC:1.3:CRS84" } },
"xy_coordinate_resolution": 1e-05,
"features": [
{ "type": "Feature", "properties": { "objectid": 9934, "fid_establecimientos_de_salud": null, "código_an": "16-410", "código_vi": 116410, "código__m": " ", "código_nu": 0, "código_re": 7, "nombre_reg": "Maule", "código_de": 16, "nombre_dep": "Servicio de Salud Del Maule", "pertenenci": "Perteneciente al Sistema Nacional de Servicios de Salud", "tipo_estab": null, "ámbito_de": "Establecimiento de Salud", "nombre_ofi": null, "certificac": "No Aplica", "dependenci": "Servicio de Salud Del Maule", "nivel_de_a": "Primario", "código_co": "07306", "nombre_com": "ROMERAL", "vía": "Calle", "número": 0, "dirección": "Aldea Los Queñes", "teléfono": 0, "fecha_inic": "38716", "tiene_serv": null, "tipo_de_ur": "No Aplica", "tipo_de_sa": null, "latitud": -34.99898, "longitud__": -70.81315, "tipo_de_pr": null, "estado_de": null, "nivel_de_c": "Primario", "modalidad": null, "simbologia": "Atención Primaria de Salud (APS)", "fid_comunas_v1": null, "cut_reg": "7", "cut_prov": "073", "cut_com": "07306", "region": "Maule", "provincia": "CURICÓ", "comuna": "ROMERAL", "superficie": null }, "geometry": { "type": "Point", "coordinates": [ -70.81315, -34.99898 ] } },
{ "type": "Feature", "properties": { "objectid": 11233, "fid_establecimientos_de_salud": null, "código_an": "15-434", "código_vi": 115434, "código__m": " ", "código_nu": 0, "código_re": 6, "nombre_reg": "Libertador General Bernardo O'Higgins", "código_de": 15, "nombre_dep": "Servicio de Salud Del Libertador B.O'Higgins", "pertenenci": "Perteneciente al Sistema Nacional de Servicios de Salud", "tipo_estab": null, "ámbito_de": "Establecimiento de Salud", "nombre_ofi": null, "certificac": "No Aplica", "dependenci": "Servicio de Salud Del Libertador B.O'Higgins", "nivel_de_a": "Primario", "código_co": "06301", "nombre_com": "SAN FERNANDO", "vía": "Calle", "número": 0, "dirección": "Camino Internacional, Aldea Puente Negro", "teléfono": 0, "fecha_inic": "38716", "tiene_serv": null, "tipo_de_ur": "No Aplica", "tipo_de_sa": null, "latitud": -34.685018, "longitud__": -70.873413, "tipo_de_pr": null, "estado_de": null, "nivel_de_c": "Primario", "modalidad": null, "simbologia": "Atención Primaria de Salud (APS)", "fid_comunas_v1": null, "cut_reg": "6", "cut_prov": "063", "cut_com": "06301", "region": "Libertador General Bernardo O'Higgins", "provincia": "COLCHAGUA", "comuna": "SAN FERNANDO", "superficie": null }, "geometry": { "type": "Point", "coordinates": [ -70.87341, -34.68502 ] } },
{ "type": "Feature", "properties": { "objectid": 11242, "fid_establecimientos_de_salud": null, "código_an": "15-436", "código_vi": 115436, "código__m": " ", "código_nu": 0, "código_re": 6, "nombre_reg": "Libertador General Bernardo O'Higgins", "código_de": 15, "nombre_dep": "Servicio de Salud Del Libertador B.O'Higgins", "pertenenci": "Perteneciente al Sistema Nacional de Servicios de Salud", "tipo_estab": null, "ámbito_de": "Establecimiento de Salud", "nombre_ofi": null, "certificac": "No Aplica", "dependenci": "Servicio de Salud Del Libertador B.O'Higgins", "nivel_de_a": "Primario", "código_co": "06301", "nombre_com": "SAN FERNANDO", "vía": "Calle", "número": 0, "dirección": "J. Fernández", "teléfono": 0, "fecha_inic": "38716", "tiene_serv": null, "tipo_de_ur": "No Aplica", "tipo_de_sa": null, "latitud": -34.650289, "longitud__": -70.852744, "tipo_de_pr": null, "estado_de": null, "nivel_de_c": "Primario", "modalidad": null, "simbologia": "Atención Primaria de Salud (APS)", "fid_comunas_v1": null, "cut_reg": "6", "cut_prov": "063", "cut_com": "06301", "region": "Libertador General Bernardo O'Higgins", "provincia": "COLCHAGUA", "comuna": "SAN FERNANDO", "superficie": null }, "geometry": { "type": "Point", "coordinates": [ -70.85274, -34.65029 ] } }
]
}
