{
"type": "FeatureCollection",
"name": "TRO",
"crs": { "type": "name", "properties": { "name": "urn:ogc:def:crs:OGC:1.3:CRS84" } },
"xy_coordinate_resolution": 1e-05,
"features": [
{ "type": "Feature", "properties": { "objectid": 9111, "fid_establecimientos_de_salud": null, "código_an": "24-416", "código_vi": 124416, "código__m": " ", "código_nu": 0, "código_re": 10, "nombre_reg": "Los Lagos", "código_de": 24, "nombre_dep": "Servicio de Salud Del Reloncaví", "pertenenci": "Perteneciente al Sistema Nacional de Servicios de Salud", "tipo_estab": null, "ámbito_de": "Establecimiento de Salud", "nombre_ofi": null, "certificac": "No Aplica", "dependenci": "Servicio de Salud Del Reloncaví", "nivel_de_a": "Primario", "código_co": "10103", "nombre_com": "COCHAMÓ", "vía": "Calle", "número": 0, "dirección": "Sector Paso El León", "teléfono": 0, "fecha_inic": "38716", "tiene_serv": null, "tipo_de_ur": "No Aplica", "tipo_de_sa": null, "latitud": -41.503958, "longitud__": -71.85773, "tipo_de_pr": null, "estado_de": null, "nivel_de_c": "Primario", "modalidad": null, "simbologia": "Atención Primaria de Salud (APS)", "fid_comunas_v1": null, "cut_reg": "10", "cut_prov": "101", "cut_com": "10103", "region": "Los Lagos", "provincia": "LLANQUIHUE", "comuna": "COCHAMÓ", "superficie": null }, "geometry": { "type": "Point", "coordinates": [ -71.85773, -41.50396 ] } },
{ "type": "Feature", "properties": { "objectid": 9185, "fid_establecimientos_de_salud": null, "código_an": "24-426", "código_vi": 124426, "código__m": " ", "código_nu": 0, "código_re": 10, "nombre_reg": "Los Lagos", "código_de": 24, "nombre_dep": "Servicio de Salud Del Reloncaví", "pertenenci": "Perteneciente al Sistema Nacional de Servicios de Salud", "tipo_estab": null, "ámbito_de": "Establecimiento de Salud", "nombre_ofi": null, "certificac": "No Aplica", "dependenci": "Servicio de Salud Del Reloncaví", "nivel_de_a": "Primario", "código_co": "10109", "nombre_com": "PUERTO VARAS", "vía": "Calle", "número": 0, "dirección": "Sector Ralún", "teléfono": 0, "fecha_inic": "38716", "tiene_serv": null, "tipo_de_ur": "No Aplica", "tipo_de_sa": null, "latitud": -41.38861, "longitud__": -72.32793, "tipo_de_pr": null, "estado_de": null, "nivel_de_c": "Primario", "modalidad": null, "simbologia": "Atención Primaria de Salud (APS)", "fid_comunas_v1": null, "cut_reg": "10", "cut_prov": "101", "cut_com": "10109", "region": "Los Lagos", "provincia": "LLANQUIHUE", "comuna": "PUERTO VARAS", "superficie": null }, "geometry": { "type": "Point", "coordinates": [ -72.32793, -41.38861 ] } },
{ "type": "Feature", "properties": { "objectid": 9211, "fid_establecimientos_de_salud": null, "código_an": "24-424", "código_vi": 124424, "código__m": " ", "código_nu": 0, "código_re": 10, "nombre_reg": "Los Lagos", "código_de": 24, "nombre_dep": "Servicio de Salud Del Reloncaví", "pertenenci": "Perteneciente al Sistema Nacional de Servicios de Salud", "tipo_estab": null, "ámbito_de": "Establecimiento de Salud", "nombre_ofi": null, "certificac": "No Aplica", "dependenci": "Servicio de Salud Del Reloncaví", "nivel_de_a": "Primario", "código_co": "10109", "nombre_com": "PUERTO VARAS", "vía": "Calle", "número": 0, "dirección": "Caserío de Petrohué", "teléfono": 0, "fecha_inic": "38716", "tiene_serv": null, "tipo_de_ur": "No Aplica", "tipo_de_sa": null, "latitud": -41.137238, "longitud__": -72.401892, "tipo_de_pr": null, "estado_de": null, "nivel_de_c": "Primario", "modalidad": null, "simbologia": "Atención Primaria de Salud (APS)", "fid_comunas_v1": null, "cut_reg": "10", "cut_prov": "101", "cut_com": "10109", "region": "Los Lagos", "provincia": "LLANQUIHUE", "comuna": "PUERTO VARAS", "superficie": null }, "geometry": { "type": "Point", "coordinates": [ -72.40189, -41.13724 ] } },
{ "type": "Feature", "properties": { "objectid": 9219, "fid_establecimientos_de_salud": null, "código_an": "24-422", "código_vi": 124422, "código__m": " ", "código_nu": 0, "código_re": 10, "nombre_reg": "Los Lagos", "código_de": 24, "nombre_dep": "Servicio de Salud Del Reloncaví", "pertenenci": "Perteneciente al Sistema Nacional de Servicios de Salud", "tipo_estab": null, "ámbito_de": "Establecimiento de Salud", "nombre_ofi": null, "certificac": "No Aplica", "dependenci": "Servicio de Salud Del Reloncaví", "nivel_de_a": "Primario", "código_co": "10109", "nombre_com": "PUERTO VARAS", "vía": "Calle", "número": 0, "dirección": "Caserío de Peulla", "teléfono": 0, "fecha_inic": "38716", "tiene_serv": null, "tipo_de_ur": "No Aplica", "tipo_de_sa": null, "latitud": -41.08556, "longitud__": -72.01926, "tipo_de_pr": null, "estado_de": null, "nivel_de_c": "Primario", "modalidad": null, "simbologia": "Atención Primaria de Salud (APS)", "fid_comunas_v1": null, "cut_reg": "10", "cut_prov": "101", "cut_com": "10109", "region": "Los Lagos", "provincia": "LLANQUIHUE", "comuna": "PUERTO VARAS", "superficie": null }, "geometry": { "type": "Point", "coordinates": [ -72.01926, -41.08556 ] } }
]
}
