{
"type": "FeatureCollection",
"name": "VIL",
"crs": { "type": "name", "properties": { "name": "urn:ogc:def:crs:OGC:1.3:CRS84" } },
"xy_coordinate_resolution": 1e-05,
"features": [
{ "type": "Feature", "properties": { "objectid": 9388, "fid_establecimientos_de_salud": null, "código_an": "22-924", "código_vi": 200826, "código__m": "22-309", "código_nu": 122309, "código_re": 14, "nombre_reg": "Los Ríos", "código_de": 22, "nombre_dep": "Servicio de Salud Los Rios", "pertenenci": "Perteneciente al Sistema Nacional de Servicios de Salud", "tipo_estab": null, "ámbito_de": "Establecimiento de Salud", "nombre_ofi": null, "certificac": "No Aplica", "dependenci": "Servicio de Salud Los Rios", "nivel_de_a": "Primario", "código_co": "14108", "nombre_com": "PANGUIPULLI", "vía": "Calle", "número": 0, "dirección": "La Cancha", "teléfono": 63265741, "fecha_inic": "38716", "tiene_serv": null, "tipo_de_ur": "Urgencia Ambulatoria (SUR)", "tipo_de_sa": null, "latitud": -39.850159, "longitud__": -71.940779, "tipo_de_pr": null, "estado_de": null, "nivel_de_c": "Primario", "modalidad": null, "simbologia": "Servicios de Urgencia de Atención Primaria", "fid_comunas_v1": null, "cut_reg": "14", "cut_prov": "141", "cut_com": "14108", "region": "Los Ríos", "provincia": "VALDIVIA", "comuna": "PANGUIPULLI", "superficie": null }, "geometry": { "type": "Point", "coordinates": [ -71.94078, -39.85016 ] } },
{ "type": "Feature", "properties": { "objectid": 9389, "fid_establecimientos_de_salud": null, "código_an": "22-709", "código_vi": 122709, "código__m": "22-309", "código_nu": 122309, "código_re": 14, "nombre_reg": "Los Ríos", "código_de": 22, "nombre_dep": "Servicio de Salud Los Rios", "pertenenci": "Perteneciente al Sistema Nacional de Servicios de Salud", "tipo_estab": null, "ámbito_de": "Establecimiento de Salud", "nombre_ofi": null, "certificac": "No Aplica", "dependenci": "Servicio de Salud Los Rios", "nivel_de_a": "Primario", "código_co": "14108", "nombre_com": "PANGUIPULLI", "vía": "Calle", "número": 0, "dirección": "Los Álamos", "teléfono": 631973672, "fecha_inic": "38716", "tiene_serv": null, "tipo_de_ur": "No Aplica", "tipo_de_sa": null, "latitud": -39.85015, "longitud__": -71.94059, "tipo_de_pr": null, "estado_de": null, "nivel_de_c": "Primario", "modalidad": null, "simbologia": "Atención Primaria de Salud (APS)", "fid_comunas_v1": null, "cut_reg": "14", "cut_prov": "141", "cut_com": "14108", "region": "Los Ríos", "provincia": "VALDIVIA", "comuna": "PANGUIPULLI", "superficie": null }, "geometry": { "type": "Point", "coordinates": [ -71.94059, -39.85015 ] } },
{ "type": "Feature", "properties": { "objectid": 9401, "fid_establecimientos_de_salud": null, "código_an": "22-309", "código_vi": 122309, "código__m": " ", "código_nu": 0, "código_re": 14, "nombre_reg": "Los Ríos", "código_de": 22, "nombre_dep": "Servicio de Salud Los Rios", "pertenenci": "Perteneciente al Sistema Nacional de Servicios de Salud", "tipo_estab": null, "ámbito_de": "Establecimiento de Salud", "nombre_ofi": null, "certificac": "Centro de Salud Familiar", "dependenci": "Servicio de Salud Los Rios", "nivel_de_a": "Primario", "código_co": "14108", "nombre_com": "PANGUIPULLI", "vía": "Calle", "número": 0, "dirección": "Padre Bernabé", "teléfono": 632310467, "fecha_inic": "37987", "tiene_serv": null, "tipo_de_ur": "No Aplica", "tipo_de_sa": null, "latitud": -39.83673, "longitud__": -72.083361, "tipo_de_pr": null, "estado_de": null, "nivel_de_c": "Primario", "modalidad": null, "simbologia": "Atención Primaria de Salud (APS)", "fid_comunas_v1": null, "cut_reg": "14", "cut_prov": "141", "cut_com": "14108", "region": "Los Ríos", "provincia": "VALDIVIA", "comuna": "PANGUIPULLI", "superficie": null }, "geometry": { "type": "Point", "coordinates": [ -72.08336, -39.83673 ] } },
{ "type": "Feature", "properties": { "objectid": 9455, "fid_establecimientos_de_salud": null, "código_an": "22-464", "código_vi": 122464, "código__m": " ", "código_nu": 0, "código_re": 14, "nombre_reg": "Los Ríos", "código_de": 22, "nombre_dep": "Servicio de Salud Los Rios", "pertenenci": "Perteneciente al Sistema Nacional de Servicios de Salud", "tipo_estab": null, "ámbito_de": "Establecimiento de Salud", "nombre_ofi": null, "certificac": "No Aplica", "dependenci": "Servicio de Salud Los Rios", "nivel_de_a": "Primario", "código_co": "14108", "nombre_com": "PANGUIPULLI", "vía": "Calle", "número": 0, "dirección": "Localidad Lago Neltume", "teléfono": 632310465, "fecha_inic": "38716", "tiene_serv": null, "tipo_de_ur": "No Aplica", "tipo_de_sa": null, "latitud": -39.78821, "longitud__": -71.9624, "tipo_de_pr": null, "estado_de": null, "nivel_de_c": "Primario", "modalidad": null, "simbologia": "Atención Primaria de Salud (APS)", "fid_comunas_v1": null, "cut_reg": "14", "cut_prov": "141", "cut_com": "14108", "region": "Los Ríos", "provincia": "VALDIVIA", "comuna": "PANGUIPULLI", "superficie": null }, "geometry": { "type": "Point", "coordinates": [ -71.9624, -39.78821 ] } },
{ "type": "Feature", "properties": { "objectid": 9457, "fid_establecimientos_de_salud": null, "código_an": "22-425", "código_vi": 122425, "código__m": "22-308", "código_nu": 122308, "código_re": 14, "nombre_reg": "Los Ríos", "código_de": 22, "nombre_dep": "Servicio de Salud Los Rios", "pertenenci": "Perteneciente al Sistema Nacional de Servicios de Salud", "tipo_estab": null, "ámbito_de": "Establecimiento de Salud", "nombre_ofi": null, "certificac": "No Aplica", "dependenci": "Servicio de Salud Los Rios", "nivel_de_a": "Primario", "código_co": "14108", "nombre_com": "PANGUIPULLI", "vía": "Calle", "número": 0, "dirección": "Camino Internacional, Liquiñe", "teléfono": 0, "fecha_inic": "38716", "tiene_serv": null, "tipo_de_ur": "No Aplica", "tipo_de_sa": null, "latitud": -39.74693, "longitud__": -71.85428, "tipo_de_pr": null, "estado_de": null, "nivel_de_c": "Primario", "modalidad": null, "simbologia": "Atención Primaria de Salud (APS)", "fid_comunas_v1": null, "cut_reg": "14", "cut_prov": "141", "cut_com": "14108", "region": "Los Ríos", "provincia": "VALDIVIA", "comuna": "PANGUIPULLI", "superficie": null }, "geometry": { "type": "Point", "coordinates": [ -71.85428, -39.74693 ] } },
{ "type": "Feature", "properties": { "objectid": 9467, "fid_establecimientos_de_salud": null, "código_an": "22-923", "código_vi": 200825, "código__m": "22- 309", "código_nu": 122309, "código_re": 14, "nombre_reg": "Los Ríos", "código_de": 22, "nombre_dep": "Servicio de Salud Los Rios", "pertenenci": "Perteneciente al Sistema Nacional de Servicios de Salud", "tipo_estab": null, "ámbito_de": "Establecimiento de Salud", "nombre_ofi": null, "certificac": "No Aplica", "dependenci": "Servicio de Salud Los Rios", "nivel_de_a": "Primario", "código_co": "14108", "nombre_com": "PANGUIPULLI", "vía": "Calle", "número": 0, "dirección": "Padre Bernabé", "teléfono": 63310467, "fecha_inic": "38716", "tiene_serv": null, "tipo_de_ur": "Urgencia Ambulatoria (SUR)", "tipo_de_sa": null, "latitud": -39.647102, "longitud__": -72.341331, "tipo_de_pr": null, "estado_de": null, "nivel_de_c": "Primario", "modalidad": null, "simbologia": "Servicios de Urgencia de Atención Primaria", "fid_comunas_v1": null, "cut_reg": "14", "cut_prov": "141", "cut_com": "14108", "region": "Los Ríos", "provincia": "VALDIVIA", "comuna": "PANGUIPULLI", "superficie": null }, "geometry": { "type": "Point", "coordinates": [ -72.34133, -39.6471 ] } },
{ "type": "Feature", "properties": { "objectid": 9468, "fid_establecimientos_de_salud": null, "código_an": "22-903", "código_vi": 200166, "código__m": "22-304", "código_nu": 122304, "código_re": 14, "nombre_reg": "Los Ríos", "código_de": 22, "nombre_dep": "Servicio de Salud Los Rios", "pertenenci": "Perteneciente al Sistema Nacional de Servicios de Salud", "tipo_estab": null, "ámbito_de": "Establecimiento de Salud", "nombre_ofi": null, "certificac": "No Aplica", "dependenci": "Servicio de Salud Los Rios", "nivel_de_a": "Primario", "código_co": "14108", "nombre_com": "PANGUIPULLI", "vía": "Calle", "número": 1112, "dirección": "Gabriela Mistral", "teléfono": 0, "fecha_inic": "44699", "tiene_serv": null, "tipo_de_ur": "Urgencia Ambulatoria (SAR)", "tipo_de_sa": null, "latitud": -39.643617, "longitud__": -72.336993, "tipo_de_pr": null, "estado_de": null, "nivel_de_c": "Primario", "modalidad": null, "simbologia": "Servicios de Urgencia de Atención Primaria", "fid_comunas_v1": null, "cut_reg": "14", "cut_prov": "141", "cut_com": "14108", "region": "Los Ríos", "provincia": "VALDIVIA", "comuna": "PANGUIPULLI", "superficie": null }, "geometry": { "type": "Point", "coordinates": [ -72.33699, -39.64362 ] } },
{ "type": "Feature", "properties": { "objectid": 9469, "fid_establecimientos_de_salud": null, "código_an": "22-304", "código_vi": 122304, "código__m": " ", "código_nu": 0, "código_re": 14, "nombre_reg": "Los Ríos", "código_de": 22, "nombre_dep": "Servicio de Salud Los Rios", "pertenenci": "Perteneciente al Sistema Nacional de Servicios de Salud", "tipo_estab": null, "ámbito_de": "Establecimiento de Salud", "nombre_ofi": null, "certificac": "Centro de Salud Familiar", "dependenci": "Servicio de Salud Los Rios", "nivel_de_a": "Primario", "código_co": "14108", "nombre_com": "PANGUIPULLI", "vía": "Calle", "número": 136, "dirección": "Eduardo Cruz Coke", "teléfono": 632311358, "fecha_inic": "37987", "tiene_serv": null, "tipo_de_ur": "No Aplica", "tipo_de_sa": null, "latitud": -39.6435, "longitud__": -72.33715, "tipo_de_pr": null, "estado_de": null, "nivel_de_c": "Primario", "modalidad": null, "simbologia": "Atención Primaria de Salud (APS)", "fid_comunas_v1": null, "cut_reg": "14", "cut_prov": "141", "cut_com": "14108", "region": "Los Ríos", "provincia": "VALDIVIA", "comuna": "PANGUIPULLI", "superficie": null }, "geometry": { "type": "Point", "coordinates": [ -72.33715, -39.6435 ] } },
{ "type": "Feature", "properties": { "objectid": 9470, "fid_establecimientos_de_salud": null, "código_an": "22-242", "código_vi": 122242, "código__m": " ", "código_nu": 0, "código_re": 14, "nombre_reg": "Los Ríos", "código_de": 14, "nombre_dep": "SEREMI De Los Ríos", "pertenenci": "No perteneciente al Sistema Nacional de Servicios de Salud", "tipo_estab": null, "ámbito_de": "Establecimiento de Salud", "nombre_ofi": null, "certificac": "No Aplica", "dependenci": "SEREMI De Los Ríos", "nivel_de_a": "No Aplica", "código_co": "14108", "nombre_com": "PANGUIPULLI", "vía": "Calle", "número": 357, "dirección": "Bernardo O'Higgins", "teléfono": 632311579, "fecha_inic": "39814", "tiene_serv": null, "tipo_de_ur": "No Aplica", "tipo_de_sa": null, "latitud": -39.642305, "longitud__": -72.327335, "tipo_de_pr": null, "estado_de": null, "nivel_de_c": "No Aplica", "modalidad": null, "simbologia": "Servicios de Apoyo Diagnóstico y Terapéutico", "fid_comunas_v1": null, "cut_reg": "14", "cut_prov": "141", "cut_com": "14108", "region": "Los Ríos", "provincia": "VALDIVIA", "comuna": "PANGUIPULLI", "superficie": null }, "geometry": { "type": "Point", "coordinates": [ -72.32733, -39.64231 ] } },
{ "type": "Feature", "properties": { "objectid": 9471, "fid_establecimientos_de_salud": null, "código_an": "22-201", "código_vi": 122201, "código__m": " ", "código_nu": 0, "código_re": 14, "nombre_reg": "Los Ríos", "código_de": 22, "nombre_dep": "Servicio de Salud Los Rios", "pertenenci": "Perteneciente al Sistema Nacional de Servicios de Salud", "tipo_estab": null, "ámbito_de": "Establecimiento de Salud", "nombre_ofi": null, "certificac": "No Aplica", "dependenci": "Servicio de Salud Los Rios", "nivel_de_a": "Pendiente", "código_co": "14108", "nombre_com": "PANGUIPULLI", "vía": "Calle", "número": 342, "dirección": "Sor Mercedes", "teléfono": 632242200, "fecha_inic": "30811", "tiene_serv": null, "tipo_de_ur": "Urgencia Hospitalaria (UEH)", "tipo_de_sa": null, "latitud": -39.64068, "longitud__": -72.34238, "tipo_de_pr": null, "estado_de": null, "nivel_de_c": "Pendiente", "modalidad": null, "simbologia": "Hospitales y Unidades de Hospitalización", "fid_comunas_v1": null, "cut_reg": "14", "cut_prov": "141", "cut_com": "14108", "region": "Los Ríos", "provincia": "VALDIVIA", "comuna": "PANGUIPULLI", "superficie": null }, "geometry": { "type": "Point", "coordinates": [ -72.34238, -39.64068 ] } },
{ "type": "Feature", "properties": { "objectid": 9473, "fid_establecimientos_de_salud": null, "código_an": "22-427", "código_vi": 122427, "código__m": " ", "código_nu": 0, "código_re": 14, "nombre_reg": "Los Ríos", "código_de": 22, "nombre_dep": "Servicio de Salud Los Rios", "pertenenci": "Perteneciente al Sistema Nacional de Servicios de Salud", "tipo_estab": null, "ámbito_de": "Establecimiento de Salud", "nombre_ofi": null, "certificac": "No Aplica", "dependenci": "Servicio de Salud Los Rios", "nivel_de_a": "Primario", "código_co": "14108", "nombre_com": "PANGUIPULLI", "vía": "Calle", "número": 0, "dirección": "Sector Cayumapu", "teléfono": 0, "fecha_inic": "38716", "tiene_serv": null, "tipo_de_ur": "No Aplica", "tipo_de_sa": null, "latitud": -39.622371, "longitud__": -72.190093, "tipo_de_pr": null, "estado_de": null, "nivel_de_c": "Primario", "modalidad": null, "simbologia": "Atención Primaria de Salud (APS)", "fid_comunas_v1": null, "cut_reg": "14", "cut_prov": "141", "cut_com": "14108", "region": "Los Ríos", "provincia": "VALDIVIA", "comuna": "PANGUIPULLI", "superficie": null }, "geometry": { "type": "Point", "coordinates": [ -72.19009, -39.62237 ] } },
{ "type": "Feature", "properties": { "objectid": 9474, "fid_establecimientos_de_salud": null, "código_an": "22-413", "código_vi": 122413, "código__m": " ", "código_nu": 0, "código_re": 14, "nombre_reg": "Los Ríos", "código_de": 22, "nombre_dep": "Servicio de Salud Los Rios", "pertenenci": "Perteneciente al Sistema Nacional de Servicios de Salud", "tipo_estab": null, "ámbito_de": "Establecimiento de Salud", "nombre_ofi": null, "certificac": "No Aplica", "dependenci": "Servicio de Salud Los Rios", "nivel_de_a": "Primario", "código_co": "14108", "nombre_com": "PANGUIPULLI", "vía": "Calle", "número": 0, "dirección": "Aldea de Melefquén", "teléfono": 0, "fecha_inic": "38716", "tiene_serv": null, "tipo_de_ur": "No Aplica", "tipo_de_sa": null, "latitud": -39.580392, "longitud__": -72.442554, "tipo_de_pr": null, "estado_de": null, "nivel_de_c": "Primario", "modalidad": null, "simbologia": "Atención Primaria de Salud (APS)", "fid_comunas_v1": null, "cut_reg": "14", "cut_prov": "141", "cut_com": "14108", "region": "Los Ríos", "provincia": "VALDIVIA", "comuna": "PANGUIPULLI", "superficie": null }, "geometry": { "type": "Point", "coordinates": [ -72.44255, -39.58039 ] } },
{ "type": "Feature", "properties": { "objectid": 9475, "fid_establecimientos_de_salud": null, "código_an": "22-452", "código_vi": 122452, "código__m": " ", "código_nu": 0, "código_re": 14, "nombre_reg": "Los Ríos", "código_de": 22, "nombre_dep": "Servicio de Salud Los Rios", "pertenenci": "Perteneciente al Sistema Nacional de Servicios de Salud", "tipo_estab": null, "ámbito_de": "Establecimiento de Salud", "nombre_ofi": null, "certificac": "No Aplica", "dependenci": "Servicio de Salud Los Rios", "nivel_de_a": "Primario", "código_co": "14108", "nombre_com": "PANGUIPULLI", "vía": "Calle", "número": 0, "dirección": "Sector Bocatoma", "teléfono": 0, "fecha_inic": "38716", "tiene_serv": null, "tipo_de_ur": "No Aplica", "tipo_de_sa": null, "latitud": -39.57424, "longitud__": -72.18072, "tipo_de_pr": null, "estado_de": null, "nivel_de_c": "Primario", "modalidad": null, "simbologia": "Atención Primaria de Salud (APS)", "fid_comunas_v1": null, "cut_reg": "14", "cut_prov": "141", "cut_com": "14108", "region": "Los Ríos", "provincia": "VALDIVIA", "comuna": "PANGUIPULLI", "superficie": null }, "geometry": { "type": "Point", "coordinates": [ -72.18072, -39.57424 ] } },
{ "type": "Feature", "properties": { "objectid": 9476, "fid_establecimientos_de_salud": null, "código_an": "22-921", "código_vi": 200787, "código__m": "22-308", "código_nu": 122308, "código_re": 14, "nombre_reg": "Los Ríos", "código_de": 22, "nombre_dep": "Servicio de Salud Los Rios", "pertenenci": "Perteneciente al Sistema Nacional de Servicios de Salud", "tipo_estab": null, "ámbito_de": "Establecimiento de Salud", "nombre_ofi": null, "certificac": "No Aplica", "dependenci": "Servicio de Salud Los Rios", "nivel_de_a": "Primario", "código_co": "14108", "nombre_com": "PANGUIPULLI", "vía": "Calle", "número": 0, "dirección": "Las Tepas", "teléfono": 0, "fecha_inic": "38716", "tiene_serv": null, "tipo_de_ur": "Urgencia Ambulatoria (SUR)", "tipo_de_sa": null, "latitud": -39.568322, "longitud__": -72.341102, "tipo_de_pr": null, "estado_de": null, "nivel_de_c": "Primario", "modalidad": null, "simbologia": "Servicios de Urgencia de Atención Primaria", "fid_comunas_v1": null, "cut_reg": "14", "cut_prov": "141", "cut_com": "14108", "region": "Los Ríos", "provincia": "VALDIVIA", "comuna": "PANGUIPULLI", "superficie": null }, "geometry": { "type": "Point", "coordinates": [ -72.3411, -39.56832 ] } },
{ "type": "Feature", "properties": { "objectid": 9478, "fid_establecimientos_de_salud": null, "código_an": "22-308", "código_vi": 122308, "código__m": " ", "código_nu": 0, "código_re": 14, "nombre_reg": "Los Ríos", "código_de": 22, "nombre_dep": "Servicio de Salud Los Rios", "pertenenci": "Perteneciente al Sistema Nacional de Servicios de Salud", "tipo_estab": null, "ámbito_de": "Establecimiento de Salud", "nombre_ofi": null, "certificac": "Centro de Salud Familiar", "dependenci": "Servicio de Salud Los Rios", "nivel_de_a": "Primario", "código_co": "14108", "nombre_com": "PANGUIPULLI", "vía": "Calle", "número": 0, "dirección": "Las Tepas", "teléfono": 632317274, "fecha_inic": "38716", "tiene_serv": null, "tipo_de_ur": "No Aplica", "tipo_de_sa": null, "latitud": -39.56825, "longitud__": -72.00839, "tipo_de_pr": null, "estado_de": null, "nivel_de_c": "Primario", "modalidad": null, "simbologia": "Atención Primaria de Salud (APS)", "fid_comunas_v1": null, "cut_reg": "14", "cut_prov": "141", "cut_com": "14108", "region": "Los Ríos", "provincia": "VALDIVIA", "comuna": "PANGUIPULLI", "superficie": null }, "geometry": { "type": "Point", "coordinates": [ -72.00839, -39.56825 ] } },
{ "type": "Feature", "properties": { "objectid": 9486, "fid_establecimientos_de_salud": null, "código_an": "22-421", "código_vi": 122421, "código__m": " ", "código_nu": 0, "código_re": 14, "nombre_reg": "Los Ríos", "código_de": 22, "nombre_dep": "Servicio de Salud Los Rios", "pertenenci": "Perteneciente al Sistema Nacional de Servicios de Salud", "tipo_estab": null, "ámbito_de": "Establecimiento de Salud", "nombre_ofi": null, "certificac": "No Aplica", "dependenci": "Servicio de Salud Los Rios", "nivel_de_a": "Primario", "código_co": "14108", "nombre_com": "PANGUIPULLI", "vía": "Calle", "número": 0, "dirección": "Sector Huitag", "teléfono": 0, "fecha_inic": "38716", "tiene_serv": null, "tipo_de_ur": "No Aplica", "tipo_de_sa": null, "latitud": -39.53452, "longitud__": -72.30959, "tipo_de_pr": null, "estado_de": null, "nivel_de_c": "Primario", "modalidad": null, "simbologia": "Atención Primaria de Salud (APS)", "fid_comunas_v1": null, "cut_reg": "14", "cut_prov": "141", "cut_com": "14108", "region": "Los Ríos", "provincia": "VALDIVIA", "comuna": "PANGUIPULLI", "superficie": null }, "geometry": { "type": "Point", "coordinates": [ -72.30959, -39.53452 ] } },
{ "type": "Feature", "properties": { "objectid": 9487, "fid_establecimientos_de_salud": null, "código_an": "21-348", "código_vi": 121348, "código__m": " ", "código_nu": 0, "código_re": 9, "nombre_reg": "La Araucanía", "código_de": 21, "nombre_dep": "Servicio de Salud Araucanía Sur", "pertenenci": "Perteneciente al Sistema Nacional de Servicios de Salud", "tipo_estab": null, "ámbito_de": "Establecimiento de Salud", "nombre_ofi": null, "certificac": "Centro de Salud Familiar", "dependenci": "Servicio de Salud Araucanía Sur", "nivel_de_a": "Primario", "código_co": "09120", "nombre_com": "VILLARRICA", "vía": "Calle", "número": 0, "dirección": "Cacique Marichanquín", "teléfono": 0, "fecha_inic": "38716", "tiene_serv": null, "tipo_de_ur": "No Aplica", "tipo_de_sa": null, "latitud": -39.489277, "longitud__": -72.15444, "tipo_de_pr": null, "estado_de": null, "nivel_de_c": "Primario", "modalidad": null, "simbologia": "Atención Primaria de Salud (APS)", "fid_comunas_v1": null, "cut_reg": "9", "cut_prov": "091", "cut_com": "09120", "region": "La Araucanía", "provincia": "CAUTÍN", "comuna": "VILLARRICA", "superficie": null }, "geometry": { "type": "Point", "coordinates": [ -72.15444, -39.48928 ] } },
{ "type": "Feature", "properties": { "objectid": 9488, "fid_establecimientos_de_salud": null, "código_an": "21-937", "código_vi": 200940, "código__m": "21-348", "código_nu": 121348, "código_re": 9, "nombre_reg": "La Araucanía", "código_de": 21, "nombre_dep": "Servicio de Salud Araucanía Sur", "pertenenci": "Perteneciente al Sistema Nacional de Servicios de Salud", "tipo_estab": null, "ámbito_de": "Establecimiento de Salud", "nombre_ofi": null, "certificac": "No Aplica", "dependenci": "Servicio de Salud Araucanía Sur", "nivel_de_a": "Primario", "código_co": "09120", "nombre_com": "VILLARRICA", "vía": "Calle", "número": 0, "dirección": "Cacique Marichanquín", "teléfono": 452131776, "fecha_inic": "38716", "tiene_serv": null, "tipo_de_ur": "Urgencia Ambulatoria (SUR)", "tipo_de_sa": null, "latitud": -39.489177, "longitud__": -72.154832, "tipo_de_pr": null, "estado_de": null, "nivel_de_c": "Primario", "modalidad": null, "simbologia": "Servicios de Urgencia de Atención Primaria", "fid_comunas_v1": null, "cut_reg": "9", "cut_prov": "091", "cut_com": "09120", "region": "La Araucanía", "provincia": "CAUTÍN", "comuna": "VILLARRICA", "superficie": null }, "geometry": { "type": "Point", "coordinates": [ -72.15483, -39.48918 ] } },
{ "type": "Feature", "properties": { "objectid": 9490, "fid_establecimientos_de_salud": null, "código_an": "21-599", "código_vi": 121599, "código__m": " ", "código_nu": 0, "código_re": 9, "nombre_reg": "La Araucanía", "código_de": 21, "nombre_dep": "Servicio de Salud Araucanía Sur", "pertenenci": "Perteneciente al Sistema Nacional de Servicios de Salud", "tipo_estab": null, "ámbito_de": "Establecimiento de Salud", "nombre_ofi": null, "certificac": "No Aplica", "dependenci": "Servicio de Salud Araucanía Sur", "nivel_de_a": "Primario", "código_co": "09120", "nombre_com": "VILLARRICA", "vía": "Calle", "número": 0, "dirección": "Sector Añilco", "teléfono": 0, "fecha_inic": "38716", "tiene_serv": null, "tipo_de_ur": "No Aplica", "tipo_de_sa": null, "latitud": -39.45836, "longitud__": -72.25672, "tipo_de_pr": null, "estado_de": null, "nivel_de_c": "Primario", "modalidad": null, "simbologia": "Atención Primaria de Salud (APS)", "fid_comunas_v1": null, "cut_reg": "9", "cut_prov": "091", "cut_com": "09120", "region": "La Araucanía", "provincia": "CAUTÍN", "comuna": "VILLARRICA", "superficie": null }, "geometry": { "type": "Point", "coordinates": [ -72.25672, -39.45836 ] } },
{ "type": "Feature", "properties": { "objectid": 9493, "fid_establecimientos_de_salud": null, "código_an": "21-598", "código_vi": 121598, "código__m": " ", "código_nu": 0, "código_re": 9, "nombre_reg": "La Araucanía", "código_de": 21, "nombre_dep": "Servicio de Salud Araucanía Sur", "pertenenci": "Perteneciente al Sistema Nacional de Servicios de Salud", "tipo_estab": null, "ámbito_de": "Establecimiento de Salud", "nombre_ofi": null, "certificac": "No Aplica", "dependenci": "Servicio de Salud Araucanía Sur", "nivel_de_a": "Primario", "código_co": "09104", "nombre_com": "CURARREHUE", "vía": "Calle", "número": 0, "dirección": "Camino Internacional", "teléfono": 0, "fecha_inic": "38716", "tiene_serv": null, "tipo_de_ur": "No Aplica", "tipo_de_sa": null, "latitud": -39.439687, "longitud__": -71.55406, "tipo_de_pr": null, "estado_de": null, "nivel_de_c": "Primario", "modalidad": null, "simbologia": "Atención Primaria de Salud (APS)", "fid_comunas_v1": null, "cut_reg": "9", "cut_prov": "091", "cut_com": "09104", "region": "La Araucanía", "provincia": "CAUTÍN", "comuna": "CURARREHUE", "superficie": null }, "geometry": { "type": "Point", "coordinates": [ -71.55406, -39.43969 ] } },
{ "type": "Feature", "properties": { "objectid": 9495, "fid_establecimientos_de_salud": null, "código_an": "21-549", "código_vi": 121549, "código__m": " ", "código_nu": 0, "código_re": 9, "nombre_reg": "La Araucanía", "código_de": 21, "nombre_dep": "Servicio de Salud Araucanía Sur", "pertenenci": "Perteneciente al Sistema Nacional de Servicios de Salud", "tipo_estab": null, "ámbito_de": "Establecimiento de Salud", "nombre_ofi": null, "certificac": "No Aplica", "dependenci": "Servicio de Salud Araucanía Sur", "nivel_de_a": "Primario", "código_co": "09109", "nombre_com": "LONCOCHE", "vía": "Calle", "número": 0, "dirección": "Sector Pulmahue", "teléfono": 0, "fecha_inic": "38716", "tiene_serv": null, "tipo_de_ur": "No Aplica", "tipo_de_sa": null, "latitud": -39.41369, "longitud__": -72.45175, "tipo_de_pr": null, "estado_de": null, "nivel_de_c": "Primario", "modalidad": null, "simbologia": "Atención Primaria de Salud (APS)", "fid_comunas_v1": null, "cut_reg": "9", "cut_prov": "091", "cut_com": "09109", "region": "La Araucanía", "provincia": "CAUTÍN", "comuna": "LONCOCHE", "superficie": null }, "geometry": { "type": "Point", "coordinates": [ -72.45175, -39.41369 ] } },
{ "type": "Feature", "properties": { "objectid": 9498, "fid_establecimientos_de_salud": null, "código_an": "21-550", "código_vi": 121550, "código__m": " ", "código_nu": 0, "código_re": 9, "nombre_reg": "La Araucanía", "código_de": 21, "nombre_dep": "Servicio de Salud Araucanía Sur", "pertenenci": "Perteneciente al Sistema Nacional de Servicios de Salud", "tipo_estab": null, "ámbito_de": "Establecimiento de Salud", "nombre_ofi": null, "certificac": "No Aplica", "dependenci": "Servicio de Salud Araucanía Sur", "nivel_de_a": "Primario", "código_co": "09109", "nombre_com": "LONCOCHE", "vía": "Calle", "número": 0, "dirección": "Sector Copihuelpe", "teléfono": 0, "fecha_inic": "38716", "tiene_serv": null, "tipo_de_ur": "No Aplica", "tipo_de_sa": null, "latitud": -39.39135, "longitud__": -72.3695, "tipo_de_pr": null, "estado_de": null, "nivel_de_c": "Primario", "modalidad": null, "simbologia": "Atención Primaria de Salud (APS)", "fid_comunas_v1": null, "cut_reg": "9", "cut_prov": "091", "cut_com": "09109", "region": "La Araucanía", "provincia": "CAUTÍN", "comuna": "LONCOCHE", "superficie": null }, "geometry": { "type": "Point", "coordinates": [ -72.3695, -39.39135 ] } },
{ "type": "Feature", "properties": { "objectid": 9499, "fid_establecimientos_de_salud": null, "código_an": "21-555", "código_vi": 121555, "código__m": " ", "código_nu": 0, "código_re": 9, "nombre_reg": "La Araucanía", "código_de": 21, "nombre_dep": "Servicio de Salud Araucanía Sur", "pertenenci": "Perteneciente al Sistema Nacional de Servicios de Salud", "tipo_estab": null, "ámbito_de": "Establecimiento de Salud", "nombre_ofi": null, "certificac": "No Aplica", "dependenci": "Servicio de Salud Araucanía Sur", "nivel_de_a": "Primario", "código_co": "09120", "nombre_com": "VILLARRICA", "vía": "Calle", "número": 0, "dirección": "Sector Liumalla", "teléfono": 0, "fecha_inic": "38716", "tiene_serv": null, "tipo_de_ur": "No Aplica", "tipo_de_sa": null, "latitud": -39.3804, "longitud__": -72.23668, "tipo_de_pr": null, "estado_de": null, "nivel_de_c": "Primario", "modalidad": null, "simbologia": "Atención Primaria de Salud (APS)", "fid_comunas_v1": null, "cut_reg": "9", "cut_prov": "091", "cut_com": "09120", "region": "La Araucanía", "provincia": "CAUTÍN", "comuna": "VILLARRICA", "superficie": null }, "geometry": { "type": "Point", "coordinates": [ -72.23668, -39.3804 ] } },
{ "type": "Feature", "properties": { "objectid": 9501, "fid_establecimientos_de_salud": null, "código_an": "21-313", "código_vi": 121313, "código__m": " ", "código_nu": 0, "código_re": 9, "nombre_reg": "La Araucanía", "código_de": 21, "nombre_dep": "Servicio de Salud Araucanía Sur", "pertenenci": "Perteneciente al Sistema Nacional de Servicios de Salud", "tipo_estab": null, "ámbito_de": "Establecimiento de Salud", "nombre_ofi": null, "certificac": "No Aplica", "dependenci": "Servicio de Salud Araucanía Sur", "nivel_de_a": "Primario", "código_co": "09104", "nombre_com": "CURARREHUE", "vía": "Calle", "número": 888, "dirección": "Cacique Catriqui", "teléfono": 452351579, "fecha_inic": "38716", "tiene_serv": null, "tipo_de_ur": "No Aplica", "tipo_de_sa": null, "latitud": -39.36619, "longitud__": -71.58278, "tipo_de_pr": null, "estado_de": null, "nivel_de_c": "Primario", "modalidad": null, "simbologia": "Atención Primaria de Salud (APS)", "fid_comunas_v1": null, "cut_reg": "9", "cut_prov": "091", "cut_com": "09104", "region": "La Araucanía", "provincia": "CAUTÍN", "comuna": "CURARREHUE", "superficie": null }, "geometry": { "type": "Point", "coordinates": [ -71.58278, -39.36619 ] } },
{ "type": "Feature", "properties": { "objectid": 9502, "fid_establecimientos_de_salud": null, "código_an": "21-934", "código_vi": 200929, "código__m": "21-313", "código_nu": 121313, "código_re": 9, "nombre_reg": "La Araucanía", "código_de": 21, "nombre_dep": "Servicio de Salud Araucanía Sur", "pertenenci": "Perteneciente al Sistema Nacional de Servicios de Salud", "tipo_estab": null, "ámbito_de": "Establecimiento de Salud", "nombre_ofi": null, "certificac": "No Aplica", "dependenci": "Servicio de Salud Araucanía Sur", "nivel_de_a": "Primario", "código_co": "09104", "nombre_com": "CURARREHUE", "vía": "Calle", "número": 888, "dirección": "Cacique Catriqui", "teléfono": 452351579, "fecha_inic": "38716", "tiene_serv": null, "tipo_de_ur": "Urgencia Ambulatoria (SUR)", "tipo_de_sa": null, "latitud": -39.366187, "longitud__": -71.582775, "tipo_de_pr": null, "estado_de": null, "nivel_de_c": "Primario", "modalidad": null, "simbologia": "Servicios de Urgencia de Atención Primaria", "fid_comunas_v1": null, "cut_reg": "9", "cut_prov": "091", "cut_com": "09104", "region": "La Araucanía", "provincia": "CAUTÍN", "comuna": "CURARREHUE", "superficie": null }, "geometry": { "type": "Point", "coordinates": [ -71.58277, -39.36619 ] } },
{ "type": "Feature", "properties": { "objectid": 9503, "fid_establecimientos_de_salud": null, "código_an": "21-581", "código_vi": 121581, "código__m": " ", "código_nu": 0, "código_re": 9, "nombre_reg": "La Araucanía", "código_de": 21, "nombre_dep": "Servicio de Salud Araucanía Sur", "pertenenci": "Perteneciente al Sistema Nacional de Servicios de Salud", "tipo_estab": null, "ámbito_de": "Establecimiento de Salud", "nombre_ofi": null, "certificac": "No Aplica", "dependenci": "Servicio de Salud Araucanía Sur", "nivel_de_a": "Primario", "código_co": "09104", "nombre_com": "CURARREHUE", "vía": "Calle", "número": 0, "dirección": "Sector Catripulli", "teléfono": 0, "fecha_inic": "38716", "tiene_serv": null, "tipo_de_ur": "No Aplica", "tipo_de_sa": null, "latitud": -39.350452, "longitud__": -71.70723, "tipo_de_pr": null, "estado_de": null, "nivel_de_c": "Primario", "modalidad": null, "simbologia": "Atención Primaria de Salud (APS)", "fid_comunas_v1": null, "cut_reg": "9", "cut_prov": "091", "cut_com": "09104", "region": "La Araucanía", "provincia": "CAUTÍN", "comuna": "CURARREHUE", "superficie": null }, "geometry": { "type": "Point", "coordinates": [ -71.70723, -39.35045 ] } },
{ "type": "Feature", "properties": { "objectid": 9505, "fid_establecimientos_de_salud": null, "código_an": "21-582", "código_vi": 121582, "código__m": " ", "código_nu": 0, "código_re": 9, "nombre_reg": "La Araucanía", "código_de": 21, "nombre_dep": "Servicio de Salud Araucanía Sur", "pertenenci": "Perteneciente al Sistema Nacional de Servicios de Salud", "tipo_estab": null, "ámbito_de": "Establecimiento de Salud", "nombre_ofi": null, "certificac": "No Aplica", "dependenci": "Servicio de Salud Araucanía Sur", "nivel_de_a": "Primario", "código_co": "09104", "nombre_com": "CURARREHUE", "vía": "Calle", "número": 0, "dirección": "Sector Maite", "teléfono": 0, "fecha_inic": "38716", "tiene_serv": null, "tipo_de_ur": "No Aplica", "tipo_de_sa": null, "latitud": -39.31083, "longitud__": -71.4545, "tipo_de_pr": null, "estado_de": null, "nivel_de_c": "Primario", "modalidad": null, "simbologia": "Atención Primaria de Salud (APS)", "fid_comunas_v1": null, "cut_reg": "9", "cut_prov": "091", "cut_com": "09104", "region": "La Araucanía", "provincia": "CAUTÍN", "comuna": "CURARREHUE", "superficie": null }, "geometry": { "type": "Point", "coordinates": [ -71.4545, -39.31083 ] } },
{ "type": "Feature", "properties": { "objectid": 9506, "fid_establecimientos_de_salud": null, "código_an": "21-354", "código_vi": 121354, "código__m": " ", "código_nu": 0, "código_re": 9, "nombre_reg": "La Araucanía", "código_de": 21, "nombre_dep": "Servicio de Salud Araucanía Sur", "pertenenci": "Perteneciente al Sistema Nacional de Servicios de Salud", "tipo_estab": null, "ámbito_de": "Establecimiento de Salud", "nombre_ofi": null, "certificac": "Centro de Salud Familiar", "dependenci": "Servicio de Salud Araucanía Sur", "nivel_de_a": "Primario", "código_co": "09120", "nombre_com": "VILLARRICA", "vía": "Calle", "número": 800, "dirección": "Los Volcanes", "teléfono": 452413310, "fecha_inic": "38716", "tiene_serv": null, "tipo_de_ur": "No Aplica", "tipo_de_sa": null, "latitud": -39.30322, "longitud__": -72.22571, "tipo_de_pr": null, "estado_de": null, "nivel_de_c": "Primario", "modalidad": null, "simbologia": "Atención Primaria de Salud (APS)", "fid_comunas_v1": null, "cut_reg": "9", "cut_prov": "091", "cut_com": "09120", "region": "La Araucanía", "provincia": "CAUTÍN", "comuna": "VILLARRICA", "superficie": null }, "geometry": { "type": "Point", "coordinates": [ -72.22571, -39.30322 ] } },
{ "type": "Feature", "properties": { "objectid": 9507, "fid_establecimientos_de_salud": null, "código_an": "21-905", "código_vi": 200157, "código__m": "21-354", "código_nu": 121354, "código_re": 9, "nombre_reg": "La Araucanía", "código_de": 21, "nombre_dep": "Servicio de Salud Araucanía Sur", "pertenenci": "Perteneciente al Sistema Nacional de Servicios de Salud", "tipo_estab": null, "ámbito_de": "Establecimiento de Salud", "nombre_ofi": null, "certificac": "No Aplica", "dependenci": "Servicio de Salud Araucanía Sur", "nivel_de_a": "Primario", "código_co": "09120", "nombre_com": "VILLARRICA", "vía": "Calle", "número": 0, "dirección": "Segunda Faja al Volcán", "teléfono": 452416286, "fecha_inic": "38716", "tiene_serv": null, "tipo_de_ur": "Urgencia ambulatoria (SAR)", "tipo_de_sa": null, "latitud": -39.30309, "longitud__": -72.225823, "tipo_de_pr": null, "estado_de": null, "nivel_de_c": "Primario", "modalidad": null, "simbologia": "Servicios de Urgencia de Atención Primaria", "fid_comunas_v1": null, "cut_reg": "9", "cut_prov": "091", "cut_com": "09120", "region": "La Araucanía", "provincia": "CAUTÍN", "comuna": "VILLARRICA", "superficie": null }, "geometry": { "type": "Point", "coordinates": [ -72.22582, -39.30309 ] } },
{ "type": "Feature", "properties": { "objectid": 9509, "fid_establecimientos_de_salud": null, "código_an": "21-547", "código_vi": 121547, "código__m": " ", "código_nu": 0, "código_re": 9, "nombre_reg": "La Araucanía", "código_de": 21, "nombre_dep": "Servicio de Salud Araucanía Sur", "pertenenci": "Perteneciente al Sistema Nacional de Servicios de Salud", "tipo_estab": null, "ámbito_de": "Establecimiento de Salud", "nombre_ofi": null, "certificac": "No Aplica", "dependenci": "Servicio de Salud Araucanía Sur", "nivel_de_a": "Primario", "código_co": "09109", "nombre_com": "LONCOCHE", "vía": "Calle", "número": 0, "dirección": "Pueblo de Huiscapi", "teléfono": 0, "fecha_inic": "30764", "tiene_serv": null, "tipo_de_ur": "No Aplica", "tipo_de_sa": null, "latitud": -39.29655, "longitud__": -72.40626, "tipo_de_pr": null, "estado_de": null, "nivel_de_c": "Primario", "modalidad": null, "simbologia": "Atención Primaria de Salud (APS)", "fid_comunas_v1": null, "cut_reg": "9", "cut_prov": "091", "cut_com": "09109", "region": "La Araucanía", "provincia": "CAUTÍN", "comuna": "LONCOCHE", "superficie": null }, "geometry": { "type": "Point", "coordinates": [ -72.40626, -39.29655 ] } },
{ "type": "Feature", "properties": { "objectid": 9510, "fid_establecimientos_de_salud": null, "código_an": "21-783", "código_vi": 121783, "código__m": "21-354", "código_nu": 0, "código_re": 9, "nombre_reg": "La Araucanía", "código_de": 21, "nombre_dep": "Servicio de Salud Araucanía Sur", "pertenenci": "Perteneciente al Sistema Nacional de Servicios de Salud", "tipo_estab": null, "ámbito_de": "Establecimiento de Salud", "nombre_ofi": null, "certificac": "No Aplica", "dependenci": "Servicio de Salud Araucanía Sur", "nivel_de_a": "Primario", "código_co": "09120", "nombre_com": "VILLARRICA", "vía": "Calle", "número": 910, "dirección": "Chile Barrio", "teléfono": 452558100, "fecha_inic": "38716", "tiene_serv": null, "tipo_de_ur": "No Aplica", "tipo_de_sa": null, "latitud": -39.294536, "longitud__": -72.237385, "tipo_de_pr": null, "estado_de": null, "nivel_de_c": "Primario", "modalidad": null, "simbologia": "Atención Primaria de Salud (APS)", "fid_comunas_v1": null, "cut_reg": "9", "cut_prov": "091", "cut_com": "09120", "region": "La Araucanía", "provincia": "CAUTÍN", "comuna": "VILLARRICA", "superficie": null }, "geometry": { "type": "Point", "coordinates": [ -72.23739, -39.29454 ] } },
{ "type": "Feature", "properties": { "objectid": 9511, "fid_establecimientos_de_salud": null, "código_an": "21-910", "código_vi": 200162, "código__m": "21-334", "código_nu": 121334, "código_re": 9, "nombre_reg": "La Araucanía", "código_de": 21, "nombre_dep": "Servicio de Salud Araucanía Sur", "pertenenci": "Perteneciente al Sistema Nacional de Servicios de Salud", "tipo_estab": null, "ámbito_de": "Establecimiento de Salud", "nombre_ofi": null, "certificac": "No Aplica", "dependenci": "Servicio de Salud Araucanía Sur", "nivel_de_a": "Primario", "código_co": "09120", "nombre_com": "VILLARRICA", "vía": "Calle", "número": 2001, "dirección": "Caupolicán", "teléfono": 452413222, "fecha_inic": "38716", "tiene_serv": null, "tipo_de_ur": "Urgencia Ambulatoria (SAPU)", "tipo_de_sa": null, "latitud": -39.294342, "longitud__": -72.220164, "tipo_de_pr": null, "estado_de": null, "nivel_de_c": "Primario", "modalidad": null, "simbologia": "Servicios de Urgencia de Atención Primaria", "fid_comunas_v1": null, "cut_reg": "9", "cut_prov": "091", "cut_com": "09120", "region": "La Araucanía", "provincia": "CAUTÍN", "comuna": "VILLARRICA", "superficie": null }, "geometry": { "type": "Point", "coordinates": [ -72.22016, -39.29434 ] } },
{ "type": "Feature", "properties": { "objectid": 9512, "fid_establecimientos_de_salud": null, "código_an": "21-334", "código_vi": 121334, "código__m": " ", "código_nu": 0, "código_re": 9, "nombre_reg": "La Araucanía", "código_de": 21, "nombre_dep": "Servicio de Salud Araucanía Sur", "pertenenci": "Perteneciente al Sistema Nacional de Servicios de Salud", "tipo_estab": null, "ámbito_de": "Establecimiento de Salud", "nombre_ofi": null, "certificac": "Centro de Salud Familiar", "dependenci": "Servicio de Salud Araucanía Sur", "nivel_de_a": "Primario", "código_co": "09120", "nombre_com": "VILLARRICA", "vía": "Calle", "número": 2001, "dirección": "Caupolicán", "teléfono": 800500910, "fecha_inic": "38716", "tiene_serv": null, "tipo_de_ur": "No Aplica", "tipo_de_sa": null, "latitud": -39.2941, "longitud__": -72.22014, "tipo_de_pr": null, "estado_de": null, "nivel_de_c": "Primario", "modalidad": null, "simbologia": "Atención Primaria de Salud (APS)", "fid_comunas_v1": null, "cut_reg": "9", "cut_prov": "091", "cut_com": "09120", "region": "La Araucanía", "provincia": "CAUTÍN", "comuna": "VILLARRICA", "superficie": null }, "geometry": { "type": "Point", "coordinates": [ -72.22014, -39.2941 ] } },
{ "type": "Feature", "properties": { "objectid": 9513, "fid_establecimientos_de_salud": null, "código_an": "21-923", "código_vi": 200478, "código__m": "21-334", "código_nu": 121334, "código_re": 9, "nombre_reg": "La Araucanía", "código_de": 21, "nombre_dep": "Servicio de Salud Araucanía Sur", "pertenenci": "Perteneciente al Sistema Nacional de Servicios de Salud", "tipo_estab": null, "ámbito_de": "Establecimiento de Salud", "nombre_ofi": null, "certificac": "No Aplica", "dependenci": "Servicio de Salud Araucanía Sur", "nivel_de_a": "Primario", "código_co": "09120", "nombre_com": "VILLARRICA", "vía": "Calle", "número": 0, "dirección": "Juan Contreras, localidad de Ñancul", "teléfono": 0, "fecha_inic": "43207", "tiene_serv": null, "tipo_de_ur": "No Aplica", "tipo_de_sa": null, "latitud": -39.28339, "longitud__": -72.30788, "tipo_de_pr": null, "estado_de": null, "nivel_de_c": "Primario", "modalidad": null, "simbologia": "Atención Primaria de Salud (APS)", "fid_comunas_v1": null, "cut_reg": "9", "cut_prov": "091", "cut_com": "09120", "region": "La Araucanía", "provincia": "CAUTÍN", "comuna": "VILLARRICA", "superficie": null }, "geometry": { "type": "Point", "coordinates": [ -72.30788, -39.28339 ] } },
{ "type": "Feature", "properties": { "objectid": 9514, "fid_establecimientos_de_salud": null, "código_an": "21-925", "código_vi": 200509, "código__m": "21-355", "código_nu": 121355, "código_re": 9, "nombre_reg": "La Araucanía", "código_de": 21, "nombre_dep": "Servicio de Salud Araucanía Sur", "pertenenci": "Perteneciente al Sistema Nacional de Servicios de Salud", "tipo_estab": null, "ámbito_de": "Establecimiento de Salud", "nombre_ofi": null, "certificac": "No Aplica", "dependenci": "Servicio de Salud Araucanía Sur", "nivel_de_a": "Primario", "código_co": "09115", "nombre_com": "PUCÓN", "vía": "Calle", "número": 0, "dirección": "Río Claro", "teléfono": 453341, "fecha_inic": "43167", "tiene_serv": null, "tipo_de_ur": "No Aplica", "tipo_de_sa": null, "latitud": -39.28244, "longitud__": -71.94065, "tipo_de_pr": null, "estado_de": null, "nivel_de_c": "Primario", "modalidad": null, "simbologia": "Atención Primaria de Salud (APS)", "fid_comunas_v1": null, "cut_reg": "9", "cut_prov": "091", "cut_com": "09115", "region": "La Araucanía", "provincia": "CAUTÍN", "comuna": "PUCÓN", "superficie": null }, "geometry": { "type": "Point", "coordinates": [ -71.94065, -39.28244 ] } },
{ "type": "Feature", "properties": { "objectid": 9515, "fid_establecimientos_de_salud": null, "código_an": "21-781", "código_vi": 121781, "código__m": "21-334", "código_nu": 121334, "código_re": 9, "nombre_reg": "La Araucanía", "código_de": 21, "nombre_dep": "Servicio de Salud Araucanía Sur", "pertenenci": "Perteneciente al Sistema Nacional de Servicios de Salud", "tipo_estab": null, "ámbito_de": "Establecimiento de Salud", "nombre_ofi": null, "certificac": "No Aplica", "dependenci": "Servicio de Salud Araucanía Sur", "nivel_de_a": "Primario", "código_co": "09120", "nombre_com": "VILLARRICA", "vía": "Calle", "número": 970, "dirección": "Sargento Aldea", "teléfono": 452558075, "fecha_inic": "38716", "tiene_serv": null, "tipo_de_ur": "No Aplica", "tipo_de_sa": null, "latitud": -39.28209, "longitud__": -72.23316, "tipo_de_pr": null, "estado_de": null, "nivel_de_c": "Primario", "modalidad": null, "simbologia": "Atención Primaria de Salud (APS)", "fid_comunas_v1": null, "cut_reg": "9", "cut_prov": "091", "cut_com": "09120", "region": "La Araucanía", "provincia": "CAUTÍN", "comuna": "VILLARRICA", "superficie": null }, "geometry": { "type": "Point", "coordinates": [ -72.23316, -39.28209 ] } },
{ "type": "Feature", "properties": { "objectid": 9516, "fid_establecimientos_de_salud": null, "código_an": "21-273", "código_vi": 121273, "código__m": " ", "código_nu": 0, "código_re": 9, "nombre_reg": "La Araucanía", "código_de": 9, "nombre_dep": "SEREMI De La Araucanía", "pertenenci": "No perteneciente al Sistema Nacional de Servicios de Salud", "tipo_estab": null, "ámbito_de": "Establecimiento de Salud", "nombre_ofi": null, "certificac": "No Aplica", "dependenci": "SEREMI De La Araucanía", "nivel_de_a": "No Aplica", "código_co": "09120", "nombre_com": "VILLARRICA", "vía": "Calle", "número": 280, "dirección": "Camilo Henríquez", "teléfono": 452413914, "fecha_inic": "39814", "tiene_serv": null, "tipo_de_ur": "No Aplica", "tipo_de_sa": null, "latitud": -39.280226, "longitud__": -72.224975, "tipo_de_pr": null, "estado_de": null, "nivel_de_c": "No Aplica", "modalidad": null, "simbologia": "Servicios de Apoyo Diagnóstico y Terapéutico", "fid_comunas_v1": null, "cut_reg": "9", "cut_prov": "091", "cut_com": "09120", "region": "La Araucanía", "provincia": "CAUTÍN", "comuna": "VILLARRICA", "superficie": null }, "geometry": { "type": "Point", "coordinates": [ -72.22498, -39.28023 ] } },
{ "type": "Feature", "properties": { "objectid": 9517, "fid_establecimientos_de_salud": null, "código_an": "21-276", "código_vi": 121276, "código__m": " ", "código_nu": 0, "código_re": 9, "nombre_reg": "La Araucanía", "código_de": 9, "nombre_dep": "SEREMI De La Araucanía", "pertenenci": "No perteneciente al Sistema Nacional de Servicios de Salud", "tipo_estab": null, "ámbito_de": "Establecimiento de Salud", "nombre_ofi": null, "certificac": "No Aplica", "dependenci": "SEREMI De La Araucanía", "nivel_de_a": "Secundario", "código_co": "09120", "nombre_com": "VILLARRICA", "vía": "Calle", "número": 280, "dirección": "Camilo Henríquez", "teléfono": 0, "fecha_inic": "39814", "tiene_serv": null, "tipo_de_ur": "No Aplica", "tipo_de_sa": null, "latitud": -39.280194, "longitud__": -72.224939, "tipo_de_pr": null, "estado_de": null, "nivel_de_c": "Secundario", "modalidad": null, "simbologia": "Centros de Salud y Clínicas Privadas", "fid_comunas_v1": null, "cut_reg": "9", "cut_prov": "091", "cut_com": "09120", "region": "La Araucanía", "provincia": "CAUTÍN", "comuna": "VILLARRICA", "superficie": null }, "geometry": { "type": "Point", "coordinates": [ -72.22494, -39.28019 ] } },
{ "type": "Feature", "properties": { "objectid": 9518, "fid_establecimientos_de_salud": null, "código_an": "21-901", "código_vi": 200153, "código__m": "21-355", "código_nu": 121355, "código_re": 9, "nombre_reg": "La Araucanía", "código_de": 21, "nombre_dep": "Servicio de Salud Araucanía Sur", "pertenenci": "Perteneciente al Sistema Nacional de Servicios de Salud", "tipo_estab": null, "ámbito_de": "Establecimiento de Salud", "nombre_ofi": null, "certificac": "No Aplica", "dependenci": "Servicio de Salud Araucanía Sur", "nivel_de_a": "Primario", "código_co": "09115", "nombre_com": "PUCÓN", "vía": "Pasaje", "número": 0, "dirección": "Adolfo Kachele", "teléfono": 452293000, "fecha_inic": "38716", "tiene_serv": null, "tipo_de_ur": "Urgencia Ambulatoria (SAPU)", "tipo_de_sa": null, "latitud": -39.280151, "longitud__": -71.960497, "tipo_de_pr": null, "estado_de": null, "nivel_de_c": "Primario", "modalidad": null, "simbologia": "Servicios de Urgencia de Atención Primaria", "fid_comunas_v1": null, "cut_reg": "9", "cut_prov": "091", "cut_com": "09115", "region": "La Araucanía", "provincia": "CAUTÍN", "comuna": "PUCÓN", "superficie": null }, "geometry": { "type": "Point", "coordinates": [ -71.9605, -39.28015 ] } },
{ "type": "Feature", "properties": { "objectid": 9519, "fid_establecimientos_de_salud": null, "código_an": "21-355", "código_vi": 121355, "código__m": " ", "código_nu": 0, "código_re": 9, "nombre_reg": "La Araucanía", "código_de": 21, "nombre_dep": "Servicio de Salud Araucanía Sur", "pertenenci": "Perteneciente al Sistema Nacional de Servicios de Salud", "tipo_estab": null, "ámbito_de": "Establecimiento de Salud", "nombre_ofi": null, "certificac": "Centro de Salud Familiar", "dependenci": "Servicio de Salud Araucanía Sur", "nivel_de_a": "Primario", "código_co": "09115", "nombre_com": "PUCÓN", "vía": "Calle", "número": 662, "dirección": "Ansorena", "teléfono": 452293131, "fecha_inic": "38716", "tiene_serv": null, "tipo_de_ur": "No Aplica", "tipo_de_sa": null, "latitud": -39.28072, "longitud__": -71.96077, "tipo_de_pr": null, "estado_de": null, "nivel_de_c": "Primario", "modalidad": null, "simbologia": "Atención Primaria de Salud (APS)", "fid_comunas_v1": null, "cut_reg": "9", "cut_prov": "091", "cut_com": "09115", "region": "La Araucanía", "provincia": "CAUTÍN", "comuna": "PUCÓN", "superficie": null }, "geometry": { "type": "Point", "coordinates": [ -71.96077, -39.28072 ] } },
{ "type": "Feature", "properties": { "objectid": 9520, "fid_establecimientos_de_salud": null, "código_an": "21-200", "código_vi": 121200, "código__m": " ", "código_nu": 0, "código_re": 9, "nombre_reg": "La Araucanía", "código_de": 21, "nombre_dep": "Servicio de Salud Araucanía Sur", "pertenenci": "Perteneciente al Sistema Nacional de Servicios de Salud", "tipo_estab": null, "ámbito_de": "Establecimiento de Salud", "nombre_ofi": null, "certificac": "No Aplica", "dependenci": "Servicio de Salud Araucanía Sur", "nivel_de_a": "Pendiente", "código_co": "09115", "nombre_com": "PUCÓN", "vía": "Calle", "número": 325, "dirección": "Uruguay", "teléfono": 452441177, "fecha_inic": "38716", "tiene_serv": null, "tipo_de_ur": "Urgencia Hospitalaria (UEH)", "tipo_de_sa": null, "latitud": -39.27883, "longitud__": -71.97429, "tipo_de_pr": null, "estado_de": null, "nivel_de_c": "Pendiente", "modalidad": null, "simbologia": "Hospitales y Unidades de Hospitalización", "fid_comunas_v1": null, "cut_reg": "9", "cut_prov": "091", "cut_com": "09115", "region": "La Araucanía", "provincia": "CAUTÍN", "comuna": "PUCÓN", "superficie": null }, "geometry": { "type": "Point", "coordinates": [ -71.97429, -39.27883 ] } },
{ "type": "Feature", "properties": { "objectid": 9521, "fid_establecimientos_de_salud": null, "código_an": "21-121", "código_vi": 121121, "código__m": " ", "código_nu": 0, "código_re": 9, "nombre_reg": "La Araucanía", "código_de": 21, "nombre_dep": "Servicio de Salud Araucanía Sur", "pertenenci": "Perteneciente al Sistema Nacional de Servicios de Salud", "tipo_estab": null, "ámbito_de": "Establecimiento de Salud", "nombre_ofi": null, "certificac": "No Aplica", "dependenci": "Servicio de Salud Araucanía Sur", "nivel_de_a": "Terciario", "código_co": "09120", "nombre_com": "VILLARRICA", "vía": "Calle", "número": 460, "dirección": "San Martín", "teléfono": 452555250, "fecha_inic": "38716", "tiene_serv": null, "tipo_de_ur": "Urgencia Hospitalaria (UEH)", "tipo_de_sa": null, "latitud": -39.2777, "longitud__": -72.226793, "tipo_de_pr": null, "estado_de": null, "nivel_de_c": "Terciario", "modalidad": null, "simbologia": "Hospitales y Unidades de Hospitalización", "fid_comunas_v1": null, "cut_reg": "9", "cut_prov": "091", "cut_com": "09120", "region": "La Araucanía", "provincia": "CAUTÍN", "comuna": "VILLARRICA", "superficie": null }, "geometry": { "type": "Point", "coordinates": [ -72.22679, -39.2777 ] } },
{ "type": "Feature", "properties": { "objectid": 9522, "fid_establecimientos_de_salud": null, "código_an": "21-958", "código_vi": 200058, "código__m": " ", "código_nu": 0, "código_re": 9, "nombre_reg": "La Araucanía", "código_de": 9, "nombre_dep": "SEREMI De La Araucanía", "pertenenci": "No perteneciente al Sistema Nacional de Servicios de Salud", "tipo_estab": null, "ámbito_de": "Establecimiento de Salud", "nombre_ofi": null, "certificac": "No Aplica", "dependenci": "SEREMI De La Araucanía", "nivel_de_a": "No Aplica", "código_co": "09120", "nombre_com": "VILLARRICA", "vía": "Calle", "número": 20, "dirección": "General Urrutia", "teléfono": 452410707, "fecha_inic": "41457", "tiene_serv": null, "tipo_de_ur": "No Aplica", "tipo_de_sa": null, "latitud": -39.275962, "longitud__": -72.230831, "tipo_de_pr": null, "estado_de": null, "nivel_de_c": "No Aplica", "modalidad": null, "simbologia": "Servicios de Apoyo Diagnóstico y Terapéutico", "fid_comunas_v1": null, "cut_reg": "9", "cut_prov": "091", "cut_com": "09120", "region": "La Araucanía", "provincia": "CAUTÍN", "comuna": "VILLARRICA", "superficie": null }, "geometry": { "type": "Point", "coordinates": [ -72.23083, -39.27596 ] } },
{ "type": "Feature", "properties": { "objectid": 9523, "fid_establecimientos_de_salud": null, "código_an": "21-573", "código_vi": 121573, "código__m": " ", "código_nu": 0, "código_re": 9, "nombre_reg": "La Araucanía", "código_de": 21, "nombre_dep": "Servicio de Salud Araucanía Sur", "pertenenci": "Perteneciente al Sistema Nacional de Servicios de Salud", "tipo_estab": null, "ámbito_de": "Establecimiento de Salud", "nombre_ofi": null, "certificac": "No Aplica", "dependenci": "Servicio de Salud Araucanía Sur", "nivel_de_a": "Primario", "código_co": "09115", "nombre_com": "PUCÓN", "vía": "Calle", "número": 1424, "dirección": "Ejercito", "teléfono": 0, "fecha_inic": "38716", "tiene_serv": null, "tipo_de_ur": "No Aplica", "tipo_de_sa": null, "latitud": -39.26434, "longitud__": -71.77723, "tipo_de_pr": null, "estado_de": null, "nivel_de_c": "Primario", "modalidad": null, "simbologia": "Atención Primaria de Salud (APS)", "fid_comunas_v1": null, "cut_reg": "9", "cut_prov": "091", "cut_com": "09115", "region": "La Araucanía", "provincia": "CAUTÍN", "comuna": "PUCÓN", "superficie": null }, "geometry": { "type": "Point", "coordinates": [ -71.77723, -39.26434 ] } },
{ "type": "Feature", "properties": { "objectid": 9525, "fid_establecimientos_de_salud": null, "código_an": "21-560", "código_vi": 121560, "código__m": " ", "código_nu": 0, "código_re": 9, "nombre_reg": "La Araucanía", "código_de": 21, "nombre_dep": "Servicio de Salud Araucanía Sur", "pertenenci": "Perteneciente al Sistema Nacional de Servicios de Salud", "tipo_estab": null, "ámbito_de": "Establecimiento de Salud", "nombre_ofi": null, "certificac": "No Aplica", "dependenci": "Servicio de Salud Araucanía Sur", "nivel_de_a": "Primario", "código_co": "09115", "nombre_com": "PUCÓN", "vía": "Calle", "número": 0, "dirección": "Sector Quelhue", "teléfono": 0, "fecha_inic": "38716", "tiene_serv": null, "tipo_de_ur": "No Aplica", "tipo_de_sa": null, "latitud": -39.26109, "longitud__": -71.91999, "tipo_de_pr": null, "estado_de": null, "nivel_de_c": "Primario", "modalidad": null, "simbologia": "Atención Primaria de Salud (APS)", "fid_comunas_v1": null, "cut_reg": "9", "cut_prov": "091", "cut_com": "09115", "region": "La Araucanía", "provincia": "CAUTÍN", "comuna": "PUCÓN", "superficie": null }, "geometry": { "type": "Point", "coordinates": [ -71.91999, -39.26109 ] } },
{ "type": "Feature", "properties": { "objectid": 9529, "fid_establecimientos_de_salud": null, "código_an": "21-586", "código_vi": 121586, "código__m": " ", "código_nu": 0, "código_re": 9, "nombre_reg": "La Araucanía", "código_de": 21, "nombre_dep": "Servicio de Salud Araucanía Sur", "pertenenci": "Perteneciente al Sistema Nacional de Servicios de Salud", "tipo_estab": null, "ámbito_de": "Establecimiento de Salud", "nombre_ofi": null, "certificac": "No Aplica", "dependenci": "Servicio de Salud Araucanía Sur", "nivel_de_a": "Primario", "código_co": "09104", "nombre_com": "CURARREHUE", "vía": "Calle", "número": 0, "dirección": "PUCON", "teléfono": 0, "fecha_inic": "38716", "tiene_serv": null, "tipo_de_ur": "No Aplica", "tipo_de_sa": null, "latitud": -39.21826, "longitud__": -71.4353, "tipo_de_pr": null, "estado_de": null, "nivel_de_c": "Primario", "modalidad": null, "simbologia": "Atención Primaria de Salud (APS)", "fid_comunas_v1": null, "cut_reg": "9", "cut_prov": "091", "cut_com": "09104", "region": "La Araucanía", "provincia": "CAUTÍN", "comuna": "CURARREHUE", "superficie": null }, "geometry": { "type": "Point", "coordinates": [ -71.4353, -39.21826 ] } },
{ "type": "Feature", "properties": { "objectid": 9530, "fid_establecimientos_de_salud": null, "código_an": "21-556", "código_vi": 121556, "código__m": " ", "código_nu": 0, "código_re": 9, "nombre_reg": "La Araucanía", "código_de": 21, "nombre_dep": "Servicio de Salud Araucanía Sur", "pertenenci": "Perteneciente al Sistema Nacional de Servicios de Salud", "tipo_estab": null, "ámbito_de": "Establecimiento de Salud", "nombre_ofi": null, "certificac": "No Aplica", "dependenci": "Servicio de Salud Araucanía Sur", "nivel_de_a": "Primario", "código_co": "09109", "nombre_com": "LONCOCHE", "vía": "Calle", "número": 0, "dirección": "Sector Manhue", "teléfono": 0, "fecha_inic": "38716", "tiene_serv": null, "tipo_de_ur": "No Aplica", "tipo_de_sa": null, "latitud": -39.218092, "longitud__": -72.395243, "tipo_de_pr": null, "estado_de": null, "nivel_de_c": "Primario", "modalidad": null, "simbologia": "Atención Primaria de Salud (APS)", "fid_comunas_v1": null, "cut_reg": "9", "cut_prov": "091", "cut_com": "09109", "region": "La Araucanía", "provincia": "CAUTÍN", "comuna": "LONCOCHE", "superficie": null }, "geometry": { "type": "Point", "coordinates": [ -72.39524, -39.21809 ] } },
{ "type": "Feature", "properties": { "objectid": 9533, "fid_establecimientos_de_salud": null, "código_an": "21-559", "código_vi": 121559, "código__m": " ", "código_nu": 0, "código_re": 9, "nombre_reg": "La Araucanía", "código_de": 21, "nombre_dep": "Servicio de Salud Araucanía Sur", "pertenenci": "Perteneciente al Sistema Nacional de Servicios de Salud", "tipo_estab": null, "ámbito_de": "Establecimiento de Salud", "nombre_ofi": null, "certificac": "No Aplica", "dependenci": "Servicio de Salud Araucanía Sur", "nivel_de_a": "Primario", "código_co": "09115", "nombre_com": "PUCÓN", "vía": "Calle", "número": 0, "dirección": "Sector Paillaco", "teléfono": 0, "fecha_inic": "38716", "tiene_serv": null, "tipo_de_ur": "No Aplica", "tipo_de_sa": null, "latitud": -39.19671, "longitud__": -71.76048, "tipo_de_pr": null, "estado_de": null, "nivel_de_c": "Primario", "modalidad": null, "simbologia": "Atención Primaria de Salud (APS)", "fid_comunas_v1": null, "cut_reg": "9", "cut_prov": "091", "cut_com": "09115", "region": "La Araucanía", "provincia": "CAUTÍN", "comuna": "PUCÓN", "superficie": null }, "geometry": { "type": "Point", "coordinates": [ -71.76048, -39.19671 ] } },
{ "type": "Feature", "properties": { "objectid": 9535, "fid_establecimientos_de_salud": null, "código_an": "21-587", "código_vi": 121587, "código__m": " ", "código_nu": 0, "código_re": 9, "nombre_reg": "La Araucanía", "código_de": 21, "nombre_dep": "Servicio de Salud Araucanía Sur", "pertenenci": "Perteneciente al Sistema Nacional de Servicios de Salud", "tipo_estab": null, "ámbito_de": "Establecimiento de Salud", "nombre_ofi": null, "certificac": "No Aplica", "dependenci": "Servicio de Salud Araucanía Sur", "nivel_de_a": "Primario", "código_co": "09104", "nombre_com": "CURARREHUE", "vía": "Calle", "número": 0, "dirección": "Camino a Reilgolil", "teléfono": 0, "fecha_inic": "38716", "tiene_serv": null, "tipo_de_ur": "No Aplica", "tipo_de_sa": null, "latitud": -39.18122, "longitud__": -71.47427, "tipo_de_pr": null, "estado_de": null, "nivel_de_c": "Primario", "modalidad": null, "simbologia": "Atención Primaria de Salud (APS)", "fid_comunas_v1": null, "cut_reg": "9", "cut_prov": "091", "cut_com": "09104", "region": "La Araucanía", "provincia": "CAUTÍN", "comuna": "CURARREHUE", "superficie": null }, "geometry": { "type": "Point", "coordinates": [ -71.47427, -39.18122 ] } },
{ "type": "Feature", "properties": { "objectid": 9539, "fid_establecimientos_de_salud": null, "código_an": "21-534", "código_vi": 121534, "código__m": " ", "código_nu": 0, "código_re": 9, "nombre_reg": "La Araucanía", "código_de": 21, "nombre_dep": "Servicio de Salud Araucanía Sur", "pertenenci": "Perteneciente al Sistema Nacional de Servicios de Salud", "tipo_estab": null, "ámbito_de": "Establecimiento de Salud", "nombre_ofi": null, "certificac": "No Aplica", "dependenci": "Servicio de Salud Araucanía Sur", "nivel_de_a": "Primario", "código_co": "09114", "nombre_com": "PITRUFQUÉN", "vía": "Calle", "número": 0, "dirección": "Sector Puraquina", "teléfono": 0, "fecha_inic": "38716", "tiene_serv": null, "tipo_de_ur": "No Aplica", "tipo_de_sa": null, "latitud": -39.13833, "longitud__": -72.35359, "tipo_de_pr": null, "estado_de": null, "nivel_de_c": "Primario", "modalidad": null, "simbologia": "Atención Primaria de Salud (APS)", "fid_comunas_v1": null, "cut_reg": "9", "cut_prov": "091", "cut_com": "09114", "region": "La Araucanía", "provincia": "CAUTÍN", "comuna": "PITRUFQUÉN", "superficie": null }, "geometry": { "type": "Point", "coordinates": [ -72.35359, -39.13833 ] } },
{ "type": "Feature", "properties": { "objectid": 9550, "fid_establecimientos_de_salud": null, "código_an": "21-596", "código_vi": 121596, "código__m": " ", "código_nu": 0, "código_re": 9, "nombre_reg": "La Araucanía", "código_de": 21, "nombre_dep": "Servicio de Salud Araucanía Sur", "pertenenci": "Perteneciente al Sistema Nacional de Servicios de Salud", "tipo_estab": null, "ámbito_de": "Establecimiento de Salud", "nombre_ofi": null, "certificac": "No Aplica", "dependenci": "Servicio de Salud Araucanía Sur", "nivel_de_a": "Primario", "código_co": "09103", "nombre_com": "CUNCO", "vía": "Calle", "número": 0, "dirección": "Caserío La Esperanza", "teléfono": 0, "fecha_inic": "38716", "tiene_serv": null, "tipo_de_ur": "No Aplica", "tipo_de_sa": null, "latitud": -39.07479, "longitud__": -72.08632, "tipo_de_pr": null, "estado_de": null, "nivel_de_c": "Primario", "modalidad": null, "simbologia": "Atención Primaria de Salud (APS)", "fid_comunas_v1": null, "cut_reg": "9", "cut_prov": "091", "cut_com": "09103", "region": "La Araucanía", "provincia": "CAUTÍN", "comuna": "CUNCO", "superficie": null }, "geometry": { "type": "Point", "coordinates": [ -72.08632, -39.07479 ] } },
{ "type": "Feature", "properties": { "objectid": 9556, "fid_establecimientos_de_salud": null, "código_an": "21-494", "código_vi": 121494, "código__m": " ", "código_nu": 0, "código_re": 9, "nombre_reg": "La Araucanía", "código_de": 21, "nombre_dep": "Servicio de Salud Araucanía Sur", "pertenenci": "Perteneciente al Sistema Nacional de Servicios de Salud", "tipo_estab": null, "ámbito_de": "Establecimiento de Salud", "nombre_ofi": null, "certificac": "No Aplica", "dependenci": "Servicio de Salud Araucanía Sur", "nivel_de_a": "Primario", "código_co": "09103", "nombre_com": "CUNCO", "vía": "Calle", "número": 0, "dirección": "Sector Quecheregue", "teléfono": 0, "fecha_inic": "38716", "tiene_serv": null, "tipo_de_ur": "No Aplica", "tipo_de_sa": null, "latitud": -38.99723, "longitud__": -72.04485, "tipo_de_pr": null, "estado_de": null, "nivel_de_c": "Primario", "modalidad": null, "simbologia": "Atención Primaria de Salud (APS)", "fid_comunas_v1": null, "cut_reg": "9", "cut_prov": "091", "cut_com": "09103", "region": "La Araucanía", "provincia": "CAUTÍN", "comuna": "CUNCO", "superficie": null }, "geometry": { "type": "Point", "coordinates": [ -72.04485, -38.99723 ] } },
{ "type": "Feature", "properties": { "objectid": 12834, "fid_establecimientos_de_salud": null, "código_an": "201472", "código_vi": 201472, "código__m": " ", "código_nu": 0, "código_re": 9, "nombre_reg": "La Araucanía", "código_de": 21, "nombre_dep": "Servicio de Salud Araucanía Sur", "pertenenci": "Perteneciente al Sistema Nacional de Servicios de Salud", "tipo_estab": null, "ámbito_de": "Establecimiento de Salud", "nombre_ofi": null, "certificac": "No Aplica", "dependenci": "Servicio de Salud Araucanía Sur", "nivel_de_a": "Primario", "código_co": "09115", "nombre_com": "PUCÓN", "vía": "Otro", "número": 0, "dirección": "Caburga Km. 17,5", "teléfono": 0, "fecha_inic": "45289", "tiene_serv": null, "tipo_de_ur": "No Aplica", "tipo_de_sa": null, "latitud": -39.234533, "longitud__": -71.824486, "tipo_de_pr": null, "estado_de": null, "nivel_de_c": "Primario", "modalidad": null, "simbologia": "Atención Primaria de Salud (APS)", "fid_comunas_v1": null, "cut_reg": "9", "cut_prov": "091", "cut_com": "09115", "region": "La Araucanía", "provincia": "CAUTÍN", "comuna": "PUCÓN", "superficie": null }, "geometry": { "type": "Point", "coordinates": [ -71.82449, -39.23453 ] } },
{ "type": "Feature", "properties": { "objectid": 12848, "fid_establecimientos_de_salud": null, "código_an": "201486", "código_vi": 201486, "código__m": " ", "código_nu": 0, "código_re": 9, "nombre_reg": "La Araucanía", "código_de": 21, "nombre_dep": "Servicio de Salud Araucanía Sur", "pertenenci": "Perteneciente al Sistema Nacional de Servicios de Salud", "tipo_estab": null, "ámbito_de": "Establecimiento de Salud", "nombre_ofi": null, "certificac": "No Aplica", "dependenci": "Servicio de Salud Araucanía Sur", "nivel_de_a": "Primario", "código_co": "09115", "nombre_com": "PUCÓN", "vía": "Otro", "número": 0, "dirección": "Caburga Km. 17,5", "teléfono": 0, "fecha_inic": null, "tiene_serv": null, "tipo_de_ur": "Urgencia ambulatoria (SUR)", "tipo_de_sa": null, "latitud": -39.234574, "longitud__": -71.824522, "tipo_de_pr": null, "estado_de": null, "nivel_de_c": "Primario", "modalidad": null, "simbologia": "Servicios de Urgencia de Atención Primaria", "fid_comunas_v1": null, "cut_reg": "9", "cut_prov": "091", "cut_com": "09115", "region": "La Araucanía", "provincia": "CAUTÍN", "comuna": "PUCÓN", "superficie": null }, "geometry": { "type": "Point", "coordinates": [ -71.82452, -39.23457 ] } },
{ "type": "Feature", "properties": { "objectid": 12913, "fid_establecimientos_de_salud": null, "código_an": "201551", "código_vi": 201551, "código__m": " ", "código_nu": 0, "código_re": 9, "nombre_reg": "La Araucanía", "código_de": 9, "nombre_dep": "SEREMI De La Araucanía", "pertenenci": "No perteneciente al Sistema Nacional de Servicios de Salud", "tipo_estab": null, "ámbito_de": "Establecimiento de Salud", "nombre_ofi": null, "certificac": "No Aplica", "dependenci": "SEREMI De La Araucanía", "nivel_de_a": "Secundario", "código_co": "09120", "nombre_com": "VILLARRICA", "vía": "Calle", "número": 204, "dirección": "Camilo Henríquez", "teléfono": 225158655, "fecha_inic": "45128", "tiene_serv": null, "tipo_de_ur": "No Aplica", "tipo_de_sa": null, "latitud": -39.279614, "longitud__": -72.224729, "tipo_de_pr": null, "estado_de": null, "nivel_de_c": "Secundario", "modalidad": null, "simbologia": "Centros de Salud y Clínicas Privadas", "fid_comunas_v1": null, "cut_reg": "9", "cut_prov": "091", "cut_com": "09120", "region": "La Araucanía", "provincia": "CAUTÍN", "comuna": "VILLARRICA", "superficie": null }, "geometry": { "type": "Point", "coordinates": [ -72.22473, -39.27961 ] } },
{ "type": "Feature", "properties": { "objectid": 12929, "fid_establecimientos_de_salud": null, "código_an": "201567", "código_vi": 201567, "código__m": " ", "código_nu": 0, "código_re": 9, "nombre_reg": "La Araucanía", "código_de": 9, "nombre_dep": "SEREMI De La Araucanía", "pertenenci": "No perteneciente al Sistema Nacional de Servicios de Salud", "tipo_estab": null, "ámbito_de": "Establecimiento de Salud", "nombre_ofi": null, "certificac": "No Aplica", "dependenci": "SEREMI De La Araucanía", "nivel_de_a": "No Aplica", "código_co": "09120", "nombre_com": "VILLARRICA", "vía": "Calle", "número": 829, "dirección": "General Urrutia", "teléfono": 0, "fecha_inic": "45030", "tiene_serv": null, "tipo_de_ur": "No Aplica", "tipo_de_sa": null, "latitud": -39.486893, "longitud__": -72.161316, "tipo_de_pr": null, "estado_de": null, "nivel_de_c": "No Aplica", "modalidad": null, "simbologia": "Centros de Salud y Clínicas Privadas", "fid_comunas_v1": null, "cut_reg": "9", "cut_prov": "091", "cut_com": "09120", "region": "La Araucanía", "provincia": "CAUTÍN", "comuna": "VILLARRICA", "superficie": null }, "geometry": { "type": "Point", "coordinates": [ -72.16132, -39.48689 ] } },
{ "type": "Feature", "properties": { "objectid": 12944, "fid_establecimientos_de_salud": null, "código_an": "201582", "código_vi": 201582, "código__m": " ", "código_nu": 0, "código_re": 9, "nombre_reg": "La Araucanía", "código_de": 9, "nombre_dep": "SEREMI De La Araucanía", "pertenenci": "No perteneciente al Sistema Nacional de Servicios de Salud", "tipo_estab": null, "ámbito_de": "Establecimiento de Salud", "nombre_ofi": null, "certificac": "No Aplica", "dependenci": "SEREMI De La Araucanía", "nivel_de_a": "Primario", "código_co": "09120", "nombre_com": "VILLARRICA", "vía": "Calle", "número": 1117, "dirección": "Saturnino Epulef", "teléfono": 5694469080, "fecha_inic": "45294", "tiene_serv": null, "tipo_de_ur": "No Aplica", "tipo_de_sa": null, "latitud": -39.288222, "longitud__": -72.226277, "tipo_de_pr": null, "estado_de": null, "nivel_de_c": "Primario", "modalidad": null, "simbologia": "Servicios de Apoyo Diagnóstico y Terapéutico", "fid_comunas_v1": null, "cut_reg": "9", "cut_prov": "091", "cut_com": "09120", "region": "La Araucanía", "provincia": "CAUTÍN", "comuna": "VILLARRICA", "superficie": null }, "geometry": { "type": "Point", "coordinates": [ -72.22628, -39.28822 ] } },
{ "type": "Feature", "properties": { "objectid": 12947, "fid_establecimientos_de_salud": null, "código_an": "201585", "código_vi": 201585, "código__m": " ", "código_nu": 0, "código_re": 9, "nombre_reg": "La Araucanía", "código_de": 9, "nombre_dep": "SEREMI De La Araucanía", "pertenenci": "No perteneciente al Sistema Nacional de Servicios de Salud", "tipo_estab": null, "ámbito_de": "Establecimiento de Salud", "nombre_ofi": null, "certificac": "No Aplica", "dependenci": "SEREMI De La Araucanía", "nivel_de_a": "No Aplica", "código_co": "09120", "nombre_com": "VILLARRICA", "vía": "Calle", "número": 805, "dirección": "Valentín Letelier", "teléfono": 988116897, "fecha_inic": "45407", "tiene_serv": null, "tipo_de_ur": "No Aplica", "tipo_de_sa": null, "latitud": -39.282072, "longitud__": -72.225094, "tipo_de_pr": null, "estado_de": null, "nivel_de_c": "No Aplica", "modalidad": null, "simbologia": "Centros de Salud y Clínicas Privadas", "fid_comunas_v1": null, "cut_reg": "9", "cut_prov": "091", "cut_com": "09120", "region": "La Araucanía", "provincia": "CAUTÍN", "comuna": "VILLARRICA", "superficie": null }, "geometry": { "type": "Point", "coordinates": [ -72.22509, -39.28207 ] } },
{ "type": "Feature", "properties": { "objectid": 12955, "fid_establecimientos_de_salud": null, "código_an": "201593", "código_vi": 201593, "código__m": " ", "código_nu": 0, "código_re": 9, "nombre_reg": "La Araucanía", "código_de": 9, "nombre_dep": "SEREMI De La Araucanía", "pertenenci": "No perteneciente al Sistema Nacional de Servicios de Salud", "tipo_estab": null, "ámbito_de": "Establecimiento de Salud", "nombre_ofi": null, "certificac": "No Aplica", "dependenci": "SEREMI De La Araucanía", "nivel_de_a": "No Aplica", "código_co": "09120", "nombre_com": "VILLARRICA", "vía": "Calle", "número": 753, "dirección": "Vicente Reyes", "teléfono": 964360898, "fecha_inic": "44641", "tiene_serv": null, "tipo_de_ur": "No Aplica", "tipo_de_sa": null, "latitud": -39.282472, "longitud__": -72.226753, "tipo_de_pr": null, "estado_de": null, "nivel_de_c": "No Aplica", "modalidad": null, "simbologia": "Centros de Salud y Clínicas Privadas", "fid_comunas_v1": null, "cut_reg": "9", "cut_prov": "091", "cut_com": "09120", "region": "La Araucanía", "provincia": "CAUTÍN", "comuna": "VILLARRICA", "superficie": null }, "geometry": { "type": "Point", "coordinates": [ -72.22675, -39.28247 ] } },
{ "type": "Feature", "properties": { "objectid": 12962, "fid_establecimientos_de_salud": null, "código_an": "201600", "código_vi": 201600, "código__m": " ", "código_nu": 0, "código_re": 9, "nombre_reg": "La Araucanía", "código_de": 9, "nombre_dep": "SEREMI De La Araucanía", "pertenenci": "No perteneciente al Sistema Nacional de Servicios de Salud", "tipo_estab": null, "ámbito_de": "Establecimiento de Salud", "nombre_ofi": null, "certificac": "No Aplica", "dependenci": "SEREMI De La Araucanía", "nivel_de_a": "No Aplica", "código_co": "09120", "nombre_com": "VILLARRICA", "vía": "Calle", "número": 805, "dirección": "Valentin Letelier", "teléfono": 996433456, "fecha_inic": "45236", "tiene_serv": null, "tipo_de_ur": "No Aplica", "tipo_de_sa": null, "latitud": -39.282072, "longitud__": -72.225094, "tipo_de_pr": null, "estado_de": null, "nivel_de_c": "No Aplica", "modalidad": null, "simbologia": "Centros de Salud y Clínicas Privadas", "fid_comunas_v1": null, "cut_reg": "9", "cut_prov": "091", "cut_com": "09120", "region": "La Araucanía", "provincia": "CAUTÍN", "comuna": "VILLARRICA", "superficie": null }, "geometry": { "type": "Point", "coordinates": [ -72.22509, -39.28207 ] } },
{ "type": "Feature", "properties": { "objectid": 12964, "fid_establecimientos_de_salud": null, "código_an": "201602", "código_vi": 201602, "código__m": " ", "código_nu": 0, "código_re": 9, "nombre_reg": "La Araucanía", "código_de": 9, "nombre_dep": "SEREMI De La Araucanía", "pertenenci": "No perteneciente al Sistema Nacional de Servicios de Salud", "tipo_estab": null, "ámbito_de": "Establecimiento de Salud", "nombre_ofi": null, "certificac": "No Aplica", "dependenci": "SEREMI De La Araucanía", "nivel_de_a": "No Aplica", "código_co": "09120", "nombre_com": "VILLARRICA", "vía": "Calle", "número": 530, "dirección": "Anfión Muñoz", "teléfono": 952490887, "fecha_inic": "45405", "tiene_serv": null, "tipo_de_ur": "No Aplica", "tipo_de_sa": null, "latitud": -39.281699, "longitud__": -72.228646, "tipo_de_pr": null, "estado_de": null, "nivel_de_c": "No Aplica", "modalidad": null, "simbologia": "Centros de Salud y Clínicas Privadas", "fid_comunas_v1": null, "cut_reg": "9", "cut_prov": "091", "cut_com": "09120", "region": "La Araucanía", "provincia": "CAUTÍN", "comuna": "VILLARRICA", "superficie": null }, "geometry": { "type": "Point", "coordinates": [ -72.22865, -39.2817 ] } },
{ "type": "Feature", "properties": { "objectid": 13011, "fid_establecimientos_de_salud": null, "código_an": "201652", "código_vi": 201652, "código__m": " ", "código_nu": 0, "código_re": 9, "nombre_reg": "La Araucanía", "código_de": 9, "nombre_dep": "SEREMI De La Araucanía", "pertenenci": "No perteneciente al Sistema Nacional de Servicios de Salud", "tipo_estab": null, "ámbito_de": "Establecimiento de Salud", "nombre_ofi": null, "certificac": "No Aplica", "dependenci": "SEREMI De La Araucanía", "nivel_de_a": "No Aplica", "código_co": "09115", "nombre_com": "PUCÓN", "vía": "Calle", "número": 717, "dirección": "Bernardo O'higgins", "teléfono": 954117687, "fecha_inic": "43613", "tiene_serv": null, "tipo_de_ur": "No Aplica", "tipo_de_sa": null, "latitud": -39.275236, "longitud__": -71.970442, "tipo_de_pr": null, "estado_de": null, "nivel_de_c": "No Aplica", "modalidad": null, "simbologia": "Centros de Salud y Clínicas Privadas", "fid_comunas_v1": null, "cut_reg": "9", "cut_prov": "091", "cut_com": "09115", "region": "La Araucanía", "provincia": "CAUTÍN", "comuna": "PUCÓN", "superficie": null }, "geometry": { "type": "Point", "coordinates": [ -71.97044, -39.27524 ] } },
{ "type": "Feature", "properties": { "objectid": 13019, "fid_establecimientos_de_salud": null, "código_an": "201660", "código_vi": 201660, "código__m": " ", "código_nu": 0, "código_re": 9, "nombre_reg": "La Araucanía", "código_de": 9, "nombre_dep": "SEREMI De La Araucanía", "pertenenci": "No perteneciente al Sistema Nacional de Servicios de Salud", "tipo_estab": null, "ámbito_de": "Establecimiento de Salud", "nombre_ofi": null, "certificac": "No Aplica", "dependenci": "SEREMI De La Araucanía", "nivel_de_a": "Secundario", "código_co": "09120", "nombre_com": "VILLARRICA", "vía": "Calle", "número": 709, "dirección": "San Martin", "teléfono": 985285339, "fecha_inic": "45090", "tiene_serv": null, "tipo_de_ur": "No Aplica", "tipo_de_sa": null, "latitud": -39.279794, "longitud__": -72.224314, "tipo_de_pr": null, "estado_de": null, "nivel_de_c": "Secundario", "modalidad": null, "simbologia": "Centros Especializados y de Diagnóstico", "fid_comunas_v1": null, "cut_reg": "9", "cut_prov": "091", "cut_com": "09120", "region": "La Araucanía", "provincia": "CAUTÍN", "comuna": "VILLARRICA", "superficie": null }, "geometry": { "type": "Point", "coordinates": [ -72.22431, -39.27979 ] } },
{ "type": "Feature", "properties": { "objectid": 13346, "fid_establecimientos_de_salud": null, "código_an": "201161", "código_vi": 201161, "código__m": "22-308", "código_nu": 0, "código_re": 14, "nombre_reg": "Los Ríos", "código_de": 22, "nombre_dep": "Servicio de Salud Los Rios", "pertenenci": "Perteneciente al Sistema Nacional de Servicios de Salud", "tipo_estab": null, "ámbito_de": "Establecimiento de Salud", "nombre_ofi": null, "certificac": "No Aplica", "dependenci": "Servicio de Salud Los Rios", "nivel_de_a": "Primario", "código_co": "14108", "nombre_com": "PANGUIPULLI", "vía": "Calle", "número": 0, "dirección": "Las Tepas", "teléfono": 0, "fecha_inic": null, "tiene_serv": null, "tipo_de_ur": "Urgencia Ambulatoria (SAPU)", "tipo_de_sa": null, "latitud": -39.568231, "longitud__": -72.008145, "tipo_de_pr": null, "estado_de": null, "nivel_de_c": "Primario", "modalidad": null, "simbologia": "Servicios de Urgencia de Atención Primaria", "fid_comunas_v1": null, "cut_reg": "14", "cut_prov": "141", "cut_com": "14108", "region": "Los Ríos", "provincia": "VALDIVIA", "comuna": "PANGUIPULLI", "superficie": null }, "geometry": { "type": "Point", "coordinates": [ -72.00814, -39.56823 ] } },
{ "type": "Feature", "properties": { "objectid": 13358, "fid_establecimientos_de_salud": null, "código_an": "201174", "código_vi": 201174, "código__m": " ", "código_nu": 0, "código_re": 9, "nombre_reg": "La Araucanía", "código_de": 9, "nombre_dep": "SEREMI De La Araucanía", "pertenenci": "No perteneciente al Sistema Nacional de Servicios de Salud", "tipo_estab": null, "ámbito_de": "Establecimiento de Salud", "nombre_ofi": null, "certificac": "No Aplica", "dependenci": "SEREMI De La Araucanía", "nivel_de_a": "Secundario", "código_co": "09120", "nombre_com": "VILLARRICA", "vía": "Calle", "número": 602, "dirección": "GENERAL URRUTIA", "teléfono": 976217774, "fecha_inic": "44622", "tiene_serv": null, "tipo_de_ur": "No Aplica", "tipo_de_sa": null, "latitud": -39.280274, "longitud__": -72.225623, "tipo_de_pr": null, "estado_de": null, "nivel_de_c": "Secundario", "modalidad": null, "simbologia": "Centros de Salud y Clínicas Privadas", "fid_comunas_v1": null, "cut_reg": "9", "cut_prov": "091", "cut_com": "09120", "region": "La Araucanía", "provincia": "CAUTÍN", "comuna": "VILLARRICA", "superficie": null }, "geometry": { "type": "Point", "coordinates": [ -72.22562, -39.28027 ] } },
{ "type": "Feature", "properties": { "objectid": 13556, "fid_establecimientos_de_salud": null, "código_an": "201388", "código_vi": 201388, "código__m": " ", "código_nu": 0, "código_re": 9, "nombre_reg": "La Araucanía", "código_de": 9, "nombre_dep": "SEREMI De La Araucanía", "pertenenci": "No perteneciente al Sistema Nacional de Servicios de Salud", "tipo_estab": null, "ámbito_de": "Establecimiento de Salud", "nombre_ofi": null, "certificac": "No Aplica", "dependenci": "SEREMI De La Araucanía", "nivel_de_a": "Secundario", "código_co": "09120", "nombre_com": "VILLARRICA", "vía": "Calle", "número": 204, "dirección": "Camilo Henríquez", "teléfono": 954021294, "fecha_inic": null, "tiene_serv": null, "tipo_de_ur": "No Aplica", "tipo_de_sa": null, "latitud": -39.280303, "longitud__": -72.231409, "tipo_de_pr": null, "estado_de": null, "nivel_de_c": "Secundario", "modalidad": null, "simbologia": "Centros de Salud y Clínicas Privadas", "fid_comunas_v1": null, "cut_reg": "9", "cut_prov": "091", "cut_com": "09120", "region": "La Araucanía", "provincia": "CAUTÍN", "comuna": "VILLARRICA", "superficie": null }, "geometry": { "type": "Point", "coordinates": [ -72.23141, -39.2803 ] } },
{ "type": "Feature", "properties": { "objectid": 13557, "fid_establecimientos_de_salud": null, "código_an": "201389", "código_vi": 201389, "código__m": " ", "código_nu": 0, "código_re": 9, "nombre_reg": "La Araucanía", "código_de": 9, "nombre_dep": "SEREMI De La Araucanía", "pertenenci": "No perteneciente al Sistema Nacional de Servicios de Salud", "tipo_estab": null, "ámbito_de": "Establecimiento de Salud", "nombre_ofi": null, "certificac": "No Aplica", "dependenci": "SEREMI De La Araucanía", "nivel_de_a": "No Aplica", "código_co": "09120", "nombre_com": "VILLARRICA", "vía": "Calle", "número": 203, "dirección": "Cacique Millaqueo  Licanray", "teléfono": 955226024, "fecha_inic": null, "tiene_serv": null, "tipo_de_ur": "No Aplica", "tipo_de_sa": null, "latitud": -39.486854, "longitud__": -72.160332, "tipo_de_pr": null, "estado_de": null, "nivel_de_c": "No Aplica", "modalidad": null, "simbologia": "Servicios de Apoyo Diagnóstico y Terapéutico", "fid_comunas_v1": null, "cut_reg": "9", "cut_prov": "091", "cut_com": "09120", "region": "La Araucanía", "provincia": "CAUTÍN", "comuna": "VILLARRICA", "superficie": null }, "geometry": { "type": "Point", "coordinates": [ -72.16033, -39.48685 ] } },
{ "type": "Feature", "properties": { "objectid": 13805, "fid_establecimientos_de_salud": null, "código_an": "202050", "código_vi": 202050, "código__m": "22-308", "código_nu": 122308, "código_re": 14, "nombre_reg": "Los Ríos", "código_de": 22, "nombre_dep": "Servicio de Salud Los Rios", "pertenenci": "Perteneciente al Sistema Nacional de Servicios de Salud", "tipo_estab": null, "ámbito_de": "Establecimiento de Salud", "nombre_ofi": null, "certificac": "No Aplica", "dependenci": "Servicio de Salud Los Rios", "nivel_de_a": "Primario", "código_co": "14108", "nombre_com": "PANGUIPULLI", "vía": "Camino", "número": 0, "dirección": "INTERNACIONAL LIQUIÑE", "teléfono": 632317231, "fecha_inic": "43279", "tiene_serv": null, "tipo_de_ur": "Urgencia Ambulatoria (SUR)", "tipo_de_sa": null, "latitud": -39.74693, "longitud__": -71.85428, "tipo_de_pr": null, "estado_de": null, "nivel_de_c": "Primario", "modalidad": null, "simbologia": "Servicios de Urgencia de Atención Primaria", "fid_comunas_v1": null, "cut_reg": "14", "cut_prov": "141", "cut_com": "14108", "region": "Los Ríos", "provincia": "VALDIVIA", "comuna": "PANGUIPULLI", "superficie": null }, "geometry": { "type": "Point", "coordinates": [ -71.85428, -39.74693 ] } },
{ "type": "Feature", "properties": { "objectid": 13827, "fid_establecimientos_de_salud": null, "código_an": "202077", "código_vi": 202077, "código__m": " ", "código_nu": 0, "código_re": 14, "nombre_reg": "Los Ríos", "código_de": 14, "nombre_dep": "SEREMI De Los Ríos", "pertenenci": "No perteneciente al Sistema Nacional de Servicios de Salud", "tipo_estab": null, "ámbito_de": "Establecimiento de Salud", "nombre_ofi": null, "certificac": "No Aplica", "dependenci": "SEREMI De Los Ríos", "nivel_de_a": "Secundario", "código_co": "14108", "nombre_com": "Panguipulli", "vía": "Calle", "número": 437, "dirección": "BERNARDO O'HIGGINS", "teléfono": 973773956, "fecha_inic": "45888", "tiene_serv": null, "tipo_de_ur": "No Aplica", "tipo_de_sa": null, "latitud": -39.642109, "longitud__": -72.328065, "tipo_de_pr": null, "estado_de": null, "nivel_de_c": "Secundario", "modalidad": null, "simbologia": "Centros de Salud y Clínicas Privadas", "fid_comunas_v1": null, "cut_reg": "14", "cut_prov": "141", "cut_com": "14108", "region": "Los Ríos", "provincia": "VALDIVIA", "comuna": "Panguipulli", "superficie": null }, "geometry": { "type": "Point", "coordinates": [ -72.32807, -39.64211 ] } },
{ "type": "Feature", "properties": { "objectid": 13956, "fid_establecimientos_de_salud": null, "código_an": "202199", "código_vi": 202199, "código__m": " ", "código_nu": 0, "código_re": 9, "nombre_reg": "La Araucanía", "código_de": 9, "nombre_dep": "SEREMI de La Araucanía", "pertenenci": "No perteneciente al Sistema Nacional de Servicios de Salud", "tipo_estab": null, "ámbito_de": "Establecimiento de Salud", "nombre_ofi": null, "certificac": "No Aplica", "dependenci": "SEREMI de La Araucanía", "nivel_de_a": "No Aplica", "código_co": "09120", "nombre_com": "Villarrica", "vía": "Calle", "número": 792, "dirección": "Francisco Bilbao", "teléfono": 984469018, "fecha_inic": "45183", "tiene_serv": null, "tipo_de_ur": "No Aplica", "tipo_de_sa": null, "latitud": -39.284081, "longitud__": -72.228063, "tipo_de_pr": null, "estado_de": null, "nivel_de_c": "No Aplica", "modalidad": null, "simbologia": "Servicios de Apoyo Diagnóstico y Terapéutico", "fid_comunas_v1": null, "cut_reg": "9", "cut_prov": "091", "cut_com": "09120", "region": "La Araucanía", "provincia": "CAUTÍN", "comuna": "Villarrica", "superficie": null }, "geometry": { "type": "Point", "coordinates": [ -72.22806, -39.28408 ] } }
]
}
