{
"type": "FeatureCollection",
"name": "YAT",
"crs": { "type": "name", "properties": { "name": "urn:ogc:def:crs:OGC:1.3:CRS84" } },
"xy_coordinate_resolution": 1e-05,
"features": [
{ "type": "Feature", "properties": { "objectid": 9043, "fid_establecimientos_de_salud": null, "código_an": "24-420", "código_vi": 124420, "código__m": " ", "código_nu": 0, "código_re": 10, "nombre_reg": "Los Lagos", "código_de": 24, "nombre_dep": "Servicio de Salud Del Reloncaví", "pertenenci": "Perteneciente al Sistema Nacional de Servicios de Salud", "tipo_estab": null, "ámbito_de": "Establecimiento de Salud", "nombre_ofi": null, "certificac": "No Aplica", "dependenci": "Servicio de Salud Del Reloncaví", "nivel_de_a": "Primario", "código_co": "10403", "nombre_com": "HUALAIHUÉ", "vía": "Calle", "número": 0, "dirección": "Hualaihué Puerto", "teléfono": 0, "fecha_inic": "38716", "tiene_serv": null, "tipo_de_ur": "No Aplica", "tipo_de_sa": null, "latitud": -42.02333, "longitud__": -72.68656, "tipo_de_pr": null, "estado_de": null, "nivel_de_c": "Primario", "modalidad": null, "simbologia": "Atención Primaria de Salud (APS)", "fid_comunas_v1": null, "cut_reg": "10", "cut_prov": "104", "cut_com": "10403", "region": "Los Lagos", "provincia": "PALENA", "comuna": "HUALAIHUÉ", "superficie": null }, "geometry": { "type": "Point", "coordinates": [ -72.68656, -42.02333 ] } },
{ "type": "Feature", "properties": { "objectid": 9044, "fid_establecimientos_de_salud": null, "código_an": "24-982", "código_vi": 200082, "código__m": " ", "código_nu": 0, "código_re": 10, "nombre_reg": "Los Lagos", "código_de": 24, "nombre_dep": "Servicio de Salud Del Reloncaví", "pertenenci": "Perteneciente al Sistema Nacional de Servicios de Salud", "tipo_estab": null, "ámbito_de": "Establecimiento de Salud", "nombre_ofi": null, "certificac": "No Aplica", "dependenci": "Servicio de Salud Del Reloncaví", "nivel_de_a": "Primario", "código_co": "10403", "nombre_com": "HUALAIHUÉ", "vía": "Calle", "número": 0, "dirección": "Sector Chauchil", "teléfono": 0, "fecha_inic": "41936", "tiene_serv": null, "tipo_de_ur": "No Aplica", "tipo_de_sa": null, "latitud": -41.973619, "longitud__": -72.799798, "tipo_de_pr": null, "estado_de": null, "nivel_de_c": "Primario", "modalidad": null, "simbologia": "Atención Primaria de Salud (APS)", "fid_comunas_v1": null, "cut_reg": "10", "cut_prov": "104", "cut_com": "10403", "region": "Los Lagos", "provincia": "PALENA", "comuna": "HUALAIHUÉ", "superficie": null }, "geometry": { "type": "Point", "coordinates": [ -72.7998, -41.97362 ] } },
{ "type": "Feature", "properties": { "objectid": 9046, "fid_establecimientos_de_salud": null, "código_an": "24-380", "código_vi": 124380, "código__m": " ", "código_nu": 0, "código_re": 10, "nombre_reg": "Los Lagos", "código_de": 24, "nombre_dep": "Servicio de Salud Del Reloncaví", "pertenenci": "Perteneciente al Sistema Nacional de Servicios de Salud", "tipo_estab": null, "ámbito_de": "Establecimiento de Salud", "nombre_ofi": null, "certificac": "Centro de Salud Familiar", "dependenci": "Servicio de Salud Del Reloncaví", "nivel_de_a": "Primario", "código_co": "10403", "nombre_com": "HUALAIHUÉ", "vía": "Calle", "número": 25, "dirección": "Diego Portales", "teléfono": 652328630, "fecha_inic": "38716", "tiene_serv": null, "tipo_de_ur": " ", "tipo_de_sa": null, "latitud": -41.96271, "longitud__": -72.4689, "tipo_de_pr": null, "estado_de": null, "nivel_de_c": "Primario", "modalidad": null, "simbologia": "Atención Primaria de Salud (APS)", "fid_comunas_v1": null, "cut_reg": "10", "cut_prov": "104", "cut_com": "10403", "region": "Los Lagos", "provincia": "PALENA", "comuna": "HUALAIHUÉ", "superficie": null }, "geometry": { "type": "Point", "coordinates": [ -72.4689, -41.96271 ] } },
{ "type": "Feature", "properties": { "objectid": 9047, "fid_establecimientos_de_salud": null, "código_an": "24-418", "código_vi": 124418, "código__m": " ", "código_nu": 0, "código_re": 10, "nombre_reg": "Los Lagos", "código_de": 24, "nombre_dep": "Servicio de Salud Del Reloncaví", "pertenenci": "Perteneciente al Sistema Nacional de Servicios de Salud", "tipo_estab": null, "ámbito_de": "Establecimiento de Salud", "nombre_ofi": null, "certificac": "No Aplica", "dependenci": "Servicio de Salud Del Reloncaví", "nivel_de_a": "Primario", "código_co": "10403", "nombre_com": "HUALAIHUÉ", "vía": "Calle", "número": 0, "dirección": "Aldea de Rolecha", "teléfono": 0, "fecha_inic": "38716", "tiene_serv": null, "tipo_de_ur": "No Aplica", "tipo_de_sa": null, "latitud": -41.92205, "longitud__": -72.84755, "tipo_de_pr": null, "estado_de": null, "nivel_de_c": "Primario", "modalidad": null, "simbologia": "Atención Primaria de Salud (APS)", "fid_comunas_v1": null, "cut_reg": "10", "cut_prov": "104", "cut_com": "10403", "region": "Los Lagos", "provincia": "PALENA", "comuna": "HUALAIHUÉ", "superficie": null }, "geometry": { "type": "Point", "coordinates": [ -72.84755, -41.92205 ] } },
{ "type": "Feature", "properties": { "objectid": 9051, "fid_establecimientos_de_salud": null, "código_an": "24-552", "código_vi": 124552, "código__m": " ", "código_nu": 0, "código_re": 10, "nombre_reg": "Los Lagos", "código_de": 24, "nombre_dep": "Servicio de Salud Del Reloncaví", "pertenenci": "Perteneciente al Sistema Nacional de Servicios de Salud", "tipo_estab": null, "ámbito_de": "Establecimiento de Salud", "nombre_ofi": null, "certificac": "No Aplica", "dependenci": "Servicio de Salud Del Reloncaví", "nivel_de_a": "Primario", "código_co": "10102", "nombre_com": "CALBUCO", "vía": "Calle", "número": 0, "dirección": "Sector Queullín", "teléfono": 0, "fecha_inic": "38716", "tiene_serv": null, "tipo_de_ur": "No Aplica", "tipo_de_sa": null, "latitud": -41.87726, "longitud__": -72.90345, "tipo_de_pr": null, "estado_de": null, "nivel_de_c": "Primario", "modalidad": null, "simbologia": "Atención Primaria de Salud (APS)", "fid_comunas_v1": null, "cut_reg": "10", "cut_prov": "101", "cut_com": "10102", "region": "Los Lagos", "provincia": "LLANQUIHUE", "comuna": "CALBUCO", "superficie": null }, "geometry": { "type": "Point", "coordinates": [ -72.90345, -41.87726 ] } },
{ "type": "Feature", "properties": { "objectid": 9053, "fid_establecimientos_de_salud": null, "código_an": "24-417", "código_vi": 124417, "código__m": " ", "código_nu": 0, "código_re": 10, "nombre_reg": "Los Lagos", "código_de": 24, "nombre_dep": "Servicio de Salud Del Reloncaví", "pertenenci": "Perteneciente al Sistema Nacional de Servicios de Salud", "tipo_estab": null, "ámbito_de": "Establecimiento de Salud", "nombre_ofi": null, "certificac": "No Aplica", "dependenci": "Servicio de Salud Del Reloncaví", "nivel_de_a": "Primario", "código_co": "10403", "nombre_com": "HUALAIHUÉ", "vía": "Calle", "número": 0, "dirección": "Caserío de Aulén", "teléfono": 0, "fecha_inic": "38716", "tiene_serv": null, "tipo_de_ur": "No Aplica", "tipo_de_sa": null, "latitud": -41.87667, "longitud__": -72.80968, "tipo_de_pr": null, "estado_de": null, "nivel_de_c": "Primario", "modalidad": null, "simbologia": "Atención Primaria de Salud (APS)", "fid_comunas_v1": null, "cut_reg": "10", "cut_prov": "104", "cut_com": "10403", "region": "Los Lagos", "provincia": "PALENA", "comuna": "HUALAIHUÉ", "superficie": null }, "geometry": { "type": "Point", "coordinates": [ -72.80968, -41.87667 ] } },
{ "type": "Feature", "properties": { "objectid": 9054, "fid_establecimientos_de_salud": null, "código_an": "24-414", "código_vi": 124414, "código__m": " ", "código_nu": 0, "código_re": 10, "nombre_reg": "Los Lagos", "código_de": 24, "nombre_dep": "Servicio de Salud Del Reloncaví", "pertenenci": "Perteneciente al Sistema Nacional de Servicios de Salud", "tipo_estab": null, "ámbito_de": "Establecimiento de Salud", "nombre_ofi": null, "certificac": "No Aplica", "dependenci": "Servicio de Salud Del Reloncaví", "nivel_de_a": "Primario", "código_co": "10103", "nombre_com": "COCHAMÓ", "vía": "Calle", "número": 0, "dirección": "Sector de Llanada Grande", "teléfono": 0, "fecha_inic": "38716", "tiene_serv": null, "tipo_de_ur": "No Aplica", "tipo_de_sa": null, "latitud": -41.871571, "longitud__": -71.938716, "tipo_de_pr": null, "estado_de": null, "nivel_de_c": "Primario", "modalidad": null, "simbologia": "Atención Primaria de Salud (APS)", "fid_comunas_v1": null, "cut_reg": "10", "cut_prov": "101", "cut_com": "10103", "region": "Los Lagos", "provincia": "LLANQUIHUE", "comuna": "COCHAMÓ", "superficie": null }, "geometry": { "type": "Point", "coordinates": [ -71.93872, -41.87157 ] } },
{ "type": "Feature", "properties": { "objectid": 9074, "fid_establecimientos_de_salud": null, "código_an": "24-419", "código_vi": 124419, "código__m": " ", "código_nu": 0, "código_re": 10, "nombre_reg": "Los Lagos", "código_de": 24, "nombre_dep": "Servicio de Salud Del Reloncaví", "pertenenci": "Perteneciente al Sistema Nacional de Servicios de Salud", "tipo_estab": null, "ámbito_de": "Establecimiento de Salud", "nombre_ofi": null, "certificac": "No Aplica", "dependenci": "Servicio de Salud Del Reloncaví", "nivel_de_a": "Primario", "código_co": "10403", "nombre_com": "HUALAIHUÉ", "vía": "Calle", "número": 0, "dirección": "Aldea de Contao", "teléfono": 0, "fecha_inic": "38716", "tiene_serv": null, "tipo_de_ur": "No Aplica", "tipo_de_sa": null, "latitud": -41.80106, "longitud__": -72.72146, "tipo_de_pr": null, "estado_de": null, "nivel_de_c": "Primario", "modalidad": null, "simbologia": "Atención Primaria de Salud (APS)", "fid_comunas_v1": null, "cut_reg": "10", "cut_prov": "104", "cut_com": "10403", "region": "Los Lagos", "provincia": "PALENA", "comuna": "HUALAIHUÉ", "superficie": null }, "geometry": { "type": "Point", "coordinates": [ -72.72146, -41.80106 ] } },
{ "type": "Feature", "properties": { "objectid": 9088, "fid_establecimientos_de_salud": null, "código_an": "24-543", "código_vi": 124543, "código__m": " ", "código_nu": 0, "código_re": 10, "nombre_reg": "Los Lagos", "código_de": 24, "nombre_dep": "Servicio de Salud Del Reloncaví", "pertenenci": "Perteneciente al Sistema Nacional de Servicios de Salud", "tipo_estab": null, "ámbito_de": "Establecimiento de Salud", "nombre_ofi": null, "certificac": "No Aplica", "dependenci": "Servicio de Salud Del Reloncaví", "nivel_de_a": "Primario", "código_co": "10103", "nombre_com": "COCHAMÓ", "vía": "Calle", "número": 0, "dirección": "Sector Valle El Frío", "teléfono": 0, "fecha_inic": "38716", "tiene_serv": null, "tipo_de_ur": "No Aplica", "tipo_de_sa": null, "latitud": -41.741623, "longitud__": -71.902605, "tipo_de_pr": null, "estado_de": null, "nivel_de_c": "Primario", "modalidad": null, "simbologia": "Atención Primaria de Salud (APS)", "fid_comunas_v1": null, "cut_reg": "10", "cut_prov": "101", "cut_com": "10103", "region": "Los Lagos", "provincia": "LLANQUIHUE", "comuna": "COCHAMÓ", "superficie": null }, "geometry": { "type": "Point", "coordinates": [ -71.9026, -41.74162 ] } },
{ "type": "Feature", "properties": { "objectid": 9089, "fid_establecimientos_de_salud": null, "código_an": "24-555", "código_vi": 124555, "código__m": " ", "código_nu": 0, "código_re": 10, "nombre_reg": "Los Lagos", "código_de": 24, "nombre_dep": "Servicio de Salud Del Reloncaví", "pertenenci": "Perteneciente al Sistema Nacional de Servicios de Salud", "tipo_estab": null, "ámbito_de": "Establecimiento de Salud", "nombre_ofi": null, "certificac": "No Aplica", "dependenci": "Servicio de Salud Del Reloncaví", "nivel_de_a": "Primario", "código_co": "10103", "nombre_com": "COCHAMÓ", "vía": "Calle", "número": 0, "dirección": "Sector Cochamó", "teléfono": 0, "fecha_inic": "38716", "tiene_serv": null, "tipo_de_ur": "No Aplica", "tipo_de_sa": null, "latitud": -41.72217, "longitud__": -72.48408, "tipo_de_pr": null, "estado_de": null, "nivel_de_c": "Primario", "modalidad": null, "simbologia": "Atención Primaria de Salud (APS)", "fid_comunas_v1": null, "cut_reg": "10", "cut_prov": "101", "cut_com": "10103", "region": "Los Lagos", "provincia": "LLANQUIHUE", "comuna": "COCHAMÓ", "superficie": null }, "geometry": { "type": "Point", "coordinates": [ -72.48408, -41.72217 ] } },
{ "type": "Feature", "properties": { "objectid": 9092, "fid_establecimientos_de_salud": null, "código_an": "24-459", "código_vi": 124459, "código__m": " ", "código_nu": 0, "código_re": 10, "nombre_reg": "Los Lagos", "código_de": 24, "nombre_dep": "Servicio de Salud Del Reloncaví", "pertenenci": "Perteneciente al Sistema Nacional de Servicios de Salud", "tipo_estab": null, "ámbito_de": "Establecimiento de Salud", "nombre_ofi": null, "certificac": "No Aplica", "dependenci": "Servicio de Salud Del Reloncaví", "nivel_de_a": "Primario", "código_co": "10102", "nombre_com": "CALBUCO", "vía": "Calle", "número": 0, "dirección": "Sector Quetrulauquén", "teléfono": 0, "fecha_inic": "38716", "tiene_serv": null, "tipo_de_ur": "No Aplica", "tipo_de_sa": null, "latitud": -41.67792, "longitud__": -72.93758, "tipo_de_pr": null, "estado_de": null, "nivel_de_c": "Primario", "modalidad": null, "simbologia": "Atención Primaria de Salud (APS)", "fid_comunas_v1": null, "cut_reg": "10", "cut_prov": "101", "cut_com": "10102", "region": "Los Lagos", "provincia": "LLANQUIHUE", "comuna": "CALBUCO", "superficie": null }, "geometry": { "type": "Point", "coordinates": [ -72.93758, -41.67792 ] } },
{ "type": "Feature", "properties": { "objectid": 9096, "fid_establecimientos_de_salud": null, "código_an": "24-412", "código_vi": 124412, "código__m": " ", "código_nu": 0, "código_re": 10, "nombre_reg": "Los Lagos", "código_de": 24, "nombre_dep": "Servicio de Salud Del Reloncaví", "pertenenci": "Perteneciente al Sistema Nacional de Servicios de Salud", "tipo_estab": null, "ámbito_de": "Establecimiento de Salud", "nombre_ofi": null, "certificac": "Centro de Salud Familiar", "dependenci": "Servicio de Salud Del Reloncaví", "nivel_de_a": "Primario", "código_co": "10103", "nombre_com": "COCHAMÓ", "vía": "Calle", "número": 0, "dirección": "Bueras", "teléfono": 659382, "fecha_inic": "43096", "tiene_serv": null, "tipo_de_ur": "No Aplica", "tipo_de_sa": null, "latitud": -41.6641, "longitud__": -72.2958, "tipo_de_pr": null, "estado_de": null, "nivel_de_c": "Primario", "modalidad": null, "simbologia": "Atención Primaria de Salud (APS)", "fid_comunas_v1": null, "cut_reg": "10", "cut_prov": "101", "cut_com": "10103", "region": "Los Lagos", "provincia": "LLANQUIHUE", "comuna": "COCHAMÓ", "superficie": null }, "geometry": { "type": "Point", "coordinates": [ -72.2958, -41.6641 ] } },
{ "type": "Feature", "properties": { "objectid": 9097, "fid_establecimientos_de_salud": null, "código_an": "24-413", "código_vi": 124413, "código__m": " ", "código_nu": 0, "código_re": 10, "nombre_reg": "Los Lagos", "código_de": 24, "nombre_dep": "Servicio de Salud Del Reloncaví", "pertenenci": "Perteneciente al Sistema Nacional de Servicios de Salud", "tipo_estab": null, "ámbito_de": "Establecimiento de Salud", "nombre_ofi": null, "certificac": "No Aplica", "dependenci": "Servicio de Salud Del Reloncaví", "nivel_de_a": "Primario", "código_co": "10103", "nombre_com": "COCHAMÓ", "vía": "Calle", "número": 0, "dirección": "Sector de Sotomó", "teléfono": 0, "fecha_inic": "38716", "tiene_serv": null, "tipo_de_ur": "No Aplica", "tipo_de_sa": null, "latitud": -41.672807, "longitud__": -72.428896, "tipo_de_pr": null, "estado_de": null, "nivel_de_c": "Primario", "modalidad": null, "simbologia": "Atención Primaria de Salud (APS)", "fid_comunas_v1": null, "cut_reg": "10", "cut_prov": "101", "cut_com": "10103", "region": "Los Lagos", "provincia": "LLANQUIHUE", "comuna": "COCHAMÓ", "superficie": null }, "geometry": { "type": "Point", "coordinates": [ -72.4289, -41.67281 ] } },
{ "type": "Feature", "properties": { "objectid": 9099, "fid_establecimientos_de_salud": null, "código_an": "24-403", "código_vi": 124403, "código__m": " ", "código_nu": 0, "código_re": 10, "nombre_reg": "Los Lagos", "código_de": 24, "nombre_dep": "Servicio de Salud Del Reloncaví", "pertenenci": "Perteneciente al Sistema Nacional de Servicios de Salud", "tipo_estab": null, "ámbito_de": "Establecimiento de Salud", "nombre_ofi": null, "certificac": "No Aplica", "dependenci": "Servicio de Salud Del Reloncaví", "nivel_de_a": "Primario", "código_co": "10101", "nombre_com": "PUERTO MONTT", "vía": "Calle", "número": 0, "dirección": "Aldea Chaicas", "teléfono": 0, "fecha_inic": "38716", "tiene_serv": null, "tipo_de_ur": "No Aplica", "tipo_de_sa": null, "latitud": -41.627726, "longitud__": -72.664982, "tipo_de_pr": null, "estado_de": null, "nivel_de_c": "Primario", "modalidad": null, "simbologia": "Atención Primaria de Salud (APS)", "fid_comunas_v1": null, "cut_reg": "10", "cut_prov": "101", "cut_com": "10101", "region": "Los Lagos", "provincia": "LLANQUIHUE", "comuna": "PUERTO MONTT", "superficie": null }, "geometry": { "type": "Point", "coordinates": [ -72.66498, -41.62773 ] } },
{ "type": "Feature", "properties": { "objectid": 9101, "fid_establecimientos_de_salud": null, "código_an": "24-404", "código_vi": 124404, "código__m": " ", "código_nu": 0, "código_re": 10, "nombre_reg": "Los Lagos", "código_de": 24, "nombre_dep": "Servicio de Salud Del Reloncaví", "pertenenci": "Perteneciente al Sistema Nacional de Servicios de Salud", "tipo_estab": null, "ámbito_de": "Establecimiento de Salud", "nombre_ofi": null, "certificac": "No Aplica", "dependenci": "Servicio de Salud Del Reloncaví", "nivel_de_a": "Primario", "código_co": "10101", "nombre_com": "PUERTO MONTT", "vía": "Calle", "número": 0, "dirección": "Aldea de Lenca", "teléfono": 0, "fecha_inic": "38716", "tiene_serv": null, "tipo_de_ur": "No Aplica", "tipo_de_sa": null, "latitud": -41.604833, "longitud__": -72.689152, "tipo_de_pr": null, "estado_de": null, "nivel_de_c": "Primario", "modalidad": null, "simbologia": "Atención Primaria de Salud (APS)", "fid_comunas_v1": null, "cut_reg": "10", "cut_prov": "101", "cut_com": "10101", "region": "Los Lagos", "provincia": "LLANQUIHUE", "comuna": "PUERTO MONTT", "superficie": null }, "geometry": { "type": "Point", "coordinates": [ -72.68915, -41.60483 ] } },
{ "type": "Feature", "properties": { "objectid": 9109, "fid_establecimientos_de_salud": null, "código_an": "24-544", "código_vi": 124544, "código__m": " ", "código_nu": 0, "código_re": 10, "nombre_reg": "Los Lagos", "código_de": 24, "nombre_dep": "Servicio de Salud Del Reloncaví", "pertenenci": "Perteneciente al Sistema Nacional de Servicios de Salud", "tipo_estab": null, "ámbito_de": "Establecimiento de Salud", "nombre_ofi": null, "certificac": "No Aplica", "dependenci": "Servicio de Salud Del Reloncaví", "nivel_de_a": "Primario", "código_co": "10101", "nombre_com": "PUERTO MONTT", "vía": "Calle", "número": 0, "dirección": "Aldea de Piedra Azul", "teléfono": 0, "fecha_inic": "38716", "tiene_serv": null, "tipo_de_ur": "No Aplica", "tipo_de_sa": null, "latitud": -41.50826, "longitud__": -72.78969, "tipo_de_pr": null, "estado_de": null, "nivel_de_c": "Primario", "modalidad": null, "simbologia": "Atención Primaria de Salud (APS)", "fid_comunas_v1": null, "cut_reg": "10", "cut_prov": "101", "cut_com": "10101", "region": "Los Lagos", "provincia": "LLANQUIHUE", "comuna": "PUERTO MONTT", "superficie": null }, "geometry": { "type": "Point", "coordinates": [ -72.78969, -41.50826 ] } },
{ "type": "Feature", "properties": { "objectid": 9114, "fid_establecimientos_de_salud": null, "código_an": "24-411", "código_vi": 124411, "código__m": " ", "código_nu": 0, "código_re": 10, "nombre_reg": "Los Lagos", "código_de": 24, "nombre_dep": "Servicio de Salud Del Reloncaví", "pertenenci": "Perteneciente al Sistema Nacional de Servicios de Salud", "tipo_estab": null, "ámbito_de": "Establecimiento de Salud", "nombre_ofi": null, "certificac": "No Aplica", "dependenci": "Servicio de Salud Del Reloncaví", "nivel_de_a": "Primario", "código_co": "10103", "nombre_com": "COCHAMÓ", "vía": "Calle", "número": 0, "dirección": "Aldea de Cochamó", "teléfono": 0, "fecha_inic": "38716", "tiene_serv": null, "tipo_de_ur": "No Aplica", "tipo_de_sa": null, "latitud": -41.494152, "longitud__": -72.307398, "tipo_de_pr": null, "estado_de": null, "nivel_de_c": "Primario", "modalidad": null, "simbologia": "Atención Primaria de Salud (APS)", "fid_comunas_v1": null, "cut_reg": "10", "cut_prov": "101", "cut_com": "10103", "region": "Los Lagos", "provincia": "LLANQUIHUE", "comuna": "COCHAMÓ", "superficie": null }, "geometry": { "type": "Point", "coordinates": [ -72.3074, -41.49415 ] } },
{ "type": "Feature", "properties": { "objectid": 9117, "fid_establecimientos_de_salud": null, "código_an": "24-715", "código_vi": 124715, "código__m": " ", "código_nu": 0, "código_re": 10, "nombre_reg": "Los Lagos", "código_de": 24, "nombre_dep": "Servicio de Salud Del Reloncaví", "pertenenci": "Perteneciente al Sistema Nacional de Servicios de Salud", "tipo_estab": null, "ámbito_de": "Establecimiento de Salud", "nombre_ofi": null, "certificac": "No Aplica", "dependenci": "Servicio de Salud Del Reloncaví", "nivel_de_a": "Primario", "código_co": "10101", "nombre_com": "PUERTO MONTT", "vía": "Calle", "número": 0, "dirección": "Chamiza, Kilómetro Nº 9.5", "teléfono": 652482953, "fecha_inic": "38716", "tiene_serv": null, "tipo_de_ur": "No Aplica", "tipo_de_sa": null, "latitud": -41.48391, "longitud__": -72.85415, "tipo_de_pr": null, "estado_de": null, "nivel_de_c": "Primario", "modalidad": null, "simbologia": "Atención Primaria de Salud (APS)", "fid_comunas_v1": null, "cut_reg": "10", "cut_prov": "101", "cut_com": "10101", "region": "Los Lagos", "provincia": "LLANQUIHUE", "comuna": "PUERTO MONTT", "superficie": null }, "geometry": { "type": "Point", "coordinates": [ -72.85415, -41.48391 ] } },
{ "type": "Feature", "properties": { "objectid": 9145, "fid_establecimientos_de_salud": null, "código_an": "24-539", "código_vi": 124539, "código__m": " ", "código_nu": 0, "código_re": 10, "nombre_reg": "Los Lagos", "código_de": 24, "nombre_dep": "Servicio de Salud Del Reloncaví", "pertenenci": "Perteneciente al Sistema Nacional de Servicios de Salud", "tipo_estab": null, "ámbito_de": "Establecimiento de Salud", "nombre_ofi": null, "certificac": "No Aplica", "dependenci": "Servicio de Salud Del Reloncaví", "nivel_de_a": "Primario", "código_co": "10103", "nombre_com": "COCHAMÓ", "vía": "Calle", "número": 0, "dirección": "Caserío Pocoihuén", "teléfono": 0, "fecha_inic": "38716", "tiene_serv": null, "tipo_de_ur": "No Aplica", "tipo_de_sa": null, "latitud": -41.494831, "longitud__": -72.332956, "tipo_de_pr": null, "estado_de": null, "nivel_de_c": "Primario", "modalidad": null, "simbologia": "Atención Primaria de Salud (APS)", "fid_comunas_v1": null, "cut_reg": "10", "cut_prov": "101", "cut_com": "10103", "region": "Los Lagos", "provincia": "LLANQUIHUE", "comuna": "COCHAMÓ", "superficie": null }, "geometry": { "type": "Point", "coordinates": [ -72.33296, -41.49483 ] } },
{ "type": "Feature", "properties": { "objectid": 9172, "fid_establecimientos_de_salud": null, "código_an": "24-402", "código_vi": 124402, "código__m": " ", "código_nu": 0, "código_re": 10, "nombre_reg": "Los Lagos", "código_de": 24, "nombre_dep": "Servicio de Salud Del Reloncaví", "pertenenci": "Perteneciente al Sistema Nacional de Servicios de Salud", "tipo_estab": null, "ámbito_de": "Establecimiento de Salud", "nombre_ofi": null, "certificac": "No Aplica", "dependenci": "Servicio de Salud Del Reloncaví", "nivel_de_a": "Primario", "código_co": "10101", "nombre_com": "PUERTO MONTT", "vía": "Calle", "número": 0, "dirección": "Caserío Correntoso", "teléfono": 0, "fecha_inic": "38716", "tiene_serv": null, "tipo_de_ur": "No Aplica", "tipo_de_sa": null, "latitud": -41.45321, "longitud__": -72.65837, "tipo_de_pr": null, "estado_de": null, "nivel_de_c": "Primario", "modalidad": null, "simbologia": "Atención Primaria de Salud (APS)", "fid_comunas_v1": null, "cut_reg": "10", "cut_prov": "101", "cut_com": "10101", "region": "Los Lagos", "provincia": "LLANQUIHUE", "comuna": "PUERTO MONTT", "superficie": null }, "geometry": { "type": "Point", "coordinates": [ -72.65837, -41.45321 ] } },
{ "type": "Feature", "properties": { "objectid": 9175, "fid_establecimientos_de_salud": null, "código_an": "24-401", "código_vi": 124401, "código__m": " ", "código_nu": 0, "código_re": 10, "nombre_reg": "Los Lagos", "código_de": 24, "nombre_dep": "Servicio de Salud Del Reloncaví", "pertenenci": "Perteneciente al Sistema Nacional de Servicios de Salud", "tipo_estab": null, "ámbito_de": "Establecimiento de Salud", "nombre_ofi": null, "certificac": "No Aplica", "dependenci": "Servicio de Salud Del Reloncaví", "nivel_de_a": "Primario", "código_co": "10101", "nombre_com": "PUERTO MONTT", "vía": "Calle", "número": 0, "dirección": "Caserío Lago Chapo", "teléfono": 0, "fecha_inic": "38716", "tiene_serv": null, "tipo_de_ur": "No Aplica", "tipo_de_sa": null, "latitud": -41.4157, "longitud__": -72.59474, "tipo_de_pr": null, "estado_de": null, "nivel_de_c": "Primario", "modalidad": null, "simbologia": "Atención Primaria de Salud (APS)", "fid_comunas_v1": null, "cut_reg": "10", "cut_prov": "101", "cut_com": "10101", "region": "Los Lagos", "provincia": "LLANQUIHUE", "comuna": "PUERTO MONTT", "superficie": null }, "geometry": { "type": "Point", "coordinates": [ -72.59474, -41.4157 ] } },
{ "type": "Feature", "properties": { "objectid": 9185, "fid_establecimientos_de_salud": null, "código_an": "24-426", "código_vi": 124426, "código__m": " ", "código_nu": 0, "código_re": 10, "nombre_reg": "Los Lagos", "código_de": 24, "nombre_dep": "Servicio de Salud Del Reloncaví", "pertenenci": "Perteneciente al Sistema Nacional de Servicios de Salud", "tipo_estab": null, "ámbito_de": "Establecimiento de Salud", "nombre_ofi": null, "certificac": "No Aplica", "dependenci": "Servicio de Salud Del Reloncaví", "nivel_de_a": "Primario", "código_co": "10109", "nombre_com": "PUERTO VARAS", "vía": "Calle", "número": 0, "dirección": "Sector Ralún", "teléfono": 0, "fecha_inic": "38716", "tiene_serv": null, "tipo_de_ur": "No Aplica", "tipo_de_sa": null, "latitud": -41.38861, "longitud__": -72.32793, "tipo_de_pr": null, "estado_de": null, "nivel_de_c": "Primario", "modalidad": null, "simbologia": "Atención Primaria de Salud (APS)", "fid_comunas_v1": null, "cut_reg": "10", "cut_prov": "101", "cut_com": "10109", "region": "Los Lagos", "provincia": "LLANQUIHUE", "comuna": "PUERTO VARAS", "superficie": null }, "geometry": { "type": "Point", "coordinates": [ -72.32793, -41.38861 ] } },
{ "type": "Feature", "properties": { "objectid": 12805, "fid_establecimientos_de_salud": null, "código_an": "201443", "código_vi": 201443, "código__m": "24-412", "código_nu": 124412, "código_re": 10, "nombre_reg": "Los Lagos", "código_de": 24, "nombre_dep": "Servicio de Salud Del Reloncaví", "pertenenci": "Perteneciente al Sistema Nacional de Servicios de Salud", "tipo_estab": null, "ámbito_de": "Establecimiento de Salud", "nombre_ofi": null, "certificac": "No Aplica", "dependenci": "Servicio de Salud Del Reloncaví", "nivel_de_a": "Primario", "código_co": "10103", "nombre_com": "COCHAMÓ", "vía": "Calle", "número": 0, "dirección": "Santiago Bueras", "teléfono": 0, "fecha_inic": "44931", "tiene_serv": null, "tipo_de_ur": "Urgencia ambulatoria (SUR)", "tipo_de_sa": null, "latitud": -41.664237, "longitud__": -72.295777, "tipo_de_pr": null, "estado_de": null, "nivel_de_c": "Primario", "modalidad": null, "simbologia": "Servicios de Urgencia de Atención Primaria", "fid_comunas_v1": null, "cut_reg": "10", "cut_prov": "101", "cut_com": "10103", "region": "Los Lagos", "provincia": "LLANQUIHUE", "comuna": "COCHAMÓ", "superficie": null }, "geometry": { "type": "Point", "coordinates": [ -72.29578, -41.66424 ] } }
]
}
