{
"type": "FeatureCollection",
"name": "ACA",
"crs": { "type": "name", "properties": { "name": "urn:ogc:def:crs:OGC:1.3:CRS84" } },
"xy_coordinate_resolution": 1e-05,
"features": [
{ "type": "Feature", "properties": { "objectid": 614, "id": 62.0, "nombre": "La Picada", "tipo": "PET", "volcan": "Osorno" }, "geometry": { "type": "Point", "coordinates": [ -72.56667, -41.00861 ] } },
{ "type": "Feature", "properties": { "objectid": 615, "id": 63.0, "nombre": "Río Blanco Coihueco", "tipo": "PET", "volcan": "Osorno" }, "geometry": { "type": "Point", "coordinates": [ -72.58722, -40.9725 ] } },
{ "type": "Feature", "properties": { "objectid": 616, "id": 64.0, "nombre": "Aguas Buenas", "tipo": "PET", "volcan": "Osorno" }, "geometry": { "type": "Point", "coordinates": [ -72.60017, -40.97 ] } },
{ "type": "Feature", "properties": { "objectid": 645, "id": 99.0, "nombre": "Petrohue", "tipo": "PET", "volcan": "Osorno" }, "geometry": { "type": "Point", "coordinates": [ -72.40078, -41.13853 ] } },
{ "type": "Feature", "properties": { "objectid": 647, "id": 101.0, "nombre": "Escuela Rural Ella Minte de Roth", "tipo": "PET", "volcan": "Osorno" }, "geometry": { "type": "Point", "coordinates": [ -72.01848, -41.08516 ] } },
{ "type": "Feature", "properties": { "objectid": 696, "id": 216.0, "nombre": "Posta Rupumeica Alto", "tipo": "PET", "volcan": "Cordón Caulle" }, "geometry": { "type": "Point", "coordinates": [ -71.98633, -40.35962 ] } },
{ "type": "Feature", "properties": { "objectid": 697, "id": 220.0, "nombre": "Escuela Pisu Pisue", "tipo": "PET", "volcan": "Cordón Caulle" }, "geometry": { "type": "Point", "coordinates": [ -72.53912, -40.62904 ] } },
{ "type": "Feature", "properties": { "objectid": 698, "id": 221.0, "nombre": "Escuela El Arrayán", "tipo": "PET", "volcan": "Cordón Caulle" }, "geometry": { "type": "Point", "coordinates": [ -72.51683, -40.60154 ] } },
{ "type": "Feature", "properties": { "objectid": 699, "id": 222.0, "nombre": "Escuela Rural Mantilhue Bajo", "tipo": "PET", "volcan": "Cordón Caulle" }, "geometry": { "type": "Point", "coordinates": [ -72.48555, -40.61681 ] } },
{ "type": "Feature", "properties": { "objectid": 700, "id": 224.0, "nombre": "Escuela Rucatayo Alto", "tipo": "PET", "volcan": "Cordón Caulle" }, "geometry": { "type": "Point", "coordinates": [ -72.40803, -40.57015 ] } },
{ "type": "Feature", "properties": { "objectid": 701, "id": 225.0, "nombre": "Iglesia cruce Las Quemas", "tipo": "PET", "volcan": "Cordón Caulle" }, "geometry": { "type": "Point", "coordinates": [ -72.15637, -40.3231 ] } }
]
}
