{
"type": "FeatureCollection",
"name": "CHA",
"crs": { "type": "name", "properties": { "name": "urn:ogc:def:crs:OGC:1.3:CRS84" } },
"xy_coordinate_resolution": 1e-05,
"features": [
{ "type": "Feature", "properties": { "objectid": 625, "id": 79.0, "nombre": "", "tipo": "PET", "volcan": "Chaitén" }, "geometry": { "type": "Point", "coordinates": [ -72.71211, -42.91175 ] } },
{ "type": "Feature", "properties": { "objectid": 626, "id": 80.0, "nombre": "", "tipo": "PET", "volcan": "Chaitén" }, "geometry": { "type": "Point", "coordinates": [ -72.70012, -42.92475 ] } },
{ "type": "Feature", "properties": { "objectid": 634, "id": 88.0, "nombre": "Puente El Negro", "tipo": "PE", "volcan": "Chaitén" }, "geometry": { "type": "Point", "coordinates": [ -72.62116, -42.96197 ] } },
{ "type": "Feature", "properties": { "objectid": 635, "id": 89.0, "nombre": "Santa Bárbara", "tipo": "PE", "volcan": "Chaitén" }, "geometry": { "type": "Point", "coordinates": [ -72.7978, -42.84968 ] } }
]
}
