{
"type": "FeatureCollection",
"name": "LDM",
"crs": { "type": "name", "properties": { "name": "urn:ogc:def:crs:OGC:1.3:CRS84" } },
"xy_coordinate_resolution": 1e-05,
"features": [
{ "type": "Feature", "properties": { "objectid": 712, "id": null, "nombre": "Los Álamos", "tipo": "PET", "volcan": "Descabezado" }, "geometry": { "type": "Point", "coordinates": [ -70.81896, -35.8177 ] } },
{ "type": "Feature", "properties": { "objectid": 713, "id": null, "nombre": "Las Garzas", "tipo": "PET", "volcan": "Descabezado" }, "geometry": { "type": "Point", "coordinates": [ -70.99493, -35.76262 ] } }
]
}
