{
"type": "FeatureCollection",
"name": "MCH",
"crs": { "type": "name", "properties": { "name": "urn:ogc:def:crs:OGC:1.3:CRS84" } },
"xy_coordinate_resolution": 1e-05,
"features": [
{ "type": "Feature", "properties": { "objectid": 583, "id": 23.0, "nombre": "Escuela Alihuén", "tipo": "PET", "volcan": "Villarrica" }, "geometry": { "type": "Point", "coordinates": [ -72.09267, -39.48598 ] } },
{ "type": "Feature", "properties": { "objectid": 593, "id": 34.0, "nombre": "Challupen Bajo - Sede Ambrosio Punolef", "tipo": "PET", "volcan": "Villarrica" }, "geometry": { "type": "Point", "coordinates": [ -72.10325, -39.49218 ] } },
{ "type": "Feature", "properties": { "objectid": 627, "id": 81.0, "nombre": "PET 1", "tipo": "PET", "volcan": "Mocho Choshuenco" }, "geometry": { "type": "Point", "coordinates": [ -72.08396, -39.83807 ] } },
{ "type": "Feature", "properties": { "objectid": 628, "id": 82.0, "nombre": "PET 2", "tipo": "PET", "volcan": "Mocho Choshuenco" }, "geometry": { "type": "Point", "coordinates": [ -72.00467, -39.82997 ] } },
{ "type": "Feature", "properties": { "objectid": 629, "id": 83.0, "nombre": "PET 3", "tipo": "PET", "volcan": "Mocho Choshuenco" }, "geometry": { "type": "Point", "coordinates": [ -72.02466, -39.83825 ] } },
{ "type": "Feature", "properties": { "objectid": 630, "id": 84.0, "nombre": "PET 4", "tipo": "PET", "volcan": "Mocho Choshuenco" }, "geometry": { "type": "Point", "coordinates": [ -72.08764, -39.8021 ] } },
{ "type": "Feature", "properties": { "objectid": 631, "id": 85.0, "nombre": "PET 5", "tipo": "PET", "volcan": "Mocho Choshuenco" }, "geometry": { "type": "Point", "coordinates": [ -72.06595, -39.81641 ] } },
{ "type": "Feature", "properties": { "objectid": 670, "id": 168.0, "nombre": "Mirador Puente Pellaifa", "tipo": "PET", "volcan": "Villarrica" }, "geometry": { "type": "Point", "coordinates": [ -72.01955, -39.58891 ] } },
{ "type": "Feature", "properties": { "objectid": 671, "id": 169.0, "nombre": "Cerro Raucan", "tipo": "PET", "volcan": "Villarrica" }, "geometry": { "type": "Point", "coordinates": [ -72.01528, -39.5539 ] } },
{ "type": "Feature", "properties": { "objectid": 672, "id": 170.0, "nombre": "Alicia Rojas", "tipo": "PET", "volcan": "Villarrica" }, "geometry": { "type": "Point", "coordinates": [ -72.00993, -39.55336 ] } },
{ "type": "Feature", "properties": { "objectid": 673, "id": 172.0, "nombre": "Poly Pinilla", "tipo": "PET", "volcan": "Villarrica" }, "geometry": { "type": "Point", "coordinates": [ -72.06361, -39.4925 ] } },
{ "type": "Feature", "properties": { "objectid": 674, "id": 173.0, "nombre": "Cementerio Pucura", "tipo": "PET", "volcan": "Villarrica" }, "geometry": { "type": "Point", "coordinates": [ -72.06192, -39.51481 ] } },
{ "type": "Feature", "properties": { "objectid": 675, "id": 174.0, "nombre": "Agrupación de Mujeres Huincul Zomo \"Milimili\"", "tipo": "PET", "volcan": "Villarrica" }, "geometry": { "type": "Point", "coordinates": [ -72.03528, -39.51167 ] } },
{ "type": "Feature", "properties": { "objectid": 676, "id": 175.0, "nombre": "Familia Cheuquepán", "tipo": "PET", "volcan": "Villarrica" }, "geometry": { "type": "Point", "coordinates": [ -72.05139, -39.52972 ] } },
{ "type": "Feature", "properties": { "objectid": 677, "id": 176.0, "nombre": "Palo Blanco", "tipo": "PET", "volcan": "Villarrica" }, "geometry": { "type": "Point", "coordinates": [ -72.06665, -39.5304 ] } },
{ "type": "Feature", "properties": { "objectid": 678, "id": 177.0, "nombre": "Familia Lefinao", "tipo": "PET", "volcan": "Villarrica" }, "geometry": { "type": "Point", "coordinates": [ -72.07639, -39.51444 ] } },
{ "type": "Feature", "properties": { "objectid": 680, "id": 179.0, "nombre": "Termas Geométricas", "tipo": "PET", "volcan": "Villarrica" }, "geometry": { "type": "Point", "coordinates": [ -71.87571, -39.50335 ] } },
{ "type": "Feature", "properties": { "objectid": 681, "id": 180.0, "nombre": "El Cardo", "tipo": "PET", "volcan": "Villarrica" }, "geometry": { "type": "Point", "coordinates": [ -71.93417, -39.5503 ] } },
{ "type": "Feature", "properties": { "objectid": 682, "id": 181.0, "nombre": "Chépica", "tipo": "PET", "volcan": "Villarrica" }, "geometry": { "type": "Point", "coordinates": [ -71.94943, -39.54479 ] } },
{ "type": "Feature", "properties": { "objectid": 695, "id": 215.0, "nombre": "Posta de Salud Rupumeica Bajo", "tipo": "PET", "volcan": "Cordón Caulle" }, "geometry": { "type": "Point", "coordinates": [ -71.96139, -40.31942 ] } },
{ "type": "Feature", "properties": { "objectid": 696, "id": 216.0, "nombre": "Posta Rupumeica Alto", "tipo": "PET", "volcan": "Cordón Caulle" }, "geometry": { "type": "Point", "coordinates": [ -71.98633, -40.35962 ] } },
{ "type": "Feature", "properties": { "objectid": 701, "id": 225.0, "nombre": "Iglesia cruce Las Quemas", "tipo": "PET", "volcan": "Cordón Caulle" }, "geometry": { "type": "Point", "coordinates": [ -72.15637, -40.3231 ] } },
{ "type": "Feature", "properties": { "objectid": 702, "id": 226.0, "nombre": "Cerro Familia Santibáñez", "tipo": "PET", "volcan": "Cordón Caulle" }, "geometry": { "type": "Point", "coordinates": [ -71.94982, -40.32386 ] } },
{ "type": "Feature", "properties": { "objectid": 703, "id": 227.0, "nombre": "Sede Los Álamos", "tipo": "PET", "volcan": "Cordón Caulle" }, "geometry": { "type": "Point", "coordinates": [ -72.18639, -40.31067 ] } }
]
}
