{
"type": "FeatureCollection",
"name": "PLP",
"crs": { "type": "name", "properties": { "name": "urn:ogc:def:crs:OGC:1.3:CRS84" } },
"xy_coordinate_resolution": 1e-05,
"features": [
{ "type": "Feature", "properties": { "objectid": 611, "id": 59.0, "nombre": "", "tipo": "PET", "volcan": "Plachón Peteroa" }, "geometry": { "type": "Point", "coordinates": [ -70.81474, -35.00097 ] } },
{ "type": "Feature", "properties": { "objectid": 612, "id": 60.0, "nombre": "", "tipo": "PET", "volcan": "Plachón Peteroa" }, "geometry": { "type": "Point", "coordinates": [ -70.80938, -35.00089 ] } },
{ "type": "Feature", "properties": { "objectid": 720, "id": null, "nombre": "Reten Molina", "tipo": "PET", "volcan": "Descabezado" }, "geometry": { "type": "Point", "coordinates": [ -71.04931, -35.4184 ] } },
{ "type": "Feature", "properties": { "objectid": 721, "id": null, "nombre": "Yacal", "tipo": "PE", "volcan": "Descabezado" }, "geometry": { "type": "Point", "coordinates": [ -71.1155, -35.19973 ] } },
{ "type": "Feature", "properties": { "objectid": 722, "id": null, "nombre": "Reten Potrero Grande", "tipo": "PE", "volcan": "Descabezado" }, "geometry": { "type": "Point", "coordinates": [ -71.0753, -35.20365 ] } }
]
}
