{
"type": "FeatureCollection",
"name": "QUE",
"crs": { "type": "name", "properties": { "name": "urn:ogc:def:crs:OGC:1.3:CRS84" } },
"xy_coordinate_resolution": 1e-05,
"features": [
{ "type": "Feature", "properties": { "objectid": 582, "id": 22.0, "nombre": "Cementerio", "tipo": "PET", "volcan": "Villarrica" }, "geometry": { "type": "Point", "coordinates": [ -72.16616, -39.48775 ] } },
{ "type": "Feature", "properties": { "objectid": 583, "id": 23.0, "nombre": "Escuela Alihuén", "tipo": "PET", "volcan": "Villarrica" }, "geometry": { "type": "Point", "coordinates": [ -72.09267, -39.48598 ] } },
{ "type": "Feature", "properties": { "objectid": 584, "id": 24.0, "nombre": "Voipir Seco - Predio Kolping", "tipo": "PET", "volcan": "Villarrica" }, "geometry": { "type": "Point", "coordinates": [ -72.09428, -39.39525 ] } },
{ "type": "Feature", "properties": { "objectid": 585, "id": 25.0, "nombre": "Voipir Seco - Predio Hugo Vera", "tipo": "PET", "volcan": "Villarrica" }, "geometry": { "type": "Point", "coordinates": [ -72.05803, -39.417 ] } },
{ "type": "Feature", "properties": { "objectid": 586, "id": 26.0, "nombre": "Loncotraro - Helipuerto Hotel Park Lake", "tipo": "PET", "volcan": "Villarrica" }, "geometry": { "type": "Point", "coordinates": [ -72.08906, -39.30231 ] } },
{ "type": "Feature", "properties": { "objectid": 587, "id": 27.0, "nombre": "Los Riscos", "tipo": "PET", "volcan": "Villarrica" }, "geometry": { "type": "Point", "coordinates": [ -72.03336, -39.31758 ] } },
{ "type": "Feature", "properties": { "objectid": 588, "id": 28.0, "nombre": "Candelaria", "tipo": "PET", "volcan": "Villarrica" }, "geometry": { "type": "Point", "coordinates": [ -72.00944, -39.32156 ] } },
{ "type": "Feature", "properties": { "objectid": 589, "id": 29.0, "nombre": "Escuela Quelhue - Quelhue Alto", "tipo": "PET", "volcan": "Villarrica" }, "geometry": { "type": "Point", "coordinates": [ -71.92039, -39.26139 ] } },
{ "type": "Feature", "properties": { "objectid": 590, "id": 30.0, "nombre": "Península Pucón", "tipo": "PET", "volcan": "Villarrica" }, "geometry": { "type": "Point", "coordinates": [ -71.98936, -39.27203 ] } },
{ "type": "Feature", "properties": { "objectid": 591, "id": 31.0, "nombre": "Los Calabozos", "tipo": "PET", "volcan": "Villarrica" }, "geometry": { "type": "Point", "coordinates": [ -71.93882, -39.30064 ] } },
{ "type": "Feature", "properties": { "objectid": 592, "id": 32.0, "nombre": "Huincacara Sur - Predio Juana Montecinos", "tipo": "PET", "volcan": "Villarrica" }, "geometry": { "type": "Point", "coordinates": [ -72.15539, -39.36766 ] } },
{ "type": "Feature", "properties": { "objectid": 593, "id": 34.0, "nombre": "Challupen Bajo - Sede Ambrosio Punolef", "tipo": "PET", "volcan": "Villarrica" }, "geometry": { "type": "Point", "coordinates": [ -72.10325, -39.49218 ] } },
{ "type": "Feature", "properties": { "objectid": 594, "id": 35.0, "nombre": "Huincacara Norte - Cerro El Pirao", "tipo": "PET", "volcan": "Villarrica" }, "geometry": { "type": "Point", "coordinates": [ -72.07546, -39.37087 ] } },
{ "type": "Feature", "properties": { "objectid": 609, "id": 57.0, "nombre": "Putabla Predio Renato Vallejos", "tipo": "PET", "volcan": "Villarrica" }, "geometry": { "type": "Point", "coordinates": [ -72.16373, -39.48172 ] } },
{ "type": "Feature", "properties": { "objectid": 610, "id": 58.0, "nombre": "Ensenada - Cabañas Norma Punulef", "tipo": "PET", "volcan": "Villarrica" }, "geometry": { "type": "Point", "coordinates": [ -72.13737, -39.48302 ] } },
{ "type": "Feature", "properties": { "objectid": 627, "id": 81.0, "nombre": "PET 1", "tipo": "PET", "volcan": "Mocho Choshuenco" }, "geometry": { "type": "Point", "coordinates": [ -72.08396, -39.83807 ] } },
{ "type": "Feature", "properties": { "objectid": 628, "id": 82.0, "nombre": "PET 2", "tipo": "PET", "volcan": "Mocho Choshuenco" }, "geometry": { "type": "Point", "coordinates": [ -72.00467, -39.82997 ] } },
{ "type": "Feature", "properties": { "objectid": 629, "id": 83.0, "nombre": "PET 3", "tipo": "PET", "volcan": "Mocho Choshuenco" }, "geometry": { "type": "Point", "coordinates": [ -72.02466, -39.83825 ] } },
{ "type": "Feature", "properties": { "objectid": 630, "id": 84.0, "nombre": "PET 4", "tipo": "PET", "volcan": "Mocho Choshuenco" }, "geometry": { "type": "Point", "coordinates": [ -72.08764, -39.8021 ] } },
{ "type": "Feature", "properties": { "objectid": 631, "id": 85.0, "nombre": "PET 5", "tipo": "PET", "volcan": "Mocho Choshuenco" }, "geometry": { "type": "Point", "coordinates": [ -72.06595, -39.81641 ] } },
{ "type": "Feature", "properties": { "objectid": 658, "id": 155.0, "nombre": "Pino Huacho Predio Pedro Vásquez", "tipo": "PET", "volcan": "Villarrica" }, "geometry": { "type": "Point", "coordinates": [ -72.04736, -39.4447 ] } },
{ "type": "Feature", "properties": { "objectid": 659, "id": 156.0, "nombre": "Escuela Estadio Cudico", "tipo": "PET", "volcan": "Villarrica" }, "geometry": { "type": "Point", "coordinates": [ -72.11927, -39.43882 ] } },
{ "type": "Feature", "properties": { "objectid": 660, "id": 157.0, "nombre": "Hincacara Sur Iglesia Pentecostal Calfutúe", "tipo": "PET", "volcan": "Villarrica" }, "geometry": { "type": "Point", "coordinates": [ -72.20339, -39.36313 ] } },
{ "type": "Feature", "properties": { "objectid": 661, "id": 158.0, "nombre": "Conquil - Predio Julio Bustos", "tipo": "PET", "volcan": "Villarrica" }, "geometry": { "type": "Point", "coordinates": [ -72.15127, -39.34435 ] } },
{ "type": "Feature", "properties": { "objectid": 662, "id": 159.0, "nombre": "Estrella Blanca Predio Carmen San Martín", "tipo": "PET", "volcan": "Villarrica" }, "geometry": { "type": "Point", "coordinates": [ -72.04281, -39.35412 ] } },
{ "type": "Feature", "properties": { "objectid": 663, "id": 160.0, "nombre": "Loncotraro Alto - Country Pucón", "tipo": "PET", "volcan": "Villarrica" }, "geometry": { "type": "Point", "coordinates": [ -72.04837, -39.34186 ] } },
{ "type": "Feature", "properties": { "objectid": 664, "id": 161.0, "nombre": "Piedra Amarilla", "tipo": "PET", "volcan": "Villarrica" }, "geometry": { "type": "Point", "coordinates": [ -72.13364, -39.30123 ] } },
{ "type": "Feature", "properties": { "objectid": 665, "id": 162.0, "nombre": "Club de Huasos", "tipo": "PET", "volcan": "Villarrica" }, "geometry": { "type": "Point", "coordinates": [ -71.91858, -39.30889 ] } },
{ "type": "Feature", "properties": { "objectid": 666, "id": 163.0, "nombre": "Cerdúo 1", "tipo": "PET", "volcan": "Villarrica" }, "geometry": { "type": "Point", "coordinates": [ -71.88076, -39.33116 ] } },
{ "type": "Feature", "properties": { "objectid": 667, "id": 164.0, "nombre": "Cerdúo 2", "tipo": "PET", "volcan": "Villarrica" }, "geometry": { "type": "Point", "coordinates": [ -71.89772, -39.30245 ] } },
{ "type": "Feature", "properties": { "objectid": 668, "id": 166.0, "nombre": "Palguín", "tipo": "PET", "volcan": "Villarrica" }, "geometry": { "type": "Point", "coordinates": [ -71.78312, -39.39791 ] } },
{ "type": "Feature", "properties": { "objectid": 669, "id": 167.0, "nombre": "Mirador Camino al Volcán", "tipo": "PET", "volcan": "Villarrica" }, "geometry": { "type": "Point", "coordinates": [ -71.97735, -39.35255 ] } },
{ "type": "Feature", "properties": { "objectid": 670, "id": 168.0, "nombre": "Mirador Puente Pellaifa", "tipo": "PET", "volcan": "Villarrica" }, "geometry": { "type": "Point", "coordinates": [ -72.01955, -39.58891 ] } },
{ "type": "Feature", "properties": { "objectid": 671, "id": 169.0, "nombre": "Cerro Raucan", "tipo": "PET", "volcan": "Villarrica" }, "geometry": { "type": "Point", "coordinates": [ -72.01528, -39.5539 ] } },
{ "type": "Feature", "properties": { "objectid": 672, "id": 170.0, "nombre": "Alicia Rojas", "tipo": "PET", "volcan": "Villarrica" }, "geometry": { "type": "Point", "coordinates": [ -72.00993, -39.55336 ] } },
{ "type": "Feature", "properties": { "objectid": 673, "id": 172.0, "nombre": "Poly Pinilla", "tipo": "PET", "volcan": "Villarrica" }, "geometry": { "type": "Point", "coordinates": [ -72.06361, -39.4925 ] } },
{ "type": "Feature", "properties": { "objectid": 674, "id": 173.0, "nombre": "Cementerio Pucura", "tipo": "PET", "volcan": "Villarrica" }, "geometry": { "type": "Point", "coordinates": [ -72.06192, -39.51481 ] } },
{ "type": "Feature", "properties": { "objectid": 675, "id": 174.0, "nombre": "Agrupación de Mujeres Huincul Zomo \"Milimili\"", "tipo": "PET", "volcan": "Villarrica" }, "geometry": { "type": "Point", "coordinates": [ -72.03528, -39.51167 ] } },
{ "type": "Feature", "properties": { "objectid": 676, "id": 175.0, "nombre": "Familia Cheuquepán", "tipo": "PET", "volcan": "Villarrica" }, "geometry": { "type": "Point", "coordinates": [ -72.05139, -39.52972 ] } },
{ "type": "Feature", "properties": { "objectid": 677, "id": 176.0, "nombre": "Palo Blanco", "tipo": "PET", "volcan": "Villarrica" }, "geometry": { "type": "Point", "coordinates": [ -72.06665, -39.5304 ] } },
{ "type": "Feature", "properties": { "objectid": 678, "id": 177.0, "nombre": "Familia Lefinao", "tipo": "PET", "volcan": "Villarrica" }, "geometry": { "type": "Point", "coordinates": [ -72.07639, -39.51444 ] } },
{ "type": "Feature", "properties": { "objectid": 679, "id": 178.0, "nombre": "Río Plata", "tipo": "PET", "volcan": "Villarrica" }, "geometry": { "type": "Point", "coordinates": [ -71.96042, -39.23142 ] } },
{ "type": "Feature", "properties": { "objectid": 680, "id": 179.0, "nombre": "Termas Geométricas", "tipo": "PET", "volcan": "Villarrica" }, "geometry": { "type": "Point", "coordinates": [ -71.87571, -39.50335 ] } },
{ "type": "Feature", "properties": { "objectid": 681, "id": 180.0, "nombre": "El Cardo", "tipo": "PET", "volcan": "Villarrica" }, "geometry": { "type": "Point", "coordinates": [ -71.93417, -39.5503 ] } },
{ "type": "Feature", "properties": { "objectid": 682, "id": 181.0, "nombre": "Chépica", "tipo": "PET", "volcan": "Villarrica" }, "geometry": { "type": "Point", "coordinates": [ -71.94943, -39.54479 ] } },
{ "type": "Feature", "properties": { "objectid": 683, "id": 182.0, "nombre": "Loncotraro", "tipo": "PET", "volcan": "Villarrica" }, "geometry": { "type": "Point", "coordinates": [ -72.08434, -39.30881 ] } }
]
}
