{
"type": "FeatureCollection",
"name": "SOL",
"crs": { "type": "name", "properties": { "name": "urn:ogc:def:crs:OGC:1.3:CRS84" } },
"xy_coordinate_resolution": 1e-05,
"features": [
{ "type": "Feature", "properties": { "objectid": 563, "id": 1.0, "nombre": "Sede Escorial", "tipo": "PET", "volcan": "Llaima" }, "geometry": { "type": "Point", "coordinates": [ -71.65916, -38.81115 ] } },
{ "type": "Feature", "properties": { "objectid": 564, "id": 2.0, "nombre": "Villa Mirador", "tipo": "PET", "volcan": "Llaima" }, "geometry": { "type": "Point", "coordinates": [ -71.69174, -38.84722 ] } },
{ "type": "Feature", "properties": { "objectid": 565, "id": 3.0, "nombre": "Sede Meli", "tipo": "PET", "volcan": "Llaima" }, "geometry": { "type": "Point", "coordinates": [ -71.6774, -38.83828 ] } },
{ "type": "Feature", "properties": { "objectid": 566, "id": 4.0, "nombre": "Sede Huilipán", "tipo": "PET", "volcan": "Llaima" }, "geometry": { "type": "Point", "coordinates": [ -71.75394, -38.88406 ] } },
{ "type": "Feature", "properties": { "objectid": 572, "id": 10.0, "nombre": "Casa del Sr. Adiel Burgos", "tipo": "PET", "volcan": "Llaima" }, "geometry": { "type": "Point", "coordinates": [ -71.79263, -38.58775 ] } },
{ "type": "Feature", "properties": { "objectid": 573, "id": 11.0, "nombre": "Familia Vidal (Nueva ubicación)", "tipo": "PET", "volcan": "Llaima" }, "geometry": { "type": "Point", "coordinates": [ -71.80168, -38.59003 ] } },
{ "type": "Feature", "properties": { "objectid": 574, "id": 12.0, "nombre": "Borde Río Calbuco (Nueva ubicación)", "tipo": "PET", "volcan": "Llaima" }, "geometry": { "type": "Point", "coordinates": [ -71.91073, -38.72246 ] } },
{ "type": "Feature", "properties": { "objectid": 575, "id": 13.0, "nombre": "Fundo Lleuque", "tipo": "PET", "volcan": "Llaima" }, "geometry": { "type": "Point", "coordinates": [ -71.92379, -38.73497 ] } },
{ "type": "Feature", "properties": { "objectid": 578, "id": 16.0, "nombre": "Fundo Laguna Quepe (Nueva ubicación)", "tipo": "PET", "volcan": "Llaima" }, "geometry": { "type": "Point", "coordinates": [ -71.84853, -38.64586 ] } },
{ "type": "Feature", "properties": { "objectid": 579, "id": 17.0, "nombre": "Plaza Villa García", "tipo": "PET", "volcan": "Llaima" }, "geometry": { "type": "Point", "coordinates": [ -71.92112, -38.90005 ] } },
{ "type": "Feature", "properties": { "objectid": 580, "id": 18.0, "nombre": "Cunco", "tipo": "PE", "volcan": "Llaima" }, "geometry": { "type": "Point", "coordinates": [ -72.03042, -38.92843 ] } },
{ "type": "Feature", "properties": { "objectid": 589, "id": 29.0, "nombre": "Escuela Quelhue - Quelhue Alto", "tipo": "PET", "volcan": "Villarrica" }, "geometry": { "type": "Point", "coordinates": [ -71.92039, -39.26139 ] } },
{ "type": "Feature", "properties": { "objectid": 667, "id": 164.0, "nombre": "Cerdúo 2", "tipo": "PET", "volcan": "Villarrica" }, "geometry": { "type": "Point", "coordinates": [ -71.89772, -39.30245 ] } },
{ "type": "Feature", "properties": { "objectid": 679, "id": 178.0, "nombre": "Río Plata", "tipo": "PET", "volcan": "Villarrica" }, "geometry": { "type": "Point", "coordinates": [ -71.96042, -39.23142 ] } }
]
}
