{"type": "FeatureCollection", "features": [{"type": "Feature", "id": 2, "geometry": {"type": "Polygon", "coordinates": [[[-70.573311111, -36.092945076], [-70.571916661, -36.092980634], [-70.57052771, -36.093087171], [-70.569149736, -36.093264265], [-70.567788175, -36.0935112179999], [-70.566448395, -36.093827056], [-70.5651356819999, -36.094210533], [-70.563855213, -36.094660137], [-70.562612039, -36.0951740949999], [-70.561411064, -36.095750379], [-70.560257026, -36.096386717], [-70.559154478, -36.0970805979999], [-70.558107771, -36.097829286], [-70.557121034, -36.098629827], [-70.5561981609999, -36.0994790629999], [-70.555342797, -36.1003736449999], [-70.554558317, -36.1013100439999], [-70.553847818, -36.1022845639999], [-70.553214106, -36.1032933619999], [-70.552659685, -36.1043324579999], [-70.552186746, -36.1053977509999], [-70.551797157, -36.1064850389999], [-70.551492459, -36.107590032], [-70.5512738579999, -36.108708368], [-70.551142221, -36.109835635], [-70.551098071, -36.110967385], [-70.551141585, -36.1120991509999], [-70.5512725959999, -36.113226466], [-70.5514905909999, -36.114344881], [-70.5517947119999, -36.115449982], [-70.552183763, -36.116537406], [-70.5526562109999, -36.1176028629999], [-70.553210196, -36.118642144], [-70.553843532, -36.1196511489999], [-70.554553724, -36.120625893], [-70.55533797, -36.121562529], [-70.556193176, -36.122457358], [-70.5571159679999, -36.123306847], [-70.558102705, -36.1241076439999], [-70.5591494929999, -36.124856585], [-70.5602521989999, -36.1255507129999], [-70.561406472, -36.126187288], [-70.5626077539999, -36.126763796], [-70.563851302, -36.12727796], [-70.565132208, -36.12772775], [-70.566445412, -36.12811139], [-70.567785729, -36.1284273649999], [-70.569147868, -36.128674426], [-70.570526447, -36.128851599], [-70.571916024, -36.128958183], [-70.573311111, -36.128993758], [-70.5747061979999, -36.128958183], [-70.5760957749999, -36.128851599], [-70.5774743539999, -36.128674426], [-70.578836493, -36.1284273649999], [-70.58017681, -36.12811139], [-70.5814900139999, -36.12772775], [-70.58277092, -36.12727796], [-70.584014468, -36.126763796], [-70.58521575, -36.126187288], [-70.586370023, -36.1255507129999], [-70.587472729, -36.124856585], [-70.588519517, -36.1241076439999], [-70.589506254, -36.123306847], [-70.5904290459999, -36.122457358], [-70.591284252, -36.121562529], [-70.5920684979999, -36.120625893], [-70.59277869, -36.1196511489999], [-70.593412026, -36.118642144], [-70.593966011, -36.1176028629999], [-70.5944384589999, -36.116537406], [-70.59482751, -36.115449982], [-70.595131631, -36.114344881], [-70.595349626, -36.113226466], [-70.595480637, -36.1120991509999], [-70.5955241509999, -36.110967385], [-70.5954800009999, -36.109835635], [-70.595348364, -36.108708368], [-70.595129763, -36.107590032], [-70.594825065, -36.1064850389999], [-70.5944354759999, -36.1053977509999], [-70.593962537, -36.1043324579999], [-70.593408116, -36.1032933619999], [-70.592774404, -36.1022845639999], [-70.592063905, -36.101310044], [-70.591279425, -36.1003736449999], [-70.590424061, -36.0994790629999], [-70.589501188, -36.098629827], [-70.588514451, -36.097829286], [-70.587467744, -36.0970805979999], [-70.586365196, -36.096386717], [-70.5852111579999, -36.095750379], [-70.584010183, -36.0951740949999], [-70.582767009, -36.0946601369999], [-70.58148654, -36.094210533], [-70.580173827, -36.093827056], [-70.578834047, -36.093511218], [-70.577472486, -36.093264265], [-70.5760945119999, -36.093087171], [-70.574705561, -36.092980634], [-70.573311111, -36.092945076]]]}, "properties": {"objectid": 2, "numero": null, "volcan": "Laguna del Maule", "volcano_ty": null, "long": null, "lat": null, "categoria": null, "region": null, "near_fid": null, "near_dist": null, "buff_dist": 2000, "orig_fid": 0, "globalid_1": "fe3320d3-a641-4e79-98c3-771cf87d9f28", "Shape__Area": 12554263.476196289, "Shape__Length": 12562.382321406863}}, {"type": "Feature", "id": 5, "geometry": {"type": "Polygon", "coordinates": [[[-71.9389999995309, -39.4154964475958], [-71.9383259617882, -39.4155268970518], [-71.9376610364399, -39.4156178333914], [-71.9370142161555, -39.4157680278266], [-71.9363942441067, -39.4159754491087], [-71.9358095049831, -39.4162372932818], [-71.9352679046142, -39.4165500191201], [-71.934776767613, -39.4169093984176], [-71.9343427340589, -39.4173105717035], [-71.9339716752057, -39.4177481151855], [-71.9336686093509, -39.4182161121936], [-71.9334376366561, -39.4187082340586], [-71.9332818799707, -39.4192178262487], [-71.9332034489911, -39.4197379975287], [-71.9332034057537, -39.4202617135976], [-71.9332817522774, -39.4207818928809], [-71.9334374308902, -39.421291500211], [-71.9336683385974, -39.421783642866], [-71.9339713519013, -39.4222516663554], [-71.9343423767871, -39.4226892405698], [-71.9347763941261, -39.4230904469549], [-71.9352675362044, -39.4234498594991], [-71.9358091617418, -39.4237626167531], [-71.9363939446733, -39.4240244889982], [-71.9370139753056, -39.42423193519], [-71.9376608691299, -39.4243821479927], [-71.9383258755056, -39.4244730952065], [-71.9389999997933, -39.4245035491346], [-71.9396741246289, -39.4244730952434], [-71.9403391303085, -39.4243821471386], [-71.9409860245168, -39.4242319351705], [-71.9416060555383, -39.4240244891399], [-71.9421908380673, -39.4237626170719], [-71.9427324628542, -39.4234498591666], [-71.9432236053574, -39.423090446273], [-71.9436576231308, -39.4226892397252], [-71.9440286483152, -39.4222516658969], [-71.9443316623558, -39.4217836430979], [-71.9445625691543, -39.4212914995054], [-71.9447182473508, -39.4207818925306], [-71.9447965938571, -39.4202617140001], [-71.9447965500491, -39.4197379975879], [-71.9447181198283, -39.4192178264635], [-71.9445623630143, -39.418708234368], [-71.9443313901295, -39.4182161120716], [-71.9440283247473, -39.4177481155625], [-71.9436572657809, -39.4173105724447], [-71.9432232328087, -39.4169093986818], [-71.9427320953332, -39.4165500193551], [-71.9421904952586, -39.4162372932002], [-71.9416057559672, -39.4159754491933], [-71.9409857846518, -39.4157680278096], [-71.9403389635265, -39.4156178333685], [-71.9396740380335, -39.4155268972581], [-71.9389999995309, -39.4154964475958]]]}, "properties": {"objectid": 5, "numero": 1, "volcan": "Villarrica", "volcano_ty": 1, "long": -71.939, "lat": -39.42, "categoria": "Muy Alta", "region": "IX", "near_fid": null, "near_dist": null, "buff_dist": 500, "orig_fid": 28, "globalid_1": "cf0b9823-4011-4992-9d36-5498dab37ef0", "Shape__Area": 784235.7041015625, "Shape__Length": 3141.039655310001}}]}