{"type": "FeatureCollection", "features": [{"type": "Feature", "id": 501, "geometry": {"type": "Point", "coordinates": [-69.772787111, -17.720958508]}, "properties": {"objectid": 501, "objectid_1": null, "numero": 60, "volcan": "Tacora", "volcano_ty": 1, "long": -69.77278711, "lat": -17.72095851, "categoria": "Baja", "region": "XV", "globalid": null, "near_fid": null, "near_dist": null, "globalid_1": "3e2156be-2002-4711-90a2-316bf97c3b21"}}, {"type": "Feature", "id": 502, "geometry": {"type": "Point", "coordinates": [-69.5119999999999, -18.103]}, "properties": {"objectid": 502, "objectid_1": null, "numero": 42, "volcan": "Taapaca", "volcano_ty": 1, "long": -69.512, "lat": -18.103, "categoria": "Moderada", "region": "XV", "globalid": null, "near_fid": null, "near_dist": null, "globalid_1": "7f158000-22f5-47d1-9d09-97be95331eb7"}}, {"type": "Feature", "id": 503, "geometry": {"type": "Point", "coordinates": [-69.143, -18.1639999999999]}, "properties": {"objectid": 503, "objectid_1": null, "numero": 17, "volcan": "Parinacota", "volcano_ty": 1, "long": -69.144, "lat": -18.165, "categoria": "Alta", "region": "XV", "globalid": null, "near_fid": null, "near_dist": null, "globalid_1": "af611d0a-7a98-4988-bb6c-5e5717e87f03"}}, {"type": "Feature", "id": 504, "geometry": {"type": "Point", "coordinates": [-69.051152891, -18.746004872]}, "properties": {"objectid": 504, "objectid_1": null, "numero": 0, "volcan": "Arintica", "volcano_ty": 1, "long": -69.05115289000001, "lat": -18.74600487, "categoria": "Sin ranking", "region": "XV", "globalid": null, "near_fid": null, "near_dist": null, "globalid_1": "9d9037d8-886e-4f35-9ab0-b4435bea9257"}}, {"type": "Feature", "id": 505, "geometry": {"type": "Point", "coordinates": [-68.831, -19.145]}, "properties": {"objectid": 505, "objectid_1": null, "numero": 41, "volcan": "Isluga", "volcano_ty": 1, "long": -68.831, "lat": -19.145, "categoria": "Moderada", "region": "I", "globalid": null, "near_fid": null, "near_dist": null, "globalid_1": "93f7416a-a475-4db4-95b7-f4b4950eb03c"}}, {"type": "Feature", "id": 506, "geometry": {"type": "Point", "coordinates": [-68.479, -20.9469999999999]}, "properties": {"objectid": 506, "objectid_1": null, "numero": 61, "volcan": "Olca-Paruma", "volcano_ty": 1, "long": -68.479, "lat": -20.947, "categoria": "Baja", "region": "II", "globalid": null, "near_fid": null, "near_dist": null, "globalid_1": "afdc9ae1-72ca-4806-a67c-77e5cecf3ca4"}}, {"type": "Feature", "id": 507, "geometry": {"type": "Point", "coordinates": [-68.4682413199999, -21.2208057519999]}, "properties": {"objectid": 507, "objectid_1": null, "numero": 71, "volcan": "Aucanquilcha", "volcano_ty": 1, "long": -68.46824131999999, "lat": -21.22080575, "categoria": "Baja", "region": "II", "globalid": null, "near_fid": null, "near_dist": null, "globalid_1": "80522508-dd9d-477d-8f85-feb5f39d8586"}}, {"type": "Feature", "id": 508, "geometry": {"type": "Point", "coordinates": [-68.239656197, -21.7831388829999]}, "properties": {"objectid": 508, "objectid_1": null, "numero": 77, "volcan": "Apacheta (Cerro del Azufre)", "volcano_ty": 1, "long": -68.2396562, "lat": -21.783138880000003, "categoria": "Muy Baja", "region": "II", "globalid": null, "near_fid": null, "near_dist": null, "globalid_1": "7123a146-559f-48c2-8827-a5038703dba9"}}, {"type": "Feature", "id": 509, "geometry": {"type": "Point", "coordinates": [-68.396, -21.8869999999999]}, "properties": {"objectid": 509, "objectid_1": null, "numero": 36, "volcan": "San Pedro", "volcano_ty": 1, "long": -68.396, "lat": -21.887, "categoria": "Moderada", "region": "II", "globalid": null, "near_fid": null, "near_dist": null, "globalid_1": "97b69544-9fad-4327-b33a-d1382567651e"}}, {"type": "Feature", "id": 510, "geometry": {"type": "Point", "coordinates": [-67.852, -22.5509999999999]}, "properties": {"objectid": 510, "objectid_1": null, "numero": 69, "volcan": "Putana", "volcano_ty": 1, "long": -67.852, "lat": -22.551, "categoria": "Baja", "region": "II", "globalid": null, "near_fid": null, "near_dist": null, "globalid_1": "4c6a8813-930c-4de4-8f75-b68f1599aefe"}}, {"type": "Feature", "id": 511, "geometry": {"type": "Point", "coordinates": [-67.8919999999999, -22.72]}, "properties": {"objectid": 511, "objectid_1": null, "numero": 72, "volcan": "Sairecabur", "volcano_ty": 1, "long": -67.892, "lat": -22.72, "categoria": "Muy Baja", "region": "II", "globalid": null, "near_fid": null, "near_dist": null, "globalid_1": "33adf487-fea9-4ffb-84fb-76ac3129c42b"}}, {"type": "Feature", "id": 512, "geometry": {"type": "Point", "coordinates": [-67.880000001, -22.8299999989999]}, "properties": {"objectid": 512, "objectid_1": null, "numero": 68, "volcan": "Licancabur", "volcano_ty": 1, "long": -67.88, "lat": -22.83, "categoria": "Baja", "region": "II", "globalid": null, "near_fid": null, "near_dist": null, "globalid_1": "29c43f69-a938-4fe5-9137-dacc9783d85f"}}, {"type": "Feature", "id": 513, "geometry": {"type": "Point", "coordinates": [-67.637692707, -23.1440116909999]}, "properties": {"objectid": 513, "objectid_1": null, "numero": 86, "volcan": "Alítar", "volcano_ty": 1, "long": -67.63769271000001, "lat": -23.14401169, "categoria": "Muy Baja", "region": "II", "globalid": null, "near_fid": null, "near_dist": null, "globalid_1": "8b26d956-200d-48f7-be3b-617e05253da8"}}, {"type": "Feature", "id": 514, "geometry": {"type": "Point", "coordinates": [-67.646, -23.24]}, "properties": {"objectid": 514, "objectid_1": null, "numero": 0, "volcan": "Colachi", "volcano_ty": 1, "long": -67.646, "lat": -23.24, "categoria": "Sin ranking", "region": "II", "globalid": null, "near_fid": null, "near_dist": null, "globalid_1": "9dc248ec-b879-4b19-b7c8-409cd15f6ece"}}, {"type": "Feature", "id": 515, "geometry": {"type": "Point", "coordinates": [-67.6179999989999, -23.290000001]}, "properties": {"objectid": 515, "objectid_1": null, "numero": 81, "volcan": "Acamarachi", "volcano_ty": 1, "long": -67.618, "lat": -23.29, "categoria": "Muy Baja", "region": "II", "globalid": null, "near_fid": null, "near_dist": null, "globalid_1": "97f11acd-d815-4f2a-b4b0-b905f77dcd9e"}}, {"type": "Feature", "id": 516, "geometry": {"type": "Point", "coordinates": [-67.701826846, -23.5807765759999]}, "properties": {"objectid": 516, "objectid_1": null, "numero": 75, "volcan": "Chiliques", "volcano_ty": 1, "long": -67.70182685, "lat": -23.580776580000002, "categoria": "Muy Baja", "region": "II", "globalid": null, "near_fid": null, "near_dist": null, "globalid_1": "9d49342b-f176-4660-bfee-94354711c803"}}, {"type": "Feature", "id": 517, "geometry": {"type": "Point", "coordinates": [-67.716374284, -23.673454605]}, "properties": {"objectid": 517, "objectid_1": null, "numero": 0, "volcan": "Miscanti", "volcano_ty": 1, "long": -67.71637428000001, "lat": -23.67345461, "categoria": "Sin ranking", "region": "II", "globalid": null, "near_fid": null, "near_dist": null, "globalid_1": "1680d95e-956a-4fe7-9bcd-4e32ef0d60cb"}}, {"type": "Feature", "id": 518, "geometry": {"type": "Point", "coordinates": [-67.539730829, -23.7456345849999]}, "properties": {"objectid": 518, "objectid_1": null, "numero": 80, "volcan": "Puntas Negras", "volcano_ty": 1, "long": -67.53973083, "lat": -23.745634589999998, "categoria": "Muy Baja", "region": "II", "globalid": null, "near_fid": null, "near_dist": null, "globalid_1": "82241e5c-64f9-4f16-9488-55fbe4494473"}}, {"type": "Feature", "id": 519, "geometry": {"type": "Point", "coordinates": [-67.758174405, -23.8163287949999]}, "properties": {"objectid": 519, "objectid_1": null, "numero": 0, "volcan": "Miñiques", "volcano_ty": 1, "long": -67.7581744, "lat": -23.816328799999997, "categoria": "Sin ranking", "region": "II", "globalid": null, "near_fid": null, "near_dist": null, "globalid_1": "2f834f40-8aa3-448c-b523-b956f2465d32"}}, {"type": "Feature", "id": 520, "geometry": {"type": "Point", "coordinates": [-68.056233327, -24.1919739699999]}, "properties": {"objectid": 520, "objectid_1": null, "numero": 0, "volcan": "Púlar", "volcano_ty": 1, "long": -68.05623333, "lat": -24.19197397, "categoria": "Sin ranking", "region": "II", "globalid": null, "near_fid": null, "near_dist": null, "globalid_1": "1004d16b-b10d-4cb2-8d54-bf3c8790c895"}}, {"type": "Feature", "id": 521, "geometry": {"type": "Point", "coordinates": [-68.2449999999999, -24.395]}, "properties": {"objectid": 521, "objectid_1": null, "numero": 48, "volcan": "Socompa", "volcano_ty": 1, "long": -68.245, "lat": -24.395, "categoria": "Moderada", "region": "II", "globalid": null, "near_fid": null, "near_dist": null, "globalid_1": "2446a729-9be1-40a3-9a70-e4b51df14ad7"}}, {"type": "Feature", "id": 522, "geometry": {"type": "Point", "coordinates": [-68.5339999999999, -24.72]}, "properties": {"objectid": 522, "objectid_1": null, "numero": 83, "volcan": "Llullaillaco", "volcano_ty": 1, "long": -68.534, "lat": -24.72, "categoria": "Muy Baja", "region": "II", "globalid": null, "near_fid": null, "near_dist": null, "globalid_1": "9b9b7284-bb77-4947-a4e0-108703f0b092"}}, {"type": "Feature", "id": 523, "geometry": {"type": "Point", "coordinates": [-68.366502021, -25.0824281229999]}, "properties": {"objectid": 523, "objectid_1": null, "numero": 0, "volcan": "Escorial", "volcano_ty": 1, "long": -68.36650202, "lat": -25.08242812, "categoria": "Sin ranking", "region": "II", "globalid": null, "near_fid": null, "near_dist": null, "globalid_1": "c1f9a83f-9f35-49fb-b2f3-a4a750fb3865"}}, {"type": "Feature", "id": 524, "geometry": {"type": "Point", "coordinates": [-68.5219999999999, -25.336]}, "properties": {"objectid": 524, "objectid_1": null, "numero": 84, "volcan": "Cordón del Azufre", "volcano_ty": 1, "long": -68.522, "lat": -25.336, "categoria": "Muy Baja", "region": "II", "globalid": null, "near_fid": null, "near_dist": null, "globalid_1": "9907b31a-62c5-47d0-9ced-28d2c121c251"}}, {"type": "Feature", "id": 525, "geometry": {"type": "Point", "coordinates": [-71.717, -39.4979999989999]}, "properties": {"objectid": 525, "objectid_1": null, "numero": 26, "volcan": "Quetrupillán", "volcano_ty": 1, "long": -71.717, "lat": -39.498, "categoria": "Alta", "region": "XIV", "globalid": null, "near_fid": null, "near_dist": null, "globalid_1": "ff415a8d-9c48-4428-9c51-279c5be18876"}}, {"type": "Feature", "id": 526, "geometry": {"type": "Point", "coordinates": [-72.3099999999999, -41.4200000009999]}, "properties": {"objectid": 526, "objectid_1": null, "numero": 33, "volcan": "Ralún", "volcano_ty": 0, "long": -72.31, "lat": -41.42, "categoria": "Moderada", "region": "X", "globalid": null, "near_fid": null, "near_dist": null, "globalid_1": "b5649c59-6ac1-4679-b166-2ccbb854b71d"}}, {"type": "Feature", "id": 527, "geometry": {"type": "Point", "coordinates": [-68.5099999999999, -25.169999999]}, "properties": {"objectid": 527, "objectid_1": null, "numero": 70, "volcan": "Lastarria", "volcano_ty": 1, "long": -68.51, "lat": -25.17, "categoria": "Baja", "region": "II", "globalid": null, "near_fid": null, "near_dist": null, "globalid_1": "82fda908-f1be-4c78-8906-359d7cc4ad63"}}, {"type": "Feature", "id": 528, "geometry": {"type": "Point", "coordinates": [-71.939, -39.42]}, "properties": {"objectid": 528, "objectid_1": null, "numero": 1, "volcan": "Villarrica", "volcano_ty": 1, "long": -71.939, "lat": -39.42, "categoria": "Muy Alta", "region": "IX", "globalid": null, "near_fid": null, "near_dist": null, "globalid_1": "c30bbf18-d4fa-43c1-a001-31b5db2d2e5e"}}, {"type": "Feature", "id": 529, "geometry": {"type": "Point", "coordinates": [-69.09, -18.419]}, "properties": {"objectid": 529, "objectid_1": null, "numero": 25, "volcan": "Guallatiri", "volcano_ty": 1, "long": -69.09, "lat": -18.419, "categoria": "Alta", "region": "XV", "globalid": null, "near_fid": null, "near_dist": null, "globalid_1": "293355ee-e3bf-4f73-9abb-97b69d573837"}}, {"type": "Feature", "id": 530, "geometry": {"type": "Point", "coordinates": [-68.559437142, -20.73255575]}, "properties": {"objectid": 530, "objectid_1": null, "numero": 45, "volcan": "Irruputuncu", "volcano_ty": 1, "long": -68.55943714, "lat": -20.732555750000003, "categoria": "Moderada", "region": "I", "globalid": null, "near_fid": null, "near_dist": null, "globalid_1": "bff25356-aa38-422c-9215-e5c55e9ead50"}}, {"type": "Feature", "id": 531, "geometry": {"type": "Point", "coordinates": [-68.1790943789999, -21.302462928]}, "properties": {"objectid": 531, "objectid_1": null, "numero": 66, "volcan": "Ollagüe", "volcano_ty": 1, "long": -68.17909438, "lat": -21.302462929999997, "categoria": "Baja", "region": "II", "globalid": null, "near_fid": null, "near_dist": null, "globalid_1": "e727e98d-0459-4ecf-b1cd-952e68bc6a31"}}, {"type": "Feature", "id": 532, "geometry": {"type": "Point", "coordinates": [-71.368000001, -36.871]}, "properties": {"objectid": 532, "objectid_1": null, "numero": 10, "volcan": "Nevados de Chillán", "volcano_ty": 1, "long": -71.368, "lat": -36.871, "categoria": "Muy Alta", "region": "VIII", "globalid": null, "near_fid": null, "near_dist": null, "globalid_1": "dbc8580b-a297-4c85-a27c-65b3ccedc353"}}, {"type": "Feature", "id": 533, "geometry": {"type": "Point", "coordinates": [-71.3509999999999, -37.409999999]}, "properties": {"objectid": 533, "objectid_1": null, "numero": 13, "volcan": "Antuco", "volcano_ty": 1, "long": -71.351, "lat": -37.41, "categoria": "Muy Alta", "region": "VIII", "globalid": null, "near_fid": null, "near_dist": null, "globalid_1": "f1e71f61-8eaf-429f-af55-4f16ff0f8d80"}}, {"type": "Feature", "id": 534, "geometry": {"type": "Point", "coordinates": [-71.17, -37.85]}, "properties": {"objectid": 534, "objectid_1": null, "numero": 15, "volcan": "Copahue", "volcano_ty": 1, "long": -71.17, "lat": -37.85, "categoria": "Alta", "region": "VIII", "globalid": null, "near_fid": null, "near_dist": null, "globalid_1": "9a58b159-b46b-4f76-9c9d-39882416519f"}}, {"type": "Feature", "id": 535, "geometry": {"type": "Point", "coordinates": [-71.446, -37.9259999999999]}, "properties": {"objectid": 535, "objectid_1": null, "numero": 18, "volcan": "Callaqui", "volcano_ty": 1, "long": -71.446, "lat": -37.926, "categoria": "Alta", "region": "VIII", "globalid": null, "near_fid": null, "near_dist": null, "globalid_1": "facd9b3e-a915-47ca-852c-5983a4b5dca0"}}, {"type": "Feature", "id": 536, "geometry": {"type": "Point", "coordinates": [-71.5889999999999, -38.378999999]}, "properties": {"objectid": 536, "objectid_1": null, "numero": 11, "volcan": "Lonquimay", "volcano_ty": 1, "long": -71.589, "lat": -38.379, "categoria": "Muy Alta", "region": "IX", "globalid": null, "near_fid": null, "near_dist": null, "globalid_1": "499d9881-020d-43dd-ad99-b8d387ff986b"}}, {"type": "Feature", "id": 537, "geometry": {"type": "Point", "coordinates": [-71.732999999, -38.694]}, "properties": {"objectid": 537, "objectid_1": null, "numero": 3, "volcan": "Llaima", "volcano_ty": 1, "long": -71.733, "lat": -38.694, "categoria": "Muy Alta", "region": "IX", "globalid": null, "near_fid": null, "near_dist": null, "globalid_1": "7a1b5f29-5ebb-439d-91ff-5f649afc504d"}}, {"type": "Feature", "id": 538, "geometry": {"type": "Point", "coordinates": [-68.291999999, -27.035]}, "properties": {"objectid": 538, "objectid_1": null, "numero": 0, "volcan": "Nevados de Incahuasi", "volcano_ty": 1, "long": -68.292, "lat": -27.035, "categoria": "Sin ranking", "region": "III", "globalid": null, "near_fid": null, "near_dist": null, "globalid_1": "71a94dac-a20a-4c75-8afa-540d9508ec01"}}, {"type": "Feature", "id": 539, "geometry": {"type": "Point", "coordinates": [-68.708000001, -27.107]}, "properties": {"objectid": 539, "objectid_1": null, "numero": 0, "volcan": "El Solo", "volcano_ty": 1, "long": -68.708, "lat": -27.107, "categoria": "Sin ranking", "region": "III", "globalid": null, "near_fid": null, "near_dist": null, "globalid_1": "76fa228e-d1ee-47fc-ba0b-1d399063ce40"}}, {"type": "Feature", "id": 540, "geometry": {"type": "Point", "coordinates": [-68.5409999999999, -27.11]}, "properties": {"objectid": 540, "objectid_1": null, "numero": 82, "volcan": "Ojos del Salado", "volcano_ty": 1, "long": -68.541, "lat": -27.11, "categoria": "Muy Baja", "region": "III", "globalid": null, "near_fid": null, "near_dist": null, "globalid_1": "29b811cd-fe3a-454c-87a1-2a2bc60101e5"}}, {"type": "Feature", "id": 541, "geometry": {"type": "Point", "coordinates": [-69.802, -33.401]}, "properties": {"objectid": 541, "objectid_1": null, "numero": 31, "volcan": "Tupungatito", "volcano_ty": 1, "long": -69.81554078, "lat": -33.391283869999995, "categoria": "Alta", "region": "RM", "globalid": null, "near_fid": null, "near_dist": null, "globalid_1": "a187d69d-7148-44fa-848a-06e68e15e3e4"}}, {"type": "Feature", "id": 542, "geometry": {"type": "Point", "coordinates": [-69.8785139089999, -33.7342290729999]}, "properties": {"objectid": 542, "objectid_1": null, "numero": 0, "volcan": "Marmolejo", "volcano_ty": 1, "long": -69.87851391000001, "lat": -33.73422907, "categoria": "Sin ranking", "region": "RM", "globalid": null, "near_fid": null, "near_dist": null, "globalid_1": "62f4e31f-5c4b-4942-b830-9d2c9b25030d"}}, {"type": "Feature", "id": 543, "geometry": {"type": "Point", "coordinates": [-69.895264835, -33.7895965019999]}, "properties": {"objectid": 543, "objectid_1": null, "numero": 49, "volcan": "San José", "volcano_ty": 1, "long": -69.89526483, "lat": -33.789596499999995, "categoria": "Moderada", "region": "RM", "globalid": null, "near_fid": null, "near_dist": null, "globalid_1": "aaf4f3cf-5574-4148-9604-9da284a11aa2"}}, {"type": "Feature", "id": 544, "geometry": {"type": "Point", "coordinates": [-69.8318415259999, -34.164002351]}, "properties": {"objectid": 544, "objectid_1": null, "numero": 52, "volcan": "Maipo", "volcano_ty": 1, "long": -69.83184153, "lat": -34.164002350000004, "categoria": "Moderada", "region": "RM", "globalid": null, "near_fid": null, "near_dist": null, "globalid_1": "fd547776-98d0-4dcb-af05-a50e22bd5d85"}}, {"type": "Feature", "id": 545, "geometry": {"type": "Point", "coordinates": [-70.2967617429999, -34.6110045569999]}, "properties": {"objectid": 545, "objectid_1": null, "numero": 62, "volcan": "Palomo", "volcano_ty": 1, "long": -70.29676174000001, "lat": -34.61100456, "categoria": "Baja", "region": "VI", "globalid": null, "near_fid": null, "near_dist": null, "globalid_1": "e0341335-e095-4eb9-b558-e3424ca11b07"}}, {"type": "Feature", "id": 546, "geometry": {"type": "Point", "coordinates": [-70.34, -34.817]}, "properties": {"objectid": 546, "objectid_1": null, "numero": 50, "volcan": "Tinguiririca", "volcano_ty": 1, "long": -70.34, "lat": -34.817, "categoria": "Moderada", "region": "VI", "globalid": null, "near_fid": null, "near_dist": null, "globalid_1": "8e189745-23f6-4bed-9330-24bbc47e5f2b"}}, {"type": "Feature", "id": 547, "geometry": {"type": "Point", "coordinates": [-70.574, -35.2409999999999]}, "properties": {"objectid": 547, "objectid_1": null, "numero": 22, "volcan": "Planchón-Peteroa", "volcano_ty": 1, "long": -70.574, "lat": -35.241, "categoria": "Alta", "region": "VII", "globalid": null, "near_fid": null, "near_dist": null, "globalid_1": "cbda9351-9045-4cf0-9ee8-acfb58bfea7c"}}, {"type": "Feature", "id": 548, "geometry": {"type": "Point", "coordinates": [-70.7590000009999, -35.6539999999999]}, "properties": {"objectid": 548, "objectid_1": null, "numero": 5, "volcan": "Cerro Azul-Quizapu", "volcano_ty": 1, "long": -70.759, "lat": -35.654, "categoria": "Muy Alta", "region": "VII", "globalid": null, "near_fid": null, "near_dist": null, "globalid_1": "b41181e4-cfdd-4b6f-b209-84b61b237412"}}, {"type": "Feature", "id": 549, "geometry": {"type": "Point", "coordinates": [-70.854999999, -35.992]}, "properties": {"objectid": 549, "objectid_1": null, "numero": 55, "volcan": "San Pedro-Pellado", "volcano_ty": 1, "long": -70.855, "lat": -35.992, "categoria": "Baja", "region": "VII", "globalid": null, "near_fid": null, "near_dist": null, "globalid_1": "490eae80-9ffb-46fa-ae99-8c4e2ada7d94"}}, {"type": "Feature", "id": 550, "geometry": {"type": "Point", "coordinates": [-70.5070000009999, -36.0579999999999]}, "properties": {"objectid": 550, "objectid_1": null, "numero": 23, "volcan": "Laguna del Maule", "volcano_ty": 1, "long": -70.507, "lat": -36.058, "categoria": "Alta", "region": "VII", "globalid": null, "near_fid": null, "near_dist": null, "globalid_1": "71a15ce1-f989-43bd-a247-e74783edaf5d"}}, {"type": "Feature", "id": 551, "geometry": {"type": "Point", "coordinates": [-71.164, -36.199]}, "properties": {"objectid": 551, "objectid_1": null, "numero": 56, "volcan": "Nevado de Longaví", "volcano_ty": 1, "long": -71.164, "lat": -36.199, "categoria": "Baja", "region": "VII", "globalid": null, "near_fid": null, "near_dist": null, "globalid_1": "6adef6f8-8d88-400c-a654-d6e0a5d54e64"}}, {"type": "Feature", "id": 552, "geometry": {"type": "Point", "coordinates": [-71.011, -36.2889999999999]}, "properties": {"objectid": 552, "objectid_1": null, "numero": 0, "volcan": "Loma Blanca", "volcano_ty": 1, "long": -71.011, "lat": -36.289, "categoria": "Sin ranking", "region": "VII", "globalid": null, "near_fid": null, "near_dist": null, "globalid_1": "9cb2b000-9808-4e4d-add0-2cd10b37b162"}}, {"type": "Feature", "id": 553, "geometry": {"type": "Point", "coordinates": [-71.645999999, -38.3139999979999]}, "properties": {"objectid": 553, "objectid_1": null, "numero": 37, "volcan": "Tolhuaca", "volcano_ty": 1, "long": -71.646, "lat": -38.314, "categoria": "Moderada", "region": "IX", "globalid": null, "near_fid": null, "near_dist": null, "globalid_1": "167f6c49-7b67-4975-8d41-32296a28cdf8"}}, {"type": "Feature", "id": 554, "geometry": {"type": "Point", "coordinates": [-71.5190000009999, -38.977]}, "properties": {"objectid": 554, "objectid_1": null, "numero": 21, "volcan": "Sollipulli", "volcano_ty": 1, "long": -71.519, "lat": -38.977, "categoria": "Alta", "region": "IX", "globalid": null, "near_fid": null, "near_dist": null, "globalid_1": "a85f9fdb-3896-43c3-a6ef-74ed89c1cf32"}}, {"type": "Feature", "id": 555, "geometry": {"type": "Point", "coordinates": [-71.8299999989999, -39.1999999989999]}, "properties": {"objectid": 555, "objectid_1": null, "numero": 43, "volcan": "Caburgua", "volcano_ty": 0, "long": -71.83, "lat": -39.2, "categoria": "Moderada", "region": "IX", "globalid": null, "near_fid": null, "near_dist": null, "globalid_1": "8a4d8fff-4c58-44bd-997f-aebf9652a73a"}}, {"type": "Feature", "id": 556, "geometry": {"type": "Point", "coordinates": [-72.112, -40.585]}, "properties": {"objectid": 556, "objectid_1": null, "numero": 4, "volcan": "Puyehue-Cordón Caulle", "volcano_ty": 1, "long": -72.112, "lat": -40.585, "categoria": "Muy Alta", "region": "X", "globalid": null, "near_fid": null, "near_dist": null, "globalid_1": "dea26f3e-9034-49a0-b019-6b05c63804bc"}}, {"type": "Feature", "id": 557, "geometry": {"type": "Point", "coordinates": [-72.499000001, -41.102]}, "properties": {"objectid": 557, "objectid_1": null, "numero": 8, "volcan": "Osorno", "volcano_ty": 1, "long": -72.499, "lat": -41.102, "categoria": "Muy Alta", "region": "X", "globalid": null, "near_fid": null, "near_dist": null, "globalid_1": "4c35ccee-5d8f-4f66-b45a-1bf22bd997d8"}}, {"type": "Feature", "id": 558, "geometry": {"type": "Point", "coordinates": [-72.614, -41.329]}, "properties": {"objectid": 558, "objectid_1": null, "numero": 2, "volcan": "Calbuco", "volcano_ty": 1, "long": -72.614, "lat": -41.329, "categoria": "Muy Alta", "region": "X", "globalid": null, "near_fid": null, "near_dist": null, "globalid_1": "99fabb9b-80e7-4e14-b1cf-ea6a9093fa22"}}, {"type": "Feature", "id": 559, "geometry": {"type": "Point", "coordinates": [-72.4, -41.759]}, "properties": {"objectid": 559, "objectid_1": null, "numero": 20, "volcan": "Yate", "volcano_ty": 1, "long": -72.4, "lat": -41.759, "categoria": "Alta", "region": "X", "globalid": null, "near_fid": null, "near_dist": null, "globalid_1": "5e4d91d1-4c8b-49c5-aeaa-f3bfd606d895"}}, {"type": "Feature", "id": 560, "geometry": {"type": "Point", "coordinates": [-72.579, -42.379]}, "properties": {"objectid": 560, "objectid_1": null, "numero": 47, "volcan": "Huequi", "volcano_ty": 1, "long": -72.579, "lat": -42.379, "categoria": "Moderada", "region": "X", "globalid": null, "near_fid": null, "near_dist": null, "globalid_1": "14a85106-dc7f-452e-8c19-b76d2785710c"}}, {"type": "Feature", "id": 561, "geometry": {"type": "Point", "coordinates": [-72.650000001, -42.8369999999999]}, "properties": {"objectid": 561, "objectid_1": null, "numero": 7, "volcan": "Chaitén", "volcano_ty": 1, "long": -72.65, "lat": -42.837, "categoria": "Muy Alta", "region": "X", "globalid": null, "near_fid": null, "near_dist": null, "globalid_1": "36989716-13e5-43c5-ba41-dc09f4095407"}}, {"type": "Feature", "id": 562, "geometry": {"type": "Point", "coordinates": [-72.814, -43.4999999999999]}, "properties": {"objectid": 562, "objectid_1": null, "numero": 38, "volcan": "Yanteles", "volcano_ty": 1, "long": -72.814, "lat": -43.5, "categoria": "Moderada", "region": "X", "globalid": null, "near_fid": null, "near_dist": null, "globalid_1": "cc3ee34f-5a5b-43aa-9464-52df2143c61a"}}, {"type": "Feature", "id": 563, "geometry": {"type": "Point", "coordinates": [-72.572912882, -44.3112176879999]}, "properties": {"objectid": 563, "objectid_1": null, "numero": 59, "volcan": "Puyuhuapi", "volcano_ty": 0, "long": -72.57291288, "lat": -44.31121769, "categoria": "Baja", "region": "XI", "globalid": null, "near_fid": null, "near_dist": null, "globalid_1": "8dffbed1-1bcc-4f4b-9c39-df6cc89645ab"}}, {"type": "Feature", "id": 564, "geometry": {"type": "Point", "coordinates": [-67.7280000009999, -23.365]}, "properties": {"objectid": 564, "objectid_1": null, "numero": 14, "volcan": "Láscar", "volcano_ty": 1, "long": -67.728, "lat": -23.365, "categoria": "Muy Alta", "region": "II", "globalid": null, "near_fid": null, "near_dist": null, "globalid_1": "6e69c401-87f7-460b-aed3-f1766ec61f43"}}, {"type": "Feature", "id": 565, "geometry": {"type": "Point", "coordinates": [-70.751, -35.586]}, "properties": {"objectid": 565, "objectid_1": null, "numero": 5, "volcan": "Descabezado Grande", "volcano_ty": 1, "long": -70.751, "lat": -35.586, "categoria": "Muy Alta", "region": "VII", "globalid": null, "near_fid": null, "near_dist": null, "globalid_1": "9b1d91a6-7bf9-48d7-a4e8-4139b4aab07e"}}, {"type": "Feature", "id": 566, "geometry": {"type": "Point", "coordinates": [-71.80460405, -39.2974596999999]}, "properties": {"objectid": 566, "objectid_1": null, "numero": 43, "volcan": "Huelemolle", "volcano_ty": 0, "long": -71.80460405, "lat": -39.297459700000005, "categoria": "Moderada", "region": "IX", "globalid": null, "near_fid": null, "near_dist": null, "globalid_1": "90d5d644-da83-4640-89f9-8f8c5f7ff118"}}, {"type": "Feature", "id": 567, "geometry": {"type": "Point", "coordinates": [-71.7557151469999, -39.631730088]}, "properties": {"objectid": 567, "objectid_1": null, "numero": 64, "volcan": "Llizán", "volcano_ty": 0, "long": -71.75571515, "lat": -39.631730090000005, "categoria": "Baja", "region": "XIV", "globalid": null, "near_fid": null, "near_dist": null, "globalid_1": "60b84369-6bd0-4579-b9fe-6c7b6617f7b5"}}, {"type": "Feature", "id": 568, "geometry": {"type": "Point", "coordinates": [-71.501, -39.638999999]}, "properties": {"objectid": 568, "objectid_1": null, "numero": 27, "volcan": "Lanín", "volcano_ty": 1, "long": -71.501, "lat": -39.639, "categoria": "Alta", "region": "XIV", "globalid": null, "near_fid": null, "near_dist": null, "globalid_1": "a7722e63-e894-44ce-b52d-231101757374"}}, {"type": "Feature", "id": 569, "geometry": {"type": "Point", "coordinates": [-71.9279999999999, -39.9010000009999]}, "properties": {"objectid": 569, "objectid_1": null, "numero": 51, "volcan": "Fui", "volcano_ty": 0, "long": -71.928, "lat": -39.901, "categoria": "Moderada", "region": "XIV", "globalid": null, "near_fid": null, "near_dist": null, "globalid_1": "43a7a51b-5059-4867-ac78-503cf710604b"}}, {"type": "Feature", "id": 570, "geometry": {"type": "Point", "coordinates": [-72.030000001, -39.929999998]}, "properties": {"objectid": 570, "objectid_1": null, "numero": 9, "volcan": "Mocho-Choshuenco", "volcano_ty": 1, "long": -72.03, "lat": -39.93, "categoria": "Muy Alta", "region": "X", "globalid": null, "near_fid": null, "near_dist": null, "globalid_1": "ec4cb43b-bee9-4299-885d-cdc130a55da2"}}, {"type": "Feature", "id": 571, "geometry": {"type": "Point", "coordinates": [-72.073000001, -40.3659999989999]}, "properties": {"objectid": 571, "objectid_1": null, "numero": 6, "volcan": "Carrán-Los Venados", "volcano_ty": 0, "long": -72.073, "lat": -40.366, "categoria": "Muy Alta", "region": "X", "globalid": null, "near_fid": null, "near_dist": null, "globalid_1": "17d55b9a-5d8c-4922-a138-de7954e727dd"}}, {"type": "Feature", "id": 572, "geometry": {"type": "Point", "coordinates": [-72.155, -40.775999999]}, "properties": {"objectid": 572, "objectid_1": null, "numero": 16, "volcan": "Antillanca", "volcano_ty": 1, "long": -72.155, "lat": -40.776, "categoria": "Alta", "region": "X", "globalid": null, "near_fid": null, "near_dist": null, "globalid_1": "47db0612-12a4-42b1-93da-66c1bc50a2db"}}, {"type": "Feature", "id": 573, "geometry": {"type": "Point", "coordinates": [-72.2689999999999, -40.973]}, "properties": {"objectid": 573, "objectid_1": null, "numero": 24, "volcan": "Puntiagudo-Cordón Cenizos", "volcano_ty": 1, "long": -72.269, "lat": -40.973, "categoria": "Alta", "region": "X", "globalid": null, "near_fid": null, "near_dist": null, "globalid_1": "a4d1a401-1bd5-4056-a4f6-eebb30f7a81f"}}, {"type": "Feature", "id": 574, "geometry": {"type": "Point", "coordinates": [-72.279999999, -41.2529999999999]}, "properties": {"objectid": 574, "objectid_1": null, "numero": 33, "volcan": "Cayutúe", "volcano_ty": 0, "long": -72.28, "lat": -41.253, "categoria": "Moderada", "region": "X", "globalid": null, "near_fid": null, "near_dist": null, "globalid_1": "8cfde8ac-54ce-4042-9fbe-151fa38cdc56"}}, {"type": "Feature", "id": 575, "geometry": {"type": "Point", "coordinates": [-72.431, -41.876]}, "properties": {"objectid": 575, "objectid_1": null, "numero": 29, "volcan": "Hornopirén", "volcano_ty": 1, "long": -72.431, "lat": -41.876, "categoria": "Alta", "region": "X", "globalid": null, "near_fid": null, "near_dist": null, "globalid_1": "56cd966a-c787-4ae6-a86e-63818abe2d34"}}, {"type": "Feature", "id": 576, "geometry": {"type": "Point", "coordinates": [-72.5889999999999, -41.884]}, "properties": {"objectid": 576, "objectid_1": null, "numero": 30, "volcan": "Apagado (Hualaihué)", "volcano_ty": 1, "long": -72.589, "lat": -41.884, "categoria": "Alta", "region": "X", "globalid": null, "near_fid": null, "near_dist": null, "globalid_1": "a268fba8-1443-4b4c-807a-07b2b5a1eb60"}}, {"type": "Feature", "id": 577, "geometry": {"type": "Point", "coordinates": [-72.445000002, -42.7979999999999]}, "properties": {"objectid": 577, "objectid_1": null, "numero": 19, "volcan": "Michinmahuida", "volcano_ty": 1, "long": -72.445, "lat": -42.798, "categoria": "Alta", "region": "X", "globalid": null, "near_fid": null, "near_dist": null, "globalid_1": "2cc8ba3b-a899-45d9-9b27-455214c53bb0"}}, {"type": "Feature", "id": 578, "geometry": {"type": "Point", "coordinates": [-72.738669241, -43.1032933239999]}, "properties": {"objectid": 578, "objectid_1": null, "numero": 65, "volcan": "Palvitad", "volcano_ty": 0, "long": -72.73866924000001, "lat": -43.10329332, "categoria": "Baja", "region": "X", "globalid": null, "near_fid": null, "near_dist": null, "globalid_1": "8d902014-6148-4803-8509-8dabb7a78a09"}}, {"type": "Feature", "id": 579, "geometry": {"type": "Point", "coordinates": [-72.794000001, -43.194]}, "properties": {"objectid": 579, "objectid_1": null, "numero": 57, "volcan": "Corcovado", "volcano_ty": 1, "long": -72.794, "lat": -43.194, "categoria": "Baja", "region": "X", "globalid": null, "near_fid": null, "near_dist": null, "globalid_1": "cc84fa40-4eb1-44db-8ebb-5b8132ca8a9c"}}, {"type": "Feature", "id": 580, "geometry": {"type": "Point", "coordinates": [-72.35, -43.65]}, "properties": {"objectid": 580, "objectid_1": null, "numero": 44, "volcan": "Alto Palena", "volcano_ty": 0, "long": -72.35, "lat": -43.65, "categoria": "Moderada", "region": "X", "globalid": null, "near_fid": null, "near_dist": null, "globalid_1": "20fcea5d-0c93-4131-a98b-126f9b0c407e"}}, {"type": "Feature", "id": 581, "geometry": {"type": "Point", "coordinates": [-72.8679999999999, -44.0719999999999]}, "properties": {"objectid": 581, "objectid_1": null, "numero": 28, "volcan": "Melimoyu", "volcano_ty": 1, "long": -72.868, "lat": -44.072, "categoria": "Alta", "region": "XI", "globalid": null, "near_fid": null, "near_dist": null, "globalid_1": "87c9b717-e6c1-430e-a876-ecaf28b3256a"}}, {"type": "Feature", "id": 582, "geometry": {"type": "Point", "coordinates": [-73.078999998, -44.6949999999999]}, "properties": {"objectid": 582, "objectid_1": null, "numero": 35, "volcan": "Mentolat", "volcano_ty": 1, "long": -73.079, "lat": -44.695, "categoria": "Moderada", "region": "XI", "globalid": null, "near_fid": null, "near_dist": null, "globalid_1": "8d998c94-eaa0-4c0b-91a5-42cabee44529"}}, {"type": "Feature", "id": 583, "geometry": {"type": "Point", "coordinates": [-72.988000001, -45.0579999999999]}, "properties": {"objectid": 583, "objectid_1": null, "numero": 63, "volcan": "Cay", "volcano_ty": 1, "long": -72.988, "lat": -45.058, "categoria": "Baja", "region": "XI", "globalid": null, "near_fid": null, "near_dist": null, "globalid_1": "d14d47cd-b313-474c-a910-f9548b1fc74a"}}, {"type": "Feature", "id": 584, "geometry": {"type": "Point", "coordinates": [-73.164, -45.1039999989999]}, "properties": {"objectid": 584, "objectid_1": null, "numero": 39, "volcan": "Macá", "volcano_ty": 1, "long": -73.164, "lat": -45.104, "categoria": "Moderada", "region": "XI", "globalid": null, "near_fid": null, "near_dist": null, "globalid_1": "e0f6b819-bbe5-4c39-8e3b-521a432cca00"}}, {"type": "Feature", "id": 585, "geometry": {"type": "Point", "coordinates": [-72.97, -45.9]}, "properties": {"objectid": 585, "objectid_1": null, "numero": 12, "volcan": "Hudson", "volcano_ty": 1, "long": -72.97, "lat": -45.9, "categoria": "Muy Alta", "region": "XII", "globalid": null, "near_fid": null, "near_dist": null, "globalid_1": "9df18ce1-3218-4e10-b568-d8837358210d"}}, {"type": "Feature", "id": 586, "geometry": {"type": "Point", "coordinates": [-73.506, -49.02]}, "properties": {"objectid": 586, "objectid_1": null, "numero": 54, "volcan": "Lautaro", "volcano_ty": 1, "long": -73.506, "lat": -49.02, "categoria": "Moderada", "region": "XII", "globalid": null, "near_fid": null, "near_dist": null, "globalid_1": "5e9acd2c-1f83-4aff-88e0-da7f902b0830"}}, {"type": "Feature", "id": 587, "geometry": {"type": "Point", "coordinates": [-73.581529901, -50.936474687]}, "properties": {"objectid": 587, "objectid_1": null, "numero": 34, "volcan": "Reclus", "volcano_ty": 1, "long": -73.5815299, "lat": -50.93647469, "categoria": "Moderada", "region": "XII", "globalid": null, "near_fid": null, "near_dist": null, "globalid_1": "7ea8fa19-02b8-4a82-8f02-989fe79da425"}}, {"type": "Feature", "id": 588, "geometry": {"type": "Point", "coordinates": [-70.1, -52.0000000009999]}, "properties": {"objectid": 588, "objectid_1": null, "numero": 67, "volcan": "Pali-Aike", "volcano_ty": 0, "long": -70.1, "lat": -52, "categoria": "Baja", "region": "XII", "globalid": null, "near_fid": null, "near_dist": null, "globalid_1": "a6b82e71-c1c9-4de4-a112-9181e84ae0ce"}}, {"type": "Feature", "id": 589, "geometry": {"type": "Point", "coordinates": [-73.379, -52.326]}, "properties": {"objectid": 589, "objectid_1": null, "numero": 32, "volcan": "Monte Burney", "volcano_ty": 1, "long": -73.379, "lat": -52.326, "categoria": "Moderada", "region": "XII", "globalid": null, "near_fid": null, "near_dist": null, "globalid_1": "ccb229ff-6a74-40ab-9732-c04b573cbc84"}}, {"type": "Feature", "id": 590, "geometry": {"type": "Point", "coordinates": [-70.2483495559999, -54.958171265]}, "properties": {"objectid": 590, "objectid_1": null, "numero": 74, "volcan": "Fueguino (Cook)", "volcano_ty": 1, "long": -70.24834956, "lat": -54.95817126, "categoria": "Muy Baja", "region": "XII", "globalid": null, "near_fid": null, "near_dist": null, "globalid_1": "3dd25018-e46c-4d04-9bd3-b75686a91a84"}}, {"type": "Feature", "id": 591, "geometry": {"type": "Point", "coordinates": [-58.389012943, -62.4]}, "properties": {"objectid": 591, "objectid_1": null, "numero": 87, "volcan": "Orca", "volcano_ty": null, "long": -58.38901294, "lat": -62.4, "categoria": "Muy Baja", "region": "XII", "globalid": null, "near_fid": null, "near_dist": null, "globalid_1": "814213d8-9826-404b-b187-b302e1525e44"}}, {"type": "Feature", "id": 592, "geometry": {"type": "Point", "coordinates": [-68.2019999999999, -21.829]}, "properties": {"objectid": 592, "objectid_1": null, "numero": 77, "volcan": "Aguilucho", "volcano_ty": 1, "long": -68.202, "lat": -21.829, "categoria": "Muy Baja", "region": "II", "globalid": null, "near_fid": null, "near_dist": null, "globalid_1": "37514e29-dca0-41d6-aa12-87b423a1fead"}}, {"type": "Feature", "id": 593, "geometry": {"type": "Point", "coordinates": [-67.738977732, -23.9488417749999]}, "properties": {"objectid": 593, "objectid_1": null, "numero": 0, "volcan": "Caichinque", "volcano_ty": 1, "long": -67.73897773, "lat": -23.94884178, "categoria": "Sin ranking", "region": "II", "globalid": null, "near_fid": null, "near_dist": null, "globalid_1": "458c7cc6-0cac-458a-8714-1496e869d27b"}}, {"type": "Feature", "id": 594, "geometry": {"type": "Point", "coordinates": [-68.588, -25.4139999999999]}, "properties": {"objectid": 594, "objectid_1": null, "numero": 85, "volcan": "Cerro Bayo", "volcano_ty": null, "long": -68.588, "lat": -25.414, "categoria": "Muy Baja", "region": "II", "globalid": null, "near_fid": null, "near_dist": null, "globalid_1": "4be4d185-c85d-4c8e-8f42-b74ebc3a69ea"}}, {"type": "Feature", "id": 595, "geometry": {"type": "Point", "coordinates": [-68.778, -27.098]}, "properties": {"objectid": 595, "objectid_1": null, "numero": 79, "volcan": "Nevado Tres Cruces", "volcano_ty": null, "long": -68.778, "lat": -27.098, "categoria": "Muy Baja", "region": "III", "globalid": null, "near_fid": null, "near_dist": null, "globalid_1": "3793bc95-875c-48d6-a1f4-9553189af2dc"}}, {"type": "Feature", "id": 596, "geometry": {"type": "Point", "coordinates": [-109.367, -27.114]}, "properties": {"objectid": 596, "objectid_1": null, "numero": 53, "volcan": "Isla de Pascua", "volcano_ty": null, "long": -109.367, "lat": -27.114, "categoria": "Moderada", "region": "V", "globalid": null, "near_fid": null, "near_dist": null, "globalid_1": "fc86af43-3b7d-4cf6-8a41-c8f0966fdc69"}}, {"type": "Feature", "id": 597, "geometry": {"type": "Point", "coordinates": [-70.6199999999999, -35.5149999999999]}, "properties": {"objectid": 597, "objectid_1": null, "numero": 5, "volcan": "Descabezado Chico", "volcano_ty": 1, "long": -70.62, "lat": -35.515, "categoria": "Muy Alta", "region": "VII", "globalid": null, "near_fid": null, "near_dist": null, "globalid_1": "97788500-754d-44bd-bb0a-282bf30a3caf"}}, {"type": "Feature", "id": 598, "geometry": {"type": "Point", "coordinates": [-71.66926755, -39.262857497]}, "properties": {"objectid": 598, "objectid_1": null, "numero": 43, "volcan": "Relicura", "volcano_ty": 0, "long": -71.66926755, "lat": -39.262857499999996, "categoria": "Moderada", "region": "IX", "globalid": null, "near_fid": null, "near_dist": null, "globalid_1": "5170e0b3-c59d-4e46-8aad-a8fbff79021b"}}, {"type": "Feature", "id": 599, "geometry": {"type": "Point", "coordinates": [-72.482, -42.3989999999999]}, "properties": {"objectid": 599, "objectid_1": null, "numero": 58, "volcan": "Barranco Colorado", "volcano_ty": null, "long": -72.482, "lat": -42.399, "categoria": "Baja", "region": "X", "globalid": null, "near_fid": null, "near_dist": null, "globalid_1": "46c940ab-927a-4722-a713-cc200fb080d5"}}, {"type": "Feature", "id": 600, "geometry": {"type": "Point", "coordinates": [-73.076, -45.371]}, "properties": {"objectid": 600, "objectid_1": null, "numero": 40, "volcan": "Grupo Aysén", "volcano_ty": null, "long": -73.076, "lat": -45.371, "categoria": "Moderada", "region": "XI", "globalid": null, "near_fid": null, "near_dist": null, "globalid_1": "e81f9331-c60e-4091-8ac6-4d94f42d982c"}}, {"type": "Feature", "id": 601, "geometry": {"type": "Point", "coordinates": [-73.7881077609999, -50.4024336379999]}, "properties": {"objectid": 601, "objectid_1": null, "numero": 73, "volcan": "Aguilera", "volcano_ty": 1, "long": -73.78810776, "lat": -50.40243364, "categoria": "Muy Baja", "region": "XII", "globalid": null, "near_fid": null, "near_dist": null, "globalid_1": "4e472fa2-a565-4780-8835-796b735155eb"}}, {"type": "Feature", "id": 602, "geometry": {"type": "Point", "coordinates": [-57.919012943, -62.1]}, "properties": {"objectid": 602, "objectid_1": null, "numero": 76, "volcan": "Isla Pingüino", "volcano_ty": null, "long": -57.919012939999995, "lat": -62.1, "categoria": "Muy Baja", "region": "XII", "globalid": null, "near_fid": null, "near_dist": null, "globalid_1": "3bbd72bc-c156-411a-9f7e-89dc198b951d"}}, {"type": "Feature", "id": 603, "geometry": {"type": "Point", "coordinates": [-60.6369999999999, -62.9589999999999]}, "properties": {"objectid": 603, "objectid_1": null, "numero": 46, "volcan": "Isla Decepción", "volcano_ty": null, "long": -60.637, "lat": -62.959, "categoria": "Moderada", "region": "XII", "globalid": null, "near_fid": null, "near_dist": null, "globalid_1": "3e77eb74-84cd-42fb-9b7e-6501dfc1b652"}}, {"type": "Feature", "id": 604, "geometry": {"type": "Point", "coordinates": [-55.769012943, -63.579]}, "properties": {"objectid": 604, "objectid_1": null, "numero": 78, "volcan": "Isla Paulet", "volcano_ty": null, "long": -55.769012939999996, "lat": -63.579, "categoria": "Muy Baja", "region": "XII", "globalid": null, "near_fid": null, "near_dist": null, "globalid_1": "cfe9c307-1c51-464b-8863-46304183334d"}}]}