{
"type": "FeatureCollection",
"name": "ANT",
"crs": { "type": "name", "properties": { "name": "urn:ogc:def:crs:OGC:1.3:CRS84" } },
"xy_coordinate_resolution": 1e-05,
"features": [
{ "type": "Feature", "properties": { "objectid_1": 903, "fid_compil": 32, "objectid": 32, "nombre": "Antuco", "nombre_del": "Antuco", "tipo": "Cuerpo", "cut_cia": 0, "compa__ia": "Antuco", "cut_cuerpo": 0, "direccion": "Sargento Aldea 15", "telefono": " ", "point_x": -71.674404, "point_y": -37.329615, "cut": "8342", "tipo_de_vl": "Calle", "numeraci__": "15", "nombre_de": "Sargento Aldea", "comunas_at": "Antuco", "voluntario": 38, "as_2018": 60, "as_2019": 68, "as_2020": 78, "cantidad_m": 6, "actualizad": " ", "esp6": " ", "esp1": " ", "esp5": " ", "esp3": " ", "esp2": " ", "esp4": " ", "esp7": " ", "esp8": " ", "cine_prov": "083", "cod_com": 8302, "cine_com": "08302", "nom_com": "ANTUCO", "nom_prov": "BIOBÍO", "nom_reg": "BIOBÍO", "cine_reg": "08", "globalid": "28e69cb9-def5-4598-a11f-9710879993d6", "region": "Biobío", "provincia": "BIOBÍO", "comuna": "ANTUCO" }, "geometry": { "type": "Point", "coordinates": [ -71.6744, -37.32962 ] } },
{ "type": "Feature", "properties": { "objectid_1": 904, "fid_compil": 878, "objectid": 880, "nombre": "Primera de Antuco", "nombre_del": "Antuco", "tipo": "Compañia", "cut_cia": 834201, "compa__ia": "Primera de Antuco", "cut_cuerpo": 8342, "direccion": "Sargento Aldea 15", "telefono": "(43) 621034", "point_x": -71.675718, "point_y": -37.329553, "cut": " ", "tipo_de_vl": " ", "numeraci__": " ", "nombre_de": " ", "comunas_at": " ", "voluntario": 0, "as_2018": 0, "as_2019": 0, "as_2020": 0, "cantidad_m": 0, "actualizad": " ", "esp6": " ", "esp1": " ", "esp5": " ", "esp3": " ", "esp2": " ", "esp4": " ", "esp7": " ", "esp8": " ", "cine_prov": "083", "cod_com": 8302, "cine_com": "08302", "nom_com": "ANTUCO", "nom_prov": "BIOBÍO", "nom_reg": "BIOBÍO", "cine_reg": "08", "globalid": "04ece622-664e-4494-95ea-820f04b6101a", "region": "Biobío", "provincia": "BIOBÍO", "comuna": "ANTUCO" }, "geometry": { "type": "Point", "coordinates": [ -71.67572, -37.32955 ] } },
{ "type": "Feature", "properties": { "objectid_1": 905, "fid_compil": 879, "objectid": 881, "nombre": "Segunda de Antuco", "nombre_del": "Antuco", "tipo": "Compañia", "cut_cia": 834202, "compa__ia": "Segunda de Antuco", "cut_cuerpo": 8342, "direccion": "Calle Principal S/N, Villa Abanico", "telefono": "(43) 621034", "point_x": -71.65473, "point_y": -37.328379, "cut": " ", "tipo_de_vl": " ", "numeraci__": " ", "nombre_de": " ", "comunas_at": " ", "voluntario": 0, "as_2018": 0, "as_2019": 0, "as_2020": 0, "cantidad_m": 0, "actualizad": " ", "esp6": " ", "esp1": " ", "esp5": " ", "esp3": " ", "esp2": " ", "esp4": " ", "esp7": " ", "esp8": " ", "cine_prov": "083", "cod_com": 8302, "cine_com": "08302", "nom_com": "ANTUCO", "nom_prov": "BIOBÍO", "nom_reg": "BIOBÍO", "cine_reg": "08", "globalid": "d22e4cb0-cfb7-4e64-bbea-880adfe2aaf1", "region": "Biobío", "provincia": "BIOBÍO", "comuna": "ANTUCO" }, "geometry": { "type": "Point", "coordinates": [ -71.65473, -37.32838 ] } },
{ "type": "Feature", "properties": { "objectid_1": 908, "fid_compil": 950, "objectid": 952, "nombre": "Segunda de Huepil", "nombre_del": "Huepil", "tipo": "Compañia", "cut_cia": 832902, "compa__ia": "Segunda de Huepil", "cut_cuerpo": 8329, "direccion": "Zañartu 347, Polcura", "telefono": "(43) 591300", "point_x": -71.723753, "point_y": -37.288891, "cut": " ", "tipo_de_vl": " ", "numeraci__": " ", "nombre_de": " ", "comunas_at": " ", "voluntario": 0, "as_2018": 0, "as_2019": 0, "as_2020": 0, "cantidad_m": 0, "actualizad": " ", "esp6": " ", "esp1": " ", "esp5": " ", "esp3": " ", "esp2": " ", "esp4": " ", "esp7": " ", "esp8": " ", "cine_prov": "083", "cod_com": 8312, "cine_com": "08312", "nom_com": "TUCAPEL", "nom_prov": "BIOBÍO", "nom_reg": "BIOBÍO", "cine_reg": "08", "globalid": "a6ee67d1-af08-4662-a66b-754f33275bbf", "region": "Biobío", "provincia": "BIOBÍO", "comuna": "TUCAPEL" }, "geometry": { "type": "Point", "coordinates": [ -71.72375, -37.28889 ] } },
{ "type": "Feature", "properties": { "objectid_1": 913, "fid_compil": 952, "objectid": 954, "nombre": "Cuarta de Huepil", "nombre_del": "Tucapel", "tipo": "Compañia", "cut_cia": 832904, "compa__ia": "Cuarta de Huepil", "cut_cuerpo": 8329, "direccion": "Esperanza 148 Trupan", "telefono": "(43) 591300", "point_x": -71.838066, "point_y": -37.277191, "cut": " ", "tipo_de_vl": " ", "numeraci__": " ", "nombre_de": " ", "comunas_at": " ", "voluntario": 0, "as_2018": 0, "as_2019": 0, "as_2020": 0, "cantidad_m": 0, "actualizad": " ", "esp6": " ", "esp1": " ", "esp5": " ", "esp3": " ", "esp2": " ", "esp4": " ", "esp7": " ", "esp8": " ", "cine_prov": "083", "cod_com": 8312, "cine_com": "08312", "nom_com": "TUCAPEL", "nom_prov": "BIOBÍO", "nom_reg": "BIOBÍO", "cine_reg": "08", "globalid": "2bf60e10-bdbb-421a-b49a-93505cca491d", "region": "Biobío", "provincia": "BIOBÍO", "comuna": "TUCAPEL" }, "geometry": { "type": "Point", "coordinates": [ -71.83807, -37.27719 ] } }
]
}
