{
"type": "FeatureCollection",
"name": "CAY",
"crs": { "type": "name", "properties": { "name": "urn:ogc:def:crs:OGC:1.3:CRS84" } },
"xy_coordinate_resolution": 1e-05,
"features": [
{ "type": "Feature", "properties": { "objectid_1": 428, "fid_compil": 1372, "objectid": 1374, "nombre": "Primera de Puerto Aysén", "nombre_del": "Aysén", "tipo": "Compañia", "cut_cia": 1120101, "compa__ia": "Primera de Puerto Aysén", "cut_cuerpo": 11201, "direccion": "Kalstrom S/n", "telefono": "(67) 573186", "point_x": -72.682863, "point_y": -45.414394, "cut": " ", "tipo_de_vl": " ", "numeraci__": " ", "nombre_de": " ", "comunas_at": " ", "voluntario": 0, "as_2018": 0, "as_2019": 0, "as_2020": 0, "cantidad_m": 0, "actualizad": " ", "esp6": " ", "esp1": " ", "esp5": " ", "esp3": " ", "esp2": " ", "esp4": " ", "esp7": " ", "esp8": " ", "cine_prov": "112", "cod_com": 11201, "cine_com": "11201", "nom_com": "AYSÉN", "nom_prov": "AYSÉN", "nom_reg": "AYSÉN DEL GENERAL CARLOS IBANEZ DEL CAMPO", "cine_reg": "11", "globalid": "0c5e5961-cc4f-4a8d-af5f-de38a5e5ccc4", "region": "Aysén del General Carlos Ibáñez del Campo", "provincia": "AYSÉN", "comuna": "AYSÉN" }, "geometry": { "type": "Point", "coordinates": [ -72.68286, -45.41439 ] } },
{ "type": "Feature", "properties": { "objectid_1": 429, "fid_compil": 236, "objectid": 238, "nombre": "Puerto Aysén", "nombre_del": "Puerto Aysén", "tipo": "Cuerpo", "cut_cia": 0, "compa__ia": "Puerto Aysén", "cut_cuerpo": 0, "direccion": "Gabriela Mistral 507", "telefono": " ", "point_x": -72.696259, "point_y": -45.40677, "cut": "11201", "tipo_de_vl": " ", "numeraci__": "600", "nombre_de": "Teniente Merino", "comunas_at": "Aysen", "voluntario": 433, "as_2018": 1394, "as_2019": 2373, "as_2020": 1734, "cantidad_m": 33, "actualizad": " ", "esp6": " ", "esp1": " ", "esp5": " ", "esp3": " ", "esp2": " ", "esp4": " ", "esp7": " ", "esp8": " ", "cine_prov": "112", "cod_com": 11201, "cine_com": "11201", "nom_com": "AYSÉN", "nom_prov": "AYSÉN", "nom_reg": "AYSÉN DEL GENERAL CARLOS IBANEZ DEL CAMPO", "cine_reg": "11", "globalid": "4cf5af40-b291-41b3-aebd-57060f9956f4", "region": "Aysén del General Carlos Ibáñez del Campo", "provincia": "AYSÉN", "comuna": "AYSÉN" }, "geometry": { "type": "Point", "coordinates": [ -72.69626, -45.40677 ] } },
{ "type": "Feature", "properties": { "objectid_1": 430, "fid_compil": 1374, "objectid": 1376, "nombre": "Quinta de Puerto Aysén", "nombre_del": "Aysén", "tipo": "Compañia", "cut_cia": 1120105, "compa__ia": "Quinta de Puerto Aysén", "cut_cuerpo": 11201, "direccion": "Avenida Costanera S/N", "telefono": "(67) 573186", "point_x": -72.695836, "point_y": -45.406321, "cut": " ", "tipo_de_vl": " ", "numeraci__": " ", "nombre_de": " ", "comunas_at": " ", "voluntario": 0, "as_2018": 0, "as_2019": 0, "as_2020": 0, "cantidad_m": 0, "actualizad": " ", "esp6": " ", "esp1": " ", "esp5": " ", "esp3": " ", "esp2": " ", "esp4": " ", "esp7": " ", "esp8": " ", "cine_prov": "112", "cod_com": 11201, "cine_com": "11201", "nom_com": "AYSÉN", "nom_prov": "AYSÉN", "nom_reg": "AYSÉN DEL GENERAL CARLOS IBANEZ DEL CAMPO", "cine_reg": "11", "globalid": "797163e9-b655-4e27-a729-66e1adc15642", "region": "Aysén del General Carlos Ibáñez del Campo", "provincia": "AYSÉN", "comuna": "AYSÉN" }, "geometry": { "type": "Point", "coordinates": [ -72.69584, -45.40632 ] } },
{ "type": "Feature", "properties": { "objectid_1": 431, "fid_compil": 1373, "objectid": 1375, "nombre": "Sexta de Puerto Aysén", "nombre_del": "Aysén", "tipo": "Compañia", "cut_cia": 1120106, "compa__ia": "Sexta de Puerto Aysén", "cut_cuerpo": 11201, "direccion": "Bernardo O`higgins 452", "telefono": "(67) 573186", "point_x": -72.695892, "point_y": -45.406262, "cut": " ", "tipo_de_vl": " ", "numeraci__": " ", "nombre_de": " ", "comunas_at": " ", "voluntario": 0, "as_2018": 0, "as_2019": 0, "as_2020": 0, "cantidad_m": 0, "actualizad": " ", "esp6": " ", "esp1": " ", "esp5": " ", "esp3": " ", "esp2": " ", "esp4": " ", "esp7": " ", "esp8": " ", "cine_prov": "112", "cod_com": 11201, "cine_com": "11201", "nom_com": "AYSÉN", "nom_prov": "AYSÉN", "nom_reg": "AYSÉN DEL GENERAL CARLOS IBANEZ DEL CAMPO", "cine_reg": "11", "globalid": "1492d536-0cfc-46d6-8615-84113df273f4", "region": "Aysén del General Carlos Ibáñez del Campo", "provincia": "AYSÉN", "comuna": "AYSÉN" }, "geometry": { "type": "Point", "coordinates": [ -72.69589, -45.40626 ] } },
{ "type": "Feature", "properties": { "objectid_1": 432, "fid_compil": 1352, "objectid": 1354, "nombre": "Segunda de Puerto Aysén", "nombre_del": "Aysén", "tipo": "Compañia", "cut_cia": 1120102, "compa__ia": "Segunda de Puerto Aysén", "cut_cuerpo": 11201, "direccion": "Teniente Merino 600", "telefono": "(67) 573186", "point_x": -72.6933, "point_y": -45.405429, "cut": " ", "tipo_de_vl": " ", "numeraci__": " ", "nombre_de": " ", "comunas_at": " ", "voluntario": 0, "as_2018": 0, "as_2019": 0, "as_2020": 0, "cantidad_m": 0, "actualizad": " ", "esp6": " ", "esp1": " ", "esp5": " ", "esp3": " ", "esp2": " ", "esp4": " ", "esp7": " ", "esp8": " ", "cine_prov": "112", "cod_com": 11201, "cine_com": "11201", "nom_com": "AYSÉN", "nom_prov": "AYSÉN", "nom_reg": "AYSÉN DEL GENERAL CARLOS IBANEZ DEL CAMPO", "cine_reg": "11", "globalid": "7b26bb88-3be9-4b71-a4a7-6d17a3ee71a9", "region": "Aysén del General Carlos Ibáñez del Campo", "provincia": "AYSÉN", "comuna": "AYSÉN" }, "geometry": { "type": "Point", "coordinates": [ -72.6933, -45.40543 ] } },
{ "type": "Feature", "properties": { "objectid_1": 433, "fid_compil": 1353, "objectid": 1355, "nombre": "Tercera de Puerto Aysén", "nombre_del": "Aysén", "tipo": "Compañia", "cut_cia": 1120103, "compa__ia": "Tercera de Puerto Aysén", "cut_cuerpo": 11201, "direccion": "Sargento Aldea 1225", "telefono": "(67) 573186", "point_x": -72.693762, "point_y": -45.403377, "cut": " ", "tipo_de_vl": " ", "numeraci__": " ", "nombre_de": " ", "comunas_at": " ", "voluntario": 0, "as_2018": 0, "as_2019": 0, "as_2020": 0, "cantidad_m": 0, "actualizad": " ", "esp6": " ", "esp1": " ", "esp5": " ", "esp3": " ", "esp2": " ", "esp4": " ", "esp7": " ", "esp8": " ", "cine_prov": "112", "cod_com": 11201, "cine_com": "11201", "nom_com": "AYSÉN", "nom_prov": "AYSÉN", "nom_reg": "AYSÉN DEL GENERAL CARLOS IBANEZ DEL CAMPO", "cine_reg": "11", "globalid": "44e7c9d2-f572-4c03-ab2a-c4eee9aff78b", "region": "Aysén del General Carlos Ibáñez del Campo", "provincia": "AYSÉN", "comuna": "AYSÉN" }, "geometry": { "type": "Point", "coordinates": [ -72.69376, -45.40338 ] } },
{ "type": "Feature", "properties": { "objectid_1": 434, "fid_compil": 237, "objectid": 239, "nombre": "Puerto Cisnes", "nombre_del": "Puerto Cisnes", "tipo": "Cuerpo", "cut_cia": 0, "compa__ia": "Puerto Cisnes", "cut_cuerpo": 0, "direccion": "Antonio Varas Y San Felipe S/N", "telefono": " ", "point_x": -72.681936, "point_y": -44.728521, "cut": "11205", "tipo_de_vl": "Avenida", "numeraci__": "507", "nombre_de": "Gabriela Mistral", "comunas_at": "Puerto Cisnes, Lago Verde", "voluntario": 159, "as_2018": 197, "as_2019": 202, "as_2020": 247, "cantidad_m": 10, "actualizad": " ", "esp6": " ", "esp1": " ", "esp5": " ", "esp3": " ", "esp2": " ", "esp4": " ", "esp7": " ", "esp8": " ", "cine_prov": "112", "cod_com": 11202, "cine_com": "11202", "nom_com": "CISNES", "nom_prov": "AYSÉN", "nom_reg": "AYSÉN DEL GENERAL CARLOS IBANEZ DEL CAMPO", "cine_reg": "11", "globalid": "03bccb1c-0beb-4b9c-b160-3e8181ebbe84", "region": "Aysén del General Carlos Ibáñez del Campo", "provincia": "AYSÉN", "comuna": "CISNES" }, "geometry": { "type": "Point", "coordinates": [ -72.68194, -44.72852 ] } },
{ "type": "Feature", "properties": { "objectid_1": 435, "fid_compil": 1354, "objectid": 1356, "nombre": "Primera de Puerto Cisnes", "nombre_del": "Cisnes", "tipo": "Compañia", "cut_cia": 1120201, "compa__ia": "Primera de Puerto Cisnes", "cut_cuerpo": 11202, "direccion": "Gabriela Mistral S/N", "telefono": "(67) 346595", "point_x": -72.681582, "point_y": -44.727246, "cut": " ", "tipo_de_vl": " ", "numeraci__": " ", "nombre_de": " ", "comunas_at": " ", "voluntario": 0, "as_2018": 0, "as_2019": 0, "as_2020": 0, "cantidad_m": 0, "actualizad": " ", "esp6": " ", "esp1": " ", "esp5": " ", "esp3": " ", "esp2": " ", "esp4": " ", "esp7": " ", "esp8": " ", "cine_prov": "112", "cod_com": 11202, "cine_com": "11202", "nom_com": "CISNES", "nom_prov": "AYSÉN", "nom_reg": "AYSÉN DEL GENERAL CARLOS IBANEZ DEL CAMPO", "cine_reg": "11", "globalid": "8081068d-5f4f-46aa-827e-fb847177c048", "region": "Aysén del General Carlos Ibáñez del Campo", "provincia": "AYSÉN", "comuna": "CISNES" }, "geometry": { "type": "Point", "coordinates": [ -72.68158, -44.72725 ] } }
]
}
