{
"type": "FeatureCollection",
"name": "CLV",
"crs": { "type": "name", "properties": { "name": "urn:ogc:def:crs:OGC:1.3:CRS84" } },
"xy_coordinate_resolution": 1e-05,
"features": [
{ "type": "Feature", "properties": { "objectid_1": 415, "fid_compil": 120, "objectid": 120, "nombre": "Futrono", "nombre_del": "Futrono", "tipo": "Cuerpo", "cut_cia": 0, "compa__ia": "Futrono", "cut_cuerpo": 0, "direccion": "Alessandri 5", "telefono": " ", "point_x": -72.389854, "point_y": -40.131345, "cut": "14220", "tipo_de_vl": "Calle", "numeraci__": "5", "nombre_de": "Alessandri", "comunas_at": "Futrono", "voluntario": 130, "as_2018": 100, "as_2019": 134, "as_2020": 159, "cantidad_m": 12, "actualizad": " ", "esp6": " ", "esp1": " ", "esp5": " ", "esp3": " ", "esp2": " ", "esp4": " ", "esp7": " ", "esp8": " ", "cine_prov": "142", "cod_com": 14202, "cine_com": "14202", "nom_com": "FUTRONO", "nom_prov": "RANCO", "nom_reg": "LOS RÍOS", "cine_reg": "14", "globalid": "72130bcc-55ab-4ae4-81e1-d0f9c94fb888", "region": "Los Ríos", "provincia": "RANCO", "comuna": "FUTRONO" }, "geometry": { "type": "Point", "coordinates": [ -72.38985, -40.13134 ] } },
{ "type": "Feature", "properties": { "objectid_1": 580, "fid_compil": 1178, "objectid": 1180, "nombre": "Cuarta de Crucero", "nombre_del": "Río Bueno", "tipo": "Compañia", "cut_cia": 1421604, "compa__ia": "Cuarta de Crucero", "cut_cuerpo": 14216, "direccion": "Mantilhue S/N", "telefono": "1975850", "point_x": -72.490554, "point_y": -40.620474, "cut": " ", "tipo_de_vl": " ", "numeraci__": " ", "nombre_de": " ", "comunas_at": " ", "voluntario": 0, "as_2018": 0, "as_2019": 0, "as_2020": 0, "cantidad_m": 0, "actualizad": " ", "esp6": " ", "esp1": " ", "esp5": " ", "esp3": " ", "esp2": " ", "esp4": " ", "esp7": " ", "esp8": " ", "cine_prov": "142", "cod_com": 14204, "cine_com": "14204", "nom_com": "RÍO BUENO", "nom_prov": "RANCO", "nom_reg": "LOS RÍOS", "cine_reg": "14", "globalid": "67e4494d-2e3a-4726-ac04-17b56b94ed36", "region": "Los Ríos", "provincia": "RANCO", "comuna": "RÍO BUENO" }, "geometry": { "type": "Point", "coordinates": [ -72.49055, -40.62047 ] } },
{ "type": "Feature", "properties": { "objectid_1": 600, "fid_compil": 1177, "objectid": 1179, "nombre": "Tercera de Crucero", "nombre_del": "Río Bueno", "tipo": "Compañia", "cut_cia": 1421603, "compa__ia": "Tercera de Crucero", "cut_cuerpo": 14216, "direccion": "Vivanco S/N", "telefono": "1975850", "point_x": -72.6211, "point_y": -40.373539, "cut": " ", "tipo_de_vl": " ", "numeraci__": " ", "nombre_de": " ", "comunas_at": " ", "voluntario": 0, "as_2018": 0, "as_2019": 0, "as_2020": 0, "cantidad_m": 0, "actualizad": " ", "esp6": " ", "esp1": " ", "esp5": " ", "esp3": " ", "esp2": " ", "esp4": " ", "esp7": " ", "esp8": " ", "cine_prov": "142", "cod_com": 14204, "cine_com": "14204", "nom_com": "RÍO BUENO", "nom_prov": "RANCO", "nom_reg": "LOS RÍOS", "cine_reg": "14", "globalid": "ee9c8606-cdad-4ee2-a3d4-df14ad57cae5", "region": "Los Ríos", "provincia": "RANCO", "comuna": "RÍO BUENO" }, "geometry": { "type": "Point", "coordinates": [ -72.6211, -40.37354 ] } },
{ "type": "Feature", "properties": { "objectid_1": 606, "fid_compil": 1182, "objectid": 1184, "nombre": "Tercera de Lago Ranco", "nombre_del": "Lago Ranco", "tipo": "Compañia", "cut_cia": 1421103, "compa__ia": "Tercera de Lago Ranco", "cut_cuerpo": 14211, "direccion": "Sector Ignao", "telefono": "(63) 491222 63 491220", "point_x": -72.554659, "point_y": -40.330877, "cut": " ", "tipo_de_vl": " ", "numeraci__": " ", "nombre_de": " ", "comunas_at": " ", "voluntario": 0, "as_2018": 0, "as_2019": 0, "as_2020": 0, "cantidad_m": 0, "actualizad": " ", "esp6": " ", "esp1": " ", "esp5": " ", "esp3": " ", "esp2": " ", "esp4": " ", "esp7": " ", "esp8": " ", "cine_prov": "142", "cod_com": 14203, "cine_com": "14203", "nom_com": "LAGO RANCO", "nom_prov": "RANCO", "nom_reg": "LOS RÍOS", "cine_reg": "14", "globalid": "6a756cdb-9eeb-439f-bb39-23809da06b82", "region": "Los Ríos", "provincia": "RANCO", "comuna": "LAGO RANCO" }, "geometry": { "type": "Point", "coordinates": [ -72.55466, -40.33088 ] } },
{ "type": "Feature", "properties": { "objectid_1": 607, "fid_compil": 146, "objectid": 146, "nombre": "Lago Ranco", "nombre_del": "Lago Ranco", "tipo": "Cuerpo", "cut_cia": 0, "compa__ia": "Lago Ranco", "cut_cuerpo": 0, "direccion": "Antofagasta 113", "telefono": " ", "point_x": -72.481323, "point_y": -40.323141, "cut": "14211", "tipo_de_vl": " ", "numeraci__": "113", "nombre_de": "Antofagasta", "comunas_at": "Lago Ranco", "voluntario": 115, "as_2018": 86, "as_2019": 111, "as_2020": 177, "cantidad_m": 9, "actualizad": " ", "esp6": " ", "esp1": " ", "esp5": " ", "esp3": " ", "esp2": " ", "esp4": " ", "esp7": " ", "esp8": " ", "cine_prov": "142", "cod_com": 14203, "cine_com": "14203", "nom_com": "LAGO RANCO", "nom_prov": "RANCO", "nom_reg": "LOS RÍOS", "cine_reg": "14", "globalid": "48bb1442-ccf8-4b74-98a3-6fd6c0ebccf3", "region": "Los Ríos", "provincia": "RANCO", "comuna": "LAGO RANCO" }, "geometry": { "type": "Point", "coordinates": [ -72.48132, -40.32314 ] } },
{ "type": "Feature", "properties": { "objectid_1": 608, "fid_compil": 1180, "objectid": 1182, "nombre": "Primera de Lago Ranco", "nombre_del": "Lago Ranco", "tipo": "Compañia", "cut_cia": 1421101, "compa__ia": "Primera de Lago Ranco", "cut_cuerpo": 14211, "direccion": "Antofagasta 143", "telefono": "(63) 491222 63 491220", "point_x": -72.480788, "point_y": -40.322847, "cut": " ", "tipo_de_vl": " ", "numeraci__": " ", "nombre_de": " ", "comunas_at": " ", "voluntario": 0, "as_2018": 0, "as_2019": 0, "as_2020": 0, "cantidad_m": 0, "actualizad": " ", "esp6": " ", "esp1": " ", "esp5": " ", "esp3": " ", "esp2": " ", "esp4": " ", "esp7": " ", "esp8": " ", "cine_prov": "142", "cod_com": 14203, "cine_com": "14203", "nom_com": "LAGO RANCO", "nom_prov": "RANCO", "nom_reg": "LOS RÍOS", "cine_reg": "14", "globalid": "7248673d-0966-4f84-980b-bb792dd99144", "region": "Los Ríos", "provincia": "RANCO", "comuna": "LAGO RANCO" }, "geometry": { "type": "Point", "coordinates": [ -72.48079, -40.32285 ] } },
{ "type": "Feature", "properties": { "objectid_1": 609, "fid_compil": 1181, "objectid": 1183, "nombre": "Segunda de Lago Ranco", "nombre_del": "Lago Ranco", "tipo": "Compañia", "cut_cia": 1421102, "compa__ia": "Segunda de Lago Ranco", "cut_cuerpo": 14211, "direccion": "Iquique S/N", "telefono": "(63) 491222 63 491220", "point_x": -72.475425, "point_y": -40.321814, "cut": " ", "tipo_de_vl": " ", "numeraci__": " ", "nombre_de": " ", "comunas_at": " ", "voluntario": 0, "as_2018": 0, "as_2019": 0, "as_2020": 0, "cantidad_m": 0, "actualizad": " ", "esp6": " ", "esp1": " ", "esp5": " ", "esp3": " ", "esp2": " ", "esp4": " ", "esp7": " ", "esp8": " ", "cine_prov": "142", "cod_com": 14203, "cine_com": "14203", "nom_com": "LAGO RANCO", "nom_prov": "RANCO", "nom_reg": "LOS RÍOS", "cine_reg": "14", "globalid": "ba59c19c-5db8-4641-b0ad-b2e3bd05f3ce", "region": "Los Ríos", "provincia": "RANCO", "comuna": "LAGO RANCO" }, "geometry": { "type": "Point", "coordinates": [ -72.47542, -40.32181 ] } },
{ "type": "Feature", "properties": { "objectid_1": 617, "fid_compil": 1197, "objectid": 1199, "nombre": "Sexta de La Union", "nombre_del": "La Unión", "tipo": "Compañia", "cut_cia": 1420106, "compa__ia": "Sexta de La Union", "cut_cuerpo": 14201, "direccion": "Sector Puerto Nuevo", "telefono": "(64)323097 - (64) 324244", "point_x": -72.584606, "point_y": -40.24605, "cut": " ", "tipo_de_vl": " ", "numeraci__": " ", "nombre_de": " ", "comunas_at": " ", "voluntario": 0, "as_2018": 0, "as_2019": 0, "as_2020": 0, "cantidad_m": 0, "actualizad": " ", "esp6": " ", "esp1": " ", "esp5": " ", "esp3": " ", "esp2": " ", "esp4": " ", "esp7": " ", "esp8": " ", "cine_prov": "142", "cod_com": 14201, "cine_com": "14201", "nom_com": "LA UNIÓN", "nom_prov": "RANCO", "nom_reg": "LOS RÍOS", "cine_reg": "14", "globalid": "55b22348-465e-4aec-8637-5fc09b91827a", "region": "Los Ríos", "provincia": "RANCO", "comuna": "LA UNIÓN" }, "geometry": { "type": "Point", "coordinates": [ -72.58461, -40.24605 ] } },
{ "type": "Feature", "properties": { "objectid_1": 618, "fid_compil": 1190, "objectid": 1192, "nombre": "Tercera de Futrono", "nombre_del": "Futrono", "tipo": "Compañia", "cut_cia": 1422003, "compa__ia": "Tercera de Futrono", "cut_cuerpo": 14220, "direccion": "Camino a Lliften Km. 19", "telefono": "(63) 481101", "point_x": -72.257012, "point_y": -40.196656, "cut": " ", "tipo_de_vl": " ", "numeraci__": " ", "nombre_de": " ", "comunas_at": " ", "voluntario": 0, "as_2018": 0, "as_2019": 0, "as_2020": 0, "cantidad_m": 0, "actualizad": " ", "esp6": " ", "esp1": " ", "esp5": " ", "esp3": " ", "esp2": " ", "esp4": " ", "esp7": " ", "esp8": " ", "cine_prov": "142", "cod_com": 14202, "cine_com": "14202", "nom_com": "FUTRONO", "nom_prov": "RANCO", "nom_reg": "LOS RÍOS", "cine_reg": "14", "globalid": "f5c4cba5-f3b9-4897-ab7f-fe660b92e181", "region": "Los Ríos", "provincia": "RANCO", "comuna": "FUTRONO" }, "geometry": { "type": "Point", "coordinates": [ -72.25701, -40.19666 ] } },
{ "type": "Feature", "properties": { "objectid_1": 619, "fid_compil": 1208, "objectid": 1210, "nombre": "Cuarta de Paillaco", "nombre_del": "Paillaco", "tipo": "Compañia", "cut_cia": 1410704, "compa__ia": "Cuarta de Paillaco", "cut_cuerpo": 14107, "direccion": "Sector Santa Rosa", "telefono": "(63) 421222", "point_x": -72.594794, "point_y": -40.168528, "cut": " ", "tipo_de_vl": " ", "numeraci__": " ", "nombre_de": " ", "comunas_at": " ", "voluntario": 0, "as_2018": 0, "as_2019": 0, "as_2020": 0, "cantidad_m": 0, "actualizad": " ", "esp6": " ", "esp1": " ", "esp5": " ", "esp3": " ", "esp2": " ", "esp4": " ", "esp7": " ", "esp8": " ", "cine_prov": "141", "cod_com": 14107, "cine_com": "14107", "nom_com": "PAILLACO", "nom_prov": "VALDIVIA", "nom_reg": "LOS RÍOS", "cine_reg": "14", "globalid": "45f0a0e0-451c-4712-8d2b-f51b26d5e468", "region": "Los Ríos", "provincia": "VALDIVIA", "comuna": "PAILLACO" }, "geometry": { "type": "Point", "coordinates": [ -72.59479, -40.16853 ] } },
{ "type": "Feature", "properties": { "objectid_1": 622, "fid_compil": 1188, "objectid": 1190, "nombre": "Primera de Futrono", "nombre_del": "Futrono", "tipo": "Compañia", "cut_cia": 1422001, "compa__ia": "Primera de Futrono", "cut_cuerpo": 14220, "direccion": "Balmaceda 225", "telefono": "(63) 481101", "point_x": -72.389909, "point_y": -40.131313, "cut": " ", "tipo_de_vl": " ", "numeraci__": " ", "nombre_de": " ", "comunas_at": " ", "voluntario": 0, "as_2018": 0, "as_2019": 0, "as_2020": 0, "cantidad_m": 0, "actualizad": " ", "esp6": " ", "esp1": " ", "esp5": " ", "esp3": " ", "esp2": " ", "esp4": " ", "esp7": " ", "esp8": " ", "cine_prov": "142", "cod_com": 14202, "cine_com": "14202", "nom_com": "FUTRONO", "nom_prov": "RANCO", "nom_reg": "LOS RÍOS", "cine_reg": "14", "globalid": "3adc0ea5-ae61-45f3-8239-29f2282a1e48", "region": "Los Ríos", "provincia": "RANCO", "comuna": "FUTRONO" }, "geometry": { "type": "Point", "coordinates": [ -72.38991, -40.13131 ] } },
{ "type": "Feature", "properties": { "objectid_1": 623, "fid_compil": 1189, "objectid": 1191, "nombre": "Segunda de Futrono", "nombre_del": "Futrono", "tipo": "Compañia", "cut_cia": 1422002, "compa__ia": "Segunda de Futrono", "cut_cuerpo": 14220, "direccion": "O'higgins Esquina 21 de Mayo", "telefono": "(63) 481101", "point_x": -72.382915, "point_y": -40.129472, "cut": " ", "tipo_de_vl": " ", "numeraci__": " ", "nombre_de": " ", "comunas_at": " ", "voluntario": 0, "as_2018": 0, "as_2019": 0, "as_2020": 0, "cantidad_m": 0, "actualizad": " ", "esp6": " ", "esp1": " ", "esp5": " ", "esp3": " ", "esp2": " ", "esp4": " ", "esp7": " ", "esp8": " ", "cine_prov": "142", "cod_com": 14202, "cine_com": "14202", "nom_com": "FUTRONO", "nom_prov": "RANCO", "nom_reg": "LOS RÍOS", "cine_reg": "14", "globalid": "680a5cc6-ce88-41c8-a884-306ce09c0c6a", "region": "Los Ríos", "provincia": "RANCO", "comuna": "FUTRONO" }, "geometry": { "type": "Point", "coordinates": [ -72.38291, -40.12947 ] } }
]
}
