{
"type": "FeatureCollection",
"name": "HOR",
"crs": { "type": "name", "properties": { "name": "urn:ogc:def:crs:OGC:1.3:CRS84" } },
"xy_coordinate_resolution": 1e-05,
"features": [
{ "type": "Feature", "properties": { "objectid_1": 484, "fid_compil": 125, "objectid": 125, "nombre": "Hualaihué", "nombre_del": "Hualaihué", "tipo": "Cuerpo", "cut_cia": 0, "compa__ia": "Hualaihué", "cut_cuerpo": 0, "direccion": "Los Colonos S/N", "telefono": " ", "point_x": -72.469938, "point_y": -41.966932, "cut": "10431", "tipo_de_vl": "Calle", "numeraci__": "s/n", "nombre_de": "Los Colonos", "comunas_at": "Hualaihue", "voluntario": 65, "as_2018": 120, "as_2019": 166, "as_2020": 102, "cantidad_m": 4, "actualizad": " ", "esp6": " ", "esp1": " ", "esp5": " ", "esp3": " ", "esp2": " ", "esp4": " ", "esp7": " ", "esp8": " ", "cine_prov": "104", "cod_com": 10403, "cine_com": "10403", "nom_com": "HUALAIHUÉ", "nom_prov": "PALENA", "nom_reg": "LOS LAGOS", "cine_reg": "10", "globalid": "45ebd0bb-4652-437e-88d4-a7060b3f2610", "region": "Los Lagos", "provincia": "PALENA", "comuna": "HUALAIHUÉ" }, "geometry": { "type": "Point", "coordinates": [ -72.46994, -41.96693 ] } },
{ "type": "Feature", "properties": { "objectid_1": 485, "fid_compil": 1297, "objectid": 1299, "nombre": "Segunda de Hualaihue", "nombre_del": "Hualaihue", "tipo": "Compañia", "cut_cia": 1043102, "compa__ia": "Segunda de Hualaihue", "cut_cuerpo": 10431, "direccion": "Calle Los Colonos S/N, Hornopiren", "telefono": "7-898 00 95", "point_x": -72.470042, "point_y": -41.966889, "cut": " ", "tipo_de_vl": " ", "numeraci__": " ", "nombre_de": " ", "comunas_at": " ", "voluntario": 0, "as_2018": 0, "as_2019": 0, "as_2020": 0, "cantidad_m": 0, "actualizad": " ", "esp6": " ", "esp1": " ", "esp5": " ", "esp3": " ", "esp2": " ", "esp4": " ", "esp7": " ", "esp8": " ", "cine_prov": "104", "cod_com": 10403, "cine_com": "10403", "nom_com": "HUALAIHUÉ", "nom_prov": "PALENA", "nom_reg": "LOS LAGOS", "cine_reg": "10", "globalid": "e2b72930-8158-42f5-ba35-cb8dffcc10f2", "region": "Los Lagos", "provincia": "PALENA", "comuna": "HUALAIHUÉ" }, "geometry": { "type": "Point", "coordinates": [ -72.47004, -41.96689 ] } },
{ "type": "Feature", "properties": { "objectid_1": 495, "fid_compil": 1296, "objectid": 1298, "nombre": "Primera de Hualaihue", "nombre_del": "Hualaihue", "tipo": "Compañia", "cut_cia": 1043101, "compa__ia": "Primera de Hualaihue", "cut_cuerpo": 10431, "direccion": "Diego Portales S/N, Contao", "telefono": "7-898 00 95", "point_x": -72.718083, "point_y": -41.802365, "cut": " ", "tipo_de_vl": " ", "numeraci__": " ", "nombre_de": " ", "comunas_at": " ", "voluntario": 0, "as_2018": 0, "as_2019": 0, "as_2020": 0, "cantidad_m": 0, "actualizad": " ", "esp6": " ", "esp1": " ", "esp5": " ", "esp3": " ", "esp2": " ", "esp4": " ", "esp7": " ", "esp8": " ", "cine_prov": "104", "cod_com": 10403, "cine_com": "10403", "nom_com": "HUALAIHUÉ", "nom_prov": "PALENA", "nom_reg": "LOS LAGOS", "cine_reg": "10", "globalid": "b647b655-a6c7-4827-9858-77f2aa4c5f6e", "region": "Los Lagos", "provincia": "PALENA", "comuna": "HUALAIHUÉ" }, "geometry": { "type": "Point", "coordinates": [ -72.71808, -41.80236 ] } },
{ "type": "Feature", "properties": { "objectid_1": 509, "fid_compil": 71, "objectid": 71, "nombre": "Cochamó", "nombre_del": "Cochamó", "tipo": "Cuerpo", "cut_cia": 0, "compa__ia": "Cochamó", "cut_cuerpo": 0, "direccion": "Cochamo S/N", "telefono": " ", "point_x": -72.307674, "point_y": -41.492891, "cut": "10134", "tipo_de_vl": "Avenida", "numeraci__": "S/n", "nombre_de": "Cochamo", "comunas_at": "Cochamo", "voluntario": 78, "as_2018": 141, "as_2019": 99, "as_2020": 102, "cantidad_m": 9, "actualizad": " ", "esp6": " ", "esp1": " ", "esp5": " ", "esp3": " ", "esp2": " ", "esp4": " ", "esp7": " ", "esp8": " ", "cine_prov": "101", "cod_com": 10103, "cine_com": "10103", "nom_com": "COCHAMÓ", "nom_prov": "LLANQUIHUE", "nom_reg": "LOS LAGOS", "cine_reg": "10", "globalid": "bf6685cc-43de-4f04-aba5-6e2dc7d6185d", "region": "Los Lagos", "provincia": "LLANQUIHUE", "comuna": "COCHAMÓ" }, "geometry": { "type": "Point", "coordinates": [ -72.30767, -41.49289 ] } },
{ "type": "Feature", "properties": { "objectid_1": 510, "fid_compil": 1269, "objectid": 1271, "nombre": "Primera de Cochamo", "nombre_del": "Cochamó", "tipo": "Compañia", "cut_cia": 1013401, "compa__ia": "Primera de Cochamo", "cut_cuerpo": 10134, "direccion": "Santiago Bueras S/N", "telefono": "(65) 216216", "point_x": -72.307962, "point_y": -41.49283, "cut": " ", "tipo_de_vl": " ", "numeraci__": " ", "nombre_de": " ", "comunas_at": " ", "voluntario": 0, "as_2018": 0, "as_2019": 0, "as_2020": 0, "cantidad_m": 0, "actualizad": " ", "esp6": " ", "esp1": " ", "esp5": " ", "esp3": " ", "esp2": " ", "esp4": " ", "esp7": " ", "esp8": " ", "cine_prov": "101", "cod_com": 10103, "cine_com": "10103", "nom_com": "COCHAMÓ", "nom_prov": "LLANQUIHUE", "nom_reg": "LOS LAGOS", "cine_reg": "10", "globalid": "dcfd1e83-dcca-4a38-9597-93a63d6c119e", "region": "Los Lagos", "provincia": "LLANQUIHUE", "comuna": "COCHAMÓ" }, "geometry": { "type": "Point", "coordinates": [ -72.30796, -41.49283 ] } },
{ "type": "Feature", "properties": { "objectid_1": 511, "fid_compil": 1270, "objectid": 1272, "nombre": "Segunda de Cochamo", "nombre_del": "Cochamó", "tipo": "Compañia", "cut_cia": 1013402, "compa__ia": "Segunda de Cochamo", "cut_cuerpo": 10134, "direccion": "Av.Cochamo S/N", "telefono": "(65) 216216", "point_x": -72.308966, "point_y": -41.491894, "cut": " ", "tipo_de_vl": " ", "numeraci__": " ", "nombre_de": " ", "comunas_at": " ", "voluntario": 0, "as_2018": 0, "as_2019": 0, "as_2020": 0, "cantidad_m": 0, "actualizad": " ", "esp6": " ", "esp1": " ", "esp5": " ", "esp3": " ", "esp2": " ", "esp4": " ", "esp7": " ", "esp8": " ", "cine_prov": "101", "cod_com": 10103, "cine_com": "10103", "nom_com": "COCHAMÓ", "nom_prov": "LLANQUIHUE", "nom_reg": "LOS LAGOS", "cine_reg": "10", "globalid": "6f738678-3b7b-4fdb-ac4d-0f921d3a585e", "region": "Los Lagos", "provincia": "LLANQUIHUE", "comuna": "COCHAMÓ" }, "geometry": { "type": "Point", "coordinates": [ -72.30897, -41.49189 ] } },
{ "type": "Feature", "properties": { "objectid_1": 513, "fid_compil": 1272, "objectid": 1274, "nombre": "Cuarta de Cochamo", "nombre_del": "Cochamó", "tipo": "Compañia", "cut_cia": 1013404, "compa__ia": "Cuarta de Cochamo", "cut_cuerpo": 10134, "direccion": "Pocoihuen Alto S/N", "telefono": "(65) 216216", "point_x": -72.329933, "point_y": -41.482057, "cut": " ", "tipo_de_vl": " ", "numeraci__": " ", "nombre_de": " ", "comunas_at": " ", "voluntario": 0, "as_2018": 0, "as_2019": 0, "as_2020": 0, "cantidad_m": 0, "actualizad": " ", "esp6": " ", "esp1": " ", "esp5": " ", "esp3": " ", "esp2": " ", "esp4": " ", "esp7": " ", "esp8": " ", "cine_prov": "101", "cod_com": 10103, "cine_com": "10103", "nom_com": "COCHAMÓ", "nom_prov": "LLANQUIHUE", "nom_reg": "LOS LAGOS", "cine_reg": "10", "globalid": "c8b51b6f-02e4-4527-8850-9c6629f029cf", "region": "Los Lagos", "provincia": "LLANQUIHUE", "comuna": "COCHAMÓ" }, "geometry": { "type": "Point", "coordinates": [ -72.32993, -41.48206 ] } }
]
}
