{
"type": "FeatureCollection",
"name": "LAN",
"crs": { "type": "name", "properties": { "name": "urn:ogc:def:crs:OGC:1.3:CRS84" } },
"xy_coordinate_resolution": 1e-05,
"features": [
{ "type": "Feature", "properties": { "objectid_1": 636, "fid_compil": 1171, "objectid": 1173, "nombre": "Tercera de Choshuenco", "nombre_del": "Panguipulli", "tipo": "Compañia", "cut_cia": 1411803, "compa__ia": "Tercera de Choshuenco", "cut_cuerpo": 14118, "direccion": "Puerto Fuy S/N", "telefono": "(63) 318232", "point_x": -71.895314, "point_y": -39.873109, "cut": " ", "tipo_de_vl": " ", "numeraci__": " ", "nombre_de": " ", "comunas_at": " ", "voluntario": 0, "as_2018": 0, "as_2019": 0, "as_2020": 0, "cantidad_m": 0, "actualizad": " ", "esp6": " ", "esp1": " ", "esp5": " ", "esp3": " ", "esp2": " ", "esp4": " ", "esp7": " ", "esp8": " ", "cine_prov": "141", "cod_com": 14108, "cine_com": "14108", "nom_com": "PANGUIPULLI", "nom_prov": "VALDIVIA", "nom_reg": "LOS RÍOS", "cine_reg": "14", "globalid": "bbad1e9b-8c46-4703-847e-dc9d24907abe", "region": "Los Ríos", "provincia": "VALDIVIA", "comuna": "PANGUIPULLI" }, "geometry": { "type": "Point", "coordinates": [ -71.89531, -39.87311 ] } },
{ "type": "Feature", "properties": { "objectid_1": 642, "fid_compil": 1170, "objectid": 1172, "nombre": "Segunda de Choshuenco", "nombre_del": "Panguipulli", "tipo": "Compañia", "cut_cia": 1411802, "compa__ia": "Segunda de Choshuenco", "cut_cuerpo": 14118, "direccion": "Los Raulies S/N", "telefono": "(63) 318232", "point_x": -71.942747, "point_y": -39.846833, "cut": " ", "tipo_de_vl": " ", "numeraci__": " ", "nombre_de": " ", "comunas_at": " ", "voluntario": 0, "as_2018": 0, "as_2019": 0, "as_2020": 0, "cantidad_m": 0, "actualizad": " ", "esp6": " ", "esp1": " ", "esp5": " ", "esp3": " ", "esp2": " ", "esp4": " ", "esp7": " ", "esp8": " ", "cine_prov": "141", "cod_com": 14108, "cine_com": "14108", "nom_com": "PANGUIPULLI", "nom_prov": "VALDIVIA", "nom_reg": "LOS RÍOS", "cine_reg": "14", "globalid": "77734d1b-7339-4c16-ac00-41e80bc329c6", "region": "Los Ríos", "provincia": "VALDIVIA", "comuna": "PANGUIPULLI" }, "geometry": { "type": "Point", "coordinates": [ -71.94275, -39.84683 ] } },
{ "type": "Feature", "properties": { "objectid_1": 659, "fid_compil": 1214, "objectid": 1216, "nombre": "Sexta de Panguipulli", "nombre_del": "Panguipulli", "tipo": "Compañia", "cut_cia": 1411006, "compa__ia": "Sexta de Panguipulli", "cut_cuerpo": 14110, "direccion": "Camino Internacional S/N Lli", "telefono": "(63) 311222", "point_x": -71.85765, "point_y": -39.708089, "cut": " ", "tipo_de_vl": " ", "numeraci__": " ", "nombre_de": " ", "comunas_at": " ", "voluntario": 0, "as_2018": 0, "as_2019": 0, "as_2020": 0, "cantidad_m": 0, "actualizad": " ", "esp6": " ", "esp1": " ", "esp5": " ", "esp3": " ", "esp2": " ", "esp4": " ", "esp7": " ", "esp8": " ", "cine_prov": "141", "cod_com": 14108, "cine_com": "14108", "nom_com": "PANGUIPULLI", "nom_prov": "VALDIVIA", "nom_reg": "LOS RÍOS", "cine_reg": "14", "globalid": "6094c51a-4281-479c-ac03-983ec775a4ed", "region": "Los Ríos", "provincia": "VALDIVIA", "comuna": "PANGUIPULLI" }, "geometry": { "type": "Point", "coordinates": [ -71.85765, -39.70809 ] } },
{ "type": "Feature", "properties": { "objectid_1": 671, "fid_compil": 1212, "objectid": 1214, "nombre": "Cuarta de Panguipulli", "nombre_del": "Panguipulli", "tipo": "Compañia", "cut_cia": 1411004, "compa__ia": "Cuarta de Panguipulli", "cut_cuerpo": 14110, "direccion": "Los Pellines S/N", "telefono": "(63) 311222", "point_x": -72.009226, "point_y": -39.567037, "cut": " ", "tipo_de_vl": " ", "numeraci__": " ", "nombre_de": " ", "comunas_at": " ", "voluntario": 0, "as_2018": 0, "as_2019": 0, "as_2020": 0, "cantidad_m": 0, "actualizad": " ", "esp6": " ", "esp1": " ", "esp5": " ", "esp3": " ", "esp2": " ", "esp4": " ", "esp7": " ", "esp8": " ", "cine_prov": "141", "cod_com": 14108, "cine_com": "14108", "nom_com": "PANGUIPULLI", "nom_prov": "VALDIVIA", "nom_reg": "LOS RÍOS", "cine_reg": "14", "globalid": "27803f38-385c-42bc-80ee-8ab8c749ccae", "region": "Los Ríos", "provincia": "VALDIVIA", "comuna": "PANGUIPULLI" }, "geometry": { "type": "Point", "coordinates": [ -72.00923, -39.56704 ] } },
{ "type": "Feature", "properties": { "objectid_1": 698, "fid_compil": 100, "objectid": 100, "nombre": "Curarrehue", "nombre_del": "Curarrehue", "tipo": "Cuerpo", "cut_cia": 0, "compa__ia": "Curarrehue", "cut_cuerpo": 0, "direccion": "Bernardo O'higgins 487", "telefono": " ", "point_x": -71.588038, "point_y": -39.35896, "cut": "9131", "tipo_de_vl": "Avenida", "numeraci__": "487", "nombre_de": "Bdo O Higgins", "comunas_at": "Curarrehue", "voluntario": 76, "as_2018": 113, "as_2019": 101, "as_2020": 101, "cantidad_m": 5, "actualizad": " ", "esp6": " ", "esp1": " ", "esp5": " ", "esp3": " ", "esp2": " ", "esp4": " ", "esp7": " ", "esp8": " ", "cine_prov": "091", "cod_com": 9104, "cine_com": "09104", "nom_com": "CURARREHUE", "nom_prov": "CAUTÍN", "nom_reg": "LA ARAUCANÍA", "cine_reg": "09", "globalid": "37b9025a-57e4-4ff2-8746-07600effe697", "region": "La Araucanía", "provincia": "CAUTÍN", "comuna": "CURARREHUE" }, "geometry": { "type": "Point", "coordinates": [ -71.58804, -39.35896 ] } },
{ "type": "Feature", "properties": { "objectid_1": 699, "fid_compil": 1078, "objectid": 1080, "nombre": "Primera de Curarrehue", "nombre_del": "Curarrehue", "tipo": "Compañia", "cut_cia": 913101, "compa__ia": "Primera de Curarrehue", "cut_cuerpo": 9131, "direccion": "O'higgins 487", "telefono": "(45) 1971558", "point_x": -71.588063, "point_y": -39.358739, "cut": " ", "tipo_de_vl": " ", "numeraci__": " ", "nombre_de": " ", "comunas_at": " ", "voluntario": 0, "as_2018": 0, "as_2019": 0, "as_2020": 0, "cantidad_m": 0, "actualizad": " ", "esp6": " ", "esp1": " ", "esp5": " ", "esp3": " ", "esp2": " ", "esp4": " ", "esp7": " ", "esp8": " ", "cine_prov": "091", "cod_com": 9104, "cine_com": "09104", "nom_com": "CURARREHUE", "nom_prov": "CAUTÍN", "nom_reg": "LA ARAUCANÍA", "cine_reg": "09", "globalid": "fdce4640-753e-4f75-96c0-227339a82a83", "region": "La Araucanía", "provincia": "CAUTÍN", "comuna": "CURARREHUE" }, "geometry": { "type": "Point", "coordinates": [ -71.58806, -39.35874 ] } },
{ "type": "Feature", "properties": { "objectid_1": 700, "fid_compil": 1396, "objectid": 1398, "nombre": "Segunda de Curarrehue", "nombre_del": "Curarrehue", "tipo": "Compañia", "cut_cia": 910402, "compa__ia": "Segunda de Curarrehue", "cut_cuerpo": 9104, "direccion": "Camino Internacional S/N", "telefono": "(45) 1971558", "point_x": -71.703582, "point_y": -39.348289, "cut": " ", "tipo_de_vl": " ", "numeraci__": " ", "nombre_de": " ", "comunas_at": " ", "voluntario": 0, "as_2018": 0, "as_2019": 0, "as_2020": 0, "cantidad_m": 0, "actualizad": " ", "esp6": " ", "esp1": " ", "esp5": " ", "esp3": " ", "esp2": " ", "esp4": " ", "esp7": " ", "esp8": " ", "cine_prov": "091", "cod_com": 9104, "cine_com": "09104", "nom_com": "CURARREHUE", "nom_prov": "CAUTÍN", "nom_reg": "LA ARAUCANÍA", "cine_reg": "09", "globalid": "ccf18ca7-f217-44ed-881a-b6e44b1c1593", "region": "La Araucanía", "provincia": "CAUTÍN", "comuna": "CURARREHUE" }, "geometry": { "type": "Point", "coordinates": [ -71.70358, -39.34829 ] } }
]
}
