{
"type": "FeatureCollection",
"name": "LON",
"crs": { "type": "name", "properties": { "name": "urn:ogc:def:crs:OGC:1.3:CRS84" } },
"xy_coordinate_resolution": 1e-05,
"features": [
{ "type": "Feature", "properties": { "objectid_1": 790, "fid_compil": 1076, "objectid": 1078, "nombre": "Cuarta de Curacautin", "nombre_del": "Curacautín", "tipo": "Compañia", "cut_cia": 922304, "compa__ia": "Cuarta de Curacautin", "cut_cuerpo": 9223, "direccion": "O'higgins S/N, Malalcahuello", "telefono": "(45) 882846", "point_x": -71.581914, "point_y": -38.474893, "cut": " ", "tipo_de_vl": " ", "numeraci__": " ", "nombre_de": " ", "comunas_at": " ", "voluntario": 0, "as_2018": 0, "as_2019": 0, "as_2020": 0, "cantidad_m": 0, "actualizad": " ", "esp6": " ", "esp1": " ", "esp5": " ", "esp3": " ", "esp2": " ", "esp4": " ", "esp7": " ", "esp8": " ", "cine_prov": "092", "cod_com": 9203, "cine_com": "09203", "nom_com": "CURACAUTÍN", "nom_prov": "MALLECO", "nom_reg": "LA ARAUCANÍA", "cine_reg": "09", "globalid": "a87d7956-303c-40ee-9286-d22ad972f113", "region": "La Araucanía", "provincia": "MALLECO", "comuna": "CURACAUTÍN" }, "geometry": { "type": "Point", "coordinates": [ -71.58191, -38.47489 ] } },
{ "type": "Feature", "properties": { "objectid_1": 791, "fid_compil": 1077, "objectid": 1079, "nombre": "Quinta de Curacautin", "nombre_del": "Curacautín", "tipo": "Compañia", "cut_cia": 922305, "compa__ia": "Quinta de Curacautin", "cut_cuerpo": 9223, "direccion": "Los Robles  S/N, Manzanar", "telefono": "(45) 882846", "point_x": -71.700785, "point_y": -38.466909, "cut": " ", "tipo_de_vl": " ", "numeraci__": " ", "nombre_de": " ", "comunas_at": " ", "voluntario": 0, "as_2018": 0, "as_2019": 0, "as_2020": 0, "cantidad_m": 0, "actualizad": " ", "esp6": " ", "esp1": " ", "esp5": " ", "esp3": " ", "esp2": " ", "esp4": " ", "esp7": " ", "esp8": " ", "cine_prov": "092", "cod_com": 9203, "cine_com": "09203", "nom_com": "CURACAUTÍN", "nom_prov": "MALLECO", "nom_reg": "LA ARAUCANÍA", "cine_reg": "09", "globalid": "dad1d8ca-c20f-4b91-b46c-01237cb3ec5d", "region": "La Araucanía", "provincia": "MALLECO", "comuna": "CURACAUTÍN" }, "geometry": { "type": "Point", "coordinates": [ -71.70078, -38.46691 ] } },
{ "type": "Feature", "properties": { "objectid_1": 792, "fid_compil": 1105, "objectid": 1107, "nombre": "Segunda de Lonquimay", "nombre_del": "Lonquimay", "tipo": "Compañia", "cut_cia": 913502, "compa__ia": "Segunda de Lonquimay", "cut_cuerpo": 9135, "direccion": "O'higgins 1120", "telefono": "(45) 471085", "point_x": -71.371178, "point_y": -38.454581, "cut": " ", "tipo_de_vl": " ", "numeraci__": " ", "nombre_de": " ", "comunas_at": " ", "voluntario": 0, "as_2018": 0, "as_2019": 0, "as_2020": 0, "cantidad_m": 0, "actualizad": " ", "esp6": " ", "esp1": " ", "esp5": " ", "esp3": " ", "esp2": " ", "esp4": " ", "esp7": " ", "esp8": " ", "cine_prov": "092", "cod_com": 9205, "cine_com": "09205", "nom_com": "LONQUIMAY", "nom_prov": "MALLECO", "nom_reg": "LA ARAUCANÍA", "cine_reg": "09", "globalid": "814c2a02-1ff9-439a-a5f2-02b5a330bedb", "region": "La Araucanía", "provincia": "MALLECO", "comuna": "LONQUIMAY" }, "geometry": { "type": "Point", "coordinates": [ -71.37118, -38.45458 ] } },
{ "type": "Feature", "properties": { "objectid_1": 793, "fid_compil": 1104, "objectid": 1106, "nombre": "Primera de Lonquimay", "nombre_del": "Lonquimay", "tipo": "Compañia", "cut_cia": 913501, "compa__ia": "Primera de Lonquimay", "cut_cuerpo": 9135, "direccion": "O'higgins 1120", "telefono": "(45) 471085", "point_x": -71.371079, "point_y": -38.454538, "cut": " ", "tipo_de_vl": " ", "numeraci__": " ", "nombre_de": " ", "comunas_at": " ", "voluntario": 0, "as_2018": 0, "as_2019": 0, "as_2020": 0, "cantidad_m": 0, "actualizad": " ", "esp6": " ", "esp1": " ", "esp5": " ", "esp3": " ", "esp2": " ", "esp4": " ", "esp7": " ", "esp8": " ", "cine_prov": "092", "cod_com": 9205, "cine_com": "09205", "nom_com": "LONQUIMAY", "nom_prov": "MALLECO", "nom_reg": "LA ARAUCANÍA", "cine_reg": "09", "globalid": "8b821a40-8086-45ec-bcc0-7a5334b76f40", "region": "La Araucanía", "provincia": "MALLECO", "comuna": "LONQUIMAY" }, "geometry": { "type": "Point", "coordinates": [ -71.37108, -38.45454 ] } },
{ "type": "Feature", "properties": { "objectid_1": 794, "fid_compil": 165, "objectid": 165, "nombre": "Lonquimay", "nombre_del": "Lonquimay", "tipo": "Cuerpo", "cut_cia": 0, "compa__ia": "Lonquimay", "cut_cuerpo": 0, "direccion": "Luis Saez Mora 415", "telefono": " ", "point_x": -71.370896, "point_y": -38.454532, "cut": "9232", "tipo_de_vl": "Calle", "numeraci__": "1195", "nombre_de": "O Higgins", "comunas_at": "Lonquimay", "voluntario": 73, "as_2018": 51, "as_2019": 51, "as_2020": 81, "cantidad_m": 9, "actualizad": " ", "esp6": " ", "esp1": " ", "esp5": " ", "esp3": " ", "esp2": " ", "esp4": " ", "esp7": " ", "esp8": " ", "cine_prov": "092", "cod_com": 9205, "cine_com": "09205", "nom_com": "LONQUIMAY", "nom_prov": "MALLECO", "nom_reg": "LA ARAUCANÍA", "cine_reg": "09", "globalid": "a5e42933-e8c4-45ec-92e7-5821ac021f5c", "region": "La Araucanía", "provincia": "MALLECO", "comuna": "LONQUIMAY" }, "geometry": { "type": "Point", "coordinates": [ -71.3709, -38.45453 ] } },
{ "type": "Feature", "properties": { "objectid_1": 795, "fid_compil": 1075, "objectid": 1077, "nombre": "Tercera de Curacautin", "nombre_del": "Curacautín", "tipo": "Compañia", "cut_cia": 922303, "compa__ia": "Tercera de Curacautin", "cut_cuerpo": 9223, "direccion": "Arturo Prat 555", "telefono": "(45) 882846", "point_x": -71.891109, "point_y": -38.438609, "cut": " ", "tipo_de_vl": " ", "numeraci__": " ", "nombre_de": " ", "comunas_at": " ", "voluntario": 0, "as_2018": 0, "as_2019": 0, "as_2020": 0, "cantidad_m": 0, "actualizad": " ", "esp6": " ", "esp1": " ", "esp5": " ", "esp3": " ", "esp2": " ", "esp4": " ", "esp7": " ", "esp8": " ", "cine_prov": "092", "cod_com": 9203, "cine_com": "09203", "nom_com": "CURACAUTÍN", "nom_prov": "MALLECO", "nom_reg": "LA ARAUCANÍA", "cine_reg": "09", "globalid": "24f74c18-7865-47be-9101-281870058487", "region": "La Araucanía", "provincia": "MALLECO", "comuna": "CURACAUTÍN" }, "geometry": { "type": "Point", "coordinates": [ -71.89111, -38.43861 ] } },
{ "type": "Feature", "properties": { "objectid_1": 796, "fid_compil": 1074, "objectid": 1076, "nombre": "Segunda de Curacautin", "nombre_del": "Curacautín", "tipo": "Compañia", "cut_cia": 922302, "compa__ia": "Segunda de Curacautin", "cut_cuerpo": 9223, "direccion": "Arturo Prat 555", "telefono": "(45) 882846", "point_x": -71.891249, "point_y": -38.438518, "cut": " ", "tipo_de_vl": " ", "numeraci__": " ", "nombre_de": " ", "comunas_at": " ", "voluntario": 0, "as_2018": 0, "as_2019": 0, "as_2020": 0, "cantidad_m": 0, "actualizad": " ", "esp6": " ", "esp1": " ", "esp5": " ", "esp3": " ", "esp2": " ", "esp4": " ", "esp7": " ", "esp8": " ", "cine_prov": "092", "cod_com": 9203, "cine_com": "09203", "nom_com": "CURACAUTÍN", "nom_prov": "MALLECO", "nom_reg": "LA ARAUCANÍA", "cine_reg": "09", "globalid": "993984d7-afb8-440e-888f-232188f04790", "region": "La Araucanía", "provincia": "MALLECO", "comuna": "CURACAUTÍN" }, "geometry": { "type": "Point", "coordinates": [ -71.89125, -38.43852 ] } },
{ "type": "Feature", "properties": { "objectid_1": 797, "fid_compil": 96, "objectid": 96, "nombre": "Curacautín", "nombre_del": "Curacautín", "tipo": "Cuerpo", "cut_cia": 0, "compa__ia": "Curacautín", "cut_cuerpo": 0, "direccion": "Arturo Prat 555", "telefono": " ", "point_x": -71.890904, "point_y": -38.438498, "cut": "9223", "tipo_de_vl": " ", "numeraci__": "555", "nombre_de": "Arturo Prat", "comunas_at": "Curacautin", "voluntario": 215, "as_2018": 231, "as_2019": 289, "as_2020": 252, "cantidad_m": 10, "actualizad": " ", "esp6": " ", "esp1": " ", "esp5": " ", "esp3": " ", "esp2": " ", "esp4": " ", "esp7": " ", "esp8": " ", "cine_prov": "092", "cod_com": 9203, "cine_com": "09203", "nom_com": "CURACAUTÍN", "nom_prov": "MALLECO", "nom_reg": "LA ARAUCANÍA", "cine_reg": "09", "globalid": "2ba9584e-6df2-42c4-9c60-ffa64ba132e6", "region": "La Araucanía", "provincia": "MALLECO", "comuna": "CURACAUTÍN" }, "geometry": { "type": "Point", "coordinates": [ -71.8909, -38.4385 ] } },
{ "type": "Feature", "properties": { "objectid_1": 798, "fid_compil": 1073, "objectid": 1075, "nombre": "Primera de Curacautin", "nombre_del": "Curacautín", "tipo": "Compañia", "cut_cia": 922301, "compa__ia": "Primera de Curacautin", "cut_cuerpo": 9223, "direccion": "Arturo Prat 555", "telefono": "(45) 882846", "point_x": -71.89107, "point_y": -38.438495, "cut": " ", "tipo_de_vl": " ", "numeraci__": " ", "nombre_de": " ", "comunas_at": " ", "voluntario": 0, "as_2018": 0, "as_2019": 0, "as_2020": 0, "cantidad_m": 0, "actualizad": " ", "esp6": " ", "esp1": " ", "esp5": " ", "esp3": " ", "esp2": " ", "esp4": " ", "esp7": " ", "esp8": " ", "cine_prov": "092", "cod_com": 9203, "cine_com": "09203", "nom_com": "CURACAUTÍN", "nom_prov": "MALLECO", "nom_reg": "LA ARAUCANÍA", "cine_reg": "09", "globalid": "eca4625c-0ac7-437d-8ded-55ec17b4391e", "region": "La Araucanía", "provincia": "MALLECO", "comuna": "CURACAUTÍN" }, "geometry": { "type": "Point", "coordinates": [ -71.89107, -38.43849 ] } }
]
}
