{
"type": "FeatureCollection",
"name": "MCH",
"crs": { "type": "name", "properties": { "name": "urn:ogc:def:crs:OGC:1.3:CRS84" } },
"xy_coordinate_resolution": 1e-05,
"features": [
{ "type": "Feature", "properties": { "objectid_1": 415, "fid_compil": 120, "objectid": 120, "nombre": "Futrono", "nombre_del": "Futrono", "tipo": "Cuerpo", "cut_cia": 0, "compa__ia": "Futrono", "cut_cuerpo": 0, "direccion": "Alessandri 5", "telefono": " ", "point_x": -72.389854, "point_y": -40.131345, "cut": "14220", "tipo_de_vl": "Calle", "numeraci__": "5", "nombre_de": "Alessandri", "comunas_at": "Futrono", "voluntario": 130, "as_2018": 100, "as_2019": 134, "as_2020": 159, "cantidad_m": 12, "actualizad": " ", "esp6": " ", "esp1": " ", "esp5": " ", "esp3": " ", "esp2": " ", "esp4": " ", "esp7": " ", "esp8": " ", "cine_prov": "142", "cod_com": 14202, "cine_com": "14202", "nom_com": "FUTRONO", "nom_prov": "RANCO", "nom_reg": "LOS RÍOS", "cine_reg": "14", "globalid": "72130bcc-55ab-4ae4-81e1-d0f9c94fb888", "region": "Los Ríos", "provincia": "RANCO", "comuna": "FUTRONO" }, "geometry": { "type": "Point", "coordinates": [ -72.38985, -40.13134 ] } },
{ "type": "Feature", "properties": { "objectid_1": 618, "fid_compil": 1190, "objectid": 1192, "nombre": "Tercera de Futrono", "nombre_del": "Futrono", "tipo": "Compañia", "cut_cia": 1422003, "compa__ia": "Tercera de Futrono", "cut_cuerpo": 14220, "direccion": "Camino a Lliften Km. 19", "telefono": "(63) 481101", "point_x": -72.257012, "point_y": -40.196656, "cut": " ", "tipo_de_vl": " ", "numeraci__": " ", "nombre_de": " ", "comunas_at": " ", "voluntario": 0, "as_2018": 0, "as_2019": 0, "as_2020": 0, "cantidad_m": 0, "actualizad": " ", "esp6": " ", "esp1": " ", "esp5": " ", "esp3": " ", "esp2": " ", "esp4": " ", "esp7": " ", "esp8": " ", "cine_prov": "142", "cod_com": 14202, "cine_com": "14202", "nom_com": "FUTRONO", "nom_prov": "RANCO", "nom_reg": "LOS RÍOS", "cine_reg": "14", "globalid": "f5c4cba5-f3b9-4897-ab7f-fe660b92e181", "region": "Los Ríos", "provincia": "RANCO", "comuna": "FUTRONO" }, "geometry": { "type": "Point", "coordinates": [ -72.25701, -40.19666 ] } },
{ "type": "Feature", "properties": { "objectid_1": 622, "fid_compil": 1188, "objectid": 1190, "nombre": "Primera de Futrono", "nombre_del": "Futrono", "tipo": "Compañia", "cut_cia": 1422001, "compa__ia": "Primera de Futrono", "cut_cuerpo": 14220, "direccion": "Balmaceda 225", "telefono": "(63) 481101", "point_x": -72.389909, "point_y": -40.131313, "cut": " ", "tipo_de_vl": " ", "numeraci__": " ", "nombre_de": " ", "comunas_at": " ", "voluntario": 0, "as_2018": 0, "as_2019": 0, "as_2020": 0, "cantidad_m": 0, "actualizad": " ", "esp6": " ", "esp1": " ", "esp5": " ", "esp3": " ", "esp2": " ", "esp4": " ", "esp7": " ", "esp8": " ", "cine_prov": "142", "cod_com": 14202, "cine_com": "14202", "nom_com": "FUTRONO", "nom_prov": "RANCO", "nom_reg": "LOS RÍOS", "cine_reg": "14", "globalid": "3adc0ea5-ae61-45f3-8239-29f2282a1e48", "region": "Los Ríos", "provincia": "RANCO", "comuna": "FUTRONO" }, "geometry": { "type": "Point", "coordinates": [ -72.38991, -40.13131 ] } },
{ "type": "Feature", "properties": { "objectid_1": 623, "fid_compil": 1189, "objectid": 1191, "nombre": "Segunda de Futrono", "nombre_del": "Futrono", "tipo": "Compañia", "cut_cia": 1422002, "compa__ia": "Segunda de Futrono", "cut_cuerpo": 14220, "direccion": "O'higgins Esquina 21 de Mayo", "telefono": "(63) 481101", "point_x": -72.382915, "point_y": -40.129472, "cut": " ", "tipo_de_vl": " ", "numeraci__": " ", "nombre_de": " ", "comunas_at": " ", "voluntario": 0, "as_2018": 0, "as_2019": 0, "as_2020": 0, "cantidad_m": 0, "actualizad": " ", "esp6": " ", "esp1": " ", "esp5": " ", "esp3": " ", "esp2": " ", "esp4": " ", "esp7": " ", "esp8": " ", "cine_prov": "142", "cod_com": 14202, "cine_com": "14202", "nom_com": "FUTRONO", "nom_prov": "RANCO", "nom_reg": "LOS RÍOS", "cine_reg": "14", "globalid": "680a5cc6-ce88-41c8-a884-306ce09c0c6a", "region": "Los Ríos", "provincia": "RANCO", "comuna": "FUTRONO" }, "geometry": { "type": "Point", "coordinates": [ -72.38291, -40.12947 ] } },
{ "type": "Feature", "properties": { "objectid_1": 629, "fid_compil": 1191, "objectid": 1193, "nombre": "Cuarta de Futrono", "nombre_del": "Futrono", "tipo": "Compañia", "cut_cia": 1422004, "compa__ia": "Cuarta de Futrono", "cut_cuerpo": 14220, "direccion": "El Maiten S/N, Nontuela", "telefono": "(63) 481101", "point_x": -72.545582, "point_y": -40.05648, "cut": " ", "tipo_de_vl": " ", "numeraci__": " ", "nombre_de": " ", "comunas_at": " ", "voluntario": 0, "as_2018": 0, "as_2019": 0, "as_2020": 0, "cantidad_m": 0, "actualizad": " ", "esp6": " ", "esp1": " ", "esp5": " ", "esp3": " ", "esp2": " ", "esp4": " ", "esp7": " ", "esp8": " ", "cine_prov": "142", "cod_com": 14202, "cine_com": "14202", "nom_com": "FUTRONO", "nom_prov": "RANCO", "nom_reg": "LOS RÍOS", "cine_reg": "14", "globalid": "397ca769-f553-45b2-b4b9-4e07e5997595", "region": "Los Ríos", "provincia": "RANCO", "comuna": "FUTRONO" }, "geometry": { "type": "Point", "coordinates": [ -72.54558, -40.05648 ] } },
{ "type": "Feature", "properties": { "objectid_1": 636, "fid_compil": 1171, "objectid": 1173, "nombre": "Tercera de Choshuenco", "nombre_del": "Panguipulli", "tipo": "Compañia", "cut_cia": 1411803, "compa__ia": "Tercera de Choshuenco", "cut_cuerpo": 14118, "direccion": "Puerto Fuy S/N", "telefono": "(63) 318232", "point_x": -71.895314, "point_y": -39.873109, "cut": " ", "tipo_de_vl": " ", "numeraci__": " ", "nombre_de": " ", "comunas_at": " ", "voluntario": 0, "as_2018": 0, "as_2019": 0, "as_2020": 0, "cantidad_m": 0, "actualizad": " ", "esp6": " ", "esp1": " ", "esp5": " ", "esp3": " ", "esp2": " ", "esp4": " ", "esp7": " ", "esp8": " ", "cine_prov": "141", "cod_com": 14108, "cine_com": "14108", "nom_com": "PANGUIPULLI", "nom_prov": "VALDIVIA", "nom_reg": "LOS RÍOS", "cine_reg": "14", "globalid": "bbad1e9b-8c46-4703-847e-dc9d24907abe", "region": "Los Ríos", "provincia": "VALDIVIA", "comuna": "PANGUIPULLI" }, "geometry": { "type": "Point", "coordinates": [ -71.89531, -39.87311 ] } },
{ "type": "Feature", "properties": { "objectid_1": 642, "fid_compil": 1170, "objectid": 1172, "nombre": "Segunda de Choshuenco", "nombre_del": "Panguipulli", "tipo": "Compañia", "cut_cia": 1411802, "compa__ia": "Segunda de Choshuenco", "cut_cuerpo": 14118, "direccion": "Los Raulies S/N", "telefono": "(63) 318232", "point_x": -71.942747, "point_y": -39.846833, "cut": " ", "tipo_de_vl": " ", "numeraci__": " ", "nombre_de": " ", "comunas_at": " ", "voluntario": 0, "as_2018": 0, "as_2019": 0, "as_2020": 0, "cantidad_m": 0, "actualizad": " ", "esp6": " ", "esp1": " ", "esp5": " ", "esp3": " ", "esp2": " ", "esp4": " ", "esp7": " ", "esp8": " ", "cine_prov": "141", "cod_com": 14108, "cine_com": "14108", "nom_com": "PANGUIPULLI", "nom_prov": "VALDIVIA", "nom_reg": "LOS RÍOS", "cine_reg": "14", "globalid": "77734d1b-7339-4c16-ac00-41e80bc329c6", "region": "Los Ríos", "provincia": "VALDIVIA", "comuna": "PANGUIPULLI" }, "geometry": { "type": "Point", "coordinates": [ -71.94275, -39.84683 ] } },
{ "type": "Feature", "properties": { "objectid_1": 643, "fid_compil": 1169, "objectid": 1171, "nombre": "Primera de Choshuenco", "nombre_del": "Panguipulli", "tipo": "Compañia", "cut_cia": 1411801, "compa__ia": "Primera de Choshuenco", "cut_cuerpo": 14118, "direccion": "Avenida Padre Bernabe S/N", "telefono": "(63) 318232", "point_x": -72.082863, "point_y": -39.836263, "cut": " ", "tipo_de_vl": " ", "numeraci__": " ", "nombre_de": " ", "comunas_at": " ", "voluntario": 0, "as_2018": 0, "as_2019": 0, "as_2020": 0, "cantidad_m": 0, "actualizad": " ", "esp6": " ", "esp1": " ", "esp5": " ", "esp3": " ", "esp2": " ", "esp4": " ", "esp7": " ", "esp8": " ", "cine_prov": "141", "cod_com": 14108, "cine_com": "14108", "nom_com": "PANGUIPULLI", "nom_prov": "VALDIVIA", "nom_reg": "LOS RÍOS", "cine_reg": "14", "globalid": "597fa950-fd81-4eec-874b-eeb14807ecb9", "region": "Los Ríos", "provincia": "VALDIVIA", "comuna": "PANGUIPULLI" }, "geometry": { "type": "Point", "coordinates": [ -72.08286, -39.83626 ] } },
{ "type": "Feature", "properties": { "objectid_1": 644, "fid_compil": 69, "objectid": 69, "nombre": "Choshuenco", "nombre_del": "Choshuenco", "tipo": "Cuerpo", "cut_cia": 0, "compa__ia": "Choshuenco", "cut_cuerpo": 0, "direccion": "Padre Bernabe S/N", "telefono": " ", "point_x": -72.082916, "point_y": -39.83626, "cut": "14118", "tipo_de_vl": "Avenida", "numeraci__": "S/n", "nombre_de": "Padre Bernabé", "comunas_at": "Panguipulli", "voluntario": 65, "as_2018": 112, "as_2019": 120, "as_2020": 167, "cantidad_m": 7, "actualizad": " ", "esp6": " ", "esp1": " ", "esp5": " ", "esp3": " ", "esp2": " ", "esp4": " ", "esp7": " ", "esp8": " ", "cine_prov": "141", "cod_com": 14108, "cine_com": "14108", "nom_com": "PANGUIPULLI", "nom_prov": "VALDIVIA", "nom_reg": "LOS RÍOS", "cine_reg": "14", "globalid": "97819d25-905a-4fc3-8bf4-74b7ef563af3", "region": "Los Ríos", "provincia": "VALDIVIA", "comuna": "PANGUIPULLI" }, "geometry": { "type": "Point", "coordinates": [ -72.08292, -39.83626 ] } },
{ "type": "Feature", "properties": { "objectid_1": 659, "fid_compil": 1214, "objectid": 1216, "nombre": "Sexta de Panguipulli", "nombre_del": "Panguipulli", "tipo": "Compañia", "cut_cia": 1411006, "compa__ia": "Sexta de Panguipulli", "cut_cuerpo": 14110, "direccion": "Camino Internacional S/N Lli", "telefono": "(63) 311222", "point_x": -71.85765, "point_y": -39.708089, "cut": " ", "tipo_de_vl": " ", "numeraci__": " ", "nombre_de": " ", "comunas_at": " ", "voluntario": 0, "as_2018": 0, "as_2019": 0, "as_2020": 0, "cantidad_m": 0, "actualizad": " ", "esp6": " ", "esp1": " ", "esp5": " ", "esp3": " ", "esp2": " ", "esp4": " ", "esp7": " ", "esp8": " ", "cine_prov": "141", "cod_com": 14108, "cine_com": "14108", "nom_com": "PANGUIPULLI", "nom_prov": "VALDIVIA", "nom_reg": "LOS RÍOS", "cine_reg": "14", "globalid": "6094c51a-4281-479c-ac03-983ec775a4ed", "region": "Los Ríos", "provincia": "VALDIVIA", "comuna": "PANGUIPULLI" }, "geometry": { "type": "Point", "coordinates": [ -71.85765, -39.70809 ] } },
{ "type": "Feature", "properties": { "objectid_1": 663, "fid_compil": 1209, "objectid": 1211, "nombre": "Primera de Panguipulli", "nombre_del": "Panguipulli", "tipo": "Compañia", "cut_cia": 1411001, "compa__ia": "Primera de Panguipulli", "cut_cuerpo": 14110, "direccion": "Portales Esquina Clodomiro Figueroa S/N", "telefono": "(63) 311222", "point_x": -72.336492, "point_y": -39.644961, "cut": " ", "tipo_de_vl": " ", "numeraci__": " ", "nombre_de": " ", "comunas_at": " ", "voluntario": 0, "as_2018": 0, "as_2019": 0, "as_2020": 0, "cantidad_m": 0, "actualizad": " ", "esp6": " ", "esp1": " ", "esp5": " ", "esp3": " ", "esp2": " ", "esp4": " ", "esp7": " ", "esp8": " ", "cine_prov": "141", "cod_com": 14108, "cine_com": "14108", "nom_com": "PANGUIPULLI", "nom_prov": "VALDIVIA", "nom_reg": "LOS RÍOS", "cine_reg": "14", "globalid": "2a54e33c-a452-48a8-a736-2af1b16dedd6", "region": "Los Ríos", "provincia": "VALDIVIA", "comuna": "PANGUIPULLI" }, "geometry": { "type": "Point", "coordinates": [ -72.33649, -39.64496 ] } },
{ "type": "Feature", "properties": { "objectid_1": 664, "fid_compil": 1210, "objectid": 1212, "nombre": "Segunda de Panguipulli", "nombre_del": "Panguipulli", "tipo": "Compañia", "cut_cia": 1411002, "compa__ia": "Segunda de Panguipulli", "cut_cuerpo": 14110, "direccion": "Calle Bernardo O'higgins 764", "telefono": "(63) 311222", "point_x": -72.331459, "point_y": -39.641587, "cut": " ", "tipo_de_vl": " ", "numeraci__": " ", "nombre_de": " ", "comunas_at": " ", "voluntario": 0, "as_2018": 0, "as_2019": 0, "as_2020": 0, "cantidad_m": 0, "actualizad": " ", "esp6": " ", "esp1": " ", "esp5": " ", "esp3": " ", "esp2": " ", "esp4": " ", "esp7": " ", "esp8": " ", "cine_prov": "141", "cod_com": 14108, "cine_com": "14108", "nom_com": "PANGUIPULLI", "nom_prov": "VALDIVIA", "nom_reg": "LOS RÍOS", "cine_reg": "14", "globalid": "18929ea9-46d4-45a5-9e49-d004d008fb8a", "region": "Los Ríos", "provincia": "VALDIVIA", "comuna": "PANGUIPULLI" }, "geometry": { "type": "Point", "coordinates": [ -72.33146, -39.64159 ] } },
{ "type": "Feature", "properties": { "objectid_1": 665, "fid_compil": 210, "objectid": 212, "nombre": "Panguipulli", "nombre_del": "Panguipulli", "tipo": "Cuerpo", "cut_cia": 0, "compa__ia": "Panguipulli", "cut_cuerpo": 0, "direccion": "Fernandez Concha 721", "telefono": " ", "point_x": -72.331397, "point_y": -39.641573, "cut": "14110", "tipo_de_vl": " ", "numeraci__": "764", "nombre_de": "Calle Bernardo O Higgins", "comunas_at": "Panguipulli", "voluntario": 200, "as_2018": 102, "as_2019": 303, "as_2020": 457, "cantidad_m": 19, "actualizad": " ", "esp6": " ", "esp1": " ", "esp5": " ", "esp3": " ", "esp2": " ", "esp4": " ", "esp7": " ", "esp8": " ", "cine_prov": "141", "cod_com": 14108, "cine_com": "14108", "nom_com": "PANGUIPULLI", "nom_prov": "VALDIVIA", "nom_reg": "LOS RÍOS", "cine_reg": "14", "globalid": "4b4f7b1d-e121-4a11-8c07-578f0d249b3c", "region": "Los Ríos", "provincia": "VALDIVIA", "comuna": "PANGUIPULLI" }, "geometry": { "type": "Point", "coordinates": [ -72.3314, -39.64157 ] } },
{ "type": "Feature", "properties": { "objectid_1": 666, "fid_compil": 1211, "objectid": 1213, "nombre": "Tercera de Panguipulli", "nombre_del": "Panguipulli", "tipo": "Compañia", "cut_cia": 1411003, "compa__ia": "Tercera de Panguipulli", "cut_cuerpo": 14110, "direccion": "Calle Bernardo O'higgins 764", "telefono": "(63) 311222", "point_x": -72.331453, "point_y": -39.641529, "cut": " ", "tipo_de_vl": " ", "numeraci__": " ", "nombre_de": " ", "comunas_at": " ", "voluntario": 0, "as_2018": 0, "as_2019": 0, "as_2020": 0, "cantidad_m": 0, "actualizad": " ", "esp6": " ", "esp1": " ", "esp5": " ", "esp3": " ", "esp2": " ", "esp4": " ", "esp7": " ", "esp8": " ", "cine_prov": "141", "cod_com": 14108, "cine_com": "14108", "nom_com": "PANGUIPULLI", "nom_prov": "VALDIVIA", "nom_reg": "LOS RÍOS", "cine_reg": "14", "globalid": "5e919610-e48d-4ff6-af0c-7e4dde1bb504", "region": "Los Ríos", "provincia": "VALDIVIA", "comuna": "PANGUIPULLI" }, "geometry": { "type": "Point", "coordinates": [ -72.33145, -39.64153 ] } },
{ "type": "Feature", "properties": { "objectid_1": 668, "fid_compil": 1216, "objectid": 1218, "nombre": "Octava de Panguipulli", "nombre_del": "Panguipulli", "tipo": "Compañia", "cut_cia": 1411008, "compa__ia": "Octava de Panguipulli", "cut_cuerpo": 14110, "direccion": "Sector Huellahue", "telefono": "(63) 311222", "point_x": -72.370557, "point_y": -39.602932, "cut": " ", "tipo_de_vl": " ", "numeraci__": " ", "nombre_de": " ", "comunas_at": " ", "voluntario": 0, "as_2018": 0, "as_2019": 0, "as_2020": 0, "cantidad_m": 0, "actualizad": " ", "esp6": " ", "esp1": " ", "esp5": " ", "esp3": " ", "esp2": " ", "esp4": " ", "esp7": " ", "esp8": " ", "cine_prov": "141", "cod_com": 14108, "cine_com": "14108", "nom_com": "PANGUIPULLI", "nom_prov": "VALDIVIA", "nom_reg": "LOS RÍOS", "cine_reg": "14", "globalid": "c43c645b-d1cb-412c-8814-20cebd047732", "region": "Los Ríos", "provincia": "VALDIVIA", "comuna": "PANGUIPULLI" }, "geometry": { "type": "Point", "coordinates": [ -72.37056, -39.60293 ] } },
{ "type": "Feature", "properties": { "objectid_1": 670, "fid_compil": 1213, "objectid": 1215, "nombre": "Quinta de Panguipulli", "nombre_del": "Panguipulli", "tipo": "Compañia", "cut_cia": 1411005, "compa__ia": "Quinta de Panguipulli", "cut_cuerpo": 14110, "direccion": "Villla Calafquen S/N", "telefono": "(63) 311222", "point_x": -72.252658, "point_y": -39.572561, "cut": " ", "tipo_de_vl": " ", "numeraci__": " ", "nombre_de": " ", "comunas_at": " ", "voluntario": 0, "as_2018": 0, "as_2019": 0, "as_2020": 0, "cantidad_m": 0, "actualizad": " ", "esp6": " ", "esp1": " ", "esp5": " ", "esp3": " ", "esp2": " ", "esp4": " ", "esp7": " ", "esp8": " ", "cine_prov": "141", "cod_com": 14108, "cine_com": "14108", "nom_com": "PANGUIPULLI", "nom_prov": "VALDIVIA", "nom_reg": "LOS RÍOS", "cine_reg": "14", "globalid": "adca2e36-5791-4811-a06a-4896d34d9b56", "region": "Los Ríos", "provincia": "VALDIVIA", "comuna": "PANGUIPULLI" }, "geometry": { "type": "Point", "coordinates": [ -72.25266, -39.57256 ] } },
{ "type": "Feature", "properties": { "objectid_1": 671, "fid_compil": 1212, "objectid": 1214, "nombre": "Cuarta de Panguipulli", "nombre_del": "Panguipulli", "tipo": "Compañia", "cut_cia": 1411004, "compa__ia": "Cuarta de Panguipulli", "cut_cuerpo": 14110, "direccion": "Los Pellines S/N", "telefono": "(63) 311222", "point_x": -72.009226, "point_y": -39.567037, "cut": " ", "tipo_de_vl": " ", "numeraci__": " ", "nombre_de": " ", "comunas_at": " ", "voluntario": 0, "as_2018": 0, "as_2019": 0, "as_2020": 0, "cantidad_m": 0, "actualizad": " ", "esp6": " ", "esp1": " ", "esp5": " ", "esp3": " ", "esp2": " ", "esp4": " ", "esp7": " ", "esp8": " ", "cine_prov": "141", "cod_com": 14108, "cine_com": "14108", "nom_com": "PANGUIPULLI", "nom_prov": "VALDIVIA", "nom_reg": "LOS RÍOS", "cine_reg": "14", "globalid": "27803f38-385c-42bc-80ee-8ab8c749ccae", "region": "Los Ríos", "provincia": "VALDIVIA", "comuna": "PANGUIPULLI" }, "geometry": { "type": "Point", "coordinates": [ -72.00923, -39.56704 ] } }
]
}
