{
"type": "FeatureCollection",
"name": "MEL",
"crs": { "type": "name", "properties": { "name": "urn:ogc:def:crs:OGC:1.3:CRS84" } },
"xy_coordinate_resolution": 1e-05,
"features": [
{ "type": "Feature", "properties": { "objectid_1": 436, "fid_compil": 1273, "objectid": 1275, "nombre": "Segunda de Puerto Cisnes", "nombre_del": "Cisnes", "tipo": "Compañia", "cut_cia": 1120102, "compa__ia": "Segunda de Puerto Cisnes", "cut_cuerpo": 11201, "direccion": "Diego Portales Esquina 5 de Abril", "telefono": "(67) 346595", "point_x": -72.558828, "point_y": -44.324859, "cut": " ", "tipo_de_vl": " ", "numeraci__": " ", "nombre_de": " ", "comunas_at": " ", "voluntario": 0, "as_2018": 0, "as_2019": 0, "as_2020": 0, "cantidad_m": 0, "actualizad": " ", "esp6": " ", "esp1": " ", "esp5": " ", "esp3": " ", "esp2": " ", "esp4": " ", "esp7": " ", "esp8": " ", "cine_prov": "112", "cod_com": 11202, "cine_com": "11202", "nom_com": "CISNES", "nom_prov": "AYSÉN", "nom_reg": "AYSÉN DEL GENERAL CARLOS IBANEZ DEL CAMPO", "cine_reg": "11", "globalid": "adc8c204-7c93-4f8f-b901-f92240fc4a92", "region": "Aysén del General Carlos Ibáñez del Campo", "provincia": "AYSÉN", "comuna": "CISNES" }, "geometry": { "type": "Point", "coordinates": [ -72.55883, -44.32486 ] } },
{ "type": "Feature", "properties": { "objectid_1": 437, "fid_compil": 1381, "objectid": 1383, "nombre": "Tercera de Puerto Cisnes", "nombre_del": "Cisnes", "tipo": "Compañia", "cut_cia": 1120103, "compa__ia": "Tercera de Puerto Cisnes", "cut_cuerpo": 11201, "direccion": "Otto Huebel S/N", "telefono": "(67) 346595", "point_x": -72.406323, "point_y": -43.972483, "cut": " ", "tipo_de_vl": " ", "numeraci__": " ", "nombre_de": " ", "comunas_at": " ", "voluntario": 0, "as_2018": 0, "as_2019": 0, "as_2020": 0, "cantidad_m": 0, "actualizad": " ", "esp6": " ", "esp1": " ", "esp5": " ", "esp3": " ", "esp2": " ", "esp4": " ", "esp7": " ", "esp8": " ", "cine_prov": "112", "cod_com": 11202, "cine_com": "11202", "nom_com": "CISNES", "nom_prov": "AYSÉN", "nom_reg": "AYSÉN DEL GENERAL CARLOS IBANEZ DEL CAMPO", "cine_reg": "11", "globalid": "0bbc1d90-2dfb-44bc-906f-c8680029a403", "region": "Aysén del General Carlos Ibáñez del Campo", "provincia": "AYSÉN", "comuna": "CISNES" }, "geometry": { "type": "Point", "coordinates": [ -72.40632, -43.97248 ] } }
]
}
