{
"type": "FeatureCollection",
"name": "MEN",
"crs": { "type": "name", "properties": { "name": "urn:ogc:def:crs:OGC:1.3:CRS84" } },
"xy_coordinate_resolution": 1e-05,
"features": [
{ "type": "Feature", "properties": { "objectid_1": 434, "fid_compil": 237, "objectid": 239, "nombre": "Puerto Cisnes", "nombre_del": "Puerto Cisnes", "tipo": "Cuerpo", "cut_cia": 0, "compa__ia": "Puerto Cisnes", "cut_cuerpo": 0, "direccion": "Antonio Varas Y San Felipe S/N", "telefono": " ", "point_x": -72.681936, "point_y": -44.728521, "cut": "11205", "tipo_de_vl": "Avenida", "numeraci__": "507", "nombre_de": "Gabriela Mistral", "comunas_at": "Puerto Cisnes, Lago Verde", "voluntario": 159, "as_2018": 197, "as_2019": 202, "as_2020": 247, "cantidad_m": 10, "actualizad": " ", "esp6": " ", "esp1": " ", "esp5": " ", "esp3": " ", "esp2": " ", "esp4": " ", "esp7": " ", "esp8": " ", "cine_prov": "112", "cod_com": 11202, "cine_com": "11202", "nom_com": "CISNES", "nom_prov": "AYSÉN", "nom_reg": "AYSÉN DEL GENERAL CARLOS IBANEZ DEL CAMPO", "cine_reg": "11", "globalid": "03bccb1c-0beb-4b9c-b160-3e8181ebbe84", "region": "Aysén del General Carlos Ibáñez del Campo", "provincia": "AYSÉN", "comuna": "CISNES" }, "geometry": { "type": "Point", "coordinates": [ -72.68194, -44.72852 ] } },
{ "type": "Feature", "properties": { "objectid_1": 435, "fid_compil": 1354, "objectid": 1356, "nombre": "Primera de Puerto Cisnes", "nombre_del": "Cisnes", "tipo": "Compañia", "cut_cia": 1120201, "compa__ia": "Primera de Puerto Cisnes", "cut_cuerpo": 11202, "direccion": "Gabriela Mistral S/N", "telefono": "(67) 346595", "point_x": -72.681582, "point_y": -44.727246, "cut": " ", "tipo_de_vl": " ", "numeraci__": " ", "nombre_de": " ", "comunas_at": " ", "voluntario": 0, "as_2018": 0, "as_2019": 0, "as_2020": 0, "cantidad_m": 0, "actualizad": " ", "esp6": " ", "esp1": " ", "esp5": " ", "esp3": " ", "esp2": " ", "esp4": " ", "esp7": " ", "esp8": " ", "cine_prov": "112", "cod_com": 11202, "cine_com": "11202", "nom_com": "CISNES", "nom_prov": "AYSÉN", "nom_reg": "AYSÉN DEL GENERAL CARLOS IBANEZ DEL CAMPO", "cine_reg": "11", "globalid": "8081068d-5f4f-46aa-827e-fb847177c048", "region": "Aysén del General Carlos Ibáñez del Campo", "provincia": "AYSÉN", "comuna": "CISNES" }, "geometry": { "type": "Point", "coordinates": [ -72.68158, -44.72725 ] } }
]
}
