{
"type": "FeatureCollection",
"name": "NCH",
"crs": { "type": "name", "properties": { "name": "urn:ogc:def:crs:OGC:1.3:CRS84" } },
"xy_coordinate_resolution": 1e-05,
"features": [
{ "type": "Feature", "properties": { "objectid_1": 3, "fid_compil": 228, "objectid": 230, "nombre": "Pinto", "nombre_del": "Pinto", "tipo": "Cuerpo", "cut_cia": 0, "compa__ia": "Pinto", "cut_cuerpo": 0, "direccion": "Andres Bello 841", "telefono": " ", "point_x": -71.894118, "point_y": -36.706533, "cut": "8441", "tipo_de_vl": " ", "numeraci__": "S/n", "nombre_de": "Ernesto Riquelme", "comunas_at": "Pinto", "voluntario": 81, "as_2018": 265, "as_2019": 302, "as_2020": 194, "cantidad_m": 10, "actualizad": " ", "esp6": " ", "esp1": " ", "esp5": " ", "esp3": " ", "esp2": " ", "esp4": " ", "esp7": " ", "esp8": " ", "cine_prov": "161", "cod_com": 16106, "cine_com": "16106", "nom_com": "PINTO", "nom_prov": "DIGUILLÍN", "nom_reg": "ÑUBLE", "cine_reg": "16", "globalid": "c467bfe3-3e63-4a7c-8645-65230639d88c", "region": "Ñuble", "provincia": "DIGUILLÍN", "comuna": "PINTO" }, "geometry": { "type": "Point", "coordinates": [ -71.89412, -36.70653 ] } },
{ "type": "Feature", "properties": { "objectid_1": 966, "fid_compil": 244, "objectid": 246, "nombre": "Tercera de Pinto", "nombre_del": "Pinto", "tipo": "Compañia", "cut_cia": 844103, "compa__ia": "Tercera de Pinto", "cut_cuerpo": 8441, "direccion": "Las Trancas S/N", "telefono": "(42) 1973831", "point_x": -71.479001, "point_y": -36.910902, "cut": " ", "tipo_de_vl": " ", "numeraci__": " ", "nombre_de": " ", "comunas_at": " ", "voluntario": 0, "as_2018": 0, "as_2019": 0, "as_2020": 0, "cantidad_m": 0, "actualizad": " ", "esp6": " ", "esp1": " ", "esp5": " ", "esp3": " ", "esp2": " ", "esp4": " ", "esp7": " ", "esp8": " ", "cine_prov": "161", "cod_com": 16106, "cine_com": "16106", "nom_com": "PINTO", "nom_prov": "DIGUILLÍN", "nom_reg": "ÑUBLE", "cine_reg": "16", "globalid": "df446342-35cf-4ffc-88c8-0fcf3b2ace00", "region": "Ñuble", "provincia": "DIGUILLÍN", "comuna": "PINTO" }, "geometry": { "type": "Point", "coordinates": [ -71.479, -36.9109 ] } },
{ "type": "Feature", "properties": { "objectid_1": 972, "fid_compil": 51, "objectid": 51, "nombre": "Pinto", "nombre_del": "Pinto", "tipo": "Compañia", "cut_cia": 844102, "compa__ia": "Segunda de Pinto", "cut_cuerpo": 8441, "direccion": "Los Lleques S/N", "telefono": "(42) 1973831", "point_x": -71.641348, "point_y": -36.857019, "cut": " ", "tipo_de_vl": " ", "numeraci__": " ", "nombre_de": " ", "comunas_at": " ", "voluntario": 0, "as_2018": 0, "as_2019": 0, "as_2020": 0, "cantidad_m": 0, "actualizad": " ", "esp6": " ", "esp1": " ", "esp5": " ", "esp3": " ", "esp2": " ", "esp4": " ", "esp7": " ", "esp8": " ", "cine_prov": "161", "cod_com": 16106, "cine_com": "16106", "nom_com": "PINTO", "nom_prov": "DIGUILLÍN", "nom_reg": "ÑUBLE", "cine_reg": "16", "globalid": "501de8a5-d5c0-4e32-a347-6b4f384fc3a1", "region": "Ñuble", "provincia": "DIGUILLÍN", "comuna": "PINTO" }, "geometry": { "type": "Point", "coordinates": [ -71.64135, -36.85702 ] } },
{ "type": "Feature", "properties": { "objectid_1": 1022, "fid_compil": 995, "objectid": 997, "nombre": "Primera de Pinto", "nombre_del": "Pinto", "tipo": "Compañia", "cut_cia": 844101, "compa__ia": "Primera de Pinto", "cut_cuerpo": 8441, "direccion": "Federico Errazuriz S/N", "telefono": "(42) 1973831", "point_x": -71.893937, "point_y": -36.706608, "cut": " ", "tipo_de_vl": " ", "numeraci__": " ", "nombre_de": " ", "comunas_at": " ", "voluntario": 0, "as_2018": 0, "as_2019": 0, "as_2020": 0, "cantidad_m": 0, "actualizad": " ", "esp6": " ", "esp1": " ", "esp5": " ", "esp3": " ", "esp2": " ", "esp4": " ", "esp7": " ", "esp8": " ", "cine_prov": "161", "cod_com": 16106, "cine_com": "16106", "nom_com": "PINTO", "nom_prov": "DIGUILLÍN", "nom_reg": "ÑUBLE", "cine_reg": "16", "globalid": "f49984b3-3b78-4727-be5e-70ebb0b66a69", "region": "Ñuble", "provincia": "DIGUILLÍN", "comuna": "PINTO" }, "geometry": { "type": "Point", "coordinates": [ -71.89394, -36.70661 ] } },
{ "type": "Feature", "properties": { "objectid_1": 1027, "fid_compil": 75, "objectid": 75, "nombre": "Coihueco", "nombre_del": "Coihueco", "tipo": "Cuerpo", "cut_cia": 0, "compa__ia": "Coihueco", "cut_cuerpo": 0, "direccion": "Luis Hermosilla 1432", "telefono": " ", "point_x": -71.831091, "point_y": -36.627803, "cut": "8437", "tipo_de_vl": "Calle", "numeraci__": "1432", "nombre_de": "Luis Hermosilla", "comunas_at": "Coihueco", "voluntario": 130, "as_2018": 330, "as_2019": 342, "as_2020": 328, "cantidad_m": 13, "actualizad": " ", "esp6": " ", "esp1": " ", "esp5": " ", "esp3": " ", "esp2": " ", "esp4": " ", "esp7": " ", "esp8": " ", "cine_prov": "163", "cod_com": 16302, "cine_com": "16302", "nom_com": "COIHUECO", "nom_prov": "PUNILLA", "nom_reg": "ÑUBLE", "cine_reg": "16", "globalid": "1f7cd703-90ba-4b19-bab2-fe2c21edea34", "region": "Ñuble", "provincia": "PUNILLA", "comuna": "COIHUECO" }, "geometry": { "type": "Point", "coordinates": [ -71.83109, -36.6278 ] } },
{ "type": "Feature", "properties": { "objectid_1": 1028, "fid_compil": 915, "objectid": 917, "nombre": "Primera de Coihueco", "nombre_del": "Coihueco", "tipo": "Compañia", "cut_cia": 843701, "compa__ia": "Primera de Coihueco", "cut_cuerpo": 8437, "direccion": "Luis Hermosilla 1432", "telefono": "(42)856451", "point_x": -71.83097, "point_y": -36.627677, "cut": " ", "tipo_de_vl": " ", "numeraci__": " ", "nombre_de": " ", "comunas_at": " ", "voluntario": 0, "as_2018": 0, "as_2019": 0, "as_2020": 0, "cantidad_m": 0, "actualizad": " ", "esp6": " ", "esp1": " ", "esp5": " ", "esp3": " ", "esp2": " ", "esp4": " ", "esp7": " ", "esp8": " ", "cine_prov": "163", "cod_com": 16302, "cine_com": "16302", "nom_com": "COIHUECO", "nom_prov": "PUNILLA", "nom_reg": "ÑUBLE", "cine_reg": "16", "globalid": "e291f651-93bf-4557-b5ec-d5b9ff439923", "region": "Ñuble", "provincia": "PUNILLA", "comuna": "COIHUECO" }, "geometry": { "type": "Point", "coordinates": [ -71.83097, -36.62768 ] } },
{ "type": "Feature", "properties": { "objectid_1": 1029, "fid_compil": 916, "objectid": 918, "nombre": "Segunda de Coihueco", "nombre_del": "Coihueco", "tipo": "Compañia", "cut_cia": 843702, "compa__ia": "Segunda de Coihueco", "cut_cuerpo": 8437, "direccion": "Luis Hermosilla 1432", "telefono": "(42)856451", "point_x": -71.831193, "point_y": -36.627656, "cut": " ", "tipo_de_vl": " ", "numeraci__": " ", "nombre_de": " ", "comunas_at": " ", "voluntario": 0, "as_2018": 0, "as_2019": 0, "as_2020": 0, "cantidad_m": 0, "actualizad": " ", "esp6": " ", "esp1": " ", "esp5": " ", "esp3": " ", "esp2": " ", "esp4": " ", "esp7": " ", "esp8": " ", "cine_prov": "163", "cod_com": 16302, "cine_com": "16302", "nom_com": "COIHUECO", "nom_prov": "PUNILLA", "nom_reg": "ÑUBLE", "cine_reg": "16", "globalid": "ab5f30ed-d467-48b8-a810-78145b57b503", "region": "Ñuble", "provincia": "PUNILLA", "comuna": "COIHUECO" }, "geometry": { "type": "Point", "coordinates": [ -71.83119, -36.62766 ] } },
{ "type": "Feature", "properties": { "objectid_1": 1045, "fid_compil": 1003, "objectid": 1005, "nombre": "Cuarta de San Carlos", "nombre_del": "San Carlos", "tipo": "Compañia", "cut_cia": 841004, "compa__ia": "Cuarta de San Carlos", "cut_cuerpo": 8410, "direccion": "Caupolican S/N, San fabian", "telefono": "(42) 411620", "point_x": -71.552143, "point_y": -36.55461, "cut": " ", "tipo_de_vl": " ", "numeraci__": " ", "nombre_de": " ", "comunas_at": " ", "voluntario": 0, "as_2018": 0, "as_2019": 0, "as_2020": 0, "cantidad_m": 0, "actualizad": " ", "esp6": " ", "esp1": " ", "esp5": " ", "esp3": " ", "esp2": " ", "esp4": " ", "esp7": " ", "esp8": " ", "cine_prov": "163", "cod_com": 16304, "cine_com": "16304", "nom_com": "SAN FABIÁN", "nom_prov": "PUNILLA", "nom_reg": "ÑUBLE", "cine_reg": "16", "globalid": "80c1158f-695a-4fde-ac2d-b717855a23a8", "region": "Ñuble", "provincia": "PUNILLA", "comuna": "SAN FABIÁN" }, "geometry": { "type": "Point", "coordinates": [ -71.55214, -36.55461 ] } }
]
}
