{
"type": "FeatureCollection",
"name": "NLO",
"crs": { "type": "name", "properties": { "name": "urn:ogc:def:crs:OGC:1.3:CRS84" } },
"xy_coordinate_resolution": 1e-05,
"features": [
{ "type": "Feature", "properties": { "objectid_1": 984, "fid_compil": 845, "objectid": 847, "nombre": "Tercera de Retiro", "nombre_del": "Retiro", "tipo": "Compañia", "cut_cia": 741403, "compa__ia": "Tercera de Retiro", "cut_cuerpo": 7414, "direccion": "Las Camelias S/N", "telefono": "(73) 421028", "point_x": -71.604853, "point_y": -36.210589, "cut": " ", "tipo_de_vl": " ", "numeraci__": " ", "nombre_de": " ", "comunas_at": " ", "voluntario": 0, "as_2018": 0, "as_2019": 0, "as_2020": 0, "cantidad_m": 0, "actualizad": " ", "esp6": " ", "esp1": " ", "esp5": " ", "esp3": " ", "esp2": " ", "esp4": " ", "esp7": " ", "esp8": " ", "cine_prov": "074", "cod_com": 7405, "cine_com": "07405", "nom_com": "RETIRO", "nom_prov": "LINARES", "nom_reg": "MAULE", "cine_reg": "07", "globalid": "2e6c8306-08bf-4b4c-8588-5a0d506fde57", "region": "Maule", "provincia": "LINARES", "comuna": "RETIRO" }, "geometry": { "type": "Point", "coordinates": [ -71.60485, -36.21059 ] } },
{ "type": "Feature", "properties": { "objectid_1": 1066, "fid_compil": 835, "objectid": 837, "nombre": "Quinta de Parral", "nombre_del": "Parral", "tipo": "Compañia", "cut_cia": 740505, "compa__ia": "Quinta de Parral", "cut_cuerpo": 7405, "direccion": "Avenida Bernardo O'higgins S/N", "telefono": "(77) 462600", "point_x": -71.651759, "point_y": -36.287283, "cut": " ", "tipo_de_vl": " ", "numeraci__": " ", "nombre_de": " ", "comunas_at": " ", "voluntario": 0, "as_2018": 0, "as_2019": 0, "as_2020": 0, "cantidad_m": 0, "actualizad": " ", "esp6": " ", "esp1": " ", "esp5": " ", "esp3": " ", "esp2": " ", "esp4": " ", "esp7": " ", "esp8": " ", "cine_prov": "074", "cod_com": 7404, "cine_com": "07404", "nom_com": "PARRAL", "nom_prov": "LINARES", "nom_reg": "MAULE", "cine_reg": "07", "globalid": "4678d6af-c1cd-40a8-8cd4-6f56db7c8c55", "region": "Maule", "provincia": "LINARES", "comuna": "PARRAL" }, "geometry": { "type": "Point", "coordinates": [ -71.65176, -36.28728 ] } },
{ "type": "Feature", "properties": { "objectid_1": 1071, "fid_compil": 37, "objectid": 37, "nombre": "Sexta de Parral", "nombre_del": "Parral", "tipo": "Compañia", "cut_cia": 740506, "compa__ia": "Sexta de Parral", "cut_cuerpo": 7405, "direccion": "Remulcao", "telefono": "(78) 462600", "point_x": -71.69107, "point_y": -36.253548, "cut": " ", "tipo_de_vl": " ", "numeraci__": " ", "nombre_de": " ", "comunas_at": " ", "voluntario": 0, "as_2018": 0, "as_2019": 0, "as_2020": 0, "cantidad_m": 0, "actualizad": " ", "esp6": " ", "esp1": " ", "esp5": " ", "esp3": " ", "esp2": " ", "esp4": " ", "esp7": " ", "esp8": " ", "cine_prov": "074", "cod_com": 7404, "cine_com": "07404", "nom_com": "PARRAL", "nom_prov": "LINARES", "nom_reg": "MAULE", "cine_reg": "07", "globalid": "b2fb12ac-5239-44d3-accc-412777411911", "region": "Maule", "provincia": "LINARES", "comuna": "PARRAL" }, "geometry": { "type": "Point", "coordinates": [ -71.69107, -36.25355 ] } },
{ "type": "Feature", "properties": { "objectid_1": 1072, "fid_compil": 826, "objectid": 828, "nombre": "Cuarta de Longavi", "nombre_del": "Longaví", "tipo": "Compañia", "cut_cia": 741204, "compa__ia": "Cuarta de Longavi", "cut_cuerpo": 7412, "direccion": "Camino Publico S/N, San Jose", "telefono": "(73) 411342", "point_x": -71.578806, "point_y": -36.148413, "cut": " ", "tipo_de_vl": " ", "numeraci__": " ", "nombre_de": " ", "comunas_at": " ", "voluntario": 0, "as_2018": 0, "as_2019": 0, "as_2020": 0, "cantidad_m": 0, "actualizad": " ", "esp6": " ", "esp1": " ", "esp5": " ", "esp3": " ", "esp2": " ", "esp4": " ", "esp7": " ", "esp8": " ", "cine_prov": "074", "cod_com": 7403, "cine_com": "07403", "nom_com": "LONGAVÍ", "nom_prov": "LINARES", "nom_reg": "MAULE", "cine_reg": "07", "globalid": "4284e326-d2c7-420f-a9eb-8865f5a4dae5", "region": "Maule", "provincia": "LINARES", "comuna": "LONGAVÍ" }, "geometry": { "type": "Point", "coordinates": [ -71.57881, -36.14841 ] } },
{ "type": "Feature", "properties": { "objectid_1": 1080, "fid_compil": 825, "objectid": 827, "nombre": "Segunda de Longavi", "nombre_del": "Longaví", "tipo": "Compañia", "cut_cia": 741202, "compa__ia": "Segunda de Longavi", "cut_cuerpo": 7412, "direccion": "La Quinta", "telefono": "(73) 411340", "point_x": -71.56191, "point_y": -36.05682, "cut": " ", "tipo_de_vl": " ", "numeraci__": " ", "nombre_de": " ", "comunas_at": " ", "voluntario": 0, "as_2018": 0, "as_2019": 0, "as_2020": 0, "cantidad_m": 0, "actualizad": " ", "esp6": " ", "esp1": " ", "esp5": " ", "esp3": " ", "esp2": " ", "esp4": " ", "esp7": " ", "esp8": " ", "cine_prov": "074", "cod_com": 7403, "cine_com": "07403", "nom_com": "LONGAVÍ", "nom_prov": "LINARES", "nom_reg": "MAULE", "cine_reg": "07", "globalid": "50557dc7-96d7-4da5-a0bb-f4fa5a914deb", "region": "Maule", "provincia": "LINARES", "comuna": "LONGAVÍ" }, "geometry": { "type": "Point", "coordinates": [ -71.56191, -36.05682 ] } }
]
}
