{
"type": "FeatureCollection",
"name": "OSO",
"crs": { "type": "name", "properties": { "name": "urn:ogc:def:crs:OGC:1.3:CRS84" } },
"xy_coordinate_resolution": 1e-05,
"features": [
{ "type": "Feature", "properties": { "objectid_1": 509, "fid_compil": 71, "objectid": 71, "nombre": "Cochamó", "nombre_del": "Cochamó", "tipo": "Cuerpo", "cut_cia": 0, "compa__ia": "Cochamó", "cut_cuerpo": 0, "direccion": "Cochamo S/N", "telefono": " ", "point_x": -72.307674, "point_y": -41.492891, "cut": "10134", "tipo_de_vl": "Avenida", "numeraci__": "S/n", "nombre_de": "Cochamo", "comunas_at": "Cochamo", "voluntario": 78, "as_2018": 141, "as_2019": 99, "as_2020": 102, "cantidad_m": 9, "actualizad": " ", "esp6": " ", "esp1": " ", "esp5": " ", "esp3": " ", "esp2": " ", "esp4": " ", "esp7": " ", "esp8": " ", "cine_prov": "101", "cod_com": 10103, "cine_com": "10103", "nom_com": "COCHAMÓ", "nom_prov": "LLANQUIHUE", "nom_reg": "LOS LAGOS", "cine_reg": "10", "globalid": "bf6685cc-43de-4f04-aba5-6e2dc7d6185d", "region": "Los Lagos", "provincia": "LLANQUIHUE", "comuna": "COCHAMÓ" }, "geometry": { "type": "Point", "coordinates": [ -72.30767, -41.49289 ] } },
{ "type": "Feature", "properties": { "objectid_1": 510, "fid_compil": 1269, "objectid": 1271, "nombre": "Primera de Cochamo", "nombre_del": "Cochamó", "tipo": "Compañia", "cut_cia": 1013401, "compa__ia": "Primera de Cochamo", "cut_cuerpo": 10134, "direccion": "Santiago Bueras S/N", "telefono": "(65) 216216", "point_x": -72.307962, "point_y": -41.49283, "cut": " ", "tipo_de_vl": " ", "numeraci__": " ", "nombre_de": " ", "comunas_at": " ", "voluntario": 0, "as_2018": 0, "as_2019": 0, "as_2020": 0, "cantidad_m": 0, "actualizad": " ", "esp6": " ", "esp1": " ", "esp5": " ", "esp3": " ", "esp2": " ", "esp4": " ", "esp7": " ", "esp8": " ", "cine_prov": "101", "cod_com": 10103, "cine_com": "10103", "nom_com": "COCHAMÓ", "nom_prov": "LLANQUIHUE", "nom_reg": "LOS LAGOS", "cine_reg": "10", "globalid": "dcfd1e83-dcca-4a38-9597-93a63d6c119e", "region": "Los Lagos", "provincia": "LLANQUIHUE", "comuna": "COCHAMÓ" }, "geometry": { "type": "Point", "coordinates": [ -72.30796, -41.49283 ] } },
{ "type": "Feature", "properties": { "objectid_1": 511, "fid_compil": 1270, "objectid": 1272, "nombre": "Segunda de Cochamo", "nombre_del": "Cochamó", "tipo": "Compañia", "cut_cia": 1013402, "compa__ia": "Segunda de Cochamo", "cut_cuerpo": 10134, "direccion": "Av.Cochamo S/N", "telefono": "(65) 216216", "point_x": -72.308966, "point_y": -41.491894, "cut": " ", "tipo_de_vl": " ", "numeraci__": " ", "nombre_de": " ", "comunas_at": " ", "voluntario": 0, "as_2018": 0, "as_2019": 0, "as_2020": 0, "cantidad_m": 0, "actualizad": " ", "esp6": " ", "esp1": " ", "esp5": " ", "esp3": " ", "esp2": " ", "esp4": " ", "esp7": " ", "esp8": " ", "cine_prov": "101", "cod_com": 10103, "cine_com": "10103", "nom_com": "COCHAMÓ", "nom_prov": "LLANQUIHUE", "nom_reg": "LOS LAGOS", "cine_reg": "10", "globalid": "6f738678-3b7b-4fdb-ac4d-0f921d3a585e", "region": "Los Lagos", "provincia": "LLANQUIHUE", "comuna": "COCHAMÓ" }, "geometry": { "type": "Point", "coordinates": [ -72.30897, -41.49189 ] } },
{ "type": "Feature", "properties": { "objectid_1": 513, "fid_compil": 1272, "objectid": 1274, "nombre": "Cuarta de Cochamo", "nombre_del": "Cochamó", "tipo": "Compañia", "cut_cia": 1013404, "compa__ia": "Cuarta de Cochamo", "cut_cuerpo": 10134, "direccion": "Pocoihuen Alto S/N", "telefono": "(65) 216216", "point_x": -72.329933, "point_y": -41.482057, "cut": " ", "tipo_de_vl": " ", "numeraci__": " ", "nombre_de": " ", "comunas_at": " ", "voluntario": 0, "as_2018": 0, "as_2019": 0, "as_2020": 0, "cantidad_m": 0, "actualizad": " ", "esp6": " ", "esp1": " ", "esp5": " ", "esp3": " ", "esp2": " ", "esp4": " ", "esp7": " ", "esp8": " ", "cine_prov": "101", "cod_com": 10103, "cine_com": "10103", "nom_com": "COCHAMÓ", "nom_prov": "LLANQUIHUE", "nom_reg": "LOS LAGOS", "cine_reg": "10", "globalid": "c8b51b6f-02e4-4527-8850-9c6629f029cf", "region": "Los Lagos", "provincia": "LLANQUIHUE", "comuna": "COCHAMÓ" }, "geometry": { "type": "Point", "coordinates": [ -72.32993, -41.48206 ] } },
{ "type": "Feature", "properties": { "objectid_1": 525, "fid_compil": 1364, "objectid": 1366, "nombre": "Novena de Puerto Montt", "nombre_del": "Puerto Montt", "tipo": "Compañia", "cut_cia": 1010109, "compa__ia": "Novena de Puerto Montt", "cut_cuerpo": 10101, "direccion": "Avenida Los Alerces S/N", "telefono": "(65) 252818 65 287110", "point_x": -72.905709, "point_y": -41.396343, "cut": " ", "tipo_de_vl": " ", "numeraci__": " ", "nombre_de": " ", "comunas_at": " ", "voluntario": 0, "as_2018": 0, "as_2019": 0, "as_2020": 0, "cantidad_m": 0, "actualizad": " ", "esp6": " ", "esp1": " ", "esp5": " ", "esp3": " ", "esp2": " ", "esp4": " ", "esp7": " ", "esp8": " ", "cine_prov": "101", "cod_com": 10101, "cine_com": "10101", "nom_com": "PUERTO MONTT", "nom_prov": "LLANQUIHUE", "nom_reg": "LOS LAGOS", "cine_reg": "10", "globalid": "aad47f2d-6e97-42f4-9f06-6a9a74a4234b", "region": "Los Lagos", "provincia": "LLANQUIHUE", "comuna": "PUERTO MONTT" }, "geometry": { "type": "Point", "coordinates": [ -72.90571, -41.39634 ] } },
{ "type": "Feature", "properties": { "objectid_1": 530, "fid_compil": 1271, "objectid": 1273, "nombre": "Tercera de Cochamo", "nombre_del": "Puerto Varas", "tipo": "Compañia", "cut_cia": 1013403, "compa__ia": "Tercera de Cochamo", "cut_cuerpo": 10134, "direccion": "Sector Ralun S/N", "telefono": "(65) 216216", "point_x": -72.286011, "point_y": -41.380284, "cut": " ", "tipo_de_vl": " ", "numeraci__": " ", "nombre_de": " ", "comunas_at": " ", "voluntario": 0, "as_2018": 0, "as_2019": 0, "as_2020": 0, "cantidad_m": 0, "actualizad": " ", "esp6": " ", "esp1": " ", "esp5": " ", "esp3": " ", "esp2": " ", "esp4": " ", "esp7": " ", "esp8": " ", "cine_prov": "101", "cod_com": 10109, "cine_com": "10109", "nom_com": "PUERTO VARAS", "nom_prov": "LLANQUIHUE", "nom_reg": "LOS LAGOS", "cine_reg": "10", "globalid": "5d920ceb-e0f8-48d6-be3e-c524cde1aada", "region": "Los Lagos", "provincia": "LLANQUIHUE", "comuna": "PUERTO VARAS" }, "geometry": { "type": "Point", "coordinates": [ -72.28601, -41.38028 ] } },
{ "type": "Feature", "properties": { "objectid_1": 532, "fid_compil": 1343, "objectid": 1345, "nombre": "Sexta de Puerto Varas", "nombre_del": "Puerto Varas", "tipo": "Compañia", "cut_cia": 1010906, "compa__ia": "Sexta de Puerto Varas", "cut_cuerpo": 10109, "direccion": "Avenida Errazuriz S/N", "telefono": "(65) 233522", "point_x": -72.965453, "point_y": -41.325243, "cut": " ", "tipo_de_vl": " ", "numeraci__": " ", "nombre_de": " ", "comunas_at": " ", "voluntario": 0, "as_2018": 0, "as_2019": 0, "as_2020": 0, "cantidad_m": 0, "actualizad": " ", "esp6": " ", "esp1": " ", "esp5": " ", "esp3": " ", "esp2": " ", "esp4": " ", "esp7": " ", "esp8": " ", "cine_prov": "101", "cod_com": 10109, "cine_com": "10109", "nom_com": "PUERTO VARAS", "nom_prov": "LLANQUIHUE", "nom_reg": "LOS LAGOS", "cine_reg": "10", "globalid": "85eb7d8e-d887-4008-815a-2b18243347e1", "region": "Los Lagos", "provincia": "LLANQUIHUE", "comuna": "PUERTO VARAS" }, "geometry": { "type": "Point", "coordinates": [ -72.96545, -41.32524 ] } },
{ "type": "Feature", "properties": { "objectid_1": 533, "fid_compil": 1341, "objectid": 1343, "nombre": "Tercera de Puerto Varas", "nombre_del": "Puerto Varas", "tipo": "Compañia", "cut_cia": 1010903, "compa__ia": "Tercera de Puerto Varas", "cut_cuerpo": 10109, "direccion": "Calle la Quebrada S/N", "telefono": "(65) 233522", "point_x": -72.98145, "point_y": -41.318801, "cut": " ", "tipo_de_vl": " ", "numeraci__": " ", "nombre_de": " ", "comunas_at": " ", "voluntario": 0, "as_2018": 0, "as_2019": 0, "as_2020": 0, "cantidad_m": 0, "actualizad": " ", "esp6": " ", "esp1": " ", "esp5": " ", "esp3": " ", "esp2": " ", "esp4": " ", "esp7": " ", "esp8": " ", "cine_prov": "101", "cod_com": 10109, "cine_com": "10109", "nom_com": "PUERTO VARAS", "nom_prov": "LLANQUIHUE", "nom_reg": "LOS LAGOS", "cine_reg": "10", "globalid": "0940f8d4-eaff-4336-ba1f-36fb8edefb66", "region": "Los Lagos", "provincia": "LLANQUIHUE", "comuna": "PUERTO VARAS" }, "geometry": { "type": "Point", "coordinates": [ -72.98145, -41.3188 ] } },
{ "type": "Feature", "properties": { "objectid_1": 534, "fid_compil": 243, "objectid": 245, "nombre": "Puerto Varas", "nombre_del": "Puerto Varas", "tipo": "Cuerpo", "cut_cia": 0, "compa__ia": "Puerto Varas", "cut_cuerpo": 0, "direccion": "Bernardo O'Higgins 220", "telefono": " ", "point_x": -72.984871, "point_y": -41.318488, "cut": "10111", "tipo_de_vl": "Calle", "numeraci__": "601", "nombre_de": "San Francisco", "comunas_at": "Puerto Varas", "voluntario": 46, "as_2018": 50, "as_2019": 98, "as_2020": 120, "cantidad_m": 4, "actualizad": " ", "esp6": " ", "esp1": " ", "esp5": " ", "esp3": " ", "esp2": " ", "esp4": " ", "esp7": " ", "esp8": " ", "cine_prov": "101", "cod_com": 10109, "cine_com": "10109", "nom_com": "PUERTO VARAS", "nom_prov": "LLANQUIHUE", "nom_reg": "LOS LAGOS", "cine_reg": "10", "globalid": "dd43f0fd-204a-4fb4-9ed3-b3de3b264e52", "region": "Los Lagos", "provincia": "LLANQUIHUE", "comuna": "PUERTO VARAS" }, "geometry": { "type": "Point", "coordinates": [ -72.98487, -41.31849 ] } },
{ "type": "Feature", "properties": { "objectid_1": 535, "fid_compil": 1340, "objectid": 1342, "nombre": "Segunda de Puerto Varas", "nombre_del": "Puerto Varas", "tipo": "Compañia", "cut_cia": 1010902, "compa__ia": "Segunda de Puerto Varas", "cut_cuerpo": 10109, "direccion": "San Francisco 601", "telefono": "(65) 233522", "point_x": -72.98203, "point_y": -41.314433, "cut": " ", "tipo_de_vl": " ", "numeraci__": " ", "nombre_de": " ", "comunas_at": " ", "voluntario": 0, "as_2018": 0, "as_2019": 0, "as_2020": 0, "cantidad_m": 0, "actualizad": " ", "esp6": " ", "esp1": " ", "esp5": " ", "esp3": " ", "esp2": " ", "esp4": " ", "esp7": " ", "esp8": " ", "cine_prov": "101", "cod_com": 10109, "cine_com": "10109", "nom_com": "PUERTO VARAS", "nom_prov": "LLANQUIHUE", "nom_reg": "LOS LAGOS", "cine_reg": "10", "globalid": "45817e49-c249-43b1-a022-8c8c08e1a876", "region": "Los Lagos", "provincia": "LLANQUIHUE", "comuna": "PUERTO VARAS" }, "geometry": { "type": "Point", "coordinates": [ -72.98203, -41.31443 ] } },
{ "type": "Feature", "properties": { "objectid_1": 536, "fid_compil": 1339, "objectid": 1341, "nombre": "Primera de Puerto Varas", "nombre_del": "Puerto Varas", "tipo": "Compañia", "cut_cia": 1010901, "compa__ia": "Primera de Puerto Varas", "cut_cuerpo": 10109, "direccion": "San Francisco 601", "telefono": "(65) 233522", "point_x": -72.982021, "point_y": -41.314355, "cut": " ", "tipo_de_vl": " ", "numeraci__": " ", "nombre_de": " ", "comunas_at": " ", "voluntario": 0, "as_2018": 0, "as_2019": 0, "as_2020": 0, "cantidad_m": 0, "actualizad": " ", "esp6": " ", "esp1": " ", "esp5": " ", "esp3": " ", "esp2": " ", "esp4": " ", "esp7": " ", "esp8": " ", "cine_prov": "101", "cod_com": 10109, "cine_com": "10109", "nom_com": "PUERTO VARAS", "nom_prov": "LLANQUIHUE", "nom_reg": "LOS LAGOS", "cine_reg": "10", "globalid": "708a35b9-6ea0-4b15-a4de-03068a291e85", "region": "Los Lagos", "provincia": "LLANQUIHUE", "comuna": "PUERTO VARAS" }, "geometry": { "type": "Point", "coordinates": [ -72.98202, -41.31436 ] } },
{ "type": "Feature", "properties": { "objectid_1": 539, "fid_compil": 1313, "objectid": 1315, "nombre": "Cuarta de Llanquihue", "nombre_del": "Llanquihue", "tipo": "Compañia", "cut_cia": 1011704, "compa__ia": "Cuarta de Llanquihue", "cut_cuerpo": 10117, "direccion": "Diego Portales S/N", "telefono": "(65) 242777 - 242349", "point_x": -73.000028, "point_y": -41.268529, "cut": " ", "tipo_de_vl": " ", "numeraci__": " ", "nombre_de": " ", "comunas_at": " ", "voluntario": 0, "as_2018": 0, "as_2019": 0, "as_2020": 0, "cantidad_m": 0, "actualizad": " ", "esp6": " ", "esp1": " ", "esp5": " ", "esp3": " ", "esp2": " ", "esp4": " ", "esp7": " ", "esp8": " ", "cine_prov": "101", "cod_com": 10107, "cine_com": "10107", "nom_com": "LLANQUIHUE", "nom_prov": "LLANQUIHUE", "nom_reg": "LOS LAGOS", "cine_reg": "10", "globalid": "f21c580a-6386-41d4-9328-7816a17f5f3f", "region": "Los Lagos", "provincia": "LLANQUIHUE", "comuna": "LLANQUIHUE" }, "geometry": { "type": "Point", "coordinates": [ -73.00003, -41.26853 ] } },
{ "type": "Feature", "properties": { "objectid_1": 540, "fid_compil": 1312, "objectid": 1314, "nombre": "Tercera de Llanquihue", "nombre_del": "Llanquihue", "tipo": "Compañia", "cut_cia": 1011703, "compa__ia": "Tercera de Llanquihue", "cut_cuerpo": 10117, "direccion": "Vicente Perez Rosales 140", "telefono": "(65) 242777 - 242349", "point_x": -73.003773, "point_y": -41.259215, "cut": " ", "tipo_de_vl": " ", "numeraci__": " ", "nombre_de": " ", "comunas_at": " ", "voluntario": 0, "as_2018": 0, "as_2019": 0, "as_2020": 0, "cantidad_m": 0, "actualizad": " ", "esp6": " ", "esp1": " ", "esp5": " ", "esp3": " ", "esp2": " ", "esp4": " ", "esp7": " ", "esp8": " ", "cine_prov": "101", "cod_com": 10107, "cine_com": "10107", "nom_com": "LLANQUIHUE", "nom_prov": "LLANQUIHUE", "nom_reg": "LOS LAGOS", "cine_reg": "10", "globalid": "820cedb8-be25-4fa6-833f-efbf6aee5391", "region": "Los Lagos", "provincia": "LLANQUIHUE", "comuna": "LLANQUIHUE" }, "geometry": { "type": "Point", "coordinates": [ -73.00377, -41.25922 ] } },
{ "type": "Feature", "properties": { "objectid_1": 541, "fid_compil": 1311, "objectid": 1313, "nombre": "Segunda de Llanquihue", "nombre_del": "Llanquihue", "tipo": "Compañia", "cut_cia": 1011702, "compa__ia": "Segunda de Llanquihue", "cut_cuerpo": 10117, "direccion": "Vicente Perez Rosales 102", "telefono": "(65) 242777 - 242349", "point_x": -73.003986, "point_y": -41.258931, "cut": " ", "tipo_de_vl": " ", "numeraci__": " ", "nombre_de": " ", "comunas_at": " ", "voluntario": 0, "as_2018": 0, "as_2019": 0, "as_2020": 0, "cantidad_m": 0, "actualizad": " ", "esp6": " ", "esp1": " ", "esp5": " ", "esp3": " ", "esp2": " ", "esp4": " ", "esp7": " ", "esp8": " ", "cine_prov": "101", "cod_com": 10107, "cine_com": "10107", "nom_com": "LLANQUIHUE", "nom_prov": "LLANQUIHUE", "nom_reg": "LOS LAGOS", "cine_reg": "10", "globalid": "100b9beb-14ba-41ba-adbb-55ae045e5695", "region": "Los Lagos", "provincia": "LLANQUIHUE", "comuna": "LLANQUIHUE" }, "geometry": { "type": "Point", "coordinates": [ -73.00399, -41.25893 ] } },
{ "type": "Feature", "properties": { "objectid_1": 542, "fid_compil": 159, "objectid": 159, "nombre": "Llanquihue", "nombre_del": "Llanquihue", "tipo": "Cuerpo", "cut_cia": 0, "compa__ia": "Llanquihue", "cut_cuerpo": 0, "direccion": "Baquedano 1001", "telefono": " ", "point_x": -73.007387, "point_y": -41.253148, "cut": "10117", "tipo_de_vl": "Avenida", "numeraci__": "1001", "nombre_de": "Baquedano", "comunas_at": "Llanquihue", "voluntario": 185, "as_2018": 443, "as_2019": 595, "as_2020": 540, "cantidad_m": 14, "actualizad": " ", "esp6": " ", "esp1": " ", "esp5": " ", "esp3": " ", "esp2": " ", "esp4": " ", "esp7": " ", "esp8": " ", "cine_prov": "101", "cod_com": 10107, "cine_com": "10107", "nom_com": "LLANQUIHUE", "nom_prov": "LLANQUIHUE", "nom_reg": "LOS LAGOS", "cine_reg": "10", "globalid": "068f88d4-7a36-4096-9a3f-305fb674fc06", "region": "Los Lagos", "provincia": "LLANQUIHUE", "comuna": "LLANQUIHUE" }, "geometry": { "type": "Point", "coordinates": [ -73.00739, -41.25315 ] } },
{ "type": "Feature", "properties": { "objectid_1": 543, "fid_compil": 1310, "objectid": 1312, "nombre": "Primera de Llanquihue", "nombre_del": "Llanquihue", "tipo": "Compañia", "cut_cia": 1011701, "compa__ia": "Primera de Llanquihue", "cut_cuerpo": 10117, "direccion": "Baquedano1001", "telefono": "(65) 242777 - 242349", "point_x": -73.007346, "point_y": -41.253028, "cut": " ", "tipo_de_vl": " ", "numeraci__": " ", "nombre_de": " ", "comunas_at": " ", "voluntario": 0, "as_2018": 0, "as_2019": 0, "as_2020": 0, "cantidad_m": 0, "actualizad": " ", "esp6": " ", "esp1": " ", "esp5": " ", "esp3": " ", "esp2": " ", "esp4": " ", "esp7": " ", "esp8": " ", "cine_prov": "101", "cod_com": 10107, "cine_com": "10107", "nom_com": "LLANQUIHUE", "nom_prov": "LLANQUIHUE", "nom_reg": "LOS LAGOS", "cine_reg": "10", "globalid": "4ae9419f-b496-4e86-bfba-51cf4aebd5a2", "region": "Los Lagos", "provincia": "LLANQUIHUE", "comuna": "LLANQUIHUE" }, "geometry": { "type": "Point", "coordinates": [ -73.00735, -41.25303 ] } },
{ "type": "Feature", "properties": { "objectid_1": 545, "fid_compil": 1314, "objectid": 1316, "nombre": "Quinta de llanquihue", "nombre_del": "Llanquihue", "tipo": "Compañia", "cut_cia": 1011705, "compa__ia": "Quinta de llanquihue", "cut_cuerpo": 10117, "direccion": "Los Carreras S/N", "telefono": "(65) 242777 - 242349", "point_x": -73.067634, "point_y": -41.189632, "cut": " ", "tipo_de_vl": " ", "numeraci__": " ", "nombre_de": " ", "comunas_at": " ", "voluntario": 0, "as_2018": 0, "as_2019": 0, "as_2020": 0, "cantidad_m": 0, "actualizad": " ", "esp6": " ", "esp1": " ", "esp5": " ", "esp3": " ", "esp2": " ", "esp4": " ", "esp7": " ", "esp8": " ", "cine_prov": "101", "cod_com": 10107, "cine_com": "10107", "nom_com": "LLANQUIHUE", "nom_prov": "LLANQUIHUE", "nom_reg": "LOS LAGOS", "cine_reg": "10", "globalid": "a1e0a3c5-97aa-4962-a913-48f7d105ca76", "region": "Los Lagos", "provincia": "LLANQUIHUE", "comuna": "LLANQUIHUE" }, "geometry": { "type": "Point", "coordinates": [ -73.06763, -41.18963 ] } },
{ "type": "Feature", "properties": { "objectid_1": 549, "fid_compil": 118, "objectid": 118, "nombre": "Frutillar", "nombre_del": "Frutillar", "tipo": "Cuerpo", "cut_cia": 0, "compa__ia": "Frutillar", "cut_cuerpo": 0, "direccion": "Philippi 1065", "telefono": " ", "point_x": -73.026278, "point_y": -41.13969, "cut": "10114", "tipo_de_vl": "Avenida", "numeraci__": "1065", "nombre_de": "Philippi", "comunas_at": "Frutillar", "voluntario": 173, "as_2018": 204, "as_2019": 198, "as_2020": 142, "cantidad_m": 13, "actualizad": " ", "esp6": " ", "esp1": " ", "esp5": " ", "esp3": " ", "esp2": " ", "esp4": " ", "esp7": " ", "esp8": " ", "cine_prov": "101", "cod_com": 10105, "cine_com": "10105", "nom_com": "FRUTILLAR", "nom_prov": "LLANQUIHUE", "nom_reg": "LOS LAGOS", "cine_reg": "10", "globalid": "100eddb7-b73d-47ad-b3a3-a8a8fdf87240", "region": "Los Lagos", "provincia": "LLANQUIHUE", "comuna": "FRUTILLAR" }, "geometry": { "type": "Point", "coordinates": [ -73.02628, -41.13969 ] } },
{ "type": "Feature", "properties": { "objectid_1": 550, "fid_compil": 1289, "objectid": 1291, "nombre": "Primera de Frutillar", "nombre_del": "Frutillar", "tipo": "Compañia", "cut_cia": 1011401, "compa__ia": "Primera de Frutillar", "cut_cuerpo": 10114, "direccion": "Avenida Phiippi 1065", "telefono": "(65) 421411 - 421588", "point_x": -73.02649, "point_y": -41.139397, "cut": " ", "tipo_de_vl": " ", "numeraci__": " ", "nombre_de": " ", "comunas_at": " ", "voluntario": 0, "as_2018": 0, "as_2019": 0, "as_2020": 0, "cantidad_m": 0, "actualizad": " ", "esp6": " ", "esp1": " ", "esp5": " ", "esp3": " ", "esp2": " ", "esp4": " ", "esp7": " ", "esp8": " ", "cine_prov": "101", "cod_com": 10105, "cine_com": "10105", "nom_com": "FRUTILLAR", "nom_prov": "LLANQUIHUE", "nom_reg": "LOS LAGOS", "cine_reg": "10", "globalid": "21e790c4-fea0-4fa1-aa14-d63c14518a9b", "region": "Los Lagos", "provincia": "LLANQUIHUE", "comuna": "FRUTILLAR" }, "geometry": { "type": "Point", "coordinates": [ -73.02649, -41.1394 ] } },
{ "type": "Feature", "properties": { "objectid_1": 551, "fid_compil": 1290, "objectid": 1292, "nombre": "Segunda de Frutillar", "nombre_del": "Frutillar", "tipo": "Compañia", "cut_cia": 1011402, "compa__ia": "Segunda de Frutillar", "cut_cuerpo": 10114, "direccion": "Antonio Varas 53", "telefono": "(65) 421411 - 421588", "point_x": -73.027887, "point_y": -41.138521, "cut": " ", "tipo_de_vl": " ", "numeraci__": " ", "nombre_de": " ", "comunas_at": " ", "voluntario": 0, "as_2018": 0, "as_2019": 0, "as_2020": 0, "cantidad_m": 0, "actualizad": " ", "esp6": " ", "esp1": " ", "esp5": " ", "esp3": " ", "esp2": " ", "esp4": " ", "esp7": " ", "esp8": " ", "cine_prov": "101", "cod_com": 10105, "cine_com": "10105", "nom_com": "FRUTILLAR", "nom_prov": "LLANQUIHUE", "nom_reg": "LOS LAGOS", "cine_reg": "10", "globalid": "f793d2da-7b44-4bc5-b3fb-ad19f2022a53", "region": "Los Lagos", "provincia": "LLANQUIHUE", "comuna": "FRUTILLAR" }, "geometry": { "type": "Point", "coordinates": [ -73.02789, -41.13852 ] } },
{ "type": "Feature", "properties": { "objectid_1": 552, "fid_compil": 1291, "objectid": 1293, "nombre": "Tercera de Frutillar", "nombre_del": "Frutillar", "tipo": "Compañia", "cut_cia": 1011403, "compa__ia": "Tercera de Frutillar", "cut_cuerpo": 10114, "direccion": "Pedro Montt 286", "telefono": "(65) 421411 - 421588", "point_x": -73.05712, "point_y": -41.125378, "cut": " ", "tipo_de_vl": " ", "numeraci__": " ", "nombre_de": " ", "comunas_at": " ", "voluntario": 0, "as_2018": 0, "as_2019": 0, "as_2020": 0, "cantidad_m": 0, "actualizad": " ", "esp6": " ", "esp1": " ", "esp5": " ", "esp3": " ", "esp2": " ", "esp4": " ", "esp7": " ", "esp8": " ", "cine_prov": "101", "cod_com": 10105, "cine_com": "10105", "nom_com": "FRUTILLAR", "nom_prov": "LLANQUIHUE", "nom_reg": "LOS LAGOS", "cine_reg": "10", "globalid": "cd52d410-3ba9-4d18-9c5f-ba54b50646dd", "region": "Los Lagos", "provincia": "LLANQUIHUE", "comuna": "FRUTILLAR" }, "geometry": { "type": "Point", "coordinates": [ -73.05712, -41.12538 ] } },
{ "type": "Feature", "properties": { "objectid_1": 553, "fid_compil": 150, "objectid": 150, "nombre": "Las Cascadas", "nombre_del": "Las Cascadas", "tipo": "Cuerpo", "cut_cia": 0, "compa__ia": "Las Cascadas", "cut_cuerpo": 0, "direccion": "Casilla 313", "telefono": " ", "point_x": -72.638829, "point_y": -41.081073, "cut": "10327", "tipo_de_vl": " ", "numeraci__": "313", "nombre_de": "Casilla", "comunas_at": "Puerto Octay", "voluntario": 20, "as_2018": 105, "as_2019": 107, "as_2020": 102, "cantidad_m": 4, "actualizad": " ", "esp6": " ", "esp1": " ", "esp5": " ", "esp3": " ", "esp2": " ", "esp4": " ", "esp7": " ", "esp8": " ", "cine_prov": "103", "cod_com": 10302, "cine_com": "10302", "nom_com": "PUERTO OCTAY", "nom_prov": "OSORNO", "nom_reg": "LOS LAGOS", "cine_reg": "10", "globalid": "aee4017d-1a4f-470f-b864-1a73f590019e", "region": "Los Lagos", "provincia": "OSORNO", "comuna": "PUERTO OCTAY" }, "geometry": { "type": "Point", "coordinates": [ -72.63883, -41.08107 ] } },
{ "type": "Feature", "properties": { "objectid_1": 554, "fid_compil": 1309, "objectid": 1311, "nombre": "Primera de Las Cascadas", "nombre_del": "Puerto Octay", "tipo": "Compañia", "cut_cia": 1032701, "compa__ia": "Primera de Las Cascadas", "cut_cuerpo": 10327, "direccion": "Vicente Perez Rosales 159", "telefono": "(64) 326232 - 210746", "point_x": -72.63876, "point_y": -41.07819, "cut": " ", "tipo_de_vl": " ", "numeraci__": " ", "nombre_de": " ", "comunas_at": " ", "voluntario": 0, "as_2018": 0, "as_2019": 0, "as_2020": 0, "cantidad_m": 0, "actualizad": " ", "esp6": " ", "esp1": " ", "esp5": " ", "esp3": " ", "esp2": " ", "esp4": " ", "esp7": " ", "esp8": " ", "cine_prov": "103", "cod_com": 10302, "cine_com": "10302", "nom_com": "PUERTO OCTAY", "nom_prov": "OSORNO", "nom_reg": "LOS LAGOS", "cine_reg": "10", "globalid": "6935322b-7729-405a-ad67-e6effdbe67e3", "region": "Los Lagos", "provincia": "OSORNO", "comuna": "PUERTO OCTAY" }, "geometry": { "type": "Point", "coordinates": [ -72.63876, -41.07819 ] } },
{ "type": "Feature", "properties": { "objectid_1": 555, "fid_compil": 1292, "objectid": 1294, "nombre": "Cuarta de Frutillar", "nombre_del": "Frutillar", "tipo": "Compañia", "cut_cia": 1011404, "compa__ia": "Cuarta de Frutillar", "cut_cuerpo": 10114, "direccion": "Los Bajos S/N", "telefono": "(65) 421411 - 421588", "point_x": -72.930966, "point_y": -41.069481, "cut": " ", "tipo_de_vl": " ", "numeraci__": " ", "nombre_de": " ", "comunas_at": " ", "voluntario": 0, "as_2018": 0, "as_2019": 0, "as_2020": 0, "cantidad_m": 0, "actualizad": " ", "esp6": " ", "esp1": " ", "esp5": " ", "esp3": " ", "esp2": " ", "esp4": " ", "esp7": " ", "esp8": " ", "cine_prov": "101", "cod_com": 10105, "cine_com": "10105", "nom_com": "FRUTILLAR", "nom_prov": "LLANQUIHUE", "nom_reg": "LOS LAGOS", "cine_reg": "10", "globalid": "3075c1d8-c5dd-408d-a2a9-6d95dcf5dd3c", "region": "Los Lagos", "provincia": "LLANQUIHUE", "comuna": "FRUTILLAR" }, "geometry": { "type": "Point", "coordinates": [ -72.93097, -41.06948 ] } },
{ "type": "Feature", "properties": { "objectid_1": 557, "fid_compil": 1294, "objectid": 1296, "nombre": "Sexta de Frutillar", "nombre_del": "Frutillar", "tipo": "Compañia", "cut_cia": 1011406, "compa__ia": "Sexta de Frutillar", "cut_cuerpo": 10114, "direccion": "Quilanto KM 16", "telefono": "(65) 421411 - 421588", "point_x": -72.940252, "point_y": -41.022635, "cut": " ", "tipo_de_vl": " ", "numeraci__": " ", "nombre_de": " ", "comunas_at": " ", "voluntario": 0, "as_2018": 0, "as_2019": 0, "as_2020": 0, "cantidad_m": 0, "actualizad": " ", "esp6": " ", "esp1": " ", "esp5": " ", "esp3": " ", "esp2": " ", "esp4": " ", "esp7": " ", "esp8": " ", "cine_prov": "101", "cod_com": 10105, "cine_com": "10105", "nom_com": "FRUTILLAR", "nom_prov": "LLANQUIHUE", "nom_reg": "LOS LAGOS", "cine_reg": "10", "globalid": "439eba53-d3a0-48e5-b049-f716a368864b", "region": "Los Lagos", "provincia": "LLANQUIHUE", "comuna": "FRUTILLAR" }, "geometry": { "type": "Point", "coordinates": [ -72.94025, -41.02263 ] } },
{ "type": "Feature", "properties": { "objectid_1": 559, "fid_compil": 240, "objectid": 242, "nombre": "Puerto Octay", "nombre_del": "Puerto Octay", "tipo": "Cuerpo", "cut_cia": 0, "compa__ia": "Puerto Octay", "cut_cuerpo": 0, "direccion": "Bernardo Phillipi 80", "telefono": " ", "point_x": -72.8834, "point_y": -40.974354, "cut": "10309", "tipo_de_vl": " ", "numeraci__": "507", "nombre_de": "Pedro Montt", "comunas_at": "Puerto Octay", "voluntario": 105, "as_2018": 115, "as_2019": 120, "as_2020": 1, "cantidad_m": 6, "actualizad": " ", "esp6": " ", "esp1": " ", "esp5": " ", "esp3": " ", "esp2": " ", "esp4": " ", "esp7": " ", "esp8": " ", "cine_prov": "103", "cod_com": 10302, "cine_com": "10302", "nom_com": "PUERTO OCTAY", "nom_prov": "OSORNO", "nom_reg": "LOS LAGOS", "cine_reg": "10", "globalid": "bc9ef1d4-29e5-4593-a0a1-e261423f737a", "region": "Los Lagos", "provincia": "OSORNO", "comuna": "PUERTO OCTAY" }, "geometry": { "type": "Point", "coordinates": [ -72.8834, -40.97435 ] } },
{ "type": "Feature", "properties": { "objectid_1": 560, "fid_compil": 1386, "objectid": 1388, "nombre": "Segunda de Puerto Octay", "nombre_del": "Puerto Octay", "tipo": "Compañia", "cut_cia": 1030202, "compa__ia": "Segunda de Puerto Octay", "cut_cuerpo": 10302, "direccion": "Pedro Montt 507", "telefono": "(64) 391222", "point_x": -72.883029, "point_y": -40.972989, "cut": " ", "tipo_de_vl": " ", "numeraci__": " ", "nombre_de": " ", "comunas_at": " ", "voluntario": 0, "as_2018": 0, "as_2019": 0, "as_2020": 0, "cantidad_m": 0, "actualizad": " ", "esp6": " ", "esp1": " ", "esp5": " ", "esp3": " ", "esp2": " ", "esp4": " ", "esp7": " ", "esp8": " ", "cine_prov": "103", "cod_com": 10302, "cine_com": "10302", "nom_com": "PUERTO OCTAY", "nom_prov": "OSORNO", "nom_reg": "LOS LAGOS", "cine_reg": "10", "globalid": "a8811002-4255-4b97-8606-1a21c990da57", "region": "Los Lagos", "provincia": "OSORNO", "comuna": "PUERTO OCTAY" }, "geometry": { "type": "Point", "coordinates": [ -72.88303, -40.97299 ] } },
{ "type": "Feature", "properties": { "objectid_1": 561, "fid_compil": 1385, "objectid": 1387, "nombre": "Primera de Puerto Octay", "nombre_del": "Puerto Octay", "tipo": "Compañia", "cut_cia": 1030201, "compa__ia": "Primera de Puerto Octay", "cut_cuerpo": 10302, "direccion": "Pedro Montt 507", "telefono": "(64) 391222", "point_x": -72.88309, "point_y": -40.972924, "cut": " ", "tipo_de_vl": " ", "numeraci__": " ", "nombre_de": " ", "comunas_at": " ", "voluntario": 0, "as_2018": 0, "as_2019": 0, "as_2020": 0, "cantidad_m": 0, "actualizad": " ", "esp6": " ", "esp1": " ", "esp5": " ", "esp3": " ", "esp2": " ", "esp4": " ", "esp7": " ", "esp8": " ", "cine_prov": "103", "cod_com": 10302, "cine_com": "10302", "nom_com": "PUERTO OCTAY", "nom_prov": "OSORNO", "nom_reg": "LOS LAGOS", "cine_reg": "10", "globalid": "7679daf1-d94b-4e9c-bff5-14bbe3509bcc", "region": "Los Lagos", "provincia": "OSORNO", "comuna": "PUERTO OCTAY" }, "geometry": { "type": "Point", "coordinates": [ -72.88309, -40.97292 ] } },
{ "type": "Feature", "properties": { "objectid_1": 570, "fid_compil": 1415, "objectid": 1417, "nombre": "Tercera de Puerto Octay", "nombre_del": "Puerto Octay", "tipo": "Compañia", "cut_cia": 1030203, "compa__ia": "Tercera de Puerto Octay", "cut_cuerpo": 10302, "direccion": "Administracion Rupamco", "telefono": " ", "point_x": -72.892, "point_y": -40.831067, "cut": " ", "tipo_de_vl": " ", "numeraci__": " ", "nombre_de": " ", "comunas_at": " ", "voluntario": 0, "as_2018": 0, "as_2019": 0, "as_2020": 0, "cantidad_m": 0, "actualizad": " ", "esp6": " ", "esp1": " ", "esp5": " ", "esp3": " ", "esp2": " ", "esp4": " ", "esp7": " ", "esp8": " ", "cine_prov": "103", "cod_com": 10302, "cine_com": "10302", "nom_com": "PUERTO OCTAY", "nom_prov": "OSORNO", "nom_reg": "LOS LAGOS", "cine_reg": "10", "globalid": "77ada690-d5b1-444b-aa4c-aaeecbf7a72b", "region": "Los Lagos", "provincia": "OSORNO", "comuna": "PUERTO OCTAY" }, "geometry": { "type": "Point", "coordinates": [ -72.892, -40.83107 ] } },
{ "type": "Feature", "properties": { "objectid_1": 577, "fid_compil": 1283, "objectid": 1285, "nombre": "Segunda de Entre Lagos", "nombre_del": "Puyehue", "tipo": "Compañia", "cut_cia": 1032502, "compa__ia": "Segunda de Entre Lagos", "cut_cuerpo": 10325, "direccion": "Lord Cochrane S/N", "telefono": "(64) 371222 - 371265", "point_x": -72.59572, "point_y": -40.684376, "cut": " ", "tipo_de_vl": " ", "numeraci__": " ", "nombre_de": " ", "comunas_at": " ", "voluntario": 0, "as_2018": 0, "as_2019": 0, "as_2020": 0, "cantidad_m": 0, "actualizad": " ", "esp6": " ", "esp1": " ", "esp5": " ", "esp3": " ", "esp2": " ", "esp4": " ", "esp7": " ", "esp8": " ", "cine_prov": "103", "cod_com": 10304, "cine_com": "10304", "nom_com": "PUYEHUE", "nom_prov": "OSORNO", "nom_reg": "LOS LAGOS", "cine_reg": "10", "globalid": "6447fd5f-686b-4117-8fd1-16f255941bb7", "region": "Los Lagos", "provincia": "OSORNO", "comuna": "PUYEHUE" }, "geometry": { "type": "Point", "coordinates": [ -72.59572, -40.68438 ] } },
{ "type": "Feature", "properties": { "objectid_1": 578, "fid_compil": 1282, "objectid": 1284, "nombre": "Primera de Entre Lagos", "nombre_del": "Puyehue", "tipo": "Compañia", "cut_cia": 1032501, "compa__ia": "Primera de Entre Lagos", "cut_cuerpo": 10325, "direccion": "Lord Cochrane S/N", "telefono": "(64) 371222 - 371265", "point_x": -72.595808, "point_y": -40.684241, "cut": " ", "tipo_de_vl": " ", "numeraci__": " ", "nombre_de": " ", "comunas_at": " ", "voluntario": 0, "as_2018": 0, "as_2019": 0, "as_2020": 0, "cantidad_m": 0, "actualizad": " ", "esp6": " ", "esp1": " ", "esp5": " ", "esp3": " ", "esp2": " ", "esp4": " ", "esp7": " ", "esp8": " ", "cine_prov": "103", "cod_com": 10304, "cine_com": "10304", "nom_com": "PUYEHUE", "nom_prov": "OSORNO", "nom_reg": "LOS LAGOS", "cine_reg": "10", "globalid": "b48a4d95-fb84-45ef-9c33-ab9ae84447f4", "region": "Los Lagos", "provincia": "OSORNO", "comuna": "PUYEHUE" }, "geometry": { "type": "Point", "coordinates": [ -72.59581, -40.68424 ] } },
{ "type": "Feature", "properties": { "objectid_1": 579, "fid_compil": 112, "objectid": 112, "nombre": "Entre Lagos", "nombre_del": "Entre Lagos", "tipo": "Cuerpo", "cut_cia": 0, "compa__ia": "Entre Lagos", "cut_cuerpo": 0, "direccion": "Lord Cochrane S/N", "telefono": " ", "point_x": -72.596133, "point_y": -40.683635, "cut": "10325", "tipo_de_vl": " ", "numeraci__": "S/n", "nombre_de": "Lord Cochrane", "comunas_at": "Puyehue", "voluntario": 70, "as_2018": 172, "as_2019": 102, "as_2020": 76, "cantidad_m": 5, "actualizad": " ", "esp6": " ", "esp1": " ", "esp5": " ", "esp3": " ", "esp2": " ", "esp4": " ", "esp7": " ", "esp8": " ", "cine_prov": "103", "cod_com": 10304, "cine_com": "10304", "nom_com": "PUYEHUE", "nom_prov": "OSORNO", "nom_reg": "LOS LAGOS", "cine_reg": "10", "globalid": "a689da3b-10ec-49af-8193-de1c6c87673c", "region": "Los Lagos", "provincia": "OSORNO", "comuna": "PUYEHUE" }, "geometry": { "type": "Point", "coordinates": [ -72.59613, -40.68363 ] } }
]
}
