{
"type": "FeatureCollection",
"name": "PCC",
"crs": { "type": "name", "properties": { "name": "urn:ogc:def:crs:OGC:1.3:CRS84" } },
"xy_coordinate_resolution": 1e-05,
"features": [
{ "type": "Feature", "properties": { "objectid_1": 577, "fid_compil": 1283, "objectid": 1285, "nombre": "Segunda de Entre Lagos", "nombre_del": "Puyehue", "tipo": "Compañia", "cut_cia": 1032502, "compa__ia": "Segunda de Entre Lagos", "cut_cuerpo": 10325, "direccion": "Lord Cochrane S/N", "telefono": "(64) 371222 - 371265", "point_x": -72.59572, "point_y": -40.684376, "cut": " ", "tipo_de_vl": " ", "numeraci__": " ", "nombre_de": " ", "comunas_at": " ", "voluntario": 0, "as_2018": 0, "as_2019": 0, "as_2020": 0, "cantidad_m": 0, "actualizad": " ", "esp6": " ", "esp1": " ", "esp5": " ", "esp3": " ", "esp2": " ", "esp4": " ", "esp7": " ", "esp8": " ", "cine_prov": "103", "cod_com": 10304, "cine_com": "10304", "nom_com": "PUYEHUE", "nom_prov": "OSORNO", "nom_reg": "LOS LAGOS", "cine_reg": "10", "globalid": "6447fd5f-686b-4117-8fd1-16f255941bb7", "region": "Los Lagos", "provincia": "OSORNO", "comuna": "PUYEHUE" }, "geometry": { "type": "Point", "coordinates": [ -72.59572, -40.68438 ] } },
{ "type": "Feature", "properties": { "objectid_1": 578, "fid_compil": 1282, "objectid": 1284, "nombre": "Primera de Entre Lagos", "nombre_del": "Puyehue", "tipo": "Compañia", "cut_cia": 1032501, "compa__ia": "Primera de Entre Lagos", "cut_cuerpo": 10325, "direccion": "Lord Cochrane S/N", "telefono": "(64) 371222 - 371265", "point_x": -72.595808, "point_y": -40.684241, "cut": " ", "tipo_de_vl": " ", "numeraci__": " ", "nombre_de": " ", "comunas_at": " ", "voluntario": 0, "as_2018": 0, "as_2019": 0, "as_2020": 0, "cantidad_m": 0, "actualizad": " ", "esp6": " ", "esp1": " ", "esp5": " ", "esp3": " ", "esp2": " ", "esp4": " ", "esp7": " ", "esp8": " ", "cine_prov": "103", "cod_com": 10304, "cine_com": "10304", "nom_com": "PUYEHUE", "nom_prov": "OSORNO", "nom_reg": "LOS LAGOS", "cine_reg": "10", "globalid": "b48a4d95-fb84-45ef-9c33-ab9ae84447f4", "region": "Los Lagos", "provincia": "OSORNO", "comuna": "PUYEHUE" }, "geometry": { "type": "Point", "coordinates": [ -72.59581, -40.68424 ] } },
{ "type": "Feature", "properties": { "objectid_1": 579, "fid_compil": 112, "objectid": 112, "nombre": "Entre Lagos", "nombre_del": "Entre Lagos", "tipo": "Cuerpo", "cut_cia": 0, "compa__ia": "Entre Lagos", "cut_cuerpo": 0, "direccion": "Lord Cochrane S/N", "telefono": " ", "point_x": -72.596133, "point_y": -40.683635, "cut": "10325", "tipo_de_vl": " ", "numeraci__": "S/n", "nombre_de": "Lord Cochrane", "comunas_at": "Puyehue", "voluntario": 70, "as_2018": 172, "as_2019": 102, "as_2020": 76, "cantidad_m": 5, "actualizad": " ", "esp6": " ", "esp1": " ", "esp5": " ", "esp3": " ", "esp2": " ", "esp4": " ", "esp7": " ", "esp8": " ", "cine_prov": "103", "cod_com": 10304, "cine_com": "10304", "nom_com": "PUYEHUE", "nom_prov": "OSORNO", "nom_reg": "LOS LAGOS", "cine_reg": "10", "globalid": "a689da3b-10ec-49af-8193-de1c6c87673c", "region": "Los Lagos", "provincia": "OSORNO", "comuna": "PUYEHUE" }, "geometry": { "type": "Point", "coordinates": [ -72.59613, -40.68363 ] } },
{ "type": "Feature", "properties": { "objectid_1": 580, "fid_compil": 1178, "objectid": 1180, "nombre": "Cuarta de Crucero", "nombre_del": "Río Bueno", "tipo": "Compañia", "cut_cia": 1421604, "compa__ia": "Cuarta de Crucero", "cut_cuerpo": 14216, "direccion": "Mantilhue S/N", "telefono": "1975850", "point_x": -72.490554, "point_y": -40.620474, "cut": " ", "tipo_de_vl": " ", "numeraci__": " ", "nombre_de": " ", "comunas_at": " ", "voluntario": 0, "as_2018": 0, "as_2019": 0, "as_2020": 0, "cantidad_m": 0, "actualizad": " ", "esp6": " ", "esp1": " ", "esp5": " ", "esp3": " ", "esp2": " ", "esp4": " ", "esp7": " ", "esp8": " ", "cine_prov": "142", "cod_com": 14204, "cine_com": "14204", "nom_com": "RÍO BUENO", "nom_prov": "RANCO", "nom_reg": "LOS RÍOS", "cine_reg": "14", "globalid": "67e4494d-2e3a-4726-ac04-17b56b94ed36", "region": "Los Ríos", "provincia": "RANCO", "comuna": "RÍO BUENO" }, "geometry": { "type": "Point", "coordinates": [ -72.49055, -40.62047 ] } },
{ "type": "Feature", "properties": { "objectid_1": 600, "fid_compil": 1177, "objectid": 1179, "nombre": "Tercera de Crucero", "nombre_del": "Río Bueno", "tipo": "Compañia", "cut_cia": 1421603, "compa__ia": "Tercera de Crucero", "cut_cuerpo": 14216, "direccion": "Vivanco S/N", "telefono": "1975850", "point_x": -72.6211, "point_y": -40.373539, "cut": " ", "tipo_de_vl": " ", "numeraci__": " ", "nombre_de": " ", "comunas_at": " ", "voluntario": 0, "as_2018": 0, "as_2019": 0, "as_2020": 0, "cantidad_m": 0, "actualizad": " ", "esp6": " ", "esp1": " ", "esp5": " ", "esp3": " ", "esp2": " ", "esp4": " ", "esp7": " ", "esp8": " ", "cine_prov": "142", "cod_com": 14204, "cine_com": "14204", "nom_com": "RÍO BUENO", "nom_prov": "RANCO", "nom_reg": "LOS RÍOS", "cine_reg": "14", "globalid": "ee9c8606-cdad-4ee2-a3d4-df14ad57cae5", "region": "Los Ríos", "provincia": "RANCO", "comuna": "RÍO BUENO" }, "geometry": { "type": "Point", "coordinates": [ -72.6211, -40.37354 ] } },
{ "type": "Feature", "properties": { "objectid_1": 606, "fid_compil": 1182, "objectid": 1184, "nombre": "Tercera de Lago Ranco", "nombre_del": "Lago Ranco", "tipo": "Compañia", "cut_cia": 1421103, "compa__ia": "Tercera de Lago Ranco", "cut_cuerpo": 14211, "direccion": "Sector Ignao", "telefono": "(63) 491222 63 491220", "point_x": -72.554659, "point_y": -40.330877, "cut": " ", "tipo_de_vl": " ", "numeraci__": " ", "nombre_de": " ", "comunas_at": " ", "voluntario": 0, "as_2018": 0, "as_2019": 0, "as_2020": 0, "cantidad_m": 0, "actualizad": " ", "esp6": " ", "esp1": " ", "esp5": " ", "esp3": " ", "esp2": " ", "esp4": " ", "esp7": " ", "esp8": " ", "cine_prov": "142", "cod_com": 14203, "cine_com": "14203", "nom_com": "LAGO RANCO", "nom_prov": "RANCO", "nom_reg": "LOS RÍOS", "cine_reg": "14", "globalid": "6a756cdb-9eeb-439f-bb39-23809da06b82", "region": "Los Ríos", "provincia": "RANCO", "comuna": "LAGO RANCO" }, "geometry": { "type": "Point", "coordinates": [ -72.55466, -40.33088 ] } },
{ "type": "Feature", "properties": { "objectid_1": 607, "fid_compil": 146, "objectid": 146, "nombre": "Lago Ranco", "nombre_del": "Lago Ranco", "tipo": "Cuerpo", "cut_cia": 0, "compa__ia": "Lago Ranco", "cut_cuerpo": 0, "direccion": "Antofagasta 113", "telefono": " ", "point_x": -72.481323, "point_y": -40.323141, "cut": "14211", "tipo_de_vl": " ", "numeraci__": "113", "nombre_de": "Antofagasta", "comunas_at": "Lago Ranco", "voluntario": 115, "as_2018": 86, "as_2019": 111, "as_2020": 177, "cantidad_m": 9, "actualizad": " ", "esp6": " ", "esp1": " ", "esp5": " ", "esp3": " ", "esp2": " ", "esp4": " ", "esp7": " ", "esp8": " ", "cine_prov": "142", "cod_com": 14203, "cine_com": "14203", "nom_com": "LAGO RANCO", "nom_prov": "RANCO", "nom_reg": "LOS RÍOS", "cine_reg": "14", "globalid": "48bb1442-ccf8-4b74-98a3-6fd6c0ebccf3", "region": "Los Ríos", "provincia": "RANCO", "comuna": "LAGO RANCO" }, "geometry": { "type": "Point", "coordinates": [ -72.48132, -40.32314 ] } },
{ "type": "Feature", "properties": { "objectid_1": 608, "fid_compil": 1180, "objectid": 1182, "nombre": "Primera de Lago Ranco", "nombre_del": "Lago Ranco", "tipo": "Compañia", "cut_cia": 1421101, "compa__ia": "Primera de Lago Ranco", "cut_cuerpo": 14211, "direccion": "Antofagasta 143", "telefono": "(63) 491222 63 491220", "point_x": -72.480788, "point_y": -40.322847, "cut": " ", "tipo_de_vl": " ", "numeraci__": " ", "nombre_de": " ", "comunas_at": " ", "voluntario": 0, "as_2018": 0, "as_2019": 0, "as_2020": 0, "cantidad_m": 0, "actualizad": " ", "esp6": " ", "esp1": " ", "esp5": " ", "esp3": " ", "esp2": " ", "esp4": " ", "esp7": " ", "esp8": " ", "cine_prov": "142", "cod_com": 14203, "cine_com": "14203", "nom_com": "LAGO RANCO", "nom_prov": "RANCO", "nom_reg": "LOS RÍOS", "cine_reg": "14", "globalid": "7248673d-0966-4f84-980b-bb792dd99144", "region": "Los Ríos", "provincia": "RANCO", "comuna": "LAGO RANCO" }, "geometry": { "type": "Point", "coordinates": [ -72.48079, -40.32285 ] } },
{ "type": "Feature", "properties": { "objectid_1": 609, "fid_compil": 1181, "objectid": 1183, "nombre": "Segunda de Lago Ranco", "nombre_del": "Lago Ranco", "tipo": "Compañia", "cut_cia": 1421102, "compa__ia": "Segunda de Lago Ranco", "cut_cuerpo": 14211, "direccion": "Iquique S/N", "telefono": "(63) 491222 63 491220", "point_x": -72.475425, "point_y": -40.321814, "cut": " ", "tipo_de_vl": " ", "numeraci__": " ", "nombre_de": " ", "comunas_at": " ", "voluntario": 0, "as_2018": 0, "as_2019": 0, "as_2020": 0, "cantidad_m": 0, "actualizad": " ", "esp6": " ", "esp1": " ", "esp5": " ", "esp3": " ", "esp2": " ", "esp4": " ", "esp7": " ", "esp8": " ", "cine_prov": "142", "cod_com": 14203, "cine_com": "14203", "nom_com": "LAGO RANCO", "nom_prov": "RANCO", "nom_reg": "LOS RÍOS", "cine_reg": "14", "globalid": "ba59c19c-5db8-4641-b0ad-b2e3bd05f3ce", "region": "Los Ríos", "provincia": "RANCO", "comuna": "LAGO RANCO" }, "geometry": { "type": "Point", "coordinates": [ -72.47542, -40.32181 ] } },
{ "type": "Feature", "properties": { "objectid_1": 618, "fid_compil": 1190, "objectid": 1192, "nombre": "Tercera de Futrono", "nombre_del": "Futrono", "tipo": "Compañia", "cut_cia": 1422003, "compa__ia": "Tercera de Futrono", "cut_cuerpo": 14220, "direccion": "Camino a Lliften Km. 19", "telefono": "(63) 481101", "point_x": -72.257012, "point_y": -40.196656, "cut": " ", "tipo_de_vl": " ", "numeraci__": " ", "nombre_de": " ", "comunas_at": " ", "voluntario": 0, "as_2018": 0, "as_2019": 0, "as_2020": 0, "cantidad_m": 0, "actualizad": " ", "esp6": " ", "esp1": " ", "esp5": " ", "esp3": " ", "esp2": " ", "esp4": " ", "esp7": " ", "esp8": " ", "cine_prov": "142", "cod_com": 14202, "cine_com": "14202", "nom_com": "FUTRONO", "nom_prov": "RANCO", "nom_reg": "LOS RÍOS", "cine_reg": "14", "globalid": "f5c4cba5-f3b9-4897-ab7f-fe660b92e181", "region": "Los Ríos", "provincia": "RANCO", "comuna": "FUTRONO" }, "geometry": { "type": "Point", "coordinates": [ -72.25701, -40.19666 ] } }
]
}
