{
"type": "FeatureCollection",
"name": "PUN",
"crs": { "type": "name", "properties": { "name": "urn:ogc:def:crs:OGC:1.3:CRS84" } },
"xy_coordinate_resolution": 1e-05,
"features": [
{ "type": "Feature", "properties": { "objectid_1": 530, "fid_compil": 1271, "objectid": 1273, "nombre": "Tercera de Cochamo", "nombre_del": "Puerto Varas", "tipo": "Compañia", "cut_cia": 1013403, "compa__ia": "Tercera de Cochamo", "cut_cuerpo": 10134, "direccion": "Sector Ralun S/N", "telefono": "(65) 216216", "point_x": -72.286011, "point_y": -41.380284, "cut": " ", "tipo_de_vl": " ", "numeraci__": " ", "nombre_de": " ", "comunas_at": " ", "voluntario": 0, "as_2018": 0, "as_2019": 0, "as_2020": 0, "cantidad_m": 0, "actualizad": " ", "esp6": " ", "esp1": " ", "esp5": " ", "esp3": " ", "esp2": " ", "esp4": " ", "esp7": " ", "esp8": " ", "cine_prov": "101", "cod_com": 10109, "cine_com": "10109", "nom_com": "PUERTO VARAS", "nom_prov": "LLANQUIHUE", "nom_reg": "LOS LAGOS", "cine_reg": "10", "globalid": "5d920ceb-e0f8-48d6-be3e-c524cde1aada", "region": "Los Lagos", "provincia": "LLANQUIHUE", "comuna": "PUERTO VARAS" }, "geometry": { "type": "Point", "coordinates": [ -72.28601, -41.38028 ] } },
{ "type": "Feature", "properties": { "objectid_1": 553, "fid_compil": 150, "objectid": 150, "nombre": "Las Cascadas", "nombre_del": "Las Cascadas", "tipo": "Cuerpo", "cut_cia": 0, "compa__ia": "Las Cascadas", "cut_cuerpo": 0, "direccion": "Casilla 313", "telefono": " ", "point_x": -72.638829, "point_y": -41.081073, "cut": "10327", "tipo_de_vl": " ", "numeraci__": "313", "nombre_de": "Casilla", "comunas_at": "Puerto Octay", "voluntario": 20, "as_2018": 105, "as_2019": 107, "as_2020": 102, "cantidad_m": 4, "actualizad": " ", "esp6": " ", "esp1": " ", "esp5": " ", "esp3": " ", "esp2": " ", "esp4": " ", "esp7": " ", "esp8": " ", "cine_prov": "103", "cod_com": 10302, "cine_com": "10302", "nom_com": "PUERTO OCTAY", "nom_prov": "OSORNO", "nom_reg": "LOS LAGOS", "cine_reg": "10", "globalid": "aee4017d-1a4f-470f-b864-1a73f590019e", "region": "Los Lagos", "provincia": "OSORNO", "comuna": "PUERTO OCTAY" }, "geometry": { "type": "Point", "coordinates": [ -72.63883, -41.08107 ] } },
{ "type": "Feature", "properties": { "objectid_1": 554, "fid_compil": 1309, "objectid": 1311, "nombre": "Primera de Las Cascadas", "nombre_del": "Puerto Octay", "tipo": "Compañia", "cut_cia": 1032701, "compa__ia": "Primera de Las Cascadas", "cut_cuerpo": 10327, "direccion": "Vicente Perez Rosales 159", "telefono": "(64) 326232 - 210746", "point_x": -72.63876, "point_y": -41.07819, "cut": " ", "tipo_de_vl": " ", "numeraci__": " ", "nombre_de": " ", "comunas_at": " ", "voluntario": 0, "as_2018": 0, "as_2019": 0, "as_2020": 0, "cantidad_m": 0, "actualizad": " ", "esp6": " ", "esp1": " ", "esp5": " ", "esp3": " ", "esp2": " ", "esp4": " ", "esp7": " ", "esp8": " ", "cine_prov": "103", "cod_com": 10302, "cine_com": "10302", "nom_com": "PUERTO OCTAY", "nom_prov": "OSORNO", "nom_reg": "LOS LAGOS", "cine_reg": "10", "globalid": "6935322b-7729-405a-ad67-e6effdbe67e3", "region": "Los Lagos", "provincia": "OSORNO", "comuna": "PUERTO OCTAY" }, "geometry": { "type": "Point", "coordinates": [ -72.63876, -41.07819 ] } },
{ "type": "Feature", "properties": { "objectid_1": 577, "fid_compil": 1283, "objectid": 1285, "nombre": "Segunda de Entre Lagos", "nombre_del": "Puyehue", "tipo": "Compañia", "cut_cia": 1032502, "compa__ia": "Segunda de Entre Lagos", "cut_cuerpo": 10325, "direccion": "Lord Cochrane S/N", "telefono": "(64) 371222 - 371265", "point_x": -72.59572, "point_y": -40.684376, "cut": " ", "tipo_de_vl": " ", "numeraci__": " ", "nombre_de": " ", "comunas_at": " ", "voluntario": 0, "as_2018": 0, "as_2019": 0, "as_2020": 0, "cantidad_m": 0, "actualizad": " ", "esp6": " ", "esp1": " ", "esp5": " ", "esp3": " ", "esp2": " ", "esp4": " ", "esp7": " ", "esp8": " ", "cine_prov": "103", "cod_com": 10304, "cine_com": "10304", "nom_com": "PUYEHUE", "nom_prov": "OSORNO", "nom_reg": "LOS LAGOS", "cine_reg": "10", "globalid": "6447fd5f-686b-4117-8fd1-16f255941bb7", "region": "Los Lagos", "provincia": "OSORNO", "comuna": "PUYEHUE" }, "geometry": { "type": "Point", "coordinates": [ -72.59572, -40.68438 ] } },
{ "type": "Feature", "properties": { "objectid_1": 578, "fid_compil": 1282, "objectid": 1284, "nombre": "Primera de Entre Lagos", "nombre_del": "Puyehue", "tipo": "Compañia", "cut_cia": 1032501, "compa__ia": "Primera de Entre Lagos", "cut_cuerpo": 10325, "direccion": "Lord Cochrane S/N", "telefono": "(64) 371222 - 371265", "point_x": -72.595808, "point_y": -40.684241, "cut": " ", "tipo_de_vl": " ", "numeraci__": " ", "nombre_de": " ", "comunas_at": " ", "voluntario": 0, "as_2018": 0, "as_2019": 0, "as_2020": 0, "cantidad_m": 0, "actualizad": " ", "esp6": " ", "esp1": " ", "esp5": " ", "esp3": " ", "esp2": " ", "esp4": " ", "esp7": " ", "esp8": " ", "cine_prov": "103", "cod_com": 10304, "cine_com": "10304", "nom_com": "PUYEHUE", "nom_prov": "OSORNO", "nom_reg": "LOS LAGOS", "cine_reg": "10", "globalid": "b48a4d95-fb84-45ef-9c33-ab9ae84447f4", "region": "Los Lagos", "provincia": "OSORNO", "comuna": "PUYEHUE" }, "geometry": { "type": "Point", "coordinates": [ -72.59581, -40.68424 ] } },
{ "type": "Feature", "properties": { "objectid_1": 579, "fid_compil": 112, "objectid": 112, "nombre": "Entre Lagos", "nombre_del": "Entre Lagos", "tipo": "Cuerpo", "cut_cia": 0, "compa__ia": "Entre Lagos", "cut_cuerpo": 0, "direccion": "Lord Cochrane S/N", "telefono": " ", "point_x": -72.596133, "point_y": -40.683635, "cut": "10325", "tipo_de_vl": " ", "numeraci__": "S/n", "nombre_de": "Lord Cochrane", "comunas_at": "Puyehue", "voluntario": 70, "as_2018": 172, "as_2019": 102, "as_2020": 76, "cantidad_m": 5, "actualizad": " ", "esp6": " ", "esp1": " ", "esp5": " ", "esp3": " ", "esp2": " ", "esp4": " ", "esp7": " ", "esp8": " ", "cine_prov": "103", "cod_com": 10304, "cine_com": "10304", "nom_com": "PUYEHUE", "nom_prov": "OSORNO", "nom_reg": "LOS LAGOS", "cine_reg": "10", "globalid": "a689da3b-10ec-49af-8193-de1c6c87673c", "region": "Los Lagos", "provincia": "OSORNO", "comuna": "PUYEHUE" }, "geometry": { "type": "Point", "coordinates": [ -72.59613, -40.68363 ] } },
{ "type": "Feature", "properties": { "objectid_1": 580, "fid_compil": 1178, "objectid": 1180, "nombre": "Cuarta de Crucero", "nombre_del": "Río Bueno", "tipo": "Compañia", "cut_cia": 1421604, "compa__ia": "Cuarta de Crucero", "cut_cuerpo": 14216, "direccion": "Mantilhue S/N", "telefono": "1975850", "point_x": -72.490554, "point_y": -40.620474, "cut": " ", "tipo_de_vl": " ", "numeraci__": " ", "nombre_de": " ", "comunas_at": " ", "voluntario": 0, "as_2018": 0, "as_2019": 0, "as_2020": 0, "cantidad_m": 0, "actualizad": " ", "esp6": " ", "esp1": " ", "esp5": " ", "esp3": " ", "esp2": " ", "esp4": " ", "esp7": " ", "esp8": " ", "cine_prov": "142", "cod_com": 14204, "cine_com": "14204", "nom_com": "RÍO BUENO", "nom_prov": "RANCO", "nom_reg": "LOS RÍOS", "cine_reg": "14", "globalid": "67e4494d-2e3a-4726-ac04-17b56b94ed36", "region": "Los Ríos", "provincia": "RANCO", "comuna": "RÍO BUENO" }, "geometry": { "type": "Point", "coordinates": [ -72.49055, -40.62047 ] } }
]
}
