{
"type": "FeatureCollection",
"name": "PUT",
"crs": { "type": "name", "properties": { "name": "urn:ogc:def:crs:OGC:1.3:CRS84" } },
"xy_coordinate_resolution": 1e-05,
"features": [
{ "type": "Feature", "properties": { "objectid_1": 344, "fid_compil": 370, "objectid": 372, "nombre": "Segunda de San Pedro de Atacama", "nombre_del": "San Pedro de Atacama", "tipo": "Compañia", "cut_cia": 220702, "compa__ia": "Segunda de San Pedro de Atacama", "cut_cuerpo": 2207, "direccion": "Latorre S/N, Peine", "telefono": "(56) 851074", "point_x": -68.195571, "point_y": -22.914601, "cut": " ", "tipo_de_vl": " ", "numeraci__": " ", "nombre_de": " ", "comunas_at": " ", "voluntario": 0, "as_2018": 0, "as_2019": 0, "as_2020": 0, "cantidad_m": 0, "actualizad": " ", "esp6": " ", "esp1": "agua", "esp5": " ", "esp3": " ", "esp2": " ", "esp4": " ", "esp7": " ", "esp8": " ", "cine_prov": "022", "cod_com": 2203, "cine_com": "02203", "nom_com": "SAN PEDRO DE ATACAMA", "nom_prov": "EL LOA", "nom_reg": "ANTOFAGASTA", "cine_reg": "02", "globalid": "7d4f125f-5c44-42bb-b0ba-f7e2a1a73a23", "region": "Antofagasta", "provincia": "EL LOA", "comuna": "SAN PEDRO DE ATACAMA" }, "geometry": { "type": "Point", "coordinates": [ -68.19557, -22.9146 ] } },
{ "type": "Feature", "properties": { "objectid_1": 345, "fid_compil": 298, "objectid": 300, "nombre": "San Pedro de Atacama", "nombre_del": "San Pedro de Atacama", "tipo": "Cuerpo", "cut_cia": 0, "compa__ia": "San Pedro de Atacama", "cut_cuerpo": 0, "direccion": "Los Mañíos 1565", "telefono": " ", "point_x": -68.200505, "point_y": -22.908971, "cut": "2207", "tipo_de_vl": "Avenida", "numeraci__": "350", "nombre_de": "El Inca", "comunas_at": "San Pedro de Atacama", "voluntario": 245, "as_2018": 1834, "as_2019": 2039, "as_2020": 1355, "cantidad_m": 12, "actualizad": " ", "esp6": " ", "esp1": " ", "esp5": " ", "esp3": " ", "esp2": " ", "esp4": " ", "esp7": " ", "esp8": " ", "cine_prov": "022", "cod_com": 2203, "cine_com": "02203", "nom_com": "SAN PEDRO DE ATACAMA", "nom_prov": "EL LOA", "nom_reg": "ANTOFAGASTA", "cine_reg": "02", "globalid": "a4a5cb0f-52be-4711-bd0b-5ce8eba9776d", "region": "Antofagasta", "provincia": "EL LOA", "comuna": "SAN PEDRO DE ATACAMA" }, "geometry": { "type": "Point", "coordinates": [ -68.2005, -22.90897 ] } },
{ "type": "Feature", "properties": { "objectid_1": 1414, "fid_compil": 381, "objectid": 383, "nombre": "Primera de San Pedro de Atacama", "nombre_del": "San Pedro de Atacama", "tipo": "Compañia", "cut_cia": 220701, "compa__ia": "Primera de San Pedro de Atacama", "cut_cuerpo": 2207, "direccion": "Pasaje Gabriela Mistral 37-A", "telefono": "(55) 851074", "point_x": -68.200491, "point_y": -22.90913, "cut": " ", "tipo_de_vl": " ", "numeraci__": " ", "nombre_de": " ", "comunas_at": " ", "voluntario": 0, "as_2018": 0, "as_2019": 0, "as_2020": 0, "cantidad_m": 0, "actualizad": " ", "esp6": " ", "esp1": "Agua", "esp5": " ", "esp3": "rescate vehicular", "esp2": "incendios forestales", "esp4": "salvamento", "esp7": " ", "esp8": " ", "cine_prov": "022", "cod_com": 2203, "cine_com": "02203", "nom_com": "SAN PEDRO DE ATACAMA", "nom_prov": "EL LOA", "nom_reg": "ANTOFAGASTA", "cine_reg": "02", "globalid": "b808e770-daab-419b-a5d6-9daa76ef3f8b", "region": "Antofagasta", "provincia": "EL LOA", "comuna": "SAN PEDRO DE ATACAMA" }, "geometry": { "type": "Point", "coordinates": [ -68.20049, -22.90913 ] } }
]
}
