{
"type": "FeatureCollection",
"name": "QUE",
"crs": { "type": "name", "properties": { "name": "urn:ogc:def:crs:OGC:1.3:CRS84" } },
"xy_coordinate_resolution": 1e-05,
"features": [
{ "type": "Feature", "properties": { "objectid_1": 636, "fid_compil": 1171, "objectid": 1173, "nombre": "Tercera de Choshuenco", "nombre_del": "Panguipulli", "tipo": "Compañia", "cut_cia": 1411803, "compa__ia": "Tercera de Choshuenco", "cut_cuerpo": 14118, "direccion": "Puerto Fuy S/N", "telefono": "(63) 318232", "point_x": -71.895314, "point_y": -39.873109, "cut": " ", "tipo_de_vl": " ", "numeraci__": " ", "nombre_de": " ", "comunas_at": " ", "voluntario": 0, "as_2018": 0, "as_2019": 0, "as_2020": 0, "cantidad_m": 0, "actualizad": " ", "esp6": " ", "esp1": " ", "esp5": " ", "esp3": " ", "esp2": " ", "esp4": " ", "esp7": " ", "esp8": " ", "cine_prov": "141", "cod_com": 14108, "cine_com": "14108", "nom_com": "PANGUIPULLI", "nom_prov": "VALDIVIA", "nom_reg": "LOS RÍOS", "cine_reg": "14", "globalid": "bbad1e9b-8c46-4703-847e-dc9d24907abe", "region": "Los Ríos", "provincia": "VALDIVIA", "comuna": "PANGUIPULLI" }, "geometry": { "type": "Point", "coordinates": [ -71.89531, -39.87311 ] } },
{ "type": "Feature", "properties": { "objectid_1": 642, "fid_compil": 1170, "objectid": 1172, "nombre": "Segunda de Choshuenco", "nombre_del": "Panguipulli", "tipo": "Compañia", "cut_cia": 1411802, "compa__ia": "Segunda de Choshuenco", "cut_cuerpo": 14118, "direccion": "Los Raulies S/N", "telefono": "(63) 318232", "point_x": -71.942747, "point_y": -39.846833, "cut": " ", "tipo_de_vl": " ", "numeraci__": " ", "nombre_de": " ", "comunas_at": " ", "voluntario": 0, "as_2018": 0, "as_2019": 0, "as_2020": 0, "cantidad_m": 0, "actualizad": " ", "esp6": " ", "esp1": " ", "esp5": " ", "esp3": " ", "esp2": " ", "esp4": " ", "esp7": " ", "esp8": " ", "cine_prov": "141", "cod_com": 14108, "cine_com": "14108", "nom_com": "PANGUIPULLI", "nom_prov": "VALDIVIA", "nom_reg": "LOS RÍOS", "cine_reg": "14", "globalid": "77734d1b-7339-4c16-ac00-41e80bc329c6", "region": "Los Ríos", "provincia": "VALDIVIA", "comuna": "PANGUIPULLI" }, "geometry": { "type": "Point", "coordinates": [ -71.94275, -39.84683 ] } },
{ "type": "Feature", "properties": { "objectid_1": 643, "fid_compil": 1169, "objectid": 1171, "nombre": "Primera de Choshuenco", "nombre_del": "Panguipulli", "tipo": "Compañia", "cut_cia": 1411801, "compa__ia": "Primera de Choshuenco", "cut_cuerpo": 14118, "direccion": "Avenida Padre Bernabe S/N", "telefono": "(63) 318232", "point_x": -72.082863, "point_y": -39.836263, "cut": " ", "tipo_de_vl": " ", "numeraci__": " ", "nombre_de": " ", "comunas_at": " ", "voluntario": 0, "as_2018": 0, "as_2019": 0, "as_2020": 0, "cantidad_m": 0, "actualizad": " ", "esp6": " ", "esp1": " ", "esp5": " ", "esp3": " ", "esp2": " ", "esp4": " ", "esp7": " ", "esp8": " ", "cine_prov": "141", "cod_com": 14108, "cine_com": "14108", "nom_com": "PANGUIPULLI", "nom_prov": "VALDIVIA", "nom_reg": "LOS RÍOS", "cine_reg": "14", "globalid": "597fa950-fd81-4eec-874b-eeb14807ecb9", "region": "Los Ríos", "provincia": "VALDIVIA", "comuna": "PANGUIPULLI" }, "geometry": { "type": "Point", "coordinates": [ -72.08286, -39.83626 ] } },
{ "type": "Feature", "properties": { "objectid_1": 644, "fid_compil": 69, "objectid": 69, "nombre": "Choshuenco", "nombre_del": "Choshuenco", "tipo": "Cuerpo", "cut_cia": 0, "compa__ia": "Choshuenco", "cut_cuerpo": 0, "direccion": "Padre Bernabe S/N", "telefono": " ", "point_x": -72.082916, "point_y": -39.83626, "cut": "14118", "tipo_de_vl": "Avenida", "numeraci__": "S/n", "nombre_de": "Padre Bernabé", "comunas_at": "Panguipulli", "voluntario": 65, "as_2018": 112, "as_2019": 120, "as_2020": 167, "cantidad_m": 7, "actualizad": " ", "esp6": " ", "esp1": " ", "esp5": " ", "esp3": " ", "esp2": " ", "esp4": " ", "esp7": " ", "esp8": " ", "cine_prov": "141", "cod_com": 14108, "cine_com": "14108", "nom_com": "PANGUIPULLI", "nom_prov": "VALDIVIA", "nom_reg": "LOS RÍOS", "cine_reg": "14", "globalid": "97819d25-905a-4fc3-8bf4-74b7ef563af3", "region": "Los Ríos", "provincia": "VALDIVIA", "comuna": "PANGUIPULLI" }, "geometry": { "type": "Point", "coordinates": [ -72.08292, -39.83626 ] } },
{ "type": "Feature", "properties": { "objectid_1": 659, "fid_compil": 1214, "objectid": 1216, "nombre": "Sexta de Panguipulli", "nombre_del": "Panguipulli", "tipo": "Compañia", "cut_cia": 1411006, "compa__ia": "Sexta de Panguipulli", "cut_cuerpo": 14110, "direccion": "Camino Internacional S/N Lli", "telefono": "(63) 311222", "point_x": -71.85765, "point_y": -39.708089, "cut": " ", "tipo_de_vl": " ", "numeraci__": " ", "nombre_de": " ", "comunas_at": " ", "voluntario": 0, "as_2018": 0, "as_2019": 0, "as_2020": 0, "cantidad_m": 0, "actualizad": " ", "esp6": " ", "esp1": " ", "esp5": " ", "esp3": " ", "esp2": " ", "esp4": " ", "esp7": " ", "esp8": " ", "cine_prov": "141", "cod_com": 14108, "cine_com": "14108", "nom_com": "PANGUIPULLI", "nom_prov": "VALDIVIA", "nom_reg": "LOS RÍOS", "cine_reg": "14", "globalid": "6094c51a-4281-479c-ac03-983ec775a4ed", "region": "Los Ríos", "provincia": "VALDIVIA", "comuna": "PANGUIPULLI" }, "geometry": { "type": "Point", "coordinates": [ -71.85765, -39.70809 ] } },
{ "type": "Feature", "properties": { "objectid_1": 670, "fid_compil": 1213, "objectid": 1215, "nombre": "Quinta de Panguipulli", "nombre_del": "Panguipulli", "tipo": "Compañia", "cut_cia": 1411005, "compa__ia": "Quinta de Panguipulli", "cut_cuerpo": 14110, "direccion": "Villla Calafquen S/N", "telefono": "(63) 311222", "point_x": -72.252658, "point_y": -39.572561, "cut": " ", "tipo_de_vl": " ", "numeraci__": " ", "nombre_de": " ", "comunas_at": " ", "voluntario": 0, "as_2018": 0, "as_2019": 0, "as_2020": 0, "cantidad_m": 0, "actualizad": " ", "esp6": " ", "esp1": " ", "esp5": " ", "esp3": " ", "esp2": " ", "esp4": " ", "esp7": " ", "esp8": " ", "cine_prov": "141", "cod_com": 14108, "cine_com": "14108", "nom_com": "PANGUIPULLI", "nom_prov": "VALDIVIA", "nom_reg": "LOS RÍOS", "cine_reg": "14", "globalid": "adca2e36-5791-4811-a06a-4896d34d9b56", "region": "Los Ríos", "provincia": "VALDIVIA", "comuna": "PANGUIPULLI" }, "geometry": { "type": "Point", "coordinates": [ -72.25266, -39.57256 ] } },
{ "type": "Feature", "properties": { "objectid_1": 671, "fid_compil": 1212, "objectid": 1214, "nombre": "Cuarta de Panguipulli", "nombre_del": "Panguipulli", "tipo": "Compañia", "cut_cia": 1411004, "compa__ia": "Cuarta de Panguipulli", "cut_cuerpo": 14110, "direccion": "Los Pellines S/N", "telefono": "(63) 311222", "point_x": -72.009226, "point_y": -39.567037, "cut": " ", "tipo_de_vl": " ", "numeraci__": " ", "nombre_de": " ", "comunas_at": " ", "voluntario": 0, "as_2018": 0, "as_2019": 0, "as_2020": 0, "cantidad_m": 0, "actualizad": " ", "esp6": " ", "esp1": " ", "esp5": " ", "esp3": " ", "esp2": " ", "esp4": " ", "esp7": " ", "esp8": " ", "cine_prov": "141", "cod_com": 14108, "cine_com": "14108", "nom_com": "PANGUIPULLI", "nom_prov": "VALDIVIA", "nom_reg": "LOS RÍOS", "cine_reg": "14", "globalid": "27803f38-385c-42bc-80ee-8ab8c749ccae", "region": "Los Ríos", "provincia": "VALDIVIA", "comuna": "PANGUIPULLI" }, "geometry": { "type": "Point", "coordinates": [ -72.00923, -39.56704 ] } },
{ "type": "Feature", "properties": { "objectid_1": 681, "fid_compil": 1097, "objectid": 1099, "nombre": "Primera de Lican Ray", "nombre_del": "Villarrica", "tipo": "Compañia", "cut_cia": 913001, "compa__ia": "Primera de Lican Ray", "cut_cuerpo": 9130, "direccion": "Gabriela Mistral 376", "telefono": "(45) 431274", "point_x": -72.1578, "point_y": -39.485252, "cut": " ", "tipo_de_vl": " ", "numeraci__": " ", "nombre_de": " ", "comunas_at": " ", "voluntario": 0, "as_2018": 0, "as_2019": 0, "as_2020": 0, "cantidad_m": 0, "actualizad": " ", "esp6": " ", "esp1": " ", "esp5": " ", "esp3": " ", "esp2": " ", "esp4": " ", "esp7": " ", "esp8": " ", "cine_prov": "091", "cod_com": 9120, "cine_com": "09120", "nom_com": "VILLARRICA", "nom_prov": "CAUTÍN", "nom_reg": "LA ARAUCANÍA", "cine_reg": "09", "globalid": "f2897e3a-f576-4da1-b718-dcd23fa39863", "region": "La Araucanía", "provincia": "CAUTÍN", "comuna": "VILLARRICA" }, "geometry": { "type": "Point", "coordinates": [ -72.1578, -39.48525 ] } },
{ "type": "Feature", "properties": { "objectid_1": 682, "fid_compil": 154, "objectid": 154, "nombre": "Lican Ray", "nombre_del": "Lican Ray", "tipo": "Cuerpo", "cut_cia": 0, "compa__ia": "Lican Ray", "cut_cuerpo": 0, "direccion": "Gabriela Mistral 376", "telefono": " ", "point_x": -72.158417, "point_y": -39.484903, "cut": "9130", "tipo_de_vl": "Calle", "numeraci__": "376", "nombre_de": "Gabriela Mistral", "comunas_at": "Villarrica", "voluntario": 39, "as_2018": 247, "as_2019": 269, "as_2020": 245, "cantidad_m": 4, "actualizad": " ", "esp6": " ", "esp1": " ", "esp5": " ", "esp3": " ", "esp2": " ", "esp4": " ", "esp7": " ", "esp8": " ", "cine_prov": "091", "cod_com": 9120, "cine_com": "09120", "nom_com": "VILLARRICA", "nom_prov": "CAUTÍN", "nom_reg": "LA ARAUCANÍA", "cine_reg": "09", "globalid": "8c756c29-fcca-4c6d-b2f8-1d03b9ae4a81", "region": "La Araucanía", "provincia": "CAUTÍN", "comuna": "VILLARRICA" }, "geometry": { "type": "Point", "coordinates": [ -72.15842, -39.4849 ] } },
{ "type": "Feature", "properties": { "objectid_1": 698, "fid_compil": 100, "objectid": 100, "nombre": "Curarrehue", "nombre_del": "Curarrehue", "tipo": "Cuerpo", "cut_cia": 0, "compa__ia": "Curarrehue", "cut_cuerpo": 0, "direccion": "Bernardo O'higgins 487", "telefono": " ", "point_x": -71.588038, "point_y": -39.35896, "cut": "9131", "tipo_de_vl": "Avenida", "numeraci__": "487", "nombre_de": "Bdo O Higgins", "comunas_at": "Curarrehue", "voluntario": 76, "as_2018": 113, "as_2019": 101, "as_2020": 101, "cantidad_m": 5, "actualizad": " ", "esp6": " ", "esp1": " ", "esp5": " ", "esp3": " ", "esp2": " ", "esp4": " ", "esp7": " ", "esp8": " ", "cine_prov": "091", "cod_com": 9104, "cine_com": "09104", "nom_com": "CURARREHUE", "nom_prov": "CAUTÍN", "nom_reg": "LA ARAUCANÍA", "cine_reg": "09", "globalid": "37b9025a-57e4-4ff2-8746-07600effe697", "region": "La Araucanía", "provincia": "CAUTÍN", "comuna": "CURARREHUE" }, "geometry": { "type": "Point", "coordinates": [ -71.58804, -39.35896 ] } },
{ "type": "Feature", "properties": { "objectid_1": 699, "fid_compil": 1078, "objectid": 1080, "nombre": "Primera de Curarrehue", "nombre_del": "Curarrehue", "tipo": "Compañia", "cut_cia": 913101, "compa__ia": "Primera de Curarrehue", "cut_cuerpo": 9131, "direccion": "O'higgins 487", "telefono": "(45) 1971558", "point_x": -71.588063, "point_y": -39.358739, "cut": " ", "tipo_de_vl": " ", "numeraci__": " ", "nombre_de": " ", "comunas_at": " ", "voluntario": 0, "as_2018": 0, "as_2019": 0, "as_2020": 0, "cantidad_m": 0, "actualizad": " ", "esp6": " ", "esp1": " ", "esp5": " ", "esp3": " ", "esp2": " ", "esp4": " ", "esp7": " ", "esp8": " ", "cine_prov": "091", "cod_com": 9104, "cine_com": "09104", "nom_com": "CURARREHUE", "nom_prov": "CAUTÍN", "nom_reg": "LA ARAUCANÍA", "cine_reg": "09", "globalid": "fdce4640-753e-4f75-96c0-227339a82a83", "region": "La Araucanía", "provincia": "CAUTÍN", "comuna": "CURARREHUE" }, "geometry": { "type": "Point", "coordinates": [ -71.58806, -39.35874 ] } },
{ "type": "Feature", "properties": { "objectid_1": 700, "fid_compil": 1396, "objectid": 1398, "nombre": "Segunda de Curarrehue", "nombre_del": "Curarrehue", "tipo": "Compañia", "cut_cia": 910402, "compa__ia": "Segunda de Curarrehue", "cut_cuerpo": 9104, "direccion": "Camino Internacional S/N", "telefono": "(45) 1971558", "point_x": -71.703582, "point_y": -39.348289, "cut": " ", "tipo_de_vl": " ", "numeraci__": " ", "nombre_de": " ", "comunas_at": " ", "voluntario": 0, "as_2018": 0, "as_2019": 0, "as_2020": 0, "cantidad_m": 0, "actualizad": " ", "esp6": " ", "esp1": " ", "esp5": " ", "esp3": " ", "esp2": " ", "esp4": " ", "esp7": " ", "esp8": " ", "cine_prov": "091", "cod_com": 9104, "cine_com": "09104", "nom_com": "CURARREHUE", "nom_prov": "CAUTÍN", "nom_reg": "LA ARAUCANÍA", "cine_reg": "09", "globalid": "ccf18ca7-f217-44ed-881a-b6e44b1c1593", "region": "La Araucanía", "provincia": "CAUTÍN", "comuna": "CURARREHUE" }, "geometry": { "type": "Point", "coordinates": [ -71.70358, -39.34829 ] } },
{ "type": "Feature", "properties": { "objectid_1": 706, "fid_compil": 1123, "objectid": 1125, "nombre": "Segunda de Pucon", "nombre_del": "Pucón", "tipo": "Compañia", "cut_cia": 911502, "compa__ia": "Segunda de Pucon", "cut_cuerpo": 9115, "direccion": "Ansorena 792", "telefono": "(45) 441969", "point_x": -71.973083, "point_y": -39.279929, "cut": " ", "tipo_de_vl": " ", "numeraci__": " ", "nombre_de": " ", "comunas_at": " ", "voluntario": 0, "as_2018": 0, "as_2019": 0, "as_2020": 0, "cantidad_m": 0, "actualizad": " ", "esp6": " ", "esp1": " ", "esp5": " ", "esp3": " ", "esp2": " ", "esp4": " ", "esp7": " ", "esp8": " ", "cine_prov": "091", "cod_com": 9115, "cine_com": "09115", "nom_com": "PUCÓN", "nom_prov": "CAUTÍN", "nom_reg": "LA ARAUCANÍA", "cine_reg": "09", "globalid": "c0e2aa93-a854-4fbf-9e4e-d75650460de8", "region": "La Araucanía", "provincia": "CAUTÍN", "comuna": "PUCÓN" }, "geometry": { "type": "Point", "coordinates": [ -71.97308, -39.27993 ] } },
{ "type": "Feature", "properties": { "objectid_1": 708, "fid_compil": 234, "objectid": 236, "nombre": "Pucón", "nombre_del": "Pucón", "tipo": "Cuerpo", "cut_cia": 0, "compa__ia": "Pucón", "cut_cuerpo": 0, "direccion": "Balmaceda 470", "telefono": " ", "point_x": -71.973672, "point_y": -39.276204, "cut": "9115", "tipo_de_vl": "Avenida", "numeraci__": "461", "nombre_de": "Bernardo O Higins", "comunas_at": "Pucon", "voluntario": 75, "as_2018": 494, "as_2019": 964, "as_2020": 519, "cantidad_m": 9, "actualizad": " ", "esp6": " ", "esp1": " ", "esp5": " ", "esp3": " ", "esp2": " ", "esp4": " ", "esp7": " ", "esp8": " ", "cine_prov": "091", "cod_com": 9115, "cine_com": "09115", "nom_com": "PUCÓN", "nom_prov": "CAUTÍN", "nom_reg": "LA ARAUCANÍA", "cine_reg": "09", "globalid": "35ae0740-fe62-4b5d-924a-682cbc8cdd46", "region": "La Araucanía", "provincia": "CAUTÍN", "comuna": "PUCÓN" }, "geometry": { "type": "Point", "coordinates": [ -71.97367, -39.2762 ] } },
{ "type": "Feature", "properties": { "objectid_1": 709, "fid_compil": 1122, "objectid": 1124, "nombre": "Primera de Pucon", "nombre_del": "Pucón", "tipo": "Compañia", "cut_cia": 911501, "compa__ia": "Primera de Pucon", "cut_cuerpo": 9115, "direccion": " ", "telefono": "(45) 441969", "point_x": -71.97376, "point_y": -39.276158, "cut": " ", "tipo_de_vl": " ", "numeraci__": " ", "nombre_de": " ", "comunas_at": " ", "voluntario": 0, "as_2018": 0, "as_2019": 0, "as_2020": 0, "cantidad_m": 0, "actualizad": " ", "esp6": " ", "esp1": " ", "esp5": " ", "esp3": " ", "esp2": " ", "esp4": " ", "esp7": " ", "esp8": " ", "cine_prov": "091", "cod_com": 9115, "cine_com": "09115", "nom_com": "PUCÓN", "nom_prov": "CAUTÍN", "nom_reg": "LA ARAUCANÍA", "cine_reg": "09", "globalid": "3389d37f-7cb6-4fe6-a89e-bad92751959e", "region": "La Araucanía", "provincia": "CAUTÍN", "comuna": "PUCÓN" }, "geometry": { "type": "Point", "coordinates": [ -71.97376, -39.27616 ] } },
{ "type": "Feature", "properties": { "objectid_1": 710, "fid_compil": 1124, "objectid": 1126, "nombre": "Tercera de Pucon", "nombre_del": "Pucón", "tipo": "Compañia", "cut_cia": 911503, "compa__ia": "Tercera de Pucon", "cut_cuerpo": 9115, "direccion": "Bernardo O'higgins 461", "telefono": "(45) 441969", "point_x": -71.973658, "point_y": -39.276128, "cut": " ", "tipo_de_vl": " ", "numeraci__": " ", "nombre_de": " ", "comunas_at": " ", "voluntario": 0, "as_2018": 0, "as_2019": 0, "as_2020": 0, "cantidad_m": 0, "actualizad": " ", "esp6": " ", "esp1": " ", "esp5": " ", "esp3": " ", "esp2": " ", "esp4": " ", "esp7": " ", "esp8": " ", "cine_prov": "091", "cod_com": 9115, "cine_com": "09115", "nom_com": "PUCÓN", "nom_prov": "CAUTÍN", "nom_reg": "LA ARAUCANÍA", "cine_reg": "09", "globalid": "83ce3889-9ee6-4283-9b46-ff6a6e111a65", "region": "La Araucanía", "provincia": "CAUTÍN", "comuna": "PUCÓN" }, "geometry": { "type": "Point", "coordinates": [ -71.97366, -39.27613 ] } }
]
}
