{
"type": "FeatureCollection",
"name": "SJO",
"crs": { "type": "name", "properties": { "name": "urn:ogc:def:crs:OGC:1.3:CRS84" } },
"xy_coordinate_resolution": 1e-05,
"features": [
{ "type": "Feature", "properties": { "objectid_1": 1331, "fid_compil": 651, "objectid": 653, "nombre": "Segunda de San José de Maipo", "nombre_del": "San José de Maipo", "tipo": "Compañia", "cut_cia": 1321602, "compa__ia": "Segunda de San José de Maipo", "cut_cuerpo": 13216, "direccion": "Camino El Volcan  27263", "telefono": "(2) 8611530", "point_x": -70.33529, "point_y": -33.694296, "cut": " ", "tipo_de_vl": " ", "numeraci__": " ", "nombre_de": " ", "comunas_at": " ", "voluntario": 0, "as_2018": 0, "as_2019": 0, "as_2020": 0, "cantidad_m": 0, "actualizad": " ", "esp6": " ", "esp1": " ", "esp5": " ", "esp3": " ", "esp2": " ", "esp4": " ", "esp7": " ", "esp8": " ", "cine_prov": "132", "cod_com": 13203, "cine_com": "13203", "nom_com": "SAN JOSÉ DE MAIPO", "nom_prov": "CORDILLERA", "nom_reg": "METROPOLITANA DE SANTIAGO", "cine_reg": "13", "globalid": "b361c29a-c869-4c9f-a22f-6cbcbd5550fb", "region": "Metropolitana de Santiago", "provincia": "CORDILLERA", "comuna": "SAN JOSÉ DE MAIPO" }, "geometry": { "type": "Point", "coordinates": [ -70.33529, -33.6943 ] } },
{ "type": "Feature", "properties": { "objectid_1": 1346, "fid_compil": 650, "objectid": 652, "nombre": "Primera de San José de Maipo", "nombre_del": "San José de Maipo", "tipo": "Compañia", "cut_cia": 1321601, "compa__ia": "Primera de San José de Maipo", "cut_cuerpo": 13216, "direccion": "Comercio 19530", "telefono": "(2) 8611530", "point_x": -70.351952, "point_y": -33.638362, "cut": " ", "tipo_de_vl": " ", "numeraci__": " ", "nombre_de": " ", "comunas_at": " ", "voluntario": 0, "as_2018": 0, "as_2019": 0, "as_2020": 0, "cantidad_m": 0, "actualizad": " ", "esp6": " ", "esp1": " ", "esp5": " ", "esp3": " ", "esp2": " ", "esp4": " ", "esp7": " ", "esp8": " ", "cine_prov": "132", "cod_com": 13203, "cine_com": "13203", "nom_com": "SAN JOSÉ DE MAIPO", "nom_prov": "CORDILLERA", "nom_reg": "METROPOLITANA DE SANTIAGO", "cine_reg": "13", "globalid": "ad2ce9a3-4e95-4256-92a8-61d28af42dba", "region": "Metropolitana de Santiago", "provincia": "CORDILLERA", "comuna": "SAN JOSÉ DE MAIPO" }, "geometry": { "type": "Point", "coordinates": [ -70.35195, -33.63836 ] } }
]
}
