{
"type": "FeatureCollection",
"name": "SOL",
"crs": { "type": "name", "properties": { "name": "urn:ogc:def:crs:OGC:1.3:CRS84" } },
"xy_coordinate_resolution": 1e-05,
"features": [
{ "type": "Feature", "properties": { "objectid_1": 497, "fid_compil": 1067, "objectid": 1069, "nombre": "Segunda de Cunco", "nombre_del": "Cunco", "tipo": "Compañia", "cut_cia": 910902, "compa__ia": "Segunda de Cunco", "cut_cuerpo": 9109, "direccion": "Balmaceda 386", "telefono": "(45) 573003", "point_x": -72.032429, "point_y": -38.933636, "cut": " ", "tipo_de_vl": " ", "numeraci__": " ", "nombre_de": " ", "comunas_at": " ", "voluntario": 0, "as_2018": 0, "as_2019": 0, "as_2020": 0, "cantidad_m": 0, "actualizad": " ", "esp6": " ", "esp1": " ", "esp5": " ", "esp3": " ", "esp2": " ", "esp4": " ", "esp7": " ", "esp8": " ", "cine_prov": "091", "cod_com": 9103, "cine_com": "09103", "nom_com": "CUNCO", "nom_prov": "CAUTÍN", "nom_reg": "LA ARAUCANÍA", "cine_reg": "09", "globalid": "48df769a-9e16-44ac-87f3-caca08328b7a", "region": "La Araucanía", "provincia": "CAUTÍN", "comuna": "CUNCO" }, "geometry": { "type": "Point", "coordinates": [ -72.03243, -38.93364 ] } },
{ "type": "Feature", "properties": { "objectid_1": 698, "fid_compil": 100, "objectid": 100, "nombre": "Curarrehue", "nombre_del": "Curarrehue", "tipo": "Cuerpo", "cut_cia": 0, "compa__ia": "Curarrehue", "cut_cuerpo": 0, "direccion": "Bernardo O'higgins 487", "telefono": " ", "point_x": -71.588038, "point_y": -39.35896, "cut": "9131", "tipo_de_vl": "Avenida", "numeraci__": "487", "nombre_de": "Bdo O Higgins", "comunas_at": "Curarrehue", "voluntario": 76, "as_2018": 113, "as_2019": 101, "as_2020": 101, "cantidad_m": 5, "actualizad": " ", "esp6": " ", "esp1": " ", "esp5": " ", "esp3": " ", "esp2": " ", "esp4": " ", "esp7": " ", "esp8": " ", "cine_prov": "091", "cod_com": 9104, "cine_com": "09104", "nom_com": "CURARREHUE", "nom_prov": "CAUTÍN", "nom_reg": "LA ARAUCANÍA", "cine_reg": "09", "globalid": "37b9025a-57e4-4ff2-8746-07600effe697", "region": "La Araucanía", "provincia": "CAUTÍN", "comuna": "CURARREHUE" }, "geometry": { "type": "Point", "coordinates": [ -71.58804, -39.35896 ] } },
{ "type": "Feature", "properties": { "objectid_1": 699, "fid_compil": 1078, "objectid": 1080, "nombre": "Primera de Curarrehue", "nombre_del": "Curarrehue", "tipo": "Compañia", "cut_cia": 913101, "compa__ia": "Primera de Curarrehue", "cut_cuerpo": 9131, "direccion": "O'higgins 487", "telefono": "(45) 1971558", "point_x": -71.588063, "point_y": -39.358739, "cut": " ", "tipo_de_vl": " ", "numeraci__": " ", "nombre_de": " ", "comunas_at": " ", "voluntario": 0, "as_2018": 0, "as_2019": 0, "as_2020": 0, "cantidad_m": 0, "actualizad": " ", "esp6": " ", "esp1": " ", "esp5": " ", "esp3": " ", "esp2": " ", "esp4": " ", "esp7": " ", "esp8": " ", "cine_prov": "091", "cod_com": 9104, "cine_com": "09104", "nom_com": "CURARREHUE", "nom_prov": "CAUTÍN", "nom_reg": "LA ARAUCANÍA", "cine_reg": "09", "globalid": "fdce4640-753e-4f75-96c0-227339a82a83", "region": "La Araucanía", "provincia": "CAUTÍN", "comuna": "CURARREHUE" }, "geometry": { "type": "Point", "coordinates": [ -71.58806, -39.35874 ] } },
{ "type": "Feature", "properties": { "objectid_1": 700, "fid_compil": 1396, "objectid": 1398, "nombre": "Segunda de Curarrehue", "nombre_del": "Curarrehue", "tipo": "Compañia", "cut_cia": 910402, "compa__ia": "Segunda de Curarrehue", "cut_cuerpo": 9104, "direccion": "Camino Internacional S/N", "telefono": "(45) 1971558", "point_x": -71.703582, "point_y": -39.348289, "cut": " ", "tipo_de_vl": " ", "numeraci__": " ", "nombre_de": " ", "comunas_at": " ", "voluntario": 0, "as_2018": 0, "as_2019": 0, "as_2020": 0, "cantidad_m": 0, "actualizad": " ", "esp6": " ", "esp1": " ", "esp5": " ", "esp3": " ", "esp2": " ", "esp4": " ", "esp7": " ", "esp8": " ", "cine_prov": "091", "cod_com": 9104, "cine_com": "09104", "nom_com": "CURARREHUE", "nom_prov": "CAUTÍN", "nom_reg": "LA ARAUCANÍA", "cine_reg": "09", "globalid": "ccf18ca7-f217-44ed-881a-b6e44b1c1593", "region": "La Araucanía", "provincia": "CAUTÍN", "comuna": "CURARREHUE" }, "geometry": { "type": "Point", "coordinates": [ -71.70358, -39.34829 ] } },
{ "type": "Feature", "properties": { "objectid_1": 746, "fid_compil": 95, "objectid": 95, "nombre": "Cunco", "nombre_del": "Cunco", "tipo": "Cuerpo", "cut_cia": 0, "compa__ia": "Cunco", "cut_cuerpo": 0, "direccion": "Balmaceda 386", "telefono": " ", "point_x": -72.032394, "point_y": -38.933746, "cut": "9109", "tipo_de_vl": "Calle", "numeraci__": "386", "nombre_de": "Balmaceda", "comunas_at": "Cunco", "voluntario": 124, "as_2018": 333, "as_2019": 556, "as_2020": 326, "cantidad_m": 10, "actualizad": " ", "esp6": " ", "esp1": " ", "esp5": " ", "esp3": " ", "esp2": " ", "esp4": " ", "esp7": " ", "esp8": " ", "cine_prov": "091", "cod_com": 9103, "cine_com": "09103", "nom_com": "CUNCO", "nom_prov": "CAUTÍN", "nom_reg": "LA ARAUCANÍA", "cine_reg": "09", "globalid": "bf9df77b-d5e1-4510-a475-212500826570", "region": "La Araucanía", "provincia": "CAUTÍN", "comuna": "CUNCO" }, "geometry": { "type": "Point", "coordinates": [ -72.03239, -38.93375 ] } },
{ "type": "Feature", "properties": { "objectid_1": 747, "fid_compil": 1068, "objectid": 1070, "nombre": "Tercera de Cunco", "nombre_del": "Cunco", "tipo": "Compañia", "cut_cia": 910903, "compa__ia": "Tercera de Cunco", "cut_cuerpo": 9109, "direccion": "Balmaceda 386", "telefono": "(45) 573003", "point_x": -72.032543, "point_y": -38.933696, "cut": " ", "tipo_de_vl": " ", "numeraci__": " ", "nombre_de": " ", "comunas_at": " ", "voluntario": 0, "as_2018": 0, "as_2019": 0, "as_2020": 0, "cantidad_m": 0, "actualizad": " ", "esp6": " ", "esp1": " ", "esp5": " ", "esp3": " ", "esp2": " ", "esp4": " ", "esp7": " ", "esp8": " ", "cine_prov": "091", "cod_com": 9103, "cine_com": "09103", "nom_com": "CUNCO", "nom_prov": "CAUTÍN", "nom_reg": "LA ARAUCANÍA", "cine_reg": "09", "globalid": "ff4f7d53-9977-48d5-b209-53f5bff3bf26", "region": "La Araucanía", "provincia": "CAUTÍN", "comuna": "CUNCO" }, "geometry": { "type": "Point", "coordinates": [ -72.03254, -38.9337 ] } },
{ "type": "Feature", "properties": { "objectid_1": 748, "fid_compil": 1066, "objectid": 1068, "nombre": "Primera de Cunco", "nombre_del": "Cunco", "tipo": "Compañia", "cut_cia": 910901, "compa__ia": "Primera de Cunco", "cut_cuerpo": 9109, "direccion": "Balmaceda 386", "telefono": "(45) 573003", "point_x": -72.032305, "point_y": -38.933659, "cut": " ", "tipo_de_vl": " ", "numeraci__": " ", "nombre_de": " ", "comunas_at": " ", "voluntario": 0, "as_2018": 0, "as_2019": 0, "as_2020": 0, "cantidad_m": 0, "actualizad": " ", "esp6": " ", "esp1": " ", "esp5": " ", "esp3": " ", "esp2": " ", "esp4": " ", "esp7": " ", "esp8": " ", "cine_prov": "091", "cod_com": 9103, "cine_com": "09103", "nom_com": "CUNCO", "nom_prov": "CAUTÍN", "nom_reg": "LA ARAUCANÍA", "cine_reg": "09", "globalid": "43a9783a-ea01-4f0d-85e6-95a48e9bff26", "region": "La Araucanía", "provincia": "CAUTÍN", "comuna": "CUNCO" }, "geometry": { "type": "Point", "coordinates": [ -72.03231, -38.93366 ] } },
{ "type": "Feature", "properties": { "objectid_1": 751, "fid_compil": 186, "objectid": 187, "nombre": "Melipeuco", "nombre_del": "Melipeuco", "tipo": "Cuerpo", "cut_cia": 0, "compa__ia": "Melipeuco", "cut_cuerpo": 0, "direccion": "Serrano 591", "telefono": " ", "point_x": -71.69346, "point_y": -38.854834, "cut": "9135", "tipo_de_vl": " ", "numeraci__": "400", "nombre_de": "Aurelio Letelier", "comunas_at": "Lonquimay, Melipeuco", "voluntario": 74, "as_2018": 160, "as_2019": 190, "as_2020": 159, "cantidad_m": 5, "actualizad": " ", "esp6": " ", "esp1": " ", "esp5": " ", "esp3": " ", "esp2": " ", "esp4": " ", "esp7": " ", "esp8": " ", "cine_prov": "091", "cod_com": 9110, "cine_com": "09110", "nom_com": "MELIPEUCO", "nom_prov": "CAUTÍN", "nom_reg": "LA ARAUCANÍA", "cine_reg": "09", "globalid": "d5206c4a-cd50-4cc4-a824-95d8e5bfb235", "region": "La Araucanía", "provincia": "CAUTÍN", "comuna": "MELIPEUCO" }, "geometry": { "type": "Point", "coordinates": [ -71.69346, -38.85483 ] } },
{ "type": "Feature", "properties": { "objectid_1": 752, "fid_compil": 1110, "objectid": 1112, "nombre": "Primera de Melipeuco", "nombre_del": "Melipeuco", "tipo": "Compañia", "cut_cia": 913501, "compa__ia": "Primera de Melipeuco", "cut_cuerpo": 9135, "direccion": "Aurelio Letelier 400", "telefono": "(45) 581013", "point_x": -71.692609, "point_y": -38.854741, "cut": " ", "tipo_de_vl": " ", "numeraci__": " ", "nombre_de": " ", "comunas_at": " ", "voluntario": 0, "as_2018": 0, "as_2019": 0, "as_2020": 0, "cantidad_m": 0, "actualizad": " ", "esp6": " ", "esp1": " ", "esp5": " ", "esp3": " ", "esp2": " ", "esp4": " ", "esp7": " ", "esp8": " ", "cine_prov": "091", "cod_com": 9110, "cine_com": "09110", "nom_com": "MELIPEUCO", "nom_prov": "CAUTÍN", "nom_reg": "LA ARAUCANÍA", "cine_reg": "09", "globalid": "073dae47-2f16-4392-9ece-d2670708f169", "region": "La Araucanía", "provincia": "CAUTÍN", "comuna": "MELIPEUCO" }, "geometry": { "type": "Point", "coordinates": [ -71.69261, -38.85474 ] } }
]
}
