{
"type": "FeatureCollection",
"name": "TIN",
"crs": { "type": "name", "properties": { "name": "urn:ogc:def:crs:OGC:1.3:CRS84" } },
"xy_coordinate_resolution": 1e-05,
"features": [
{ "type": "Feature", "properties": { "objectid_1": 1167, "fid_compil": 847, "objectid": 849, "nombre": "Segunda de Romeral", "nombre_del": "Romeral", "tipo": "Compañia", "cut_cia": 731802, "compa__ia": "Segunda de Romeral", "cut_cuerpo": 7318, "direccion": "Avenida La Junta S/N, Los Queñes", "telefono": "(75) 431031", "point_x": -70.812646, "point_y": -34.999528, "cut": " ", "tipo_de_vl": " ", "numeraci__": " ", "nombre_de": " ", "comunas_at": " ", "voluntario": 0, "as_2018": 0, "as_2019": 0, "as_2020": 0, "cantidad_m": 0, "actualizad": " ", "esp6": " ", "esp1": " ", "esp5": " ", "esp3": " ", "esp2": " ", "esp4": " ", "esp7": " ", "esp8": " ", "cine_prov": "073", "cod_com": 7306, "cine_com": "07306", "nom_com": "ROMERAL", "nom_prov": "CURICÓ", "nom_reg": "MAULE", "cine_reg": "07", "globalid": "68c79115-1137-49e7-b83b-84e33c3729bb", "region": "Maule", "provincia": "CURICÓ", "comuna": "ROMERAL" }, "geometry": { "type": "Point", "coordinates": [ -70.81265, -34.99953 ] } },
{ "type": "Feature", "properties": { "objectid_1": 1206, "fid_compil": 712, "objectid": 714, "nombre": "Cuarta de San Fernando", "nombre_del": "San Fernando", "tipo": "Compañia", "cut_cia": 630304, "compa__ia": "Cuarta de San Fernando", "cut_cuerpo": 6303, "direccion": "Camino Publico Interno S/N", "telefono": "(72) 711247", "point_x": -70.873587, "point_y": -34.684723, "cut": " ", "tipo_de_vl": " ", "numeraci__": " ", "nombre_de": " ", "comunas_at": " ", "voluntario": 0, "as_2018": 0, "as_2019": 0, "as_2020": 0, "cantidad_m": 0, "actualizad": " ", "esp6": " ", "esp1": " ", "esp5": " ", "esp3": " ", "esp2": " ", "esp4": " ", "esp7": " ", "esp8": " ", "cine_prov": "063", "cod_com": 6301, "cine_com": "06301", "nom_com": "SAN FERNANDO", "nom_prov": "COLCHAGUA", "nom_reg": "LIBERTADOR GENERAL BERNARDO OHIGGINS", "cine_reg": "06", "globalid": "434075e4-5d8a-47ef-abf1-5b5d13c56fb7", "region": "Libertador General Bernardo O'Higgins", "provincia": "COLCHAGUA", "comuna": "SAN FERNANDO" }, "geometry": { "type": "Point", "coordinates": [ -70.87359, -34.68472 ] } }
]
}
