{
"type": "FeatureCollection",
"name": "TRO",
"crs": { "type": "name", "properties": { "name": "urn:ogc:def:crs:OGC:1.3:CRS84" } },
"xy_coordinate_resolution": 1e-05,
"features": [
{ "type": "Feature", "properties": { "objectid_1": 530, "fid_compil": 1271, "objectid": 1273, "nombre": "Tercera de Cochamo", "nombre_del": "Puerto Varas", "tipo": "Compañia", "cut_cia": 1013403, "compa__ia": "Tercera de Cochamo", "cut_cuerpo": 10134, "direccion": "Sector Ralun S/N", "telefono": "(65) 216216", "point_x": -72.286011, "point_y": -41.380284, "cut": " ", "tipo_de_vl": " ", "numeraci__": " ", "nombre_de": " ", "comunas_at": " ", "voluntario": 0, "as_2018": 0, "as_2019": 0, "as_2020": 0, "cantidad_m": 0, "actualizad": " ", "esp6": " ", "esp1": " ", "esp5": " ", "esp3": " ", "esp2": " ", "esp4": " ", "esp7": " ", "esp8": " ", "cine_prov": "101", "cod_com": 10109, "cine_com": "10109", "nom_com": "PUERTO VARAS", "nom_prov": "LLANQUIHUE", "nom_reg": "LOS LAGOS", "cine_reg": "10", "globalid": "5d920ceb-e0f8-48d6-be3e-c524cde1aada", "region": "Los Lagos", "provincia": "LLANQUIHUE", "comuna": "PUERTO VARAS" }, "geometry": { "type": "Point", "coordinates": [ -72.28601, -41.38028 ] } }
]
}
