{
"type": "FeatureCollection",
"name": "CLB",
"crs": { "type": "name", "properties": { "name": "urn:ogc:def:crs:OGC:1.3:CRS84" } },
"xy_coordinate_resolution": 1e-05,
"features": [
{ "type": "Feature", "properties": { "nombre": "Parcelas Vista Hermosa", "tipo": "residential", "poblacion": 0 }, "geometry": { "type": "Polygon", "coordinates": [ [ [ -72.98314, -41.30822 ], [ -72.98475, -41.30265 ], [ -72.98146, -41.30262 ], [ -72.98085, -41.30805 ], [ -72.98314, -41.30822 ] ] ] } },
{ "type": "Feature", "properties": { "nombre": "Parque Ivian", "tipo": "residential", "poblacion": 0 }, "geometry": { "type": "Polygon", "coordinates": [ [ [ -72.98671, -41.34184 ], [ -72.98737, -41.34039 ], [ -72.98561, -41.34042 ], [ -72.98563, -41.33856 ], [ -72.98629, -41.33856 ], [ -72.98622, -41.33764 ], [ -72.98648, -41.33764 ], [ -72.98647, -41.33702 ], [ -72.98516, -41.33703 ], [ -72.98514, -41.33678 ], [ -72.98563, -41.33675 ], [ -72.98563, -41.3365 ], [ -72.98628, -41.33647 ], [ -72.98651, -41.33579 ], [ -72.98513, -41.33575 ], [ -72.98529, -41.33507 ], [ -72.98698, -41.33522 ], [ -72.98777, -41.33465 ], [ -72.9767, -41.33442 ], [ -72.97672, -41.33551 ], [ -72.97665, -41.3356 ], [ -72.97607, -41.33561 ], [ -72.97575, -41.33637 ], [ -72.97541, -41.33678 ], [ -72.97451, -41.33745 ], [ -72.97225, -41.33854 ], [ -72.97225, -41.33934 ], [ -72.9706, -41.33933 ], [ -72.96956, -41.33979 ], [ -72.96953, -41.34037 ], [ -72.97136, -41.34038 ], [ -72.97145, -41.34148 ], [ -72.96831, -41.34156 ], [ -72.96708, -41.34176 ], [ -72.96691, -41.34089 ], [ -72.96466, -41.34188 ], [ -72.96354, -41.34214 ], [ -72.96246, -41.34221 ], [ -72.96299, -41.34347 ], [ -72.96066, -41.34385 ], [ -72.95989, -41.34415 ], [ -72.95964, -41.34326 ], [ -72.95861, -41.34355 ], [ -72.9588, -41.34464 ], [ -72.95821, -41.34472 ], [ -72.95808, -41.3448 ], [ -72.95802, -41.34552 ], [ -72.95746, -41.34552 ], [ -72.95756, -41.34659 ], [ -72.95824, -41.34658 ], [ -72.95817, -41.34564 ], [ -72.96148, -41.34547 ], [ -72.96169, -41.34649 ], [ -72.96292, -41.34625 ], [ -72.9629, -41.34552 ], [ -72.96371, -41.34554 ], [ -72.96363, -41.34481 ], [ -72.969, -41.34444 ], [ -72.96898, -41.3437 ], [ -72.97009, -41.34351 ], [ -72.97015, -41.34307 ], [ -72.97083, -41.34308 ], [ -72.97086, -41.34236 ], [ -72.97302, -41.34229 ], [ -72.97295, -41.34153 ], [ -72.97857, -41.3414 ], [ -72.97856, -41.34221 ], [ -72.98671, -41.34184 ] ] ] } },
{ "type": "Feature", "properties": { "nombre": "Loteo Alto Verde", "tipo": "residential", "poblacion": 69 }, "geometry": { "type": "Polygon", "coordinates": [ [ [ -72.98742, -41.30719 ], [ -72.98814, -41.30489 ], [ -72.99163, -41.3052 ], [ -72.99154, -41.30666 ], [ -72.99371, -41.30677 ], [ -72.99306, -41.30822 ], [ -72.98742, -41.30719 ] ] ] } },
{ "type": "Feature", "properties": { "nombre": "Condominio Appel", "tipo": "residential", "poblacion": 0 }, "geometry": { "type": "Polygon", "coordinates": [ [ [ -72.96765, -41.3403 ], [ -72.95999, -41.34013 ], [ -72.95956, -41.34079 ], [ -72.95972, -41.34083 ], [ -72.95936, -41.34157 ], [ -72.96049, -41.34155 ], [ -72.96054, -41.34141 ], [ -72.96143, -41.34142 ], [ -72.96133, -41.34204 ], [ -72.96312, -41.34199 ], [ -72.9639, -41.34189 ], [ -72.96459, -41.34167 ], [ -72.96765, -41.3403 ] ] ] } },
{ "type": "Feature", "properties": { "nombre": "Condominio Jardines de Klenner", "tipo": "residential", "poblacion": 0 }, "geometry": { "type": "Polygon", "coordinates": [ [ [ -72.98317, -41.31305 ], [ -72.9812, -41.31262 ], [ -72.98109, -41.31295 ], [ -72.98308, -41.31333 ], [ -72.98317, -41.31305 ] ] ] } },
{ "type": "Feature", "properties": { "nombre": "Parcelas Bellavista", "tipo": "residential", "poblacion": 81 }, "geometry": { "type": "Polygon", "coordinates": [ [ [ -72.97598, -41.33094 ], [ -72.98152, -41.3311 ], [ -72.98156, -41.33012 ], [ -72.98059, -41.33008 ], [ -72.98143, -41.32832 ], [ -72.97713, -41.32778 ], [ -72.97619, -41.32888 ], [ -72.9759, -41.32942 ], [ -72.97577, -41.33003 ], [ -72.97598, -41.33094 ] ] ] } },
{ "type": "Feature", "properties": { "nombre": "Condominio Terrazas de Angelmó", "tipo": "residential", "poblacion": 0 }, "geometry": { "type": "Polygon", "coordinates": [ [ [ -72.97437, -41.48402 ], [ -72.97307, -41.48355 ], [ -72.97275, -41.48389 ], [ -72.97235, -41.48409 ], [ -72.97293, -41.48515 ], [ -72.97304, -41.48521 ], [ -72.97364, -41.48517 ], [ -72.97382, -41.48503 ], [ -72.97437, -41.48402 ] ] ] } },
{ "type": "Feature", "properties": { "nombre": "Villa Los Ojeda", "tipo": "neighbourhood", "poblacion": 0 }, "geometry": { "type": "Polygon", "coordinates": [ [ [ -72.8928, -41.49485 ], [ -72.89209, -41.4935 ], [ -72.89175, -41.49304 ], [ -72.89025, -41.49344 ], [ -72.89128, -41.49517 ], [ -72.8928, -41.49485 ] ] ] } },
{ "type": "Feature", "properties": { "nombre": "Jardín Patagónico", "tipo": "residential", "poblacion": 0 }, "geometry": { "type": "Polygon", "coordinates": [ [ [ -72.99523, -41.3147 ], [ -72.99424, -41.31468 ], [ -72.99414, -41.31539 ], [ -72.99522, -41.31545 ], [ -72.99523, -41.3147 ] ] ] } },
{ "type": "Feature", "properties": { "nombre": "Condominio Vista Volcanes", "tipo": "residential", "poblacion": 0 }, "geometry": { "type": "Polygon", "coordinates": [ [ [ -72.91342, -41.45801 ], [ -72.91354, -41.45681 ], [ -72.91309, -41.45678 ], [ -72.9116, -41.45695 ], [ -72.9117, -41.4577 ], [ -72.91299, -41.45759 ], [ -72.91295, -41.45798 ], [ -72.91342, -41.45801 ] ] ] } },
{ "type": "Feature", "properties": { "nombre": "Parcelas Las Lagunas", "tipo": "residential", "poblacion": 0 }, "geometry": { "type": "Polygon", "coordinates": [ [ [ -72.99995, -41.30402 ], [ -72.99633, -41.30387 ], [ -72.99613, -41.30805 ], [ -72.99875, -41.30788 ], [ -72.99989, -41.3076 ], [ -72.99995, -41.30402 ] ] ] } },
{ "type": "Feature", "properties": { "nombre": "Condominio Los Chilcos", "tipo": "residential", "poblacion": 0 }, "geometry": { "type": "Polygon", "coordinates": [ [ [ -73.02737, -41.12688 ], [ -73.02738, -41.1265 ], [ -73.02721, -41.1264 ], [ -73.02618, -41.12672 ], [ -73.02638, -41.12699 ], [ -73.02737, -41.12688 ] ] ] } },
{ "type": "Feature", "properties": { "nombre": "Condominio Plaza Decher 1", "tipo": "residential", "poblacion": 0 }, "geometry": { "type": "Polygon", "coordinates": [ [ [ -72.98749, -41.31228 ], [ -72.98728, -41.31298 ], [ -72.98666, -41.31288 ], [ -72.98682, -41.31234 ], [ -72.98643, -41.31225 ], [ -72.98648, -41.31209 ], [ -72.98749, -41.31228 ] ] ] } },
{ "type": "Feature", "properties": { "nombre": "Condominio Plaza Decher 2", "tipo": "residential", "poblacion": 0 }, "geometry": { "type": "Polygon", "coordinates": [ [ [ -72.98746, -41.31302 ], [ -72.98769, -41.31231 ], [ -72.98872, -41.31251 ], [ -72.98847, -41.31319 ], [ -72.98746, -41.31302 ] ] ] } },
{ "type": "Feature", "properties": { "nombre": "Altos de Decher", "tipo": "residential", "poblacion": 0 }, "geometry": { "type": "Polygon", "coordinates": [ [ [ -72.99337, -41.31384 ], [ -72.9933, -41.31408 ], [ -72.994, -41.31414 ], [ -72.99402, -41.31399 ], [ -72.99337, -41.31384 ] ] ] } },
{ "type": "Feature", "properties": { "nombre": "Condominio Las Pataguas", "tipo": "residential", "poblacion": 0 }, "geometry": { "type": "Polygon", "coordinates": [ [ [ -72.98629, -41.31001 ], [ -72.98659, -41.30918 ], [ -72.98303, -41.30858 ], [ -72.98279, -41.30939 ], [ -72.98629, -41.31001 ] ] ] } },
{ "type": "Feature", "properties": { "nombre": "Loteo La Posesión", "tipo": "residential", "poblacion": 0 }, "geometry": { "type": "Polygon", "coordinates": [ [ [ -72.99662, -41.29967 ], [ -72.99647, -41.30377 ], [ -72.99366, -41.30369 ], [ -72.99381, -41.30287 ], [ -72.99326, -41.3028 ], [ -72.9935, -41.2996 ], [ -72.99662, -41.29967 ] ] ] } },
{ "type": "Feature", "properties": { "nombre": "Lomas del Ciprés", "tipo": "residential", "poblacion": 0 }, "geometry": { "type": "Polygon", "coordinates": [ [ [ -72.9935, -41.2996 ], [ -72.99326, -41.30291 ], [ -72.98919, -41.30205 ], [ -72.99007, -41.29953 ], [ -72.9935, -41.2996 ] ] ] } },
{ "type": "Feature", "properties": { "nombre": "Mirador de Philippi", "tipo": "residential", "poblacion": 0 }, "geometry": { "type": "Polygon", "coordinates": [ [ [ -72.98236, -41.31182 ], [ -72.98243, -41.31184 ], [ -72.98233, -41.31214 ], [ -72.98137, -41.31195 ], [ -72.98163, -41.31116 ], [ -72.98259, -41.31132 ], [ -72.98236, -41.31182 ] ] ] } },
{ "type": "Feature", "properties": { "nombre": "Parcelas Beyer", "tipo": "residential", "poblacion": 0 }, "geometry": { "type": "Polygon", "coordinates": [ [ [ -73.00044, -41.32071 ], [ -73.00052, -41.31871 ], [ -72.99909, -41.31871 ], [ -72.99896, -41.32066 ], [ -73.00044, -41.32071 ] ] ] } },
{ "type": "Feature", "properties": { "nombre": "Loteo Las Araucarias", "tipo": "residential", "poblacion": 0 }, "geometry": { "type": "Polygon", "coordinates": [ [ [ -73.00268, -41.32176 ], [ -72.99479, -41.32184 ], [ -72.99463, -41.32302 ], [ -72.99403, -41.32301 ], [ -72.99398, -41.32339 ], [ -73.00258, -41.32341 ], [ -73.00268, -41.32176 ] ] ] } },
{ "type": "Feature", "properties": { "nombre": "Parcelas Berner", "tipo": "residential", "poblacion": 0 }, "geometry": { "type": "Polygon", "coordinates": [ [ [ -73.00268, -41.32176 ], [ -72.99527, -41.32183 ], [ -72.99526, -41.32165 ], [ -72.99513, -41.32163 ], [ -72.99537, -41.32057 ], [ -73.0018, -41.32074 ], [ -73.00172, -41.32119 ], [ -73.00271, -41.32123 ], [ -73.00268, -41.32176 ] ] ] } },
{ "type": "Feature", "properties": { "nombre": "Plaza Brintrup", "tipo": "residential", "poblacion": 0 }, "geometry": { "type": "Polygon", "coordinates": [ [ [ -72.98905, -41.32507 ], [ -72.99005, -41.32507 ], [ -72.99005, -41.32573 ], [ -72.98886, -41.32572 ], [ -72.98888, -41.32534 ], [ -72.98905, -41.32507 ] ] ] } },
{ "type": "Feature", "properties": { "nombre": "Plaza Schwerter", "tipo": "residential", "poblacion": 0 }, "geometry": { "type": "Polygon", "coordinates": [ [ [ -72.99315, -41.32468 ], [ -72.99148, -41.32453 ], [ -72.99144, -41.32522 ], [ -72.99227, -41.32524 ], [ -72.99225, -41.32546 ], [ -72.99251, -41.32547 ], [ -72.99246, -41.32591 ], [ -72.9931, -41.32595 ], [ -72.99315, -41.32468 ] ] ] } },
{ "type": "Feature", "properties": { "nombre": "Condominio Ciudad de Las Rosas", "tipo": "residential", "poblacion": 0 }, "geometry": { "type": "Polygon", "coordinates": [ [ [ -72.97976, -41.32298 ], [ -72.97899, -41.32336 ], [ -72.97925, -41.32369 ], [ -72.98004, -41.32328 ], [ -72.97976, -41.32298 ] ] ] } },
{ "type": "Feature", "properties": { "nombre": "Condominio El Arrayán", "tipo": "residential", "poblacion": 0 }, "geometry": { "type": "Polygon", "coordinates": [ [ [ -72.98004, -41.32328 ], [ -72.97925, -41.32369 ], [ -72.97953, -41.32399 ], [ -72.98032, -41.32359 ], [ -72.98004, -41.32328 ] ] ] } },
{ "type": "Feature", "properties": { "nombre": "Edificio Vista Lago II", "tipo": "residential", "poblacion": 0 }, "geometry": { "type": "Polygon", "coordinates": [ [ [ -72.96291, -41.32879 ], [ -72.96299, -41.32901 ], [ -72.96373, -41.32885 ], [ -72.96385, -41.32917 ], [ -72.96275, -41.32938 ], [ -72.96256, -41.32888 ], [ -72.96291, -41.32879 ] ] ] } },
{ "type": "Feature", "properties": { "nombre": "Edificio Los Colonos", "tipo": "residential", "poblacion": 0 }, "geometry": { "type": "Polygon", "coordinates": [ [ [ -72.96247, -41.33006 ], [ -72.96262, -41.33048 ], [ -72.96361, -41.33066 ], [ -72.96371, -41.33061 ], [ -72.96374, -41.33048 ], [ -72.96347, -41.32988 ], [ -72.96247, -41.33006 ] ] ] } },
{ "type": "Feature", "properties": { "nombre": "Loteo Las Lomas", "tipo": "residential", "poblacion": 0 }, "geometry": { "type": "Polygon", "coordinates": [ [ [ -72.96027, -41.33083 ], [ -72.95927, -41.33087 ], [ -72.95757, -41.33064 ], [ -72.9572, -41.33092 ], [ -72.95786, -41.33122 ], [ -72.95799, -41.33174 ], [ -72.95999, -41.33138 ], [ -72.96, -41.33119 ], [ -72.96034, -41.33111 ], [ -72.96027, -41.33083 ] ] ] } },
{ "type": "Feature", "properties": { "nombre": "Parque Los Encinos", "tipo": "residential", "poblacion": 0 }, "geometry": { "type": "Polygon", "coordinates": [ [ [ -72.95519, -41.32959 ], [ -72.95524, -41.32946 ], [ -72.95504, -41.32809 ], [ -72.95395, -41.32807 ], [ -72.95412, -41.3289 ], [ -72.95413, -41.32961 ], [ -72.95519, -41.32959 ] ] ] } },
{ "type": "Feature", "properties": { "nombre": "Loteo Puerto Varas Norte", "tipo": "residential", "poblacion": 0 }, "geometry": { "type": "Polygon", "coordinates": [ [ [ -72.9797, -41.29887 ], [ -72.979, -41.29979 ], [ -72.9794, -41.30068 ], [ -72.98295, -41.30086 ], [ -72.98355, -41.30104 ], [ -72.9894, -41.30104 ], [ -72.98995, -41.29948 ], [ -72.99022, -41.29906 ], [ -72.9797, -41.29887 ] ] ] } },
{ "type": "Feature", "properties": { "nombre": "Edificio Alto Patagonia", "tipo": "residential", "poblacion": 0 }, "geometry": { "type": "Polygon", "coordinates": [ [ [ -72.969, -41.32698 ], [ -72.96841, -41.32718 ], [ -72.96802, -41.3266 ], [ -72.96865, -41.32641 ], [ -72.969, -41.32698 ] ] ] } },
{ "type": "Feature", "properties": { "nombre": "Edificio Costanera", "tipo": "residential", "poblacion": 0 }, "geometry": { "type": "Polygon", "coordinates": [ [ [ -72.97037, -41.32597 ], [ -72.96956, -41.32619 ], [ -72.96978, -41.3266 ], [ -72.97057, -41.32636 ], [ -72.97037, -41.32597 ] ] ] } },
{ "type": "Feature", "properties": { "nombre": "Condominio Las Bandurrias", "tipo": "residential", "poblacion": 0 }, "geometry": { "type": "Polygon", "coordinates": [ [ [ -72.94968, -41.3213 ], [ -72.94968, -41.3211 ], [ -72.95139, -41.32107 ], [ -72.95141, -41.3213 ], [ -72.94968, -41.3213 ] ] ] } },
{ "type": "Feature", "properties": { "nombre": "Condominio Las Encinas", "tipo": "residential", "poblacion": 0 }, "geometry": { "type": "Polygon", "coordinates": [ [ [ -72.94961, -41.32061 ], [ -72.94964, -41.32105 ], [ -72.95223, -41.32101 ], [ -72.95205, -41.32059 ], [ -72.94961, -41.32061 ] ] ] } },
{ "type": "Feature", "properties": { "nombre": "Condominio Puerto Laurel", "tipo": "residential", "poblacion": 0 }, "geometry": { "type": "Polygon", "coordinates": [ [ [ -72.94961, -41.32061 ], [ -72.95205, -41.32059 ], [ -72.95185, -41.31944 ], [ -72.95052, -41.31962 ], [ -72.94943, -41.31964 ], [ -72.94961, -41.32061 ] ] ] } },
{ "type": "Feature", "properties": { "nombre": "Condominio El Canelo", "tipo": "residential", "poblacion": 0 }, "geometry": { "type": "Polygon", "coordinates": [ [ [ -72.95078, -41.32572 ], [ -72.95014, -41.32537 ], [ -72.95134, -41.32525 ], [ -72.95149, -41.32605 ], [ -72.95125, -41.32611 ], [ -72.95078, -41.32572 ] ] ] } },
{ "type": "Feature", "properties": { "nombre": "Loteo Santa Augusta", "tipo": "residential", "poblacion": 0 }, "geometry": { "type": "Polygon", "coordinates": [ [ [ -73.00258, -41.32341 ], [ -73.0026, -41.32429 ], [ -72.99976, -41.3269 ], [ -72.99359, -41.32704 ], [ -72.9938, -41.32472 ], [ -72.99438, -41.32339 ], [ -73.00258, -41.32341 ] ] ] } },
{ "type": "Feature", "properties": { "nombre": "Condominio Alto Volcanes", "tipo": "residential", "poblacion": 0 }, "geometry": { "type": "Polygon", "coordinates": [ [ [ -72.90398, -41.45551 ], [ -72.90263, -41.4556 ], [ -72.90263, -41.45455 ], [ -72.90349, -41.45469 ], [ -72.90377, -41.45482 ], [ -72.90391, -41.45499 ], [ -72.90398, -41.45551 ] ] ] } },
{ "type": "Feature", "properties": { "nombre": "Condominio Vista Chinquihue", "tipo": "residential", "poblacion": 0 }, "geometry": { "type": "Polygon", "coordinates": [ [ [ -72.9919, -41.48207 ], [ -72.99285, -41.48258 ], [ -72.99348, -41.48292 ], [ -72.99256, -41.48308 ], [ -72.99152, -41.48302 ], [ -72.99138, -41.48316 ], [ -72.99126, -41.48311 ], [ -72.99106, -41.48286 ], [ -72.9919, -41.48207 ] ] ] } },
{ "type": "Feature", "properties": { "nombre": "Condominio Mar del Sur", "tipo": "residential", "poblacion": 0 }, "geometry": { "type": "Polygon", "coordinates": [ [ [ -72.93153, -41.4567 ], [ -72.93155, -41.45683 ], [ -72.93178, -41.4568 ], [ -72.93184, -41.45701 ], [ -72.93113, -41.4571 ], [ -72.93096, -41.45676 ], [ -72.93153, -41.4567 ] ] ] } },
{ "type": "Feature", "properties": { "nombre": "Condominio Mirador Sur", "tipo": "residential", "poblacion": 0 }, "geometry": { "type": "Polygon", "coordinates": [ [ [ -72.93214, -41.45054 ], [ -72.93222, -41.44959 ], [ -72.93381, -41.44988 ], [ -72.93358, -41.45081 ], [ -72.93214, -41.45054 ] ] ] } },
{ "type": "Feature", "properties": { "nombre": "Edificio Las Hortencias", "tipo": "residential", "poblacion": 0 }, "geometry": { "type": "Polygon", "coordinates": [ [ [ -72.94984, -41.32551 ], [ -72.94999, -41.32607 ], [ -72.94957, -41.32616 ], [ -72.94948, -41.32581 ], [ -72.94956, -41.32555 ], [ -72.94984, -41.32551 ] ] ] } },
{ "type": "Feature", "properties": { "nombre": "Edificio Los Castaños", "tipo": "residential", "poblacion": 0 }, "geometry": { "type": "Polygon", "coordinates": [ [ [ -72.95032, -41.32661 ], [ -72.9507, -41.327 ], [ -72.95008, -41.32702 ], [ -72.94995, -41.32664 ], [ -72.95032, -41.32661 ] ] ] } },
{ "type": "Feature", "properties": { "nombre": "Condominio Mirador Los Castaños", "tipo": "residential", "poblacion": 0 }, "geometry": { "type": "Polygon", "coordinates": [ [ [ -72.95086, -41.32765 ], [ -72.95074, -41.32802 ], [ -72.94967, -41.32803 ], [ -72.94998, -41.32758 ], [ -72.95034, -41.32739 ], [ -72.95086, -41.32765 ] ] ] } },
{ "type": "Feature", "properties": { "nombre": "Portal Altos de Mirasol", "tipo": "residential", "poblacion": 0 }, "geometry": { "type": "Polygon", "coordinates": [ [ [ -72.99031, -41.47466 ], [ -72.98924, -41.47548 ], [ -72.98858, -41.47422 ], [ -72.99049, -41.47275 ], [ -72.9913, -41.47319 ], [ -72.98985, -41.47434 ], [ -72.99031, -41.47466 ] ] ] } },
{ "type": "Feature", "properties": { "nombre": "Condominio Plaza Tepual", "tipo": "residential", "poblacion": 0 }, "geometry": { "type": "Polygon", "coordinates": [ [ [ -72.9952, -41.45521 ], [ -72.99475, -41.45538 ], [ -72.99534, -41.45617 ], [ -72.99583, -41.45596 ], [ -72.9952, -41.45521 ] ] ] } },
{ "type": "Feature", "properties": { "nombre": "Condominio Los Tilos 2", "tipo": "residential", "poblacion": 0 }, "geometry": { "type": "Polygon", "coordinates": [ [ [ -72.99428, -41.46509 ], [ -72.99559, -41.4667 ], [ -72.99597, -41.4663 ], [ -72.99484, -41.46488 ], [ -72.99428, -41.46509 ] ] ] } },
{ "type": "Feature", "properties": { "nombre": "Condominio Portal Bosquemar", "tipo": "residential", "poblacion": 0 }, "geometry": { "type": "Polygon", "coordinates": [ [ [ -72.99582, -41.47571 ], [ -72.99668, -41.47623 ], [ -72.9972, -41.47668 ], [ -72.99675, -41.47713 ], [ -72.99529, -41.47636 ], [ -72.99582, -41.47571 ] ] ] } },
{ "type": "Feature", "properties": { "nombre": "Condominio Los Jardines de la Villa", "tipo": "residential", "poblacion": 0 }, "geometry": { "type": "Polygon", "coordinates": [ [ [ -72.93571, -41.45556 ], [ -72.93423, -41.45589 ], [ -72.9344, -41.45666 ], [ -72.93622, -41.45643 ], [ -72.93571, -41.45556 ] ] ] } },
{ "type": "Feature", "properties": { "nombre": "Condominio Terraza Mirador", "tipo": "residential", "poblacion": 0 }, "geometry": { "type": "Polygon", "coordinates": [ [ [ -72.92189, -41.44859 ], [ -72.92192, -41.44874 ], [ -72.92202, -41.44874 ], [ -72.92225, -41.44908 ], [ -72.92212, -41.44913 ], [ -72.92206, -41.44927 ], [ -72.92253, -41.44915 ], [ -72.92271, -41.44899 ], [ -72.92282, -41.4487 ], [ -72.9228, -41.44845 ], [ -72.92189, -41.44859 ] ] ] } },
{ "type": "Feature", "properties": { "nombre": "Condominio Reserva Mirador", "tipo": "neighbourhood", "poblacion": 0 }, "geometry": { "type": "Polygon", "coordinates": [ [ [ -72.94022, -41.44538 ], [ -72.93944, -41.44553 ], [ -72.94004, -41.44704 ], [ -72.94239, -41.44614 ], [ -72.94171, -41.44525 ], [ -72.94022, -41.44538 ] ] ] } },
{ "type": "Feature", "properties": { "nombre": "Aires del Sur III", "tipo": "neighbourhood", "poblacion": 0 }, "geometry": { "type": "Polygon", "coordinates": [ [ [ -72.94677, -41.44426 ], [ -72.94771, -41.44487 ], [ -72.94775, -41.44554 ], [ -72.94572, -41.44577 ], [ -72.94566, -41.44557 ], [ -72.94527, -41.44517 ], [ -72.94502, -41.44472 ], [ -72.94677, -41.44426 ] ] ] } },
{ "type": "Feature", "properties": { "nombre": "Condominio Mirador 2", "tipo": "neighbourhood", "poblacion": 0 }, "geometry": { "type": "Polygon", "coordinates": [ [ [ -72.93816, -41.44302 ], [ -72.93683, -41.44311 ], [ -72.93684, -41.44316 ], [ -72.93546, -41.44322 ], [ -72.93543, -41.44426 ], [ -72.93826, -41.44387 ], [ -72.93816, -41.44302 ] ] ] } },
{ "type": "Feature", "properties": { "nombre": "Condominio Mirador 1", "tipo": "neighbourhood", "poblacion": 0 }, "geometry": { "type": "Polygon", "coordinates": [ [ [ -72.93829, -41.44299 ], [ -72.93833, -41.44341 ], [ -72.93847, -41.44385 ], [ -72.94143, -41.44348 ], [ -72.94162, -41.4427 ], [ -72.94048, -41.44275 ], [ -72.93829, -41.44299 ] ] ] } },
{ "type": "Feature", "properties": { "nombre": "Condominio Volcanes 1", "tipo": "residential", "poblacion": 0 }, "geometry": { "type": "Polygon", "coordinates": [ [ [ -72.90075, -41.45653 ], [ -72.90081, -41.45566 ], [ -72.90163, -41.45566 ], [ -72.90176, -41.45657 ], [ -72.90075, -41.45653 ] ] ] } },
{ "type": "Feature", "properties": { "nombre": "Condominio Volcanes 2", "tipo": "residential", "poblacion": 0 }, "geometry": { "type": "Polygon", "coordinates": [ [ [ -72.89981, -41.4565 ], [ -72.89978, -41.45575 ], [ -72.90081, -41.45566 ], [ -72.90075, -41.45653 ], [ -72.89981, -41.4565 ] ] ] } },
{ "type": "Feature", "properties": { "nombre": "Condominio Volcanes 3", "tipo": "residential", "poblacion": 0 }, "geometry": { "type": "Polygon", "coordinates": [ [ [ -72.89855, -41.45647 ], [ -72.89981, -41.4565 ], [ -72.89978, -41.45575 ], [ -72.89861, -41.4559 ], [ -72.89855, -41.45647 ] ] ] } },
{ "type": "Feature", "properties": { "nombre": "Condominio Alto Volcanes", "tipo": "residential", "poblacion": 0 }, "geometry": { "type": "Polygon", "coordinates": [ [ [ -72.91329, -41.45501 ], [ -72.9157, -41.45506 ], [ -72.91622, -41.45507 ], [ -72.91596, -41.45463 ], [ -72.91448, -41.45459 ], [ -72.91387, -41.45471 ], [ -72.91319, -41.45474 ], [ -72.91329, -41.45501 ] ] ] } },
{ "type": "Feature", "properties": { "nombre": "Condominio Bosque Pucalán", "tipo": "residential", "poblacion": 0 }, "geometry": { "type": "Polygon", "coordinates": [ [ [ -72.91596, -41.45463 ], [ -72.91448, -41.45459 ], [ -72.91387, -41.45471 ], [ -72.91319, -41.45474 ], [ -72.91304, -41.45441 ], [ -72.91551, -41.45387 ], [ -72.91596, -41.45463 ] ] ] } },
{ "type": "Feature", "properties": { "nombre": "Condominio Alto La Paloma", "tipo": "residential", "poblacion": 0 }, "geometry": { "type": "Polygon", "coordinates": [ [ [ -72.91273, -41.456 ], [ -72.91309, -41.4568 ], [ -72.91696, -41.45686 ], [ -72.91678, -41.45613 ], [ -72.91273, -41.456 ] ] ] } },
{ "type": "Feature", "properties": { "nombre": "Condominio Altos del Bosque", "tipo": "neighbourhood", "poblacion": 0 }, "geometry": { "type": "Polygon", "coordinates": [ [ [ -72.90633, -41.45385 ], [ -72.90648, -41.4545 ], [ -72.90485, -41.45501 ], [ -72.9043, -41.45493 ], [ -72.9035, -41.4546 ], [ -72.90192, -41.45436 ], [ -72.90162, -41.45442 ], [ -72.90135, -41.45456 ], [ -72.90134, -41.45464 ], [ -72.90035, -41.45497 ], [ -72.89985, -41.45504 ], [ -72.89916, -41.45535 ], [ -72.89906, -41.45455 ], [ -72.90129, -41.45399 ], [ -72.90457, -41.45378 ], [ -72.90633, -41.45385 ] ] ] } },
{ "type": "Feature", "properties": { "nombre": "Condominio Lomas del Valle", "tipo": "residential", "poblacion": 0 }, "geometry": { "type": "Polygon", "coordinates": [ [ [ -72.90977, -41.45358 ], [ -72.90939, -41.45355 ], [ -72.90902, -41.45409 ], [ -72.90906, -41.45461 ], [ -72.90968, -41.45457 ], [ -72.90977, -41.45358 ] ] ] } },
{ "type": "Feature", "properties": { "nombre": "Volcanes 4", "tipo": "neighbourhood", "poblacion": 0 }, "geometry": { "type": "Polygon", "coordinates": [ [ [ -72.89779, -41.45676 ], [ -72.8976, -41.45689 ], [ -72.89738, -41.45677 ], [ -72.89567, -41.45653 ], [ -72.89591, -41.45573 ], [ -72.89751, -41.45581 ], [ -72.89732, -41.45643 ], [ -72.89742, -41.45644 ], [ -72.89779, -41.45676 ] ] ] } },
{ "type": "Feature", "properties": { "nombre": "Jardines de Padre Harter", "tipo": "residential", "poblacion": 0 }, "geometry": { "type": "Polygon", "coordinates": [ [ [ -72.93326, -41.4675 ], [ -72.93367, -41.46751 ], [ -72.93365, -41.4673 ], [ -72.93384, -41.46635 ], [ -72.93411, -41.4656 ], [ -72.93376, -41.46569 ], [ -72.93388, -41.46599 ], [ -72.93324, -41.46614 ], [ -72.93326, -41.4675 ] ] ] } },
{ "type": "Feature", "properties": { "nombre": "Condominio Parque Egaña", "tipo": "residential", "poblacion": 0 }, "geometry": { "type": "Polygon", "coordinates": [ [ [ -72.91635, -41.47023 ], [ -72.91574, -41.47025 ], [ -72.9136, -41.46841 ], [ -72.91261, -41.46816 ], [ -72.91239, -41.46792 ], [ -72.9129, -41.46789 ], [ -72.9132, -41.46775 ], [ -72.91335, -41.46775 ], [ -72.91428, -41.46784 ], [ -72.91496, -41.46812 ], [ -72.916, -41.46881 ], [ -72.91638, -41.46987 ], [ -72.91635, -41.47023 ] ] ] } },
{ "type": "Feature", "properties": { "nombre": "Lomas de Reloncaví", "tipo": "residential", "poblacion": 0 }, "geometry": { "type": "Polygon", "coordinates": [ [ [ -72.90288, -41.47824 ], [ -72.90069, -41.47823 ], [ -72.9007, -41.47909 ], [ -72.90285, -41.47897 ], [ -72.90288, -41.47824 ] ] ] } },
{ "type": "Feature", "properties": { "nombre": "Condominio Alto Reloncaví", "tipo": "residential", "poblacion": 0 }, "geometry": { "type": "Polygon", "coordinates": [ [ [ -72.90736, -41.4779 ], [ -72.90574, -41.47789 ], [ -72.90522, -41.47808 ], [ -72.90562, -41.47886 ], [ -72.90538, -41.47896 ], [ -72.90535, -41.47907 ], [ -72.90735, -41.47917 ], [ -72.90736, -41.4779 ] ] ] } },
{ "type": "Feature", "properties": { "nombre": "Condominio Alto Reloncaví Norte", "tipo": "residential", "poblacion": 0 }, "geometry": { "type": "Polygon", "coordinates": [ [ [ -72.90753, -41.47773 ], [ -72.90627, -41.47772 ], [ -72.90631, -41.47694 ], [ -72.90614, -41.47675 ], [ -72.90637, -41.47661 ], [ -72.90658, -41.47635 ], [ -72.90655, -41.47602 ], [ -72.90676, -41.47577 ], [ -72.90654, -41.47538 ], [ -72.90707, -41.47532 ], [ -72.90792, -41.47506 ], [ -72.90886, -41.47559 ], [ -72.90754, -41.47679 ], [ -72.90753, -41.47773 ] ] ] } },
{ "type": "Feature", "properties": { "nombre": "Condominio Brisas del Mar", "tipo": "residential", "poblacion": 0 }, "geometry": { "type": "Polygon", "coordinates": [ [ [ -72.89782, -41.48712 ], [ -72.89565, -41.48703 ], [ -72.89568, -41.48641 ], [ -72.89589, -41.48585 ], [ -72.89652, -41.48578 ], [ -72.89769, -41.48596 ], [ -72.89798, -41.48617 ], [ -72.89787, -41.4863 ], [ -72.89782, -41.48712 ] ] ] } },
{ "type": "Feature", "properties": { "nombre": "Jardines de Alto Mar", "tipo": "residential", "poblacion": 0 }, "geometry": { "type": "Polygon", "coordinates": [ [ [ -72.90533, -41.48502 ], [ -72.90536, -41.48551 ], [ -72.90515, -41.48577 ], [ -72.90457, -41.48584 ], [ -72.90397, -41.48576 ], [ -72.90421, -41.48491 ], [ -72.90533, -41.48502 ] ] ] } },
{ "type": "Feature", "properties": { "nombre": "Condominio Terramar", "tipo": "residential", "poblacion": 0 }, "geometry": { "type": "Polygon", "coordinates": [ [ [ -72.90588, -41.485 ], [ -72.90592, -41.48557 ], [ -72.90642, -41.48539 ], [ -72.9073, -41.48472 ], [ -72.90659, -41.4843 ], [ -72.90588, -41.485 ] ] ] } },
{ "type": "Feature", "properties": { "nombre": "Plaza Pelluco", "tipo": "residential", "poblacion": 0 }, "geometry": { "type": "Polygon", "coordinates": [ [ [ -72.89871, -41.4834 ], [ -72.89926, -41.48327 ], [ -72.9005, -41.48303 ], [ -72.9003, -41.48252 ], [ -72.89874, -41.48287 ], [ -72.89836, -41.48303 ], [ -72.89871, -41.4834 ] ] ] } },
{ "type": "Feature", "properties": { "nombre": "Bosque Nativo Urbano", "tipo": "residential", "poblacion": 0 }, "geometry": { "type": "Polygon", "coordinates": [ [ [ -72.88747, -41.47874 ], [ -72.8873, -41.47887 ], [ -72.88732, -41.47907 ], [ -72.88756, -41.47944 ], [ -72.88735, -41.47974 ], [ -72.88659, -41.47936 ], [ -72.88615, -41.47953 ], [ -72.88561, -41.47879 ], [ -72.88532, -41.47822 ], [ -72.8863, -41.47776 ], [ -72.88682, -41.47784 ], [ -72.8868, -41.4782 ], [ -72.88693, -41.47845 ], [ -72.88717, -41.47865 ], [ -72.88747, -41.47874 ] ] ] } },
{ "type": "Feature", "properties": { "nombre": "Condominio Plaza del Valle", "tipo": "residential", "poblacion": 0 }, "geometry": { "type": "Polygon", "coordinates": [ [ [ -72.90812, -41.46668 ], [ -72.90696, -41.46647 ], [ -72.90682, -41.46689 ], [ -72.90797, -41.4671 ], [ -72.90812, -41.46668 ] ] ] } },
{ "type": "Feature", "properties": { "nombre": "Villa Santa Teresa", "tipo": "neighbourhood", "poblacion": 0 }, "geometry": { "type": "Polygon", "coordinates": [ [ [ -72.88855, -41.48783 ], [ -72.88903, -41.48692 ], [ -72.8908, -41.48703 ], [ -72.89103, -41.48716 ], [ -72.88855, -41.48783 ] ] ] } },
{ "type": "Feature", "properties": { "nombre": "Condominio Hacienda Volcanes", "tipo": "residential", "poblacion": 0 }, "geometry": { "type": "Polygon", "coordinates": [ [ [ -72.90977, -41.45358 ], [ -72.90968, -41.45494 ], [ -72.91106, -41.45481 ], [ -72.91101, -41.45442 ], [ -72.91042, -41.45446 ], [ -72.91027, -41.45362 ], [ -72.90977, -41.45358 ] ] ] } },
{ "type": "Feature", "properties": { "nombre": "Condominio El Olivillo", "tipo": "residential", "poblacion": 0 }, "geometry": { "type": "Polygon", "coordinates": [ [ [ -72.99039, -41.4671 ], [ -72.98987, -41.46765 ], [ -72.99085, -41.46817 ], [ -72.99137, -41.46762 ], [ -72.99039, -41.4671 ] ] ] } },
{ "type": "Feature", "properties": { "nombre": "Conjunto Habitacional San Pedro", "tipo": "residential", "poblacion": 0 }, "geometry": { "type": "Polygon", "coordinates": [ [ [ -72.98649, -41.45892 ], [ -72.9864, -41.4588 ], [ -72.98585, -41.45901 ], [ -72.98549, -41.45851 ], [ -72.98641, -41.45789 ], [ -72.98699, -41.45873 ], [ -72.98649, -41.45892 ] ] ] } },
{ "type": "Feature", "properties": { "nombre": "Condominio Lomas de Reloncaví", "tipo": "residential", "poblacion": 0 }, "geometry": { "type": "Polygon", "coordinates": [ [ [ -72.90429, -41.47745 ], [ -72.90428, -41.47807 ], [ -72.90348, -41.47806 ], [ -72.90349, -41.47745 ], [ -72.90429, -41.47745 ] ] ] } },
{ "type": "Feature", "properties": { "nombre": "Smart Reloncaví", "tipo": "residential", "poblacion": 0 }, "geometry": { "type": "Polygon", "coordinates": [ [ [ -72.9043, -41.47806 ], [ -72.90484, -41.47804 ], [ -72.90543, -41.47779 ], [ -72.90523, -41.47734 ], [ -72.90454, -41.47752 ], [ -72.90429, -41.47752 ], [ -72.9043, -41.47806 ] ] ] } },
{ "type": "Feature", "properties": { "nombre": "Condominio Caburga", "tipo": "neighbourhood", "poblacion": 0 }, "geometry": { "type": "Polygon", "coordinates": [ [ [ -72.91124, -41.45611 ], [ -72.91129, -41.45654 ], [ -72.90993, -41.45664 ], [ -72.90988, -41.45622 ], [ -72.91124, -41.45611 ] ] ] } },
{ "type": "Feature", "properties": { "nombre": "Brisas del Norte 3", "tipo": "neighbourhood", "poblacion": 0 }, "geometry": { "type": "Polygon", "coordinates": [ [ [ -72.91113, -41.45527 ], [ -72.90974, -41.45537 ], [ -72.90988, -41.45622 ], [ -72.91124, -41.45611 ], [ -72.91113, -41.45527 ] ] ] } },
{ "type": "Feature", "properties": { "nombre": "Condominio Vista Cordillera", "tipo": "neighbourhood", "poblacion": 0 }, "geometry": { "type": "Polygon", "coordinates": [ [ [ -72.89564, -41.45662 ], [ -72.89516, -41.45854 ], [ -72.89489, -41.45853 ], [ -72.89336, -41.45699 ], [ -72.89419, -41.45657 ], [ -72.89473, -41.45654 ], [ -72.89564, -41.45662 ] ] ] } },
{ "type": "Feature", "properties": { "nombre": "Condominio Palermo", "tipo": "neighbourhood", "poblacion": 0 }, "geometry": { "type": "Polygon", "coordinates": [ [ [ -72.91254, -41.45555 ], [ -72.91141, -41.45567 ], [ -72.91146, -41.45613 ], [ -72.91273, -41.456 ], [ -72.91254, -41.45555 ] ] ] } },
{ "type": "Feature", "properties": { "nombre": "Condominio Río Negro", "tipo": "residential", "poblacion": 0 }, "geometry": { "type": "Polygon", "coordinates": [ [ [ -72.91974, -41.38974 ], [ -72.91985, -41.39012 ], [ -72.92022, -41.39059 ], [ -72.9164, -41.39052 ], [ -72.91589, -41.3896 ], [ -72.91974, -41.38974 ] ] ] } },
{ "type": "Feature", "properties": { "nombre": "Condominio Camino de Agua", "tipo": "residential", "poblacion": 0 }, "geometry": { "type": "Polygon", "coordinates": [ [ [ -72.99981, -41.51056 ], [ -72.9996, -41.51135 ], [ -72.99963, -41.51155 ], [ -72.99976, -41.5117 ], [ -72.9998, -41.51152 ], [ -73.00031, -41.51123 ], [ -73.00046, -41.51082 ], [ -73.00054, -41.51083 ], [ -73.00071, -41.51028 ], [ -73.0002, -41.5102 ], [ -73.00017, -41.51034 ], [ -73.00003, -41.51032 ], [ -72.99999, -41.51048 ], [ -72.99981, -41.51056 ] ] ] } },
{ "type": "Feature", "properties": { "nombre": "Condominio Los Espinos", "tipo": "residential", "poblacion": 0 }, "geometry": { "type": "Polygon", "coordinates": [ [ [ -72.99137, -41.46762 ], [ -72.9919, -41.46706 ], [ -72.99092, -41.46653 ], [ -72.99039, -41.4671 ], [ -72.99137, -41.46762 ] ] ] } },
{ "type": "Feature", "properties": { "nombre": "Condominio El Mañío", "tipo": "residential", "poblacion": 0 }, "geometry": { "type": "Polygon", "coordinates": [ [ [ -72.9908, -41.46522 ], [ -72.99093, -41.46573 ], [ -72.9908, -41.46611 ], [ -72.98941, -41.46768 ], [ -72.98903, -41.46678 ], [ -72.98917, -41.46673 ], [ -72.99054, -41.4653 ], [ -72.9908, -41.46522 ] ] ] } },
{ "type": "Feature", "properties": { "nombre": "Los Leones", "tipo": "residential", "poblacion": 0 }, "geometry": { "type": "Polygon", "coordinates": [ [ [ -72.92824, -41.46752 ], [ -72.92835, -41.46709 ], [ -72.92893, -41.4672 ], [ -72.92878, -41.46783 ], [ -72.92854, -41.4678 ], [ -72.92859, -41.46757 ], [ -72.92824, -41.46752 ] ] ] } },
{ "type": "Feature", "properties": { "nombre": "Condominio Los Robles", "tipo": "residential", "poblacion": 0 }, "geometry": { "type": "Polygon", "coordinates": [ [ [ -72.98562, -41.45819 ], [ -72.98525, -41.45758 ], [ -72.98492, -41.45745 ], [ -72.98446, -41.45744 ], [ -72.98411, -41.45756 ], [ -72.98394, -41.45779 ], [ -72.98538, -41.45836 ], [ -72.98562, -41.45819 ] ] ] } },
{ "type": "Feature", "properties": { "nombre": "Condominio Piedra Azul", "tipo": "residential", "poblacion": 0 }, "geometry": { "type": "Polygon", "coordinates": [ [ [ -72.99444, -41.4828 ], [ -72.99348, -41.48292 ], [ -72.99285, -41.48258 ], [ -72.99371, -41.48167 ], [ -72.99474, -41.48223 ], [ -72.9944, -41.48255 ], [ -72.99494, -41.48263 ], [ -72.99471, -41.48287 ], [ -72.99444, -41.4828 ] ] ] } },
{ "type": "Feature", "properties": { "nombre": "Edificio Buenavista", "tipo": "residential", "poblacion": 0 }, "geometry": { "type": "Polygon", "coordinates": [ [ [ -72.99103, -41.31246 ], [ -72.99113, -41.31285 ], [ -72.99135, -41.31296 ], [ -72.99126, -41.31313 ], [ -72.99091, -41.31305 ], [ -72.9907, -41.31247 ], [ -72.99103, -41.31246 ] ] ] } },
{ "type": "Feature", "properties": { "nombre": "Edificio Vita", "tipo": "residential", "poblacion": 0 }, "geometry": { "type": "Polygon", "coordinates": [ [ [ -72.98913, -41.317 ], [ -72.98912, -41.31723 ], [ -72.9881, -41.31721 ], [ -72.98809, -41.31696 ], [ -72.98913, -41.317 ] ] ] } },
{ "type": "Feature", "properties": { "nombre": "Edificio Vista Lago", "tipo": "residential", "poblacion": 0 }, "geometry": { "type": "Polygon", "coordinates": [ [ [ -72.96261, -41.32788 ], [ -72.96291, -41.32879 ], [ -72.96256, -41.32888 ], [ -72.96226, -41.32795 ], [ -72.96261, -41.32788 ] ] ] } },
{ "type": "Feature", "properties": { "nombre": "Condominio Los Aromos", "tipo": "residential", "poblacion": 0 }, "geometry": { "type": "Polygon", "coordinates": [ [ [ -72.9919, -41.46706 ], [ -72.99244, -41.4665 ], [ -72.9913, -41.46593 ], [ -72.99092, -41.46653 ], [ -72.9919, -41.46706 ] ] ] } },
{ "type": "Feature", "properties": { "nombre": "Condominio Los Tilos", "tipo": "residential", "poblacion": 0 }, "geometry": { "type": "Polygon", "coordinates": [ [ [ -72.99308, -41.46543 ], [ -72.99255, -41.46452 ], [ -72.99411, -41.46397 ], [ -72.99477, -41.46479 ], [ -72.99308, -41.46543 ] ] ] } },
{ "type": "Feature", "properties": { "nombre": "Condominio Los Ñirres", "tipo": "residential", "poblacion": 0 }, "geometry": { "type": "Polygon", "coordinates": [ [ [ -72.99308, -41.46543 ], [ -72.99227, -41.46573 ], [ -72.99171, -41.46482 ], [ -72.99255, -41.46452 ], [ -72.99308, -41.46543 ] ] ] } },
{ "type": "Feature", "properties": { "nombre": "Condominio Moraleda II", "tipo": "residential", "poblacion": 0 }, "geometry": { "type": "Polygon", "coordinates": [ [ [ -72.96638, -41.47974 ], [ -72.96681, -41.48002 ], [ -72.96665, -41.48029 ], [ -72.96709, -41.48035 ], [ -72.96699, -41.4806 ], [ -72.9665, -41.48049 ], [ -72.96591, -41.48011 ], [ -72.96638, -41.47974 ] ] ] } },
{ "type": "Feature", "properties": { "nombre": "Villa Las Rosas", "tipo": "residential", "poblacion": 0 }, "geometry": { "type": "Polygon", "coordinates": [ [ [ -72.97211, -41.47822 ], [ -72.97146, -41.47837 ], [ -72.97058, -41.47738 ], [ -72.97075, -41.47725 ], [ -72.97211, -41.47822 ] ] ] } },
{ "type": "Feature", "properties": { "nombre": "Condominio Viento Sur", "tipo": "residential", "poblacion": 0 }, "geometry": { "type": "Polygon", "coordinates": [ [ [ -72.98869, -41.47175 ], [ -72.98753, -41.47252 ], [ -72.9872, -41.47096 ], [ -72.98869, -41.47175 ] ] ] } },
{ "type": "Feature", "properties": { "nombre": "Condominio Miradores de Bellavista", "tipo": "residential", "poblacion": 0 }, "geometry": { "type": "Polygon", "coordinates": [ [ [ -72.96137, -41.47227 ], [ -72.96073, -41.47214 ], [ -72.96043, -41.47183 ], [ -72.96155, -41.47118 ], [ -72.96209, -41.47175 ], [ -72.96137, -41.47227 ] ] ] } },
{ "type": "Feature", "properties": { "nombre": "San Ignacio", "tipo": "residential", "poblacion": 0 }, "geometry": { "type": "Polygon", "coordinates": [ [ [ -72.96684, -41.48513 ], [ -72.9671, -41.48564 ], [ -72.96653, -41.48581 ], [ -72.96627, -41.48529 ], [ -72.96684, -41.48513 ] ] ] } },
{ "type": "Feature", "properties": { "nombre": "Condominio Vista Reloncaví", "tipo": "residential", "poblacion": 0 }, "geometry": { "type": "Polygon", "coordinates": [ [ [ -72.92873, -41.47227 ], [ -72.92791, -41.47215 ], [ -72.9277, -41.473 ], [ -72.92809, -41.47305 ], [ -72.92804, -41.47322 ], [ -72.92851, -41.47326 ], [ -72.92873, -41.47227 ] ] ] } },
{ "type": "Feature", "properties": { "nombre": "Condominio Vista Madero", "tipo": "residential", "poblacion": 0 }, "geometry": { "type": "Polygon", "coordinates": [ [ [ -72.90036, -41.47825 ], [ -72.90034, -41.47911 ], [ -72.90016, -41.47901 ], [ -72.89947, -41.47825 ], [ -72.90036, -41.47825 ] ] ] } },
{ "type": "Feature", "properties": { "nombre": "Alto Reloncaví", "tipo": "residential", "poblacion": 0 }, "geometry": { "type": "Polygon", "coordinates": [ [ [ -72.90535, -41.47722 ], [ -72.90631, -41.47694 ], [ -72.90614, -41.47675 ], [ -72.90637, -41.47661 ], [ -72.90627, -41.47653 ], [ -72.90639, -41.47634 ], [ -72.90594, -41.47591 ], [ -72.90529, -41.47627 ], [ -72.90499, -41.47659 ], [ -72.90535, -41.47722 ] ] ] } },
{ "type": "Feature", "properties": { "nombre": "Vista Puerto Varas", "tipo": "residential", "poblacion": 0 }, "geometry": { "type": "Polygon", "coordinates": [ [ [ -72.94922, -41.32056 ], [ -72.9473, -41.32111 ], [ -72.94615, -41.31947 ], [ -72.94799, -41.31816 ], [ -72.94833, -41.3188 ], [ -72.9486, -41.31873 ], [ -72.94912, -41.32 ], [ -72.94922, -41.32056 ] ] ] } },
{ "type": "Feature", "properties": { "nombre": "Condominio Punta Tenglo", "tipo": "residential", "poblacion": 0 }, "geometry": { "type": "Polygon", "coordinates": [ [ [ -72.97237, -41.48412 ], [ -72.97172, -41.48432 ], [ -72.97173, -41.48448 ], [ -72.97147, -41.4847 ], [ -72.97142, -41.48489 ], [ -72.97182, -41.48523 ], [ -72.97276, -41.48536 ], [ -72.97293, -41.48515 ], [ -72.97237, -41.48412 ] ] ] } },
{ "type": "Feature", "properties": { "nombre": "Condominio Vista Calbuco", "tipo": "residential", "poblacion": 0 }, "geometry": { "type": "Polygon", "coordinates": [ [ [ -72.9919, -41.48207 ], [ -72.99285, -41.48258 ], [ -72.99371, -41.48167 ], [ -72.99273, -41.48122 ], [ -72.9919, -41.48207 ] ] ] } }
]
}
