{
"type": "FeatureCollection",
"name": "CLV",
"crs": { "type": "name", "properties": { "name": "urn:ogc:def:crs:OGC:1.3:CRS84" } },
"xy_coordinate_resolution": 1e-05,
"features": [
{ "type": "Feature", "properties": { "nombre": "Fundo Salas", "tipo": "residential", "poblacion": 0 }, "geometry": { "type": "Polygon", "coordinates": [ [ [ -72.53474, -40.31157 ], [ -72.53508, -40.31167 ], [ -72.53507, -40.31175 ], [ -72.53623, -40.31219 ], [ -72.5359, -40.31246 ], [ -72.53568, -40.31235 ], [ -72.53533, -40.31259 ], [ -72.53502, -40.3123 ], [ -72.53496, -40.31202 ], [ -72.53462, -40.31184 ], [ -72.53474, -40.31157 ] ] ] } },
{ "type": "Feature", "properties": { "nombre": "Villorrio 2", "tipo": "neighbourhood", "poblacion": 0 }, "geometry": { "type": "Polygon", "coordinates": [ [ [ -72.58695, -40.24497 ], [ -72.58592, -40.24594 ], [ -72.58643, -40.24729 ], [ -72.58671, -40.24723 ], [ -72.58676, -40.24732 ], [ -72.58692, -40.24728 ], [ -72.58686, -40.24713 ], [ -72.58765, -40.24695 ], [ -72.58695, -40.24497 ] ] ] } }
]
}
