{
"type": "FeatureCollection",
"name": "GUA",
"crs": { "type": "name", "properties": { "name": "urn:ogc:def:crs:OGC:1.3:CRS84" } },
"xy_coordinate_resolution": 1e-05,
"features": [
{ "type": "Feature", "properties": { "nombre": "Sacabaya", "tipo": "residential", "poblacion": 0 }, "geometry": { "type": "Polygon", "coordinates": [ [ [ -68.7885, -18.57089 ], [ -68.78727, -18.57116 ], [ -68.78638, -18.57168 ], [ -68.78678, -18.57292 ], [ -68.78861, -18.574 ], [ -68.78943, -18.57319 ], [ -68.78959, -18.57229 ], [ -68.78903, -18.57111 ], [ -68.7885, -18.57089 ] ] ] } },
{ "type": "Feature", "properties": { "nombre": "Julo", "tipo": "residential", "poblacion": 0 }, "geometry": { "type": "Polygon", "coordinates": [ [ [ -68.89177, -18.70277 ], [ -68.88935, -18.70254 ], [ -68.88783, -18.70043 ], [ -68.88972, -18.69805 ], [ -68.89163, -18.6975 ], [ -68.89417, -18.69875 ], [ -68.89177, -18.70277 ] ] ] } },
{ "type": "Feature", "properties": { "nombre": "Kasilla-Jila Uta Manasaya", "tipo": "residential", "poblacion": 0 }, "geometry": { "type": "Polygon", "coordinates": [ [ [ -68.96596, -18.06107 ], [ -68.96638, -18.06079 ], [ -68.96662, -18.05989 ], [ -68.96646, -18.05941 ], [ -68.96474, -18.05903 ], [ -68.96437, -18.05902 ], [ -68.96406, -18.05945 ], [ -68.96399, -18.05989 ], [ -68.96428, -18.06025 ], [ -68.96525, -18.06105 ], [ -68.96596, -18.06107 ] ] ] } },
{ "type": "Feature", "properties": { "nombre": "Aillu Originario Jila Uta Collana", "tipo": "residential", "poblacion": 0 }, "geometry": { "type": "Polygon", "coordinates": [ [ [ -68.9706, -18.10487 ], [ -68.96977, -18.10464 ], [ -68.96932, -18.10507 ], [ -68.96907, -18.1055 ], [ -68.9692, -18.10609 ], [ -68.96955, -18.10637 ], [ -68.97012, -18.10636 ], [ -68.97032, -18.10623 ], [ -68.97064, -18.10588 ], [ -68.97074, -18.10553 ], [ -68.9706, -18.10487 ] ] ] } },
{ "type": "Feature", "properties": { "nombre": "Suni Papel Pampa", "tipo": "residential", "poblacion": 0 }, "geometry": { "type": "Polygon", "coordinates": [ [ [ -69.00415, -18.17492 ], [ -69.00414, -18.17464 ], [ -69.00344, -18.17403 ], [ -69.00321, -18.17403 ], [ -69.00159, -18.1745 ], [ -69.00129, -18.17591 ], [ -69.0013, -18.17637 ], [ -69.0016, -18.17638 ], [ -69.00228, -18.1762 ], [ -69.00382, -18.17541 ], [ -69.00415, -18.17492 ] ] ] } },
{ "type": "Feature", "properties": { "nombre": "Quimsa Jakke", "tipo": "residential", "poblacion": 0 }, "geometry": { "type": "Polygon", "coordinates": [ [ [ -68.95529, -18.2709 ], [ -68.95548, -18.2706 ], [ -68.95529, -18.2703 ], [ -68.955, -18.27016 ], [ -68.95494, -18.26958 ], [ -68.95395, -18.26946 ], [ -68.95299, -18.26964 ], [ -68.95259, -18.27018 ], [ -68.95262, -18.27093 ], [ -68.95218, -18.27093 ], [ -68.95221, -18.27144 ], [ -68.95285, -18.27154 ], [ -68.95315, -18.27149 ], [ -68.95413, -18.27158 ], [ -68.95529, -18.2709 ] ] ] } },
{ "type": "Feature", "properties": { "nombre": "Tambo Quemado", "tipo": "residential", "poblacion": 0 }, "geometry": { "type": "Polygon", "coordinates": [ [ [ -69.0073, -18.27759 ], [ -69.00617, -18.27748 ], [ -69.00552, -18.27683 ], [ -69.00508, -18.27662 ], [ -69.00444, -18.27701 ], [ -69.00223, -18.27576 ], [ -69.00234, -18.2756 ], [ -69.00216, -18.27546 ], [ -69.00261, -18.27478 ], [ -69.00112, -18.27388 ], [ -68.99835, -18.27263 ], [ -68.99657, -18.27287 ], [ -68.99607, -18.27347 ], [ -68.9988, -18.27547 ], [ -68.99936, -18.27598 ], [ -69.00008, -18.27548 ], [ -69.00165, -18.27635 ], [ -69.00096, -18.2788 ], [ -69.00375, -18.2801 ], [ -69.0046, -18.28035 ], [ -69.00507, -18.28037 ], [ -69.00608, -18.27993 ], [ -69.00642, -18.27949 ], [ -69.00863, -18.27942 ], [ -69.01032, -18.27862 ], [ -69.00967, -18.27755 ], [ -69.00914, -18.27791 ], [ -69.00923, -18.27832 ], [ -69.00839, -18.27838 ], [ -69.00719, -18.27817 ], [ -69.0073, -18.27759 ] ] ] } },
{ "type": "Feature", "properties": { "nombre": "Tomarapi", "tipo": "residential", "poblacion": 0 }, "geometry": { "type": "Polygon", "coordinates": [ [ [ -68.87043, -18.02372 ], [ -68.86862, -18.02283 ], [ -68.86831, -18.02424 ], [ -68.86888, -18.02472 ], [ -68.86915, -18.02476 ], [ -68.8703, -18.02405 ], [ -68.87043, -18.02372 ] ] ] } },
{ "type": "Feature", "properties": { "nombre": "Cosapa", "tipo": "residential", "poblacion": 0 }, "geometry": { "type": "Polygon", "coordinates": [ [ [ -68.70979, -18.18011 ], [ -68.7069, -18.17995 ], [ -68.70613, -18.17789 ], [ -68.70625, -18.17759 ], [ -68.70703, -18.17657 ], [ -68.70843, -18.17597 ], [ -68.70936, -18.17532 ], [ -68.71075, -18.17512 ], [ -68.71193, -18.17573 ], [ -68.71277, -18.17665 ], [ -68.71278, -18.17699 ], [ -68.71229, -18.17762 ], [ -68.71236, -18.17817 ], [ -68.70979, -18.18011 ] ] ] } },
{ "type": "Feature", "properties": { "nombre": "Lagunas", "tipo": "residential", "poblacion": 0 }, "geometry": { "type": "Polygon", "coordinates": [ [ [ -68.93269, -18.22085 ], [ -68.93277, -18.22141 ], [ -68.93335, -18.22133 ], [ -68.93343, -18.2219 ], [ -68.93405, -18.22282 ], [ -68.93408, -18.22308 ], [ -68.93613, -18.22379 ], [ -68.93623, -18.22424 ], [ -68.93717, -18.22487 ], [ -68.93723, -18.2253 ], [ -68.93893, -18.22546 ], [ -68.939, -18.22532 ], [ -68.93945, -18.22508 ], [ -68.9396, -18.22391 ], [ -68.9386, -18.22338 ], [ -68.93807, -18.22296 ], [ -68.93721, -18.2226 ], [ -68.93683, -18.22182 ], [ -68.93716, -18.22106 ], [ -68.93565, -18.22047 ], [ -68.93269, -18.22085 ] ] ] } },
{ "type": "Feature", "properties": { "nombre": "Juchus Huaylla", "tipo": "hamlet", "poblacion": 0 }, "geometry": { "type": "Polygon", "coordinates": [ [ [ -68.7807, -18.14198 ], [ -68.78034, -18.14222 ], [ -68.78098, -18.14314 ], [ -68.78114, -18.14302 ], [ -68.78134, -18.14245 ], [ -68.78114, -18.14206 ], [ -68.7807, -18.14198 ] ] ] } },
{ "type": "Feature", "properties": { "nombre": "Chachacomani", "tipo": "residential", "poblacion": 0 }, "geometry": { "type": "Polygon", "coordinates": [ [ [ -68.94417, -18.35369 ], [ -68.94587, -18.3527 ], [ -68.94824, -18.35252 ], [ -68.94848, -18.35473 ], [ -68.948, -18.35604 ], [ -68.9472, -18.35684 ], [ -68.94564, -18.3571 ], [ -68.94463, -18.357 ], [ -68.94417, -18.35369 ] ] ] } },
{ "type": "Feature", "properties": { "nombre": "Sajama", "tipo": "residential", "poblacion": 0 }, "geometry": { "type": "Polygon", "coordinates": [ [ [ -68.97442, -18.13298 ], [ -68.97594, -18.13392 ], [ -68.9773, -18.13518 ], [ -68.97776, -18.13627 ], [ -68.9778, -18.13756 ], [ -68.97694, -18.13807 ], [ -68.97567, -18.13795 ], [ -68.97488, -18.13802 ], [ -68.97405, -18.13756 ], [ -68.97352, -18.13691 ], [ -68.9731, -18.13624 ], [ -68.97314, -18.13492 ], [ -68.97306, -18.13356 ], [ -68.97442, -18.13298 ] ] ] } },
{ "type": "Feature", "properties": { "nombre": "Jacha Salli", "tipo": "residential", "poblacion": 0 }, "geometry": { "type": "Polygon", "coordinates": [ [ [ -68.62741, -18.34111 ], [ -68.62823, -18.34125 ], [ -68.62895, -18.34185 ], [ -68.6293, -18.34298 ], [ -68.62872, -18.34371 ], [ -68.62782, -18.3442 ], [ -68.62689, -18.34376 ], [ -68.62631, -18.34276 ], [ -68.62652, -18.34149 ], [ -68.62674, -18.34133 ], [ -68.62741, -18.34111 ] ] ] } },
{ "type": "Feature", "properties": { "nombre": "Pampa Mogachi", "tipo": "residential", "poblacion": 0 }, "geometry": { "type": "Polygon", "coordinates": [ [ [ -68.88816, -18.43011 ], [ -68.88892, -18.42994 ], [ -68.88959, -18.43024 ], [ -68.88974, -18.43117 ], [ -68.88895, -18.43209 ], [ -68.88771, -18.43252 ], [ -68.88704, -18.43225 ], [ -68.88695, -18.4314 ], [ -68.88667, -18.43097 ], [ -68.88697, -18.43044 ], [ -68.88731, -18.43007 ], [ -68.88816, -18.43011 ] ] ] } },
{ "type": "Feature", "properties": { "nombre": "Macaya", "tipo": "residential", "poblacion": 0 }, "geometry": { "type": "Polygon", "coordinates": [ [ [ -68.9448, -18.5366 ], [ -68.94648, -18.53689 ], [ -68.94725, -18.53857 ], [ -68.94716, -18.53929 ], [ -68.9456, -18.53974 ], [ -68.94462, -18.53923 ], [ -68.94389, -18.53837 ], [ -68.94388, -18.53725 ], [ -68.94419, -18.53666 ], [ -68.9448, -18.5366 ] ] ] } },
{ "type": "Feature", "properties": { "nombre": "Estancia Vilaque", "tipo": "hamlet", "poblacion": 0 }, "geometry": { "type": "Polygon", "coordinates": [ [ [ -68.93305, -18.28279 ], [ -68.93339, -18.28326 ], [ -68.93319, -18.28375 ], [ -68.93274, -18.2843 ], [ -68.93133, -18.28384 ], [ -68.93108, -18.28359 ], [ -68.93146, -18.28309 ], [ -68.93218, -18.28256 ], [ -68.93305, -18.28279 ] ] ] } },
{ "type": "Feature", "properties": { "nombre": "Estancia Kkotaña", "tipo": "hamlet", "poblacion": 0 }, "geometry": { "type": "Polygon", "coordinates": [ [ [ -68.99556, -18.29232 ], [ -68.99601, -18.29268 ], [ -68.99599, -18.29298 ], [ -68.99576, -18.29368 ], [ -68.99543, -18.29378 ], [ -68.9951, -18.29372 ], [ -68.99482, -18.29336 ], [ -68.99493, -18.29284 ], [ -68.99509, -18.29241 ], [ -68.99556, -18.29232 ] ] ] } },
{ "type": "Feature", "properties": { "nombre": "Estancia Vilcoco", "tipo": "hamlet", "poblacion": 0 }, "geometry": { "type": "Polygon", "coordinates": [ [ [ -68.93043, -18.30208 ], [ -68.93137, -18.30228 ], [ -68.93156, -18.30249 ], [ -68.93161, -18.30308 ], [ -68.93136, -18.30362 ], [ -68.93099, -18.30374 ], [ -68.93026, -18.30379 ], [ -68.92994, -18.30348 ], [ -68.92973, -18.30294 ], [ -68.92982, -18.30225 ], [ -68.93043, -18.30208 ] ] ] } },
{ "type": "Feature", "properties": { "nombre": "Estancia Imillamaya", "tipo": "hamlet", "poblacion": 0 }, "geometry": { "type": "Polygon", "coordinates": [ [ [ -68.91455, -18.2993 ], [ -68.91473, -18.29965 ], [ -68.91464, -18.30041 ], [ -68.91425, -18.30052 ], [ -68.91368, -18.30032 ], [ -68.91351, -18.30009 ], [ -68.91354, -18.29963 ], [ -68.91394, -18.29915 ], [ -68.91455, -18.2993 ] ] ] } },
{ "type": "Feature", "properties": { "nombre": "Estancia Phujo", "tipo": "hamlet", "poblacion": 0 }, "geometry": { "type": "Polygon", "coordinates": [ [ [ -68.90706, -18.24058 ], [ -68.90755, -18.24087 ], [ -68.90754, -18.24134 ], [ -68.90728, -18.24193 ], [ -68.907, -18.24205 ], [ -68.90649, -18.24202 ], [ -68.90618, -18.24178 ], [ -68.9061, -18.24136 ], [ -68.90627, -18.24091 ], [ -68.90706, -18.24058 ] ] ] } },
{ "type": "Feature", "properties": { "nombre": "Estancia Arajonta", "tipo": "hamlet", "poblacion": 0 }, "geometry": { "type": "Polygon", "coordinates": [ [ [ -68.82321, -18.57192 ], [ -68.8235, -18.57223 ], [ -68.82336, -18.57249 ], [ -68.82305, -18.57271 ], [ -68.82269, -18.57275 ], [ -68.82241, -18.57265 ], [ -68.82219, -18.57216 ], [ -68.82247, -18.57175 ], [ -68.82321, -18.57192 ] ] ] } },
{ "type": "Feature", "properties": { "nombre": "Estancia Muyalla", "tipo": "hamlet", "poblacion": 0 }, "geometry": { "type": "Polygon", "coordinates": [ [ [ -68.77563, -18.56212 ], [ -68.77625, -18.56263 ], [ -68.77637, -18.56295 ], [ -68.77625, -18.56325 ], [ -68.77602, -18.56328 ], [ -68.77547, -18.56305 ], [ -68.77515, -18.56264 ], [ -68.77521, -18.5622 ], [ -68.77537, -18.56207 ], [ -68.77563, -18.56212 ] ] ] } },
{ "type": "Feature", "properties": { "nombre": "Estancia Romarani", "tipo": "hamlet", "poblacion": 0 }, "geometry": { "type": "Polygon", "coordinates": [ [ [ -68.76591, -18.57254 ], [ -68.76637, -18.57282 ], [ -68.76631, -18.57324 ], [ -68.766, -18.57364 ], [ -68.76527, -18.57364 ], [ -68.76502, -18.57315 ], [ -68.76502, -18.57285 ], [ -68.76543, -18.57244 ], [ -68.76591, -18.57254 ] ] ] } },
{ "type": "Feature", "properties": { "nombre": "Estancia Pacarisa", "tipo": "hamlet", "poblacion": 0 }, "geometry": { "type": "Polygon", "coordinates": [ [ [ -68.88457, -18.59759 ], [ -68.88532, -18.59778 ], [ -68.88545, -18.59818 ], [ -68.88523, -18.59898 ], [ -68.8846, -18.59927 ], [ -68.884, -18.59905 ], [ -68.8838, -18.59878 ], [ -68.88377, -18.59859 ], [ -68.88394, -18.59793 ], [ -68.88432, -18.59766 ], [ -68.88457, -18.59759 ] ] ] } },
{ "type": "Feature", "properties": { "nombre": "Estancia Quilhuiri", "tipo": "hamlet", "poblacion": 0 }, "geometry": { "type": "Polygon", "coordinates": [ [ [ -68.90105, -18.33549 ], [ -68.90121, -18.33576 ], [ -68.90118, -18.33628 ], [ -68.90063, -18.33719 ], [ -68.9003, -18.33721 ], [ -68.89998, -18.33703 ], [ -68.89982, -18.33679 ], [ -68.89979, -18.33652 ], [ -68.89999, -18.33595 ], [ -68.9002, -18.33567 ], [ -68.90061, -18.33538 ], [ -68.90105, -18.33549 ] ] ] } },
{ "type": "Feature", "properties": { "nombre": "Estancia Taipi Uta", "tipo": "hamlet", "poblacion": 0 }, "geometry": { "type": "Polygon", "coordinates": [ [ [ -68.73279, -18.37707 ], [ -68.73282, -18.37747 ], [ -68.73261, -18.37803 ], [ -68.73234, -18.37803 ], [ -68.73187, -18.3778 ], [ -68.73206, -18.37699 ], [ -68.73245, -18.37692 ], [ -68.73279, -18.37707 ] ] ] } },
{ "type": "Feature", "properties": { "nombre": "Estancia Cheka Churo", "tipo": "hamlet", "poblacion": 0 }, "geometry": { "type": "Polygon", "coordinates": [ [ [ -68.73448, -18.37063 ], [ -68.73475, -18.37097 ], [ -68.7347, -18.37134 ], [ -68.73431, -18.37162 ], [ -68.73355, -18.37163 ], [ -68.7333, -18.37134 ], [ -68.73354, -18.37047 ], [ -68.73448, -18.37063 ] ] ] } },
{ "type": "Feature", "properties": { "nombre": "Estancia Cotasi", "tipo": "hamlet", "poblacion": 0 }, "geometry": { "type": "Polygon", "coordinates": [ [ [ -68.70644, -18.32013 ], [ -68.70726, -18.31969 ], [ -68.70827, -18.32019 ], [ -68.7089, -18.32096 ], [ -68.7089, -18.32205 ], [ -68.70867, -18.32249 ], [ -68.70708, -18.32272 ], [ -68.70675, -18.32213 ], [ -68.70599, -18.32148 ], [ -68.70644, -18.32013 ] ] ] } },
{ "type": "Feature", "properties": { "nombre": "Estancia Cosapa Jauira", "tipo": "hamlet", "poblacion": 0 }, "geometry": { "type": "Polygon", "coordinates": [ [ [ -68.67267, -18.32324 ], [ -68.67322, -18.32411 ], [ -68.67302, -18.32439 ], [ -68.67237, -18.3246 ], [ -68.67186, -18.32421 ], [ -68.6718, -18.32389 ], [ -68.67199, -18.32325 ], [ -68.67267, -18.32324 ] ] ] } },
{ "type": "Feature", "properties": { "nombre": "Ayllu Originario Jilanaca", "tipo": "residential", "poblacion": 0 }, "geometry": { "type": "Polygon", "coordinates": [ [ [ -68.67169, -18.27483 ], [ -68.67215, -18.27548 ], [ -68.67218, -18.2762 ], [ -68.67199, -18.27661 ], [ -68.67132, -18.27714 ], [ -68.67083, -18.27713 ], [ -68.67032, -18.27695 ], [ -68.66997, -18.27659 ], [ -68.66988, -18.2759 ], [ -68.66998, -18.2755 ], [ -68.67035, -18.27484 ], [ -68.67169, -18.27483 ] ] ] } },
{ "type": "Feature", "properties": { "nombre": "Estancia Kkala Kkollu", "tipo": "hamlet", "poblacion": 0 }, "geometry": { "type": "Polygon", "coordinates": [ [ [ -68.69629, -18.19821 ], [ -68.69685, -18.19844 ], [ -68.69689, -18.19892 ], [ -68.69671, -18.19939 ], [ -68.69623, -18.19961 ], [ -68.69564, -18.1997 ], [ -68.69542, -18.19942 ], [ -68.69545, -18.19893 ], [ -68.69562, -18.19833 ], [ -68.69629, -18.19821 ] ] ] } },
{ "type": "Feature", "properties": { "nombre": "Estancia Thola Pampa", "tipo": "hamlet", "poblacion": 0 }, "geometry": { "type": "Polygon", "coordinates": [ [ [ -68.7292, -18.1875 ], [ -68.72937, -18.18769 ], [ -68.72919, -18.18814 ], [ -68.72867, -18.18841 ], [ -68.7281, -18.18846 ], [ -68.72777, -18.18833 ], [ -68.72756, -18.18798 ], [ -68.72762, -18.18776 ], [ -68.72801, -18.1876 ], [ -68.72858, -18.18745 ], [ -68.7292, -18.1875 ] ] ] } },
{ "type": "Feature", "properties": { "nombre": "Estancia Chanca Mokho", "tipo": "hamlet", "poblacion": 0 }, "geometry": { "type": "Polygon", "coordinates": [ [ [ -68.78811, -18.1858 ], [ -68.78883, -18.18577 ], [ -68.78915, -18.18608 ], [ -68.78918, -18.18636 ], [ -68.78894, -18.18654 ], [ -68.78848, -18.1866 ], [ -68.78813, -18.18645 ], [ -68.78798, -18.18621 ], [ -68.78811, -18.1858 ] ] ] } }
]
}
