{
"type": "FeatureCollection",
"name": "IRR",
"crs": { "type": "name", "properties": { "name": "urn:ogc:def:crs:OGC:1.3:CRS84" } },
"xy_coordinate_resolution": 1e-05,
"features": [
{ "type": "Feature", "properties": { "nombre": "Estancia Cuye", "tipo": "residential", "poblacion": 0 }, "geometry": { "type": "Polygon", "coordinates": [ [ [ -68.21206, -20.61019 ], [ -68.21037, -20.6119 ], [ -68.20975, -20.61173 ], [ -68.21065, -20.60997 ], [ -68.2111, -20.6096 ], [ -68.21189, -20.60986 ], [ -68.21206, -20.61019 ] ] ] } },
{ "type": "Feature", "properties": { "nombre": "Cana", "tipo": "residential", "poblacion": 0 }, "geometry": { "type": "Polygon", "coordinates": [ [ [ -68.327, -20.80835 ], [ -68.32644, -20.8083 ], [ -68.32588, -20.80866 ], [ -68.32577, -20.80969 ], [ -68.32547, -20.81024 ], [ -68.32546, -20.81084 ], [ -68.32577, -20.81134 ], [ -68.32634, -20.81134 ], [ -68.32731, -20.81029 ], [ -68.32732, -20.80972 ], [ -68.32755, -20.80888 ], [ -68.327, -20.80835 ] ] ] } },
{ "type": "Feature", "properties": { "nombre": "Sinalaco", "tipo": "residential", "poblacion": 0 }, "geometry": { "type": "Polygon", "coordinates": [ [ [ -68.27089, -20.48177 ], [ -68.27141, -20.48185 ], [ -68.27166, -20.48286 ], [ -68.27128, -20.48535 ], [ -68.27025, -20.48632 ], [ -68.2695, -20.48618 ], [ -68.26907, -20.48329 ], [ -68.26904, -20.48263 ], [ -68.27089, -20.48177 ] ] ] } },
{ "type": "Feature", "properties": { "nombre": "Pajancha", "tipo": "residential", "poblacion": 0 }, "geometry": { "type": "Polygon", "coordinates": [ [ [ -68.35362, -21.00929 ], [ -68.35341, -21.00974 ], [ -68.35232, -21.00963 ], [ -68.35025, -21.00913 ], [ -68.35031, -21.00813 ], [ -68.35082, -21.00737 ], [ -68.35201, -21.00712 ], [ -68.3528, -21.00745 ], [ -68.3533, -21.00874 ], [ -68.35362, -21.00929 ] ] ] } },
{ "type": "Feature", "properties": { "nombre": "Abra de Napa", "tipo": "residential", "poblacion": 0 }, "geometry": { "type": "Polygon", "coordinates": [ [ [ -68.57954, -20.53073 ], [ -68.57813, -20.53103 ], [ -68.57696, -20.53162 ], [ -68.57713, -20.53199 ], [ -68.57763, -20.53258 ], [ -68.5779, -20.53312 ], [ -68.5781, -20.5332 ], [ -68.57888, -20.53309 ], [ -68.57965, -20.53282 ], [ -68.58026, -20.53244 ], [ -68.5805, -20.53205 ], [ -68.5803, -20.53097 ], [ -68.57954, -20.53073 ] ] ] } },
{ "type": "Feature", "properties": { "nombre": "Estancia Seccicha", "tipo": "residential", "poblacion": 0 }, "geometry": { "type": "Polygon", "coordinates": [ [ [ -68.36609, -20.99048 ], [ -68.36678, -20.99068 ], [ -68.36719, -20.99116 ], [ -68.3674, -20.99159 ], [ -68.3675, -20.99211 ], [ -68.36585, -20.99261 ], [ -68.3646, -20.99195 ], [ -68.3644, -20.99155 ], [ -68.36496, -20.99048 ], [ -68.36609, -20.99048 ] ] ] } },
{ "type": "Feature", "properties": { "nombre": "Comunidad Loa", "tipo": "residential", "poblacion": 0 }, "geometry": { "type": "Polygon", "coordinates": [ [ [ -68.16382, -20.59075 ], [ -68.16457, -20.59126 ], [ -68.16447, -20.59183 ], [ -68.1641, -20.59228 ], [ -68.16347, -20.59229 ], [ -68.16288, -20.59211 ], [ -68.16256, -20.59183 ], [ -68.16244, -20.59145 ], [ -68.16254, -20.5911 ], [ -68.16321, -20.59069 ], [ -68.16382, -20.59075 ] ] ] } },
{ "type": "Feature", "properties": { "nombre": "Estancia Diaguillo", "tipo": "residential", "poblacion": 0 }, "geometry": { "type": "Polygon", "coordinates": [ [ [ -68.3313, -20.77288 ], [ -68.33178, -20.77314 ], [ -68.33206, -20.77416 ], [ -68.33187, -20.77476 ], [ -68.33127, -20.77543 ], [ -68.33046, -20.77539 ], [ -68.32998, -20.77492 ], [ -68.32982, -20.77422 ], [ -68.32989, -20.77331 ], [ -68.33002, -20.77292 ], [ -68.33051, -20.77279 ], [ -68.3313, -20.77288 ] ] ] } },
{ "type": "Feature", "properties": { "nombre": "Estancia Paco Paco", "tipo": "residential", "poblacion": 0 }, "geometry": { "type": "Polygon", "coordinates": [ [ [ -68.31545, -20.78222 ], [ -68.31609, -20.783 ], [ -68.31651, -20.78338 ], [ -68.31616, -20.78398 ], [ -68.31529, -20.78399 ], [ -68.31443, -20.78372 ], [ -68.31415, -20.78343 ], [ -68.31363, -20.78259 ], [ -68.31391, -20.78198 ], [ -68.31444, -20.78159 ], [ -68.31545, -20.78222 ] ] ] } },
{ "type": "Feature", "properties": { "nombre": "Morroque Pampas", "tipo": "hamlet", "poblacion": 0 }, "geometry": { "type": "Polygon", "coordinates": [ [ [ -68.52661, -20.8684 ], [ -68.5273, -20.86925 ], [ -68.52784, -20.87036 ], [ -68.52777, -20.87135 ], [ -68.52683, -20.87277 ], [ -68.52583, -20.87206 ], [ -68.52541, -20.87149 ], [ -68.5244, -20.87051 ], [ -68.52418, -20.86904 ], [ -68.52473, -20.86855 ], [ -68.52661, -20.8684 ] ] ] } },
{ "type": "Feature", "properties": { "nombre": "Estancia Tapiz", "tipo": "residential", "poblacion": 0 }, "geometry": { "type": "Polygon", "coordinates": [ [ [ -68.14158, -20.74512 ], [ -68.14199, -20.74547 ], [ -68.14191, -20.7457 ], [ -68.14106, -20.74616 ], [ -68.14057, -20.74633 ], [ -68.1403, -20.74627 ], [ -68.1402, -20.74585 ], [ -68.14041, -20.74564 ], [ -68.14127, -20.7451 ], [ -68.14158, -20.74512 ] ] ] } }
]
}
