{
"type": "FeatureCollection",
"name": "ISL",
"crs": { "type": "name", "properties": { "name": "urn:ogc:def:crs:OGC:1.3:CRS84" } },
"xy_coordinate_resolution": 1e-05,
"features": [
{ "type": "Feature", "properties": { "nombre": "Pisiga Bolívar", "tipo": "residential", "poblacion": 0 }, "geometry": { "type": "Polygon", "coordinates": [ [ [ -68.61537, -19.26811 ], [ -68.61641, -19.26915 ], [ -68.61614, -19.26946 ], [ -68.61713, -19.27046 ], [ -68.61817, -19.27002 ], [ -68.61925, -19.26971 ], [ -68.61955, -19.27125 ], [ -68.61918, -19.27174 ], [ -68.61818, -19.27211 ], [ -68.61937, -19.27284 ], [ -68.62013, -19.2736 ], [ -68.62042, -19.27401 ], [ -68.61925, -19.27591 ], [ -68.61655, -19.27622 ], [ -68.61475, -19.27556 ], [ -68.61335, -19.27398 ], [ -68.61232, -19.27298 ], [ -68.61029, -19.27138 ], [ -68.60971, -19.27098 ], [ -68.60935, -19.27139 ], [ -68.6088, -19.27103 ], [ -68.6106, -19.26846 ], [ -68.61267, -19.26975 ], [ -68.6144, -19.26747 ], [ -68.61537, -19.26811 ] ] ] } },
{ "type": "Feature", "properties": { "nombre": "Pagador", "tipo": "residential", "poblacion": 0 }, "geometry": { "type": "Polygon", "coordinates": [ [ [ -68.55576, -19.20307 ], [ -68.55366, -19.2018 ], [ -68.55283, -19.2027 ], [ -68.55243, -19.20375 ], [ -68.55303, -19.20511 ], [ -68.55402, -19.20572 ], [ -68.55608, -19.2062 ], [ -68.55742, -19.20396 ], [ -68.55576, -19.20307 ] ] ] } },
{ "type": "Feature", "properties": { "nombre": "Huancalle", "tipo": "residential", "poblacion": 0 }, "geometry": { "type": "Polygon", "coordinates": [ [ [ -68.38866, -19.03137 ], [ -68.38765, -19.03067 ], [ -68.38679, -19.03074 ], [ -68.38587, -19.03155 ], [ -68.38737, -19.03417 ], [ -68.38858, -19.03449 ], [ -68.38976, -19.03277 ], [ -68.38866, -19.03137 ] ] ] } },
{ "type": "Feature", "properties": { "nombre": "Sijllajuaya", "tipo": "residential", "poblacion": 0 }, "geometry": { "type": "Polygon", "coordinates": [ [ [ -68.40776, -18.95564 ], [ -68.40598, -18.95672 ], [ -68.40589, -18.95773 ], [ -68.40605, -18.95832 ], [ -68.40767, -18.95834 ], [ -68.40828, -18.95639 ], [ -68.40776, -18.95564 ] ] ] } },
{ "type": "Feature", "properties": { "nombre": "La Rivera", "tipo": "residential", "poblacion": 0 }, "geometry": { "type": "Polygon", "coordinates": [ [ [ -68.64063, -19.00093 ], [ -68.64283, -19.00109 ], [ -68.64441, -19.00231 ], [ -68.64369, -19.00502 ], [ -68.64242, -19.00559 ], [ -68.63859, -19.00651 ], [ -68.6379, -19.00636 ], [ -68.63808, -19.00541 ], [ -68.63878, -19.00483 ], [ -68.64003, -19.00195 ], [ -68.64063, -19.00093 ] ] ] } },
{ "type": "Feature", "properties": { "nombre": "Villa Vitalina", "tipo": "residential", "poblacion": 0 }, "geometry": { "type": "Polygon", "coordinates": [ [ [ -68.35609, -19.18936 ], [ -68.35679, -19.19018 ], [ -68.357, -19.19123 ], [ -68.35813, -19.19206 ], [ -68.35795, -19.19447 ], [ -68.35627, -19.19435 ], [ -68.35537, -19.19416 ], [ -68.35374, -19.19254 ], [ -68.35258, -19.1902 ], [ -68.3529, -19.18948 ], [ -68.35391, -19.18851 ], [ -68.35487, -19.18843 ], [ -68.35609, -19.18936 ] ] ] } },
{ "type": "Feature", "properties": { "nombre": "Todos Santos", "tipo": "residential", "poblacion": 0 }, "geometry": { "type": "Polygon", "coordinates": [ [ [ -68.72089, -19.01575 ], [ -68.71979, -19.01349 ], [ -68.71856, -19.01221 ], [ -68.71759, -19.01066 ], [ -68.71662, -19.0112 ], [ -68.71741, -19.01461 ], [ -68.71922, -19.01638 ], [ -68.7202, -19.01773 ], [ -68.72166, -19.01713 ], [ -68.72089, -19.01575 ] ] ] } },
{ "type": "Feature", "properties": { "nombre": "Pacariza", "tipo": "residential", "poblacion": 0 }, "geometry": { "type": "Polygon", "coordinates": [ [ [ -68.42604, -18.95669 ], [ -68.4258, -18.95778 ], [ -68.42553, -18.95832 ], [ -68.42536, -18.95901 ], [ -68.42541, -18.95985 ], [ -68.42524, -18.96043 ], [ -68.424, -18.961 ], [ -68.42318, -18.96022 ], [ -68.4232, -18.95831 ], [ -68.42261, -18.95724 ], [ -68.4227, -18.95552 ], [ -68.42488, -18.95512 ], [ -68.42604, -18.95669 ] ] ] } },
{ "type": "Feature", "properties": { "nombre": "Julo", "tipo": "residential", "poblacion": 0 }, "geometry": { "type": "Polygon", "coordinates": [ [ [ -68.89177, -18.70277 ], [ -68.88935, -18.70254 ], [ -68.88783, -18.70043 ], [ -68.88972, -18.69805 ], [ -68.89163, -18.6975 ], [ -68.89417, -18.69875 ], [ -68.89177, -18.70277 ] ] ] } },
{ "type": "Feature", "properties": { "nombre": "Sabaya", "tipo": "residential", "poblacion": 0 }, "geometry": { "type": "Polygon", "coordinates": [ [ [ -68.37331, -19.01162 ], [ -68.37353, -19.01205 ], [ -68.37645, -19.01205 ], [ -68.38039, -19.01346 ], [ -68.38109, -19.01652 ], [ -68.38115, -19.02038 ], [ -68.37719, -19.022 ], [ -68.37089, -19.0238 ], [ -68.36866, -19.02205 ], [ -68.36696, -19.02013 ], [ -68.36583, -19.01828 ], [ -68.36523, -19.01636 ], [ -68.36525, -19.01432 ], [ -68.3651, -19.01088 ], [ -68.36778, -19.00858 ], [ -68.36979, -19.00778 ], [ -68.37362, -19.00799 ], [ -68.37331, -19.01162 ] ] ] } },
{ "type": "Feature", "properties": { "nombre": "Agua Rica", "tipo": "residential", "poblacion": 0 }, "geometry": { "type": "Polygon", "coordinates": [ [ [ -68.4751, -19.00327 ], [ -68.47559, -19.00421 ], [ -68.47558, -19.00514 ], [ -68.47486, -19.00624 ], [ -68.47286, -19.00663 ], [ -68.47207, -19.00496 ], [ -68.47271, -19.00334 ], [ -68.47393, -19.00315 ], [ -68.4751, -19.00327 ] ] ] } },
{ "type": "Feature", "properties": { "nombre": "Cruz de Huayllas", "tipo": "residential", "poblacion": 0 }, "geometry": { "type": "Polygon", "coordinates": [ [ [ -68.5225, -18.96611 ], [ -68.52158, -18.96838 ], [ -68.52056, -18.96814 ], [ -68.51995, -18.9679 ], [ -68.5191, -18.96742 ], [ -68.5176, -18.96691 ], [ -68.51835, -18.96483 ], [ -68.51951, -18.96477 ], [ -68.52201, -18.96559 ], [ -68.5225, -18.96611 ] ] ] } },
{ "type": "Feature", "properties": { "nombre": "Capsaya", "tipo": "residential", "poblacion": 0 }, "geometry": { "type": "Polygon", "coordinates": [ [ [ -68.44635, -18.96553 ], [ -68.44709, -18.96594 ], [ -68.44678, -18.96749 ], [ -68.4459, -18.96749 ], [ -68.44541, -18.96689 ], [ -68.44635, -18.96553 ] ] ] } },
{ "type": "Feature", "properties": { "nombre": "Alaroco", "tipo": "residential", "poblacion": 0 }, "geometry": { "type": "Polygon", "coordinates": [ [ [ -68.53717, -18.925 ], [ -68.53663, -18.92449 ], [ -68.53666, -18.92352 ], [ -68.53714, -18.92273 ], [ -68.53987, -18.92256 ], [ -68.54056, -18.9235 ], [ -68.54056, -18.92403 ], [ -68.53996, -18.92534 ], [ -68.53872, -18.92543 ], [ -68.53796, -18.92531 ], [ -68.53717, -18.925 ] ] ] } },
{ "type": "Feature", "properties": { "nombre": "Chulumani", "tipo": "residential", "poblacion": 0 }, "geometry": { "type": "Polygon", "coordinates": [ [ [ -68.534, -18.904 ], [ -68.53256, -18.90373 ], [ -68.53172, -18.90343 ], [ -68.53144, -18.90297 ], [ -68.5313, -18.9023 ], [ -68.53185, -18.9019 ], [ -68.53362, -18.90161 ], [ -68.53411, -18.90261 ], [ -68.53419, -18.90364 ], [ -68.534, -18.904 ] ] ] } },
{ "type": "Feature", "properties": { "nombre": "Tunapa", "tipo": "residential", "poblacion": 0 }, "geometry": { "type": "Polygon", "coordinates": [ [ [ -68.52187, -18.86521 ], [ -68.52217, -18.86532 ], [ -68.52239, -18.86582 ], [ -68.52246, -18.86637 ], [ -68.52216, -18.86711 ], [ -68.52149, -18.86714 ], [ -68.52063, -18.8676 ], [ -68.52027, -18.86751 ], [ -68.52006, -18.86737 ], [ -68.52003, -18.86698 ], [ -68.5208, -18.86529 ], [ -68.52187, -18.86521 ] ] ] } },
{ "type": "Feature", "properties": { "nombre": "Negrillos", "tipo": "residential", "poblacion": 0 }, "geometry": { "type": "Polygon", "coordinates": [ [ [ -68.61357, -18.82706 ], [ -68.61295, -18.82754 ], [ -68.61196, -18.82891 ], [ -68.6119, -18.82917 ], [ -68.61204, -18.83019 ], [ -68.61012, -18.83033 ], [ -68.60992, -18.82914 ], [ -68.6094, -18.82836 ], [ -68.60931, -18.82808 ], [ -68.60926, -18.82685 ], [ -68.61057, -18.82631 ], [ -68.61091, -18.8263 ], [ -68.61247, -18.82655 ], [ -68.6129, -18.82647 ], [ -68.61328, -18.82632 ], [ -68.61373, -18.82592 ], [ -68.6139, -18.82666 ], [ -68.61357, -18.82706 ] ] ] } },
{ "type": "Feature", "properties": { "nombre": "Villa Tunari", "tipo": "residential", "poblacion": 0 }, "geometry": { "type": "Polygon", "coordinates": [ [ [ -68.61095, -18.78877 ], [ -68.6123, -18.78894 ], [ -68.61253, -18.79 ], [ -68.61232, -18.79081 ], [ -68.61185, -18.79135 ], [ -68.60883, -18.79164 ], [ -68.60912, -18.79051 ], [ -68.60918, -18.78988 ], [ -68.60949, -18.78892 ], [ -68.61095, -18.78877 ] ] ] } },
{ "type": "Feature", "properties": { "nombre": "Mantos", "tipo": "residential", "poblacion": 0 }, "geometry": { "type": "Polygon", "coordinates": [ [ [ -68.60623, -18.86179 ], [ -68.60651, -18.86161 ], [ -68.60697, -18.86149 ], [ -68.60769, -18.86228 ], [ -68.60802, -18.86331 ], [ -68.6072, -18.86403 ], [ -68.60602, -18.86374 ], [ -68.60598, -18.86259 ], [ -68.60608, -18.8621 ], [ -68.60623, -18.86179 ] ] ] } },
{ "type": "Feature", "properties": { "nombre": "Carangas", "tipo": "residential", "poblacion": 0 }, "geometry": { "type": "Polygon", "coordinates": [ [ [ -68.62383, -18.93843 ], [ -68.6254, -18.93885 ], [ -68.6259, -18.93939 ], [ -68.62629, -18.93961 ], [ -68.62701, -18.94131 ], [ -68.62651, -18.94166 ], [ -68.62572, -18.94181 ], [ -68.6243, -18.94067 ], [ -68.6239, -18.94056 ], [ -68.62222, -18.94063 ], [ -68.62177, -18.9397 ], [ -68.6222, -18.93942 ], [ -68.6221, -18.93873 ], [ -68.62383, -18.93843 ] ] ] } },
{ "type": "Feature", "properties": { "nombre": "Pitacollo", "tipo": "residential", "poblacion": 0 }, "geometry": { "type": "Polygon", "coordinates": [ [ [ -68.58892, -19.05318 ], [ -68.58941, -19.05297 ], [ -68.59051, -19.05213 ], [ -68.59097, -19.05215 ], [ -68.59176, -19.05284 ], [ -68.59183, -19.05321 ], [ -68.59143, -19.05412 ], [ -68.59033, -19.0552 ], [ -68.58921, -19.0549 ], [ -68.58872, -19.05448 ], [ -68.58892, -19.05318 ] ] ] } },
{ "type": "Feature", "properties": { "nombre": "Cahuana", "tipo": "residential", "poblacion": 0 }, "geometry": { "type": "Polygon", "coordinates": [ [ [ -68.49968, -19.06104 ], [ -68.50114, -19.06024 ], [ -68.50214, -19.06044 ], [ -68.50286, -19.06127 ], [ -68.5024, -19.06318 ], [ -68.50177, -19.06417 ], [ -68.49915, -19.0638 ], [ -68.49886, -19.06237 ], [ -68.49897, -19.06161 ], [ -68.49916, -19.06099 ], [ -68.49968, -19.06104 ] ] ] } },
{ "type": "Feature", "properties": { "nombre": "Innombrada", "tipo": "residential", "poblacion": 0 }, "geometry": { "type": "Polygon", "coordinates": [ [ [ -68.57488, -19.00732 ], [ -68.57412, -19.00715 ], [ -68.57339, -19.00744 ], [ -68.57331, -19.00825 ], [ -68.57342, -19.00899 ], [ -68.57426, -19.009 ], [ -68.57492, -19.00879 ], [ -68.57521, -19.00798 ], [ -68.57488, -19.00732 ] ] ] } },
{ "type": "Feature", "properties": { "nombre": "Concepcion Ujo", "tipo": "residential", "poblacion": 0 }, "geometry": { "type": "Polygon", "coordinates": [ [ [ -68.39095, -19.20965 ], [ -68.38931, -19.20921 ], [ -68.38866, -19.20978 ], [ -68.38851, -19.21022 ], [ -68.38837, -19.21128 ], [ -68.39035, -19.21223 ], [ -68.39149, -19.21143 ], [ -68.39167, -19.21036 ], [ -68.39095, -19.20965 ] ] ] } },
{ "type": "Feature", "properties": { "nombre": "Pisiga Sucre", "tipo": "residential", "poblacion": 0 }, "geometry": { "type": "Polygon", "coordinates": [ [ [ -68.59887, -19.26251 ], [ -68.59964, -19.26275 ], [ -68.59958, -19.26308 ], [ -68.60143, -19.26378 ], [ -68.60132, -19.26434 ], [ -68.60081, -19.26482 ], [ -68.59741, -19.26424 ], [ -68.59754, -19.26281 ], [ -68.59809, -19.26288 ], [ -68.59821, -19.26195 ], [ -68.59893, -19.26205 ], [ -68.59887, -19.26251 ] ] ] } },
{ "type": "Feature", "properties": { "nombre": "Casinquira", "tipo": "residential", "poblacion": 0 }, "geometry": { "type": "Polygon", "coordinates": [ [ [ -68.46487, -19.19545 ], [ -68.46499, -19.19563 ], [ -68.46499, -19.19684 ], [ -68.46401, -19.19699 ], [ -68.46351, -19.19682 ], [ -68.46332, -19.19666 ], [ -68.46323, -19.19574 ], [ -68.46376, -19.19534 ], [ -68.46487, -19.19545 ] ] ] } },
{ "type": "Feature", "properties": { "nombre": "Quea Queani", "tipo": "residential", "poblacion": 0 }, "geometry": { "type": "Polygon", "coordinates": [ [ [ -68.637, -18.74063 ], [ -68.63782, -18.74185 ], [ -68.63973, -18.74399 ], [ -68.64039, -18.74557 ], [ -68.64072, -18.74718 ], [ -68.6405, -18.74797 ], [ -68.63924, -18.74837 ], [ -68.63756, -18.74756 ], [ -68.63651, -18.74555 ], [ -68.63565, -18.74317 ], [ -68.63507, -18.74222 ], [ -68.63494, -18.7412 ], [ -68.63565, -18.74021 ], [ -68.637, -18.74063 ] ] ] } },
{ "type": "Feature", "properties": { "nombre": "Villarroel", "tipo": "residential", "poblacion": 0 }, "geometry": { "type": "Polygon", "coordinates": [ [ [ -68.68991, -18.73123 ], [ -68.69152, -18.73165 ], [ -68.69195, -18.73202 ], [ -68.69172, -18.73262 ], [ -68.69075, -18.73311 ], [ -68.68986, -18.73313 ], [ -68.68936, -18.73291 ], [ -68.68897, -18.73233 ], [ -68.68896, -18.73181 ], [ -68.68944, -18.73128 ], [ -68.68991, -18.73123 ] ] ] } },
{ "type": "Feature", "properties": { "nombre": "Pacocahua", "tipo": "residential", "poblacion": 0 }, "geometry": { "type": "Polygon", "coordinates": [ [ [ -68.8077, -18.79092 ], [ -68.80888, -18.79167 ], [ -68.80887, -18.79226 ], [ -68.80826, -18.79256 ], [ -68.80699, -18.79243 ], [ -68.80613, -18.79188 ], [ -68.80616, -18.79143 ], [ -68.80646, -18.79082 ], [ -68.80689, -18.79072 ], [ -68.8077, -18.79092 ] ] ] } },
{ "type": "Feature", "properties": { "nombre": "Parajaya", "tipo": "residential", "poblacion": 0 }, "geometry": { "type": "Polygon", "coordinates": [ [ [ -68.86403, -19.04817 ], [ -68.86288, -19.04828 ], [ -68.86292, -19.04892 ], [ -68.86313, -19.04967 ], [ -68.86366, -19.05073 ], [ -68.86467, -19.05065 ], [ -68.86439, -19.04903 ], [ -68.86403, -19.04817 ] ] ] } },
{ "type": "Feature", "properties": { "nombre": "Ajuaya", "tipo": "residential", "poblacion": 0 }, "geometry": { "type": "Polygon", "coordinates": [ [ [ -68.79266, -19.06352 ], [ -68.7932, -19.0637 ], [ -68.79333, -19.06406 ], [ -68.79325, -19.06451 ], [ -68.79286, -19.06462 ], [ -68.79242, -19.0645 ], [ -68.79224, -19.06424 ], [ -68.79228, -19.06374 ], [ -68.79266, -19.06352 ] ] ] } },
{ "type": "Feature", "properties": { "nombre": "Buena Vides", "tipo": "residential", "poblacion": 0 }, "geometry": { "type": "Polygon", "coordinates": [ [ [ -68.7024, -18.99482 ], [ -68.70221, -18.99467 ], [ -68.7016, -18.99449 ], [ -68.70112, -18.99486 ], [ -68.70068, -18.99532 ], [ -68.70033, -18.99596 ], [ -68.69977, -18.99643 ], [ -68.69986, -18.99691 ], [ -68.70075, -18.99636 ], [ -68.70147, -18.99616 ], [ -68.70251, -18.99518 ], [ -68.7024, -18.99482 ] ] ] } },
{ "type": "Feature", "properties": { "nombre": "Fronterizo Negrillos", "tipo": "residential", "poblacion": 0 }, "geometry": { "type": "Polygon", "coordinates": [ [ [ -68.74793, -18.77027 ], [ -68.7484, -18.77069 ], [ -68.74857, -18.7711 ], [ -68.74769, -18.77286 ], [ -68.74677, -18.77317 ], [ -68.74566, -18.77305 ], [ -68.74541, -18.77271 ], [ -68.74538, -18.77237 ], [ -68.7454, -18.77136 ], [ -68.74554, -18.77078 ], [ -68.74645, -18.76992 ], [ -68.74793, -18.77027 ] ] ] } },
{ "type": "Feature", "properties": { "nombre": "Pehisani", "tipo": "residential", "poblacion": 0 }, "geometry": { "type": "Polygon", "coordinates": [ [ [ -68.75952, -18.97376 ], [ -68.75984, -18.97425 ], [ -68.75998, -18.9749 ], [ -68.75896, -18.9754 ], [ -68.75854, -18.97442 ], [ -68.75875, -18.97407 ], [ -68.75952, -18.97376 ] ] ] } },
{ "type": "Feature", "properties": { "nombre": "Camaqueni", "tipo": "residential", "poblacion": 0 }, "geometry": { "type": "Polygon", "coordinates": [ [ [ -68.6445, -18.98331 ], [ -68.64645, -18.9839 ], [ -68.64687, -18.98485 ], [ -68.6466, -18.98556 ], [ -68.64589, -18.98605 ], [ -68.64424, -18.98622 ], [ -68.64322, -18.98502 ], [ -68.64338, -18.98413 ], [ -68.64383, -18.98355 ], [ -68.6445, -18.98331 ] ] ] } },
{ "type": "Feature", "properties": { "nombre": "Cotaña", "tipo": "residential", "poblacion": 0 }, "geometry": { "type": "Polygon", "coordinates": [ [ [ -68.68932, -18.90564 ], [ -68.68987, -18.90627 ], [ -68.68972, -18.90698 ], [ -68.68924, -18.90814 ], [ -68.68877, -18.90814 ], [ -68.68834, -18.90785 ], [ -68.68812, -18.90752 ], [ -68.68827, -18.90731 ], [ -68.6881, -18.9068 ], [ -68.68815, -18.90636 ], [ -68.68841, -18.90607 ], [ -68.68879, -18.90583 ], [ -68.68932, -18.90564 ] ] ] } },
{ "type": "Feature", "properties": { "nombre": "Pucara", "tipo": "residential", "poblacion": 0 }, "geometry": { "type": "Polygon", "coordinates": [ [ [ -68.58871, -18.94555 ], [ -68.58969, -18.94581 ], [ -68.59004, -18.94729 ], [ -68.58981, -18.94757 ], [ -68.58929, -18.9477 ], [ -68.58841, -18.94754 ], [ -68.58805, -18.94734 ], [ -68.58772, -18.94688 ], [ -68.5881, -18.94603 ], [ -68.58871, -18.94555 ] ] ] } },
{ "type": "Feature", "properties": { "nombre": "Calacollo", "tipo": "residential", "poblacion": 0 }, "geometry": { "type": "Polygon", "coordinates": [ [ [ -68.69003, -18.84056 ], [ -68.69033, -18.84077 ], [ -68.69028, -18.84176 ], [ -68.68985, -18.84192 ], [ -68.68931, -18.84182 ], [ -68.68901, -18.84174 ], [ -68.68873, -18.84141 ], [ -68.68871, -18.84109 ], [ -68.68902, -18.84068 ], [ -68.6893, -18.84045 ], [ -68.69003, -18.84056 ] ] ] } },
{ "type": "Feature", "properties": { "nombre": "Pisaquere", "tipo": "residential", "poblacion": 0 }, "geometry": { "type": "Polygon", "coordinates": [ [ [ -68.60974, -19.04061 ], [ -68.60941, -19.04054 ], [ -68.60872, -19.04059 ], [ -68.60866, -19.04149 ], [ -68.60878, -19.04193 ], [ -68.60949, -19.04294 ], [ -68.6099, -19.04283 ], [ -68.61019, -19.04183 ], [ -68.61006, -19.04087 ], [ -68.60974, -19.04061 ] ] ] } }
]
}
