{
"type": "FeatureCollection",
"name": "LLA",
"crs": { "type": "name", "properties": { "name": "urn:ogc:def:crs:OGC:1.3:CRS84" } },
"xy_coordinate_resolution": 1e-05,
"features": [
{ "type": "Feature", "properties": { "nombre": "Los Prados", "tipo": "neighbourhood", "poblacion": 0 }, "geometry": { "type": "Polygon", "coordinates": [ [ [ -72.15066, -38.93794 ], [ -72.14845, -38.93847 ], [ -72.14809, -38.93754 ], [ -72.1503, -38.93702 ], [ -72.15066, -38.93794 ] ] ] } },
{ "type": "Feature", "properties": { "nombre": "Villa Los Senderos", "tipo": "neighbourhood", "poblacion": 0 }, "geometry": { "type": "Polygon", "coordinates": [ [ [ -71.90425, -38.43186 ], [ -71.90734, -38.43129 ], [ -71.90721, -38.4302 ], [ -71.90604, -38.43035 ], [ -71.90547, -38.43061 ], [ -71.90517, -38.43063 ], [ -71.90507, -38.43053 ], [ -71.90482, -38.43069 ], [ -71.90393, -38.43087 ], [ -71.90425, -38.43186 ] ] ] } }
]
}
