{
"type": "FeatureCollection",
"name": "NLO",
"crs": { "type": "name", "properties": { "name": "urn:ogc:def:crs:OGC:1.3:CRS84" } },
"xy_coordinate_resolution": 1e-05,
"features": [
{ "type": "Feature", "properties": { "nombre": "La Ultíma Esperanza", "tipo": "residential", "poblacion": 0 }, "geometry": { "type": "Polygon", "coordinates": [ [ [ -71.64933, -36.00898 ], [ -71.64974, -36.00973 ], [ -71.65145, -36.00894 ], [ -71.65091, -36.00787 ], [ -71.64919, -36.00865 ], [ -71.64908, -36.00893 ], [ -71.64917, -36.00906 ], [ -71.64933, -36.00898 ] ] ] } }
]
}
