{
"type": "FeatureCollection",
"name": "OLL",
"crs": { "type": "name", "properties": { "name": "urn:ogc:def:crs:OGC:1.3:CRS84" } },
"xy_coordinate_resolution": 1e-05,
"features": [
{ "type": "Feature", "properties": { "nombre": "Ladislao Cabrera", "tipo": "residential", "poblacion": 0 }, "geometry": { "type": "Polygon", "coordinates": [ [ [ -68.00098, -20.92607 ], [ -68.00095, -20.92711 ], [ -68.00035, -20.92806 ], [ -67.99919, -20.92853 ], [ -67.99833, -20.92864 ], [ -67.99588, -20.92792 ], [ -67.99481, -20.92618 ], [ -67.9949, -20.92456 ], [ -67.99878, -20.92461 ], [ -68.00058, -20.92536 ], [ -68.00098, -20.92607 ] ] ] } },
{ "type": "Feature", "properties": { "nombre": "Pelcoya", "tipo": "residential", "poblacion": 0 }, "geometry": { "type": "Polygon", "coordinates": [ [ [ -68.03788, -20.94401 ], [ -68.03942, -20.94378 ], [ -68.04016, -20.94529 ], [ -68.03994, -20.94562 ], [ -68.03767, -20.94602 ], [ -68.03715, -20.94599 ], [ -68.03691, -20.94534 ], [ -68.0372, -20.94457 ], [ -68.03788, -20.94401 ] ] ] } },
{ "type": "Feature", "properties": { "nombre": "Copacabana", "tipo": "residential", "poblacion": 0 }, "geometry": { "type": "Polygon", "coordinates": [ [ [ -67.79101, -21.2374 ], [ -67.79123, -21.23843 ], [ -67.7921, -21.24017 ], [ -67.79273, -21.24041 ], [ -67.7933, -21.24046 ], [ -67.79403, -21.24025 ], [ -67.79515, -21.23961 ], [ -67.79594, -21.23929 ], [ -67.79661, -21.23923 ], [ -67.798, -21.23859 ], [ -67.7983, -21.23732 ], [ -67.79829, -21.23591 ], [ -67.79738, -21.23543 ], [ -67.79627, -21.23502 ], [ -67.79163, -21.23608 ], [ -67.79101, -21.2374 ] ] ] } },
{ "type": "Feature", "properties": { "nombre": "Avaroa", "tipo": "residential", "poblacion": 0 }, "geometry": { "type": "Polygon", "coordinates": [ [ [ -68.21156, -21.20217 ], [ -68.21509, -21.20276 ], [ -68.21687, -21.20377 ], [ -68.21887, -21.20609 ], [ -68.21879, -21.20637 ], [ -68.21626, -21.2062 ], [ -68.21569, -21.20693 ], [ -68.21292, -21.20528 ], [ -68.21198, -21.20585 ], [ -68.21125, -21.2055 ], [ -68.21131, -21.20477 ], [ -68.21191, -21.20422 ], [ -68.21156, -21.20217 ] ] ] } },
{ "type": "Feature", "properties": { "nombre": "Chiguana", "tipo": "residential", "poblacion": 0 }, "geometry": { "type": "Polygon", "coordinates": [ [ [ -67.97076, -21.05889 ], [ -67.97154, -21.05946 ], [ -67.97192, -21.05986 ], [ -67.97195, -21.06053 ], [ -67.9717, -21.06078 ], [ -67.97025, -21.06062 ], [ -67.9698, -21.06006 ], [ -67.96972, -21.0597 ], [ -67.97004, -21.05864 ], [ -67.97076, -21.05889 ] ] ] } },
{ "type": "Feature", "properties": { "nombre": "Pajancha", "tipo": "residential", "poblacion": 0 }, "geometry": { "type": "Polygon", "coordinates": [ [ [ -68.35362, -21.00929 ], [ -68.35341, -21.00974 ], [ -68.35232, -21.00963 ], [ -68.35025, -21.00913 ], [ -68.35031, -21.00813 ], [ -68.35082, -21.00737 ], [ -68.35201, -21.00712 ], [ -68.3528, -21.00745 ], [ -68.3533, -21.00874 ], [ -68.35362, -21.00929 ] ] ] } },
{ "type": "Feature", "properties": { "nombre": "Estancia Seccicha", "tipo": "residential", "poblacion": 0 }, "geometry": { "type": "Polygon", "coordinates": [ [ [ -68.36609, -20.99048 ], [ -68.36678, -20.99068 ], [ -68.36719, -20.99116 ], [ -68.3674, -20.99159 ], [ -68.3675, -20.99211 ], [ -68.36585, -20.99261 ], [ -68.3646, -20.99195 ], [ -68.3644, -20.99155 ], [ -68.36496, -20.99048 ], [ -68.36609, -20.99048 ] ] ] } }
]
}
