{
"type": "FeatureCollection",
"name": "OSO",
"crs": { "type": "name", "properties": { "name": "urn:ogc:def:crs:OGC:1.3:CRS84" } },
"xy_coordinate_resolution": 1e-05,
"features": [
{ "type": "Feature", "properties": { "nombre": "Parcelas Vista Hermosa", "tipo": "residential", "poblacion": 0 }, "geometry": { "type": "Polygon", "coordinates": [ [ [ -72.98314, -41.30822 ], [ -72.98475, -41.30265 ], [ -72.98146, -41.30262 ], [ -72.98085, -41.30805 ], [ -72.98314, -41.30822 ] ] ] } },
{ "type": "Feature", "properties": { "nombre": "Parque Ivian", "tipo": "residential", "poblacion": 0 }, "geometry": { "type": "Polygon", "coordinates": [ [ [ -72.98671, -41.34184 ], [ -72.98737, -41.34039 ], [ -72.98561, -41.34042 ], [ -72.98563, -41.33856 ], [ -72.98629, -41.33856 ], [ -72.98622, -41.33764 ], [ -72.98648, -41.33764 ], [ -72.98647, -41.33702 ], [ -72.98516, -41.33703 ], [ -72.98514, -41.33678 ], [ -72.98563, -41.33675 ], [ -72.98563, -41.3365 ], [ -72.98628, -41.33647 ], [ -72.98651, -41.33579 ], [ -72.98513, -41.33575 ], [ -72.98529, -41.33507 ], [ -72.98698, -41.33522 ], [ -72.98777, -41.33465 ], [ -72.9767, -41.33442 ], [ -72.97672, -41.33551 ], [ -72.97665, -41.3356 ], [ -72.97607, -41.33561 ], [ -72.97575, -41.33637 ], [ -72.97541, -41.33678 ], [ -72.97451, -41.33745 ], [ -72.97225, -41.33854 ], [ -72.97225, -41.33934 ], [ -72.9706, -41.33933 ], [ -72.96956, -41.33979 ], [ -72.96953, -41.34037 ], [ -72.97136, -41.34038 ], [ -72.97145, -41.34148 ], [ -72.96831, -41.34156 ], [ -72.96708, -41.34176 ], [ -72.96691, -41.34089 ], [ -72.96466, -41.34188 ], [ -72.96354, -41.34214 ], [ -72.96246, -41.34221 ], [ -72.96299, -41.34347 ], [ -72.96066, -41.34385 ], [ -72.95989, -41.34415 ], [ -72.95964, -41.34326 ], [ -72.95861, -41.34355 ], [ -72.9588, -41.34464 ], [ -72.95821, -41.34472 ], [ -72.95808, -41.3448 ], [ -72.95802, -41.34552 ], [ -72.95746, -41.34552 ], [ -72.95756, -41.34659 ], [ -72.95824, -41.34658 ], [ -72.95817, -41.34564 ], [ -72.96148, -41.34547 ], [ -72.96169, -41.34649 ], [ -72.96292, -41.34625 ], [ -72.9629, -41.34552 ], [ -72.96371, -41.34554 ], [ -72.96363, -41.34481 ], [ -72.969, -41.34444 ], [ -72.96898, -41.3437 ], [ -72.97009, -41.34351 ], [ -72.97015, -41.34307 ], [ -72.97083, -41.34308 ], [ -72.97086, -41.34236 ], [ -72.97302, -41.34229 ], [ -72.97295, -41.34153 ], [ -72.97857, -41.3414 ], [ -72.97856, -41.34221 ], [ -72.98671, -41.34184 ] ] ] } },
{ "type": "Feature", "properties": { "nombre": "Loteo Alto Verde", "tipo": "residential", "poblacion": 69 }, "geometry": { "type": "Polygon", "coordinates": [ [ [ -72.98742, -41.30719 ], [ -72.98814, -41.30489 ], [ -72.99163, -41.3052 ], [ -72.99154, -41.30666 ], [ -72.99371, -41.30677 ], [ -72.99306, -41.30822 ], [ -72.98742, -41.30719 ] ] ] } },
{ "type": "Feature", "properties": { "nombre": "Condominio Appel", "tipo": "residential", "poblacion": 0 }, "geometry": { "type": "Polygon", "coordinates": [ [ [ -72.96765, -41.3403 ], [ -72.95999, -41.34013 ], [ -72.95956, -41.34079 ], [ -72.95972, -41.34083 ], [ -72.95936, -41.34157 ], [ -72.96049, -41.34155 ], [ -72.96054, -41.34141 ], [ -72.96143, -41.34142 ], [ -72.96133, -41.34204 ], [ -72.96312, -41.34199 ], [ -72.9639, -41.34189 ], [ -72.96459, -41.34167 ], [ -72.96765, -41.3403 ] ] ] } },
{ "type": "Feature", "properties": { "nombre": "Condominio Jardines de Klenner", "tipo": "residential", "poblacion": 0 }, "geometry": { "type": "Polygon", "coordinates": [ [ [ -72.98317, -41.31305 ], [ -72.9812, -41.31262 ], [ -72.98109, -41.31295 ], [ -72.98308, -41.31333 ], [ -72.98317, -41.31305 ] ] ] } },
{ "type": "Feature", "properties": { "nombre": "Parcelas Bellavista", "tipo": "residential", "poblacion": 81 }, "geometry": { "type": "Polygon", "coordinates": [ [ [ -72.97598, -41.33094 ], [ -72.98152, -41.3311 ], [ -72.98156, -41.33012 ], [ -72.98059, -41.33008 ], [ -72.98143, -41.32832 ], [ -72.97713, -41.32778 ], [ -72.97619, -41.32888 ], [ -72.9759, -41.32942 ], [ -72.97577, -41.33003 ], [ -72.97598, -41.33094 ] ] ] } },
{ "type": "Feature", "properties": { "nombre": "Jardín Patagónico", "tipo": "residential", "poblacion": 0 }, "geometry": { "type": "Polygon", "coordinates": [ [ [ -72.99523, -41.3147 ], [ -72.99424, -41.31468 ], [ -72.99414, -41.31539 ], [ -72.99522, -41.31545 ], [ -72.99523, -41.3147 ] ] ] } },
{ "type": "Feature", "properties": { "nombre": "Parcelas Las Lagunas", "tipo": "residential", "poblacion": 0 }, "geometry": { "type": "Polygon", "coordinates": [ [ [ -72.99995, -41.30402 ], [ -72.99633, -41.30387 ], [ -72.99613, -41.30805 ], [ -72.99875, -41.30788 ], [ -72.99989, -41.3076 ], [ -72.99995, -41.30402 ] ] ] } },
{ "type": "Feature", "properties": { "nombre": "Condominio Los Chilcos", "tipo": "residential", "poblacion": 0 }, "geometry": { "type": "Polygon", "coordinates": [ [ [ -73.02737, -41.12688 ], [ -73.02738, -41.1265 ], [ -73.02721, -41.1264 ], [ -73.02618, -41.12672 ], [ -73.02638, -41.12699 ], [ -73.02737, -41.12688 ] ] ] } },
{ "type": "Feature", "properties": { "nombre": "Condominio Plaza Decher 1", "tipo": "residential", "poblacion": 0 }, "geometry": { "type": "Polygon", "coordinates": [ [ [ -72.98749, -41.31228 ], [ -72.98728, -41.31298 ], [ -72.98666, -41.31288 ], [ -72.98682, -41.31234 ], [ -72.98643, -41.31225 ], [ -72.98648, -41.31209 ], [ -72.98749, -41.31228 ] ] ] } },
{ "type": "Feature", "properties": { "nombre": "Condominio Plaza Decher 2", "tipo": "residential", "poblacion": 0 }, "geometry": { "type": "Polygon", "coordinates": [ [ [ -72.98746, -41.31302 ], [ -72.98769, -41.31231 ], [ -72.98872, -41.31251 ], [ -72.98847, -41.31319 ], [ -72.98746, -41.31302 ] ] ] } },
{ "type": "Feature", "properties": { "nombre": "Altos de Decher", "tipo": "residential", "poblacion": 0 }, "geometry": { "type": "Polygon", "coordinates": [ [ [ -72.99337, -41.31384 ], [ -72.9933, -41.31408 ], [ -72.994, -41.31414 ], [ -72.99402, -41.31399 ], [ -72.99337, -41.31384 ] ] ] } },
{ "type": "Feature", "properties": { "nombre": "Condominio Las Pataguas", "tipo": "residential", "poblacion": 0 }, "geometry": { "type": "Polygon", "coordinates": [ [ [ -72.98629, -41.31001 ], [ -72.98659, -41.30918 ], [ -72.98303, -41.30858 ], [ -72.98279, -41.30939 ], [ -72.98629, -41.31001 ] ] ] } },
{ "type": "Feature", "properties": { "nombre": "Loteo La Posesión", "tipo": "residential", "poblacion": 0 }, "geometry": { "type": "Polygon", "coordinates": [ [ [ -72.99662, -41.29967 ], [ -72.99647, -41.30377 ], [ -72.99366, -41.30369 ], [ -72.99381, -41.30287 ], [ -72.99326, -41.3028 ], [ -72.9935, -41.2996 ], [ -72.99662, -41.29967 ] ] ] } },
{ "type": "Feature", "properties": { "nombre": "Lomas del Ciprés", "tipo": "residential", "poblacion": 0 }, "geometry": { "type": "Polygon", "coordinates": [ [ [ -72.9935, -41.2996 ], [ -72.99326, -41.30291 ], [ -72.98919, -41.30205 ], [ -72.99007, -41.29953 ], [ -72.9935, -41.2996 ] ] ] } },
{ "type": "Feature", "properties": { "nombre": "Mirador de Philippi", "tipo": "residential", "poblacion": 0 }, "geometry": { "type": "Polygon", "coordinates": [ [ [ -72.98236, -41.31182 ], [ -72.98243, -41.31184 ], [ -72.98233, -41.31214 ], [ -72.98137, -41.31195 ], [ -72.98163, -41.31116 ], [ -72.98259, -41.31132 ], [ -72.98236, -41.31182 ] ] ] } },
{ "type": "Feature", "properties": { "nombre": "Parcelas Beyer", "tipo": "residential", "poblacion": 0 }, "geometry": { "type": "Polygon", "coordinates": [ [ [ -73.00044, -41.32071 ], [ -73.00052, -41.31871 ], [ -72.99909, -41.31871 ], [ -72.99896, -41.32066 ], [ -73.00044, -41.32071 ] ] ] } },
{ "type": "Feature", "properties": { "nombre": "Loteo Las Araucarias", "tipo": "residential", "poblacion": 0 }, "geometry": { "type": "Polygon", "coordinates": [ [ [ -73.00268, -41.32176 ], [ -72.99479, -41.32184 ], [ -72.99463, -41.32302 ], [ -72.99403, -41.32301 ], [ -72.99398, -41.32339 ], [ -73.00258, -41.32341 ], [ -73.00268, -41.32176 ] ] ] } },
{ "type": "Feature", "properties": { "nombre": "Parcelas Berner", "tipo": "residential", "poblacion": 0 }, "geometry": { "type": "Polygon", "coordinates": [ [ [ -73.00268, -41.32176 ], [ -72.99527, -41.32183 ], [ -72.99526, -41.32165 ], [ -72.99513, -41.32163 ], [ -72.99537, -41.32057 ], [ -73.0018, -41.32074 ], [ -73.00172, -41.32119 ], [ -73.00271, -41.32123 ], [ -73.00268, -41.32176 ] ] ] } },
{ "type": "Feature", "properties": { "nombre": "Plaza Brintrup", "tipo": "residential", "poblacion": 0 }, "geometry": { "type": "Polygon", "coordinates": [ [ [ -72.98905, -41.32507 ], [ -72.99005, -41.32507 ], [ -72.99005, -41.32573 ], [ -72.98886, -41.32572 ], [ -72.98888, -41.32534 ], [ -72.98905, -41.32507 ] ] ] } },
{ "type": "Feature", "properties": { "nombre": "Plaza Schwerter", "tipo": "residential", "poblacion": 0 }, "geometry": { "type": "Polygon", "coordinates": [ [ [ -72.99315, -41.32468 ], [ -72.99148, -41.32453 ], [ -72.99144, -41.32522 ], [ -72.99227, -41.32524 ], [ -72.99225, -41.32546 ], [ -72.99251, -41.32547 ], [ -72.99246, -41.32591 ], [ -72.9931, -41.32595 ], [ -72.99315, -41.32468 ] ] ] } },
{ "type": "Feature", "properties": { "nombre": "Condominio Ciudad de Las Rosas", "tipo": "residential", "poblacion": 0 }, "geometry": { "type": "Polygon", "coordinates": [ [ [ -72.97976, -41.32298 ], [ -72.97899, -41.32336 ], [ -72.97925, -41.32369 ], [ -72.98004, -41.32328 ], [ -72.97976, -41.32298 ] ] ] } },
{ "type": "Feature", "properties": { "nombre": "Condominio El Arrayán", "tipo": "residential", "poblacion": 0 }, "geometry": { "type": "Polygon", "coordinates": [ [ [ -72.98004, -41.32328 ], [ -72.97925, -41.32369 ], [ -72.97953, -41.32399 ], [ -72.98032, -41.32359 ], [ -72.98004, -41.32328 ] ] ] } },
{ "type": "Feature", "properties": { "nombre": "Edificio Vista Lago II", "tipo": "residential", "poblacion": 0 }, "geometry": { "type": "Polygon", "coordinates": [ [ [ -72.96291, -41.32879 ], [ -72.96299, -41.32901 ], [ -72.96373, -41.32885 ], [ -72.96385, -41.32917 ], [ -72.96275, -41.32938 ], [ -72.96256, -41.32888 ], [ -72.96291, -41.32879 ] ] ] } },
{ "type": "Feature", "properties": { "nombre": "Edificio Los Colonos", "tipo": "residential", "poblacion": 0 }, "geometry": { "type": "Polygon", "coordinates": [ [ [ -72.96247, -41.33006 ], [ -72.96262, -41.33048 ], [ -72.96361, -41.33066 ], [ -72.96371, -41.33061 ], [ -72.96374, -41.33048 ], [ -72.96347, -41.32988 ], [ -72.96247, -41.33006 ] ] ] } },
{ "type": "Feature", "properties": { "nombre": "Loteo Las Lomas", "tipo": "residential", "poblacion": 0 }, "geometry": { "type": "Polygon", "coordinates": [ [ [ -72.96027, -41.33083 ], [ -72.95927, -41.33087 ], [ -72.95757, -41.33064 ], [ -72.9572, -41.33092 ], [ -72.95786, -41.33122 ], [ -72.95799, -41.33174 ], [ -72.95999, -41.33138 ], [ -72.96, -41.33119 ], [ -72.96034, -41.33111 ], [ -72.96027, -41.33083 ] ] ] } },
{ "type": "Feature", "properties": { "nombre": "Parque Los Encinos", "tipo": "residential", "poblacion": 0 }, "geometry": { "type": "Polygon", "coordinates": [ [ [ -72.95519, -41.32959 ], [ -72.95524, -41.32946 ], [ -72.95504, -41.32809 ], [ -72.95395, -41.32807 ], [ -72.95412, -41.3289 ], [ -72.95413, -41.32961 ], [ -72.95519, -41.32959 ] ] ] } },
{ "type": "Feature", "properties": { "nombre": "Loteo Puerto Varas Norte", "tipo": "residential", "poblacion": 0 }, "geometry": { "type": "Polygon", "coordinates": [ [ [ -72.9797, -41.29887 ], [ -72.979, -41.29979 ], [ -72.9794, -41.30068 ], [ -72.98295, -41.30086 ], [ -72.98355, -41.30104 ], [ -72.9894, -41.30104 ], [ -72.98995, -41.29948 ], [ -72.99022, -41.29906 ], [ -72.9797, -41.29887 ] ] ] } },
{ "type": "Feature", "properties": { "nombre": "Edificio Alto Patagonia", "tipo": "residential", "poblacion": 0 }, "geometry": { "type": "Polygon", "coordinates": [ [ [ -72.969, -41.32698 ], [ -72.96841, -41.32718 ], [ -72.96802, -41.3266 ], [ -72.96865, -41.32641 ], [ -72.969, -41.32698 ] ] ] } },
{ "type": "Feature", "properties": { "nombre": "Edificio Costanera", "tipo": "residential", "poblacion": 0 }, "geometry": { "type": "Polygon", "coordinates": [ [ [ -72.97037, -41.32597 ], [ -72.96956, -41.32619 ], [ -72.96978, -41.3266 ], [ -72.97057, -41.32636 ], [ -72.97037, -41.32597 ] ] ] } },
{ "type": "Feature", "properties": { "nombre": "Condominio Las Bandurrias", "tipo": "residential", "poblacion": 0 }, "geometry": { "type": "Polygon", "coordinates": [ [ [ -72.94968, -41.3213 ], [ -72.94968, -41.3211 ], [ -72.95139, -41.32107 ], [ -72.95141, -41.3213 ], [ -72.94968, -41.3213 ] ] ] } },
{ "type": "Feature", "properties": { "nombre": "Condominio Las Encinas", "tipo": "residential", "poblacion": 0 }, "geometry": { "type": "Polygon", "coordinates": [ [ [ -72.94961, -41.32061 ], [ -72.94964, -41.32105 ], [ -72.95223, -41.32101 ], [ -72.95205, -41.32059 ], [ -72.94961, -41.32061 ] ] ] } },
{ "type": "Feature", "properties": { "nombre": "Condominio Puerto Laurel", "tipo": "residential", "poblacion": 0 }, "geometry": { "type": "Polygon", "coordinates": [ [ [ -72.94961, -41.32061 ], [ -72.95205, -41.32059 ], [ -72.95185, -41.31944 ], [ -72.95052, -41.31962 ], [ -72.94943, -41.31964 ], [ -72.94961, -41.32061 ] ] ] } },
{ "type": "Feature", "properties": { "nombre": "Condominio El Canelo", "tipo": "residential", "poblacion": 0 }, "geometry": { "type": "Polygon", "coordinates": [ [ [ -72.95078, -41.32572 ], [ -72.95014, -41.32537 ], [ -72.95134, -41.32525 ], [ -72.95149, -41.32605 ], [ -72.95125, -41.32611 ], [ -72.95078, -41.32572 ] ] ] } },
{ "type": "Feature", "properties": { "nombre": "Loteo Santa Augusta", "tipo": "residential", "poblacion": 0 }, "geometry": { "type": "Polygon", "coordinates": [ [ [ -73.00258, -41.32341 ], [ -73.0026, -41.32429 ], [ -72.99976, -41.3269 ], [ -72.99359, -41.32704 ], [ -72.9938, -41.32472 ], [ -72.99438, -41.32339 ], [ -73.00258, -41.32341 ] ] ] } },
{ "type": "Feature", "properties": { "nombre": "Edificio Las Hortencias", "tipo": "residential", "poblacion": 0 }, "geometry": { "type": "Polygon", "coordinates": [ [ [ -72.94984, -41.32551 ], [ -72.94999, -41.32607 ], [ -72.94957, -41.32616 ], [ -72.94948, -41.32581 ], [ -72.94956, -41.32555 ], [ -72.94984, -41.32551 ] ] ] } },
{ "type": "Feature", "properties": { "nombre": "Edificio Los Castaños", "tipo": "residential", "poblacion": 0 }, "geometry": { "type": "Polygon", "coordinates": [ [ [ -72.95032, -41.32661 ], [ -72.9507, -41.327 ], [ -72.95008, -41.32702 ], [ -72.94995, -41.32664 ], [ -72.95032, -41.32661 ] ] ] } },
{ "type": "Feature", "properties": { "nombre": "Condominio Mirador Los Castaños", "tipo": "residential", "poblacion": 0 }, "geometry": { "type": "Polygon", "coordinates": [ [ [ -72.95086, -41.32765 ], [ -72.95074, -41.32802 ], [ -72.94967, -41.32803 ], [ -72.94998, -41.32758 ], [ -72.95034, -41.32739 ], [ -72.95086, -41.32765 ] ] ] } },
{ "type": "Feature", "properties": { "nombre": "Condominio Río Negro", "tipo": "residential", "poblacion": 0 }, "geometry": { "type": "Polygon", "coordinates": [ [ [ -72.91974, -41.38974 ], [ -72.91985, -41.39012 ], [ -72.92022, -41.39059 ], [ -72.9164, -41.39052 ], [ -72.91589, -41.3896 ], [ -72.91974, -41.38974 ] ] ] } },
{ "type": "Feature", "properties": { "nombre": "Edificio Buenavista", "tipo": "residential", "poblacion": 0 }, "geometry": { "type": "Polygon", "coordinates": [ [ [ -72.99103, -41.31246 ], [ -72.99113, -41.31285 ], [ -72.99135, -41.31296 ], [ -72.99126, -41.31313 ], [ -72.99091, -41.31305 ], [ -72.9907, -41.31247 ], [ -72.99103, -41.31246 ] ] ] } },
{ "type": "Feature", "properties": { "nombre": "Edificio Vita", "tipo": "residential", "poblacion": 0 }, "geometry": { "type": "Polygon", "coordinates": [ [ [ -72.98913, -41.317 ], [ -72.98912, -41.31723 ], [ -72.9881, -41.31721 ], [ -72.98809, -41.31696 ], [ -72.98913, -41.317 ] ] ] } },
{ "type": "Feature", "properties": { "nombre": "Edificio Vista Lago", "tipo": "residential", "poblacion": 0 }, "geometry": { "type": "Polygon", "coordinates": [ [ [ -72.96261, -41.32788 ], [ -72.96291, -41.32879 ], [ -72.96256, -41.32888 ], [ -72.96226, -41.32795 ], [ -72.96261, -41.32788 ] ] ] } },
{ "type": "Feature", "properties": { "nombre": "Vista Puerto Varas", "tipo": "residential", "poblacion": 0 }, "geometry": { "type": "Polygon", "coordinates": [ [ [ -72.94922, -41.32056 ], [ -72.9473, -41.32111 ], [ -72.94615, -41.31947 ], [ -72.94799, -41.31816 ], [ -72.94833, -41.3188 ], [ -72.9486, -41.31873 ], [ -72.94912, -41.32 ], [ -72.94922, -41.32056 ] ] ] } }
]
}
