{
"type": "FeatureCollection",
"name": "PAR",
"crs": { "type": "name", "properties": { "name": "urn:ogc:def:crs:OGC:1.3:CRS84" } },
"xy_coordinate_resolution": 1e-05,
"features": [
{ "type": "Feature", "properties": { "nombre": "Estancia Jalsuri", "tipo": "residential", "poblacion": 0 }, "geometry": { "type": "Polygon", "coordinates": [ [ [ -69.06394, -17.7327 ], [ -69.06316, -17.73218 ], [ -69.06271, -17.73271 ], [ -69.06251, -17.7336 ], [ -69.06213, -17.73418 ], [ -69.06243, -17.73428 ], [ -69.06292, -17.73337 ], [ -69.06352, -17.73343 ], [ -69.06394, -17.7327 ] ] ] } },
{ "type": "Feature", "properties": { "nombre": "Cosapa", "tipo": "hamlet", "poblacion": 0 }, "geometry": { "type": "Polygon", "coordinates": [ [ [ -69.28499, -17.901 ], [ -69.28578, -17.90163 ], [ -69.28561, -17.90255 ], [ -69.28526, -17.90299 ], [ -69.28398, -17.9032 ], [ -69.28312, -17.90253 ], [ -69.28377, -17.90157 ], [ -69.28447, -17.90071 ], [ -69.28499, -17.901 ] ] ] } },
{ "type": "Feature", "properties": { "nombre": "Kasilla-Jila Uta Manasaya", "tipo": "residential", "poblacion": 0 }, "geometry": { "type": "Polygon", "coordinates": [ [ [ -68.96596, -18.06107 ], [ -68.96638, -18.06079 ], [ -68.96662, -18.05989 ], [ -68.96646, -18.05941 ], [ -68.96474, -18.05903 ], [ -68.96437, -18.05902 ], [ -68.96406, -18.05945 ], [ -68.96399, -18.05989 ], [ -68.96428, -18.06025 ], [ -68.96525, -18.06105 ], [ -68.96596, -18.06107 ] ] ] } },
{ "type": "Feature", "properties": { "nombre": "Aillu Originario Jila Uta Collana", "tipo": "residential", "poblacion": 0 }, "geometry": { "type": "Polygon", "coordinates": [ [ [ -68.9706, -18.10487 ], [ -68.96977, -18.10464 ], [ -68.96932, -18.10507 ], [ -68.96907, -18.1055 ], [ -68.9692, -18.10609 ], [ -68.96955, -18.10637 ], [ -68.97012, -18.10636 ], [ -68.97032, -18.10623 ], [ -68.97064, -18.10588 ], [ -68.97074, -18.10553 ], [ -68.9706, -18.10487 ] ] ] } },
{ "type": "Feature", "properties": { "nombre": "Suni Papel Pampa", "tipo": "residential", "poblacion": 0 }, "geometry": { "type": "Polygon", "coordinates": [ [ [ -69.00415, -18.17492 ], [ -69.00414, -18.17464 ], [ -69.00344, -18.17403 ], [ -69.00321, -18.17403 ], [ -69.00159, -18.1745 ], [ -69.00129, -18.17591 ], [ -69.0013, -18.17637 ], [ -69.0016, -18.17638 ], [ -69.00228, -18.1762 ], [ -69.00382, -18.17541 ], [ -69.00415, -18.17492 ] ] ] } },
{ "type": "Feature", "properties": { "nombre": "Quimsa Jakke", "tipo": "residential", "poblacion": 0 }, "geometry": { "type": "Polygon", "coordinates": [ [ [ -68.95529, -18.2709 ], [ -68.95548, -18.2706 ], [ -68.95529, -18.2703 ], [ -68.955, -18.27016 ], [ -68.95494, -18.26958 ], [ -68.95395, -18.26946 ], [ -68.95299, -18.26964 ], [ -68.95259, -18.27018 ], [ -68.95262, -18.27093 ], [ -68.95218, -18.27093 ], [ -68.95221, -18.27144 ], [ -68.95285, -18.27154 ], [ -68.95315, -18.27149 ], [ -68.95413, -18.27158 ], [ -68.95529, -18.2709 ] ] ] } },
{ "type": "Feature", "properties": { "nombre": "Tambo Quemado", "tipo": "residential", "poblacion": 0 }, "geometry": { "type": "Polygon", "coordinates": [ [ [ -69.0073, -18.27759 ], [ -69.00617, -18.27748 ], [ -69.00552, -18.27683 ], [ -69.00508, -18.27662 ], [ -69.00444, -18.27701 ], [ -69.00223, -18.27576 ], [ -69.00234, -18.2756 ], [ -69.00216, -18.27546 ], [ -69.00261, -18.27478 ], [ -69.00112, -18.27388 ], [ -68.99835, -18.27263 ], [ -68.99657, -18.27287 ], [ -68.99607, -18.27347 ], [ -68.9988, -18.27547 ], [ -68.99936, -18.27598 ], [ -69.00008, -18.27548 ], [ -69.00165, -18.27635 ], [ -69.00096, -18.2788 ], [ -69.00375, -18.2801 ], [ -69.0046, -18.28035 ], [ -69.00507, -18.28037 ], [ -69.00608, -18.27993 ], [ -69.00642, -18.27949 ], [ -69.00863, -18.27942 ], [ -69.01032, -18.27862 ], [ -69.00967, -18.27755 ], [ -69.00914, -18.27791 ], [ -69.00923, -18.27832 ], [ -69.00839, -18.27838 ], [ -69.00719, -18.27817 ], [ -69.0073, -18.27759 ] ] ] } },
{ "type": "Feature", "properties": { "nombre": "Caripe", "tipo": "residential", "poblacion": 0 }, "geometry": { "type": "Polygon", "coordinates": [ [ [ -68.83993, -18.00546 ], [ -68.83903, -18.00699 ], [ -68.83865, -18.00652 ], [ -68.83736, -18.0057 ], [ -68.83686, -18.00525 ], [ -68.83651, -18.00479 ], [ -68.83522, -18.00399 ], [ -68.83604, -18.00292 ], [ -68.83807, -18.00286 ], [ -68.84, -18.00424 ], [ -68.83993, -18.00546 ] ] ] } },
{ "type": "Feature", "properties": { "nombre": "Tomarapi", "tipo": "residential", "poblacion": 0 }, "geometry": { "type": "Polygon", "coordinates": [ [ [ -68.87043, -18.02372 ], [ -68.86862, -18.02283 ], [ -68.86831, -18.02424 ], [ -68.86888, -18.02472 ], [ -68.86915, -18.02476 ], [ -68.8703, -18.02405 ], [ -68.87043, -18.02372 ] ] ] } },
{ "type": "Feature", "properties": { "nombre": "Cosapa", "tipo": "residential", "poblacion": 0 }, "geometry": { "type": "Polygon", "coordinates": [ [ [ -68.70979, -18.18011 ], [ -68.7069, -18.17995 ], [ -68.70613, -18.17789 ], [ -68.70625, -18.17759 ], [ -68.70703, -18.17657 ], [ -68.70843, -18.17597 ], [ -68.70936, -18.17532 ], [ -68.71075, -18.17512 ], [ -68.71193, -18.17573 ], [ -68.71277, -18.17665 ], [ -68.71278, -18.17699 ], [ -68.71229, -18.17762 ], [ -68.71236, -18.17817 ], [ -68.70979, -18.18011 ] ] ] } },
{ "type": "Feature", "properties": { "nombre": "Lagunas", "tipo": "residential", "poblacion": 0 }, "geometry": { "type": "Polygon", "coordinates": [ [ [ -68.93269, -18.22085 ], [ -68.93277, -18.22141 ], [ -68.93335, -18.22133 ], [ -68.93343, -18.2219 ], [ -68.93405, -18.22282 ], [ -68.93408, -18.22308 ], [ -68.93613, -18.22379 ], [ -68.93623, -18.22424 ], [ -68.93717, -18.22487 ], [ -68.93723, -18.2253 ], [ -68.93893, -18.22546 ], [ -68.939, -18.22532 ], [ -68.93945, -18.22508 ], [ -68.9396, -18.22391 ], [ -68.9386, -18.22338 ], [ -68.93807, -18.22296 ], [ -68.93721, -18.2226 ], [ -68.93683, -18.22182 ], [ -68.93716, -18.22106 ], [ -68.93565, -18.22047 ], [ -68.93269, -18.22085 ] ] ] } },
{ "type": "Feature", "properties": { "nombre": "Juchus Huaylla", "tipo": "hamlet", "poblacion": 0 }, "geometry": { "type": "Polygon", "coordinates": [ [ [ -68.7807, -18.14198 ], [ -68.78034, -18.14222 ], [ -68.78098, -18.14314 ], [ -68.78114, -18.14302 ], [ -68.78134, -18.14245 ], [ -68.78114, -18.14206 ], [ -68.7807, -18.14198 ] ] ] } },
{ "type": "Feature", "properties": { "nombre": "Chachacomani", "tipo": "residential", "poblacion": 0 }, "geometry": { "type": "Polygon", "coordinates": [ [ [ -68.94417, -18.35369 ], [ -68.94587, -18.3527 ], [ -68.94824, -18.35252 ], [ -68.94848, -18.35473 ], [ -68.948, -18.35604 ], [ -68.9472, -18.35684 ], [ -68.94564, -18.3571 ], [ -68.94463, -18.357 ], [ -68.94417, -18.35369 ] ] ] } },
{ "type": "Feature", "properties": { "nombre": "Sajama", "tipo": "residential", "poblacion": 0 }, "geometry": { "type": "Polygon", "coordinates": [ [ [ -68.97442, -18.13298 ], [ -68.97594, -18.13392 ], [ -68.9773, -18.13518 ], [ -68.97776, -18.13627 ], [ -68.9778, -18.13756 ], [ -68.97694, -18.13807 ], [ -68.97567, -18.13795 ], [ -68.97488, -18.13802 ], [ -68.97405, -18.13756 ], [ -68.97352, -18.13691 ], [ -68.9731, -18.13624 ], [ -68.97314, -18.13492 ], [ -68.97306, -18.13356 ], [ -68.97442, -18.13298 ] ] ] } },
{ "type": "Feature", "properties": { "nombre": "Siki", "tipo": "village", "poblacion": 0 }, "geometry": { "type": "Polygon", "coordinates": [ [ [ -69.15917, -17.95166 ], [ -69.15927, -17.95025 ], [ -69.16062, -17.95012 ], [ -69.16203, -17.95012 ], [ -69.16346, -17.95066 ], [ -69.16346, -17.95372 ], [ -69.16124, -17.95373 ], [ -69.16019, -17.95342 ], [ -69.15934, -17.95248 ], [ -69.15917, -17.95166 ] ] ] } },
{ "type": "Feature", "properties": { "nombre": "Pampa Mogachi", "tipo": "residential", "poblacion": 0 }, "geometry": { "type": "Polygon", "coordinates": [ [ [ -68.88816, -18.43011 ], [ -68.88892, -18.42994 ], [ -68.88959, -18.43024 ], [ -68.88974, -18.43117 ], [ -68.88895, -18.43209 ], [ -68.88771, -18.43252 ], [ -68.88704, -18.43225 ], [ -68.88695, -18.4314 ], [ -68.88667, -18.43097 ], [ -68.88697, -18.43044 ], [ -68.88731, -18.43007 ], [ -68.88816, -18.43011 ] ] ] } },
{ "type": "Feature", "properties": { "nombre": "Macaya", "tipo": "residential", "poblacion": 0 }, "geometry": { "type": "Polygon", "coordinates": [ [ [ -68.9448, -18.5366 ], [ -68.94648, -18.53689 ], [ -68.94725, -18.53857 ], [ -68.94716, -18.53929 ], [ -68.9456, -18.53974 ], [ -68.94462, -18.53923 ], [ -68.94389, -18.53837 ], [ -68.94388, -18.53725 ], [ -68.94419, -18.53666 ], [ -68.9448, -18.5366 ] ] ] } },
{ "type": "Feature", "properties": { "nombre": "Estancia Aguas Calientes", "tipo": "hamlet", "poblacion": 0 }, "geometry": { "type": "Polygon", "coordinates": [ [ [ -69.00388, -17.94686 ], [ -69.00443, -17.94691 ], [ -69.00449, -17.94718 ], [ -69.00463, -17.94915 ], [ -69.00457, -17.94951 ], [ -69.00446, -17.94959 ], [ -69.00415, -17.9496 ], [ -69.00363, -17.94946 ], [ -69.00315, -17.94924 ], [ -69.00287, -17.94894 ], [ -69.00278, -17.94834 ], [ -69.00323, -17.94731 ], [ -69.0034, -17.94709 ], [ -69.00388, -17.94686 ] ] ] } },
{ "type": "Feature", "properties": { "nombre": "Estancia Ancuaque", "tipo": "hamlet", "poblacion": 0 }, "geometry": { "type": "Polygon", "coordinates": [ [ [ -69.0382, -17.9263 ], [ -69.03846, -17.92712 ], [ -69.03828, -17.92752 ], [ -69.0382, -17.92872 ], [ -69.03784, -17.9288 ], [ -69.03764, -17.92871 ], [ -69.03765, -17.92788 ], [ -69.03753, -17.92691 ], [ -69.03759, -17.92655 ], [ -69.03783, -17.9263 ], [ -69.0382, -17.9263 ] ] ] } },
{ "type": "Feature", "properties": { "nombre": "Cotasaya", "tipo": "residential", "poblacion": 0 }, "geometry": { "type": "Polygon", "coordinates": [ [ [ -68.80069, -18.00249 ], [ -68.80183, -18.00328 ], [ -68.80184, -18.00473 ], [ -68.80063, -18.00576 ], [ -68.79932, -18.00575 ], [ -68.79899, -18.00532 ], [ -68.79869, -18.00407 ], [ -68.79937, -18.00324 ], [ -68.80069, -18.00249 ] ] ] } },
{ "type": "Feature", "properties": { "nombre": "Estancia Vilaque", "tipo": "hamlet", "poblacion": 0 }, "geometry": { "type": "Polygon", "coordinates": [ [ [ -68.93305, -18.28279 ], [ -68.93339, -18.28326 ], [ -68.93319, -18.28375 ], [ -68.93274, -18.2843 ], [ -68.93133, -18.28384 ], [ -68.93108, -18.28359 ], [ -68.93146, -18.28309 ], [ -68.93218, -18.28256 ], [ -68.93305, -18.28279 ] ] ] } },
{ "type": "Feature", "properties": { "nombre": "Estancia Kkotaña", "tipo": "hamlet", "poblacion": 0 }, "geometry": { "type": "Polygon", "coordinates": [ [ [ -68.99556, -18.29232 ], [ -68.99601, -18.29268 ], [ -68.99599, -18.29298 ], [ -68.99576, -18.29368 ], [ -68.99543, -18.29378 ], [ -68.9951, -18.29372 ], [ -68.99482, -18.29336 ], [ -68.99493, -18.29284 ], [ -68.99509, -18.29241 ], [ -68.99556, -18.29232 ] ] ] } },
{ "type": "Feature", "properties": { "nombre": "Estancia Vilcoco", "tipo": "hamlet", "poblacion": 0 }, "geometry": { "type": "Polygon", "coordinates": [ [ [ -68.93043, -18.30208 ], [ -68.93137, -18.30228 ], [ -68.93156, -18.30249 ], [ -68.93161, -18.30308 ], [ -68.93136, -18.30362 ], [ -68.93099, -18.30374 ], [ -68.93026, -18.30379 ], [ -68.92994, -18.30348 ], [ -68.92973, -18.30294 ], [ -68.92982, -18.30225 ], [ -68.93043, -18.30208 ] ] ] } },
{ "type": "Feature", "properties": { "nombre": "Estancia Imillamaya", "tipo": "hamlet", "poblacion": 0 }, "geometry": { "type": "Polygon", "coordinates": [ [ [ -68.91455, -18.2993 ], [ -68.91473, -18.29965 ], [ -68.91464, -18.30041 ], [ -68.91425, -18.30052 ], [ -68.91368, -18.30032 ], [ -68.91351, -18.30009 ], [ -68.91354, -18.29963 ], [ -68.91394, -18.29915 ], [ -68.91455, -18.2993 ] ] ] } },
{ "type": "Feature", "properties": { "nombre": "Estancia Phujo", "tipo": "hamlet", "poblacion": 0 }, "geometry": { "type": "Polygon", "coordinates": [ [ [ -68.90706, -18.24058 ], [ -68.90755, -18.24087 ], [ -68.90754, -18.24134 ], [ -68.90728, -18.24193 ], [ -68.907, -18.24205 ], [ -68.90649, -18.24202 ], [ -68.90618, -18.24178 ], [ -68.9061, -18.24136 ], [ -68.90627, -18.24091 ], [ -68.90706, -18.24058 ] ] ] } },
{ "type": "Feature", "properties": { "nombre": "Estancia Quilhuiri", "tipo": "hamlet", "poblacion": 0 }, "geometry": { "type": "Polygon", "coordinates": [ [ [ -68.90105, -18.33549 ], [ -68.90121, -18.33576 ], [ -68.90118, -18.33628 ], [ -68.90063, -18.33719 ], [ -68.9003, -18.33721 ], [ -68.89998, -18.33703 ], [ -68.89982, -18.33679 ], [ -68.89979, -18.33652 ], [ -68.89999, -18.33595 ], [ -68.9002, -18.33567 ], [ -68.90061, -18.33538 ], [ -68.90105, -18.33549 ] ] ] } },
{ "type": "Feature", "properties": { "nombre": "Estancia Taipi Uta", "tipo": "hamlet", "poblacion": 0 }, "geometry": { "type": "Polygon", "coordinates": [ [ [ -68.73279, -18.37707 ], [ -68.73282, -18.37747 ], [ -68.73261, -18.37803 ], [ -68.73234, -18.37803 ], [ -68.73187, -18.3778 ], [ -68.73206, -18.37699 ], [ -68.73245, -18.37692 ], [ -68.73279, -18.37707 ] ] ] } },
{ "type": "Feature", "properties": { "nombre": "Estancia Cheka Churo", "tipo": "hamlet", "poblacion": 0 }, "geometry": { "type": "Polygon", "coordinates": [ [ [ -68.73448, -18.37063 ], [ -68.73475, -18.37097 ], [ -68.7347, -18.37134 ], [ -68.73431, -18.37162 ], [ -68.73355, -18.37163 ], [ -68.7333, -18.37134 ], [ -68.73354, -18.37047 ], [ -68.73448, -18.37063 ] ] ] } },
{ "type": "Feature", "properties": { "nombre": "Estancia Cotasi", "tipo": "hamlet", "poblacion": 0 }, "geometry": { "type": "Polygon", "coordinates": [ [ [ -68.70644, -18.32013 ], [ -68.70726, -18.31969 ], [ -68.70827, -18.32019 ], [ -68.7089, -18.32096 ], [ -68.7089, -18.32205 ], [ -68.70867, -18.32249 ], [ -68.70708, -18.32272 ], [ -68.70675, -18.32213 ], [ -68.70599, -18.32148 ], [ -68.70644, -18.32013 ] ] ] } },
{ "type": "Feature", "properties": { "nombre": "Estancia Than Kkta", "tipo": "hamlet", "poblacion": 0 }, "geometry": { "type": "Polygon", "coordinates": [ [ [ -68.69544, -18.14075 ], [ -68.69569, -18.14104 ], [ -68.69568, -18.14141 ], [ -68.6955, -18.1417 ], [ -68.69526, -18.14181 ], [ -68.6946, -18.14154 ], [ -68.69451, -18.14127 ], [ -68.69453, -18.14095 ], [ -68.69471, -18.1407 ], [ -68.69506, -18.14054 ], [ -68.69544, -18.14075 ] ] ] } },
{ "type": "Feature", "properties": { "nombre": "Estancia Khara Tia", "tipo": "hamlet", "poblacion": 0 }, "geometry": { "type": "Polygon", "coordinates": [ [ [ -68.69861, -18.15793 ], [ -68.69959, -18.15904 ], [ -68.69956, -18.15949 ], [ -68.69874, -18.1597 ], [ -68.69814, -18.15954 ], [ -68.69772, -18.15909 ], [ -68.69772, -18.15792 ], [ -68.69861, -18.15793 ] ] ] } },
{ "type": "Feature", "properties": { "nombre": "Estancia Taipi Thola", "tipo": "hamlet", "poblacion": 0 }, "geometry": { "type": "Polygon", "coordinates": [ [ [ -68.69136, -18.15153 ], [ -68.69169, -18.15182 ], [ -68.69164, -18.15238 ], [ -68.69141, -18.15264 ], [ -68.69097, -18.15269 ], [ -68.69073, -18.15247 ], [ -68.6907, -18.15181 ], [ -68.6909, -18.15147 ], [ -68.69136, -18.15153 ] ] ] } },
{ "type": "Feature", "properties": { "nombre": "Estancia Kkala Kkollu", "tipo": "hamlet", "poblacion": 0 }, "geometry": { "type": "Polygon", "coordinates": [ [ [ -68.69629, -18.19821 ], [ -68.69685, -18.19844 ], [ -68.69689, -18.19892 ], [ -68.69671, -18.19939 ], [ -68.69623, -18.19961 ], [ -68.69564, -18.1997 ], [ -68.69542, -18.19942 ], [ -68.69545, -18.19893 ], [ -68.69562, -18.19833 ], [ -68.69629, -18.19821 ] ] ] } },
{ "type": "Feature", "properties": { "nombre": "Estancia Thola Pampa", "tipo": "hamlet", "poblacion": 0 }, "geometry": { "type": "Polygon", "coordinates": [ [ [ -68.7292, -18.1875 ], [ -68.72937, -18.18769 ], [ -68.72919, -18.18814 ], [ -68.72867, -18.18841 ], [ -68.7281, -18.18846 ], [ -68.72777, -18.18833 ], [ -68.72756, -18.18798 ], [ -68.72762, -18.18776 ], [ -68.72801, -18.1876 ], [ -68.72858, -18.18745 ], [ -68.7292, -18.1875 ] ] ] } },
{ "type": "Feature", "properties": { "nombre": "Estancia Chanca Mokho", "tipo": "hamlet", "poblacion": 0 }, "geometry": { "type": "Polygon", "coordinates": [ [ [ -68.78811, -18.1858 ], [ -68.78883, -18.18577 ], [ -68.78915, -18.18608 ], [ -68.78918, -18.18636 ], [ -68.78894, -18.18654 ], [ -68.78848, -18.1866 ], [ -68.78813, -18.18645 ], [ -68.78798, -18.18621 ], [ -68.78811, -18.1858 ] ] ] } },
{ "type": "Feature", "properties": { "nombre": "Huyatilla", "tipo": "hamlet", "poblacion": 0 }, "geometry": { "type": "Polygon", "coordinates": [ [ [ -68.74758, -18.06794 ], [ -68.74794, -18.06841 ], [ -68.74793, -18.0686 ], [ -68.74767, -18.0688 ], [ -68.74708, -18.06879 ], [ -68.74696, -18.06862 ], [ -68.747, -18.0681 ], [ -68.74709, -18.06793 ], [ -68.74735, -18.06782 ], [ -68.74758, -18.06794 ] ] ] } },
{ "type": "Feature", "properties": { "nombre": "Estancia Huaylluma", "tipo": "hamlet", "poblacion": 0 }, "geometry": { "type": "Polygon", "coordinates": [ [ [ -68.80366, -17.9406 ], [ -68.80439, -17.94058 ], [ -68.80462, -17.94069 ], [ -68.80463, -17.94115 ], [ -68.80442, -17.94162 ], [ -68.80392, -17.94166 ], [ -68.80343, -17.94137 ], [ -68.80341, -17.94093 ], [ -68.80366, -17.9406 ] ] ] } },
{ "type": "Feature", "properties": { "nombre": "Estancia Jihuawi", "tipo": "hamlet", "poblacion": 0 }, "geometry": { "type": "Polygon", "coordinates": [ [ [ -68.71591, -18.00723 ], [ -68.71635, -18.00727 ], [ -68.71651, -18.00769 ], [ -68.7165, -18.00793 ], [ -68.71618, -18.00815 ], [ -68.71595, -18.00809 ], [ -68.71578, -18.00787 ], [ -68.71567, -18.00735 ], [ -68.71591, -18.00723 ] ] ] } },
{ "type": "Feature", "properties": { "nombre": "Pasto Grande", "tipo": "residential", "poblacion": 0 }, "geometry": { "type": "Polygon", "coordinates": [ [ [ -69.00135, -17.80541 ], [ -69.00156, -17.80418 ], [ -69.00229, -17.80384 ], [ -69.00263, -17.80431 ], [ -69.00235, -17.80527 ], [ -69.00177, -17.8057 ], [ -69.00135, -17.80541 ] ] ] } }
]
}
