{
"type": "FeatureCollection",
"name": "PUT",
"crs": { "type": "name", "properties": { "name": "urn:ogc:def:crs:OGC:1.3:CRS84" } },
"xy_coordinate_resolution": 1e-05,
"features": [
{ "type": "Feature", "properties": { "nombre": "Huayajara", "tipo": "hamlet", "poblacion": 0 }, "geometry": { "type": "Polygon", "coordinates": [ [ [ -67.81695, -22.26235 ], [ -67.81648, -22.26184 ], [ -67.81566, -22.26187 ], [ -67.81513, -22.26216 ], [ -67.81481, -22.26324 ], [ -67.81496, -22.26496 ], [ -67.81594, -22.26625 ], [ -67.8168, -22.2666 ], [ -67.81718, -22.26561 ], [ -67.81708, -22.26337 ], [ -67.81695, -22.26235 ] ] ] } }
]
}
