{
"type": "FeatureCollection",
"name": "SDP",
"crs": { "type": "name", "properties": { "name": "urn:ogc:def:crs:OGC:1.3:CRS84" } },
"xy_coordinate_resolution": 1e-05,
"features": [
{ "type": "Feature", "properties": { "nombre": "Puesto Militar Adelantado de Infantería Mayor José Mendizábal", "tipo": "hamlet", "poblacion": 0 }, "geometry": { "type": "Polygon", "coordinates": [ [ [ -68.01229, -22.00792 ], [ -68.01203, -22.00818 ], [ -68.01167, -22.00788 ], [ -68.01195, -22.00763 ], [ -68.01229, -22.00792 ] ] ] } }
]
}
