{
"type": "FeatureCollection",
"name": "SOL",
"crs": { "type": "name", "properties": { "name": "urn:ogc:def:crs:OGC:1.3:CRS84" } },
"xy_coordinate_resolution": 1e-05,
"features": [
{ "type": "Feature", "properties": { "nombre": "Brisas de Quelhue", "tipo": "residential", "poblacion": 0 }, "geometry": { "type": "Polygon", "coordinates": [ [ [ -71.94487, -39.27254 ], [ -71.94506, -39.2727 ], [ -71.94518, -39.27298 ], [ -71.94505, -39.2732 ], [ -71.94458, -39.27345 ], [ -71.94424, -39.27388 ], [ -71.94417, -39.27446 ], [ -71.94431, -39.27525 ], [ -71.94419, -39.27562 ], [ -71.94355, -39.27649 ], [ -71.94329, -39.27696 ], [ -71.94214, -39.27719 ], [ -71.94194, -39.27617 ], [ -71.9415, -39.27531 ], [ -71.94186, -39.27482 ], [ -71.94215, -39.27409 ], [ -71.94478, -39.27264 ], [ -71.94487, -39.27254 ] ] ] } },
{ "type": "Feature", "properties": { "nombre": "Puerto Pucón", "tipo": "residential", "poblacion": 0 }, "geometry": { "type": "Polygon", "coordinates": [ [ [ -71.93347, -39.27549 ], [ -71.93301, -39.27568 ], [ -71.93181, -39.27238 ], [ -71.93157, -39.27205 ], [ -71.93108, -39.27098 ], [ -71.93163, -39.27087 ], [ -71.9316, -39.27064 ], [ -71.93171, -39.27035 ], [ -71.93236, -39.27002 ], [ -71.93277, -39.26997 ], [ -71.93275, -39.2695 ], [ -71.934, -39.2695 ], [ -71.93401, -39.27009 ], [ -71.93357, -39.27081 ], [ -71.93202, -39.2713 ], [ -71.93239, -39.27213 ], [ -71.9332, -39.27269 ], [ -71.93634, -39.27172 ], [ -71.93674, -39.27214 ], [ -71.93549, -39.27337 ], [ -71.93589, -39.27405 ], [ -71.93518, -39.27432 ], [ -71.93419, -39.27425 ], [ -71.93468, -39.27561 ], [ -71.93579, -39.27486 ], [ -71.93717, -39.27542 ], [ -71.93775, -39.27541 ], [ -71.93803, -39.27496 ], [ -71.93963, -39.27578 ], [ -71.93901, -39.27596 ], [ -71.93855, -39.27628 ], [ -71.93783, -39.27738 ], [ -71.93718, -39.27801 ], [ -71.93618, -39.27866 ], [ -71.93558, -39.27877 ], [ -71.93511, -39.27865 ], [ -71.93461, -39.27821 ], [ -71.93442, -39.27773 ], [ -71.93441, -39.27659 ], [ -71.9342, -39.27647 ], [ -71.93347, -39.27549 ] ] ] } },
{ "type": "Feature", "properties": { "nombre": "Mirador del Quelhue", "tipo": "residential", "poblacion": 0 }, "geometry": { "type": "Polygon", "coordinates": [ [ [ -71.93579, -39.27486 ], [ -71.93722, -39.27356 ], [ -71.93784, -39.27323 ], [ -71.94151, -39.2749 ], [ -71.94067, -39.27547 ], [ -71.93963, -39.27578 ], [ -71.93803, -39.27496 ], [ -71.93775, -39.27541 ], [ -71.93717, -39.27542 ], [ -71.93579, -39.27486 ] ] ] } }
]
}
