{
"type": "FeatureCollection",
"name": "TAA",
"crs": { "type": "name", "properties": { "name": "urn:ogc:def:crs:OGC:1.3:CRS84" } },
"xy_coordinate_resolution": 1e-05,
"features": [
{ "type": "Feature", "properties": { "nombre": "Chinocavi", "tipo": "hamlet", "poblacion": 0 }, "geometry": { "type": "Polygon", "coordinates": [ [ [ -69.33398, -17.72229 ], [ -69.33354, -17.7217 ], [ -69.33198, -17.72252 ], [ -69.33158, -17.72323 ], [ -69.33156, -17.72386 ], [ -69.33221, -17.72462 ], [ -69.33362, -17.72305 ], [ -69.33394, -17.72251 ], [ -69.33398, -17.72229 ] ] ] } },
{ "type": "Feature", "properties": { "nombre": "Estancia Laram Kkota", "tipo": "hamlet", "poblacion": 0 }, "geometry": { "type": "Polygon", "coordinates": [ [ [ -69.36719, -17.68724 ], [ -69.36498, -17.69083 ], [ -69.36306, -17.69005 ], [ -69.3638, -17.68736 ], [ -69.36632, -17.68735 ], [ -69.36706, -17.68714 ], [ -69.36719, -17.68724 ] ] ] } },
{ "type": "Feature", "properties": { "nombre": "Cosapa", "tipo": "hamlet", "poblacion": 0 }, "geometry": { "type": "Polygon", "coordinates": [ [ [ -69.28499, -17.901 ], [ -69.28578, -17.90163 ], [ -69.28561, -17.90255 ], [ -69.28526, -17.90299 ], [ -69.28398, -17.9032 ], [ -69.28312, -17.90253 ], [ -69.28377, -17.90157 ], [ -69.28447, -17.90071 ], [ -69.28499, -17.901 ] ] ] } },
{ "type": "Feature", "properties": { "nombre": "Siki", "tipo": "village", "poblacion": 0 }, "geometry": { "type": "Polygon", "coordinates": [ [ [ -69.15917, -17.95166 ], [ -69.15927, -17.95025 ], [ -69.16062, -17.95012 ], [ -69.16203, -17.95012 ], [ -69.16346, -17.95066 ], [ -69.16346, -17.95372 ], [ -69.16124, -17.95373 ], [ -69.16019, -17.95342 ], [ -69.15934, -17.95248 ], [ -69.15917, -17.95166 ] ] ] } }
]
}
