{
"type": "FeatureCollection",
"name": "TRO",
"crs": { "type": "name", "properties": { "name": "urn:ogc:def:crs:OGC:1.3:CRS84" } },
"xy_coordinate_resolution": 1e-05,
"features": [
{ "type": "Feature", "properties": { "nombre": "Pilar II", "tipo": "residential", "poblacion": 0 }, "geometry": { "type": "Polygon", "coordinates": [ [ [ -71.33851, -41.19165 ], [ -71.3437, -41.18557 ], [ -71.34445, -41.18602 ], [ -71.34455, -41.18664 ], [ -71.34433, -41.1874 ], [ -71.34411, -41.18781 ], [ -71.34359, -41.1883 ], [ -71.34285, -41.18871 ], [ -71.3424, -41.18912 ], [ -71.34248, -41.1895 ], [ -71.34281, -41.18999 ], [ -71.34288, -41.19028 ], [ -71.34282, -41.19073 ], [ -71.34253, -41.19111 ], [ -71.33987, -41.19569 ], [ -71.33972, -41.19575 ], [ -71.33629, -41.19418 ], [ -71.33627, -41.194 ], [ -71.33851, -41.19165 ] ] ] } },
{ "type": "Feature", "properties": { "nombre": "Pilar I", "tipo": "residential", "poblacion": 0 }, "geometry": { "type": "Polygon", "coordinates": [ [ [ -71.35267, -41.17791 ], [ -71.3514, -41.17794 ], [ -71.35045, -41.17753 ], [ -71.34728, -41.1814 ], [ -71.35311, -41.18404 ], [ -71.35348, -41.18412 ], [ -71.35281, -41.17805 ], [ -71.35267, -41.17791 ] ] ] } },
{ "type": "Feature", "properties": { "nombre": "E12", "tipo": "residential", "poblacion": 0 }, "geometry": { "type": "Polygon", "coordinates": [ [ [ -71.33915, -41.1815 ], [ -71.33875, -41.18131 ], [ -71.33865, -41.18147 ], [ -71.33905, -41.18166 ], [ -71.33915, -41.1815 ] ] ] } }
]
}
