{
"type": "FeatureCollection",
"name": "VIL",
"crs": { "type": "name", "properties": { "name": "urn:ogc:def:crs:OGC:1.3:CRS84" } },
"xy_coordinate_resolution": 1e-05,
"features": [
{ "type": "Feature", "properties": { "nombre": "Villa Melilahuen", "tipo": "residential", "poblacion": 0 }, "geometry": { "type": "Polygon", "coordinates": [ [ [ -72.15395, -39.48227 ], [ -72.15463, -39.48423 ], [ -72.15555, -39.48453 ], [ -72.15643, -39.48347 ], [ -72.15707, -39.48286 ], [ -72.15659, -39.48166 ], [ -72.15395, -39.48227 ] ] ] } },
{ "type": "Feature", "properties": { "nombre": "La Puntilla de Villarrica", "tipo": "residential", "poblacion": 0 }, "geometry": { "type": "Polygon", "coordinates": [ [ [ -72.19835, -39.29409 ], [ -72.20119, -39.29374 ], [ -72.20171, -39.29392 ], [ -72.20255, -39.29383 ], [ -72.20216, -39.29363 ], [ -72.20209, -39.29319 ], [ -72.20282, -39.29208 ], [ -72.20277, -39.29152 ], [ -72.20253, -39.29109 ], [ -72.20211, -39.29072 ], [ -72.20083, -39.2903 ], [ -72.20056, -39.28994 ], [ -72.20032, -39.28904 ], [ -72.1998, -39.28836 ], [ -72.19946, -39.28836 ], [ -72.19866, -39.28787 ], [ -72.19852, -39.28849 ], [ -72.19887, -39.28853 ], [ -72.1987, -39.289 ], [ -72.19876, -39.28946 ], [ -72.19866, -39.28968 ], [ -72.19827, -39.28973 ], [ -72.1982, -39.29015 ], [ -72.19806, -39.29039 ], [ -72.19726, -39.29124 ], [ -72.19594, -39.29204 ], [ -72.19613, -39.29275 ], [ -72.19677, -39.29421 ], [ -72.19835, -39.29409 ] ] ] } },
{ "type": "Feature", "properties": { "nombre": "Marina Paihue", "tipo": "residential", "poblacion": 0 }, "geometry": { "type": "Polygon", "coordinates": [ [ [ -71.98258, -39.28136 ], [ -71.98204, -39.27997 ], [ -71.98265, -39.27974 ], [ -71.98282, -39.27983 ], [ -71.98276, -39.27999 ], [ -71.98308, -39.28102 ], [ -71.98288, -39.28108 ], [ -71.98301, -39.28144 ], [ -71.98258, -39.28136 ] ] ] } },
{ "type": "Feature", "properties": { "nombre": "Amulafquen", "tipo": "residential", "poblacion": 0 }, "geometry": { "type": "Polygon", "coordinates": [ [ [ -72.00204, -39.28897 ], [ -72.00201, -39.28892 ], [ -72.00246, -39.28912 ], [ -72.00261, -39.28932 ], [ -72.00292, -39.29024 ], [ -72.00264, -39.29029 ], [ -72.00236, -39.29006 ], [ -72.00184, -39.28921 ], [ -72.00204, -39.28897 ] ] ] } },
{ "type": "Feature", "properties": { "nombre": "Península de Pucón", "tipo": "residential", "poblacion": 0 }, "geometry": { "type": "Polygon", "coordinates": [ [ [ -71.98596, -39.27542 ], [ -71.98547, -39.27508 ], [ -71.98494, -39.27486 ], [ -71.98429, -39.27472 ], [ -71.98386, -39.27478 ], [ -71.98381, -39.27531 ], [ -71.98568, -39.2759 ], [ -71.98596, -39.27542 ] ] ] } },
{ "type": "Feature", "properties": { "nombre": "Condominio Country Pucon", "tipo": "residential", "poblacion": 0 }, "geometry": { "type": "Polygon", "coordinates": [ [ [ -72.05473, -39.34053 ], [ -72.05258, -39.34102 ], [ -72.04865, -39.3423 ], [ -72.0417, -39.34383 ], [ -72.03974, -39.34504 ], [ -72.0401, -39.34595 ], [ -72.04338, -39.34524 ], [ -72.04737, -39.35526 ], [ -72.04902, -39.35476 ], [ -72.0485, -39.3534 ], [ -72.04979, -39.35229 ], [ -72.05192, -39.35151 ], [ -72.05256, -39.35312 ], [ -72.05855, -39.35168 ], [ -72.0579, -39.34945 ], [ -72.05473, -39.34053 ] ] ] } },
{ "type": "Feature", "properties": { "nombre": "Villa verde Prado", "tipo": "neighbourhood", "poblacion": 0 }, "geometry": { "type": "Polygon", "coordinates": [ [ [ -72.35859, -39.60523 ], [ -72.35904, -39.60499 ], [ -72.35888, -39.60483 ], [ -72.35921, -39.6047 ], [ -72.3586, -39.60414 ], [ -72.3577, -39.60457 ], [ -72.35844, -39.60521 ], [ -72.35859, -39.60523 ] ] ] } },
{ "type": "Feature", "properties": { "nombre": "Comité Melilef", "tipo": "neighbourhood", "poblacion": 0 }, "geometry": { "type": "Polygon", "coordinates": [ [ [ -72.2051, -39.30878 ], [ -72.20595, -39.31083 ], [ -72.20659, -39.31068 ], [ -72.20719, -39.31214 ], [ -72.20523, -39.31258 ], [ -72.20372, -39.3091 ], [ -72.2051, -39.30878 ] ] ] } },
{ "type": "Feature", "properties": { "nombre": "Condominio Origen", "tipo": "residential", "poblacion": 0 }, "geometry": { "type": "Polygon", "coordinates": [ [ [ -71.95968, -39.27891 ], [ -71.95855, -39.27912 ], [ -71.9588, -39.27999 ], [ -71.95997, -39.27977 ], [ -71.95968, -39.27891 ] ] ] } },
{ "type": "Feature", "properties": { "nombre": "Condominio Aiwinco", "tipo": "residential", "poblacion": 0 }, "geometry": { "type": "Polygon", "coordinates": [ [ [ -71.98308, -39.28102 ], [ -71.98276, -39.27999 ], [ -71.98282, -39.27983 ], [ -71.98346, -39.27958 ], [ -71.98348, -39.27982 ], [ -71.98398, -39.28116 ], [ -71.98412, -39.28192 ], [ -71.98301, -39.28144 ], [ -71.98288, -39.28108 ], [ -71.98308, -39.28102 ] ] ] } },
{ "type": "Feature", "properties": { "nombre": "Condominio Peumayén II}", "tipo": "residential", "poblacion": 0 }, "geometry": { "type": "Polygon", "coordinates": [ [ [ -71.9626, -39.27597 ], [ -71.96107, -39.27675 ], [ -71.96245, -39.27779 ], [ -71.96334, -39.27745 ], [ -71.96347, -39.27729 ], [ -71.96283, -39.27688 ], [ -71.96328, -39.27663 ], [ -71.96269, -39.27621 ], [ -71.96284, -39.27613 ], [ -71.9626, -39.27597 ] ] ] } },
{ "type": "Feature", "properties": { "nombre": "Brisas de Quelhue", "tipo": "residential", "poblacion": 0 }, "geometry": { "type": "Polygon", "coordinates": [ [ [ -71.94487, -39.27254 ], [ -71.94506, -39.2727 ], [ -71.94518, -39.27298 ], [ -71.94505, -39.2732 ], [ -71.94458, -39.27345 ], [ -71.94424, -39.27388 ], [ -71.94417, -39.27446 ], [ -71.94431, -39.27525 ], [ -71.94419, -39.27562 ], [ -71.94355, -39.27649 ], [ -71.94329, -39.27696 ], [ -71.94214, -39.27719 ], [ -71.94194, -39.27617 ], [ -71.9415, -39.27531 ], [ -71.94186, -39.27482 ], [ -71.94215, -39.27409 ], [ -71.94478, -39.27264 ], [ -71.94487, -39.27254 ] ] ] } },
{ "type": "Feature", "properties": { "nombre": "Puerto Pucón", "tipo": "residential", "poblacion": 0 }, "geometry": { "type": "Polygon", "coordinates": [ [ [ -71.93347, -39.27549 ], [ -71.93301, -39.27568 ], [ -71.93181, -39.27238 ], [ -71.93157, -39.27205 ], [ -71.93108, -39.27098 ], [ -71.93163, -39.27087 ], [ -71.9316, -39.27064 ], [ -71.93171, -39.27035 ], [ -71.93236, -39.27002 ], [ -71.93277, -39.26997 ], [ -71.93275, -39.2695 ], [ -71.934, -39.2695 ], [ -71.93401, -39.27009 ], [ -71.93357, -39.27081 ], [ -71.93202, -39.2713 ], [ -71.93239, -39.27213 ], [ -71.9332, -39.27269 ], [ -71.93634, -39.27172 ], [ -71.93674, -39.27214 ], [ -71.93549, -39.27337 ], [ -71.93589, -39.27405 ], [ -71.93518, -39.27432 ], [ -71.93419, -39.27425 ], [ -71.93468, -39.27561 ], [ -71.93579, -39.27486 ], [ -71.93717, -39.27542 ], [ -71.93775, -39.27541 ], [ -71.93803, -39.27496 ], [ -71.93963, -39.27578 ], [ -71.93901, -39.27596 ], [ -71.93855, -39.27628 ], [ -71.93783, -39.27738 ], [ -71.93718, -39.27801 ], [ -71.93618, -39.27866 ], [ -71.93558, -39.27877 ], [ -71.93511, -39.27865 ], [ -71.93461, -39.27821 ], [ -71.93442, -39.27773 ], [ -71.93441, -39.27659 ], [ -71.9342, -39.27647 ], [ -71.93347, -39.27549 ] ] ] } },
{ "type": "Feature", "properties": { "nombre": "Mirador del Quelhue", "tipo": "residential", "poblacion": 0 }, "geometry": { "type": "Polygon", "coordinates": [ [ [ -71.93579, -39.27486 ], [ -71.93722, -39.27356 ], [ -71.93784, -39.27323 ], [ -71.94151, -39.2749 ], [ -71.94067, -39.27547 ], [ -71.93963, -39.27578 ], [ -71.93803, -39.27496 ], [ -71.93775, -39.27541 ], [ -71.93717, -39.27542 ], [ -71.93579, -39.27486 ] ] ] } },
{ "type": "Feature", "properties": { "nombre": "Costanera Villarrica", "tipo": "residential", "poblacion": 0 }, "geometry": { "type": "Polygon", "coordinates": [ [ [ -72.21468, -39.29185 ], [ -72.2142, -39.29181 ], [ -72.21362, -39.2916 ], [ -72.21335, -39.29139 ], [ -72.21242, -39.29149 ], [ -72.21216, -39.29247 ], [ -72.21334, -39.29306 ], [ -72.21356, -39.29273 ], [ -72.21374, -39.29218 ], [ -72.21468, -39.29185 ] ] ] } },
{ "type": "Feature", "properties": { "nombre": "Condominio Peumayén I", "tipo": "residential", "poblacion": 0 }, "geometry": { "type": "Polygon", "coordinates": [ [ [ -71.9626, -39.27597 ], [ -71.96284, -39.27613 ], [ -71.96303, -39.27608 ], [ -71.96385, -39.27672 ], [ -71.9648, -39.27622 ], [ -71.96357, -39.27544 ], [ -71.9626, -39.27597 ] ] ] } },
{ "type": "Feature", "properties": { "nombre": "Condominio Nueva Lafquén", "tipo": "residential", "poblacion": 0 }, "geometry": { "type": "Polygon", "coordinates": [ [ [ -72.22148, -39.30362 ], [ -72.2204, -39.30388 ], [ -72.22074, -39.30473 ], [ -72.22182, -39.30447 ], [ -72.22148, -39.30362 ] ] ] } },
{ "type": "Feature", "properties": { "nombre": "Condominio Queltehue", "tipo": "residential", "poblacion": 0 }, "geometry": { "type": "Polygon", "coordinates": [ [ [ -72.21753, -39.29793 ], [ -72.21748, -39.2981 ], [ -72.21705, -39.2982 ], [ -72.21721, -39.29863 ], [ -72.21801, -39.29846 ], [ -72.21778, -39.29793 ], [ -72.21753, -39.29793 ] ] ] } },
{ "type": "Feature", "properties": { "nombre": "Condominio Alto Costanera II", "tipo": "residential", "poblacion": 0 }, "geometry": { "type": "Polygon", "coordinates": [ [ [ -72.21705, -39.2982 ], [ -72.21646, -39.29833 ], [ -72.21664, -39.29875 ], [ -72.21721, -39.29863 ], [ -72.21705, -39.2982 ] ] ] } },
{ "type": "Feature", "properties": { "nombre": "Condominio Costanera Villarrica", "tipo": "residential", "poblacion": 0 }, "geometry": { "type": "Polygon", "coordinates": [ [ [ -72.21845, -39.29339 ], [ -72.2177, -39.29369 ], [ -72.21713, -39.29274 ], [ -72.2172, -39.2927 ], [ -72.21656, -39.29145 ], [ -72.21699, -39.29128 ], [ -72.21728, -39.29194 ], [ -72.21767, -39.29181 ], [ -72.21779, -39.29248 ], [ -72.21788, -39.29248 ], [ -72.21845, -39.29339 ] ] ] } },
{ "type": "Feature", "properties": { "nombre": "Condominio Pichilafquén", "tipo": "residential", "poblacion": 0 }, "geometry": { "type": "Polygon", "coordinates": [ [ [ -72.23569, -39.2842 ], [ -72.23559, -39.28436 ], [ -72.23639, -39.28464 ], [ -72.2365, -39.28449 ], [ -72.23569, -39.2842 ] ] ] } },
{ "type": "Feature", "properties": { "nombre": "Condominio Las Garzas", "tipo": "residential", "poblacion": 0 }, "geometry": { "type": "Polygon", "coordinates": [ [ [ -72.23661, -39.28557 ], [ -72.23624, -39.28596 ], [ -72.23666, -39.28618 ], [ -72.23678, -39.28569 ], [ -72.23661, -39.28557 ] ] ] } },
{ "type": "Feature", "properties": { "nombre": "Edificio Yatching", "tipo": "residential", "poblacion": 0 }, "geometry": { "type": "Polygon", "coordinates": [ [ [ -72.2233, -39.28025 ], [ -72.22287, -39.27988 ], [ -72.22239, -39.28022 ], [ -72.22281, -39.28059 ], [ -72.2233, -39.28025 ] ] ] } },
{ "type": "Feature", "properties": { "nombre": "Condominio Altos de Villarrica", "tipo": "residential", "poblacion": 0 }, "geometry": { "type": "Polygon", "coordinates": [ [ [ -72.23242, -39.29333 ], [ -72.23154, -39.29282 ], [ -72.23121, -39.29316 ], [ -72.23204, -39.29368 ], [ -72.23242, -39.29333 ] ] ] } },
{ "type": "Feature", "properties": { "nombre": "Mirador Villarrica", "tipo": "residential", "poblacion": 0 }, "geometry": { "type": "Polygon", "coordinates": [ [ [ -72.23254, -39.29331 ], [ -72.23271, -39.29316 ], [ -72.23264, -39.29311 ], [ -72.23361, -39.29209 ], [ -72.23344, -39.29199 ], [ -72.23356, -39.29189 ], [ -72.23414, -39.2922 ], [ -72.23356, -39.29291 ], [ -72.23318, -39.29366 ], [ -72.23288, -39.29359 ], [ -72.23286, -39.29347 ], [ -72.23254, -39.29331 ] ] ] } },
{ "type": "Feature", "properties": { "nombre": "Condominio Loncotraro", "tipo": "residential", "poblacion": 0 }, "geometry": { "type": "Polygon", "coordinates": [ [ [ -72.21447, -39.3044 ], [ -72.2137, -39.30455 ], [ -72.21375, -39.30473 ], [ -72.21436, -39.30583 ], [ -72.21462, -39.30576 ], [ -72.2148, -39.30618 ], [ -72.21507, -39.30612 ], [ -72.21447, -39.3044 ] ] ] } },
{ "type": "Feature", "properties": { "nombre": "Condominio Nueva Lafquén II", "tipo": "residential", "poblacion": 0 }, "geometry": { "type": "Polygon", "coordinates": [ [ [ -72.22391, -39.30302 ], [ -72.22275, -39.30334 ], [ -72.22309, -39.30416 ], [ -72.22427, -39.30388 ], [ -72.22391, -39.30302 ] ] ] } },
{ "type": "Feature", "properties": { "nombre": "Condominio Parque al Volcán", "tipo": "residential", "poblacion": 0 }, "geometry": { "type": "Polygon", "coordinates": [ [ [ -72.22258, -39.30333 ], [ -72.22176, -39.30353 ], [ -72.22164, -39.30367 ], [ -72.22195, -39.30445 ], [ -72.22292, -39.30419 ], [ -72.22258, -39.30333 ] ] ] } },
{ "type": "Feature", "properties": { "nombre": "Condominio Newen", "tipo": "residential", "poblacion": 0 }, "geometry": { "type": "Polygon", "coordinates": [ [ [ -72.22148, -39.30362 ], [ -72.22119, -39.30281 ], [ -72.22006, -39.30308 ], [ -72.2204, -39.30388 ], [ -72.22148, -39.30362 ] ] ] } },
{ "type": "Feature", "properties": { "nombre": "Condominio Los Robles III", "tipo": "residential", "poblacion": 0 }, "geometry": { "type": "Polygon", "coordinates": [ [ [ -71.95712, -39.28605 ], [ -71.95502, -39.2865 ], [ -71.95637, -39.2877 ], [ -71.95659, -39.28784 ], [ -71.95675, -39.28783 ], [ -71.95705, -39.28736 ], [ -71.95693, -39.28727 ], [ -71.95737, -39.287 ], [ -71.95719, -39.28676 ], [ -71.95721, -39.28669 ], [ -71.95761, -39.28653 ], [ -71.95712, -39.28605 ] ] ] } },
{ "type": "Feature", "properties": { "nombre": "Condominio Parque Pucón Oriente", "tipo": "residential", "poblacion": 0 }, "geometry": { "type": "Polygon", "coordinates": [ [ [ -71.9574, -39.28519 ], [ -71.9569, -39.28533 ], [ -71.95611, -39.28453 ], [ -71.95556, -39.28466 ], [ -71.95745, -39.28637 ], [ -71.95833, -39.28618 ], [ -71.9574, -39.28519 ] ] ] } },
{ "type": "Feature", "properties": { "nombre": "Condominio Parque Pucón", "tipo": "residential", "poblacion": 0 }, "geometry": { "type": "Polygon", "coordinates": [ [ [ -71.96137, -39.28369 ], [ -71.96179, -39.28516 ], [ -71.96263, -39.28522 ], [ -71.96203, -39.2837 ], [ -71.96137, -39.28369 ] ] ] } },
{ "type": "Feature", "properties": { "nombre": "Condominio Volcán Villarrica", "tipo": "residential", "poblacion": 0 }, "geometry": { "type": "Polygon", "coordinates": [ [ [ -72.21364, -39.30647 ], [ -72.21403, -39.30636 ], [ -72.21379, -39.30579 ], [ -72.21391, -39.30576 ], [ -72.21348, -39.30503 ], [ -72.21335, -39.3044 ], [ -72.21261, -39.30459 ], [ -72.21306, -39.30573 ], [ -72.2133, -39.30567 ], [ -72.21364, -39.30647 ] ] ] } },
{ "type": "Feature", "properties": { "nombre": "Altos de Melefquén", "tipo": "residential", "poblacion": 0 }, "geometry": { "type": "Polygon", "coordinates": [ [ [ -72.44845, -39.59026 ], [ -72.44709, -39.5899 ], [ -72.44687, -39.58999 ], [ -72.44666, -39.59049 ], [ -72.44647, -39.59063 ], [ -72.44546, -39.59097 ], [ -72.44499, -39.59131 ], [ -72.44335, -39.59168 ], [ -72.44302, -39.59225 ], [ -72.44307, -39.5924 ], [ -72.44295, -39.59293 ], [ -72.44289, -39.59398 ], [ -72.44235, -39.59444 ], [ -72.44221, -39.59471 ], [ -72.44222, -39.59571 ], [ -72.44238, -39.59629 ], [ -72.4423, -39.59664 ], [ -72.44242, -39.59682 ], [ -72.44438, -39.59645 ], [ -72.44611, -39.59601 ], [ -72.44803, -39.5954 ], [ -72.44907, -39.59125 ], [ -72.44904, -39.59103 ], [ -72.44845, -39.59026 ] ] ] } },
{ "type": "Feature", "properties": { "nombre": "Condominio Caburgua", "tipo": "residential", "poblacion": 0 }, "geometry": { "type": "Polygon", "coordinates": [ [ [ -71.96407, -39.28588 ], [ -71.96396, -39.28561 ], [ -71.96443, -39.28551 ], [ -71.9642, -39.28494 ], [ -71.96532, -39.28475 ], [ -71.96568, -39.28559 ], [ -71.96407, -39.28588 ] ] ] } },
{ "type": "Feature", "properties": { "nombre": "Mirador Al Volcán", "tipo": "residential", "poblacion": 0 }, "geometry": { "type": "Polygon", "coordinates": [ [ [ -72.235, -39.28614 ], [ -72.23603, -39.28689 ], [ -72.23612, -39.28689 ], [ -72.23631, -39.28644 ], [ -72.23614, -39.28639 ], [ -72.2363, -39.28599 ], [ -72.23516, -39.28539 ], [ -72.235, -39.28614 ] ] ] } }
]
}
