{"type": "FeatureCollection", "crs": {"type": "name", "properties": {"name": "urn:ogc:def:crs:OGC:1.3:CRS84"}}, "features": [{"type": "Feature", "properties": {"cod_comuna": "01401", "nombre_comuna": "Pozo Almonte", "nombre_provincia": "Iquique", "nombre_region": "Región de Tarapacá"}, "geometry": {"type": "Polygon", "coordinates": [[[-68.99677, -20.13686], [-68.99417, -20.13902], [-68.99317, -20.1404], [-68.99207, -20.14423], [-68.99229, -20.14611], [-68.99273, -20.14694], [-68.99417, -20.14816], [-68.99677, -20.14893], [-68.9976, -20.14965], [-68.99688, -20.15137], [-68.99506, -20.15297], [-68.99511, -20.15607], [-68.99428, -20.15801], [-68.99279, -20.15995], [-68.9909, -20.16449], [-68.99129, -20.17136], [-68.99096, -20.17435], [-68.98941, -20.17678], [-68.98814, -20.17772], [-68.9826, -20.17872], [-68.9702, -20.17883], [-68.96593, -20.18011], [-68.96422, -20.18094], [-68.96272, -20.18282], [-68.96289, -20.18415], [-68.9653, -20.18705], [-68.96427, -20.1884], [-68.96352, -20.19075], [-68.9621, -20.19344], [-68.96157, -20.199], [-68.9634, -20.20567], [-68.96611, -20.21023], [-68.96662, -20.21346], [-68.96899, -20.21449], [-68.97431, -20.21957], [-68.97704, -20.22085], [-68.97946, -20.22271], [-68.99924, -20.24619], [-69.00394, -20.25038], [-69.00522, -20.2528], [-69.00917, -20.25817], [-69.01207, -20.27728], [-69.01385, -20.27994], [-69.01578, -20.2821], [-69.01824, -20.28374], [-69.01915, -20.28679], [-69.02019, -20.28783], [-69.0238, -20.28899], [-69.02531, -20.28879], [-69.02768, -20.28961], [-69.03483, -20.29059], [-69.03606, -20.28979], [-69.03686, -20.28751], [-69.03908, -20.28665], [-69.04038, -20.28696], [-69.04362, -20.2862], [-69.05072, -20.28581], [-69.05404, -20.28836], [-69.05754, -20.29357], [-69.05939, -20.29499], [-69.06161, -20.29511], [-69.06801, -20.29694], [-69.06988, -20.29567], [-69.07683, -20.29225], [-69.08029, -20.29098], [-69.08684, -20.28772], [-69.09058, -20.28812], [-69.09229, -20.28769], [-69.09685, -20.28919], [-69.10059, -20.28971], [-69.10514, -20.28949], [-69.10855, -20.2885], [-69.11892, -20.28331], [-69.12484, -20.27845], [-69.12991, -20.27359], [-69.13329, -20.27181], [-69.14446, -20.26944], [-69.15133, -20.26936], [-69.15816, -20.2682], [-69.16709, -20.26573], [-69.17913, -20.25821], [-69.18182, -20.25605], [-69.18565, -20.2549], [-69.18875, -20.2524], [-69.19423, -20.24926], [-69.19749, -20.24823], [-69.20166, -20.24767], [-69.205, -20.24672], [-69.20993, -20.24632], [-69.21521, -20.24438], [-69.21803, -20.24378], [-69.22622, -20.24398], [-69.22916, -20.24501], [-69.23015, -20.24573], [-69.23567, -20.24589], [-69.23829, -20.24549], [-69.24739, -20.24573], [-69.25518, -20.24362], [-69.27147, -20.24481], [-69.2787, -20.24604], [-69.28851, -20.24843], [-69.29386, -20.25065], [-69.3032, -20.25066], [-69.30456, -20.25033], [-69.30846, -20.25022], [-69.31394, -20.24966], [-69.31807, -20.24879], [-69.32157, -20.24875], [-69.32916, -20.24739], [-69.33516, -20.24831], [-69.34032, -20.2497], [-69.3435, -20.25153], [-69.35677, -20.25439], [-69.36054, -20.25427], [-69.37234, -20.2553], [-69.38244, -20.2553], [-69.38955, -20.25598], [-69.39559, -20.2553], [-69.40846, -20.2553], [-69.41112, -20.25578], [-69.41462, -20.25546], [-69.42074, -20.2557], [-69.42526, -20.2583], [-69.43848, -20.25521], [-69.44381, -20.25257], [-69.44985, -20.25156], [-69.45294, -20.252], [-69.4594, -20.2511], [-69.47176, -20.25045], [-69.4746, -20.25175], [-69.475, -20.25348], [-69.47525, -20.25744], [-69.4754, -20.27685], [-69.47548, -20.38707], [-69.47744, -20.73077], [-69.47074, -20.72977], [-69.45878, -20.73008], [-69.44687, -20.73097], [-69.43723, -20.73046], [-69.4288, -20.73138], [-69.40543, -20.73184], [-69.39577, -20.73264], [-69.38373, -20.73024], [-69.362, -20.71837], [-69.35254, -20.71497], [-69.3359, -20.71372], [-69.33066, -20.71303], [-69.31293, -20.70373], [-69.30752, -20.70301], [-69.30368, -20.7031], [-69.30075, -20.70461], [-69.29759, -20.70496], [-69.29655, -20.70652], [-69.29245, -20.70773], [-69.29043, -20.70887], [-69.28631, -20.70966], [-69.2782, -20.70915], [-69.27498, -20.7096], [-69.26965, -20.71121], [-69.26666, -20.71326], [-69.26306, -20.71694], [-69.25705, -20.72156], [-69.25313, -20.72382], [-69.25055, -20.72457], [-69.24811, -20.72632], [-69.24258, -20.73403], [-69.24184, -20.73462], [-69.23675, -20.73602], [-69.23248, -20.73672], [-69.22464, -20.73619], [-69.21854, -20.73489], [-69.21523, -20.73367], [-69.21366, -20.73192], [-69.21044, -20.72966], [-69.20486, -20.72887], [-69.20338, -20.72905], [-69.19876, -20.73059], [-69.19698, -20.72909], [-69.19214, -20.72827], [-69.18926, -20.72601], [-69.18516, -20.72366], [-69.18334, -20.72138], [-69.18082, -20.72077], [-69.17638, -20.72103], [-69.17402, -20.72069], [-69.16679, -20.71825], [-69.16174, -20.71738], [-69.15491, -20.71796], [-69.15172, -20.71877], [-69.1471, -20.72118], [-69.1439, -20.7223], [-69.14196, -20.72356], [-69.13874, -20.72426], [-69.13656, -20.72426], [-69.13116, -20.72269], [-69.12654, -20.72347], [-69.12306, -20.7233], [-69.12018, -20.72408], [-69.11823, -20.72416], [-69.11077, -20.7207], [-69.10855, -20.72025], [-69.10642, -20.72093], [-69.10318, -20.72007], [-69.10012, -20.71783], [-69.09727, -20.71507], [-69.09497, -20.71502], [-69.09066, -20.71417], [-69.08932, -20.71448], [-69.08835, -20.71346], [-69.08821, -20.71189], [-69.08696, -20.71121], [-69.0846, -20.71107], [-69.08293, -20.70996], [-69.0804, -20.70695], [-69.07912, -20.70621], [-69.07725, -20.7036], [-69.07716, -20.70212], [-69.0758, -20.69976], [-69.07449, -20.69848], [-69.07452, -20.69723], [-69.07284, -20.69561], [-69.0729, -20.69425], [-69.07071, -20.68934], [-69.0706, -20.68769], [-69.06889, -20.68792], [-69.06719, -20.68613], [-69.0646, -20.68553], [-69.06071, -20.68641], [-69.05756, -20.68479], [-69.05614, -20.68593], [-69.05176, -20.68635], [-69.04923, -20.68499], [-69.04784, -20.68564], [-69.04676, -20.68828], [-69.04475, -20.68777], [-69.0425, -20.68567], [-69.03997, -20.68561], [-69.03875, -20.68342], [-69.03598, -20.68297], [-69.03463, -20.68516], [-69.03316, -20.68556], [-69.02554, -20.68229], [-69.01719, -20.67753], [-69.0136, -20.67631], [-69.00198, -20.6764], [-68.99805, -20.67695], [-68.99628, -20.67855], [-68.99211, -20.67908], [-68.98727, -20.68104], [-68.98536, -20.68241], [-68.98056, -20.68339], [-68.97533, -20.68597], [-68.97475, -20.68725], [-68.97186, -20.68805], [-68.96898, -20.68818], [-68.96698, -20.68907], [-68.9664, -20.69089], [-68.96445, -20.69289], [-68.96241, -20.69387], [-68.96197, -20.69471], [-68.96299, -20.70159], [-68.96418, -20.70394], [-68.9625, -20.70967], [-68.96143, -20.71127], [-68.96126, -20.7126], [-68.96197, -20.71633], [-68.96197, -20.72006], [-68.9613, -20.72627], [-68.95859, -20.73044], [-68.95948, -20.73359], [-68.9593, -20.73479], [-68.9577, -20.73763], [-68.95748, -20.74159], [-68.95469, -20.74824], [-68.95455, -20.751], [-68.95406, -20.75242], [-68.9542, -20.75597], [-68.9558, -20.75814], [-68.95841, -20.75987], [-68.96152, -20.7593], [-68.96241, -20.76041], [-68.95935, -20.76138], [-68.95793, -20.76245], [-68.95729, -20.76415], [-68.95722, -20.77337], [-68.95684, -20.77514], [-68.95681, -20.77841], [-68.95746, -20.78117], [-68.9589, -20.78376], [-68.96231, -20.7862], [-68.96388, -20.78833], [-68.96532, -20.79161], [-68.9653, -20.79374], [-68.96474, -20.79522], [-68.96422, -20.79889], [-68.96419, -20.8025], [-68.963, -20.80686], [-68.96297, -20.81059], [-68.96345, -20.8118], [-68.96152, -20.81557], [-68.9593, -20.81866], [-68.95582, -20.82586], [-68.96645, -20.91131], [-68.96441, -21.00348], [-68.96722, -21.09674], [-68.89972, -21.17316], [-68.85968, -21.28498], [-69.31307, -21.39817], [-69.414, -21.49697], [-69.41993, -21.50245], [-69.55086, -21.63021], [-69.55138, -21.63008], [-69.55327, -21.62818], [-69.55313, -21.62754], [-69.5536, -21.62661], [-69.55741, -21.62495], [-69.55766, -21.62455], [-69.55664, -21.62348], [-69.55772, -21.62214], [-69.55914, -21.62353], [-69.56077, -21.62283], [-69.56246, -21.62308], [-69.56276, -21.62077], [-69.56512, -21.6212], [-69.56588, -21.61961], [-69.56586, -21.61696], [-69.56673, -21.61569], [-69.56916, -21.61378], [-69.5718, -21.61326], [-69.57213, -21.61048], [-69.57443, -21.60965], [-69.57462, -21.60781], [-69.57625, -21.60761], [-69.57868, -21.60558], [-69.5785, -21.60238], [-69.57909, -21.5994], [-69.57726, -21.5977], [-69.57827, -21.59586], [-69.57942, -21.59522], [-69.58083, -21.59338], [-69.58272, -21.59287], [-69.58292, -21.59166], [-69.58514, -21.58729], [-69.58636, -21.5869], [-69.58692, -21.58535], [-69.58604, -21.5839], [-69.58793, -21.58288], [-69.59049, -21.57989], [-69.59177, -21.57704], [-69.59122, -21.57546], [-69.59453, -21.57329], [-69.59371, -21.57146], [-69.59465, -21.57019], [-69.59437, -21.56829], [-69.59657, -21.5673], [-69.59662, -21.56502], [-69.59823, -21.56141], [-69.60147, -21.55937], [-69.60471, -21.55638], [-69.60484, -21.55518], [-69.607, -21.55308], [-69.61018, -21.55225], [-69.60956, -21.55098], [-69.61189, -21.54942], [-69.61351, -21.5491], [-69.61622, -21.54941], [-69.61919, -21.548], [-69.62095, -21.54806], [-69.62278, -21.5464], [-69.62427, -21.54672], [-69.62602, -21.54551], [-69.62533, -21.54317], [-69.62532, -21.54057], [-69.62735, -21.53885], [-69.62767, -21.53651], [-69.62725, -21.53447], [-69.63157, -21.53275], [-69.63044, -21.53182], [-69.62761, -21.53202], [-69.62571, -21.52889], [-69.62679, -21.52749], [-69.62902, -21.52647], [-69.62981, -21.52531], [-69.62864, -21.52451], [-69.63025, -21.52327], [-69.62876, -21.52171], [-69.62979, -21.51982], [-69.63147, -21.51797], [-69.63472, -21.51574], [-69.63533, -21.51467], [-69.63501, -21.51115], [-69.63541, -21.51033], [-69.6377, -21.50893], [-69.63979, -21.50556], [-69.63991, -21.50335], [-69.6393, -21.50151], [-69.63996, -21.49948], [-69.64274, -21.49979], [-69.64483, -21.49921], [-69.64524, -21.49813], [-69.64726, -21.49711], [-69.6482, -21.49597], [-69.65053, -21.49517], [-69.65059, -21.4932], [-69.65288, -21.49035], [-69.65497, -21.48863], [-69.65496, -21.48654], [-69.65664, -21.48489], [-69.65982, -21.48367], [-69.66042, -21.48227], [-69.66265, -21.481], [-69.66095, -21.47898], [-69.66246, -21.4766], [-69.66475, -21.47526], [-69.66615, -21.47108], [-69.66687, -21.4655], [-69.66653, -21.46322], [-69.66849, -21.4629], [-69.67085, -21.46194], [-69.672, -21.46263], [-69.67525, -21.46249], [-69.67721, -21.46172], [-69.67849, -21.46248], [-69.68362, -21.45935], [-69.68758, -21.45981], [-69.68893, -21.45854], [-69.68851, -21.45538], [-69.68918, -21.45398], [-69.6914, -21.45252], [-69.69275, -21.45238], [-69.69342, -21.45092], [-69.69504, -21.45054], [-69.69647, -21.45186], [-69.696, -21.453], [-69.69858, -21.45382], [-69.70006, -21.4533], [-69.70142, -21.45393], [-69.70238, -21.45595], [-69.705, -21.45404], [-69.70723, -21.45327], [-69.70689, -21.45169], [-69.7083, -21.45048], [-69.70952, -21.4513], [-69.71175, -21.4511], [-69.71318, -21.45325], [-69.71484, -21.45315], [-69.71632, -21.45187], [-69.71835, -21.45091], [-69.72051, -21.45122], [-69.72228, -21.45261], [-69.72369, -21.45102], [-69.72612, -21.4498], [-69.72869, -21.44979], [-69.73031, -21.44858], [-69.73179, -21.44661], [-69.7345, -21.44755], [-69.73448, -21.44521], [-69.73536, -21.44476], [-69.73868, -21.44475], [-69.74016, -21.44347], [-69.74151, -21.44309], [-69.74167, -21.44141], [-69.74458, -21.44127], [-69.74518, -21.43987], [-69.74713, -21.4379], [-69.75044, -21.43744], [-69.75205, -21.43465], [-69.75395, -21.43475], [-69.75524, -21.43399], [-69.7561, -21.43085], [-69.75547, -21.42849], [-69.75641, -21.42754], [-69.75904, -21.42721], [-69.76039, -21.426], [-69.76276, -21.42567], [-69.76308, -21.42308], [-69.76509, -21.41997], [-69.76651, -21.4199], [-69.76794, -21.42179], [-69.76809, -21.42369], [-69.77104, -21.42485], [-69.77266, -21.42598], [-69.77422, -21.42572], [-69.77463, -21.42692], [-69.77713, -21.42684], [-69.77708, -21.42893], [-69.77952, -21.43025], [-69.77959, -21.4319], [-69.78142, -21.43214], [-69.7821, -21.43303], [-69.78157, -21.43442], [-69.77861, -21.43735], [-69.77875, -21.43925], [-69.78113, -21.4417], [-69.78326, -21.4409], [-69.78474, -21.43881], [-69.78696, -21.43778], [-69.7892, -21.43815], [-69.79158, -21.44086], [-69.79556, -21.43863], [-69.7982, -21.44014], [-69.80044, -21.44032], [-69.80166, -21.44151], [-69.80301, -21.44056], [-69.80557, -21.43997], [-69.80727, -21.44041], [-69.8101, -21.43983], [-69.8104, -21.43865], [-69.81256, -21.43801], [-69.81419, -21.43819], [-69.81715, -21.43678], [-69.81851, -21.43678], [-69.82, -21.43848], [-69.8215, -21.43904], [-69.82198, -21.44069], [-69.8236, -21.44049], [-69.82481, -21.43941], [-69.82799, -21.44021], [-69.82854, -21.44129], [-69.83125, -21.44305], [-69.83335, -21.44158], [-69.83469, -21.43986], [-69.83638, -21.44011], [-69.83898, -21.43899], [-69.84025, -21.43746], [-69.84187, -21.43695], [-69.84344, -21.43821], [-69.84736, -21.43812], [-69.84865, -21.43951], [-69.85054, -21.43925], [-69.85265, -21.44006], [-69.85393, -21.4398], [-69.85446, -21.43834], [-69.85615, -21.43757], [-69.85811, -21.43857], [-69.85973, -21.43743], [-69.86142, -21.43754], [-69.86377, -21.43443], [-69.86577, -21.43521], [-69.86847, -21.43406], [-69.87009, -21.43386], [-69.87118, -21.43449], [-69.87322, -21.43682], [-69.87464, -21.43681], [-69.87511, -21.4363], [-69.87612, -21.43617], [-69.87687, -21.43623], [-69.87945, -21.43754], [-69.88208, -21.43715], [-69.88331, -21.43539], [-69.88508, -21.43382], [-69.88612, -21.43415], [-69.88723, -21.4339], [-69.88937, -21.43267], [-69.89009, -21.43178], [-69.89321, -21.43228], [-69.89402, -21.43201], [-69.89511, -21.43107], [-69.89686, -21.43175], [-69.89897, -21.43051], [-69.90001, -21.42953], [-69.89964, -21.42889], [-69.90147, -21.428], [-69.90277, -21.4263], [-69.90402, -21.42544], [-69.90494, -21.42544], [-69.90704, -21.42733], [-69.90839, -21.4272], [-69.91022, -21.42782], [-69.91091, -21.42936], [-69.91139, -21.4299], [-69.91206, -21.42996], [-69.91356, -21.42911], [-69.91537, -21.42887], [-69.91783, -21.42639], [-69.91919, -21.42585], [-69.92131, -21.42643], [-69.92212, -21.42604], [-69.92509, -21.42647], [-69.92682, -21.42512], [-69.92847, -21.42525], [-69.93029, -21.42467], [-69.93097, -21.42467], [-69.93185, -21.4251], [-69.93232, -21.42554], [-69.93448, -21.42408], [-69.93732, -21.42428], [-69.93815, -21.42369], [-69.93764, -21.42406], [-69.93438, -21.42376], [-69.93223, -21.42483], [-69.93063, -21.42463], [-69.92975, -21.37297], [-69.89756, -21.32593], [-69.88167, -21.30453], [-69.89075, -21.11022], [-69.81984, -21.11714], [-69.96793, -20.88075], [-69.99449, -20.83781], [-69.99779, -20.82636], [-70.01481, -20.78668], [-70.01677, -20.78056], [-70.024, -20.7661], [-70.02461, -20.76032], [-70.03078, -20.74814], [-70.0513, -20.69925], [-70.0517, -20.69489], [-70.04394, -20.65614], [-70.02583, -20.57828], [-70.03279, -20.56148], [-70.04535, -20.53292], [-70.07079, -20.47615], [-70.07854, -20.45751], [-70.09081, -20.41199], [-70.10793, -20.35056], [-70.08178, -20.3369], [-70.05959, -20.32401], [-70.0418, -20.31438], [-70.02802, -20.30605], [-70.00971, -20.31116], [-69.97854, -20.31896], [-69.96592, -20.32137], [-69.94861, -20.2909], [-69.92454, -20.25146], [-69.91125, -20.22838], [-69.90675, -20.18505], [-69.89629, -20.10109], [-69.89186, -20.06942], [-69.8907, -20.04943], [-69.85414, -20.07455], [-69.82872, -20.09151], [-69.81121, -20.10275], [-69.73372, -20.08528], [-69.66382, -20.06855], [-69.61985, -20.05858], [-69.48357, -20.02602], [-69.45197, -20.01908], [-69.43962, -20.01583], [-69.41595, -20.01071], [-69.40289, -20.00691], [-69.37567, -20.002], [-69.3538, -19.99635], [-69.3506, -19.99503], [-69.34823, -19.99457], [-69.34539, -19.99193], [-69.3353, -19.99114], [-69.31914, -19.98883], [-69.31298, -19.98711], [-69.30861, -19.98493], [-69.30263, -19.98352], [-69.29896, -19.98197], [-69.29713, -19.98155], [-69.29473, -19.98006], [-69.29091, -19.97913], [-69.28702, -19.97973], [-69.28128, -19.97874], [-69.27573, -19.9757], [-69.27324, -19.97511], [-69.26881, -19.97532], [-69.25999, -19.97701], [-69.24833, -19.97659], [-69.24584, -19.97731], [-69.24403, -19.97866], [-69.23639, -19.98149], [-69.23352, -19.98132], [-69.22634, -19.98364], [-69.22195, -19.98436], [-69.21988, -19.98516], [-69.21667, -19.98474], [-69.21127, -19.986], [-69.20865, -19.98626], [-69.20532, -19.98609], [-69.20253, -19.98537], [-69.19594, -19.98605], [-69.1902, -19.98925], [-69.18847, -19.98951], [-69.18459, -19.99128], [-69.17745, -19.99145], [-69.17348, -19.99001], [-69.16171, -19.99005], [-69.15886, -19.98861], [-69.15455, -19.98775], [-69.1506, -19.98378], [-69.14878, -19.98275], [-69.13233, -19.97557], [-69.10294, -19.96838], [-69.09736, -19.96505], [-69.08911, -19.96281], [-69.08425, -19.96097], [-69.07831, -19.95103], [-69.07158, -19.94666], [-69.0646, -19.9435], [-69.0555, -19.94056], [-69.05258, -19.94], [-69.05329, -19.93741], [-69.05321, -19.93323], [-69.05452, -19.92939], [-69.05224, -19.92842], [-69.04759, -19.92777], [-69.04126, -19.92403], [-69.03708, -19.92255], [-69.03505, -19.92226], [-69.02881, -19.92284], [-69.02684, -19.92333], [-69.02231, -19.92111], [-69.01901, -19.92118], [-69.01632, -19.92072], [-69.01286, -19.91945], [-69.01031, -19.91673], [-69.00657, -19.91488], [-69.0048, -19.91438], [-69.0017, -19.91432], [-68.99655, -19.91609], [-68.99478, -19.91731], [-68.99378, -19.92047], [-68.98653, -19.92285], [-68.98454, -19.92457], [-68.98376, -19.92578], [-68.98199, -19.93055], [-68.98, -19.93343], [-68.97872, -19.9368], [-68.97894, -19.94007], [-68.97989, -19.94201], [-68.97933, -19.94727], [-68.97977, -19.95231], [-68.98033, -19.9548], [-68.98022, -19.95646], [-68.97929, -19.95899], [-68.98105, -19.96964], [-68.98094, -19.97562], [-68.98227, -19.97994], [-68.98193, -19.98304], [-68.97989, -19.9852], [-68.97883, -19.98874], [-68.97961, -19.99212], [-68.97983, -19.996], [-68.9795, -19.99788], [-68.97839, -19.99943], [-68.97379, -20.00281], [-68.97164, -20.00607], [-68.97136, -20.01156], [-68.96909, -20.01875], [-68.96876, -20.02191], [-68.96914, -20.02446], [-68.97197, -20.03027], [-68.9733, -20.03448], [-68.9749, -20.04301], [-68.97595, -20.04666], [-68.97756, -20.04904], [-68.97966, -20.05353], [-68.98088, -20.05724], [-68.98011, -20.06061], [-68.98016, -20.06421], [-68.98088, -20.06715], [-68.98044, -20.07158], [-68.98166, -20.07662], [-68.98443, -20.08276], [-68.98775, -20.0878], [-68.99129, -20.09483], [-68.99229, -20.096], [-68.99616, -20.09832], [-69.0001, -20.09926], [-69.00464, -20.09943], [-69.00718, -20.10159], [-69.00846, -20.10513], [-69.00853, -20.11159], [-69.00626, -20.11877], [-69.00417, -20.12318], [-69.00141, -20.12664], [-68.99954, -20.12994], [-68.99855, -20.13304], [-68.99749, -20.1342], [-68.99677, -20.13686]]]}}, {"type": "Feature", "properties": {"cod_comuna": "01405", "nombre_comuna": "Pica", "nombre_provincia": "Iquique", "nombre_region": "Región de Tarapacá"}, "geometry": {"type": "Polygon", "coordinates": [[[-68.74268, -19.7516], [-68.6987, -19.75108], [-68.69283, -19.75023], [-68.69469, -19.75155], [-68.69275, -19.75284], [-68.68997, -19.75075], [-68.68737, -19.75004], [-68.68327, -19.75015], [-68.68118, -19.74888], [-68.67835, -19.74976], [-68.66973, -19.75133], [-68.66783, -19.75217], [-68.66599, -19.75217], [-68.66588, -19.75434], [-68.66497, -19.75554], [-68.66052, -19.75668], [-68.65953, -19.75784], [-68.65753, -19.75849], [-68.65615, -19.76136], [-68.6575, -19.76413], [-68.65706, -19.76826], [-68.65496, -19.76927], [-68.65146, -19.77181], [-68.64804, -19.77266], [-68.64251, -19.77576], [-68.64095, -19.77796], [-68.63679, -19.77941], [-68.63578, -19.78063], [-68.63262, -19.78154], [-68.63026, -19.78367], [-68.62766, -19.78372], [-68.62586, -19.78463], [-68.62387, -19.7867], [-68.62128, -19.79017], [-68.59935, -19.828], [-68.5282, -19.84552], [-68.5423, -19.89002], [-68.52162, -19.92427], [-68.53155, -19.95688], [-68.53259, -19.95947], [-68.53347, -19.9632], [-68.55131, -20.02173], [-68.56625, -20.05008], [-68.64044, -20.04886], [-68.69298, -20.06826], [-68.76213, -20.07815], [-68.77389, -20.12967], [-68.77054, -20.13067], [-68.76884, -20.13073], [-68.76528, -20.13201], [-68.76237, -20.13435], [-68.76028, -20.13307], [-68.7556, -20.12624], [-68.74828, -20.12306], [-68.74626, -20.12314], [-68.744, -20.12481], [-68.74176, -20.12519], [-68.73924, -20.12736], [-68.73767, -20.12957], [-68.73557, -20.13351], [-68.73131, -20.13539], [-68.72798, -20.13585], [-68.72349, -20.13529], [-68.72223, -20.13601], [-68.71908, -20.13652], [-68.71148, -20.13273], [-68.70963, -20.13311], [-68.70572, -20.13247], [-68.70433, -20.13375], [-68.70252, -20.14073], [-68.70204, -20.14373], [-68.70006, -20.1486], [-68.70152, -20.15206], [-68.70144, -20.154], [-68.70306, -20.15727], [-68.70339, -20.15945], [-68.70098, -20.16128], [-68.69974, -20.16495], [-68.69635, -20.17106], [-68.69374, -20.17507], [-68.69203, -20.17667], [-68.69289, -20.17801], [-68.69521, -20.17784], [-68.6964, -20.17638], [-68.69805, -20.17625], [-68.70375, -20.17761], [-68.70627, -20.17868], [-68.70733, -20.17964], [-68.70815, -20.18282], [-68.7103, -20.18586], [-68.71026, -20.18984], [-68.70961, -20.1916], [-68.71273, -20.19454], [-68.71291, -20.1974], [-68.7128, -20.20189], [-68.71085, -20.20685], [-68.70882, -20.20925], [-68.70432, -20.2111], [-68.69927, -20.211], [-68.6989, -20.21272], [-68.69941, -20.21392], [-68.70262, -20.21691], [-68.70452, -20.21924], [-68.71085, -20.22434], [-68.71499, -20.22689], [-68.71441, -20.22892], [-68.7124, -20.23129], [-68.71292, -20.23347], [-68.71202, -20.23833], [-68.71036, -20.2415], [-68.71087, -20.2433], [-68.71256, -20.24538], [-68.7128, -20.24821], [-68.71004, -20.25205], [-68.70775, -20.25269], [-68.70609, -20.25211], [-68.7025, -20.2489], [-68.70106, -20.24896], [-68.69932, -20.25319], [-68.69744, -20.25994], [-68.69769, -20.26174], [-68.69619, -20.26749], [-68.6958, -20.27196], [-68.69359, -20.27517], [-68.69505, -20.27906], [-68.69526, -20.28351], [-68.69489, -20.28622], [-68.69526, -20.2875], [-68.69716, -20.28992], [-68.69487, -20.29199], [-68.69299, -20.29531], [-68.69215, -20.29538], [-68.68717, -20.29394], [-68.68017, -20.2951], [-68.67908, -20.29639], [-68.67883, -20.30007], [-68.67783, -20.30218], [-68.67364, -20.30452], [-68.67149, -20.30493], [-68.66979, -20.30638], [-68.67017, -20.30911], [-68.66908, -20.31342], [-68.66559, -20.31509], [-68.66387, -20.3177], [-68.66128, -20.31807], [-68.66051, -20.31904], [-68.66188, -20.32224], [-68.66172, -20.32394], [-68.66232, -20.32633], [-68.66094, -20.32831], [-68.66124, -20.33549], [-68.6606, -20.33645], [-68.66095, -20.33929], [-68.66195, -20.3404], [-68.66227, -20.34288], [-68.66466, -20.34656], [-68.67242, -20.35507], [-68.67433, -20.35676], [-68.67855, -20.35857], [-68.68879, -20.35946], [-68.69145, -20.36162], [-68.69372, -20.36181], [-68.69679, -20.363], [-68.7021, -20.36419], [-68.70522, -20.36536], [-68.71053, -20.36631], [-68.71236, -20.36612], [-68.71338, -20.36536], [-68.72257, -20.36679], [-68.72451, -20.36813], [-68.72706, -20.36851], [-68.72879, -20.36985], [-68.73042, -20.37224], [-68.73257, -20.37358], [-68.73451, -20.3731], [-68.74151, -20.36902], [-68.73875, -20.45681], [-68.6832, -20.50259], [-68.67983, -20.50583], [-68.67827, -20.50666], [-68.66625, -20.51656], [-68.66427, -20.51484], [-68.66109, -20.51533], [-68.65846, -20.52019], [-68.65517, -20.52176], [-68.65302, -20.52191], [-68.65072, -20.52323], [-68.64615, -20.52307], [-68.64128, -20.52411], [-68.63335, -20.52802], [-68.63142, -20.52791], [-68.62925, -20.52902], [-68.62711, -20.53081], [-68.62214, -20.53185], [-68.61354, -20.53633], [-68.61214, -20.53792], [-68.61143, -20.53972], [-68.61104, -20.54231], [-68.60862, -20.54548], [-68.60603, -20.54524], [-68.60471, -20.54566], [-68.60276, -20.54739], [-68.60065, -20.54814], [-68.59928, -20.55039], [-68.59793, -20.55062], [-68.59423, -20.54828], [-68.59315, -20.54818], [-68.59202, -20.54977], [-68.59088, -20.55355], [-68.58937, -20.5562], [-68.58731, -20.55794], [-68.58156, -20.55954], [-68.57854, -20.56502], [-68.57911, -20.56847], [-68.5776, -20.57193], [-68.57451, -20.57423], [-68.5722, -20.5755], [-68.569, -20.57494], [-68.56791, -20.5728], [-68.56482, -20.5729], [-68.56042, -20.57182], [-68.5563, -20.57151], [-68.55444, -20.57035], [-68.55303, -20.57048], [-68.54783, -20.57324], [-68.54531, -20.57328], [-68.54024, -20.57275], [-68.53714, -20.57136], [-68.53499, -20.56948], [-68.53373, -20.57088], [-68.5327, -20.57349], [-68.53153, -20.57439], [-68.52751, -20.57627], [-68.52667, -20.57919], [-68.52532, -20.58036], [-68.52379, -20.58332], [-68.52134, -20.5849], [-68.51985, -20.5901], [-68.51855, -20.59182], [-68.51965, -20.59265], [-68.51917, -20.59499], [-68.51702, -20.59816], [-68.51738, -20.60133], [-68.51601, -20.60406], [-68.51348, -20.60549], [-68.5095, -20.6062], [-68.50639, -20.60567], [-68.50382, -20.6036], [-68.5025, -20.60353], [-68.49985, -20.60511], [-68.49649, -20.60578], [-68.49536, -20.60705], [-68.49314, -20.60773], [-68.48971, -20.60743], [-68.48739, -20.60532], [-68.48523, -20.60523], [-68.48343, -20.60688], [-68.48275, -20.61011], [-68.48129, -20.61288], [-68.47833, -20.61395], [-68.47542, -20.61819], [-68.47388, -20.6194], [-68.47038, -20.6195], [-68.46769, -20.62023], [-68.4672, -20.62223], [-68.46539, -20.62327], [-68.4624, -20.62225], [-68.46121, -20.62349], [-68.46078, -20.62538], [-68.45936, -20.62694], [-68.45896, -20.63005], [-68.45821, -20.63142], [-68.45568, -20.63246], [-68.45149, -20.63343], [-68.44835, -20.63546], [-68.44698, -20.63496], [-68.44258, -20.63489], [-68.44173, -20.63524], [-68.44056, -20.63784], [-68.43867, -20.64088], [-68.43899, -20.64392], [-68.4442, -20.64532], [-68.44466, -20.64632], [-68.44767, -20.64769], [-68.4505, -20.64767], [-68.45169, -20.64837], [-68.45471, -20.65161], [-68.45996, -20.65581], [-68.46504, -20.65657], [-68.46774, -20.65787], [-68.47717, -20.66578], [-68.47871, -20.66538], [-68.48195, -20.66541], [-68.4904, -20.66678], [-68.49279, -20.66853], [-68.49472, -20.66917], [-68.49994, -20.6688], [-68.50207, -20.66979], [-68.50222, -20.67138], [-68.50353, -20.6738], [-68.50274, -20.67679], [-68.50519, -20.67772], [-68.50985, -20.68211], [-68.51306, -20.6842], [-68.51527, -20.68468], [-68.51569, -20.68599], [-68.5181, -20.68938], [-68.52384, -20.69559], [-68.52586, -20.69639], [-68.52611, -20.69758], [-68.52748, -20.69917], [-68.52887, -20.70253], [-68.52761, -20.70396], [-68.5272, -20.70534], [-68.52758, -20.71195], [-68.52866, -20.71696], [-68.52997, -20.72007], [-68.53211, -20.72258], [-68.53671, -20.72305], [-68.54162, -20.72464], [-68.54628, -20.72536], [-68.5488, -20.72733], [-68.55124, -20.72721], [-68.55284, -20.72837], [-68.55324, -20.73055], [-68.55247, -20.73263], [-68.55417, -20.73625], [-68.55196, -20.74138], [-68.55194, -20.74306], [-68.55309, -20.74601], [-68.55286, -20.75], [-68.54967, -20.76075], [-68.54933, -20.76307], [-68.54757, -20.76758], [-68.54619, -20.77006], [-68.54467, -20.77114], [-68.54358, -20.7736], [-68.54151, -20.7749], [-68.54138, -20.77579], [-68.54365, -20.77816], [-68.54492, -20.7805], [-68.54576, -20.78293], [-68.54139, -20.79385], [-68.54094, -20.79654], [-68.54107, -20.8031], [-68.54074, -20.80707], [-68.54151, -20.81032], [-68.54281, -20.8124], [-68.54432, -20.81375], [-68.54597, -20.81802], [-68.54623, -20.8194], [-68.54539, -20.82076], [-68.54662, -20.8244], [-68.546, -20.82704], [-68.54686, -20.8289], [-68.54706, -20.83117], [-68.54834, -20.83214], [-68.55282, -20.83218], [-68.55478, -20.83259], [-68.55591, -20.83339], [-68.55232, -20.83501], [-68.55092, -20.83602], [-68.54921, -20.8382], [-68.54878, -20.83991], [-68.54749, -20.84211], [-68.54846, -20.84403], [-68.54934, -20.84905], [-68.54907, -20.85518], [-68.55001, -20.85742], [-68.55374, -20.86113], [-68.5548, -20.86456], [-68.55568, -20.86607], [-68.55276, -20.86984], [-68.55229, -20.87124], [-68.55329, -20.87584], [-68.55074, -20.87792], [-68.54994, -20.87915], [-68.54958, -20.88126], [-68.54329, -20.88809], [-68.54336, -20.88955], [-68.54118, -20.89103], [-68.54186, -20.89508], [-68.5415, -20.89681], [-68.53987, -20.8993], [-68.54301, -20.90337], [-68.54162, -20.90643], [-68.54157, -20.90782], [-68.54047, -20.90887], [-68.53647, -20.90903], [-68.53309, -20.9105], [-68.52997, -20.91325], [-68.52749, -20.91588], [-68.52575, -20.91898], [-68.52415, -20.91976], [-68.52044, -20.92501], [-68.51857, -20.92561], [-68.51621, -20.92709], [-68.5142, -20.92967], [-68.51391, -20.93098], [-68.51407, -20.93526], [-68.51193, -20.9368], [-68.50676, -20.93821], [-68.50295, -20.93988], [-68.50498, -20.94177], [-68.50406, -20.94297], [-68.50271, -20.94314], [-68.49908, -20.94144], [-68.49775, -20.94287], [-68.49522, -20.94325], [-68.4924, -20.94602], [-68.48983, -20.94638], [-68.48616, -20.94614], [-68.4837, -20.94696], [-68.48073, -20.94519], [-68.53576, -21.06468], [-68.56667, -21.08593], [-68.57992, -21.09401], [-68.85968, -21.28498], [-68.89972, -21.17316], [-68.96722, -21.09674], [-68.96441, -21.00348], [-68.96645, -20.91131], [-68.95582, -20.82586], [-68.9593, -20.81866], [-68.96152, -20.81557], [-68.96345, -20.8118], [-68.96297, -20.81059], [-68.963, -20.80686], [-68.96419, -20.8025], [-68.96422, -20.79889], [-68.96474, -20.79522], [-68.9653, -20.79374], [-68.96532, -20.79161], [-68.96388, -20.78833], [-68.96231, -20.7862], [-68.9589, -20.78376], [-68.95746, -20.78117], [-68.95681, -20.77841], [-68.95684, -20.77514], [-68.95722, -20.77337], [-68.95729, -20.76415], [-68.95793, -20.76245], [-68.95935, -20.76138], [-68.96241, -20.76041], [-68.96152, -20.7593], [-68.95841, -20.75987], [-68.9558, -20.75814], [-68.9542, -20.75597], [-68.95406, -20.75242], [-68.95455, -20.751], [-68.95469, -20.74824], [-68.95748, -20.74159], [-68.9577, -20.73763], [-68.9593, -20.73479], [-68.95948, -20.73359], [-68.95859, -20.73044], [-68.9613, -20.72627], [-68.96197, -20.72006], [-68.96197, -20.71633], [-68.96126, -20.7126], [-68.96143, -20.71127], [-68.9625, -20.70967], [-68.96418, -20.70394], [-68.96299, -20.70159], [-68.96197, -20.69471], [-68.96241, -20.69387], [-68.96445, -20.69289], [-68.9664, -20.69089], [-68.96698, -20.68907], [-68.96898, -20.68818], [-68.97186, -20.68805], [-68.97475, -20.68725], [-68.97533, -20.68597], [-68.98056, -20.68339], [-68.98536, -20.68241], [-68.98727, -20.68104], [-68.99211, -20.67908], [-68.99628, -20.67855], [-68.99805, -20.67695], [-69.00198, -20.6764], [-69.0136, -20.67631], [-69.01719, -20.67753], [-69.02554, -20.68229], [-69.03316, -20.68556], [-69.03463, -20.68516], [-69.03598, -20.68297], [-69.03875, -20.68342], [-69.03997, -20.68561], [-69.0425, -20.68567], [-69.04475, -20.68777], [-69.04676, -20.68828], [-69.04784, -20.68564], [-69.04923, -20.68499], [-69.05176, -20.68635], [-69.05614, -20.68593], [-69.05756, -20.68479], [-69.06071, -20.68641], [-69.0646, -20.68553], [-69.06719, -20.68613], [-69.06889, -20.68792], [-69.0706, -20.68769], [-69.07071, -20.68934], [-69.0729, -20.69425], [-69.07284, -20.69561], [-69.07452, -20.69723], [-69.07449, -20.69848], [-69.0758, -20.69976], [-69.07716, -20.70212], [-69.07725, -20.7036], [-69.07912, -20.70621], [-69.0804, -20.70695], [-69.08293, -20.70996], [-69.0846, -20.71107], [-69.08696, -20.71121], [-69.08821, -20.71189], [-69.08835, -20.71346], [-69.08932, -20.71448], [-69.09066, -20.71417], [-69.09497, -20.71502], [-69.09727, -20.71507], [-69.10012, -20.71783], [-69.10318, -20.72007], [-69.10642, -20.72093], [-69.10855, -20.72025], [-69.11077, -20.7207], [-69.11823, -20.72416], [-69.12018, -20.72408], [-69.12306, -20.7233], [-69.12654, -20.72347], [-69.13116, -20.72269], [-69.13656, -20.72426], [-69.13874, -20.72426], [-69.14196, -20.72356], [-69.1439, -20.7223], [-69.1471, -20.72118], [-69.15172, -20.71877], [-69.15491, -20.71796], [-69.16174, -20.71738], [-69.16679, -20.71825], [-69.17402, -20.72069], [-69.17638, -20.72103], [-69.18082, -20.72077], [-69.18334, -20.72138], [-69.18516, -20.72366], [-69.18926, -20.72601], [-69.19214, -20.72827], [-69.19698, -20.72909], [-69.19876, -20.73059], [-69.20338, -20.72905], [-69.20486, -20.72887], [-69.21044, -20.72966], [-69.21366, -20.73192], [-69.21523, -20.73367], [-69.21854, -20.73489], [-69.22464, -20.73619], [-69.23248, -20.73672], [-69.23675, -20.73602], [-69.24184, -20.73462], [-69.24258, -20.73403], [-69.24811, -20.72632], [-69.25055, -20.72457], [-69.25313, -20.72382], [-69.25705, -20.72156], [-69.26306, -20.71694], [-69.26666, -20.71326], [-69.26965, -20.71121], [-69.27498, -20.7096], [-69.2782, -20.70915], [-69.28631, -20.70966], [-69.29043, -20.70887], [-69.29245, -20.70773], [-69.29655, -20.70652], [-69.29759, -20.70496], [-69.30075, -20.70461], [-69.30368, -20.7031], [-69.30752, -20.70301], [-69.31293, -20.70373], [-69.33066, -20.71303], [-69.3359, -20.71372], [-69.35254, -20.71497], [-69.362, -20.71837], [-69.38373, -20.73024], [-69.39577, -20.73264], [-69.40543, -20.73184], [-69.4288, -20.73138], [-69.43723, -20.73046], [-69.44687, -20.73097], [-69.45878, -20.73008], [-69.47074, -20.72977], [-69.47744, -20.73077], [-69.47548, -20.38707], [-69.4754, -20.27685], [-69.475, -20.25348], [-69.4746, -20.25175], [-69.47176, -20.25045], [-69.4594, -20.2511], [-69.45294, -20.252], [-69.44985, -20.25156], [-69.44381, -20.25257], [-69.43848, -20.25521], [-69.42526, -20.2583], [-69.42074, -20.2557], [-69.41462, -20.25546], [-69.41112, -20.25578], [-69.40846, -20.2553], [-69.39559, -20.2553], [-69.38955, -20.25598], [-69.38244, -20.2553], [-69.37234, -20.2553], [-69.36054, -20.25427], [-69.35677, -20.25439], [-69.3435, -20.25153], [-69.34032, -20.2497], [-69.33516, -20.24831], [-69.32916, -20.24739], [-69.32157, -20.24875], [-69.31807, -20.24879], [-69.31394, -20.24966], [-69.30846, -20.25022], [-69.30456, -20.25033], [-69.3032, -20.25066], [-69.29386, -20.25065], [-69.28851, -20.24843], [-69.2787, -20.24604], [-69.27147, -20.24481], [-69.25518, -20.24362], [-69.24739, -20.24573], [-69.23829, -20.24549], [-69.23567, -20.24589], [-69.23015, -20.24573], [-69.22916, -20.24501], [-69.22622, -20.24398], [-69.21803, -20.24378], [-69.21521, -20.24438], [-69.20993, -20.24632], [-69.205, -20.24672], [-69.20166, -20.24767], [-69.19749, -20.24823], [-69.19423, -20.24926], [-69.18875, -20.2524], [-69.18565, -20.2549], [-69.18263, -20.25598], [-69.18049, -20.25633], [-69.1779, -20.25776], [-69.17624, -20.25995], [-69.16709, -20.26573], [-69.15816, -20.2682], [-69.15133, -20.26936], [-69.14446, -20.26944], [-69.13329, -20.27181], [-69.12991, -20.27359], [-69.12484, -20.27845], [-69.11892, -20.28331], [-69.10855, -20.2885], [-69.10514, -20.28949], [-69.10059, -20.28971], [-69.09685, -20.28919], [-69.09229, -20.28769], [-69.09058, -20.28812], [-69.08684, -20.28772], [-69.08029, -20.29098], [-69.07683, -20.29225], [-69.06988, -20.29567], [-69.06801, -20.29694], [-69.06161, -20.29511], [-69.05939, -20.29499], [-69.05754, -20.29357], [-69.05404, -20.28836], [-69.05072, -20.28581], [-69.04362, -20.2862], [-69.04038, -20.28696], [-69.03908, -20.28665], [-69.03686, -20.28751], [-69.03606, -20.28979], [-69.03483, -20.29059], [-69.02768, -20.28961], [-69.02531, -20.28879], [-69.0238, -20.28899], [-69.02019, -20.28783], [-69.01915, -20.28679], [-69.01824, -20.28374], [-69.01578, -20.2821], [-69.01385, -20.27994], [-69.01207, -20.27728], [-69.00917, -20.25817], [-69.00522, -20.2528], [-69.00394, -20.25038], [-68.99924, -20.24619], [-68.97946, -20.22271], [-68.97704, -20.22085], [-68.97431, -20.21957], [-68.96899, -20.21449], [-68.96662, -20.21346], [-68.96611, -20.21023], [-68.9634, -20.20567], [-68.96157, -20.199], [-68.9621, -20.19344], [-68.96352, -20.19075], [-68.96427, -20.1884], [-68.9653, -20.18705], [-68.96289, -20.18415], [-68.96272, -20.18282], [-68.96422, -20.18094], [-68.96593, -20.18011], [-68.9702, -20.17883], [-68.9826, -20.17872], [-68.98814, -20.17772], [-68.98941, -20.17678], [-68.99096, -20.17435], [-68.99129, -20.17136], [-68.9909, -20.16449], [-68.99279, -20.15995], [-68.99428, -20.15801], [-68.99511, -20.15607], [-68.99506, -20.15297], [-68.99688, -20.15137], [-68.9976, -20.14965], [-68.99677, -20.14893], [-68.99417, -20.14816], [-68.99273, -20.14694], [-68.99229, -20.14611], [-68.99207, -20.14423], [-68.99317, -20.1404], [-68.99417, -20.13902], [-68.99677, -20.13686], [-68.99749, -20.1342], [-68.99855, -20.13304], [-68.99954, -20.12994], [-69.00141, -20.12664], [-69.00417, -20.12318], [-69.00626, -20.11877], [-69.00853, -20.11159], [-69.00846, -20.10513], [-69.00718, -20.10159], [-69.00464, -20.09943], [-69.0001, -20.09926], [-68.99616, -20.09832], [-68.99229, -20.096], [-68.99129, -20.09483], [-68.98775, -20.0878], [-68.98443, -20.08276], [-68.98166, -20.07662], [-68.98044, -20.07158], [-68.98088, -20.06715], [-68.98016, -20.06421], [-68.98011, -20.06061], [-68.98088, -20.05724], [-68.97966, -20.05353], [-68.97756, -20.04904], [-68.97595, -20.04666], [-68.9749, -20.04301], [-68.9733, -20.03448], [-68.97197, -20.03027], [-68.96914, -20.02446], [-68.96876, -20.02191], [-68.96909, -20.01875], [-68.97136, -20.01156], [-68.97164, -20.00607], [-68.97379, -20.00281], [-68.97839, -19.99943], [-68.9795, -19.99788], [-68.97983, -19.996], [-68.97961, -19.99212], [-68.97883, -19.98874], [-68.97989, -19.9852], [-68.98193, -19.98304], [-68.98227, -19.97994], [-68.98094, -19.97562], [-68.98105, -19.96964], [-68.97929, -19.95899], [-68.98022, -19.95646], [-68.98033, -19.9548], [-68.97977, -19.95231], [-68.97933, -19.94727], [-68.97989, -19.94201], [-68.97894, -19.94007], [-68.97872, -19.9368], [-68.98, -19.93343], [-68.98199, -19.93055], [-68.98376, -19.92578], [-68.98454, -19.92457], [-68.98653, -19.92285], [-68.99378, -19.92047], [-68.99478, -19.91731], [-68.99655, -19.91609], [-69.0017, -19.91432], [-69.0048, -19.91438], [-69.00657, -19.91488], [-69.01031, -19.91673], [-69.01681, -19.90605], [-69.0207, -19.90326], [-69.02496, -19.8993], [-69.02782, -19.89246], [-69.02971, -19.88695], [-69.03081, -19.88172], [-69.04151, -19.86323], [-69.04048, -19.86088], [-69.03903, -19.85864], [-69.0362, -19.84651], [-69.03912, -19.83715], [-69.03852, -19.83393], [-69.03233, -19.83123], [-69.01141, -19.82403], [-69.00505, -19.81931], [-69.00197, -19.81607], [-68.99631, -19.80774], [-68.97496, -19.78968], [-68.94833, -19.76553], [-68.93179, -19.74743], [-68.92892, -19.74364], [-68.92729, -19.73862], [-68.92576, -19.71265], [-68.92681, -19.67642], [-68.92392, -19.66615], [-68.92059, -19.66059], [-68.91868, -19.65356], [-68.91788, -19.6475], [-68.91571, -19.63962], [-68.90902, -19.61031], [-68.90819, -19.60528], [-68.90778, -19.60035], [-68.90625, -19.60285], [-68.90182, -19.60816], [-68.89369, -19.61957], [-68.88606, -19.62924], [-68.87819, -19.63564], [-68.87036, -19.63855], [-68.86238, -19.63956], [-68.8545, -19.64], [-68.84554, -19.64396], [-68.84207, -19.64913], [-68.83884, -19.6547], [-68.83293, -19.66187], [-68.83296, -19.66646], [-68.83382, -19.67259], [-68.82974, -19.69821], [-68.82721, -19.70215], [-68.8155, -19.70846], [-68.80993, -19.71494], [-68.80952, -19.71879], [-68.81325, -19.72871], [-68.81436, -19.7354], [-68.81158, -19.74194], [-68.80594, -19.74807], [-68.80293, -19.74933], [-68.79826, -19.74953], [-68.78696, -19.74928], [-68.76299, -19.74985], [-68.74268, -19.7516]]]}}, {"type": "Feature", "properties": {"cod_comuna": "02201", "nombre_comuna": "Calama", "nombre_provincia": "El Loa", "nombre_region": "Región de Antofagasta"}, "geometry": {"type": "Polygon", "coordinates": [[[-67.94647, -22.38519], [-67.94889, -22.38706], [-67.95157, -22.38858], [-67.95304, -22.3911], [-67.95605, -22.3925], [-67.95736, -22.3938], [-67.95913, -22.39339], [-67.96236, -22.39397], [-67.96497, -22.39332], [-67.96824, -22.39599], [-67.96914, -22.39766], [-67.96723, -22.40399], [-67.96799, -22.40479], [-67.96845, -22.40874], [-67.97047, -22.41055], [-67.97508, -22.41208], [-67.9778, -22.41237], [-67.98016, -22.41108], [-67.98461, -22.41066], [-67.98633, -22.41156], [-67.9884, -22.41328], [-67.99107, -22.41412], [-67.99366, -22.41556], [-67.99533, -22.41585], [-67.99805, -22.41702], [-67.99911, -22.41924], [-68.00215, -22.42127], [-68.00427, -22.4249], [-68.00629, -22.42748], [-68.00735, -22.42824], [-68.01043, -22.42894], [-68.0126, -22.43198], [-68.01498, -22.43263], [-68.01548, -22.43193], [-68.01414, -22.43008], [-68.01454, -22.42877], [-68.0167, -22.42627], [-68.02312, -22.42017], [-68.02564, -22.41889], [-68.02772, -22.41829], [-68.03524, -22.41889], [-68.04575, -22.42121], [-68.05575, -22.42106], [-68.05959, -22.42081], [-68.06126, -22.42015], [-68.06454, -22.42005], [-68.06787, -22.42121], [-68.07049, -22.4227], [-68.07294, -22.42561], [-68.07389, -22.43021], [-68.07455, -22.43202], [-68.07642, -22.4326], [-68.07905, -22.43056], [-68.08136, -22.42778], [-68.08281, -22.42655], [-68.08448, -22.42616], [-68.08556, -22.42512], [-68.09276, -22.42085], [-68.09527, -22.41838], [-68.10105, -22.41478], [-68.12364, -22.40248], [-68.12864, -22.40093], [-68.13178, -22.40066], [-68.14775, -22.40234], [-68.15262, -22.40248], [-68.15279, -22.40287], [-68.15123, -22.4076], [-68.15089, -22.41047], [-68.15128, -22.41235], [-68.15245, -22.41442], [-68.15297, -22.41803], [-68.15452, -22.4213], [-68.15563, -22.42211], [-68.15727, -22.42442], [-68.15683, -22.42716], [-68.15477, -22.42946], [-68.15346, -22.43408], [-68.15403, -22.43765], [-68.16, -22.44341], [-68.16441, -22.44515], [-68.16691, -22.44495], [-68.16904, -22.44374], [-68.17213, -22.44428], [-68.17331, -22.44526], [-68.18074, -22.44875], [-68.18964, -22.45423], [-68.19165, -22.45504], [-68.19575, -22.45594], [-68.19863, -22.45749], [-68.20039, -22.45956], [-68.20423, -22.46532], [-68.20459, -22.46653], [-68.20792, -22.47113], [-68.21156, -22.4782], [-68.2128, -22.47927], [-68.21707, -22.48821], [-68.2202, -22.49346], [-68.22376, -22.49618], [-68.22719, -22.49788], [-68.22742, -22.50117], [-68.22929, -22.50416], [-68.23504, -22.50403], [-68.23818, -22.5053], [-68.24075, -22.50591], [-68.24357, -22.50795], [-68.24328, -22.51411], [-68.24414, -22.51615], [-68.24408, -22.51896], [-68.24608, -22.52203], [-68.25113, -22.52373], [-68.25112, -22.52731], [-68.25172, -22.5294], [-68.25411, -22.53069], [-68.25621, -22.53279], [-68.25535, -22.53467], [-68.25373, -22.5355], [-68.25177, -22.53796], [-68.25266, -22.54025], [-68.25465, -22.5409], [-68.25771, -22.544], [-68.26062, -22.5456], [-68.26016, -22.54838], [-68.26059, -22.55065], [-68.26016, -22.55742], [-68.25843, -22.56009], [-68.25856, -22.56167], [-68.25969, -22.5628], [-68.25944, -22.56685], [-68.26017, -22.56771], [-68.26396, -22.56794], [-68.2638, -22.56935], [-68.26589, -22.57107], [-68.2662, -22.57712], [-68.26294, -22.58066], [-68.26304, -22.58324], [-68.26153, -22.58698], [-68.26129, -22.59485], [-68.26214, -22.59592], [-68.26343, -22.59928], [-68.26494, -22.6005], [-68.26787, -22.59948], [-68.26957, -22.59949], [-68.27178, -22.60123], [-68.27283, -22.60142], [-68.27426, -22.60087], [-68.27668, -22.60087], [-68.28014, -22.60185], [-68.28201, -22.60403], [-68.28504, -22.6056], [-68.28705, -22.60814], [-68.29016, -22.61089], [-68.29064, -22.61187], [-68.2902, -22.61446], [-68.291, -22.61578], [-68.29258, -22.61644], [-68.29745, -22.61735], [-68.3049, -22.61954], [-68.30707, -22.62174], [-68.30809, -22.62374], [-68.30892, -22.62689], [-68.30902, -22.63134], [-68.31081, -22.63338], [-68.31345, -22.63389], [-68.31364, -22.63503], [-68.31559, -22.63657], [-68.31741, -22.63695], [-68.32084, -22.64084], [-68.32407, -22.64366], [-68.32831, -22.64895], [-68.32998, -22.64984], [-68.33403, -22.65352], [-68.33624, -22.65463], [-68.33716, -22.65561], [-68.34228, -22.65821], [-68.34561, -22.65938], [-68.3474, -22.65961], [-68.34919, -22.66123], [-68.35221, -22.66193], [-68.3532, -22.66164], [-68.35542, -22.66274], [-68.35931, -22.66385], [-68.36011, -22.6646], [-68.36434, -22.67178], [-68.36532, -22.67443], [-68.36407, -22.67919], [-68.36486, -22.68107], [-68.36704, -22.68372], [-68.37111, -22.69055], [-68.37333, -22.69363], [-68.37607, -22.69871], [-68.37869, -22.70446], [-68.3846, -22.7199], [-68.38803, -22.72677], [-68.39036, -22.72789], [-68.39081, -22.7291], [-68.3944, -22.73274], [-68.39755, -22.73456], [-68.39895, -22.73733], [-68.40002, -22.73858], [-68.40573, -22.74086], [-68.4055, -22.74375], [-68.4045, -22.74673], [-68.40511, -22.74853], [-68.40754, -22.74981], [-68.41355, -22.7486], [-68.42177, -22.74814], [-68.42876, -22.7484], [-68.43204, -22.74931], [-68.43426, -22.75042], [-68.43805, -22.75325], [-68.43926, -22.75542], [-68.44235, -22.76325], [-68.44361, -22.76547], [-68.44477, -22.76643], [-68.4477, -22.76734], [-68.44982, -22.76916], [-68.45083, -22.77315], [-68.45083, -22.77709], [-68.45179, -22.78063], [-68.45488, -22.78487], [-68.45986, -22.7895], [-68.46028, -22.79483], [-68.45957, -22.79776], [-68.45963, -22.80124], [-68.46051, -22.80297], [-68.4602, -22.80376], [-68.4613, -22.80623], [-68.46184, -22.81094], [-68.46264, -22.8118], [-68.463, -22.81387], [-68.46269, -22.81576], [-68.46372, -22.82184], [-68.46342, -22.83377], [-68.46261, -22.8352], [-68.46235, -22.83996], [-68.4641, -22.85035], [-68.46662, -22.85564], [-68.46779, -22.85553], [-68.47046, -22.8537], [-68.47118, -22.8543], [-68.47349, -22.85463], [-68.47554, -22.85377], [-68.47834, -22.8496], [-68.48193, -22.84898], [-68.48403, -22.8491], [-68.48595, -22.85077], [-68.48699, -22.85238], [-68.491, -22.85454], [-68.49298, -22.8564], [-68.4981, -22.85936], [-68.49863, -22.86003], [-68.50065, -22.86493], [-68.50203, -22.86628], [-68.50465, -22.86748], [-68.50528, -22.86956], [-68.50675, -22.87132], [-68.50792, -22.88188], [-68.51111, -22.88693], [-68.51439, -22.89067], [-68.51611, -22.89208], [-68.51605, -22.89286], [-68.52057, -22.89985], [-68.52272, -22.90893], [-68.5239, -22.91642], [-68.52334, -22.93003], [-68.52449, -22.94578], [-68.52621, -22.9488], [-68.52876, -22.95604], [-68.52891, -22.96085], [-68.52991, -22.96507], [-68.5317, -22.96832], [-68.53456, -22.97567], [-68.53558, -22.98409], [-68.5358, -22.99337], [-68.53657, -23.00162], [-68.53716, -23.00355], [-68.53755, -23.00694], [-68.53676, -23.01096], [-68.53441, -23.01427], [-68.53203, -23.01604], [-68.53024, -23.01675], [-68.52744, -23.01909], [-68.52633, -23.02255], [-68.52662, -23.02449], [-68.52864, -23.02962], [-68.52959, -23.03075], [-68.53077, -23.03354], [-68.53162, -23.03897], [-68.53162, -23.04178], [-68.53102, -23.04626], [-68.53133, -23.049], [-68.53239, -23.05243], [-68.535, -23.05582], [-68.5362, -23.05684], [-68.54002, -23.05884], [-68.54343, -23.06129], [-68.54467, -23.06431], [-68.54338, -23.06835], [-68.53936, -23.07507], [-68.53846, -23.07852], [-68.53864, -23.08008], [-68.54081, -23.08346], [-68.5442, -23.08558], [-68.55046, -23.08649], [-68.58462, -23.08834], [-68.59644, -23.08834], [-68.6021, -23.08723], [-68.61152, -23.08393], [-68.61495, -23.08175], [-68.61561, -23.08083], [-68.61771, -23.08033], [-68.62056, -23.0804], [-68.62831, -23.08278], [-68.63107, -23.08417], [-68.63275, -23.08431], [-68.63841, -23.08386], [-68.64166, -23.08738], [-68.64312, -23.08854], [-68.6459, -23.08935], [-68.64721, -23.09036], [-68.64838, -23.09299], [-68.64874, -23.09538], [-68.65121, -23.09738], [-68.65111, -23.10223], [-68.65176, -23.10309], [-68.65601, -23.10481], [-68.66086, -23.10597], [-68.66156, -23.10687], [-68.66393, -23.1053], [-68.66739, -23.10518], [-68.66977, -23.10453], [-68.6713, -23.1048], [-68.67468, -23.10289], [-68.67613, -23.10098], [-68.67883, -23.1002], [-68.68616, -23.1006], [-68.69224, -23.10341], [-68.69636, -23.10437], [-68.69955, -23.10582], [-68.70382, -23.10683], [-68.70633, -23.10814], [-68.70828, -23.11051], [-68.71351, -23.11019], [-68.71654, -23.11121], [-68.7209, -23.11217], [-68.72538, -23.11254], [-68.73345, -23.11257], [-68.73777, -23.11379], [-68.74404, -23.12603], [-68.74511, -23.12675], [-68.7488, -23.12648], [-68.75043, -23.12484], [-68.75249, -23.12416], [-68.75485, -23.12485], [-68.75794, -23.12744], [-68.76003, -23.12849], [-68.7603, -23.12931], [-68.75957, -23.1321], [-68.761, -23.13776], [-68.76285, -23.13979], [-68.77005, -23.14123], [-68.77515, -23.13922], [-68.77928, -23.13855], [-68.77994, -23.13787], [-68.80862, -23.12389], [-68.81422, -23.12244], [-68.82394, -23.12149], [-68.82876, -23.11764], [-68.83407, -23.11022], [-68.83647, -23.10906], [-68.83756, -23.10707], [-68.83925, -23.10648], [-68.842, -23.10629], [-68.84498, -23.10491], [-68.84643, -23.10157], [-68.84604, -23.09944], [-68.84442, -23.09632], [-68.84411, -23.09496], [-68.84425, -23.09117], [-68.84366, -23.08734], [-68.84215, -23.08643], [-68.83843, -23.08682], [-68.83572, -23.08531], [-68.83708, -23.08345], [-68.83696, -23.08165], [-68.83577, -23.07945], [-68.83269, -23.07593], [-68.83225, -23.07179], [-68.83083, -23.06823], [-68.82973, -23.06711], [-68.82667, -23.06202], [-68.82586, -23.05693], [-68.82526, -23.04626], [-68.82619, -23.04455], [-68.82768, -23.04414], [-68.82954, -23.04465], [-68.83182, -23.04364], [-68.83174, -23.04171], [-68.83273, -23.03836], [-68.82757, -23.03042], [-68.82618, -23.02948], [-68.82427, -23.0272], [-68.82308, -23.0223], [-68.82333, -23.02039], [-68.82251, -23.01835], [-68.82076, -23.01765], [-68.8199, -23.01655], [-68.8197, -23.01484], [-68.81631, -23.0113], [-68.81533, -23.00829], [-68.81366, -23.00647], [-68.80734, -23.00329], [-68.8026, -23.00137], [-68.80178, -22.99871], [-68.80408, -22.99696], [-68.80379, -22.99543], [-68.80766, -22.98599], [-68.80885, -22.97849], [-68.81096, -22.97383], [-68.81482, -22.96785], [-68.81905, -22.96362], [-68.82204, -22.96237], [-68.82447, -22.95971], [-68.82502, -22.9558], [-68.82839, -22.95341], [-68.82938, -22.95166], [-68.83075, -22.95079], [-68.83563, -22.95109], [-68.83731, -22.95051], [-68.83923, -22.94878], [-68.84267, -22.94715], [-68.84552, -22.94489], [-68.8498, -22.94046], [-68.85478, -22.9361], [-68.8614, -22.93107], [-68.86495, -22.92723], [-68.86625, -22.925], [-68.86728, -22.92189], [-68.86792, -22.91775], [-68.8691, -22.91303], [-68.8689, -22.91161], [-68.8676, -22.91039], [-68.86735, -22.90925], [-68.86798, -22.90597], [-68.93004, -22.82161], [-68.96723, -22.77206], [-68.98644, -22.74506], [-69.13914, -22.66964], [-69.15089, -22.66307], [-69.15481, -22.6565], [-69.1584, -22.64963], [-69.16535, -22.64378], [-69.17163, -22.63753], [-69.17499, -22.63607], [-69.18037, -22.62919], [-69.1844, -22.62001], [-69.18798, -22.61688], [-69.19089, -22.6098], [-69.19178, -22.60417], [-69.19401, -22.59667], [-69.19378, -22.58917], [-69.18995, -22.5798], [-69.19076, -22.57634], [-69.17011, -22.51857], [-69.1558, -22.47526], [-69.147, -22.45506], [-69.15582, -22.35652], [-69.17177, -22.32711], [-69.17671, -22.22804], [-69.03839, -22.00805], [-69.00194, -21.93908], [-68.93244, -21.82869], [-68.99264, -21.63608], [-68.93625, -21.43487], [-68.85968, -21.28498], [-68.57992, -21.09401], [-68.56667, -21.08593], [-68.53576, -21.06468], [-68.53552, -21.06416], [-68.53266, -21.06616], [-68.4679, -21.22074], [-68.5146, -21.27826], [-68.50291, -21.39165], [-68.50565, -21.40504], [-68.52191, -21.54637], [-68.44998, -21.60475], [-68.39535, -21.65314], [-68.36346, -21.66455], [-68.31163, -21.6926], [-68.31959, -21.7803], [-68.34309, -21.88379], [-68.33866, -21.88447], [-68.34025, -21.88926], [-68.19283, -21.90586], [-68.07111, -21.98212], [-68.04246, -22.00359], [-68.01561, -22.02315], [-68.01332, -22.02594], [-68.01392, -22.02766], [-68.01384, -22.03011], [-68.01171, -22.03248], [-68.01052, -22.03313], [-68.00738, -22.03957], [-68.00023, -22.03955], [-67.99785, -22.04125], [-67.9937, -22.04153], [-67.9887, -22.04255], [-67.9846, -22.04566], [-67.98372, -22.04712], [-67.97956, -22.04958], [-67.97765, -22.05143], [-67.97553, -22.0529], [-67.97198, -22.05441], [-67.97004, -22.05464], [-67.96507, -22.05372], [-67.96452, -22.05518], [-67.96673, -22.05847], [-67.96617, -22.06041], [-67.96668, -22.0643], [-67.96754, -22.06661], [-67.9664, -22.06865], [-67.96678, -22.07071], [-67.96593, -22.0736], [-67.964, -22.07447], [-67.96434, -22.0781], [-67.9626, -22.08176], [-67.95914, -22.08328], [-67.95741, -22.08489], [-67.95108, -22.08755], [-67.94832, -22.08816], [-67.94806, -22.09117], [-67.94857, -22.09282], [-67.94811, -22.09591], [-67.94512, -22.09836], [-67.9445, -22.10067], [-67.94279, -22.10226], [-67.94193, -22.10428], [-67.93949, -22.10701], [-67.93916, -22.10793], [-67.94026, -22.11464], [-67.94091, -22.11602], [-67.94102, -22.12024], [-67.9423, -22.12406], [-67.94209, -22.12646], [-67.94102, -22.12929], [-67.94122, -22.13029], [-67.94595, -22.13585], [-67.94707, -22.13796], [-67.94884, -22.14369], [-67.9488, -22.14697], [-67.94976, -22.1482], [-67.95267, -22.1484], [-67.95361, -22.14895], [-67.95496, -22.15115], [-67.9575, -22.15181], [-67.95747, -22.15556], [-67.95691, -22.16033], [-67.95775, -22.16202], [-67.95758, -22.16641], [-67.9551, -22.17305], [-67.95529, -22.17717], [-67.95279, -22.1771], [-67.94997, -22.17618], [-67.95043, -22.17881], [-67.9491, -22.18103], [-67.94544, -22.18413], [-67.94241, -22.18569], [-67.94056, -22.18713], [-67.93936, -22.18889], [-67.9412, -22.19056], [-67.94129, -22.19307], [-67.94043, -22.19529], [-67.94044, -22.19673], [-67.93829, -22.19758], [-67.93541, -22.1998], [-67.93599, -22.20138], [-67.93311, -22.20146], [-67.93209, -22.20353], [-67.93405, -22.20497], [-67.93278, -22.20676], [-67.93276, -22.20829], [-67.9353, -22.21323], [-67.93533, -22.2144], [-67.93254, -22.2167], [-67.93254, -22.22076], [-67.93294, -22.22265], [-67.93105, -22.22374], [-67.92986, -22.22571], [-67.92895, -22.22629], [-67.92928, -22.22841], [-67.92882, -22.23053], [-67.92718, -22.23299], [-67.92614, -22.23681], [-67.92407, -22.23749], [-67.9223, -22.23941], [-67.92141, -22.24146], [-67.92441, -22.24736], [-67.92432, -22.25167], [-67.92372, -22.25221], [-67.92329, -22.25736], [-67.92457, -22.25934], [-67.92452, -22.26166], [-67.92363, -22.26294], [-67.92303, -22.26662], [-67.92144, -22.26808], [-67.91871, -22.26812], [-67.91698, -22.26865], [-67.91579, -22.27066], [-67.91543, -22.2724], [-67.91983, -22.27438], [-67.92075, -22.27526], [-67.92235, -22.27541], [-67.92363, -22.27411], [-67.92629, -22.27273], [-67.92926, -22.27398], [-67.9331, -22.27174], [-67.93409, -22.27304], [-67.93727, -22.27323], [-67.93724, -22.27394], [-67.93481, -22.27644], [-67.933, -22.27938], [-67.93255, -22.28238], [-67.9343, -22.28461], [-67.93283, -22.28864], [-67.93422, -22.29013], [-67.93857, -22.29328], [-67.938, -22.29479], [-67.93661, -22.29556], [-67.93426, -22.29838], [-67.93356, -22.30138], [-67.93228, -22.30403], [-67.93266, -22.30568], [-67.93512, -22.30751], [-67.93614, -22.30989], [-67.93865, -22.31139], [-67.93939, -22.31263], [-67.94038, -22.31801], [-67.93852, -22.32247], [-67.94097, -22.32454], [-67.94059, -22.32547], [-67.94249, -22.32887], [-67.94086, -22.3291], [-67.9402, -22.33006], [-67.94174, -22.33182], [-67.94196, -22.33603], [-67.93552, -22.33905], [-67.93271, -22.34081], [-67.93099, -22.34296], [-67.93105, -22.34472], [-67.93271, -22.34638], [-67.93449, -22.35044], [-67.93644, -22.3535], [-67.93977, -22.35773], [-67.94045, -22.35946], [-67.93713, -22.36101], [-67.93256, -22.36501], [-67.93282, -22.36954], [-67.93326, -22.37096], [-67.93217, -22.37332], [-67.93306, -22.3751], [-67.93569, -22.37738], [-67.93659, -22.37872], [-67.9385, -22.37972], [-67.9415, -22.38062], [-67.94198, -22.38217], [-67.94332, -22.38144], [-67.94647, -22.38519]]]}}, {"type": "Feature", "properties": {"cod_comuna": "02202", "nombre_comuna": "Ollagüe", "nombre_provincia": "El Loa", "nombre_region": "Región de Antofagasta"}, "geometry": {"type": "Polygon", "coordinates": [[[-68.53552, -21.06416], [-68.48073, -20.94519], [-68.48146, -20.94283], [-68.48082, -20.94128], [-68.47838, -20.94083], [-68.47685, -20.94387], [-68.47453, -20.94634], [-68.46974, -20.94505], [-68.46766, -20.94515], [-68.46499, -20.94595], [-68.46137, -20.94568], [-68.46045, -20.9441], [-68.45866, -20.94403], [-68.45502, -20.94553], [-68.44813, -20.94621], [-68.44553, -20.94471], [-68.44044, -20.94629], [-68.43559, -20.94562], [-68.43463, -20.94629], [-68.43189, -20.94531], [-68.42782, -20.94611], [-68.42683, -20.94471], [-68.42468, -20.94355], [-68.42103, -20.94248], [-68.41951, -20.94147], [-68.41766, -20.9411], [-68.41565, -20.94134], [-68.41269, -20.93865], [-68.41288, -20.93509], [-68.41249, -20.93454], [-68.359, -21.00884], [-68.35759, -21.01006], [-68.35715, -21.01142], [-68.33434, -21.04359], [-68.29482, -21.09764], [-68.25028, -21.17737], [-68.24999, -21.17736], [-68.17911, -21.30193], [-68.18065, -21.60401], [-68.13793, -21.65702], [-68.11782, -21.67829], [-68.11783, -21.68054], [-68.1167, -21.68659], [-68.11557, -21.68748], [-68.11548, -21.68921], [-68.11321, -21.69217], [-68.11231, -21.69539], [-68.10947, -21.70066], [-68.10589, -21.70872], [-68.1, -21.71684], [-68.09939, -21.72075], [-68.09677, -21.72441], [-68.09575, -21.72639], [-68.09691, -21.72809], [-68.09618, -21.73009], [-68.09452, -21.732], [-68.09281, -21.73593], [-68.09304, -21.73791], [-68.08999, -21.74071], [-68.0871, -21.74609], [-68.08379, -21.75016], [-68.08019, -21.7514], [-68.07758, -21.75094], [-68.07643, -21.75122], [-68.07233, -21.75351], [-68.07137, -21.75479], [-68.07191, -21.75802], [-68.07206, -21.76211], [-68.06932, -21.76289], [-68.06687, -21.76429], [-68.06365, -21.76782], [-68.06117, -21.76919], [-68.06046, -21.7715], [-68.06086, -21.77356], [-68.06094, -21.77717], [-68.05977, -21.77896], [-68.06008, -21.78446], [-68.05966, -21.78617], [-68.06083, -21.79137], [-68.06153, -21.79214], [-68.0613, -21.79413], [-68.06276, -21.85261], [-68.0713, -21.98166], [-68.07111, -21.98212], [-68.19283, -21.90586], [-68.34025, -21.88926], [-68.33866, -21.88447], [-68.34309, -21.88379], [-68.31959, -21.7803], [-68.31163, -21.6926], [-68.36346, -21.66455], [-68.39535, -21.65314], [-68.44998, -21.60475], [-68.52191, -21.54637], [-68.50565, -21.40504], [-68.50291, -21.39165], [-68.5146, -21.27826], [-68.4679, -21.22074], [-68.53266, -21.06616], [-68.53552, -21.06416]]]}}]}