{"type": "FeatureCollection", "crs": {"type": "name", "properties": {"name": "urn:ogc:def:crs:OGC:1.3:CRS84"}}, "features": [{"type": "Feature", "properties": {"cod_comuna": "02201", "nombre_comuna": "Calama", "nombre_provincia": "El Loa", "nombre_region": "Región de Antofagasta"}, "geometry": {"type": "Polygon", "coordinates": [[[-67.94647, -22.38519], [-67.94889, -22.38706], [-67.95157, -22.38858], [-67.95304, -22.3911], [-67.95605, -22.3925], [-67.95736, -22.3938], [-67.95913, -22.39339], [-67.96236, -22.39397], [-67.96497, -22.39332], [-67.96824, -22.39599], [-67.96914, -22.39766], [-67.96723, -22.40399], [-67.96799, -22.40479], [-67.96845, -22.40874], [-67.97047, -22.41055], [-67.97508, -22.41208], [-67.9778, -22.41237], [-67.98016, -22.41108], [-67.98461, -22.41066], [-67.98633, -22.41156], [-67.9884, -22.41328], [-67.99107, -22.41412], [-67.99366, -22.41556], [-67.99533, -22.41585], [-67.99805, -22.41702], [-67.99911, -22.41924], [-68.00215, -22.42127], [-68.00427, -22.4249], [-68.00629, -22.42748], [-68.00735, -22.42824], [-68.01043, -22.42894], [-68.0126, -22.43198], [-68.01498, -22.43263], [-68.01548, -22.43193], [-68.01414, -22.43008], [-68.01454, -22.42877], [-68.0167, -22.42627], [-68.02312, -22.42017], [-68.02564, -22.41889], [-68.02772, -22.41829], [-68.03524, -22.41889], [-68.04575, -22.42121], [-68.05575, -22.42106], [-68.05959, -22.42081], [-68.06126, -22.42015], [-68.06454, -22.42005], [-68.06787, -22.42121], [-68.07049, -22.4227], [-68.07294, -22.42561], [-68.07389, -22.43021], [-68.07455, -22.43202], [-68.07642, -22.4326], [-68.07905, -22.43056], [-68.08136, -22.42778], [-68.08281, -22.42655], [-68.08448, -22.42616], [-68.08556, -22.42512], [-68.09276, -22.42085], [-68.09527, -22.41838], [-68.10105, -22.41478], [-68.12364, -22.40248], [-68.12864, -22.40093], [-68.13178, -22.40066], [-68.14775, -22.40234], [-68.15262, -22.40248], [-68.15279, -22.40287], [-68.15123, -22.4076], [-68.15089, -22.41047], [-68.15128, -22.41235], [-68.15245, -22.41442], [-68.15297, -22.41803], [-68.15452, -22.4213], [-68.15563, -22.42211], [-68.15727, -22.42442], [-68.15683, -22.42716], [-68.15477, -22.42946], [-68.15346, -22.43408], [-68.15403, -22.43765], [-68.16, -22.44341], [-68.16441, -22.44515], [-68.16691, -22.44495], [-68.16904, -22.44374], [-68.17213, -22.44428], [-68.17331, -22.44526], [-68.18074, -22.44875], [-68.18964, -22.45423], [-68.19165, -22.45504], [-68.19575, -22.45594], [-68.19863, -22.45749], [-68.20039, -22.45956], [-68.20423, -22.46532], [-68.20459, -22.46653], [-68.20792, -22.47113], [-68.21156, -22.4782], [-68.2128, -22.47927], [-68.21707, -22.48821], [-68.2202, -22.49346], [-68.22376, -22.49618], [-68.22719, -22.49788], [-68.22742, -22.50117], [-68.22929, -22.50416], [-68.23504, -22.50403], [-68.23818, -22.5053], [-68.24075, -22.50591], [-68.24357, -22.50795], [-68.24328, -22.51411], [-68.24414, -22.51615], [-68.24408, -22.51896], [-68.24608, -22.52203], [-68.25113, -22.52373], [-68.25112, -22.52731], [-68.25172, -22.5294], [-68.25411, -22.53069], [-68.25621, -22.53279], [-68.25535, -22.53467], [-68.25373, -22.5355], [-68.25177, -22.53796], [-68.25266, -22.54025], [-68.25465, -22.5409], [-68.25771, -22.544], [-68.26062, -22.5456], [-68.26016, -22.54838], [-68.26059, -22.55065], [-68.26016, -22.55742], [-68.25843, -22.56009], [-68.25856, -22.56167], [-68.25969, -22.5628], [-68.25944, -22.56685], [-68.26017, -22.56771], [-68.26396, -22.56794], [-68.2638, -22.56935], [-68.26589, -22.57107], [-68.2662, -22.57712], [-68.26294, -22.58066], [-68.26304, -22.58324], [-68.26153, -22.58698], [-68.26129, -22.59485], [-68.26214, -22.59592], [-68.26343, -22.59928], [-68.26494, -22.6005], [-68.26787, -22.59948], [-68.26957, -22.59949], [-68.27178, -22.60123], [-68.27283, -22.60142], [-68.27426, -22.60087], [-68.27668, -22.60087], [-68.28014, -22.60185], [-68.28201, -22.60403], [-68.28504, -22.6056], [-68.28705, -22.60814], [-68.29016, -22.61089], [-68.29064, -22.61187], [-68.2902, -22.61446], [-68.291, -22.61578], [-68.29258, -22.61644], [-68.29745, -22.61735], [-68.3049, -22.61954], [-68.30707, -22.62174], [-68.30809, -22.62374], [-68.30892, -22.62689], [-68.30902, -22.63134], [-68.31081, -22.63338], [-68.31345, -22.63389], [-68.31364, -22.63503], [-68.31559, -22.63657], [-68.31741, -22.63695], [-68.32084, -22.64084], [-68.32407, -22.64366], [-68.32831, -22.64895], [-68.32998, -22.64984], [-68.33403, -22.65352], [-68.33624, -22.65463], [-68.33716, -22.65561], [-68.34228, -22.65821], [-68.34561, -22.65938], [-68.3474, -22.65961], [-68.34919, -22.66123], [-68.35221, -22.66193], [-68.3532, -22.66164], [-68.35542, -22.66274], [-68.35931, -22.66385], [-68.36011, -22.6646], [-68.36434, -22.67178], [-68.36532, -22.67443], [-68.36407, -22.67919], [-68.36486, -22.68107], [-68.36704, -22.68372], [-68.37111, -22.69055], [-68.37333, -22.69363], [-68.37607, -22.69871], [-68.37869, -22.70446], [-68.3846, -22.7199], [-68.38803, -22.72677], [-68.39036, -22.72789], [-68.39081, -22.7291], [-68.3944, -22.73274], [-68.39755, -22.73456], [-68.39895, -22.73733], [-68.40002, -22.73858], [-68.40573, -22.74086], [-68.4055, -22.74375], [-68.4045, -22.74673], [-68.40511, -22.74853], [-68.40754, -22.74981], [-68.41355, -22.7486], [-68.42177, -22.74814], [-68.42876, -22.7484], [-68.43204, -22.74931], [-68.43426, -22.75042], [-68.43805, -22.75325], [-68.43926, -22.75542], [-68.44235, -22.76325], [-68.44361, -22.76547], [-68.44477, -22.76643], [-68.4477, -22.76734], [-68.44982, -22.76916], [-68.45083, -22.77315], [-68.45083, -22.77709], [-68.45179, -22.78063], [-68.45488, -22.78487], [-68.45986, -22.7895], [-68.46028, -22.79483], [-68.45957, -22.79776], [-68.45963, -22.80124], [-68.46051, -22.80297], [-68.4602, -22.80376], [-68.4613, -22.80623], [-68.46184, -22.81094], [-68.46264, -22.8118], [-68.463, -22.81387], [-68.46269, -22.81576], [-68.46372, -22.82184], [-68.46342, -22.83377], [-68.46261, -22.8352], [-68.46235, -22.83996], [-68.4641, -22.85035], [-68.46662, -22.85564], [-68.46779, -22.85553], [-68.47046, -22.8537], [-68.47118, -22.8543], [-68.47349, -22.85463], [-68.47554, -22.85377], [-68.47834, -22.8496], [-68.48193, -22.84898], [-68.48403, -22.8491], [-68.48595, -22.85077], [-68.48699, -22.85238], [-68.491, -22.85454], [-68.49298, -22.8564], [-68.4981, -22.85936], [-68.49863, -22.86003], [-68.50065, -22.86493], [-68.50203, -22.86628], [-68.50465, -22.86748], [-68.50528, -22.86956], [-68.50675, -22.87132], [-68.50792, -22.88188], [-68.51111, -22.88693], [-68.51439, -22.89067], [-68.51611, -22.89208], [-68.51605, -22.89286], [-68.52057, -22.89985], [-68.52272, -22.90893], [-68.5239, -22.91642], [-68.52334, -22.93003], [-68.52449, -22.94578], [-68.52621, -22.9488], [-68.52876, -22.95604], [-68.52891, -22.96085], [-68.52991, -22.96507], [-68.5317, -22.96832], [-68.53456, -22.97567], [-68.53558, -22.98409], [-68.5358, -22.99337], [-68.53657, -23.00162], [-68.53716, -23.00355], [-68.53755, -23.00694], [-68.53676, -23.01096], [-68.53441, -23.01427], [-68.53203, -23.01604], [-68.53024, -23.01675], [-68.52744, -23.01909], [-68.52633, -23.02255], [-68.52662, -23.02449], [-68.52864, -23.02962], [-68.52959, -23.03075], [-68.53077, -23.03354], [-68.53162, -23.03897], [-68.53162, -23.04178], [-68.53102, -23.04626], [-68.53133, -23.049], [-68.53239, -23.05243], [-68.535, -23.05582], [-68.5362, -23.05684], [-68.54002, -23.05884], [-68.54343, -23.06129], [-68.54467, -23.06431], [-68.54338, -23.06835], [-68.53936, -23.07507], [-68.53846, -23.07852], [-68.53864, -23.08008], [-68.54081, -23.08346], [-68.5442, -23.08558], [-68.55046, -23.08649], [-68.58462, -23.08834], [-68.59644, -23.08834], [-68.6021, -23.08723], [-68.61152, -23.08393], [-68.61495, -23.08175], [-68.61561, -23.08083], [-68.61771, -23.08033], [-68.62056, -23.0804], [-68.62831, -23.08278], [-68.63107, -23.08417], [-68.63275, -23.08431], [-68.63841, -23.08386], [-68.64166, -23.08738], [-68.64312, -23.08854], [-68.6459, -23.08935], [-68.64721, -23.09036], [-68.64838, -23.09299], [-68.64874, -23.09538], [-68.65121, -23.09738], [-68.65111, -23.10223], [-68.65176, -23.10309], [-68.65601, -23.10481], [-68.66086, -23.10597], [-68.66156, -23.10687], [-68.66393, -23.1053], [-68.66739, -23.10518], [-68.66977, -23.10453], [-68.6713, -23.1048], [-68.67468, -23.10289], [-68.67613, -23.10098], [-68.67883, -23.1002], [-68.68616, -23.1006], [-68.69224, -23.10341], [-68.69636, -23.10437], [-68.69955, -23.10582], [-68.70382, -23.10683], [-68.70633, -23.10814], [-68.70828, -23.11051], [-68.71351, -23.11019], [-68.71654, -23.11121], [-68.7209, -23.11217], [-68.72538, -23.11254], [-68.73345, -23.11257], [-68.73777, -23.11379], [-68.74404, -23.12603], [-68.74511, -23.12675], [-68.7488, -23.12648], [-68.75043, -23.12484], [-68.75249, -23.12416], [-68.75485, -23.12485], [-68.75794, -23.12744], [-68.76003, -23.12849], [-68.7603, -23.12931], [-68.75957, -23.1321], [-68.761, -23.13776], [-68.76285, -23.13979], [-68.77005, -23.14123], [-68.77515, -23.13922], [-68.77928, -23.13855], [-68.77994, -23.13787], [-68.80862, -23.12389], [-68.81422, -23.12244], [-68.82394, -23.12149], [-68.82876, -23.11764], [-68.83407, -23.11022], [-68.83647, -23.10906], [-68.83756, -23.10707], [-68.83925, -23.10648], [-68.842, -23.10629], [-68.84498, -23.10491], [-68.84643, -23.10157], [-68.84604, -23.09944], [-68.84442, -23.09632], [-68.84411, -23.09496], [-68.84425, -23.09117], [-68.84366, -23.08734], [-68.84215, -23.08643], [-68.83843, -23.08682], [-68.83572, -23.08531], [-68.83708, -23.08345], [-68.83696, -23.08165], [-68.83577, -23.07945], [-68.83269, -23.07593], [-68.83225, -23.07179], [-68.83083, -23.06823], [-68.82973, -23.06711], [-68.82667, -23.06202], [-68.82586, -23.05693], [-68.82526, -23.04626], [-68.82619, -23.04455], [-68.82768, -23.04414], [-68.82954, -23.04465], [-68.83182, -23.04364], [-68.83174, -23.04171], [-68.83273, -23.03836], [-68.82757, -23.03042], [-68.82618, -23.02948], [-68.82427, -23.0272], [-68.82308, -23.0223], [-68.82333, -23.02039], [-68.82251, -23.01835], [-68.82076, -23.01765], [-68.8199, -23.01655], [-68.8197, -23.01484], [-68.81631, -23.0113], [-68.81533, -23.00829], [-68.81366, -23.00647], [-68.80734, -23.00329], [-68.8026, -23.00137], [-68.80178, -22.99871], [-68.80408, -22.99696], [-68.80379, -22.99543], [-68.80766, -22.98599], [-68.80885, -22.97849], [-68.81096, -22.97383], [-68.81482, -22.96785], [-68.81905, -22.96362], [-68.82204, -22.96237], [-68.82447, -22.95971], [-68.82502, -22.9558], [-68.82839, -22.95341], [-68.82938, -22.95166], [-68.83075, -22.95079], [-68.83563, -22.95109], [-68.83731, -22.95051], [-68.83923, -22.94878], [-68.84267, -22.94715], [-68.84552, -22.94489], [-68.8498, -22.94046], [-68.85478, -22.9361], [-68.8614, -22.93107], [-68.86495, -22.92723], [-68.86625, -22.925], [-68.86728, -22.92189], [-68.86792, -22.91775], [-68.8691, -22.91303], [-68.8689, -22.91161], [-68.8676, -22.91039], [-68.86735, -22.90925], [-68.86798, -22.90597], [-68.93004, -22.82161], [-68.96723, -22.77206], [-68.98644, -22.74506], [-69.13914, -22.66964], [-69.15089, -22.66307], [-69.15481, -22.6565], [-69.1584, -22.64963], [-69.16535, -22.64378], [-69.17163, -22.63753], [-69.17499, -22.63607], [-69.18037, -22.62919], [-69.1844, -22.62001], [-69.18798, -22.61688], [-69.19089, -22.6098], [-69.19178, -22.60417], [-69.19401, -22.59667], [-69.19378, -22.58917], [-69.18995, -22.5798], [-69.19076, -22.57634], [-69.17011, -22.51857], [-69.1558, -22.47526], [-69.147, -22.45506], [-69.15582, -22.35652], [-69.17177, -22.32711], [-69.17671, -22.22804], [-69.03839, -22.00805], [-69.00194, -21.93908], [-68.93244, -21.82869], [-68.99264, -21.63608], [-68.93625, -21.43487], [-68.85968, -21.28498], [-68.57992, -21.09401], [-68.56667, -21.08593], [-68.53576, -21.06468], [-68.53552, -21.06416], [-68.53266, -21.06616], [-68.4679, -21.22074], [-68.5146, -21.27826], [-68.50291, -21.39165], [-68.50565, -21.40504], [-68.52191, -21.54637], [-68.44998, -21.60475], [-68.39535, -21.65314], [-68.36346, -21.66455], [-68.31163, -21.6926], [-68.31959, -21.7803], [-68.34309, -21.88379], [-68.33866, -21.88447], [-68.34025, -21.88926], [-68.19283, -21.90586], [-68.07111, -21.98212], [-68.04246, -22.00359], [-68.01561, -22.02315], [-68.01332, -22.02594], [-68.01392, -22.02766], [-68.01384, -22.03011], [-68.01171, -22.03248], [-68.01052, -22.03313], [-68.00738, -22.03957], [-68.00023, -22.03955], [-67.99785, -22.04125], [-67.9937, -22.04153], [-67.9887, -22.04255], [-67.9846, -22.04566], [-67.98372, -22.04712], [-67.97956, -22.04958], [-67.97765, -22.05143], [-67.97553, -22.0529], [-67.97198, -22.05441], [-67.97004, -22.05464], [-67.96507, -22.05372], [-67.96452, -22.05518], [-67.96673, -22.05847], [-67.96617, -22.06041], [-67.96668, -22.0643], [-67.96754, -22.06661], [-67.9664, -22.06865], [-67.96678, -22.07071], [-67.96593, -22.0736], [-67.964, -22.07447], [-67.96434, -22.0781], [-67.9626, -22.08176], [-67.95914, -22.08328], [-67.95741, -22.08489], [-67.95108, -22.08755], [-67.94832, -22.08816], [-67.94806, -22.09117], [-67.94857, -22.09282], [-67.94811, -22.09591], [-67.94512, -22.09836], [-67.9445, -22.10067], [-67.94279, -22.10226], [-67.94193, -22.10428], [-67.93949, -22.10701], [-67.93916, -22.10793], [-67.94026, -22.11464], [-67.94091, -22.11602], [-67.94102, -22.12024], [-67.9423, -22.12406], [-67.94209, -22.12646], [-67.94102, -22.12929], [-67.94122, -22.13029], [-67.94595, -22.13585], [-67.94707, -22.13796], [-67.94884, -22.14369], [-67.9488, -22.14697], [-67.94976, -22.1482], [-67.95267, -22.1484], [-67.95361, -22.14895], [-67.95496, -22.15115], [-67.9575, -22.15181], [-67.95747, -22.15556], [-67.95691, -22.16033], [-67.95775, -22.16202], [-67.95758, -22.16641], [-67.9551, -22.17305], [-67.95529, -22.17717], [-67.95279, -22.1771], [-67.94997, -22.17618], [-67.95043, -22.17881], [-67.9491, -22.18103], [-67.94544, -22.18413], [-67.94241, -22.18569], [-67.94056, -22.18713], [-67.93936, -22.18889], [-67.9412, -22.19056], [-67.94129, -22.19307], [-67.94043, -22.19529], [-67.94044, -22.19673], [-67.93829, -22.19758], [-67.93541, -22.1998], [-67.93599, -22.20138], [-67.93311, -22.20146], [-67.93209, -22.20353], [-67.93405, -22.20497], [-67.93278, -22.20676], [-67.93276, -22.20829], [-67.9353, -22.21323], [-67.93533, -22.2144], [-67.93254, -22.2167], [-67.93254, -22.22076], [-67.93294, -22.22265], [-67.93105, -22.22374], [-67.92986, -22.22571], [-67.92895, -22.22629], [-67.92928, -22.22841], [-67.92882, -22.23053], [-67.92718, -22.23299], [-67.92614, -22.23681], [-67.92407, -22.23749], [-67.9223, -22.23941], [-67.92141, -22.24146], [-67.92441, -22.24736], [-67.92432, -22.25167], [-67.92372, -22.25221], [-67.92329, -22.25736], [-67.92457, -22.25934], [-67.92452, -22.26166], [-67.92363, -22.26294], [-67.92303, -22.26662], [-67.92144, -22.26808], [-67.91871, -22.26812], [-67.91698, -22.26865], [-67.91579, -22.27066], [-67.91543, -22.2724], [-67.91983, -22.27438], [-67.92075, -22.27526], [-67.92235, -22.27541], [-67.92363, -22.27411], [-67.92629, -22.27273], [-67.92926, -22.27398], [-67.9331, -22.27174], [-67.93409, -22.27304], [-67.93727, -22.27323], [-67.93724, -22.27394], [-67.93481, -22.27644], [-67.933, -22.27938], [-67.93255, -22.28238], [-67.9343, -22.28461], [-67.93283, -22.28864], [-67.93422, -22.29013], [-67.93857, -22.29328], [-67.938, -22.29479], [-67.93661, -22.29556], [-67.93426, -22.29838], [-67.93356, -22.30138], [-67.93228, -22.30403], [-67.93266, -22.30568], [-67.93512, -22.30751], [-67.93614, -22.30989], [-67.93865, -22.31139], [-67.93939, -22.31263], [-67.94038, -22.31801], [-67.93852, -22.32247], [-67.94097, -22.32454], [-67.94059, -22.32547], [-67.94249, -22.32887], [-67.94086, -22.3291], [-67.9402, -22.33006], [-67.94174, -22.33182], [-67.94196, -22.33603], [-67.93552, -22.33905], [-67.93271, -22.34081], [-67.93099, -22.34296], [-67.93105, -22.34472], [-67.93271, -22.34638], [-67.93449, -22.35044], [-67.93644, -22.3535], [-67.93977, -22.35773], [-67.94045, -22.35946], [-67.93713, -22.36101], [-67.93256, -22.36501], [-67.93282, -22.36954], [-67.93326, -22.37096], [-67.93217, -22.37332], [-67.93306, -22.3751], [-67.93569, -22.37738], [-67.93659, -22.37872], [-67.9385, -22.37972], [-67.9415, -22.38062], [-67.94198, -22.38217], [-67.94332, -22.38144], [-67.94647, -22.38519]]]}}, {"type": "Feature", "properties": {"cod_comuna": "02202", "nombre_comuna": "Ollagüe", "nombre_provincia": "El Loa", "nombre_region": "Región de Antofagasta"}, "geometry": {"type": "Polygon", "coordinates": [[[-68.53552, -21.06416], [-68.48073, -20.94519], [-68.48146, -20.94283], [-68.48082, -20.94128], [-68.47838, -20.94083], [-68.47685, -20.94387], [-68.47453, -20.94634], [-68.46974, -20.94505], [-68.46766, -20.94515], [-68.46499, -20.94595], [-68.46137, -20.94568], [-68.46045, -20.9441], [-68.45866, -20.94403], [-68.45502, -20.94553], [-68.44813, -20.94621], [-68.44553, -20.94471], [-68.44044, -20.94629], [-68.43559, -20.94562], [-68.43463, -20.94629], [-68.43189, -20.94531], [-68.42782, -20.94611], [-68.42683, -20.94471], [-68.42468, -20.94355], [-68.42103, -20.94248], [-68.41951, -20.94147], [-68.41766, -20.9411], [-68.41565, -20.94134], [-68.41269, -20.93865], [-68.41288, -20.93509], [-68.41249, -20.93454], [-68.359, -21.00884], [-68.35759, -21.01006], [-68.35715, -21.01142], [-68.33434, -21.04359], [-68.29482, -21.09764], [-68.25028, -21.17737], [-68.24999, -21.17736], [-68.17911, -21.30193], [-68.18065, -21.60401], [-68.13793, -21.65702], [-68.11782, -21.67829], [-68.11783, -21.68054], [-68.1167, -21.68659], [-68.11557, -21.68748], [-68.11548, -21.68921], [-68.11321, -21.69217], [-68.11231, -21.69539], [-68.10947, -21.70066], [-68.10589, -21.70872], [-68.1, -21.71684], [-68.09939, -21.72075], [-68.09677, -21.72441], [-68.09575, -21.72639], [-68.09691, -21.72809], [-68.09618, -21.73009], [-68.09452, -21.732], [-68.09281, -21.73593], [-68.09304, -21.73791], [-68.08999, -21.74071], [-68.0871, -21.74609], [-68.08379, -21.75016], [-68.08019, -21.7514], [-68.07758, -21.75094], [-68.07643, -21.75122], [-68.07233, -21.75351], [-68.07137, -21.75479], [-68.07191, -21.75802], [-68.07206, -21.76211], [-68.06932, -21.76289], [-68.06687, -21.76429], [-68.06365, -21.76782], [-68.06117, -21.76919], [-68.06046, -21.7715], [-68.06086, -21.77356], [-68.06094, -21.77717], [-68.05977, -21.77896], [-68.06008, -21.78446], [-68.05966, -21.78617], [-68.06083, -21.79137], [-68.06153, -21.79214], [-68.0613, -21.79413], [-68.06276, -21.85261], [-68.0713, -21.98166], [-68.07111, -21.98212], [-68.19283, -21.90586], [-68.34025, -21.88926], [-68.33866, -21.88447], [-68.34309, -21.88379], [-68.31959, -21.7803], [-68.31163, -21.6926], [-68.36346, -21.66455], [-68.39535, -21.65314], [-68.44998, -21.60475], [-68.52191, -21.54637], [-68.50565, -21.40504], [-68.50291, -21.39165], [-68.5146, -21.27826], [-68.4679, -21.22074], [-68.53266, -21.06616], [-68.53552, -21.06416]]]}}]}