{"type": "FeatureCollection", "crs": {"type": "name", "properties": {"name": "urn:ogc:def:crs:OGC:1.3:CRS84"}}, "features": [{"type": "Feature", "properties": {"cod_comuna": "02101", "nombre_comuna": "Antofagasta", "nombre_provincia": "Antofagasta", "nombre_region": "Región de Antofagasta"}, "geometry": {"type": "MultiPolygon", "coordinates": [[[[-70.60711, -23.43041], [-70.60717, -23.43131], [-70.60222, -23.43521], [-70.60201, -23.43887], [-70.60434, -23.44023], [-70.60539, -23.44212], [-70.60685, -23.44315], [-70.6078, -23.44528], [-70.60969, -23.44782], [-70.61071, -23.44705], [-70.61058, -23.44534], [-70.61154, -23.44357], [-70.61101, -23.44239], [-70.61403, -23.44108], [-70.61508, -23.4424], [-70.61632, -23.44281], [-70.61645, -23.44067], [-70.61468, -23.43936], [-70.61606, -23.43849], [-70.61697, -23.43658], [-70.61603, -23.43573], [-70.61386, -23.43519], [-70.61232, -23.43563], [-70.61106, -23.43408], [-70.61192, -23.4325], [-70.61055, -23.42999], [-70.60943, -23.43062], [-70.60772, -23.42979], [-70.60711, -23.43041]]], [[[-70.60639, -23.3593], [-70.57839, -23.35977], [-70.55141, -23.36237], [-70.51927, -23.35001], [-70.47438, -23.33146], [-70.44694, -23.32048], [-70.39926, -23.29683], [-70.38114, -23.30237], [-70.18528, -23.34442], [-70.18797, -23.34334], [-70.18833, -23.34106], [-70.18708, -23.33965], [-70.18508, -23.33867], [-70.18532, -23.33753], [-70.1841, -23.33518], [-70.18524, -23.33232], [-70.18684, -23.33142], [-70.18634, -23.32773], [-70.18422, -23.32763], [-70.1834, -23.32704], [-70.1832, -23.32535], [-70.18195, -23.32434], [-70.17991, -23.32371], [-70.17986, -23.31807], [-70.18092, -23.31729], [-70.18058, -23.31591], [-70.17792, -23.31253], [-70.17694, -23.31184], [-70.17306, -23.31178], [-70.17027, -23.31053], [-70.16686, -23.30407], [-70.16689, -23.30288], [-70.16582, -23.30141], [-70.16335, -23.29101], [-70.16075, -23.28537], [-70.15912, -23.28302], [-70.15229, -23.2771], [-70.14621, -23.26871], [-70.14227, -23.26175], [-70.13747, -23.25433], [-70.13563, -23.24881], [-70.13503, -23.2428], [-70.13418, -23.23995], [-70.13278, -23.23835], [-70.12883, -23.23516], [-70.12905, -23.23359], [-70.13265, -23.23152], [-70.13121, -23.22996], [-70.1318, -23.22808], [-70.1339, -23.22748], [-70.13512, -23.22613], [-70.13494, -23.22488], [-70.13231, -23.22228], [-70.13008, -23.21934], [-70.12914, -23.21567], [-70.12933, -23.21266], [-70.13061, -23.21035], [-70.13065, -23.20856], [-70.13243, -23.20724], [-70.13284, -23.20596], [-70.13184, -23.20458], [-70.13218, -23.20345], [-70.13086, -23.20283], [-70.12895, -23.20464], [-70.12507, -23.20536], [-70.12115, -23.20759], [-70.11978, -23.20712], [-70.11934, -23.20367], [-70.11764, -23.20208], [-70.11846, -23.20038], [-70.1178, -23.19901], [-70.11135, -23.19475], [-70.10947, -23.19274], [-70.10693, -23.18873], [-70.10684, -23.18738], [-70.10324, -23.18268], [-70.10117, -23.18243], [-70.09963, -23.18315], [-70.09747, -23.18582], [-70.09603, -23.18676], [-70.09597, -23.18867], [-70.0944, -23.18967], [-70.09199, -23.18901], [-70.09011, -23.18695], [-70.08848, -23.18419], [-70.08269, -23.17648], [-70.07998, -23.1756], [-70.07786, -23.17316], [-70.07395, -23.16596], [-70.07113, -23.15418], [-70.0694, -23.15249], [-70.06621, -23.15123], [-70.06467, -23.15117], [-70.06295, -23.14888], [-70.06207, -23.14653], [-70.06069, -23.14588], [-70.05941, -23.14387], [-70.05869, -23.14171], [-70.05841, -23.13698], [-70.05853, -23.13043], [-70.05728, -23.1258], [-70.05506, -23.1231], [-70.05343, -23.12229], [-70.05139, -23.11894], [-70.0513, -23.1148], [-70.04763, -23.10866], [-70.0461, -23.10697], [-70.04249, -23.10425], [-70.04199, -23.10349], [-70.04093, -23.09814], [-70.03795, -23.09394], [-70.03592, -23.09253], [-70.03388, -23.09209], [-70.03228, -23.09018], [-70.03297, -23.08532], [-70.03288, -23.08307], [-70.03516, -23.07652], [-70.03491, -23.07298], [-70.03379, -23.07251], [-70.03166, -23.06803], [-70.02953, -23.06443], [-70.02777, -23.06371], [-70.0221, -23.06384], [-70.01878, -23.06186], [-70.01681, -23.0618], [-70.01411, -23.06001], [-70.01376, -23.05793], [-69.9697, -23.32938], [-70.04771, -23.6234], [-69.60047, -23.62608], [-69.43811, -23.60416], [-69.34561, -23.66053], [-69.14522, -23.6665], [-69.08095, -23.68921], [-69.06679, -23.70097], [-68.87401, -23.8751], [-68.69855, -23.92313], [-68.51362, -23.96664], [-68.46183, -23.98453], [-68.34559, -23.99786], [-68.337, -24.00796], [-68.29278, -24.05387], [-68.11781, -24.23812], [-68.07548, -24.31423], [-68.06504, -24.32642], [-68.13234, -24.35193], [-68.2458, -24.39588], [-68.24587, -24.39915], [-68.24712, -24.40045], [-68.24926, -24.40141], [-68.25441, -24.402], [-68.25604, -24.40151], [-68.25847, -24.40173], [-68.26045, -24.40301], [-68.26241, -24.40539], [-68.2614, -24.40807], [-68.26282, -24.4117], [-68.26277, -24.41354], [-68.26175, -24.41509], [-68.26193, -24.41687], [-68.26271, -24.41806], [-68.26223, -24.41979], [-68.26342, -24.4224], [-68.26535, -24.425], [-68.26573, -24.42658], [-68.26518, -24.42775], [-68.26663, -24.43026], [-68.26782, -24.43537], [-68.2707, -24.43611], [-68.27163, -24.43751], [-68.27609, -24.43977], [-68.27853, -24.44257], [-68.28299, -24.44489], [-68.28537, -24.44537], [-68.28893, -24.44894], [-68.2902, -24.45207], [-68.29132, -24.45261], [-68.295, -24.45304], [-68.29683, -24.45508], [-68.29841, -24.46017], [-68.30014, -24.46214], [-68.29961, -24.46593], [-68.29983, -24.46786], [-68.30094, -24.46965], [-68.30257, -24.47364], [-68.30476, -24.47582], [-68.30567, -24.48154], [-68.3066, -24.48227], [-68.30979, -24.48355], [-68.31031, -24.48479], [-68.30977, -24.48994], [-68.31059, -24.49061], [-68.31467, -24.49105], [-68.32146, -24.48944], [-68.32368, -24.48983], [-68.32768, -24.48978], [-68.3307, -24.49048], [-68.33232, -24.49154], [-68.33635, -24.49093], [-68.34266, -24.49183], [-68.35455, -24.49064], [-68.35806, -24.48933], [-68.36038, -24.48939], [-68.36187, -24.49052], [-68.36586, -24.49236], [-68.36818, -24.49105], [-68.3724, -24.49153], [-68.37543, -24.49248], [-68.37746, -24.49064], [-68.379, -24.49016], [-68.38055, -24.48879], [-68.38309, -24.48778], [-68.38507, -24.48534], [-68.38724, -24.48576], [-68.39039, -24.48982], [-68.39181, -24.49285], [-68.39187, -24.49651], [-68.39344, -24.49823], [-68.39326, -24.50315], [-68.39476, -24.50611], [-68.39732, -24.50806], [-68.40097, -24.50954], [-68.40265, -24.511], [-68.40297, -24.51297], [-68.40387, -24.51425], [-68.40518, -24.51857], [-68.4045, -24.52025], [-68.40318, -24.52157], [-68.40222, -24.52364], [-68.4025, -24.52567], [-68.40358, -24.52807], [-68.40597, -24.53078], [-68.407, -24.53137], [-68.40922, -24.53563], [-68.40975, -24.53816], [-68.41085, -24.54004], [-68.413, -24.54179], [-68.41406, -24.54545], [-68.41409, -24.54753], [-68.41597, -24.55146], [-68.41706, -24.55194], [-68.41779, -24.55577], [-68.41939, -24.55982], [-68.41933, -24.56273], [-68.41993, -24.56434], [-68.42271, -24.56643], [-68.42396, -24.56947], [-68.42531, -24.57118], [-68.42785, -24.5735], [-68.43059, -24.57714], [-68.43138, -24.58032], [-68.43278, -24.58276], [-68.43304, -24.5868], [-68.4325, -24.59128], [-68.43147, -24.59226], [-68.43246, -24.59432], [-68.43302, -24.59795], [-68.43583, -24.59969], [-68.43635, -24.60146], [-68.43556, -24.60288], [-68.43361, -24.60414], [-68.43325, -24.60574], [-68.43424, -24.60648], [-68.43613, -24.6057], [-68.43977, -24.6048], [-68.44699, -24.60176], [-68.44905, -24.60184], [-68.45056, -24.60253], [-68.45169, -24.60409], [-68.45415, -24.61034], [-68.45437, -24.61597], [-68.45615, -24.61869], [-68.45808, -24.61919], [-68.46058, -24.62211], [-68.46247, -24.62272], [-68.46775, -24.62283], [-68.47079, -24.62139], [-68.47492, -24.62108], [-68.47749, -24.61558], [-68.47965, -24.61223], [-68.48221, -24.6102], [-68.48292, -24.608], [-68.48417, -24.60675], [-68.48501, -24.60491], [-68.48536, -24.60229], [-68.48733, -24.60009], [-68.48917, -24.59938], [-68.49429, -24.59902], [-68.49512, -24.59997], [-68.49482, -24.60199], [-68.49399, -24.60283], [-68.4939, -24.60469], [-68.49491, -24.6073], [-68.49896, -24.61111], [-68.5017, -24.61666], [-68.50122, -24.61883], [-68.49937, -24.62329], [-68.49705, -24.62597], [-68.49798, -24.62843], [-68.49588, -24.62986], [-68.49484, -24.63218], [-68.49491, -24.63464], [-68.49332, -24.63666], [-68.49018, -24.63818], [-68.4866, -24.63904], [-68.48645, -24.64356], [-68.48684, -24.64541], [-68.48988, -24.65054], [-68.49187, -24.65237], [-68.4933, -24.65491], [-68.49262, -24.65855], [-68.4913, -24.6628], [-68.4918, -24.66433], [-68.49571, -24.66957], [-68.49637, -24.67445], [-68.49684, -24.67534], [-68.49934, -24.67635], [-68.50244, -24.67659], [-68.50363, -24.6782], [-68.50434, -24.68052], [-68.50465, -24.68428], [-68.50625, -24.68707], [-68.50945, -24.69099], [-68.5151, -24.6995], [-68.51546, -24.703], [-68.51929, -24.70664], [-68.52183, -24.7081], [-68.52339, -24.70955], [-68.52692, -24.71102], [-68.53038, -24.71109], [-68.53324, -24.71169], [-68.53432, -24.71258], [-68.53659, -24.71773], [-68.53664, -24.72061], [-68.53759, -24.72112], [-68.54063, -24.7214], [-68.54134, -24.72365], [-68.54299, -24.72545], [-68.54393, -24.73025], [-68.54391, -24.73444], [-68.5433, -24.73646], [-68.54352, -24.73818], [-68.5453, -24.74457], [-68.54555, -24.75417], [-68.55059, -24.75715], [-68.5521, -24.75839], [-68.55476, -24.75956], [-68.55676, -24.75977], [-68.5615, -24.76301], [-68.56165, -24.76511], [-68.56084, -24.76789], [-68.56083, -24.77408], [-68.56115, -24.77551], [-68.56079, -24.77865], [-68.56154, -24.78065], [-68.56201, -24.78383], [-68.56465, -24.78925], [-68.5677, -24.79169], [-68.56833, -24.79366], [-68.56809, -24.79555], [-68.56648, -24.79599], [-68.56208, -24.79888], [-68.56216, -24.80202], [-68.56036, -24.80346], [-68.55624, -24.80329], [-68.55363, -24.80381], [-68.54992, -24.8055], [-68.54766, -24.8071], [-68.54731, -24.80934], [-68.54643, -24.81043], [-68.54444, -24.81133], [-68.54064, -24.81479], [-68.53929, -24.81651], [-68.53763, -24.82206], [-68.53769, -24.82487], [-68.53495, -24.82605], [-68.53447, -24.82811], [-68.53624, -24.83201], [-68.53629, -24.83302], [-68.53406, -24.83472], [-68.53311, -24.83864], [-68.53306, -24.84137], [-68.5352, -24.84336], [-68.53535, -24.8459], [-68.53335, -24.84804], [-68.53308, -24.85087], [-68.5321, -24.85318], [-68.53338, -24.85521], [-68.53292, -24.85657], [-68.52949, -24.85685], [-68.52682, -24.85959], [-68.52518, -24.86062], [-68.52397, -24.86234], [-68.52205, -24.86822], [-68.52027, -24.8702], [-68.51989, -24.87297], [-68.51871, -24.87416], [-68.51656, -24.87469], [-68.51322, -24.87416], [-68.51075, -24.87509], [-68.50756, -24.87555], [-68.50472, -24.87556], [-68.50275, -24.87458], [-68.50037, -24.87509], [-68.49735, -24.87646], [-68.49452, -24.87522], [-68.49262, -24.87522], [-68.49107, -24.87652], [-68.4903, -24.88098], [-68.48698, -24.88284], [-68.48641, -24.88369], [-68.48794, -24.88714], [-68.4868, -24.8884], [-68.48591, -24.89122], [-68.4863, -24.89326], [-68.48602, -24.89526], [-68.4837, -24.89705], [-68.48215, -24.89746], [-68.48096, -24.89639], [-68.47769, -24.89865], [-68.47495, -24.89895], [-68.47131, -24.90054], [-68.46853, -24.90083], [-68.46252, -24.90068], [-68.45996, -24.90204], [-68.4529, -24.90293], [-68.44765, -24.90179], [-68.44592, -24.90204], [-68.44427, -24.90471], [-68.44087, -24.90615], [-68.43647, -24.90579], [-68.43341, -24.90482], [-68.43141, -24.90603], [-68.4323, -24.90764], [-68.43066, -24.91364], [-68.43379, -24.91442], [-68.43539, -24.91632], [-68.43771, -24.91787], [-68.4387, -24.91933], [-68.43516, -24.92405], [-68.43448, -24.92606], [-68.43316, -24.92774], [-68.4307, -24.92934], [-68.42998, -24.9306], [-68.43, -24.93432], [-68.42845, -24.94066], [-68.42784, -24.94165], [-68.42757, -24.94481], [-68.42831, -24.95256], [-68.42826, -24.95701], [-68.42677, -24.95933], [-68.42677, -24.96135], [-68.42506, -24.96229], [-68.42316, -24.96257], [-68.4217, -24.96182], [-68.42016, -24.96186], [-68.41834, -24.96327], [-68.41698, -24.96495], [-68.41107, -24.96905], [-68.41102, -24.96961], [-68.40809, -24.97188], [-68.40814, -24.97342], [-68.41021, -24.97849], [-68.4122, -24.98199], [-68.41333, -24.98592], [-68.41343, -24.98978], [-68.41523, -24.99163], [-68.41606, -24.99353], [-68.4157, -24.99603], [-68.4141, -24.99764], [-68.41314, -25.00026], [-68.41438, -25.0013], [-68.41506, -25.00333], [-68.41374, -25.00829], [-68.4123, -25.00878], [-68.41275, -25.01406], [-68.41272, -25.01954], [-68.40301, -25.03148], [-68.39743, -25.03269], [-68.38802, -25.03788], [-68.38196, -25.03709], [-68.37798, -25.03369], [-68.37435, -25.03583], [-68.37378, -25.04081], [-68.36993, -25.04478], [-68.36719, -25.04526], [-68.36435, -25.04923], [-68.36491, -25.05278], [-68.36632, -25.05677], [-68.37056, -25.06008], [-68.37147, -25.06422], [-68.36926, -25.06969], [-68.36588, -25.07652], [-68.36614, -25.0808], [-68.36099, -25.08162], [-68.35825, -25.08417], [-68.35882, -25.08823], [-68.35586, -25.09425], [-68.35586, -25.09657], [-68.35663, -25.09799], [-68.35634, -25.09978], [-68.35521, -25.10067], [-68.35463, -25.10286], [-68.35026, -25.10511], [-68.3485, -25.10887], [-68.34741, -25.11001], [-68.34551, -25.11072], [-68.34327, -25.11064], [-68.40855, -25.14451], [-68.41274, -25.14291], [-68.41491, -25.14098], [-68.41847, -25.13884], [-68.4235, -25.13403], [-68.42353, -25.13111], [-68.42867, -25.13077], [-68.43331, -25.13119], [-68.43403, -25.12857], [-68.43528, -25.12649], [-68.43682, -25.1253], [-68.43626, -25.1237], [-68.43661, -25.12255], [-68.43901, -25.12236], [-68.4398, -25.1228], [-68.44037, -25.12561], [-68.44009, -25.12726], [-68.44343, -25.12922], [-68.44176, -25.13166], [-68.44402, -25.13368], [-68.44676, -25.13097], [-68.44847, -25.12993], [-68.4558, -25.12875], [-68.4571, -25.12557], [-68.46014, -25.12738], [-68.46239, -25.12947], [-68.46496, -25.13079], [-68.46503, -25.13325], [-68.46649, -25.1355], [-68.46674, -25.13785], [-68.46829, -25.13969], [-68.46774, -25.1425], [-68.4696, -25.14439], [-68.4691, -25.14603], [-68.46964, -25.14806], [-68.47175, -25.15009], [-68.47221, -25.15106], [-68.47413, -25.15238], [-68.47593, -25.15253], [-68.48033, -25.15389], [-68.48273, -25.15394], [-68.4834, -25.15712], [-68.48459, -25.15843], [-68.48626, -25.15932], [-68.48693, -25.16274], [-68.48917, -25.16283], [-68.49369, -25.16159], [-68.49875, -25.16129], [-68.50116, -25.16231], [-68.50512, -25.1652], [-68.50731, -25.16808], [-68.5081, -25.17263], [-68.50805, -25.18459], [-68.50761, -25.18591], [-68.50795, -25.1948], [-68.50875, -25.19708], [-68.50835, -25.20019], [-68.50676, -25.20295], [-68.5053, -25.20894], [-68.50398, -25.21074], [-68.50437, -25.21271], [-68.50636, -25.21715], [-68.50424, -25.21823], [-68.50345, -25.22098], [-68.50654, -25.22455], [-68.51001, -25.22738], [-68.50865, -25.23148], [-68.50898, -25.23255], [-68.51065, -25.23422], [-68.51237, -25.23356], [-68.51474, -25.23166], [-68.52141, -25.23243], [-68.52468, -25.23098], [-68.52718, -25.2313], [-68.52691, -25.23353], [-68.52897, -25.23541], [-68.53141, -25.23559], [-68.53574, -25.23731], [-68.53658, -25.23907], [-68.53634, -25.24058], [-68.53467, -25.24225], [-68.53583, -25.24475], [-68.53506, -25.24603], [-68.53539, -25.2473], [-68.53744, -25.24805], [-68.54012, -25.2501], [-68.54107, -25.25153], [-68.54342, -25.25081], [-68.54407, -25.25272], [-68.54368, -25.25557], [-68.54404, -25.25932], [-68.54288, -25.25998], [-68.54431, -25.26158], [-68.54652, -25.26158], [-68.54981, -25.26088], [-68.54967, -25.26278], [-68.548, -25.26524], [-68.54502, -25.26738], [-68.5437, -25.26972], [-68.54321, -25.27175], [-68.54177, -25.27289], [-68.54251, -25.27464], [-68.54211, -25.27573], [-68.53726, -25.28014], [-68.53304, -25.28237], [-68.53188, -25.28752], [-68.52939, -25.28846], [-68.52903, -25.29001], [-68.53009, -25.29131], [-68.53232, -25.29237], [-68.53593, -25.29337], [-68.5371, -25.29472], [-68.53863, -25.29784], [-68.54053, -25.2986], [-68.54455, -25.29857], [-68.55063, -25.30007], [-68.55357, -25.30134], [-68.55731, -25.30166], [-68.55926, -25.30053], [-68.56487, -25.29371], [-68.57114, -25.28931], [-68.57432, -25.28892], [-68.57615, -25.28823], [-68.57634, -25.28698], [-68.57872, -25.28584], [-68.5819, -25.28659], [-68.58601, -25.2895], [-68.58751, -25.29008], [-68.58745, -25.29121], [-68.58626, -25.29293], [-68.58642, -25.29493], [-68.58829, -25.29704], [-68.58888, -25.29839], [-68.58846, -25.29965], [-68.58924, -25.30066], [-68.59453, -25.30293], [-68.59602, -25.30185], [-68.59717, -25.29664], [-68.59858, -25.2944], [-68.59991, -25.29334], [-68.60203, -25.29393], [-68.60328, -25.29532], [-68.60481, -25.29592], [-68.60884, -25.29671], [-68.61196, -25.2983], [-68.61428, -25.30031], [-68.61476, -25.30263], [-68.61824, -25.30321], [-68.62398, -25.30721], [-68.62623, -25.30768], [-68.62826, -25.30899], [-68.63338, -25.3106], [-68.63623, -25.31328], [-68.63778, -25.31322], [-68.6417, -25.31054], [-68.64908, -25.30394], [-68.65051, -25.30334], [-68.65479, -25.30287], [-68.65741, -25.30352], [-68.65896, -25.30441], [-68.66151, -25.30689], [-68.66253, -25.30995], [-68.66398, -25.31221], [-68.66626, -25.3146], [-68.66764, -25.31763], [-68.66831, -25.32036], [-68.67178, -25.32617], [-68.67097, -25.32801], [-68.67295, -25.33296], [-68.67057, -25.33846], [-68.6701, -25.34209], [-68.66829, -25.34503], [-68.66889, -25.34709], [-68.6708, -25.34899], [-68.67382, -25.34994], [-68.67477, -25.3519], [-68.67466, -25.35515], [-68.67382, -25.3584], [-68.67203, -25.35986], [-68.67319, -25.36176], [-68.67508, -25.36219], [-68.67738, -25.36193], [-68.67959, -25.36109], [-68.68121, -25.36254], [-68.68062, -25.36448], [-68.68224, -25.36925], [-68.6848, -25.36977], [-68.68822, -25.36872], [-68.69016, -25.36695], [-68.69544, -25.36463], [-68.69902, -25.36546], [-68.70053, -25.36843], [-68.70685, -25.37263], [-68.70942, -25.37572], [-68.71163, -25.37774], [-68.71483, -25.37858], [-68.71626, -25.38001], [-68.71905, -25.38544], [-68.72275, -25.38777], [-68.72491, -25.39034], [-68.72693, -25.39032], [-68.73111, -25.38747], [-68.73291, -25.38567], [-68.74064, -25.38217], [-68.74436, -25.38096], [-68.74752, -25.38073], [-68.74959, -25.38136], [-68.75126, -25.38442], [-68.75645, -25.39029], [-68.75919, -25.392], [-68.76497, -25.39664], [-68.76807, -25.39797], [-68.77717, -25.40006], [-68.78063, -25.4023], [-68.78276, -25.40296], [-68.78477, -25.4016], [-68.78779, -25.39837], [-68.78979, -25.39551], [-68.79053, -25.39151], [-68.79151, -25.38865], [-68.79396, -25.38669], [-68.79626, -25.38583], [-68.79869, -25.38559], [-68.80072, -25.3847], [-68.80229, -25.38217], [-68.80411, -25.38049], [-68.80937, -25.37902], [-68.81207, -25.37897], [-68.8169, -25.37998], [-68.81847, -25.37931], [-68.81914, -25.37645], [-68.8193, -25.37144], [-68.82175, -25.37017], [-68.82618, -25.36971], [-68.83011, -25.37154], [-68.83647, -25.37736], [-68.847, -25.38148], [-68.85689, -25.38124], [-68.86593, -25.37965], [-68.87243, -25.37801], [-68.88022, -25.37512], [-68.88399, -25.37511], [-68.88628, -25.37668], [-68.89398, -25.3769], [-68.89731, -25.37627], [-68.90456, -25.37557], [-68.90933, -25.37596], [-68.91078, -25.37552], [-68.9176, -25.37722], [-68.91927, -25.37791], [-68.92369, -25.38211], [-68.92499, -25.38299], [-68.92984, -25.38351], [-68.93525, -25.38316], [-68.93836, -25.38353], [-68.94078, -25.3845], [-68.94532, -25.38696], [-68.94702, -25.38579], [-68.95072, -25.385], [-68.95713, -25.38987], [-68.96117, -25.3904], [-68.96282, -25.38541], [-68.9645, -25.38388], [-68.96816, -25.38318], [-68.97088, -25.3779], [-68.97211, -25.37735], [-68.98418, -25.3755], [-68.98742, -25.37685], [-68.98817, -25.37801], [-68.98863, -25.38016], [-68.99522, -25.37792], [-68.99823, -25.37769], [-69.00091, -25.37577], [-69.0022, -25.37551], [-69.0055, -25.37635], [-69.00678, -25.37557], [-69.00912, -25.37303], [-69.01359, -25.36702], [-69.01788, -25.36223], [-69.02156, -25.35887], [-69.02538, -25.35633], [-69.02899, -25.35236], [-69.03182, -25.34762], [-69.03711, -25.34456], [-69.04504, -25.34118], [-69.05121, -25.33943], [-69.05693, -25.3385], [-69.06404, -25.33826], [-69.0673, -25.33873], [-69.07068, -25.34036], [-69.0743, -25.34118], [-69.08257, -25.34176], [-69.08654, -25.34269], [-69.09202, -25.34316], [-69.09462, -25.34287], [-69.09576, -25.34152], [-69.09876, -25.33967], [-69.10211, -25.33684], [-69.10273, -25.33592], [-69.10321, -25.33314], [-69.10639, -25.32882], [-69.10811, -25.3256], [-69.11138, -25.32171], [-69.11424, -25.32043], [-69.11592, -25.31814], [-69.11976, -25.30835], [-69.12245, -25.30495], [-69.12399, -25.30416], [-69.1277, -25.30305], [-69.13352, -25.30222], [-69.13696, -25.30129], [-69.14274, -25.29904], [-69.14852, -25.29798], [-69.15192, -25.2967], [-69.15403, -25.29489], [-69.15862, -25.29313], [-69.16444, -25.29286], [-69.16674, -25.29066], [-69.16714, -25.28845], [-69.16939, -25.28669], [-69.17411, -25.28457], [-69.17691, -25.28488], [-69.17827, -25.28384], [-69.17952, -25.28094], [-69.18031, -25.27702], [-69.18363, -25.26856], [-69.18478, -25.26664], [-69.18633, -25.26518], [-69.18727, -25.26263], [-69.18758, -25.25992], [-69.18961, -25.25282], [-69.19052, -25.25101], [-69.19211, -25.24403], [-69.19534, -25.23948], [-69.19599, -25.23786], [-69.20424, -25.22919], [-69.20832, -25.22831], [-69.21047, -25.22843], [-69.21312, -25.23074], [-69.2216, -25.23626], [-69.22302, -25.23514], [-69.22296, -25.23296], [-69.22057, -25.22088], [-69.21739, -25.21244], [-69.21805, -25.20628], [-69.21869, -25.20404], [-69.21915, -25.20006], [-69.22028, -25.1974], [-69.22219, -25.19534], [-69.22826, -25.19321], [-69.23301, -25.18903], [-69.23553, -25.18606], [-69.23926, -25.18391], [-69.24556, -25.17608], [-69.24748, -25.16978], [-69.24658, -25.16664], [-69.24593, -25.16096], [-69.24285, -25.15418], [-69.24017, -25.1505], [-69.2379, -25.14831], [-69.23351, -25.1395], [-69.23061, -25.13219], [-69.22872, -25.12982], [-69.22596, -25.12827], [-69.22368, -25.12763], [-69.22218, -25.12599], [-69.21988, -25.12236], [-69.21518, -25.11849], [-69.21322, -25.11595], [-69.21122, -25.11409], [-69.20906, -25.11104], [-69.20717, -25.10636], [-69.20691, -25.10361], [-69.20592, -25.09932], [-69.20645, -25.09781], [-69.20663, -25.09499], [-69.20895, -25.0919], [-69.20748, -25.08383], [-69.20503, -25.07934], [-69.19891, -25.07187], [-69.19752, -25.06903], [-69.18962, -25.05862], [-69.18886, -25.0561], [-69.18298, -25.04536], [-69.18237, -25.04113], [-69.18147, -25.03809], [-69.18142, -25.03597], [-69.1784, -25.02861], [-69.17621, -25.02429], [-69.1727, -25.02017], [-69.17134, -25.01641], [-69.16917, -25.0126], [-69.16834, -25.00969], [-69.16811, -25.00585], [-69.16865, -25.005], [-69.16919, -25.00125], [-69.16848, -24.99425], [-69.16876, -24.99103], [-69.16518, -24.98146], [-69.16014, -24.96583], [-69.15717, -24.95277], [-69.15249, -24.94674], [-69.1472, -24.94219], [-69.13268, -24.93869], [-69.12809, -24.93617], [-69.12417, -24.92798], [-69.11947, -24.92062], [-69.12168, -24.91378], [-69.12549, -24.90576], [-69.1247, -24.90022], [-69.12044, -24.89305], [-69.11416, -24.88353], [-69.11577, -24.87345], [-69.11951, -24.86791], [-69.12198, -24.86302], [-69.12748, -24.85527], [-69.13286, -24.84326], [-69.13704, -24.82894], [-69.13575, -24.82109], [-69.13545, -24.81142], [-69.1376, -24.80877], [-69.14011, -24.80704], [-69.14032, -24.79262], [-69.14095, -24.78159], [-69.14139, -24.77936], [-69.14822, -24.77573], [-69.14795, -24.76756], [-69.14968, -24.75719], [-69.15631, -24.74505], [-69.15491, -24.7392], [-69.15541, -24.73019], [-69.15834, -24.72647], [-69.16089, -24.72066], [-69.16308, -24.7168], [-69.16512, -24.7157], [-69.16931, -24.71183], [-69.17028, -24.70875], [-69.16964, -24.70465], [-69.168, -24.70048], [-69.16762, -24.69822], [-69.17368, -24.68396], [-69.17959, -24.68416], [-70.38919, -24.6286], [-70.40677, -24.62749], [-70.49188, -24.58965], [-70.57899, -24.54925], [-70.57972, -24.54816], [-70.57836, -24.54745], [-70.57907, -24.54346], [-70.57605, -24.54206], [-70.57517, -24.54069], [-70.57522, -24.53743], [-70.57657, -24.53646], [-70.57711, -24.53412], [-70.57498, -24.53089], [-70.57498, -24.52848], [-70.57189, -24.52775], [-70.5694, -24.52519], [-70.56825, -24.52458], [-70.56689, -24.52068], [-70.56509, -24.51888], [-70.56476, -24.51755], [-70.56511, -24.51374], [-70.56571, -24.51207], [-70.56803, -24.50937], [-70.57001, -24.50925], [-70.57212, -24.51033], [-70.57257, -24.50875], [-70.57063, -24.50872], [-70.57005, -24.50767], [-70.56773, -24.50622], [-70.56543, -24.50344], [-70.56405, -24.50231], [-70.56228, -24.50209], [-70.56081, -24.50327], [-70.55906, -24.50295], [-70.55779, -24.50054], [-70.5561, -24.49962], [-70.55573, -24.49763], [-70.55609, -24.49615], [-70.55471, -24.49569], [-70.55524, -24.49432], [-70.55458, -24.49282], [-70.55456, -24.49032], [-70.55654, -24.48297], [-70.55859, -24.48176], [-70.56164, -24.48115], [-70.56116, -24.48021], [-70.56188, -24.47822], [-70.56295, -24.47734], [-70.56134, -24.47588], [-70.56127, -24.47334], [-70.56328, -24.47433], [-70.56347, -24.47257], [-70.56263, -24.47156], [-70.56213, -24.46912], [-70.56111, -24.46718], [-70.56006, -24.46637], [-70.5571, -24.46746], [-70.55671, -24.46555], [-70.55428, -24.46304], [-70.55383, -24.46085], [-70.55449, -24.4595], [-70.55365, -24.45856], [-70.55378, -24.45636], [-70.55438, -24.45492], [-70.55421, -24.45339], [-70.555, -24.45188], [-70.55362, -24.45012], [-70.55201, -24.44641], [-70.55059, -24.44528], [-70.55093, -24.44322], [-70.54825, -24.44167], [-70.54746, -24.43941], [-70.54883, -24.4362], [-70.54855, -24.43448], [-70.54664, -24.4322], [-70.54778, -24.43152], [-70.54714, -24.43034], [-70.54498, -24.42869], [-70.54225, -24.42539], [-70.54196, -24.42243], [-70.54219, -24.42014], [-70.54347, -24.41831], [-70.54319, -24.41616], [-70.54112, -24.41231], [-70.54147, -24.40927], [-70.54457, -24.40245], [-70.54614, -24.40213], [-70.54757, -24.40074], [-70.54867, -24.39818], [-70.54877, -24.39553], [-70.54693, -24.39112], [-70.54725, -24.38989], [-70.54641, -24.38814], [-70.54724, -24.38534], [-70.5502, -24.38068], [-70.55197, -24.38021], [-70.55229, -24.37708], [-70.55418, -24.37714], [-70.55668, -24.37494], [-70.55521, -24.37229], [-70.55523, -24.37093], [-70.55338, -24.37072], [-70.55142, -24.37288], [-70.5495, -24.373], [-70.54706, -24.36987], [-70.54576, -24.37012], [-70.54427, -24.36837], [-70.54331, -24.36642], [-70.54209, -24.36206], [-70.54093, -24.3614], [-70.54048, -24.35887], [-70.54086, -24.35586], [-70.54037, -24.35372], [-70.54087, -24.35209], [-70.54097, -24.34948], [-70.54203, -24.3467], [-70.54611, -24.3393], [-70.54851, -24.33734], [-70.54983, -24.33374], [-70.54933, -24.33117], [-70.54918, -24.32816], [-70.54762, -24.32784], [-70.54536, -24.32633], [-70.54274, -24.32531], [-70.54201, -24.32333], [-70.54336, -24.32313], [-70.54136, -24.32114], [-70.53939, -24.31839], [-70.53814, -24.31826], [-70.5357, -24.31489], [-70.53542, -24.31284], [-70.53354, -24.31045], [-70.53376, -24.30715], [-70.53204, -24.30373], [-70.53181, -24.30243], [-70.5328, -24.30104], [-70.5323, -24.2987], [-70.53388, -24.29558], [-70.53366, -24.29472], [-70.53452, -24.29252], [-70.53332, -24.2921], [-70.53147, -24.29002], [-70.53108, -24.28792], [-70.52766, -24.27914], [-70.5283, -24.27578], [-70.53062, -24.27371], [-70.53159, -24.27174], [-70.53428, -24.27023], [-70.53448, -24.26937], [-70.533, -24.26771], [-70.53435, -24.26566], [-70.53434, -24.26437], [-70.53312, -24.26305], [-70.53119, -24.26273], [-70.52967, -24.2616], [-70.53002, -24.26083], [-70.52896, -24.25893], [-70.52941, -24.25769], [-70.53282, -24.25512], [-70.5333, -24.25351], [-70.53218, -24.25209], [-70.53248, -24.25089], [-70.53505, -24.248], [-70.53326, -24.2464], [-70.5325, -24.24397], [-70.5315, -24.24312], [-70.52979, -24.24337], [-70.52699, -24.24522], [-70.52353, -24.24339], [-70.52134, -24.24317], [-70.51996, -24.23891], [-70.52085, -24.23508], [-70.52235, -24.23391], [-70.52117, -24.23068], [-70.52297, -24.22681], [-70.52085, -24.22387], [-70.51881, -24.21849], [-70.51847, -24.21455], [-70.51891, -24.21197], [-70.52048, -24.20794], [-70.51854, -24.20676], [-70.51842, -24.20557], [-70.51706, -24.20534], [-70.51616, -24.20425], [-70.5135, -24.20262], [-70.51068, -24.19926], [-70.5108, -24.19809], [-70.51203, -24.19685], [-70.51451, -24.19664], [-70.51691, -24.19505], [-70.51689, -24.19285], [-70.51822, -24.19107], [-70.521, -24.19011], [-70.52208, -24.18933], [-70.52121, -24.18595], [-70.51977, -24.18315], [-70.51766, -24.18078], [-70.5124, -24.18136], [-70.5087, -24.18053], [-70.50734, -24.18078], [-70.50426, -24.17991], [-70.503, -24.17863], [-70.50338, -24.17595], [-70.50268, -24.1739], [-70.50279, -24.16998], [-70.50314, -24.16835], [-70.50243, -24.16616], [-70.50297, -24.1632], [-70.5067, -24.16101], [-70.50815, -24.15853], [-70.51223, -24.15591], [-70.51242, -24.15414], [-70.51324, -24.15308], [-70.51495, -24.15254], [-70.5141, -24.15088], [-70.5144, -24.14973], [-70.51269, -24.14621], [-70.5136, -24.144], [-70.51479, -24.1427], [-70.5145, -24.14012], [-70.51645, -24.13786], [-70.51527, -24.13519], [-70.51666, -24.13417], [-70.51705, -24.13164], [-70.51887, -24.13176], [-70.51902, -24.13042], [-70.518, -24.12862], [-70.51934, -24.12693], [-70.52135, -24.12534], [-70.52151, -24.12302], [-70.52013, -24.12126], [-70.51732, -24.121], [-70.51368, -24.12195], [-70.51025, -24.12184], [-70.50538, -24.12021], [-70.50422, -24.11889], [-70.50386, -24.11454], [-70.50254, -24.11331], [-70.50179, -24.11122], [-70.50087, -24.11063], [-70.49938, -24.10797], [-70.49905, -24.1063], [-70.5012, -24.10332], [-70.50118, -24.1016], [-70.50215, -24.09915], [-70.49991, -24.097], [-70.49937, -24.09538], [-70.50029, -24.09389], [-70.4986, -24.09185], [-70.49878, -24.08927], [-70.49959, -24.08778], [-70.49858, -24.08573], [-70.49908, -24.08198], [-70.49828, -24.07998], [-70.49947, -24.0792], [-70.49992, -24.07752], [-70.50121, -24.07723], [-70.5013, -24.07593], [-70.50284, -24.07434], [-70.50513, -24.07375], [-70.50534, -24.07195], [-70.50611, -24.07094], [-70.5064, -24.06874], [-70.50707, -24.06816], [-70.50864, -24.06509], [-70.51093, -24.06478], [-70.50971, -24.06316], [-70.50937, -24.06025], [-70.50985, -24.05917], [-70.50864, -24.05799], [-70.50951, -24.05655], [-70.50872, -24.05594], [-70.50802, -24.05389], [-70.50783, -24.05078], [-70.50833, -24.04911], [-70.50973, -24.04885], [-70.50981, -24.04467], [-70.51056, -24.04218], [-70.5096, -24.04028], [-70.50982, -24.03679], [-70.50871, -24.03257], [-70.5095, -24.02931], [-70.511, -24.02834], [-70.5116, -24.02671], [-70.51294, -24.02512], [-70.5158, -24.02495], [-70.51683, -24.02422], [-70.51731, -24.02186], [-70.51923, -24.02151], [-70.51974, -24.0204], [-70.51864, -24.01955], [-70.51798, -24.01665], [-70.51579, -24.01667], [-70.51459, -24.01615], [-70.5157, -24.01328], [-70.51458, -24.0108], [-70.51384, -24.00754], [-70.5144, -24.00638], [-70.51462, -24.00285], [-70.51362, -24.00185], [-70.51312, -24.00007], [-70.51163, -23.99775], [-70.51083, -23.99278], [-70.50962, -23.99093], [-70.50941, -23.98695], [-70.50767, -23.98507], [-70.50913, -23.98306], [-70.51024, -23.98294], [-70.51063, -23.97967], [-70.51174, -23.97965], [-70.51338, -23.97824], [-70.51496, -23.97515], [-70.51469, -23.97202], [-70.51552, -23.97016], [-70.51308, -23.96927], [-70.51159, -23.96583], [-70.51213, -23.96406], [-70.51187, -23.9628], [-70.51326, -23.96186], [-70.51256, -23.95786], [-70.51293, -23.95592], [-70.51281, -23.95356], [-70.51144, -23.95254], [-70.5103, -23.94766], [-70.50885, -23.94741], [-70.50769, -23.94479], [-70.50827, -23.94086], [-70.50944, -23.93992], [-70.51213, -23.93938], [-70.51228, -23.93537], [-70.51548, -23.93351], [-70.51486, -23.93133], [-70.51664, -23.93083], [-70.51622, -23.92704], [-70.51484, -23.92522], [-70.51064, -23.92588], [-70.50502, -23.92369], [-70.50219, -23.92069], [-70.50029, -23.92068], [-70.49958, -23.91902], [-70.49935, -23.9166], [-70.4983, -23.91588], [-70.49856, -23.91372], [-70.4958, -23.9108], [-70.49615, -23.90869], [-70.49503, -23.90534], [-70.49566, -23.90341], [-70.49593, -23.89975], [-70.49777, -23.89782], [-70.49937, -23.89473], [-70.49923, -23.89384], [-70.50086, -23.89069], [-70.50432, -23.88793], [-70.50389, -23.88635], [-70.50517, -23.88429], [-70.50923, -23.88201], [-70.51406, -23.88048], [-70.51373, -23.87789], [-70.51478, -23.87601], [-70.51306, -23.8746], [-70.51396, -23.87173], [-70.51592, -23.87112], [-70.51562, -23.86887], [-70.51665, -23.86607], [-70.52073, -23.86598], [-70.52246, -23.86723], [-70.52376, -23.86718], [-70.52614, -23.86413], [-70.52331, -23.8608], [-70.52329, -23.85811], [-70.51746, -23.85705], [-70.51543, -23.85414], [-70.5121, -23.85127], [-70.50877, -23.85154], [-70.50799, -23.85098], [-70.50565, -23.85091], [-70.50392, -23.84954], [-70.50493, -23.84704], [-70.50423, -23.84499], [-70.50276, -23.84324], [-70.50323, -23.83956], [-70.50288, -23.83863], [-70.50293, -23.83323], [-70.50114, -23.83119], [-70.5002, -23.83082], [-70.50083, -23.82737], [-70.50213, -23.82683], [-70.50286, -23.82532], [-70.50304, -23.82321], [-70.50447, -23.82095], [-70.50476, -23.8189], [-70.50589, -23.81764], [-70.50565, -23.81464], [-70.50711, -23.81273], [-70.5075, -23.81087], [-70.50639, -23.80959], [-70.50622, -23.8082], [-70.50485, -23.80607], [-70.5043, -23.80354], [-70.5048, -23.80234], [-70.50645, -23.80137], [-70.50639, -23.79809], [-70.50353, -23.79745], [-70.50288, -23.79574], [-70.50189, -23.79489], [-70.50223, -23.79269], [-70.50117, -23.79141], [-70.49848, -23.79177], [-70.49685, -23.79054], [-70.49492, -23.78999], [-70.4927, -23.79043], [-70.4921, -23.78898], [-70.49072, -23.78749], [-70.48871, -23.78446], [-70.4869, -23.78091], [-70.4862, -23.77756], [-70.4853, -23.77582], [-70.47928, -23.77462], [-70.47841, -23.7738], [-70.47493, -23.77392], [-70.47276, -23.77131], [-70.47265, -23.76911], [-70.47498, -23.76707], [-70.4754, -23.76522], [-70.47438, -23.76391], [-70.47227, -23.76239], [-70.47012, -23.76176], [-70.4698, -23.7599], [-70.46808, -23.75875], [-70.46734, -23.75758], [-70.4656, -23.75823], [-70.46358, -23.75991], [-70.46169, -23.75999], [-70.45885, -23.75904], [-70.45606, -23.75659], [-70.45591, -23.75574], [-70.45397, -23.75418], [-70.45384, -23.75316], [-70.45164, -23.75097], [-70.44707, -23.74945], [-70.44615, -23.74782], [-70.44591, -23.74552], [-70.44397, -23.73989], [-70.4413, -23.73634], [-70.4409, -23.73398], [-70.43915, -23.73295], [-70.43822, -23.72866], [-70.43741, -23.72726], [-70.43682, -23.72476], [-70.43689, -23.72305], [-70.43492, -23.71864], [-70.43508, -23.71767], [-70.43388, -23.71282], [-70.43317, -23.71119], [-70.43177, -23.7096], [-70.43094, -23.70765], [-70.42883, -23.70652], [-70.42834, -23.70554], [-70.42553, -23.70507], [-70.42466, -23.70369], [-70.42359, -23.70033], [-70.42372, -23.6987], [-70.42292, -23.69597], [-70.42329, -23.69437], [-70.41926, -23.6856], [-70.41758, -23.68467], [-70.41567, -23.6827], [-70.41402, -23.67803], [-70.41439, -23.67687], [-70.412, -23.67262], [-70.40954, -23.67061], [-70.40823, -23.67064], [-70.40705, -23.669], [-70.40531, -23.66503], [-70.404, -23.66397], [-70.40403, -23.65979], [-70.40297, -23.65738], [-70.40336, -23.65539], [-70.40542, -23.65355], [-70.40498, -23.65288], [-70.40471, -23.646], [-70.40406, -23.6445], [-70.40245, -23.64396], [-70.40191, -23.6452], [-70.40046, -23.64414], [-70.39882, -23.64417], [-70.39709, -23.64181], [-70.39882, -23.64067], [-70.39722, -23.63765], [-70.39738, -23.63622], [-70.39641, -23.63463], [-70.3962, -23.6326], [-70.39708, -23.63137], [-70.39708, -23.62663], [-70.39613, -23.62509], [-70.39601, -23.62339], [-70.39469, -23.62141], [-70.39325, -23.62057], [-70.39273, -23.61902], [-70.39286, -23.61621], [-70.39214, -23.61314], [-70.39295, -23.60984], [-70.39253, -23.60793], [-70.393, -23.60385], [-70.39379, -23.60079], [-70.3964, -23.59716], [-70.39745, -23.59637], [-70.39783, -23.59255], [-70.39755, -23.59098], [-70.39605, -23.58965], [-70.39549, -23.58696], [-70.39381, -23.58481], [-70.39483, -23.58388], [-70.39508, -23.58242], [-70.39364, -23.58188], [-70.39386, -23.58047], [-70.39239, -23.57964], [-70.39669, -23.5761], [-70.39767, -23.57468], [-70.39773, -23.57164], [-70.39904, -23.57072], [-70.40013, -23.5646], [-70.40317, -23.56253], [-70.40325, -23.56112], [-70.40468, -23.56079], [-70.40597, -23.55954], [-70.40608, -23.55823], [-70.40742, -23.55723], [-70.40913, -23.55689], [-70.40892, -23.55333], [-70.40691, -23.55329], [-70.40558, -23.55601], [-70.40309, -23.55522], [-70.40254, -23.55349], [-70.40285, -23.55164], [-70.39878, -23.5456], [-70.40112, -23.54403], [-70.40086, -23.54316], [-70.40152, -23.54023], [-70.40249, -23.5382], [-70.40216, -23.53529], [-70.40467, -23.53451], [-70.40633, -23.53291], [-70.4061, -23.53163], [-70.4088, -23.52874], [-70.40997, -23.52473], [-70.41339, -23.52129], [-70.41346, -23.51845], [-70.41548, -23.51421], [-70.41877, -23.51339], [-70.41852, -23.5117], [-70.42007, -23.50858], [-70.42296, -23.50654], [-70.42449, -23.50679], [-70.4256, -23.50565], [-70.42565, -23.50202], [-70.42632, -23.50117], [-70.42953, -23.49912], [-70.42962, -23.4978], [-70.43132, -23.49668], [-70.43133, -23.4954], [-70.43772, -23.4907], [-70.43866, -23.49096], [-70.44003, -23.4894], [-70.44248, -23.48778], [-70.4452, -23.48663], [-70.44564, -23.48591], [-70.44788, -23.48536], [-70.44944, -23.48343], [-70.46654, -23.47338], [-70.47475, -23.46933], [-70.48586, -23.46529], [-70.49033, -23.4643], [-70.49471, -23.46377], [-70.49847, -23.46365], [-70.50248, -23.46399], [-70.50596, -23.4647], [-70.51115, -23.46633], [-70.51343, -23.46767], [-70.51295, -23.47026], [-70.51415, -23.473], [-70.51567, -23.47517], [-70.51608, -23.47688], [-70.5147, -23.48372], [-70.51503, -23.48863], [-70.51575, -23.48921], [-70.51594, -23.4914], [-70.51527, -23.49235], [-70.51736, -23.49623], [-70.51824, -23.49627], [-70.51939, -23.50001], [-70.52105, -23.50192], [-70.52213, -23.5016], [-70.52396, -23.50341], [-70.52547, -23.50354], [-70.52657, -23.50215], [-70.52781, -23.50227], [-70.53017, -23.50406], [-70.53062, -23.50545], [-70.53289, -23.50758], [-70.53351, -23.51084], [-70.53241, -23.51296], [-70.53114, -23.5126], [-70.52867, -23.51457], [-70.53118, -23.51459], [-70.53055, -23.51644], [-70.52947, -23.51645], [-70.52853, -23.51887], [-70.53043, -23.5231], [-70.53214, -23.52463], [-70.53124, -23.5264], [-70.53558, -23.53035], [-70.53721, -23.53085], [-70.53723, -23.53227], [-70.53896, -23.534], [-70.54352, -23.53621], [-70.54519, -23.53555], [-70.54696, -23.53728], [-70.54858, -23.5373], [-70.54934, -23.53458], [-70.55025, -23.53507], [-70.55174, -23.53341], [-70.55398, -23.53383], [-70.5547, -23.53568], [-70.55604, -23.5358], [-70.5566, -23.53475], [-70.55832, -23.53452], [-70.55907, -23.53316], [-70.56005, -23.52973], [-70.56141, -23.52911], [-70.56536, -23.52886], [-70.56754, -23.5275], [-70.56854, -23.5261], [-70.56951, -23.52787], [-70.5727, -23.52888], [-70.57595, -23.52929], [-70.57653, -23.52786], [-70.57959, -23.52414], [-70.57976, -23.522], [-70.58259, -23.51974], [-70.58532, -23.52042], [-70.58568, -23.51843], [-70.58673, -23.51726], [-70.58892, -23.51621], [-70.59037, -23.514], [-70.59207, -23.51001], [-70.59389, -23.50855], [-70.59528, -23.50908], [-70.5972, -23.50693], [-70.59922, -23.50629], [-70.6008, -23.50665], [-70.60197, -23.50768], [-70.60422, -23.50759], [-70.60641, -23.50679], [-70.6078, -23.50579], [-70.6094, -23.50592], [-70.61259, -23.50685], [-70.61362, -23.50789], [-70.61551, -23.50801], [-70.61604, -23.50954], [-70.61465, -23.51347], [-70.61474, -23.51542], [-70.61672, -23.52036], [-70.61843, -23.52013], [-70.6189, -23.52119], [-70.62099, -23.52122], [-70.6229, -23.52068], [-70.62439, -23.51817], [-70.626, -23.51862], [-70.62789, -23.51736], [-70.62867, -23.515], [-70.62744, -23.51345], [-70.6272, -23.51054], [-70.62809, -23.51034], [-70.62826, -23.50558], [-70.62748, -23.50354], [-70.6264, -23.50345], [-70.62592, -23.50161], [-70.62451, -23.49984], [-70.6208, -23.49898], [-70.62075, -23.49746], [-70.62216, -23.49703], [-70.62185, -23.49572], [-70.6228, -23.49368], [-70.62344, -23.48899], [-70.62316, -23.48714], [-70.62329, -23.4839], [-70.6221, -23.48273], [-70.62248, -23.48061], [-70.6222, -23.47844], [-70.62364, -23.4768], [-70.62124, -23.47438], [-70.62133, -23.47296], [-70.61919, -23.47122], [-70.61886, -23.46893], [-70.61808, -23.46744], [-70.61593, -23.46611], [-70.6164, -23.46454], [-70.61463, -23.46292], [-70.61215, -23.46333], [-70.61115, -23.46467], [-70.6108, -23.46983], [-70.6102, -23.47059], [-70.61071, -23.47263], [-70.61022, -23.47491], [-70.6072, -23.47551], [-70.60514, -23.47272], [-70.60516, -23.47161], [-70.60323, -23.46941], [-70.60352, -23.46675], [-70.60308, -23.46439], [-70.60188, -23.46305], [-70.60042, -23.45982], [-70.60137, -23.45397], [-70.60272, -23.45239], [-70.6011, -23.45068], [-70.6002, -23.44807], [-70.60032, -23.44542], [-70.59962, -23.44408], [-70.59524, -23.43981], [-70.59337, -23.43863], [-70.59179, -23.43627], [-70.59148, -23.43392], [-70.5903, -23.43205], [-70.59072, -23.43117], [-70.58999, -23.42954], [-70.58943, -23.42655], [-70.5901, -23.42603], [-70.59054, -23.42166], [-70.59136, -23.42063], [-70.59007, -23.4168], [-70.59274, -23.41301], [-70.59514, -23.41259], [-70.59643, -23.41511], [-70.5977, -23.41513], [-70.59883, -23.41384], [-70.59835, -23.40934], [-70.60105, -23.41022], [-70.60111, -23.40608], [-70.60497, -23.40632], [-70.60651, -23.40516], [-70.60604, -23.40278], [-70.60719, -23.39725], [-70.60317, -23.39228], [-70.6035, -23.39039], [-70.60058, -23.3891], [-70.60087, -23.38671], [-70.60037, -23.38532], [-70.60019, -23.38138], [-70.60084, -23.38018], [-70.60001, -23.37909], [-70.60056, -23.37799], [-70.59876, -23.37266], [-70.59871, -23.37142], [-70.60059, -23.37167], [-70.60139, -23.36955], [-70.60135, -23.36809], [-70.6037, -23.36513], [-70.60575, -23.36509], [-70.60639, -23.3593]]]]}}, {"type": "Feature", "properties": {"cod_comuna": "02203", "nombre_comuna": "San Pedro de Atacama", "nombre_provincia": "El Loa", "nombre_region": "Región de Antofagasta"}, "geometry": {"type": "Polygon", "coordinates": [[[-68.06504, -24.32642], [-68.07548, -24.31423], [-68.11781, -24.23812], [-68.29278, -24.05387], [-68.337, -24.00796], [-68.34559, -23.99786], [-68.46183, -23.98453], [-68.51362, -23.96664], [-68.69855, -23.92313], [-68.69771, -23.9124], [-68.69657, -23.90928], [-68.69569, -23.90349], [-68.69476, -23.90063], [-68.6918, -23.89572], [-68.69036, -23.89093], [-68.68999, -23.88862], [-68.68905, -23.88791], [-68.68839, -23.88394], [-68.68697, -23.87874], [-68.68764, -23.8731], [-68.687, -23.86954], [-68.68521, -23.86524], [-68.68433, -23.86187], [-68.68426, -23.85916], [-68.68992, -23.85291], [-68.69166, -23.84974], [-68.69173, -23.84886], [-68.69327, -23.84702], [-68.69286, -23.84088], [-68.69392, -23.8378], [-68.69217, -23.83408], [-68.69195, -23.8313], [-68.6911, -23.83041], [-68.68972, -23.82674], [-68.68968, -23.82423], [-68.69089, -23.82189], [-68.69096, -23.81856], [-68.68951, -23.8151], [-68.68973, -23.81038], [-68.68881, -23.80756], [-68.69005, -23.80575], [-68.69041, -23.80228], [-68.68994, -23.80054], [-68.68959, -23.79692], [-68.68984, -23.79353], [-68.68782, -23.7916], [-68.68786, -23.78727], [-68.68633, -23.78571], [-68.68786, -23.78226], [-68.68592, -23.77653], [-68.68431, -23.77471], [-68.68371, -23.77277], [-68.68358, -23.77043], [-68.68247, -23.76809], [-68.68183, -23.76575], [-68.68205, -23.76393], [-68.68079, -23.76163], [-68.68005, -23.75838], [-68.67998, -23.75611], [-68.67871, -23.7509], [-68.67895, -23.74819], [-68.67745, -23.74484], [-68.67731, -23.74053], [-68.67908, -23.73845], [-68.67893, -23.73584], [-68.67627, -23.73403], [-68.6768, -23.73161], [-68.67637, -23.72982], [-68.67503, -23.72947], [-68.67588, -23.72754], [-68.67417, -23.72378], [-68.6741, -23.72235], [-68.67062, -23.71705], [-68.67013, -23.71262], [-68.66897, -23.71079], [-68.66902, -23.7088], [-68.66606, -23.70211], [-68.66517, -23.69871], [-68.66681, -23.69542], [-68.66723, -23.69201], [-68.66936, -23.68799], [-68.67056, -23.68693], [-68.67428, -23.68472], [-68.67702, -23.68408], [-68.67796, -23.68179], [-68.67782, -23.67691], [-68.67657, -23.67431], [-68.67559, -23.6709], [-68.67545, -23.66593], [-68.67418, -23.66169], [-68.67364, -23.65744], [-68.67521, -23.65419], [-68.67841, -23.65235], [-68.68041, -23.64995], [-68.68087, -23.64754], [-68.68036, -23.64369], [-68.68352, -23.64284], [-68.68488, -23.64107], [-68.68694, -23.64057], [-68.68715, -23.63543], [-68.68685, -23.63244], [-68.68542, -23.62928], [-68.68529, -23.62716], [-68.68597, -23.62574], [-68.68792, -23.62514], [-68.68856, -23.62375], [-68.68849, -23.62041], [-68.6889, -23.61885], [-68.68835, -23.61497], [-68.68904, -23.61245], [-68.68882, -23.61038], [-68.68705, -23.60867], [-68.68612, -23.60684], [-68.68543, -23.60414], [-68.68617, -23.60176], [-68.68521, -23.59933], [-68.68545, -23.59829], [-68.68749, -23.59521], [-68.68984, -23.59299], [-68.69099, -23.59135], [-68.69414, -23.58293], [-68.69493, -23.58184], [-68.69929, -23.57754], [-68.69983, -23.57664], [-68.70601, -23.57203], [-68.70789, -23.57004], [-68.70867, -23.56731], [-68.70837, -23.5641], [-68.70716, -23.5621], [-68.70755, -23.56012], [-68.70694, -23.55723], [-68.70489, -23.55444], [-68.70555, -23.54662], [-68.70508, -23.54369], [-68.70535, -23.53875], [-68.70395, -23.53583], [-68.70281, -23.53451], [-68.69534, -23.53328], [-68.69382, -23.53139], [-68.69426, -23.52754], [-68.69749, -23.51808], [-68.69859, -23.51571], [-68.70041, -23.51404], [-68.70173, -23.51222], [-68.70253, -23.50754], [-68.70241, -23.50627], [-68.70071, -23.50464], [-68.6982, -23.50378], [-68.6978, -23.50114], [-68.69785, -23.49404], [-68.697, -23.49182], [-68.69814, -23.48947], [-68.6998, -23.48732], [-68.69957, -23.48554], [-68.70017, -23.48381], [-68.69973, -23.47987], [-68.70119, -23.47627], [-68.701, -23.47392], [-68.70142, -23.47155], [-68.7029, -23.46962], [-68.70253, -23.46546], [-68.70025, -23.46249], [-68.70028, -23.45985], [-68.69972, -23.45684], [-68.69886, -23.45537], [-68.69948, -23.45336], [-68.70342, -23.44831], [-68.70516, -23.44717], [-68.70549, -23.44482], [-68.70629, -23.44387], [-68.70655, -23.44209], [-68.70514, -23.43872], [-68.70606, -23.43791], [-68.70524, -23.43598], [-68.70521, -23.43422], [-68.70404, -23.4321], [-68.70487, -23.43051], [-68.70493, -23.42857], [-68.70382, -23.42528], [-68.70397, -23.42155], [-68.70299, -23.41893], [-68.70502, -23.41717], [-68.70555, -23.41213], [-68.70704, -23.40833], [-68.70649, -23.40775], [-68.70696, -23.40174], [-68.70799, -23.3997], [-68.70976, -23.39776], [-68.71418, -23.39614], [-68.7178, -23.38703], [-68.71758, -23.38514], [-68.71575, -23.38266], [-68.71133, -23.37981], [-68.7094, -23.37909], [-68.70766, -23.3763], [-68.70546, -23.37396], [-68.70253, -23.36851], [-68.70156, -23.36559], [-68.70222, -23.35743], [-68.70131, -23.3508], [-68.70028, -23.34749], [-68.69885, -23.34421], [-68.69633, -23.3405], [-68.69142, -23.33526], [-68.68981, -23.33251], [-68.68849, -23.32843], [-68.68892, -23.32661], [-68.68875, -23.32408], [-68.6879, -23.32265], [-68.68752, -23.32068], [-68.69052, -23.31557], [-68.69102, -23.31237], [-68.68937, -23.30649], [-68.68865, -23.3007], [-68.68809, -23.29887], [-68.6847, -23.29402], [-68.68607, -23.29194], [-68.68642, -23.28774], [-68.68543, -23.28722], [-68.68246, -23.28263], [-68.6819, -23.27831], [-68.68081, -23.27754], [-68.68043, -23.27418], [-68.67916, -23.27091], [-68.67662, -23.26593], [-68.67493, -23.2637], [-68.67323, -23.26043], [-68.66306, -23.25176], [-68.6608, -23.24796], [-68.65811, -23.24691], [-68.65755, -23.2456], [-68.655, -23.24507], [-68.65344, -23.24428], [-68.65345, -23.24206], [-68.65169, -23.24031], [-68.65154, -23.23911], [-68.65041, -23.23766], [-68.64815, -23.23714], [-68.64674, -23.23609], [-68.64603, -23.23465], [-68.64604, -23.23307], [-68.64462, -23.23085], [-68.6459, -23.22941], [-68.64704, -23.22706], [-68.64964, -23.22466], [-68.65022, -23.22251], [-68.64868, -23.21712], [-68.64585, -23.21069], [-68.63951, -23.20532], [-68.63638, -23.20369], [-68.63318, -23.20088], [-68.62922, -23.19565], [-68.62763, -23.19234], [-68.62786, -23.19078], [-68.62623, -23.18849], [-68.62497, -23.1884], [-68.62103, -23.18399], [-68.62067, -23.17866], [-68.61917, -23.1755], [-68.62029, -23.17177], [-68.63217, -23.15773], [-68.63773, -23.1483], [-68.6399, -23.14603], [-68.6415, -23.14311], [-68.64216, -23.14047], [-68.64348, -23.13736], [-68.64424, -23.1367], [-68.64677, -23.13603], [-68.64933, -23.13236], [-68.65521, -23.12794], [-68.65735, -23.12538], [-68.65772, -23.12274], [-68.65867, -23.12067], [-68.65857, -23.11746], [-68.65674, -23.11279], [-68.65967, -23.10963], [-68.66156, -23.10687], [-68.66086, -23.10597], [-68.65601, -23.10481], [-68.65176, -23.10309], [-68.65111, -23.10223], [-68.65121, -23.09738], [-68.64874, -23.09538], [-68.64838, -23.09299], [-68.64721, -23.09036], [-68.6459, -23.08935], [-68.64312, -23.08854], [-68.64166, -23.08738], [-68.63841, -23.08386], [-68.63275, -23.08431], [-68.63107, -23.08417], [-68.62831, -23.08278], [-68.62056, -23.0804], [-68.61771, -23.08033], [-68.61561, -23.08083], [-68.61495, -23.08175], [-68.61152, -23.08393], [-68.6021, -23.08723], [-68.59644, -23.08834], [-68.58462, -23.08834], [-68.55046, -23.08649], [-68.5442, -23.08558], [-68.54081, -23.08346], [-68.53864, -23.08008], [-68.53846, -23.07852], [-68.53936, -23.07507], [-68.54338, -23.06835], [-68.54467, -23.06431], [-68.54343, -23.06129], [-68.54002, -23.05884], [-68.5362, -23.05684], [-68.535, -23.05582], [-68.53239, -23.05243], [-68.53133, -23.049], [-68.53102, -23.04626], [-68.53162, -23.04178], [-68.53162, -23.03897], [-68.53077, -23.03354], [-68.52959, -23.03075], [-68.52864, -23.02962], [-68.52662, -23.02449], [-68.52633, -23.02255], [-68.52744, -23.01909], [-68.53024, -23.01675], [-68.53203, -23.01604], [-68.53441, -23.01427], [-68.53676, -23.01096], [-68.53755, -23.00694], [-68.53716, -23.00355], [-68.53657, -23.00162], [-68.5358, -22.99337], [-68.53558, -22.98409], [-68.53456, -22.97567], [-68.5317, -22.96832], [-68.52991, -22.96507], [-68.52891, -22.96085], [-68.52876, -22.95604], [-68.52621, -22.9488], [-68.52449, -22.94578], [-68.52334, -22.93003], [-68.5239, -22.91642], [-68.52272, -22.90893], [-68.52057, -22.89985], [-68.51605, -22.89286], [-68.51611, -22.89208], [-68.51439, -22.89067], [-68.51111, -22.88693], [-68.50792, -22.88188], [-68.50675, -22.87132], [-68.50528, -22.86956], [-68.50465, -22.86748], [-68.50203, -22.86628], [-68.50065, -22.86493], [-68.49863, -22.86003], [-68.4981, -22.85936], [-68.49298, -22.8564], [-68.491, -22.85454], [-68.48699, -22.85238], [-68.48595, -22.85077], [-68.48403, -22.8491], [-68.48193, -22.84898], [-68.47834, -22.8496], [-68.47554, -22.85377], [-68.47349, -22.85463], [-68.47118, -22.8543], [-68.47046, -22.8537], [-68.46779, -22.85553], [-68.46662, -22.85564], [-68.4641, -22.85035], [-68.46235, -22.83996], [-68.46261, -22.8352], [-68.46342, -22.83377], [-68.46372, -22.82184], [-68.46269, -22.81576], [-68.463, -22.81387], [-68.46264, -22.8118], [-68.46184, -22.81094], [-68.4613, -22.80623], [-68.4602, -22.80376], [-68.46051, -22.80297], [-68.45963, -22.80124], [-68.45957, -22.79776], [-68.46028, -22.79483], [-68.45986, -22.7895], [-68.45488, -22.78487], [-68.45179, -22.78063], [-68.45083, -22.77709], [-68.45083, -22.77315], [-68.44982, -22.76916], [-68.4477, -22.76734], [-68.44477, -22.76643], [-68.44361, -22.76547], [-68.44235, -22.76325], [-68.43926, -22.75542], [-68.43805, -22.75325], [-68.43426, -22.75042], [-68.43204, -22.74931], [-68.42876, -22.7484], [-68.42177, -22.74814], [-68.41586, -22.74833], [-68.40754, -22.74981], [-68.40511, -22.74853], [-68.4045, -22.74673], [-68.4055, -22.74375], [-68.40573, -22.74086], [-68.40002, -22.73858], [-68.39895, -22.73733], [-68.39755, -22.73456], [-68.3944, -22.73274], [-68.39081, -22.7291], [-68.39036, -22.72789], [-68.38803, -22.72677], [-68.3846, -22.7199], [-68.37869, -22.70446], [-68.37607, -22.69871], [-68.37333, -22.69363], [-68.37111, -22.69055], [-68.36704, -22.68372], [-68.36486, -22.68107], [-68.36407, -22.67919], [-68.36532, -22.67443], [-68.36434, -22.67178], [-68.36011, -22.6646], [-68.35931, -22.66385], [-68.35542, -22.66274], [-68.3532, -22.66164], [-68.35221, -22.66193], [-68.34919, -22.66123], [-68.3474, -22.65961], [-68.34561, -22.65938], [-68.34228, -22.65821], [-68.33716, -22.65561], [-68.33624, -22.65463], [-68.33403, -22.65352], [-68.32998, -22.64984], [-68.32831, -22.64895], [-68.32407, -22.64366], [-68.32084, -22.64084], [-68.31741, -22.63695], [-68.31559, -22.63657], [-68.31364, -22.63503], [-68.31345, -22.63389], [-68.31081, -22.63338], [-68.30902, -22.63134], [-68.30892, -22.62689], [-68.30809, -22.62374], [-68.30707, -22.62174], [-68.3049, -22.61954], [-68.29745, -22.61735], [-68.29258, -22.61644], [-68.291, -22.61578], [-68.2902, -22.61446], [-68.29064, -22.61187], [-68.29016, -22.61089], [-68.28705, -22.60814], [-68.28504, -22.6056], [-68.28201, -22.60403], [-68.28014, -22.60185], [-68.27668, -22.60087], [-68.27426, -22.60087], [-68.27283, -22.60142], [-68.27178, -22.60123], [-68.26957, -22.59949], [-68.26787, -22.59948], [-68.26494, -22.6005], [-68.26343, -22.59928], [-68.26214, -22.59592], [-68.26129, -22.59485], [-68.26153, -22.58698], [-68.26304, -22.58324], [-68.26294, -22.58066], [-68.2662, -22.57712], [-68.26589, -22.57107], [-68.2638, -22.56935], [-68.26396, -22.56794], [-68.26017, -22.56771], [-68.25944, -22.56685], [-68.25969, -22.5628], [-68.25856, -22.56167], [-68.25843, -22.56009], [-68.26016, -22.55742], [-68.26059, -22.55065], [-68.26016, -22.54838], [-68.26062, -22.5456], [-68.25771, -22.544], [-68.25465, -22.5409], [-68.25266, -22.54025], [-68.25177, -22.53796], [-68.25373, -22.5355], [-68.25535, -22.53467], [-68.25621, -22.53279], [-68.25411, -22.53069], [-68.25172, -22.5294], [-68.25112, -22.52731], [-68.25113, -22.52373], [-68.24608, -22.52203], [-68.24408, -22.51896], [-68.24414, -22.51615], [-68.24328, -22.51411], [-68.24357, -22.50795], [-68.24075, -22.50591], [-68.23818, -22.5053], [-68.23504, -22.50403], [-68.22929, -22.50416], [-68.22742, -22.50117], [-68.22719, -22.49788], [-68.22376, -22.49618], [-68.2202, -22.49346], [-68.21707, -22.48821], [-68.2128, -22.47927], [-68.21156, -22.4782], [-68.20792, -22.47113], [-68.20459, -22.46653], [-68.20423, -22.46532], [-68.20039, -22.45956], [-68.19863, -22.45749], [-68.19575, -22.45594], [-68.19165, -22.45504], [-68.18964, -22.45423], [-68.18074, -22.44875], [-68.17331, -22.44526], [-68.17213, -22.44428], [-68.16904, -22.44374], [-68.16691, -22.44495], [-68.16441, -22.44515], [-68.16, -22.44341], [-68.15403, -22.43765], [-68.15346, -22.43408], [-68.15477, -22.42946], [-68.15683, -22.42716], [-68.15727, -22.42442], [-68.15563, -22.42211], [-68.15452, -22.4213], [-68.15297, -22.41803], [-68.15245, -22.41442], [-68.15128, -22.41235], [-68.15089, -22.41047], [-68.15123, -22.4076], [-68.15279, -22.40287], [-68.15262, -22.40248], [-68.14775, -22.40234], [-68.13178, -22.40066], [-68.12864, -22.40093], [-68.12364, -22.40248], [-68.10105, -22.41478], [-68.09527, -22.41838], [-68.09276, -22.42085], [-68.08556, -22.42512], [-68.08448, -22.42616], [-68.08281, -22.42655], [-68.08136, -22.42778], [-68.07905, -22.43056], [-68.07642, -22.4326], [-68.07455, -22.43202], [-68.07389, -22.43021], [-68.07294, -22.42561], [-68.07049, -22.4227], [-68.06787, -22.42121], [-68.06454, -22.42005], [-68.06126, -22.42015], [-68.05959, -22.42081], [-68.05575, -22.42106], [-68.04575, -22.42121], [-68.03524, -22.41889], [-68.02772, -22.41829], [-68.02564, -22.41889], [-68.02312, -22.42017], [-68.0167, -22.42627], [-68.01454, -22.42877], [-68.01414, -22.43008], [-68.01548, -22.43193], [-68.01498, -22.43263], [-68.0126, -22.43198], [-68.01043, -22.42894], [-68.00735, -22.42824], [-68.00629, -22.42748], [-68.00427, -22.4249], [-68.00215, -22.42127], [-67.99911, -22.41924], [-67.99805, -22.41702], [-67.99533, -22.41585], [-67.99366, -22.41556], [-67.99107, -22.41412], [-67.9884, -22.41328], [-67.98633, -22.41156], [-67.98461, -22.41066], [-67.98016, -22.41108], [-67.9778, -22.41237], [-67.97508, -22.41208], [-67.97047, -22.41055], [-67.96845, -22.40874], [-67.96799, -22.40479], [-67.96723, -22.40399], [-67.96914, -22.39766], [-67.96824, -22.39599], [-67.96497, -22.39332], [-67.96236, -22.39397], [-67.95913, -22.39339], [-67.95736, -22.3938], [-67.95605, -22.3925], [-67.95304, -22.3911], [-67.95157, -22.38858], [-67.94889, -22.38706], [-67.94647, -22.38519], [-67.94323, -22.38134], [-67.94149, -22.38058], [-67.94177, -22.38293], [-67.93745, -22.38448], [-67.93386, -22.38929], [-67.93147, -22.38986], [-67.93036, -22.39059], [-67.92293, -22.39237], [-67.92094, -22.39394], [-67.91956, -22.39581], [-67.91241, -22.39905], [-67.91006, -22.39776], [-67.90859, -22.39954], [-67.90654, -22.40063], [-67.90476, -22.40101], [-67.90293, -22.40252], [-67.90285, -22.40529], [-67.89995, -22.4074], [-67.89996, -22.40931], [-67.90125, -22.41097], [-67.90389, -22.41143], [-67.90432, -22.416], [-67.9048, -22.41703], [-67.90478, -22.41937], [-67.90243, -22.42052], [-67.8993, -22.41973], [-67.89814, -22.42042], [-67.89759, -22.42349], [-67.90009, -22.42535], [-67.90003, -22.42757], [-67.8978, -22.42851], [-67.89732, -22.43036], [-67.89779, -22.43132], [-67.89752, -22.43451], [-67.89413, -22.4367], [-67.89073, -22.43641], [-67.88858, -22.43683], [-67.88598, -22.43834], [-67.88419, -22.4407], [-67.8839, -22.4418], [-67.88436, -22.44418], [-67.88604, -22.44574], [-67.88792, -22.4466], [-67.89148, -22.44649], [-67.89248, -22.44738], [-67.8929, -22.49911], [-67.89063, -22.5016], [-67.89005, -22.50287], [-67.88785, -22.50535], [-67.88708, -22.5081], [-67.87694, -22.51493], [-67.87672, -22.51599], [-67.87735, -22.52077], [-67.873, -22.52471], [-67.87209, -22.52841], [-67.87128, -22.5301], [-67.86816, -22.5326], [-67.86454, -22.53436], [-67.86042, -22.53441], [-67.85933, -22.53391], [-67.85698, -22.53079], [-67.85517, -22.53027], [-67.85159, -22.52993], [-67.85012, -22.53056], [-67.84643, -22.53048], [-67.84332, -22.53231], [-67.84096, -22.53307], [-67.84067, -22.53445], [-67.8394, -22.53602], [-67.83979, -22.53798], [-67.84253, -22.53867], [-67.84421, -22.54081], [-67.84614, -22.54219], [-67.84384, -22.54775], [-67.84616, -22.55127], [-67.84923, -22.5542], [-67.85255, -22.55656], [-67.85254, -22.55779], [-67.84965, -22.55824], [-67.84654, -22.5594], [-67.84355, -22.56136], [-67.84359, -22.56296], [-67.84585, -22.56608], [-67.84421, -22.56637], [-67.84525, -22.5678], [-67.84495, -22.57186], [-67.84409, -22.57474], [-67.84035, -22.57533], [-67.84011, -22.578], [-67.83734, -22.57957], [-67.83428, -22.57868], [-67.8331, -22.57916], [-67.83206, -22.58154], [-67.83583, -22.58321], [-67.83738, -22.58582], [-67.83756, -22.58772], [-67.83982, -22.58958], [-67.84203, -22.59054], [-67.84273, -22.59314], [-67.84466, -22.59384], [-67.84634, -22.59297], [-67.84772, -22.59416], [-67.85269, -22.59499], [-67.85688, -22.59644], [-67.86019, -22.59662], [-67.86152, -22.59742], [-67.86298, -22.59962], [-67.86347, -22.60308], [-67.86353, -22.60801], [-67.86212, -22.60906], [-67.85991, -22.60955], [-67.85964, -22.61061], [-67.85655, -22.61202], [-67.85409, -22.61568], [-67.85718, -22.6157], [-67.85822, -22.61867], [-67.85716, -22.62229], [-67.85903, -22.62365], [-67.86139, -22.62437], [-67.86444, -22.62651], [-67.87056, -22.62662], [-67.87524, -22.62717], [-67.87778, -22.62647], [-67.88338, -22.62804], [-67.88345, -22.62956], [-67.88161, -22.63056], [-67.87996, -22.63213], [-67.88157, -22.63355], [-67.88177, -22.6362], [-67.87972, -22.63735], [-67.87726, -22.63795], [-67.87514, -22.63943], [-67.87554, -22.64371], [-67.87761, -22.64597], [-67.87757, -22.64752], [-67.87648, -22.64954], [-67.8768, -22.6517], [-67.87643, -22.65963], [-67.87586, -22.66284], [-67.87647, -22.66539], [-67.87579, -22.66804], [-67.87322, -22.66918], [-67.87111, -22.67345], [-67.86846, -22.67781], [-67.86801, -22.67947], [-67.86821, -22.68153], [-67.869, -22.68338], [-67.86942, -22.68626], [-67.87119, -22.68864], [-67.87229, -22.69099], [-67.87085, -22.69344], [-67.87392, -22.69387], [-67.87588, -22.69654], [-67.88401, -22.70049], [-67.88785, -22.70549], [-67.88546, -22.7105], [-67.88565, -22.71479], [-67.88969, -22.71819], [-67.8894, -22.7202], [-67.88738, -22.72172], [-67.88667, -22.72309], [-67.88529, -22.72413], [-67.88581, -22.72535], [-67.88527, -22.72807], [-67.88326, -22.72757], [-67.88051, -22.72811], [-67.87777, -22.73226], [-67.87651, -22.73664], [-67.87512, -22.73855], [-67.87119, -22.73996], [-67.86842, -22.74206], [-67.86758, -22.74385], [-67.86877, -22.74644], [-67.87306, -22.75247], [-67.87706, -22.75516], [-67.8746, -22.75882], [-67.87309, -22.76382], [-67.87299, -22.76841], [-67.87388, -22.77095], [-67.87336, -22.77363], [-67.8738, -22.77604], [-67.87385, -22.77891], [-67.87569, -22.78179], [-67.87584, -22.78382], [-67.87488, -22.78721], [-67.87524, -22.79009], [-67.87712, -22.79217], [-67.87785, -22.79465], [-67.87806, -22.79768], [-67.87959, -22.80384], [-67.88198, -22.80669], [-67.88061, -22.80904], [-67.87906, -22.81464], [-67.88052, -22.81804], [-67.88157, -22.82639], [-67.88214, -22.8278], [-67.88334, -22.82876], [-67.88317, -22.83213], [-67.88228, -22.8337], [-67.88096, -22.83414], [-67.87422, -22.83351], [-67.86829, -22.83367], [-67.86137, -22.83596], [-67.85859, -22.83773], [-67.85584, -22.8425], [-67.85239, -22.84301], [-67.84502, -22.84626], [-67.84245, -22.84807], [-67.83939, -22.84819], [-67.83822, -22.84657], [-67.83468, -22.84461], [-67.83085, -22.84415], [-67.82746, -22.84466], [-67.82609, -22.84528], [-67.82419, -22.84788], [-67.82434, -22.8497], [-67.82582, -22.85265], [-67.82763, -22.85395], [-67.8298, -22.85624], [-67.82455, -22.85819], [-67.81967, -22.86181], [-67.81485, -22.86639], [-67.81343, -22.869], [-67.81034, -22.87156], [-67.80119, -22.87777], [-67.79906, -22.88118], [-67.56851, -22.89804], [-67.1803, -22.81417], [-67.00616, -22.98471], [-67.00292, -22.98725], [-66.99018, -22.99996], [-67.25002, -23.80827], [-67.25072, -23.81175], [-67.32262, -24.03416], [-68.06504, -24.32642]]]}}]}