{"type": "FeatureCollection", "crs": {"type": "name", "properties": {"name": "urn:ogc:def:crs:OGC:1.3:CRS84"}}, "features": [{"type": "Feature", "properties": {"cod_comuna": "01403", "nombre_comuna": "Colchane", "nombre_provincia": "Iquique", "nombre_region": "Región de Tarapacá"}, "geometry": {"type": "Polygon", "coordinates": [[[-68.9899, -18.9556], [-68.98458, -18.9536], [-68.9798, -18.9479], [-68.97941, -18.94688], [-68.9747, -18.94748], [-68.97242, -18.94711], [-68.96727, -18.94426], [-68.96543, -18.945], [-68.96423, -18.94754], [-68.9625, -18.94779], [-68.95815, -18.94581], [-68.9569, -18.9446], [-68.95284, -18.93923], [-68.9502, -18.93667], [-68.92, -18.97669], [-68.88964, -19.04343], [-68.8709, -19.06037], [-68.85233, -19.06424], [-68.80596, -19.08355], [-68.78578, -19.10383], [-68.75242, -19.13204], [-68.74896, -19.13591], [-68.73782, -19.15314], [-68.73103, -19.15837], [-68.72475, -19.16233], [-68.71979, -19.1648], [-68.71581, -19.16853], [-68.71306, -19.17026], [-68.66216, -19.21879], [-68.63057, -19.24835], [-68.62828, -19.25107], [-68.61978, -19.27649], [-68.54275, -19.2967], [-68.45146, -19.3681], [-68.40487, -19.41618], [-68.41257, -19.42171], [-68.41239, -19.43104], [-68.44064, -19.44041], [-68.55687, -19.5964], [-68.57247, -19.60549], [-68.59875, -19.64068], [-68.59937, -19.64187], [-68.6012, -19.64307], [-68.60215, -19.64529], [-68.60165, -19.64749], [-68.59847, -19.65027], [-68.59778, -19.65256], [-68.59749, -19.65562], [-68.59868, -19.65865], [-68.60306, -19.66436], [-68.6071, -19.67143], [-68.6078, -19.67344], [-68.60913, -19.6735], [-68.61112, -19.67192], [-68.61435, -19.67197], [-68.61725, -19.67483], [-68.61899, -19.67599], [-68.6185, -19.67755], [-68.61889, -19.68017], [-68.62168, -19.68322], [-68.62266, -19.68478], [-68.62327, -19.68739], [-68.62292, -19.69071], [-68.61936, -19.69431], [-68.61929, -19.69605], [-68.62192, -19.69729], [-68.62301, -19.69908], [-68.62422, -19.70207], [-68.62534, -19.7025], [-68.63661, -19.70347], [-68.6387, -19.70406], [-68.64109, -19.70572], [-68.64451, -19.70695], [-68.64868, -19.70736], [-68.65333, -19.70925], [-68.65775, -19.70979], [-68.65902, -19.70947], [-68.66137, -19.71128], [-68.66298, -19.71128], [-68.66732, -19.7124], [-68.67039, -19.71371], [-68.6745, -19.71494], [-68.68175, -19.71848], [-68.68291, -19.72156], [-68.68424, -19.72282], [-68.6848, -19.72786], [-68.6855, -19.72929], [-68.68576, -19.73146], [-68.68293, -19.73548], [-68.68614, -19.73673], [-68.68691, -19.73856], [-68.68656, -19.74017], [-68.68733, -19.74096], [-68.68889, -19.74037], [-68.69547, -19.73936], [-68.69569, -19.74268], [-68.69325, -19.74457], [-68.6925, -19.74571], [-68.69233, -19.74944], [-68.69283, -19.75023], [-68.6987, -19.75108], [-68.74268, -19.7516], [-68.76299, -19.74985], [-68.78696, -19.74928], [-68.79826, -19.74953], [-68.80293, -19.74933], [-68.80594, -19.74807], [-68.81158, -19.74194], [-68.81436, -19.7354], [-68.81325, -19.72871], [-68.80952, -19.71879], [-68.80993, -19.71494], [-68.8155, -19.70846], [-68.82721, -19.70215], [-68.82974, -19.69821], [-68.83382, -19.67259], [-68.83296, -19.66646], [-68.83293, -19.66187], [-68.83884, -19.6547], [-68.84207, -19.64913], [-68.84554, -19.64396], [-68.8545, -19.64], [-68.86238, -19.63956], [-68.87036, -19.63855], [-68.87819, -19.63564], [-68.88606, -19.62924], [-68.89369, -19.61957], [-68.90182, -19.60816], [-68.90625, -19.60285], [-68.90778, -19.60035], [-68.91968, -19.59501], [-68.94035, -19.58864], [-68.96384, -19.57836], [-68.98715, -19.57084], [-68.99575, -19.56464], [-69.00196, -19.56107], [-69.00606, -19.55703], [-69.03383, -19.53827], [-69.0697, -19.51536], [-69.10097, -19.49486], [-69.09638, -19.48607], [-69.06938, -19.42963], [-69.04407, -19.37517], [-69.02319, -19.33155], [-69.0783, -19.27345], [-69.07973, -19.27354], [-69.08403, -19.27559], [-69.08601, -19.27693], [-69.08813, -19.27707], [-69.08905, -19.27637], [-69.08997, -19.27206], [-69.09174, -19.27057], [-69.09647, -19.27015], [-69.10191, -19.27389], [-69.10339, -19.2746], [-69.10466, -19.27622], [-69.10558, -19.27644], [-69.10707, -19.27425], [-69.10749, -19.27206], [-69.1178, -19.26775], [-69.12063, -19.26859], [-69.12169, -19.26958], [-69.12339, -19.26965], [-69.12487, -19.27043], [-69.12671, -19.2722], [-69.12974, -19.27637], [-69.13109, -19.28131], [-69.13208, -19.28668], [-69.13271, -19.28802], [-69.13829, -19.29325], [-69.14291, -19.29676], [-69.1434, -19.29563], [-69.16381, -19.28606], [-69.17506, -19.28124], [-69.2689, -19.23879], [-69.27162, -19.23627], [-69.2796, -19.2204], [-69.28606, -19.20316], [-69.29524, -19.18488], [-69.30859, -19.15504], [-69.31692, -19.13522], [-69.31498, -19.13387], [-69.31256, -19.13306], [-69.30703, -19.13304], [-69.30237, -19.13218], [-69.30039, -19.13102], [-69.29545, -19.12718], [-69.29399, -19.12429], [-69.29449, -19.12158], [-69.29418, -19.11923], [-69.2927, -19.1157], [-69.29048, -19.11433], [-69.28576, -19.11354], [-69.27976, -19.11194], [-69.27312, -19.10905], [-69.26312, -19.10861], [-69.25848, -19.10651], [-69.25437, -19.10519], [-69.25264, -19.10317], [-69.24138, -19.09941], [-69.23851, -19.0979], [-69.2349, -19.09446], [-69.2316, -19.09393], [-69.22853, -19.09499], [-69.22519, -19.09498], [-69.21806, -19.0965], [-69.20948, -19.10179], [-69.20889, -19.10388], [-69.20748, -19.10643], [-69.20355, -19.10989], [-69.19831, -19.10742], [-69.19351, -19.10665], [-69.1914, -19.10454], [-69.19179, -19.09743], [-69.19119, -19.0952], [-69.18731, -19.09582], [-69.18397, -19.09578], [-69.1822, -19.09527], [-69.17868, -19.09539], [-69.17361, -19.09698], [-69.16947, -19.0975], [-69.16357, -19.10117], [-69.15993, -19.1048], [-69.15341, -19.10273], [-69.1495, -19.09971], [-69.14825, -19.09806], [-69.14682, -19.0925], [-69.14527, -19.08968], [-69.14505, -19.08838], [-69.14387, -19.08716], [-69.14095, -19.08546], [-69.13702, -19.08475], [-69.13397, -19.08561], [-69.13137, -19.08738], [-69.12945, -19.08693], [-69.12903, -19.0861], [-69.12877, -19.08213], [-69.1251, -19.07969], [-69.12272, -19.07914], [-69.12108, -19.0796], [-69.11781, -19.07929], [-69.11525, -19.07796], [-69.11318, -19.07508], [-69.10673, -19.07135], [-69.10264, -19.06754], [-69.10319, -19.05897], [-69.10594, -19.05771], [-69.10672, -19.05632], [-69.104, -19.0552], [-69.10287, -19.05394], [-69.09524, -19.04872], [-69.0905, -19.04655], [-69.08844, -19.0461], [-69.08154, -19.04713], [-69.07833, -19.04886], [-69.07511, -19.04802], [-69.07417, -19.04601], [-69.07364, -19.03922], [-69.0728, -19.03575], [-69.07174, -19.03306], [-69.07106, -19.02943], [-69.07221, -19.02724], [-69.06956, -19.02661], [-69.06394, -19.02608], [-69.06058, -19.02671], [-69.0589, -19.02823], [-69.05234, -19.02955], [-69.04884, -19.03203], [-69.04748, -19.03133], [-69.04742, -19.02914], [-69.04655, -19.02633], [-69.04496, -19.02473], [-69.04262, -19.02421], [-69.0405, -19.02206], [-69.03936, -19.01854], [-69.03788, -19.01794], [-69.03349, -19.0141], [-69.03232, -19.01241], [-69.03234, -19.01065], [-69.0316, -19.00937], [-69.02871, -19.00811], [-69.02708, -19.00701], [-69.02458, -19.00615], [-69.021, -19.00796], [-69.01993, -19.00768], [-69.01815, -19.00427], [-69.01467, -19.00363], [-69.00981, -18.99751], [-69.00959, -18.99668], [-69.01005, -18.99205], [-69.01115, -18.98964], [-69.01142, -18.98786], [-69.01099, -18.98616], [-69.01195, -18.98534], [-69.01372, -18.98544], [-69.01641, -18.98431], [-69.01969, -18.9811], [-69.02124, -18.97841], [-69.02322, -18.97679], [-69.02761, -18.9743], [-69.02761, -18.97389], [-69.02433, -18.97197], [-69.02263, -18.97016], [-69.02192, -18.96515], [-69.01887, -18.96275], [-69.01955, -18.96158], [-69.02191, -18.95974], [-69.022, -18.95881], [-69.02024, -18.9537], [-69.01584, -18.95217], [-69.01481, -18.9515], [-69.01378, -18.94894], [-69.01062, -18.9491], [-69.00834, -18.95022], [-69.00758, -18.95155], [-69.0074, -18.95347], [-69.00652, -18.95437], [-68.99976, -18.95767], [-68.99622, -18.95819], [-68.99477, -18.95744], [-68.99355, -18.95606], [-68.9899, -18.9556]]]}}, {"type": "Feature", "properties": {"cod_comuna": "15201", "nombre_comuna": "Putre", "nombre_provincia": "Parinacota", "nombre_region": "Región de Arica y Parinacota"}, "geometry": {"type": "Polygon", "coordinates": [[[-68.9502, -18.93667], [-68.95284, -18.93923], [-68.9569, -18.9446], [-68.95815, -18.94581], [-68.9625, -18.94779], [-68.96423, -18.94754], [-68.96543, -18.945], [-68.96727, -18.94426], [-68.97242, -18.94711], [-68.9747, -18.94748], [-68.97941, -18.94688], [-68.9798, -18.9479], [-68.98458, -18.9536], [-68.9899, -18.9556], [-68.99355, -18.95606], [-68.99477, -18.95744], [-68.99622, -18.95819], [-68.99976, -18.95767], [-69.00652, -18.95437], [-69.0074, -18.95347], [-69.00758, -18.95155], [-69.00834, -18.95022], [-69.01062, -18.9491], [-69.01378, -18.94894], [-69.01481, -18.9515], [-69.01584, -18.95217], [-69.02024, -18.9537], [-69.022, -18.95881], [-69.02191, -18.95974], [-69.01955, -18.96158], [-69.01887, -18.96275], [-69.02192, -18.96515], [-69.02263, -18.97016], [-69.02433, -18.97197], [-69.02761, -18.97389], [-69.02761, -18.9743], [-69.02322, -18.97679], [-69.02124, -18.97841], [-69.01969, -18.9811], [-69.01641, -18.98431], [-69.01372, -18.98544], [-69.01195, -18.98534], [-69.01099, -18.98616], [-69.01142, -18.98786], [-69.01115, -18.98964], [-69.01005, -18.99205], [-69.00959, -18.99668], [-69.00981, -18.99751], [-69.01467, -19.00363], [-69.01815, -19.00427], [-69.01993, -19.00768], [-69.021, -19.00796], [-69.02458, -19.00615], [-69.02708, -19.00701], [-69.02871, -19.00811], [-69.0316, -19.00937], [-69.03234, -19.01065], [-69.03232, -19.01241], [-69.03349, -19.0141], [-69.03788, -19.01794], [-69.03936, -19.01854], [-69.0405, -19.02206], [-69.04262, -19.02421], [-69.04496, -19.02473], [-69.04655, -19.02633], [-69.04742, -19.02914], [-69.04748, -19.03133], [-69.04884, -19.03203], [-69.05234, -19.02955], [-69.0589, -19.02823], [-69.06058, -19.02671], [-69.06394, -19.02608], [-69.06956, -19.02661], [-69.07221, -19.02724], [-69.07106, -19.02943], [-69.07486, -19.02788], [-69.08716, -19.02112], [-69.09439, -19.01163], [-69.10421, -19.00031], [-69.10623, -18.9995], [-69.10953, -18.99597], [-69.11096, -18.99222], [-69.11641, -18.98347], [-69.11935, -18.98199], [-69.12215, -18.9812], [-69.12339, -18.97991], [-69.12374, -18.97389], [-69.12194, -18.97126], [-69.1193, -18.9685], [-69.11888, -18.96625], [-69.12205, -18.963], [-69.12737, -18.95866], [-69.13336, -18.95634], [-69.13632, -18.95395], [-69.13839, -18.95142], [-69.13947, -18.94939], [-69.13962, -18.94209], [-69.14372, -18.93784], [-69.14573, -18.93525], [-69.14708, -18.93213], [-69.14835, -18.9236], [-69.15243, -18.91585], [-69.15321, -18.91173], [-69.15145, -18.90756], [-69.14608, -18.90093], [-69.14413, -18.8948], [-69.14522, -18.8861], [-69.14539, -18.8802], [-69.14975, -18.87314], [-69.15394, -18.86785], [-69.1551, -18.86323], [-69.15509, -18.85691], [-69.15464, -18.85346], [-69.15153, -18.83943], [-69.15274, -18.837], [-69.1559, -18.83644], [-69.16219, -18.83597], [-69.16749, -18.83438], [-69.17253, -18.83342], [-69.18147, -18.83106], [-69.18886, -18.83016], [-69.19446, -18.82834], [-69.19914, -18.82725], [-69.20177, -18.82618], [-69.20351, -18.82438], [-69.20637, -18.81705], [-69.20647, -18.81527], [-69.20927, -18.80151], [-69.21126, -18.79715], [-69.21554, -18.79283], [-69.22121, -18.78872], [-69.22849, -18.78741], [-69.24228, -18.78833], [-69.25476, -18.78462], [-69.26524, -18.78321], [-69.26907, -18.78228], [-69.27361, -18.784], [-69.2802, -18.78801], [-69.28473, -18.78777], [-69.28664, -18.78633], [-69.29446, -18.78291], [-69.29753, -18.78086], [-69.30296, -18.78093], [-69.30798, -18.783], [-69.31565, -18.7852], [-69.32718, -18.78279], [-69.33113, -18.78604], [-69.33168, -18.78823], [-69.33322, -18.79143], [-69.33511, -18.79331], [-69.33618, -18.79586], [-69.33511, -18.80209], [-69.33597, -18.80389], [-69.33816, -18.80567], [-69.34332, -18.80659], [-69.3475, -18.80601], [-69.35203, -18.8083], [-69.35447, -18.81415], [-69.35458, -18.81915], [-69.3585, -18.8216], [-69.36344, -18.81982], [-69.37446, -18.81401], [-69.38134, -18.81165], [-69.38273, -18.81151], [-69.38474, -18.80852], [-69.39033, -18.80279], [-69.39357, -18.79897], [-69.40347, -18.78974], [-69.4046, -18.78816], [-69.42919, -18.72464], [-69.44347, -18.71626], [-69.44871, -18.71408], [-69.45106, -18.71196], [-69.45257, -18.70964], [-69.45291, -18.70833], [-69.45256, -18.70528], [-69.45334, -18.70335], [-69.45653, -18.70095], [-69.46194, -18.69947], [-69.46616, -18.69974], [-69.47402, -18.70131], [-69.478, -18.7014], [-69.48084, -18.70107], [-69.49052, -18.6989], [-69.4898, -18.69514], [-69.48989, -18.69193], [-69.49055, -18.68965], [-69.49364, -18.6868], [-69.49613, -18.68363], [-69.49682, -18.6807], [-69.49831, -18.677], [-69.50053, -18.67286], [-69.5044, -18.66762], [-69.50849, -18.66354], [-69.51101, -18.65777], [-69.51384, -18.65494], [-69.51614, -18.65358], [-69.51866, -18.65306], [-69.53319, -18.65144], [-69.53653, -18.65027], [-69.54087, -18.64472], [-69.54359, -18.64388], [-69.56649, -18.63007], [-69.57165, -18.6264], [-69.57916, -18.62038], [-69.59452, -18.6115], [-69.60134, -18.60883], [-69.61067, -18.60204], [-69.61372, -18.60062], [-69.62181, -18.59765], [-69.63136, -18.5946], [-69.63435, -18.59289], [-69.63913, -18.58749], [-69.64658, -18.57641], [-69.6498, -18.5731], [-69.65493, -18.57017], [-69.66213, -18.56678], [-69.6713, -18.56148], [-69.67708, -18.5592], [-69.68253, -18.55571], [-69.68763, -18.5518], [-69.69048, -18.54854], [-69.69358, -18.54017], [-69.69388, -18.53536], [-69.69224, -18.53124], [-69.68776, -18.52701], [-69.68592, -18.52588], [-69.68121, -18.519], [-69.68019, -18.51387], [-69.6789, -18.50001], [-69.6757, -18.4954], [-69.67186, -18.49233], [-69.66684, -18.48585], [-69.66267, -18.47674], [-69.6597, -18.47254], [-69.65675, -18.46519], [-69.65479, -18.46187], [-69.65102, -18.45823], [-69.64704, -18.45618], [-69.63718, -18.44786], [-69.63002, -18.43817], [-69.62576, -18.43503], [-69.63083, -18.4297], [-69.63601, -18.4223], [-69.64355, -18.40497], [-69.64632, -18.40021], [-69.64946, -18.39242], [-69.65673, -18.37875], [-69.67951, -18.35109], [-69.68017, -18.34864], [-69.68011, -18.34634], [-69.67473, -18.34203], [-69.66866, -18.33449], [-69.66542, -18.33149], [-69.65885, -18.32727], [-69.65484, -18.32379], [-69.65281, -18.32053], [-69.6507, -18.31354], [-69.65111, -18.31148], [-69.65592, -18.30441], [-69.65787, -18.30113], [-69.65971, -18.29715], [-69.665, -18.29274], [-69.66649, -18.28841], [-69.66693, -18.28449], [-69.66786, -18.28378], [-69.67196, -18.27903], [-69.67472, -18.27433], [-69.67537, -18.27258], [-69.67534, -18.27089], [-69.67719, -18.26811], [-69.67789, -18.26571], [-69.67995, -18.26289], [-69.68124, -18.26042], [-69.68124, -18.25861], [-69.68006, -18.25579], [-69.67901, -18.25426], [-69.67842, -18.25038], [-69.6774, -18.24908], [-69.67601, -18.24487], [-69.67523, -18.24401], [-69.67384, -18.24411], [-69.66932, -18.24102], [-69.66821, -18.23856], [-69.66604, -18.23648], [-69.6661, -18.23507], [-69.66709, -18.23442], [-69.67207, -18.23337], [-69.67525, -18.23106], [-69.67995, -18.22571], [-69.67985, -18.22274], [-69.68069, -18.22079], [-69.68069, -18.21688], [-69.68207, -18.21634], [-69.68337, -18.21498], [-69.687, -18.21271], [-69.68886, -18.20986], [-69.68949, -18.20671], [-69.68863, -18.20418], [-69.68772, -18.20281], [-69.68774, -18.20098], [-69.69305, -18.19725], [-69.69317, -18.19465], [-69.69534, -18.19112], [-69.69513, -18.19005], [-69.69345, -18.18967], [-69.6927, -18.18858], [-69.6924, -18.18249], [-69.69353, -18.17993], [-69.68931, -18.17442], [-69.68866, -18.17246], [-69.68668, -18.17048], [-69.68293, -18.16941], [-69.68106, -18.16576], [-69.67977, -18.16511], [-69.67683, -18.16259], [-69.67401, -18.16284], [-69.67084, -18.16219], [-69.66676, -18.16063], [-69.66331, -18.16155], [-69.66153, -18.1634], [-69.65619, -18.1652], [-69.65035, -18.1651], [-69.647, -18.16445], [-69.64296, -18.16294], [-69.64263, -18.14519], [-69.64551, -18.14389], [-69.64813, -18.14338], [-69.6495, -18.1411], [-69.65153, -18.14055], [-69.65263, -18.13883], [-69.65246, -18.13709], [-69.65637, -18.13414], [-69.6576, -18.13371], [-69.65732, -18.13234], [-69.65876, -18.13013], [-69.6584, -18.12733], [-69.65755, -18.12642], [-69.65797, -18.12387], [-69.65919, -18.1216], [-69.65959, -18.11997], [-69.65599, -18.1165], [-69.65376, -18.11509], [-69.65387, -18.1136], [-69.65298, -18.11053], [-69.65188, -18.10913], [-69.65037, -18.1054], [-69.65129, -18.10335], [-69.6516, -18.09979], [-69.65115, -18.0981], [-69.65144, -18.09643], [-69.65068, -18.09437], [-69.64877, -18.09357], [-69.64954, -18.08907], [-69.64826, -18.08739], [-69.64941, -18.0853], [-69.64846, -18.08453], [-69.6479, -18.08276], [-69.64689, -18.08145], [-69.64728, -18.08016], [-69.64708, -18.07798], [-69.64786, -18.07644], [-69.64695, -18.0756], [-69.6476, -18.07437], [-69.64662, -18.07117], [-69.64672, -18.06899], [-69.64504, -18.06534], [-69.64645, -18.06289], [-69.64874, -18.06056], [-69.6478, -18.05874], [-69.64732, -18.05561], [-69.64807, -18.05323], [-69.64817, -18.05086], [-69.64734, -18.0493], [-69.64879, -18.04775], [-69.64812, -18.0464], [-69.64759, -18.04305], [-69.64607, -18.04168], [-69.64479, -18.03904], [-69.64433, -18.03654], [-69.64318, -18.03477], [-69.64226, -18.03176], [-69.6423, -18.02996], [-69.6405, -18.0268], [-69.64093, -18.02468], [-69.63973, -18.02213], [-69.63996, -18.02058], [-69.63892, -18.01981], [-69.6375, -18.01715], [-69.63697, -18.0147], [-69.63801, -18.01174], [-69.63752, -18.01068], [-69.63482, -18.00891], [-69.63467, -18.00634], [-69.63398, -18.00482], [-69.63144, -18.00287], [-69.63174, -18.00179], [-69.63009, -17.99927], [-69.63112, -17.99793], [-69.62882, -17.99573], [-69.62672, -17.99663], [-69.62543, -17.99604], [-69.62448, -17.99693], [-69.62117, -17.99799], [-69.61681, -17.99686], [-69.61563, -17.99719], [-69.61397, -17.9964], [-69.61271, -17.99672], [-69.61023, -17.9959], [-69.60477, -17.99532], [-69.60051, -17.99309], [-69.59785, -17.99315], [-69.59446, -17.99033], [-69.59326, -17.9898], [-69.58597, -17.99415], [-69.58464, -17.99418], [-69.58272, -17.99639], [-69.57982, -17.99817], [-69.57548, -17.9986], [-69.57271, -17.99823], [-69.56861, -17.99683], [-69.56378, -17.99736], [-69.55831, -17.99662], [-69.55637, -17.99617], [-69.54922, -17.99274], [-69.54617, -17.99257], [-69.5432, -17.99093], [-69.53967, -17.99092], [-69.53177, -17.9886], [-69.52827, -17.9888], [-69.52518, -17.98805], [-69.51936, -17.98977], [-69.51628, -17.98994], [-69.51454, -17.99043], [-69.51136, -17.99049], [-69.50818, -17.98949], [-69.50453, -17.98904], [-69.50035, -17.99037], [-69.49759, -17.99072], [-69.48706, -17.98915], [-69.48576, -17.98882], [-69.48249, -17.98638], [-69.47854, -17.98422], [-69.47419, -17.98383], [-69.4734, -17.98352], [-69.47212, -17.98138], [-69.4706, -17.9805], [-69.46548, -17.98008], [-69.46089, -17.98133], [-69.45769, -17.98102], [-69.45222, -17.98115], [-69.44478, -17.98335], [-69.43794, -17.98315], [-69.43507, -17.98413], [-69.43108, -17.98433], [-69.42726, -17.98563], [-69.42154, -17.98557], [-69.41706, -17.98591], [-69.41506, -17.98657], [-69.41361, -17.98828], [-69.41115, -17.99013], [-69.40913, -17.99248], [-69.40617, -17.99449], [-69.40285, -17.99748], [-69.40204, -17.99857], [-69.39758, -18.00178], [-69.39573, -18.00202], [-69.39339, -18.00152], [-69.39087, -18.00161], [-69.38679, -18.00099], [-69.38548, -18.0005], [-69.38151, -18.00009], [-69.37844, -17.99931], [-69.3768, -17.99828], [-69.37371, -17.99715], [-69.37219, -17.99595], [-69.36951, -17.99508], [-69.36655, -17.995], [-69.36465, -17.9938], [-69.36334, -17.99053], [-69.36012, -17.98822], [-69.35911, -17.98668], [-69.35574, -17.98533], [-69.34718, -17.98582], [-69.30884, -17.97651], [-69.28551, -17.96976], [-69.28191, -17.96847], [-69.28009, -17.9695], [-69.27159, -17.96901], [-69.26742, -17.96778], [-69.26518, -17.96497], [-69.26307, -17.9634], [-69.26209, -17.96332], [-69.26009, -17.96088], [-69.25958, -17.95641], [-69.25676, -17.95494], [-69.25585, -17.95409], [-69.25381, -17.95551], [-69.25342, -17.96831], [-69.25422, -17.97083], [-69.25617, -17.97502], [-69.25324, -17.97703], [-69.24796, -17.98203], [-69.24579, -17.98308], [-69.23928, -17.9843], [-69.23625, -17.98359], [-69.23492, -17.98416], [-69.23268, -17.9866], [-69.23122, -17.98885], [-69.23042, -17.98804], [-69.22961, -17.98485], [-69.22504, -17.98239], [-69.22098, -17.98077], [-69.21663, -17.98091], [-69.2164, -17.98267], [-69.21346, -17.98579], [-69.21051, -17.98545], [-69.20778, -17.98738], [-69.20293, -17.98985], [-69.19946, -17.99075], [-69.18778, -17.99051], [-69.18673, -17.99187], [-69.18116, -17.99358], [-69.17843, -17.99186], [-69.17649, -17.9922], [-69.17264, -17.99171], [-69.17017, -17.99293], [-69.17005, -17.9954], [-69.16914, -17.99645], [-69.16926, -17.99823], [-69.16738, -17.99936], [-69.1653, -18.0014], [-69.1564, -17.99978], [-69.15062, -17.99943], [-69.14535, -18.00021], [-69.1394, -18.00197], [-69.13155, -18.00182], [-69.12877, -18.0021], [-69.12543, -18.0036], [-69.12292, -18.00435], [-69.12094, -18.00444], [-69.11719, -18.00846], [-69.11335, -18.01177], [-69.11055, -18.01501], [-69.1087, -18.0184], [-69.10694, -18.01923], [-69.10541, -18.02116], [-69.10341, -18.02171], [-69.09675, -18.02135], [-69.09576, -18.02219], [-69.09285, -18.02706], [-69.08902, -18.03091], [-69.08737, -18.03454], [-69.08707, -18.03634], [-69.08716, -18.03988], [-69.08684, -18.04072], [-69.08437, -18.04242], [-69.08144, -18.04299], [-69.07995, -18.04396], [-69.0788, -18.04241], [-69.0764, -18.04093], [-69.07369, -18.04199], [-69.07274, -18.04331], [-69.06861, -18.0469], [-69.06537, -18.04896], [-69.06457, -18.05146], [-69.06246, -18.0555], [-69.05999, -18.0569], [-69.05703, -18.0612], [-69.05881, -18.06227], [-69.06027, -18.06382], [-69.06745, -18.06714], [-69.06834, -18.06926], [-69.06721, -18.0719], [-69.06775, -18.07289], [-69.06962, -18.07414], [-69.07503, -18.07681], [-69.07609, -18.07834], [-69.0749, -18.07978], [-69.07446, -18.08131], [-69.07479, -18.08274], [-69.07411, -18.08555], [-69.07472, -18.08789], [-69.07627, -18.08842], [-69.07957, -18.08588], [-69.08052, -18.08622], [-69.08113, -18.08937], [-69.0809, -18.09025], [-69.08191, -18.09713], [-69.0838, -18.0973], [-69.08509, -18.09675], [-69.08787, -18.09871], [-69.08974, -18.09934], [-69.09318, -18.10172], [-69.09711, -18.103], [-69.09995, -18.10341], [-69.10067, -18.10481], [-69.10013, -18.10681], [-69.09822, -18.11009], [-69.09802, -18.11219], [-69.09888, -18.1145], [-69.10092, -18.11666], [-69.10183, -18.11814], [-69.10332, -18.11926], [-69.11077, -18.12036], [-69.11346, -18.12153], [-69.11499, -18.12284], [-69.12744, -18.12749], [-69.12798, -18.12892], [-69.12669, -18.13183], [-69.12839, -18.13745], [-69.12987, -18.13874], [-69.13258, -18.14039], [-69.13526, -18.14107], [-69.13618, -18.14343], [-69.13934, -18.14437], [-69.14061, -18.14532], [-69.14163, -18.14871], [-69.14187, -18.15241], [-69.14164, -18.15574], [-69.14238, -18.1583], [-69.14237, -18.16051], [-69.14373, -18.16042], [-69.14595, -18.16181], [-69.14623, -18.16317], [-69.14529, -18.16585], [-69.14421, -18.16659], [-69.1424, -18.16668], [-69.1396, -18.17244], [-69.13649, -18.17635], [-69.12513, -18.18293], [-69.12293, -18.18571], [-69.11906, -18.18841], [-69.11835, -18.18948], [-69.11774, -18.19243], [-69.11706, -18.19365], [-69.115, -18.1958], [-69.11331, -18.19838], [-69.10964, -18.20174], [-69.10584, -18.20712], [-69.10252, -18.21019], [-69.09657, -18.21053], [-69.0924, -18.21157], [-69.08719, -18.21374], [-69.08398, -18.21568], [-69.0793, -18.21919], [-69.07666, -18.22021], [-69.07526, -18.22219], [-69.07308, -18.22259], [-69.07127, -18.22589], [-69.06824, -18.22887], [-69.06393, -18.23096], [-69.06396, -18.23351], [-69.06309, -18.23429], [-69.06296, -18.23691], [-69.06525, -18.23957], [-69.06441, -18.24194], [-69.06567, -18.24603], [-69.06987, -18.25067], [-69.07104, -18.25594], [-69.07067, -18.25763], [-69.07142, -18.25888], [-69.07167, -18.26133], [-69.07273, -18.26455], [-69.07304, -18.27228], [-69.07444, -18.28662], [-69.0736, -18.28955], [-69.07125, -18.29475], [-69.06817, -18.29832], [-69.06444, -18.30068], [-69.06285, -18.30224], [-69.06194, -18.30455], [-69.05896, -18.3077], [-69.05727, -18.30877], [-69.0553, -18.3094], [-69.05288, -18.31091], [-69.04772, -18.31228], [-69.04541, -18.31228], [-69.04446, -18.31381], [-69.04335, -18.31671], [-69.04215, -18.31818], [-69.03932, -18.32011], [-69.03819, -18.32212], [-69.04158, -18.32503], [-69.043, -18.32836], [-69.04427, -18.32997], [-69.04677, -18.33445], [-69.04934, -18.33578], [-69.05003, -18.33685], [-69.05197, -18.33761], [-69.05248, -18.34096], [-69.05213, -18.34198], [-69.05252, -18.34508], [-69.05397, -18.34712], [-69.05403, -18.34797], [-69.05141, -18.3494], [-69.05068, -18.35077], [-69.05043, -18.35328], [-69.04956, -18.35498], [-69.04961, -18.35625], [-69.0509, -18.35885], [-69.05036, -18.36329], [-69.0487, -18.36515], [-69.04909, -18.36689], [-69.05083, -18.3701], [-69.05321, -18.37149], [-69.05547, -18.37176], [-69.05681, -18.37494], [-69.05574, -18.37787], [-69.05427, -18.38065], [-69.0527, -18.38177], [-69.05123, -18.38211], [-69.0478, -18.38201], [-69.04596, -18.38489], [-69.04547, -18.39399], [-69.04573, -18.3958], [-69.04793, -18.4005], [-69.04764, -18.40681], [-69.0483, -18.40805], [-69.04845, -18.41022], [-69.0491, -18.41219], [-69.04836, -18.41416], [-69.04598, -18.41532], [-69.04592, -18.41613], [-69.04777, -18.41846], [-69.04705, -18.42066], [-69.04736, -18.42434], [-69.0483, -18.42658], [-69.04556, -18.42835], [-69.04233, -18.4287], [-69.04102, -18.42975], [-69.03988, -18.43231], [-69.04004, -18.43447], [-69.03968, -18.43779], [-69.03873, -18.43984], [-69.03881, -18.44171], [-69.03659, -18.44373], [-69.03624, -18.44508], [-69.02983, -18.44547], [-69.02835, -18.44658], [-69.02948, -18.45389], [-69.03025, -18.45553], [-69.02835, -18.45707], [-69.02537, -18.46063], [-69.02292, -18.4607], [-69.01856, -18.46501], [-69.01582, -18.46643], [-69.01279, -18.4687], [-69.01149, -18.47027], [-69.00727, -18.47397], [-69.00428, -18.47551], [-69.00426, -18.47951], [-69.00279, -18.48236], [-69.00464, -18.48312], [-69.00731, -18.48482], [-69.00795, -18.4858], [-69.0087, -18.48886], [-69.00804, -18.4926], [-69.00833, -18.49812], [-69.00808, -18.50643], [-69.00964, -18.51437], [-69.00921, -18.51585], [-69.00707, -18.51876], [-69.00586, -18.52138], [-69.0056, -18.523], [-69.00659, -18.5265], [-69.00922, -18.53092], [-69.01148, -18.53624], [-69.0114, -18.53827], [-69.01292, -18.54102], [-69.01319, -18.54242], [-69.01153, -18.54468], [-69.01243, -18.54706], [-69.014, -18.55326], [-69.01407, -18.55647], [-69.01479, -18.56232], [-69.01456, -18.56602], [-69.0167, -18.57113], [-69.0169, -18.57241], [-69.00743, -18.60151], [-69.00903, -18.60157], [-69.01143, -18.60084], [-69.01509, -18.59894], [-69.01998, -18.59954], [-69.02186, -18.60046], [-69.02506, -18.60024], [-69.02725, -18.60068], [-69.02853, -18.60161], [-69.02933, -18.60464], [-69.02881, -18.60596], [-69.02882, -18.609], [-69.02944, -18.61006], [-69.0323, -18.61193], [-69.03496, -18.61235], [-69.03695, -18.61324], [-69.03703, -18.61426], [-69.03583, -18.61569], [-69.03583, -18.61768], [-69.03684, -18.62099], [-69.03648, -18.62362], [-69.03528, -18.62505], [-69.03267, -18.62966], [-69.03059, -18.63016], [-69.02687, -18.62818], [-69.02449, -18.62936], [-69.023, -18.63098], [-69.01812, -18.63328], [-69.01413, -18.63332], [-69.01158, -18.63588], [-69.01011, -18.63689], [-69.00882, -18.63987], [-69.00847, -18.64259], [-69.00891, -18.64575], [-69.00845, -18.64635], [-69.00532, -18.64706], [-69.00387, -18.64925], [-69.00256, -18.65024], [-69.002, -18.65406], [-69.00033, -18.65668], [-68.99589, -18.65969], [-68.99268, -18.66597], [-68.99084, -18.6687], [-68.9889, -18.67045], [-68.98831, -18.67405], [-68.9874, -18.67562], [-68.98415, -18.67864], [-68.98533, -18.68156], [-68.98451, -18.68526], [-68.98468, -18.68834], [-68.98301, -18.6907], [-68.98363, -18.6931], [-68.98299, -18.69839], [-68.98598, -18.70113], [-68.98684, -18.70352], [-68.98701, -18.70609], [-68.9859, -18.71006], [-68.98436, -18.71209], [-68.98092, -18.71455], [-68.97814, -18.71863], [-68.97679, -18.72462], [-68.97696, -18.72734], [-68.97548, -18.73323], [-68.97565, -18.73537], [-68.97533, -18.73777], [-68.97772, -18.73897], [-68.92566, -18.84272], [-68.92603, -18.84418], [-68.92473, -18.84689], [-68.92535, -18.84887], [-68.92426, -18.85099], [-68.92479, -18.85342], [-68.92367, -18.8577], [-68.92143, -18.86031], [-68.92173, -18.86277], [-68.92069, -18.86952], [-68.91871, -18.87275], [-68.91912, -18.87597], [-68.92038, -18.88074], [-68.92049, -18.88464], [-68.92005, -18.88578], [-68.91638, -18.88978], [-68.91415, -18.89034], [-68.91245, -18.89025], [-68.91228, -18.89132], [-68.91678, -18.89163], [-68.91854, -18.89293], [-68.92043, -18.89312], [-68.92415, -18.89913], [-68.92599, -18.90277], [-68.92607, -18.90428], [-68.92526, -18.90664], [-68.92522, -18.90846], [-68.92838, -18.91037], [-68.93018, -18.91231], [-68.93233, -18.91347], [-68.93184, -18.91548], [-68.9342, -18.91566], [-68.93785, -18.91728], [-68.93946, -18.91845], [-68.94077, -18.92167], [-68.94124, -18.92602], [-68.94112, -18.92734], [-68.94195, -18.92982], [-68.94324, -18.93109], [-68.94934, -18.93464], [-68.9502, -18.93667]]]}}]}