{"type": "FeatureCollection", "crs": {"type": "name", "properties": {"name": "urn:ogc:def:crs:OGC:1.3:CRS84"}}, "features": [{"type": "Feature", "properties": {"cod_comuna": "05301", "nombre_comuna": "Los Andes", "nombre_provincia": "Los Andes", "nombre_region": "Región de Valparaíso"}, "geometry": {"type": "Polygon", "coordinates": [[[-70.5826, -32.85539], [-70.58199, -32.85931], [-70.58929, -32.85751], [-70.58876, -32.85316], [-70.59087, -32.85451], [-70.59198, -32.85484], [-70.59558, -32.85759], [-70.59811, -32.85776], [-70.60356, -32.85731], [-70.60479, -32.85503], [-70.60533, -32.85274], [-70.60675, -32.85134], [-70.60562, -32.85017], [-70.60553, -32.84764], [-70.60612, -32.84565], [-70.60715, -32.84575], [-70.61022, -32.84478], [-70.61593, -32.84123], [-70.61849, -32.84083], [-70.61945, -32.83981], [-70.62579, -32.83763], [-70.63237, -32.83693], [-70.63186, -32.83427], [-70.63772, -32.83276], [-70.64132, -32.83096], [-70.65102, -32.82745], [-70.65887, -32.8252], [-70.65916, -32.81864], [-70.65633, -32.81901], [-70.65476, -32.8158], [-70.65305, -32.81539], [-70.64856, -32.81297], [-70.64722, -32.81331], [-70.64425, -32.81176], [-70.64073, -32.80841], [-70.63981, -32.80663], [-70.6376, -32.80538], [-70.63441, -32.80068], [-70.63139, -32.80141], [-70.62648, -32.80569], [-70.62482, -32.8065], [-70.61908, -32.80772], [-70.61766, -32.80834], [-70.6157, -32.81005], [-70.61267, -32.81202], [-70.61006, -32.81313], [-70.60701, -32.81383], [-70.60448, -32.81627], [-70.59426, -32.82389], [-70.59058, -32.82538], [-70.5896, -32.82648], [-70.58668, -32.8325], [-70.58536, -32.8345], [-70.58288, -32.8352], [-70.58201, -32.83467], [-70.58002, -32.83072], [-70.57786, -32.82942], [-70.56989, -32.82616], [-70.56177, -32.82578], [-70.55921, -32.82635], [-70.55611, -32.82624], [-70.55413, -32.82686], [-70.54957, -32.83143], [-70.54917, -32.83288], [-70.54749, -32.83459], [-70.54373, -32.83543], [-70.54213, -32.83489], [-70.53387, -32.83829], [-70.53184, -32.83855], [-70.52932, -32.84069], [-70.52091, -32.84507], [-70.51922, -32.84725], [-70.51567, -32.84892], [-70.51258, -32.8491], [-70.5101, -32.85034], [-70.50743, -32.85353], [-70.50596, -32.85388], [-70.5034, -32.85318], [-70.50028, -32.85631], [-70.49814, -32.85763], [-70.49063, -32.85787], [-70.48835, -32.85939], [-70.48727, -32.85948], [-70.48594, -32.85703], [-70.48197, -32.85754], [-70.47766, -32.85717], [-70.476, -32.85536], [-70.47377, -32.85393], [-70.47173, -32.85369], [-70.46979, -32.85409], [-70.4666, -32.85407], [-70.46103, -32.8562], [-70.45641, -32.85595], [-70.45253, -32.85653], [-70.44975, -32.85793], [-70.44633, -32.85769], [-70.4398, -32.85921], [-70.43724, -32.86081], [-70.43255, -32.86124], [-70.43005, -32.86182], [-70.42714, -32.86113], [-70.42456, -32.86361], [-70.42343, -32.86411], [-70.42053, -32.86369], [-70.41751, -32.86399], [-70.41352, -32.86509], [-70.41023, -32.86554], [-70.40751, -32.86805], [-70.40441, -32.86943], [-70.40099, -32.87374], [-70.39742, -32.87536], [-70.39582, -32.87691], [-70.39374, -32.87743], [-70.39116, -32.87978], [-70.38865, -32.88323], [-70.38748, -32.88607], [-70.38608, -32.88639], [-70.38435, -32.88561], [-70.38178, -32.88617], [-70.3803, -32.88714], [-70.38052, -32.89279], [-70.37917, -32.8945], [-70.37742, -32.89559], [-70.37413, -32.89639], [-70.37239, -32.89778], [-70.37081, -32.90127], [-70.36957, -32.90251], [-70.36429, -32.90507], [-70.36418, -32.90675], [-70.36287, -32.91001], [-70.36165, -32.90953], [-70.35747, -32.90582], [-70.35591, -32.90369], [-70.35286, -32.9018], [-70.35089, -32.89956], [-70.348, -32.89748], [-70.34442, -32.89648], [-70.33944, -32.89649], [-70.33808, -32.89574], [-70.33641, -32.89216], [-70.33502, -32.88768], [-70.33016, -32.88063], [-70.33041, -32.87745], [-70.32913, -32.87655], [-70.32011, -32.8762], [-70.31708, -32.87564], [-70.3112, -32.87245], [-70.30858, -32.86828], [-70.30588, -32.86529], [-70.3028, -32.86352], [-70.30226, -32.86266], [-70.30157, -32.85898], [-70.29913, -32.8568], [-70.29915, -32.85466], [-70.29974, -32.85273], [-70.29849, -32.8498], [-70.29615, -32.84654], [-70.29173, -32.84568], [-70.28874, -32.84247], [-70.28276, -32.83953], [-70.27885, -32.83359], [-70.27907, -32.83106], [-70.27649, -32.82744], [-70.27315, -32.82629], [-70.26921, -32.82633], [-70.26501, -32.82774], [-70.26187, -32.83027], [-70.25707, -32.83191], [-70.25494, -32.83362], [-70.25198, -32.83406], [-70.25063, -32.83333], [-70.2491, -32.83009], [-70.24544, -32.82415], [-70.24431, -32.82132], [-70.24151, -32.81772], [-70.24386, -32.8105], [-70.24234, -32.80793], [-70.23781, -32.80649], [-70.23773, -32.80357], [-70.2363, -32.80159], [-70.23438, -32.80142], [-70.22487, -32.80199], [-70.22182, -32.80305], [-70.21848, -32.80251], [-70.21669, -32.80175], [-70.21638, -32.80067], [-70.21668, -32.79391], [-70.21596, -32.79254], [-70.2109, -32.78966], [-70.20489, -32.78862], [-70.20097, -32.78875], [-70.19787, -32.78734], [-70.19679, -32.78629], [-70.19477, -32.78286], [-70.19298, -32.78136], [-70.18851, -32.77912], [-70.18189, -32.77684], [-70.1793, -32.77472], [-70.17699, -32.77375], [-70.17462, -32.77218], [-70.17141, -32.76838], [-70.17105, -32.76643], [-70.16927, -32.76323], [-70.16863, -32.75925], [-70.16907, -32.75729], [-70.16686, -32.75029], [-70.16163, -32.74018], [-70.1577, -32.73408], [-70.15493, -32.73044], [-70.15103, -32.72656], [-70.14773, -32.725], [-70.14618, -32.725], [-70.14747, -32.72658], [-70.14722, -32.72913], [-70.14271, -32.72869], [-70.13733, -32.73198], [-70.13743, -32.73373], [-70.13635, -32.73678], [-70.13697, -32.73909], [-70.13578, -32.74148], [-70.13281, -32.74383], [-70.13166, -32.7456], [-70.13145, -32.75211], [-70.13065, -32.75395], [-70.1324, -32.75579], [-70.13036, -32.7578], [-70.12825, -32.75885], [-70.12703, -32.7612], [-70.12258, -32.76314], [-70.12096, -32.7634], [-70.11853, -32.76573], [-70.1154, -32.76757], [-70.1145, -32.76991], [-70.11312, -32.77158], [-70.11175, -32.77544], [-70.11226, -32.77864], [-70.11122, -32.78066], [-70.11058, -32.78331], [-70.1084, -32.78674], [-70.10856, -32.7898], [-70.10725, -32.79243], [-70.10789, -32.80071], [-70.1067, -32.80125], [-70.10232, -32.80003], [-70.09752, -32.80148], [-70.0935, -32.80122], [-70.09209, -32.80162], [-70.08705, -32.80555], [-70.08576, -32.80771], [-70.08546, -32.80983], [-70.08294, -32.81445], [-70.08237, -32.8179], [-70.08092, -32.81959], [-70.07923, -32.82251], [-70.0783, -32.82327], [-70.07418, -32.82375], [-70.07057, -32.82589], [-70.06745, -32.82652], [-70.06349, -32.82779], [-70.06185, -32.82894], [-70.05553, -32.83158], [-70.05496, -32.8333], [-70.05237, -32.83653], [-70.05234, -32.83748], [-70.0543, -32.83843], [-70.05466, -32.84245], [-70.05454, -32.84629], [-70.05591, -32.84765], [-70.05481, -32.84935], [-70.05462, -32.85101], [-70.0565, -32.85702], [-70.05466, -32.85857], [-70.05154, -32.86214], [-70.04974, -32.86261], [-70.04623, -32.86526], [-70.04409, -32.86839], [-70.03808, -32.87207], [-70.03438, -32.87377], [-70.02215, -32.877], [-70.02077, -32.87837], [-70.01799, -32.8797], [-70.01075, -32.88123], [-70.0054, -32.88119], [-70.00333, -32.88153], [-70.00011, -32.88389], [-69.99349, -32.89209], [-69.992, -32.89338], [-69.98935, -32.8983], [-69.98908, -32.90278], [-69.99021, -32.90533], [-69.99052, -32.90801], [-69.99113, -32.90878], [-69.99136, -32.91193], [-69.99541, -32.91531], [-69.99904, -32.91648], [-69.99985, -32.91842], [-70.00223, -32.92002], [-70.0048, -32.92418], [-70.00427, -32.92706], [-70.0059, -32.92813], [-70.00731, -32.9303], [-70.00765, -32.93172], [-70.0046, -32.93521], [-70.00332, -32.94007], [-70.00002, -32.94411], [-70.00111, -32.94662], [-70.00332, -32.94722], [-70.00651, -32.94971], [-70.00682, -32.95136], [-70.00872, -32.95319], [-70.01324, -32.95502], [-70.01692, -32.95577], [-70.01934, -32.95587], [-70.02029, -32.95643], [-70.02005, -32.95817], [-70.02066, -32.96134], [-70.02029, -32.96294], [-70.02134, -32.96497], [-70.02421, -32.96666], [-70.0258, -32.96865], [-70.02747, -32.9699], [-70.02711, -32.97187], [-70.02523, -32.97343], [-70.02487, -32.97469], [-70.02544, -32.9777], [-70.02431, -32.9793], [-70.02206, -32.98099], [-70.02271, -32.98317], [-70.02146, -32.99217], [-70.02165, -32.99478], [-70.02254, -32.99748], [-70.02008, -33.00342], [-70.01989, -33.00734], [-70.02156, -33.00915], [-70.02588, -33.01086], [-70.0276, -33.01224], [-70.02811, -33.01637], [-70.03046, -33.01934], [-70.0341, -33.02266], [-70.03685, -33.02378], [-70.04257, -33.02329], [-70.0448, -33.02451], [-70.05044, -33.02606], [-70.05261, -33.02898], [-70.05712, -33.02988], [-70.05991, -33.02882], [-70.0649, -33.02874], [-70.06799, -33.02766], [-70.07069, -33.02784], [-70.07381, -33.02903], [-70.07633, -33.0292], [-70.07975, -33.02846], [-70.08129, -33.02874], [-70.08215, -33.03439], [-70.08284, -33.03546], [-70.08483, -33.03668], [-70.0878, -33.03936], [-70.08666, -33.04233], [-70.08552, -33.04319], [-70.08637, -33.04557], [-70.08763, -33.0465], [-70.09174, -33.0477], [-70.09378, -33.05162], [-70.09776, -33.05285], [-70.10157, -33.05253], [-70.10277, -33.05319], [-70.10699, -33.05833], [-70.10843, -33.05957], [-70.11176, -33.06145], [-70.11604, -33.06504], [-70.11612, -33.06705], [-70.11354, -33.07], [-70.11334, -33.0722], [-70.11691, -33.07287], [-70.12429, -33.07525], [-70.12912, -33.07937], [-70.12982, -33.08056], [-70.13044, -33.08425], [-70.13224, -33.08721], [-70.13165, -33.08966], [-70.1324, -33.09075], [-70.13521, -33.09265], [-70.13637, -33.09417], [-70.13877, -33.09443], [-70.14212, -33.09364], [-70.14446, -33.09371], [-70.14647, -33.09499], [-70.14801, -33.09517], [-70.15045, -33.09452], [-70.15226, -33.09582], [-70.15874, -33.09916], [-70.15875, -33.10036], [-70.15551, -33.105], [-70.15294, -33.10687], [-70.15498, -33.11011], [-70.15587, -33.11312], [-70.17721, -33.10673], [-70.17822, -33.10577], [-70.17882, -33.10346], [-70.18119, -33.10238], [-70.18375, -33.10197], [-70.18542, -33.10316], [-70.18626, -33.10622], [-70.1896, -33.10906], [-70.19109, -33.10977], [-70.19391, -33.10991], [-70.19911, -33.11082], [-70.20003, -33.11138], [-70.20121, -33.11463], [-70.20277, -33.11629], [-70.20375, -33.12307], [-70.20514, -33.12469], [-70.20934, -33.12747], [-70.217, -33.12956], [-70.21775, -33.13051], [-70.22059, -33.13189], [-70.22262, -33.13427], [-70.22406, -33.13526], [-70.22793, -33.13508], [-70.22931, -33.13574], [-70.23192, -33.13907], [-70.23624, -33.14039], [-70.2361, -33.1427], [-70.23219, -33.14422], [-70.23079, -33.1463], [-70.22786, -33.14815], [-70.2269, -33.14926], [-70.22698, -33.1507], [-70.22933, -33.15552], [-70.22975, -33.15738], [-70.23259, -33.16057], [-70.23489, -33.16188], [-70.23804, -33.16305], [-70.23926, -33.16467], [-70.23998, -33.16681], [-70.23998, -33.17036], [-70.23918, -33.17319], [-70.2377, -33.17582], [-70.24124, -33.18101], [-70.24156, -33.1826], [-70.24282, -33.18409], [-70.24416, -33.18756], [-70.24868, -33.18687], [-70.2518, -33.1861], [-70.25422, -33.18511], [-70.25823, -33.18504], [-70.2606, -33.18465], [-70.26419, -33.18344], [-70.26694, -33.18151], [-70.26682, -33.17993], [-70.26546, -33.17627], [-70.26509, -33.17394], [-70.26518, -33.16685], [-70.26787, -33.16428], [-70.26929, -33.16098], [-70.26901, -33.15802], [-70.26935, -33.15645], [-70.27089, -33.15478], [-70.27134, -33.15184], [-70.27109, -33.14964], [-70.27146, -33.14755], [-70.26983, -33.14203], [-70.26968, -33.13548], [-70.27142, -33.13199], [-70.2729, -33.13106], [-70.28171, -33.13129], [-70.28628, -33.13195], [-70.28796, -33.13184], [-70.29232, -33.12972], [-70.29541, -33.12662], [-70.29702, -33.12312], [-70.29683, -33.12002], [-70.29825, -33.11792], [-70.29816, -33.11621], [-70.30013, -33.1128], [-70.30374, -33.11303], [-70.30743, -33.11066], [-70.30962, -33.10883], [-70.31109, -33.10843], [-70.31388, -33.10966], [-70.31768, -33.10977], [-70.31941, -33.1089], [-70.3206, -33.10569], [-70.3207, -33.1034], [-70.3241, -33.10205], [-70.3295, -33.10208], [-70.33062, -33.10146], [-70.3339, -33.09794], [-70.33669, -33.09678], [-70.33877, -33.09642], [-70.34286, -33.09699], [-70.34336, -33.09894], [-70.3433, -33.10192], [-70.34499, -33.10331], [-70.3483, -33.10394], [-70.35043, -33.10496], [-70.35353, -33.10514], [-70.36135, -33.10697], [-70.3654, -33.1072], [-70.36911, -33.10673], [-70.3715, -33.10572], [-70.37455, -33.10523], [-70.37507, -33.10366], [-70.37719, -33.10236], [-70.37766, -33.09972], [-70.38014, -33.09758], [-70.38048, -33.09625], [-70.38226, -33.09444], [-70.38505, -33.09367], [-70.38697, -33.0903], [-70.38859, -33.08897], [-70.38597, -33.08383], [-70.38643, -33.08287], [-70.38854, -33.08232], [-70.39139, -33.08045], [-70.39338, -33.08081], [-70.39472, -33.08034], [-70.39552, -33.07806], [-70.39472, -33.07552], [-70.39486, -33.07331], [-70.39607, -33.07221], [-70.40332, -33.06783], [-70.40458, -33.0665], [-70.40661, -33.06598], [-70.40696, -33.06409], [-70.40483, -33.06047], [-70.40221, -33.05726], [-70.40177, -33.05499], [-70.39672, -33.05103], [-70.39656, -33.04939], [-70.39757, -33.0483], [-70.39819, -33.04612], [-70.39936, -33.04451], [-70.40127, -33.04299], [-70.39926, -33.04158], [-70.39884, -33.04027], [-70.39903, -33.03591], [-70.39949, -33.03423], [-70.40212, -33.03236], [-70.40527, -33.03094], [-70.40696, -33.02976], [-70.41658, -33.02511], [-70.42095, -33.02501], [-70.41749, -33.02183], [-70.41476, -33.01832], [-70.41351, -33.01499], [-70.41332, -33.01186], [-70.41385, -33.00981], [-70.41563, -33.00781], [-70.41521, -33.00655], [-70.41287, -33.00463], [-70.41082, -33.00397], [-70.40667, -33.00117], [-70.41797, -32.99236], [-70.42398, -32.98554], [-70.42655, -32.98373], [-70.42938, -32.98244], [-70.43454, -32.97917], [-70.43984, -32.97241], [-70.44218, -32.97143], [-70.44478, -32.96863], [-70.44953, -32.96564], [-70.45198, -32.9655], [-70.45478, -32.96268], [-70.45694, -32.96155], [-70.45987, -32.96094], [-70.46178, -32.95983], [-70.46289, -32.95829], [-70.4633, -32.95588], [-70.46306, -32.95252], [-70.46417, -32.94274], [-70.46582, -32.93856], [-70.46519, -32.93593], [-70.46929, -32.93357], [-70.47151, -32.93114], [-70.47444, -32.92865], [-70.47762, -32.92395], [-70.47865, -32.91949], [-70.47857, -32.91724], [-70.48191, -32.91106], [-70.48347, -32.90955], [-70.4857, -32.90924], [-70.48843, -32.90997], [-70.49071, -32.91131], [-70.49316, -32.91178], [-70.49755, -32.91127], [-70.49915, -32.90953], [-70.50174, -32.9088], [-70.50381, -32.90572], [-70.50501, -32.90467], [-70.50499, -32.90047], [-70.50532, -32.89751], [-70.50602, -32.89578], [-70.50735, -32.89451], [-70.50832, -32.89267], [-70.5076, -32.8888], [-70.50742, -32.88117], [-70.50881, -32.88039], [-70.51153, -32.88081], [-70.52411, -32.88093], [-70.5296, -32.87993], [-70.53059, -32.87795], [-70.53278, -32.87554], [-70.53289, -32.87304], [-70.53658, -32.87258], [-70.53924, -32.87173], [-70.54085, -32.86933], [-70.5427, -32.86959], [-70.54594, -32.86869], [-70.54802, -32.86756], [-70.55083, -32.86732], [-70.55207, -32.86587], [-70.55418, -32.86561], [-70.55689, -32.86472], [-70.55981, -32.86189], [-70.56461, -32.86097], [-70.5648, -32.85826], [-70.56552, -32.85739], [-70.56827, -32.85645], [-70.5747, -32.85274], [-70.57517, -32.85183], [-70.57512, -32.84932], [-70.57666, -32.84811], [-70.58176, -32.84805], [-70.5826, -32.84578], [-70.5837, -32.84621], [-70.58481, -32.84981], [-70.58284, -32.85088], [-70.58261, -32.85231], [-70.58345, -32.85445], [-70.5826, -32.85539]]]}}, {"type": "Feature", "properties": {"cod_comuna": "13115", "nombre_comuna": "Lo Barnechea", "nombre_provincia": "Santiago", "nombre_region": "Región Metropolitana de Santiago"}, "geometry": {"type": "Polygon", "coordinates": [[[-70.43442, -33.48097], [-70.4334, -33.47338], [-70.43353, -33.47225], [-70.43532, -33.46931], [-70.43545, -33.46806], [-70.43463, -33.46611], [-70.43326, -33.46469], [-70.43069, -33.46353], [-70.4296, -33.46224], [-70.42811, -33.45815], [-70.42918, -33.45397], [-70.42865, -33.45172], [-70.42938, -33.44862], [-70.43147, -33.44633], [-70.43214, -33.44383], [-70.43092, -33.43873], [-70.43221, -33.43538], [-70.43366, -33.43281], [-70.43402, -33.42876], [-70.43498, -33.4272], [-70.43618, -33.42665], [-70.44487, -33.42435], [-70.44873, -33.42169], [-70.45152, -33.41927], [-70.45353, -33.41651], [-70.45405, -33.40913], [-70.45342, -33.40545], [-70.4534, -33.39998], [-70.45449, -33.39735], [-70.45937, -33.39658], [-70.46283, -33.39535], [-70.46743, -33.39512], [-70.46941, -33.39468], [-70.47345, -33.39481], [-70.47713, -33.39435], [-70.4773, -33.39131], [-70.47918, -33.38933], [-70.48012, -33.38658], [-70.47952, -33.38468], [-70.48293, -33.38072], [-70.48361, -33.37916], [-70.4835, -33.37684], [-70.48131, -33.37282], [-70.481, -33.37122], [-70.47548, -33.36878], [-70.47653, -33.36738], [-70.4785, -33.36631], [-70.48446, -33.36428], [-70.48849, -33.36471], [-70.49278, -33.36462], [-70.4957, -33.36696], [-70.49927, -33.36716], [-70.5044, -33.36956], [-70.51263, -33.371], [-70.51761, -33.37271], [-70.51947, -33.37037], [-70.52486, -33.3695], [-70.52754, -33.37019], [-70.53107, -33.37063], [-70.53958, -33.37052], [-70.54118, -33.37007], [-70.54485, -33.36612], [-70.54772, -33.36388], [-70.5489, -33.36047], [-70.55034, -33.35928], [-70.56026, -33.35852], [-70.56414, -33.3576], [-70.56611, -33.35598], [-70.56759, -33.35547], [-70.57155, -33.35598], [-70.5734, -33.3555], [-70.5754, -33.35307], [-70.57716, -33.35218], [-70.58015, -33.35197], [-70.58252, -33.35097], [-70.58811, -33.34671], [-70.58888, -33.34576], [-70.59093, -33.33974], [-70.59273, -33.3386], [-70.59534, -33.33811], [-70.59609, -33.33706], [-70.5942, -33.33563], [-70.59367, -33.3345], [-70.59407, -33.33181], [-70.59541, -33.33052], [-70.5956, -33.32875], [-70.5972, -33.32752], [-70.60023, -33.32101], [-70.60029, -33.31666], [-70.60207, -33.31384], [-70.6036, -33.31278], [-70.60456, -33.31068], [-70.6029, -33.30987], [-70.60171, -33.30831], [-70.60006, -33.3075], [-70.59725, -33.30864], [-70.5962, -33.30843], [-70.5957, -33.30685], [-70.59388, -33.30524], [-70.59156, -33.30404], [-70.59107, -33.30216], [-70.59272, -33.30089], [-70.59238, -33.29919], [-70.58757, -33.29604], [-70.58568, -33.29566], [-70.58336, -33.29358], [-70.58119, -33.29252], [-70.57924, -33.29236], [-70.57625, -33.29084], [-70.57452, -33.28944], [-70.57446, -33.28655], [-70.57314, -33.28438], [-70.57296, -33.28272], [-70.57161, -33.28108], [-70.57076, -33.27798], [-70.57283, -33.27587], [-70.57194, -33.27358], [-70.57329, -33.27194], [-70.57321, -33.27042], [-70.57384, -33.26641], [-70.57332, -33.26505], [-70.56957, -33.26186], [-70.56828, -33.25919], [-70.56813, -33.25717], [-70.56615, -33.25564], [-70.56413, -33.25473], [-70.56276, -33.25342], [-70.56128, -33.25305], [-70.55986, -33.25148], [-70.56195, -33.24846], [-70.56062, -33.24521], [-70.55889, -33.24363], [-70.55829, -33.24188], [-70.55682, -33.24141], [-70.5513, -33.24199], [-70.54909, -33.24129], [-70.54628, -33.24113], [-70.5447, -33.24039], [-70.54338, -33.23882], [-70.53911, -33.23928], [-70.5371, -33.24009], [-70.53271, -33.23926], [-70.52877, -33.23943], [-70.52491, -33.23908], [-70.52215, -33.23774], [-70.52166, -33.23648], [-70.51976, -33.23517], [-70.51808, -33.23315], [-70.51564, -33.23151], [-70.51475, -33.22853], [-70.51312, -33.22558], [-70.51394, -33.22271], [-70.51302, -33.2202], [-70.5092, -33.21913], [-70.5068, -33.21915], [-70.50417, -33.22003], [-70.50126, -33.22055], [-70.49924, -33.22037], [-70.49466, -33.21845], [-70.49276, -33.21833], [-70.49039, -33.21896], [-70.48331, -33.21798], [-70.47879, -33.2186], [-70.47459, -33.22005], [-70.4732, -33.21958], [-70.47056, -33.21721], [-70.47042, -33.21395], [-70.46994, -33.21249], [-70.47009, -33.20965], [-70.46856, -33.20706], [-70.46631, -33.20543], [-70.46501, -33.20326], [-70.46525, -33.20213], [-70.46781, -33.2013], [-70.46769, -33.19643], [-70.46726, -33.19527], [-70.46534, -33.19324], [-70.46152, -33.19098], [-70.45942, -33.18878], [-70.45995, -33.1856], [-70.45951, -33.18227], [-70.46007, -33.181], [-70.46219, -33.17917], [-70.46227, -33.17762], [-70.45355, -33.17156], [-70.45505, -33.16981], [-70.45407, -33.16745], [-70.45195, -33.16572], [-70.45052, -33.16355], [-70.44842, -33.16253], [-70.44482, -33.15966], [-70.44502, -33.15709], [-70.44124, -33.14935], [-70.44118, -33.14702], [-70.43789, -33.14525], [-70.43649, -33.1438], [-70.43393, -33.13756], [-70.43283, -33.13628], [-70.43056, -33.1349], [-70.43044, -33.13366], [-70.42834, -33.13038], [-70.42531, -33.12845], [-70.42184, -33.12786], [-70.42093, -33.12638], [-70.41787, -33.12384], [-70.41441, -33.12299], [-70.41256, -33.12318], [-70.41075, -33.12259], [-70.4069, -33.1222], [-70.40331, -33.12259], [-70.39998, -33.12174], [-70.39796, -33.12167], [-70.39523, -33.11986], [-70.39347, -33.11824], [-70.39115, -33.11795], [-70.38992, -33.11687], [-70.38637, -33.11529], [-70.38426, -33.11237], [-70.3842, -33.11103], [-70.38287, -33.10943], [-70.38137, -33.1089], [-70.37823, -33.10899], [-70.37685, -33.10833], [-70.37357, -33.10573], [-70.37149, -33.10574], [-70.36909, -33.10674], [-70.36538, -33.10721], [-70.36133, -33.10698], [-70.35352, -33.10515], [-70.35042, -33.10497], [-70.34829, -33.10395], [-70.34498, -33.10332], [-70.34328, -33.10193], [-70.34335, -33.09895], [-70.34284, -33.097], [-70.33875, -33.09643], [-70.33668, -33.09679], [-70.33389, -33.09795], [-70.33061, -33.10147], [-70.32949, -33.10209], [-70.32409, -33.10206], [-70.32069, -33.10342], [-70.32059, -33.1057], [-70.3194, -33.10891], [-70.31766, -33.10978], [-70.31387, -33.10967], [-70.31108, -33.10844], [-70.30961, -33.10884], [-70.30741, -33.11067], [-70.30373, -33.11304], [-70.30012, -33.11281], [-70.29814, -33.11622], [-70.29824, -33.11793], [-70.29681, -33.12004], [-70.29701, -33.12313], [-70.2954, -33.12663], [-70.29231, -33.12973], [-70.28794, -33.13185], [-70.28627, -33.13196], [-70.2817, -33.1313], [-70.27289, -33.13107], [-70.27141, -33.132], [-70.26967, -33.13549], [-70.26982, -33.14204], [-70.27145, -33.14756], [-70.27108, -33.14965], [-70.27133, -33.15186], [-70.27088, -33.15479], [-70.26934, -33.15646], [-70.26899, -33.15803], [-70.26927, -33.16099], [-70.26786, -33.16429], [-70.26516, -33.16686], [-70.26508, -33.17395], [-70.26544, -33.17628], [-70.26681, -33.17995], [-70.26692, -33.18152], [-70.26418, -33.18345], [-70.26058, -33.18466], [-70.25822, -33.18505], [-70.2542, -33.18512], [-70.25179, -33.18611], [-70.24866, -33.18688], [-70.24373, -33.187], [-70.24265, -33.18807], [-70.24162, -33.19078], [-70.23983, -33.19215], [-70.2402, -33.19673], [-70.23982, -33.19798], [-70.23733, -33.20164], [-70.23559, -33.20268], [-70.23199, -33.2031], [-70.23044, -33.20401], [-70.22808, -33.2076], [-70.22615, -33.21138], [-70.22374, -33.21355], [-70.21839, -33.21684], [-70.21772, -33.21785], [-70.2176, -33.22298], [-70.2202, -33.22427], [-70.22072, -33.22697], [-70.22276, -33.22791], [-70.22332, -33.23027], [-70.22151, -33.23634], [-70.22082, -33.23735], [-70.21694, -33.23939], [-70.21465, -33.2442], [-70.21286, -33.24614], [-70.2094, -33.24794], [-70.20822, -33.25012], [-70.20907, -33.25245], [-70.20999, -33.25338], [-70.21055, -33.25934], [-70.20944, -33.26019], [-70.20453, -33.26267], [-70.20355, -33.26442], [-70.20086, -33.26676], [-70.19825, -33.27238], [-70.20022, -33.27684], [-70.20048, -33.27863], [-70.19949, -33.28052], [-70.19903, -33.28726], [-70.1993, -33.29031], [-70.19888, -33.29156], [-70.19711, -33.29327], [-70.19501, -33.29609], [-70.1929, -33.29742], [-70.19007, -33.30221], [-70.18797, -33.30503], [-70.18653, -33.30883], [-70.18674, -33.31136], [-70.18447, -33.31573], [-70.18208, -33.32209], [-70.18269, -33.32539], [-70.18256, -33.32783], [-70.18184, -33.32966], [-70.18159, -33.33262], [-70.18234, -33.33666], [-70.18208, -33.33806], [-70.17916, -33.34129], [-70.17805, -33.34392], [-70.17592, -33.34561], [-70.17618, -33.34726], [-70.17909, -33.34901], [-70.18024, -33.35069], [-70.17982, -33.35186], [-70.17731, -33.35555], [-70.17726, -33.35651], [-70.17956, -33.35816], [-70.18122, -33.36008], [-70.18163, -33.36246], [-70.18297, -33.36287], [-70.18692, -33.36312], [-70.19, -33.36468], [-70.19183, -33.36663], [-70.19207, -33.36929], [-70.19418, -33.37164], [-70.19443, -33.37335], [-70.19321, -33.37608], [-70.19402, -33.37729], [-70.19596, -33.37811], [-70.19844, -33.38082], [-70.19906, -33.38484], [-70.20055, -33.38672], [-70.20318, -33.39155], [-70.2062, -33.39279], [-70.20904, -33.39443], [-70.21246, -33.3954], [-70.214, -33.39638], [-70.21777, -33.40062], [-70.21808, -33.40261], [-70.21695, -33.40442], [-70.21743, -33.40885], [-70.21898, -33.41227], [-70.22151, -33.41409], [-70.22413, -33.41493], [-70.226, -33.41628], [-70.22884, -33.41945], [-70.23618, -33.42396], [-70.23625, -33.4261], [-70.23831, -33.42944], [-70.24125, -33.43086], [-70.24282, -33.43278], [-70.24418, -33.4358], [-70.246, -33.43673], [-70.24859, -33.43735], [-70.25095, -33.43884], [-70.2536, -33.43917], [-70.25452, -33.43978], [-70.25548, -33.44213], [-70.25801, -33.44388], [-70.26373, -33.44437], [-70.26682, -33.44537], [-70.27306, -33.44939], [-70.27619, -33.45281], [-70.28065, -33.45507], [-70.28255, -33.45564], [-70.28346, -33.4537], [-70.28534, -33.45237], [-70.28934, -33.45198], [-70.29228, -33.45105], [-70.29758, -33.45181], [-70.29919, -33.45282], [-70.29944, -33.45558], [-70.29899, -33.45718], [-70.30083, -33.46076], [-70.30465, -33.46453], [-70.3066, -33.46529], [-70.31504, -33.46656], [-70.31958, -33.47152], [-70.32156, -33.47274], [-70.32526, -33.47313], [-70.33054, -33.47494], [-70.33455, -33.47672], [-70.34042, -33.48428], [-70.34616, -33.48877], [-70.34822, -33.48994], [-70.3513, -33.49058], [-70.35188, -33.48831], [-70.35382, -33.48643], [-70.3571, -33.4864], [-70.35925, -33.4872], [-70.36105, -33.48715], [-70.36351, -33.4859], [-70.37274, -33.48289], [-70.37646, -33.48271], [-70.3793, -33.48308], [-70.38301, -33.48532], [-70.38851, -33.48671], [-70.39335, -33.4905], [-70.39685, -33.48983], [-70.4014, -33.48996], [-70.40409, -33.48907], [-70.40708, -33.48724], [-70.40935, -33.48639], [-70.41567, -33.48308], [-70.41954, -33.4819], [-70.42554, -33.48328], [-70.42777, -33.48422], [-70.42917, -33.48404], [-70.42932, -33.48223], [-70.43442, -33.48097]]]}}, {"type": "Feature", "properties": {"cod_comuna": "13203", "nombre_comuna": "San José de Maipo", "nombre_provincia": "Cordillera", "nombre_region": "Región Metropolitana de Santiago"}, "geometry": {"type": "Polygon", "coordinates": [[[-70.03055, -34.28855], [-70.03548, -34.28624], [-70.03729, -34.28489], [-70.03977, -34.28484], [-70.04192, -34.28414], [-70.04566, -34.28126], [-70.05123, -34.28087], [-70.05282, -34.28017], [-70.05334, -34.27781], [-70.05236, -34.27607], [-70.05246, -34.27321], [-70.05343, -34.27112], [-70.05256, -34.26717], [-70.05377, -34.26393], [-70.05405, -34.25822], [-70.05242, -34.25651], [-70.05188, -34.25484], [-70.05194, -34.25136], [-70.05064, -34.24941], [-70.04999, -34.24581], [-70.04919, -34.2439], [-70.05042, -34.24096], [-70.0512, -34.23814], [-70.05132, -34.23512], [-70.05019, -34.22861], [-70.05065, -34.22594], [-70.05321, -34.22281], [-70.05434, -34.2224], [-70.05617, -34.22058], [-70.05662, -34.21884], [-70.05819, -34.21798], [-70.06089, -34.21506], [-70.06196, -34.21309], [-70.06659, -34.20912], [-70.06706, -34.20709], [-70.07196, -34.20199], [-70.07613, -34.19972], [-70.07745, -34.19802], [-70.08312, -34.19952], [-70.08551, -34.20105], [-70.08941, -34.2025], [-70.09322, -34.20312], [-70.10652, -34.20286], [-70.11274, -34.20188], [-70.11516, -34.20026], [-70.11586, -34.19689], [-70.11594, -34.1929], [-70.11731, -34.19014], [-70.11842, -34.18939], [-70.12302, -34.18836], [-70.12887, -34.18855], [-70.13131, -34.18919], [-70.13438, -34.1886], [-70.14038, -34.1843], [-70.14279, -34.18104], [-70.14695, -34.17999], [-70.14735, -34.17916], [-70.14566, -34.17691], [-70.14537, -34.17573], [-70.14597, -34.17327], [-70.15019, -34.16928], [-70.14957, -34.16771], [-70.15, -34.16646], [-70.15333, -34.16298], [-70.15383, -34.1612], [-70.15737, -34.15949], [-70.16272, -34.15954], [-70.16425, -34.15917], [-70.16295, -34.15639], [-70.16279, -34.15378], [-70.1603, -34.14965], [-70.16081, -34.14783], [-70.16254, -34.14576], [-70.163, -34.14305], [-70.16454, -34.14], [-70.16164, -34.1351], [-70.16149, -34.13408], [-70.15857, -34.13309], [-70.15774, -34.13003], [-70.15647, -34.12914], [-70.15398, -34.12858], [-70.15248, -34.12755], [-70.14968, -34.1243], [-70.14568, -34.12288], [-70.14438, -34.12165], [-70.14187, -34.1205], [-70.14325, -34.11766], [-70.14462, -34.11662], [-70.15121, -34.11441], [-70.15786, -34.1111], [-70.15977, -34.10685], [-70.16242, -34.10368], [-70.16442, -34.10057], [-70.16472, -34.09882], [-70.16448, -34.09591], [-70.16229, -34.0944], [-70.15972, -34.09446], [-70.15873, -34.09317], [-70.16137, -34.08676], [-70.16388, -34.0843], [-70.16456, -34.08294], [-70.16465, -34.08047], [-70.16754, -34.07756], [-70.16942, -34.07377], [-70.17217, -34.07157], [-70.17107, -34.06791], [-70.17198, -34.06438], [-70.17389, -34.06173], [-70.17499, -34.05845], [-70.17482, -34.05429], [-70.1735, -34.05172], [-70.17027, -34.04827], [-70.16935, -34.04572], [-70.17019, -34.04437], [-70.17523, -34.04167], [-70.17771, -34.03803], [-70.17974, -34.03605], [-70.18373, -34.03331], [-70.18615, -34.03236], [-70.19098, -34.03259], [-70.19548, -34.03323], [-70.19916, -34.03417], [-70.20499, -34.03448], [-70.20683, -34.03401], [-70.20797, -34.03271], [-70.21093, -34.03106], [-70.21561, -34.0304], [-70.21839, -34.03123], [-70.22135, -34.03054], [-70.22291, -34.0306], [-70.22602, -34.03186], [-70.22781, -34.03147], [-70.23363, -34.03186], [-70.24089, -34.03281], [-70.2438, -34.0341], [-70.24489, -34.03519], [-70.24587, -34.03851], [-70.24539, -34.04256], [-70.24819, -34.04758], [-70.24781, -34.04988], [-70.24819, -34.05107], [-70.24807, -34.05694], [-70.24988, -34.05876], [-70.25282, -34.05983], [-70.25384, -34.06138], [-70.25425, -34.06388], [-70.25516, -34.065], [-70.25962, -34.06777], [-70.26144, -34.07121], [-70.26555, -34.07135], [-70.26737, -34.07017], [-70.2692, -34.06711], [-70.27071, -34.06565], [-70.27645, -34.06388], [-70.27759, -34.06384], [-70.27959, -34.0624], [-70.28266, -34.06139], [-70.28641, -34.05886], [-70.28955, -34.05833], [-70.29473, -34.05983], [-70.29875, -34.05987], [-70.30284, -34.06108], [-70.30418, -34.06329], [-70.30384, -34.06523], [-70.30465, -34.06599], [-70.30917, -34.0664], [-70.31068, -34.06365], [-70.31356, -34.06214], [-70.31491, -34.05729], [-70.32191, -34.05735], [-70.32338, -34.05768], [-70.32607, -34.05949], [-70.33, -34.05893], [-70.33174, -34.05746], [-70.33397, -34.05646], [-70.33708, -34.05582], [-70.34031, -34.05324], [-70.34086, -34.0491], [-70.3416, -34.04802], [-70.34132, -34.04426], [-70.34165, -34.04238], [-70.34443, -34.03913], [-70.33949, -34.03333], [-70.33921, -34.03015], [-70.33076, -34.02076], [-70.32815, -34.01993], [-70.32575, -34.01984], [-70.32324, -34.01831], [-70.32139, -34.01636], [-70.32188, -34.0142], [-70.32451, -34.01182], [-70.32768, -34.01033], [-70.3268, -34.00848], [-70.32604, -34.00555], [-70.32425, -34.00425], [-70.32111, -34.00026], [-70.32167, -33.99845], [-70.32389, -33.99692], [-70.32434, -33.99497], [-70.32653, -33.99326], [-70.32798, -33.98967], [-70.32779, -33.98625], [-70.3295, -33.98137], [-70.33403, -33.98008], [-70.33813, -33.98017], [-70.34123, -33.97921], [-70.34272, -33.9777], [-70.34561, -33.97568], [-70.34815, -33.97248], [-70.34975, -33.97104], [-70.35083, -33.96733], [-70.34909, -33.96581], [-70.34906, -33.96482], [-70.34671, -33.96259], [-70.34621, -33.95782], [-70.34678, -33.95647], [-70.35031, -33.95307], [-70.35485, -33.95219], [-70.35588, -33.95144], [-70.35938, -33.95091], [-70.36241, -33.94834], [-70.36358, -33.94637], [-70.36528, -33.94517], [-70.36643, -33.94293], [-70.36753, -33.93884], [-70.3702, -33.9352], [-70.37534, -33.92956], [-70.37623, -33.92794], [-70.37673, -33.92234], [-70.37864, -33.91882], [-70.37573, -33.91547], [-70.37567, -33.91259], [-70.37504, -33.91107], [-70.37174, -33.90957], [-70.36911, -33.90767], [-70.3686, -33.90639], [-70.37267, -33.90016], [-70.37257, -33.89773], [-70.37139, -33.89535], [-70.3732, -33.89371], [-70.37434, -33.89017], [-70.37552, -33.88877], [-70.37457, -33.88678], [-70.37491, -33.88369], [-70.37647, -33.8825], [-70.38261, -33.87969], [-70.38518, -33.87938], [-70.38809, -33.88096], [-70.39138, -33.88186], [-70.39648, -33.88084], [-70.39882, -33.8799], [-70.40169, -33.87671], [-70.40583, -33.87467], [-70.4107, -33.871], [-70.41321, -33.86758], [-70.41413, -33.86401], [-70.41759, -33.85982], [-70.41881, -33.85634], [-70.42264, -33.85465], [-70.42742, -33.85486], [-70.43381, -33.8536], [-70.43035, -33.85206], [-70.42859, -33.85203], [-70.42704, -33.85083], [-70.42627, -33.84873], [-70.42189, -33.8426], [-70.42003, -33.84118], [-70.41806, -33.8405], [-70.41367, -33.83971], [-70.41138, -33.83817], [-70.40951, -33.83522], [-70.40906, -33.83324], [-70.40781, -33.83191], [-70.40855, -33.82658], [-70.40752, -33.82259], [-70.40628, -33.82021], [-70.40648, -33.81889], [-70.4048, -33.8167], [-70.40376, -33.81438], [-70.40302, -33.80398], [-70.40352, -33.80164], [-70.40479, -33.79977], [-70.40472, -33.79887], [-70.4061, -33.79678], [-70.40587, -33.79406], [-70.40343, -33.79133], [-70.40317, -33.78964], [-70.40667, -33.78604], [-70.40721, -33.7846], [-70.40724, -33.77957], [-70.40829, -33.7745], [-70.40781, -33.77355], [-70.40467, -33.77016], [-70.40392, -33.76888], [-70.40379, -33.76559], [-70.40261, -33.76365], [-70.40257, -33.7624], [-70.40417, -33.75941], [-70.40226, -33.7561], [-70.40326, -33.75401], [-70.4, -33.74927], [-70.40031, -33.74738], [-70.40361, -33.74283], [-70.40319, -33.7381], [-70.40362, -33.73252], [-70.40463, -33.73123], [-70.40459, -33.72969], [-70.40266, -33.72661], [-70.40286, -33.72344], [-70.40401, -33.72153], [-70.40357, -33.72016], [-70.40414, -33.71776], [-70.40263, -33.71521], [-70.40052, -33.71287], [-70.4005, -33.71194], [-70.40175, -33.7084], [-70.40519, -33.7067], [-70.4092, -33.70348], [-70.41305, -33.70235], [-70.41498, -33.70121], [-70.41802, -33.70076], [-70.42202, -33.69965], [-70.43056, -33.69587], [-70.43387, -33.69488], [-70.43695, -33.691], [-70.43769, -33.6892], [-70.43891, -33.68825], [-70.4397, -33.68492], [-70.44093, -33.68344], [-70.43841, -33.67822], [-70.43644, -33.67643], [-70.43171, -33.67348], [-70.43068, -33.66972], [-70.43225, -33.66832], [-70.4337, -33.66606], [-70.43344, -33.66458], [-70.43033, -33.66266], [-70.4295, -33.66062], [-70.4263, -33.66032], [-70.42419, -33.66078], [-70.42133, -33.66048], [-70.41302, -33.65449], [-70.41073, -33.65173], [-70.40821, -33.64955], [-70.40724, -33.64661], [-70.4102, -33.646], [-70.41132, -33.64499], [-70.41203, -33.64264], [-70.41316, -33.64191], [-70.41427, -33.64004], [-70.41767, -33.63789], [-70.42124, -33.6368], [-70.42374, -33.6332], [-70.42479, -33.62737], [-70.42646, -33.62526], [-70.42692, -33.6223], [-70.4278, -33.62014], [-70.42968, -33.62003], [-70.43511, -33.62066], [-70.43585, -33.62032], [-70.43712, -33.61792], [-70.43919, -33.61522], [-70.44102, -33.60871], [-70.44036, -33.60342], [-70.44055, -33.60098], [-70.4436, -33.58921], [-70.44399, -33.58534], [-70.44382, -33.57875], [-70.44994, -33.57983], [-70.45266, -33.58283], [-70.45449, -33.58302], [-70.45853, -33.58267], [-70.46136, -33.5815], [-70.46245, -33.58311], [-70.46022, -33.58735], [-70.45964, -33.58956], [-70.46087, -33.59111], [-70.46638, -33.59126], [-70.4734, -33.59235], [-70.47567, -33.59089], [-70.47671, -33.58959], [-70.47916, -33.58987], [-70.48066, -33.59434], [-70.48221, -33.5949], [-70.48532, -33.59445], [-70.48752, -33.59458], [-70.48899, -33.59548], [-70.49116, -33.59842], [-70.49536, -33.59986], [-70.49588, -33.59202], [-70.49723, -33.59096], [-70.49844, -33.58865], [-70.49796, -33.58694], [-70.49805, -33.5825], [-70.50035, -33.57994], [-70.50046, -33.57321], [-70.50008, -33.57131], [-70.49869, -33.5697], [-70.49597, -33.56772], [-70.49504, -33.56562], [-70.49339, -33.56336], [-70.49107, -33.5613], [-70.48946, -33.56041], [-70.48876, -33.55913], [-70.48853, -33.55575], [-70.48682, -33.55267], [-70.48603, -33.54604], [-70.48755, -33.54343], [-70.48684, -33.5405], [-70.48459, -33.53861], [-70.48092, -33.53766], [-70.48, -33.53686], [-70.4798, -33.53166], [-70.47617, -33.52927], [-70.47363, -33.52802], [-70.46923, -33.52677], [-70.46748, -33.52421], [-70.46584, -33.51846], [-70.46392, -33.51629], [-70.46146, -33.51551], [-70.45543, -33.51081], [-70.45478, -33.50986], [-70.45052, -33.50607], [-70.44847, -33.50516], [-70.44311, -33.50418], [-70.43899, -33.50023], [-70.43717, -33.49775], [-70.43794, -33.49016], [-70.43905, -33.48842], [-70.43915, -33.48661], [-70.43776, -33.4835], [-70.43617, -33.48185], [-70.43442, -33.48097], [-70.42932, -33.48223], [-70.42917, -33.48404], [-70.42777, -33.48422], [-70.42554, -33.48328], [-70.41954, -33.4819], [-70.41567, -33.48308], [-70.40935, -33.48639], [-70.40708, -33.48724], [-70.40409, -33.48907], [-70.4014, -33.48996], [-70.39685, -33.48983], [-70.39335, -33.4905], [-70.38851, -33.48671], [-70.38301, -33.48532], [-70.3793, -33.48308], [-70.37646, -33.48271], [-70.37274, -33.48289], [-70.36351, -33.4859], [-70.36105, -33.48715], [-70.35925, -33.4872], [-70.3571, -33.4864], [-70.35382, -33.48643], [-70.35188, -33.48831], [-70.3513, -33.49058], [-70.34822, -33.48994], [-70.34616, -33.48877], [-70.34042, -33.48428], [-70.33455, -33.47672], [-70.33054, -33.47494], [-70.32526, -33.47313], [-70.32156, -33.47274], [-70.31958, -33.47152], [-70.31504, -33.46656], [-70.3066, -33.46529], [-70.30465, -33.46453], [-70.30083, -33.46076], [-70.29899, -33.45718], [-70.29944, -33.45558], [-70.29919, -33.45282], [-70.29758, -33.45181], [-70.29228, -33.45105], [-70.28934, -33.45198], [-70.28534, -33.45237], [-70.28346, -33.4537], [-70.28255, -33.45564], [-70.28065, -33.45507], [-70.27619, -33.45281], [-70.27306, -33.44939], [-70.26682, -33.44537], [-70.26373, -33.44437], [-70.25801, -33.44388], [-70.25548, -33.44213], [-70.25452, -33.43978], [-70.2536, -33.43917], [-70.25095, -33.43884], [-70.24859, -33.43735], [-70.246, -33.43673], [-70.24418, -33.4358], [-70.24282, -33.43278], [-70.24125, -33.43086], [-70.23831, -33.42944], [-70.23625, -33.4261], [-70.23618, -33.42396], [-70.22884, -33.41945], [-70.226, -33.41628], [-70.22413, -33.41493], [-70.22151, -33.41409], [-70.21898, -33.41227], [-70.21743, -33.40885], [-70.21695, -33.40442], [-70.21808, -33.40261], [-70.21777, -33.40062], [-70.214, -33.39638], [-70.21246, -33.3954], [-70.20904, -33.39443], [-70.2062, -33.39279], [-70.20318, -33.39155], [-70.20055, -33.38672], [-70.19906, -33.38484], [-70.19844, -33.38082], [-70.19596, -33.37811], [-70.19402, -33.37729], [-70.19321, -33.37608], [-70.19443, -33.37335], [-70.19418, -33.37164], [-70.19207, -33.36929], [-70.19183, -33.36663], [-70.19, -33.36468], [-70.18692, -33.36312], [-70.18297, -33.36287], [-70.18163, -33.36246], [-70.18122, -33.36008], [-70.17956, -33.35816], [-70.17726, -33.35651], [-70.17731, -33.35555], [-70.17982, -33.35186], [-70.18024, -33.35069], [-70.17909, -33.34901], [-70.17618, -33.34726], [-70.17592, -33.34561], [-70.17805, -33.34392], [-70.17916, -33.34129], [-70.18208, -33.33806], [-70.18234, -33.33666], [-70.18159, -33.33262], [-70.18184, -33.32966], [-70.18256, -33.32783], [-70.18269, -33.32539], [-70.18208, -33.32209], [-70.18447, -33.31573], [-70.18674, -33.31136], [-70.18653, -33.30883], [-70.18797, -33.30503], [-70.19007, -33.30221], [-70.1929, -33.29742], [-70.19501, -33.29609], [-70.19711, -33.29327], [-70.19888, -33.29156], [-70.1993, -33.29031], [-70.19903, -33.28726], [-70.19949, -33.28052], [-70.20048, -33.27863], [-70.20022, -33.27684], [-70.19825, -33.27238], [-70.20086, -33.26676], [-70.20355, -33.26442], [-70.20453, -33.26267], [-70.20944, -33.26019], [-70.21055, -33.25934], [-70.20999, -33.25338], [-70.20907, -33.25245], [-70.20822, -33.25012], [-70.2094, -33.24794], [-70.21286, -33.24614], [-70.21465, -33.2442], [-70.21694, -33.23939], [-70.22082, -33.23735], [-70.22151, -33.23634], [-70.22332, -33.23027], [-70.22276, -33.22791], [-70.22072, -33.22697], [-70.2202, -33.22427], [-70.2176, -33.22298], [-70.21772, -33.21785], [-70.21839, -33.21684], [-70.22374, -33.21355], [-70.22615, -33.21138], [-70.22808, -33.2076], [-70.23044, -33.20401], [-70.23199, -33.2031], [-70.23559, -33.20268], [-70.23733, -33.20164], [-70.23982, -33.19798], [-70.2402, -33.19673], [-70.23983, -33.19215], [-70.24162, -33.19078], [-70.24265, -33.18807], [-70.24373, -33.187], [-70.24361, -33.18567], [-70.24154, -33.18261], [-70.24123, -33.18102], [-70.23769, -33.17584], [-70.23917, -33.1732], [-70.23997, -33.17037], [-70.23997, -33.16682], [-70.23925, -33.16468], [-70.23803, -33.16306], [-70.23488, -33.1619], [-70.23258, -33.16058], [-70.22974, -33.15739], [-70.22931, -33.15553], [-70.22697, -33.15071], [-70.22689, -33.14927], [-70.22784, -33.14816], [-70.23078, -33.14631], [-70.23218, -33.14423], [-70.23609, -33.14271], [-70.23623, -33.1404], [-70.23191, -33.13908], [-70.2293, -33.13575], [-70.22792, -33.13509], [-70.22405, -33.13528], [-70.22261, -33.13428], [-70.22058, -33.13191], [-70.21774, -33.13052], [-70.21699, -33.12957], [-70.20932, -33.12748], [-70.20513, -33.1247], [-70.20374, -33.12308], [-70.20276, -33.11631], [-70.2012, -33.11464], [-70.20002, -33.11139], [-70.1991, -33.11083], [-70.1939, -33.10992], [-70.19108, -33.10978], [-70.18959, -33.10907], [-70.18625, -33.10623], [-70.18541, -33.10317], [-70.18374, -33.10199], [-70.18118, -33.10239], [-70.1788, -33.10347], [-70.17821, -33.10578], [-70.1772, -33.10675], [-70.15586, -33.11313], [-70.15497, -33.11012], [-70.15293, -33.10688], [-70.1555, -33.10501], [-70.15874, -33.10037], [-70.15873, -33.09918], [-70.15224, -33.09583], [-70.15043, -33.09453], [-70.14799, -33.09518], [-70.14645, -33.095], [-70.14444, -33.09372], [-70.14211, -33.09365], [-70.13876, -33.09445], [-70.13636, -33.09418], [-70.1352, -33.09266], [-70.13239, -33.09076], [-70.13163, -33.08967], [-70.13223, -33.08722], [-70.13042, -33.08426], [-70.12981, -33.08058], [-70.12911, -33.07938], [-70.12427, -33.07526], [-70.1169, -33.07288], [-70.11333, -33.07221], [-70.11353, -33.07001], [-70.11611, -33.06706], [-70.11603, -33.06505], [-70.11174, -33.06146], [-70.10842, -33.05958], [-70.10698, -33.05834], [-70.10276, -33.0532], [-70.10155, -33.05254], [-70.0994, -33.05294], [-70.09509, -33.05224], [-70.09365, -33.05144], [-70.09167, -33.05242], [-70.08934, -33.05467], [-70.08607, -33.05645], [-70.08405, -33.05856], [-70.08069, -33.05969], [-70.07896, -33.06142], [-70.07462, -33.0647], [-70.07312, -33.07103], [-70.07124, -33.07558], [-70.07019, -33.07944], [-70.07072, -33.08164], [-70.06934, -33.08473], [-70.06784, -33.08609], [-70.0675, -33.08781], [-70.06934, -33.09152], [-70.0694, -33.09309], [-70.07084, -33.09535], [-70.06926, -33.09764], [-70.06863, -33.09938], [-70.066, -33.10318], [-70.0666, -33.10426], [-70.07078, -33.10763], [-70.07175, -33.10906], [-70.07327, -33.11353], [-70.07622, -33.11663], [-70.07649, -33.11852], [-70.07565, -33.1213], [-70.07413, -33.12302], [-70.06965, -33.12454], [-70.06593, -33.12676], [-70.06166, -33.12827], [-70.05733, -33.13118], [-70.05592, -33.13273], [-70.05234, -33.13502], [-70.05202, -33.13672], [-70.05246, -33.13908], [-70.0545, -33.14215], [-70.05665, -33.14419], [-70.05686, -33.14561], [-70.05646, -33.14905], [-70.06303, -33.151], [-70.06626, -33.15295], [-70.06723, -33.15534], [-70.06659, -33.15824], [-70.0652, -33.16044], [-70.06268, -33.16591], [-70.05744, -33.1717], [-70.0595, -33.17446], [-70.06051, -33.17711], [-70.06221, -33.17844], [-70.06508, -33.17942], [-70.0648, -33.18211], [-70.06212, -33.19008], [-70.06036, -33.19383], [-70.06076, -33.19508], [-70.06473, -33.20031], [-70.06471, -33.20335], [-70.06422, -33.20583], [-70.06313, -33.20747], [-70.06167, -33.21176], [-70.05943, -33.21468], [-70.05759, -33.21971], [-70.05586, -33.22224], [-70.05519, -33.22587], [-70.05361, -33.22653], [-70.04995, -33.2268], [-70.0487, -33.22614], [-70.04719, -33.22662], [-70.04603, -33.22789], [-70.0406, -33.22877], [-70.03791, -33.22866], [-70.02794, -33.23283], [-70.02662, -33.23494], [-70.02655, -33.23635], [-70.02733, -33.23865], [-70.02939, -33.24065], [-70.02868, -33.24443], [-70.0279, -33.24657], [-70.02878, -33.2489], [-70.03049, -33.24974], [-70.03151, -33.25152], [-70.03397, -33.25376], [-70.03466, -33.25541], [-70.03476, -33.25785], [-70.03641, -33.26145], [-70.03872, -33.27023], [-70.03819, -33.27091], [-70.03503, -33.27121], [-70.03112, -33.27315], [-70.0288, -33.27562], [-70.02729, -33.27665], [-70.02191, -33.27709], [-70.01675, -33.28084], [-70.01245, -33.28214], [-70.01031, -33.28371], [-70.0088, -33.28579], [-70.0062, -33.28607], [-70.00699, -33.28767], [-70.00759, -33.29054], [-70.01205, -33.29895], [-70.01284, -33.30113], [-70.01012, -33.30374], [-70.00981, -33.30863], [-70.00883, -33.30957], [-70.00818, -33.31176], [-70.00815, -33.31395], [-70.00925, -33.31646], [-70.00609, -33.31927], [-70.00359, -33.32228], [-70.00165, -33.32276], [-69.99966, -33.32208], [-69.99859, -33.32065], [-69.99644, -33.31983], [-69.99404, -33.31775], [-69.99244, -33.31868], [-69.98533, -33.3152], [-69.98368, -33.31367], [-69.97993, -33.31218], [-69.9731, -33.31121], [-69.9694, -33.3089], [-69.9687, -33.30729], [-69.96902, -33.30303], [-69.96746, -33.29902], [-69.96506, -33.29589], [-69.96158, -33.29248], [-69.95938, -33.29121], [-69.95654, -33.28898], [-69.95422, -33.28884], [-69.9507, -33.28492], [-69.95041, -33.28316], [-69.94866, -33.28204], [-69.94622, -33.2827], [-69.94279, -33.2846], [-69.9411, -33.28227], [-69.94052, -33.28019], [-69.93884, -33.27798], [-69.93673, -33.27613], [-69.93007, -33.27499], [-69.92894, -33.27334], [-69.92548, -33.27076], [-69.92386, -33.26852], [-69.92122, -33.26768], [-69.91736, -33.2673], [-69.91762, -33.26427], [-69.91683, -33.26074], [-69.91536, -33.25671], [-69.91543, -33.2559], [-69.91734, -33.25334], [-69.91922, -33.24826], [-69.92135, -33.24581], [-69.91802, -33.2447], [-69.90842, -33.26989], [-69.90434, -33.27293], [-69.9004, -33.27334], [-69.89475, -33.27541], [-69.89024, -33.27598], [-69.88612, -33.27864], [-69.88414, -33.27796], [-69.8818, -33.27643], [-69.87768, -33.27674], [-69.87555, -33.27621], [-69.87215, -33.27696], [-69.86774, -33.27967], [-69.86647, -33.27986], [-69.85978, -33.28297], [-69.8591, -33.28283], [-69.85709, -33.28004], [-69.85537, -33.2787], [-69.85283, -33.27766], [-69.84899, -33.27551], [-69.84625, -33.27555], [-69.84303, -33.27391], [-69.84061, -33.2718], [-69.83732, -33.27279], [-69.83518, -33.27294], [-69.83357, -33.27368], [-69.83183, -33.27555], [-69.83161, -33.27719], [-69.82967, -33.27816], [-69.82817, -33.28025], [-69.82616, -33.28077], [-69.82435, -33.28054], [-69.82165, -33.28281], [-69.82059, -33.28464], [-69.81668, -33.2881], [-69.81442, -33.28915], [-69.8119, -33.28898], [-69.81003, -33.28973], [-69.80658, -33.28928], [-69.80534, -33.28839], [-69.80165, -33.28717], [-69.79991, -33.28811], [-69.79582, -33.29953], [-69.79329, -33.30166], [-69.79299, -33.30394], [-69.79203, -33.30675], [-69.7907, -33.30902], [-69.78652, -33.31319], [-69.78421, -33.31448], [-69.7834, -33.3167], [-69.78332, -33.31839], [-69.78077, -33.32166], [-69.77839, -33.32776], [-69.77661, -33.32914], [-69.77663, -33.33269], [-69.76981, -33.34316], [-69.76961, -33.34593], [-69.76991, -33.35051], [-69.77074, -33.35261], [-69.77027, -33.35606], [-69.771, -33.36024], [-69.77322, -33.36637], [-69.7736, -33.37057], [-69.77521, -33.37686], [-69.77769, -33.38081], [-69.77823, -33.38377], [-69.78274, -33.3884], [-69.78483, -33.39111], [-69.78691, -33.39286], [-69.78965, -33.39434], [-69.79366, -33.39566], [-69.79524, -33.39685], [-69.81573, -33.39114], [-69.8072, -33.39658], [-69.80525, -33.39881], [-69.80233, -33.40324], [-69.80101, -33.40401], [-69.7987, -33.40833], [-69.79711, -33.41269], [-69.79707, -33.41515], [-69.79773, -33.41728], [-69.79622, -33.41963], [-69.79604, -33.42301], [-69.79851, -33.42444], [-69.80369, -33.42404], [-69.80716, -33.42418], [-69.81162, -33.42701], [-69.81594, -33.42832], [-69.81808, -33.4293], [-69.81904, -33.43129], [-69.81917, -33.43304], [-69.81862, -33.43534], [-69.81463, -33.43978], [-69.81448, -33.44286], [-69.81584, -33.44568], [-69.81818, -33.44909], [-69.8192, -33.4515], [-69.82134, -33.4527], [-69.82134, -33.46016], [-69.82077, -33.46149], [-69.81938, -33.46193], [-69.8171, -33.46517], [-69.81674, -33.46659], [-69.81513, -33.46937], [-69.81669, -33.47125], [-69.82219, -33.4737], [-69.82599, -33.47451], [-69.82786, -33.47608], [-69.82941, -33.47896], [-69.82997, -33.48079], [-69.83002, -33.48536], [-69.83039, -33.48685], [-69.8318, -33.48922], [-69.83254, -33.49513], [-69.83201, -33.49709], [-69.83232, -33.50021], [-69.83187, -33.50212], [-69.83272, -33.50374], [-69.83297, -33.50569], [-69.83256, -33.50772], [-69.83504, -33.51361], [-69.83536, -33.51538], [-69.83856, -33.51814], [-69.84335, -33.51965], [-69.84696, -33.52031], [-69.85616, -33.52556], [-69.85703, -33.5272], [-69.85748, -33.52968], [-69.86036, -33.53256], [-69.86444, -33.5344], [-69.86993, -33.53784], [-69.87153, -33.53948], [-69.87197, -33.54372], [-69.87159, -33.54451], [-69.87178, -33.54762], [-69.87283, -33.55268], [-69.87408, -33.55545], [-69.87275, -33.55899], [-69.86973, -33.56364], [-69.86882, -33.56606], [-69.86915, -33.57205], [-69.8681, -33.57382], [-69.8654, -33.58462], [-69.86754, -33.59583], [-69.8692, -33.59607], [-69.87182, -33.59791], [-69.87351, -33.59978], [-69.87479, -33.60201], [-69.87437, -33.60481], [-69.87516, -33.60792], [-69.8766, -33.60983], [-69.87818, -33.61286], [-69.87954, -33.61645], [-69.88085, -33.61865], [-69.8768, -33.62207], [-69.87495, -33.62473], [-69.8761, -33.63049], [-69.874, -33.6341], [-69.87383, -33.63659], [-69.87476, -33.64065], [-69.877, -33.64325], [-69.87747, -33.64609], [-69.87429, -33.64939], [-69.87083, -33.65095], [-69.87039, -33.65279], [-69.87593, -33.65851], [-69.87926, -33.6586], [-69.88108, -33.66532], [-69.88232, -33.67231], [-69.88156, -33.67339], [-69.88227, -33.67825], [-69.88352, -33.68062], [-69.88433, -33.68378], [-69.88273, -33.68586], [-69.87796, -33.68842], [-69.87335, -33.69437], [-69.8731, -33.69598], [-69.87197, -33.69816], [-69.87113, -33.70339], [-69.86931, -33.70627], [-69.86923, -33.70912], [-69.86457, -33.71506], [-69.86455, -33.71724], [-69.8665, -33.71858], [-69.86899, -33.72328], [-69.87418, -33.72755], [-69.87538, -33.731], [-69.87766, -33.73357], [-69.87775, -33.73573], [-69.87658, -33.73799], [-69.87949, -33.74047], [-69.88275, -33.74407], [-69.88496, -33.74496], [-69.88589, -33.74607], [-69.88942, -33.7487], [-69.89335, -33.75375], [-69.89646, -33.75571], [-69.89979, -33.76079], [-69.90065, -33.76633], [-69.90272, -33.76854], [-69.90379, -33.77106], [-69.90424, -33.77413], [-69.90396, -33.77689], [-69.90259, -33.78043], [-69.89778, -33.78283], [-69.89512, -33.78992], [-69.89356, -33.79133], [-69.89528, -33.79562], [-69.89534, -33.80202], [-69.89284, -33.8056], [-69.89309, -33.8075], [-69.89394, -33.8091], [-69.89634, -33.81144], [-69.89668, -33.8139], [-69.89668, -33.82155], [-69.89475, -33.8238], [-69.89478, -33.82787], [-69.8971, -33.82886], [-69.89726, -33.83105], [-69.89576, -33.83241], [-69.89529, -33.83644], [-69.89796, -33.8399], [-69.89895, -33.84382], [-69.89833, -33.84758], [-69.89775, -33.84821], [-69.89354, -33.84819], [-69.88999, -33.84935], [-69.88835, -33.85029], [-69.88627, -33.8504], [-69.88562, -33.85124], [-69.88552, -33.85355], [-69.88405, -33.8556], [-69.88044, -33.85749], [-69.87863, -33.85896], [-69.87506, -33.85968], [-69.87321, -33.86079], [-69.87284, -33.86316], [-69.86942, -33.86865], [-69.86951, -33.8758], [-69.86792, -33.87854], [-69.86756, -33.88117], [-69.86318, -33.88252], [-69.86096, -33.88436], [-69.85762, -33.8856], [-69.85655, -33.88663], [-69.85676, -33.88933], [-69.85539, -33.89224], [-69.86051, -33.89718], [-69.86283, -33.89834], [-69.86436, -33.90068], [-69.86646, -33.9019], [-69.86977, -33.90495], [-69.87282, -33.90706], [-69.87508, -33.91129], [-69.87546, -33.91423], [-69.88006, -33.91522], [-69.88142, -33.91501], [-69.88473, -33.91641], [-69.88643, -33.91818], [-69.88884, -33.91939], [-69.89067, -33.92128], [-69.89195, -33.92409], [-69.89149, -33.92655], [-69.89157, -33.93159], [-69.89406, -33.93571], [-69.89218, -33.94023], [-69.89351, -33.94301], [-69.89531, -33.94516], [-69.90071, -33.94939], [-69.90081, -33.95326], [-69.90051, -33.95609], [-69.90127, -33.95748], [-69.9039, -33.96024], [-69.90593, -33.96346], [-69.90549, -33.96472], [-69.90367, -33.96713], [-69.89962, -33.97147], [-69.89762, -33.97244], [-69.89445, -33.97317], [-69.89041, -33.9753], [-69.88536, -33.97547], [-69.88236, -33.97662], [-69.88091, -33.97636], [-69.88009, -33.97473], [-69.87982, -33.97131], [-69.87749, -33.96725], [-69.87611, -33.96571], [-69.87416, -33.96457], [-69.86947, -33.96342], [-69.86063, -33.96376], [-69.85705, -33.96334], [-69.85558, -33.96383], [-69.85491, -33.96547], [-69.85443, -33.96936], [-69.85298, -33.97422], [-69.84571, -33.98192], [-69.84523, -33.98446], [-69.84362, -33.98849], [-69.84087, -33.99256], [-69.84179, -33.99413], [-69.84078, -33.99656], [-69.8424, -33.99915], [-69.8417, -34.00102], [-69.8405, -34.00236], [-69.8393, -34.00774], [-69.83589, -34.00779], [-69.83279, -34.00874], [-69.82387, -34.01052], [-69.82202, -34.0132], [-69.82157, -34.01556], [-69.82366, -34.01773], [-69.82802, -34.02447], [-69.83205, -34.02729], [-69.83685, -34.0322], [-69.84219, -34.03499], [-69.84523, -34.03883], [-69.84669, -34.04129], [-69.84728, -34.04531], [-69.8488, -34.04836], [-69.84955, -34.05112], [-69.85372, -34.0552], [-69.8542, -34.05642], [-69.8539, -34.05878], [-69.8507, -34.06151], [-69.85011, -34.06551], [-69.84849, -34.06842], [-69.84657, -34.06908], [-69.84508, -34.07024], [-69.83545, -34.07134], [-69.83312, -34.07097], [-69.8323, -34.07335], [-69.83414, -34.07717], [-69.83414, -34.07968], [-69.83361, -34.08249], [-69.83402, -34.08626], [-69.83713, -34.08772], [-69.83708, -34.09055], [-69.83962, -34.09246], [-69.84222, -34.09583], [-69.84528, -34.09709], [-69.85312, -34.09923], [-69.85602, -34.10065], [-69.85776, -34.10264], [-69.86013, -34.10404], [-69.85796, -34.10923], [-69.85761, -34.1122], [-69.85622, -34.11355], [-69.85766, -34.11574], [-69.86017, -34.11681], [-69.86181, -34.11936], [-69.86403, -34.1217], [-69.87006, -34.1241], [-69.87083, -34.12491], [-69.87189, -34.13004], [-69.87306, -34.1321], [-69.87295, -34.13392], [-69.87064, -34.13529], [-69.87008, -34.13684], [-69.86996, -34.14092], [-69.86896, -34.14146], [-69.86565, -34.14188], [-69.86489, -34.1407], [-69.86343, -34.14053], [-69.86012, -34.14261], [-69.85668, -34.14548], [-69.85566, -34.14732], [-69.8537, -34.1477], [-69.84544, -34.1532], [-69.84063, -34.1556], [-69.83831, -34.15806], [-69.83654, -34.15853], [-69.83455, -34.16129], [-69.83497, -34.1631], [-69.83452, -34.16555], [-69.83246, -34.16742], [-69.82966, -34.16828], [-69.82797, -34.16805], [-69.82548, -34.16981], [-69.82336, -34.17083], [-69.82249, -34.17258], [-69.81577, -34.17703], [-69.8138, -34.17984], [-69.81338, -34.1814], [-69.81163, -34.18477], [-69.80906, -34.18767], [-69.80164, -34.19302], [-69.80057, -34.19508], [-69.80087, -34.19749], [-69.79967, -34.20173], [-69.79918, -34.20561], [-69.79738, -34.20787], [-69.79741, -34.2102], [-69.80052, -34.21652], [-69.79872, -34.21909], [-69.79954, -34.22156], [-69.80111, -34.22224], [-69.80204, -34.22576], [-69.80539, -34.2267], [-69.80512, -34.23066], [-69.80448, -34.23204], [-69.80234, -34.23459], [-69.80389, -34.23854], [-69.80524, -34.24058], [-69.805, -34.24204], [-69.80547, -34.24633], [-69.80659, -34.24809], [-69.81042, -34.24772], [-69.81319, -34.24796], [-69.81631, -34.24722], [-69.82005, -34.24843], [-69.82414, -34.24921], [-69.8272, -34.25278], [-69.82706, -34.25458], [-69.82801, -34.25636], [-69.83186, -34.25689], [-69.83428, -34.25611], [-69.83874, -34.25636], [-69.84096, -34.25705], [-69.84364, -34.25671], [-69.84635, -34.25733], [-69.85365, -34.25604], [-69.85434, -34.25806], [-69.85646, -34.26144], [-69.85906, -34.26081], [-69.86142, -34.26406], [-69.86434, -34.2635], [-69.86806, -34.26583], [-69.8701, -34.26599], [-69.87172, -34.26673], [-69.87423, -34.26703], [-69.87871, -34.26688], [-69.88207, -34.26543], [-69.88422, -34.26359], [-69.88684, -34.26515], [-69.88968, -34.26491], [-69.89559, -34.2653], [-69.89717, -34.26598], [-69.89908, -34.26926], [-69.8995, -34.27072], [-69.89894, -34.27194], [-69.89837, -34.27634], [-69.89873, -34.28104], [-69.89784, -34.28475], [-69.90008, -34.2852], [-69.90462, -34.28766], [-69.90845, -34.29045], [-69.90937, -34.29067], [-69.91752, -34.28941], [-69.92113, -34.2899], [-69.92225, -34.28961], [-69.92367, -34.28637], [-69.92378, -34.28481], [-69.9249, -34.28449], [-69.9272, -34.2827], [-69.9292, -34.2825], [-69.9313, -34.28131], [-69.93397, -34.28114], [-69.94023, -34.27978], [-69.94025, -34.27695], [-69.94087, -34.27452], [-69.94189, -34.27254], [-69.94357, -34.27113], [-69.94582, -34.27002], [-69.94757, -34.26671], [-69.94949, -34.26551], [-69.95102, -34.26318], [-69.95456, -34.25968], [-69.96276, -34.25373], [-69.97085, -34.24992], [-69.97347, -34.24985], [-69.97539, -34.25147], [-69.98355, -34.25435], [-69.98513, -34.25753], [-69.98531, -34.2596], [-69.9871, -34.26109], [-69.98995, -34.26081], [-69.99168, -34.26133], [-69.99667, -34.26057], [-70.00288, -34.26163], [-70.00419, -34.2621], [-70.00612, -34.26556], [-70.00856, -34.26532], [-70.01129, -34.26627], [-70.01273, -34.26877], [-70.01374, -34.27233], [-70.01529, -34.27481], [-70.01643, -34.27558], [-70.01963, -34.27616], [-70.01958, -34.27808], [-70.01881, -34.28006], [-70.0192, -34.28124], [-70.02335, -34.28261], [-70.025, -34.28602], [-70.02803, -34.28784], [-70.03055, -34.28855]]]}}]}