{
"type": "FeatureCollection",
"name": "ACA",
"crs": { "type": "name", "properties": { "name": "urn:ogc:def:crs:OGC:1.3:CRS84" } },
"xy_coordinate_resolution": 1e-05,
"features": [
{ "type": "Feature", "properties": { "objectid": 17569, "dependencia": "PARTICULAR SUBVENCIONADO", "nombre_establecimiento": "ESCUELA PARTICULAR ESTRELLA SOLITARIA", "rbd": "22153", "dgv_rbd": null, "estado": null, "direccion": null, "urbano_rural": "RURAL", "matricula": 11, "tipo": null, "cut_reg": "14", "cut_prov": "142", "cut_com": "14203", "region": "Los Ríos", "provincia": "Ranco", "comuna": "Lago Ranco", "globalid": "c30bee4b-fb1d-492a-aaa9-0f83789a5c9b", "latitud": -40.37651, "longitud": -72.10715 }, "geometry": { "type": "Point", "coordinates": [ -72.10715, -40.37651 ] } },
{ "type": "Feature", "properties": { "objectid": 17576, "dependencia": "PARTICULAR SUBVENCIONADO", "nombre_establecimiento": "ESCUELA PARTICULAR LOS GUINDOS", "rbd": "7314", "dgv_rbd": null, "estado": null, "direccion": null, "urbano_rural": "RURAL", "matricula": 7, "tipo": null, "cut_reg": "14", "cut_prov": "142", "cut_com": "14203", "region": "Los Ríos", "provincia": "Ranco", "comuna": "Lago Ranco", "globalid": "e1c42d78-035f-4f21-8dd1-74d2d34caf4a", "latitud": -40.35676, "longitud": -71.9851 }, "geometry": { "type": "Point", "coordinates": [ -71.9851, -40.35676 ] } },
{ "type": "Feature", "properties": { "objectid": 17577, "dependencia": "PARTICULAR SUBVENCIONADO", "nombre_establecimiento": "ESCUELA PARTICULAR POCURA", "rbd": "7316", "dgv_rbd": null, "estado": null, "direccion": null, "urbano_rural": "RURAL", "matricula": 14, "tipo": null, "cut_reg": "14", "cut_prov": "142", "cut_com": "14203", "region": "Los Ríos", "provincia": "Ranco", "comuna": "Lago Ranco", "globalid": "ca0da8f9-57bc-4d95-a89b-4cadf6e0150b", "latitud": -40.3445, "longitud": -72.10742 }, "geometry": { "type": "Point", "coordinates": [ -72.10742, -40.3445 ] } },
{ "type": "Feature", "properties": { "objectid": 17581, "dependencia": "PARTICULAR SUBVENCIONADO", "nombre_establecimiento": "ESCUELA PARTICULAR CARRAN", "rbd": "7312", "dgv_rbd": null, "estado": null, "direccion": null, "urbano_rural": "RURAL", "matricula": 119, "tipo": null, "cut_reg": "14", "cut_prov": "142", "cut_com": "14203", "region": "Los Ríos", "provincia": "Ranco", "comuna": "Lago Ranco", "globalid": "bb875316-560c-428e-bacc-a5cc04ad2fad", "latitud": -40.33932, "longitud": -72.10302 }, "geometry": { "type": "Point", "coordinates": [ -72.10302, -40.33932 ] } },
{ "type": "Feature", "properties": { "objectid": 19216, "dependencia": "SLEP", "nombre_establecimiento": "ESCUELA RURAL RICARDO ROTH SCHUTZ", "rbd": "7741", "dgv_rbd": null, "estado": null, "direccion": null, "urbano_rural": "RURAL", "matricula": 16, "tipo": null, "cut_reg": "10", "cut_prov": "101", "cut_com": "10109", "region": "Los Lagos", "provincia": "Llanquihue", "comuna": "Puerto Varas", "globalid": "e52b9aa8-e462-4199-a9d0-2a93ce68ff35", "latitud": -41.13706, "longitud": -72.40318 }, "geometry": { "type": "Point", "coordinates": [ -72.40318, -41.13706 ] } },
{ "type": "Feature", "properties": { "objectid": 19266, "dependencia": "PARTICULAR SUBVENCIONADO", "nombre_establecimiento": "ESCUELA PARTICULAR EMMANUEL", "rbd": "22427", "dgv_rbd": null, "estado": null, "direccion": null, "urbano_rural": "RURAL", "matricula": 26, "tipo": null, "cut_reg": "10", "cut_prov": "103", "cut_com": "10302", "region": "Los Lagos", "provincia": "Osorno", "comuna": "Puerto Octay", "globalid": "5d4ee9b1-f845-40a4-9cc3-97ebd7c0876d", "latitud": -40.95765, "longitud": -72.52881 }, "geometry": { "type": "Point", "coordinates": [ -72.52881, -40.95765 ] } },
{ "type": "Feature", "properties": { "objectid": 19296, "dependencia": "PARTICULAR SUBVENCIONADO", "nombre_establecimiento": "ESCUELA PARTICULAR N.181 LAS GAVIOTAS", "rbd": "7502", "dgv_rbd": null, "estado": null, "direccion": null, "urbano_rural": "RURAL", "matricula": 1, "tipo": null, "cut_reg": "10", "cut_prov": "103", "cut_com": "10302", "region": "Los Lagos", "provincia": "Osorno", "comuna": "Puerto Octay", "globalid": "03d1c18a-3c7a-4e09-87d7-6d0447a50c66", "latitud": -40.89282, "longitud": -72.17409 }, "geometry": { "type": "Point", "coordinates": [ -72.17409, -40.89282 ] } },
{ "type": "Feature", "properties": { "objectid": 19299, "dependencia": "JUNJI", "nombre_establecimiento": "CECI PIEDRAS NEGRAS", "rbd": "J10302091", "dgv_rbd": null, "estado": null, "direccion": null, "urbano_rural": "RURAL", "matricula": 3, "tipo": null, "cut_reg": "10", "cut_prov": "103", "cut_com": "10302", "region": "Los Lagos", "provincia": "Osorno", "comuna": "Puerto Octay", "globalid": "7121f6c4-a7ff-480c-9ffe-85b3eeadcb3f", "latitud": -40.885163, "longitud": -72.477827 }, "geometry": { "type": "Point", "coordinates": [ -72.47783, -40.88516 ] } },
{ "type": "Feature", "properties": { "objectid": 19300, "dependencia": "MUNICIPAL", "nombre_establecimiento": "ESCUELA RURAL EL ISLOTE RUPANCO", "rbd": "7479", "dgv_rbd": null, "estado": null, "direccion": null, "urbano_rural": "RURAL", "matricula": 65, "tipo": null, "cut_reg": "10", "cut_prov": "103", "cut_com": "10302", "region": "Los Lagos", "provincia": "Osorno", "comuna": "Puerto Octay", "globalid": "0cda5ec0-5f73-4f3b-8e23-7bb648992c6c", "latitud": -40.88066, "longitud": -72.40867 }, "geometry": { "type": "Point", "coordinates": [ -72.40867, -40.88066 ] } },
{ "type": "Feature", "properties": { "objectid": 19301, "dependencia": "MUNICIPAL", "nombre_establecimiento": "ESCUELA RURAL LA PELLINADA", "rbd": "7489", "dgv_rbd": null, "estado": null, "direccion": null, "urbano_rural": "RURAL", "matricula": 8, "tipo": null, "cut_reg": "10", "cut_prov": "103", "cut_com": "10302", "region": "Los Lagos", "provincia": "Osorno", "comuna": "Puerto Octay", "globalid": "b62c53da-bca0-4e78-bf87-fb7aee2e2222", "latitud": -40.86039, "longitud": -72.57888 }, "geometry": { "type": "Point", "coordinates": [ -72.57888, -40.86039 ] } },
{ "type": "Feature", "properties": { "objectid": 19302, "dependencia": "JUNJI", "nombre_establecimiento": "CECI PELLINADA", "rbd": "J10302092", "dgv_rbd": null, "estado": null, "direccion": null, "urbano_rural": "RURAL", "matricula": 7, "tipo": null, "cut_reg": "10", "cut_prov": "103", "cut_com": "10302", "region": "Los Lagos", "provincia": "Osorno", "comuna": "Puerto Octay", "globalid": "a8d9612a-df9a-49b3-b81b-f9af25d224ae", "latitud": -40.860283, "longitud": -72.579038 }, "geometry": { "type": "Point", "coordinates": [ -72.57904, -40.86028 ] } },
{ "type": "Feature", "properties": { "objectid": 19305, "dependencia": "MUNICIPAL", "nombre_establecimiento": "ESCUELA RURAL SANTA ELVIRA", "rbd": "7469", "dgv_rbd": null, "estado": null, "direccion": null, "urbano_rural": "RURAL", "matricula": 4, "tipo": null, "cut_reg": "10", "cut_prov": "103", "cut_com": "10304", "region": "Los Lagos", "provincia": "Osorno", "comuna": "Puyehue", "globalid": "6f0062c5-fd92-409e-aca1-bc1efca76587", "latitud": -40.84206, "longitud": -72.33298 }, "geometry": { "type": "Point", "coordinates": [ -72.33298, -40.84206 ] } },
{ "type": "Feature", "properties": { "objectid": 19321, "dependencia": "MUNICIPAL", "nombre_establecimiento": "ESCUELA RURAL EL ENCANTO", "rbd": "7452", "dgv_rbd": null, "estado": null, "direccion": null, "urbano_rural": "RURAL", "matricula": 83, "tipo": null, "cut_reg": "10", "cut_prov": "103", "cut_com": "10304", "region": "Los Lagos", "provincia": "Osorno", "comuna": "Puyehue", "globalid": "d146f942-86d9-4bed-aefd-7918a20033de", "latitud": -40.76761, "longitud": -72.43919 }, "geometry": { "type": "Point", "coordinates": [ -72.43919, -40.76761 ] } },
{ "type": "Feature", "properties": { "objectid": 19322, "dependencia": "JUNJI", "nombre_establecimiento": "LOS PITUFOS", "rbd": "J10304016", "dgv_rbd": null, "estado": null, "direccion": null, "urbano_rural": "URBANO", "matricula": 11, "tipo": null, "cut_reg": "10", "cut_prov": "103", "cut_com": "10304", "region": "Los Lagos", "provincia": "Osorno", "comuna": "Puyehue", "globalid": "df651c21-9b9c-439a-9432-b8514d69d04b", "latitud": -40.76197498, "longitud": -72.6799455 }, "geometry": { "type": "Point", "coordinates": [ -72.67995, -40.76197 ] } },
{ "type": "Feature", "properties": { "objectid": 19323, "dependencia": "MUNICIPAL", "nombre_establecimiento": "ESCUELA RURAL DESAGUE RUPANCO", "rbd": "7463", "dgv_rbd": null, "estado": null, "direccion": null, "urbano_rural": "RURAL", "matricula": 20, "tipo": null, "cut_reg": "10", "cut_prov": "103", "cut_com": "10304", "region": "Los Lagos", "provincia": "Osorno", "comuna": "Puyehue", "globalid": "ee48c87c-24df-4440-a9e2-d638e0d1c06e", "latitud": -40.76168, "longitud": -72.67938 }, "geometry": { "type": "Point", "coordinates": [ -72.67938, -40.76168 ] } },
{ "type": "Feature", "properties": { "objectid": 19328, "dependencia": "JUNJI", "nombre_establecimiento": "VECHI CARUHA", "rbd": "J10304015", "dgv_rbd": null, "estado": null, "direccion": null, "urbano_rural": "RURAL", "matricula": 15, "tipo": null, "cut_reg": "10", "cut_prov": "103", "cut_com": "10304", "region": "Los Lagos", "provincia": "Osorno", "comuna": "Puyehue", "globalid": "6e83adfa-bd64-4c6a-b0a6-28ffccb12182", "latitud": -40.72631316, "longitud": -72.46174805 }, "geometry": { "type": "Point", "coordinates": [ -72.46175, -40.72631 ] } },
{ "type": "Feature", "properties": { "objectid": 19329, "dependencia": "MUNICIPAL", "nombre_establecimiento": "ESCUELA RURAL FUTACUHIN", "rbd": "7464", "dgv_rbd": null, "estado": null, "direccion": null, "urbano_rural": "RURAL", "matricula": 70, "tipo": null, "cut_reg": "10", "cut_prov": "103", "cut_com": "10304", "region": "Los Lagos", "provincia": "Osorno", "comuna": "Puyehue", "globalid": "d09dc1d6-b46e-49c6-83eb-e7d246646982", "latitud": -40.7258, "longitud": -72.44195 }, "geometry": { "type": "Point", "coordinates": [ -72.44195, -40.7258 ] } },
{ "type": "Feature", "properties": { "objectid": 19330, "dependencia": "JUNJI - VTF", "nombre_establecimiento": "PEQUEÑO PARAISO", "rbd": "J10304003", "dgv_rbd": null, "estado": null, "direccion": null, "urbano_rural": "URBANO", "matricula": 22, "tipo": null, "cut_reg": "10", "cut_prov": "103", "cut_com": "10304", "region": "Los Lagos", "provincia": "Osorno", "comuna": "Puyehue", "globalid": "6374c98a-a9e7-4b1a-a41a-88b7b374b6b9", "latitud": -40.72488735, "longitud": -72.43759043 }, "geometry": { "type": "Point", "coordinates": [ -72.43759, -40.72489 ] } },
{ "type": "Feature", "properties": { "objectid": 19335, "dependencia": "MUNICIPAL", "nombre_establecimiento": "ESCUELA RURAL TERMAS DE PUYEHUE", "rbd": "7465", "dgv_rbd": null, "estado": null, "direccion": null, "urbano_rural": "RURAL", "matricula": 27, "tipo": null, "cut_reg": "10", "cut_prov": "103", "cut_com": "10304", "region": "Los Lagos", "provincia": "Osorno", "comuna": "Puyehue", "globalid": "3ae4636e-990f-49c8-8d3c-85533d7fbf06", "latitud": -40.69646, "longitud": -72.36642 }, "geometry": { "type": "Point", "coordinates": [ -72.36642, -40.69646 ] } },
{ "type": "Feature", "properties": { "objectid": 19336, "dependencia": "PARTICULAR SUBVENCIONADO", "nombre_establecimiento": "ESCUELA ESPECIAL DE LENGUAJE MATISSE", "rbd": "40388", "dgv_rbd": null, "estado": null, "direccion": null, "urbano_rural": "URBANO", "matricula": 25, "tipo": null, "cut_reg": "10", "cut_prov": "103", "cut_com": "10304", "region": "Los Lagos", "provincia": "Osorno", "comuna": "Puyehue", "globalid": "5cbd8e93-c4f2-4da6-8341-7b800a4f2065", "latitud": -40.69389, "longitud": -72.59014 }, "geometry": { "type": "Point", "coordinates": [ -72.59014, -40.69389 ] } },
{ "type": "Feature", "properties": { "objectid": 19337, "dependencia": "MUNICIPAL", "nombre_establecimiento": "ESCUELA RURAL ESTACION NUEVO PORVENIR", "rbd": "7459", "dgv_rbd": null, "estado": null, "direccion": null, "urbano_rural": "URBANO", "matricula": 252, "tipo": null, "cut_reg": "10", "cut_prov": "103", "cut_com": "10304", "region": "Los Lagos", "provincia": "Osorno", "comuna": "Puyehue", "globalid": "08d5dc90-4e71-499c-9c68-740a11fb6964", "latitud": -40.69373, "longitud": -72.60588 }, "geometry": { "type": "Point", "coordinates": [ -72.60588, -40.69373 ] } },
{ "type": "Feature", "properties": { "objectid": 19338, "dependencia": "JUNJI - VTF", "nombre_establecimiento": "NIDITO DE LUZ", "rbd": "J10304001", "dgv_rbd": null, "estado": null, "direccion": null, "urbano_rural": "RURAL", "matricula": 28, "tipo": null, "cut_reg": "10", "cut_prov": "103", "cut_com": "10304", "region": "Los Lagos", "provincia": "Osorno", "comuna": "Puyehue", "globalid": "9ea7178a-cc2d-4b63-ab50-a46af2245aac", "latitud": -40.692761, "longitud": -72.605622 }, "geometry": { "type": "Point", "coordinates": [ -72.60562, -40.69276 ] } },
{ "type": "Feature", "properties": { "objectid": 19339, "dependencia": "INTEGRA", "nombre_establecimiento": "LAS GOLONDRINAS", "rbd": "I101501", "dgv_rbd": null, "estado": null, "direccion": null, "urbano_rural": "URBANO", "matricula": 95, "tipo": null, "cut_reg": "10", "cut_prov": "103", "cut_com": "10304", "region": "Los Lagos", "provincia": "Osorno", "comuna": "Puyehue", "globalid": "d9dddae9-cdbf-482a-8b8c-e9f0beed834f", "latitud": -40.691346, "longitud": -72.605528 }, "geometry": { "type": "Point", "coordinates": [ -72.60553, -40.69135 ] } },
{ "type": "Feature", "properties": { "objectid": 19342, "dependencia": "MUNICIPAL", "nombre_establecimiento": "ESCUELA PARVULARIA 'RAYITO DE SOL'", "rbd": "22070", "dgv_rbd": null, "estado": null, "direccion": null, "urbano_rural": "URBANO", "matricula": 21, "tipo": null, "cut_reg": "10", "cut_prov": "103", "cut_com": "10304", "region": "Los Lagos", "provincia": "Osorno", "comuna": "Puyehue", "globalid": "70ffe361-fc14-4041-8a4e-d1b38b65bf6b", "latitud": -40.68508, "longitud": -72.59142 }, "geometry": { "type": "Point", "coordinates": [ -72.59142, -40.68508 ] } },
{ "type": "Feature", "properties": { "objectid": 19343, "dependencia": "MUNICIPAL", "nombre_establecimiento": "LICEO LAS AMERICAS", "rbd": "22021", "dgv_rbd": null, "estado": null, "direccion": null, "urbano_rural": "URBANO", "matricula": 290, "tipo": null, "cut_reg": "10", "cut_prov": "103", "cut_com": "10304", "region": "Los Lagos", "provincia": "Osorno", "comuna": "Puyehue", "globalid": "59760202-408b-4143-820b-b5df988ebe6a", "latitud": -40.68374, "longitud": -72.59986 }, "geometry": { "type": "Point", "coordinates": [ -72.59986, -40.68374 ] } },
{ "type": "Feature", "properties": { "objectid": 19344, "dependencia": "MUNICIPAL", "nombre_establecimiento": "ESCUELA ENTRE LAGOS", "rbd": "7448", "dgv_rbd": null, "estado": null, "direccion": null, "urbano_rural": "URBANO", "matricula": 363, "tipo": null, "cut_reg": "10", "cut_prov": "103", "cut_com": "10304", "region": "Los Lagos", "provincia": "Osorno", "comuna": "Puyehue", "globalid": "d077aae1-28a7-45b9-b6c3-de414eeacd32", "latitud": -40.68363, "longitud": -72.60412 }, "geometry": { "type": "Point", "coordinates": [ -72.60412, -40.68363 ] } },
{ "type": "Feature", "properties": { "objectid": 19352, "dependencia": "MUNICIPAL", "nombre_establecimiento": "ESCUELA RURAL PILMAIQUEN", "rbd": "7460", "dgv_rbd": null, "estado": null, "direccion": null, "urbano_rural": "RURAL", "matricula": 206, "tipo": null, "cut_reg": "10", "cut_prov": "103", "cut_com": "10304", "region": "Los Lagos", "provincia": "Osorno", "comuna": "Puyehue", "globalid": "4a3e83f2-6425-431f-a8b5-cf9eb407ba9d", "latitud": -40.65227, "longitud": -72.65843 }, "geometry": { "type": "Point", "coordinates": [ -72.65843, -40.65227 ] } },
{ "type": "Feature", "properties": { "objectid": 19353, "dependencia": "JUNJI - VTF", "nombre_establecimiento": "LOS DUENDECITOS DEL SALTO", "rbd": "J10304002", "dgv_rbd": null, "estado": null, "direccion": null, "urbano_rural": "RURAL", "matricula": 21, "tipo": null, "cut_reg": "10", "cut_prov": "103", "cut_com": "10304", "region": "Los Lagos", "provincia": "Osorno", "comuna": "Puyehue", "globalid": "9790e25c-3508-42ff-8d58-40465d8a7e8a", "latitud": -40.650554, "longitud": -72.658678 }, "geometry": { "type": "Point", "coordinates": [ -72.65868, -40.65055 ] } },
{ "type": "Feature", "properties": { "objectid": 19357, "dependencia": "PARTICULAR SUBVENCIONADO", "nombre_establecimiento": "LICEO BICENTENARIO PEOPLE HELP PEOPLE DE PILMAIQUEN", "rbd": "7470", "dgv_rbd": null, "estado": null, "direccion": null, "urbano_rural": "RURAL", "matricula": 494, "tipo": null, "cut_reg": "10", "cut_prov": "103", "cut_com": "10304", "region": "Los Lagos", "provincia": "Osorno", "comuna": "Puyehue", "globalid": "3cfd8fd8-66ec-4d43-a0a5-7d54b953a124", "latitud": -40.63992, "longitud": -72.65522 }, "geometry": { "type": "Point", "coordinates": [ -72.65522, -40.63992 ] } },
{ "type": "Feature", "properties": { "objectid": 19359, "dependencia": "MUNICIPAL", "nombre_establecimiento": "ESCUELA RURAL MANTILHUE ALTO", "rbd": "7252", "dgv_rbd": null, "estado": null, "direccion": null, "urbano_rural": "RURAL", "matricula": 128, "tipo": null, "cut_reg": "14", "cut_prov": "142", "cut_com": "14204", "region": "Los Ríos", "provincia": "Ranco", "comuna": "Río Bueno", "globalid": "c65f8741-b908-4113-8c5f-4ab907560c05", "latitud": -40.63049, "longitud": -72.42586 }, "geometry": { "type": "Point", "coordinates": [ -72.42586, -40.63049 ] } },
{ "type": "Feature", "properties": { "objectid": 19361, "dependencia": "MUNICIPAL", "nombre_establecimiento": "ESCUELA RURAL PISU-PISUE", "rbd": "7262", "dgv_rbd": null, "estado": null, "direccion": null, "urbano_rural": "RURAL", "matricula": 5, "tipo": null, "cut_reg": "14", "cut_prov": "142", "cut_com": "14204", "region": "Los Ríos", "provincia": "Ranco", "comuna": "Río Bueno", "globalid": "a8b24288-8316-4cba-9f4c-4370b3e1dc6f", "latitud": -40.62871, "longitud": -72.53802 }, "geometry": { "type": "Point", "coordinates": [ -72.53802, -40.62871 ] } },
{ "type": "Feature", "properties": { "objectid": 19362, "dependencia": "PARTICULAR SUBVENCIONADO", "nombre_establecimiento": "ESCUELA CHISCAIHUE", "rbd": "7288", "dgv_rbd": null, "estado": null, "direccion": null, "urbano_rural": "RURAL", "matricula": 25, "tipo": null, "cut_reg": "14", "cut_prov": "142", "cut_com": "14204", "region": "Los Ríos", "provincia": "Ranco", "comuna": "Río Bueno", "globalid": "46b5ba4a-f39f-496f-a994-8c52ae9f2a48", "latitud": -40.62361, "longitud": -72.59502 }, "geometry": { "type": "Point", "coordinates": [ -72.59502, -40.62361 ] } },
{ "type": "Feature", "properties": { "objectid": 19364, "dependencia": "MUNICIPAL", "nombre_establecimiento": "ESCUELA RURAL VALLE MANTILHUE BAJO", "rbd": "7250", "dgv_rbd": null, "estado": null, "direccion": null, "urbano_rural": "RURAL", "matricula": 114, "tipo": null, "cut_reg": "14", "cut_prov": "142", "cut_com": "14204", "region": "Los Ríos", "provincia": "Ranco", "comuna": "Río Bueno", "globalid": "9be30313-462e-4fab-abb7-abc70e393c98", "latitud": -40.61709, "longitud": -72.4851 }, "geometry": { "type": "Point", "coordinates": [ -72.4851, -40.61709 ] } },
{ "type": "Feature", "properties": { "objectid": 19366, "dependencia": "PARTICULAR SUBVENCIONADO", "nombre_establecimiento": "ESCUELA CERRO ALEGRE", "rbd": "12188", "dgv_rbd": null, "estado": null, "direccion": null, "urbano_rural": "RURAL", "matricula": 48, "tipo": null, "cut_reg": "14", "cut_prov": "142", "cut_com": "14204", "region": "Los Ríos", "provincia": "Ranco", "comuna": "Río Bueno", "globalid": "5a07dddd-afff-46f5-8c6c-074d62132268", "latitud": -40.61313, "longitud": -72.407 }, "geometry": { "type": "Point", "coordinates": [ -72.407, -40.61313 ] } },
{ "type": "Feature", "properties": { "objectid": 19370, "dependencia": "PARTICULAR SUBVENCIONADO", "nombre_establecimiento": "ESCUELA PARTICULAR TREHUACO", "rbd": "7290", "dgv_rbd": null, "estado": null, "direccion": null, "urbano_rural": "RURAL", "matricula": 32, "tipo": null, "cut_reg": "14", "cut_prov": "142", "cut_com": "14204", "region": "Los Ríos", "provincia": "Ranco", "comuna": "Río Bueno", "globalid": "e5d36085-bd38-4a9d-b0dd-63451ecb7f56", "latitud": -40.60529, "longitud": -72.67035 }, "geometry": { "type": "Point", "coordinates": [ -72.67035, -40.60529 ] } },
{ "type": "Feature", "properties": { "objectid": 19373, "dependencia": "MUNICIPAL", "nombre_establecimiento": "ESCUELA RURAL EL ARRAYAN", "rbd": "7273", "dgv_rbd": null, "estado": null, "direccion": null, "urbano_rural": "RURAL", "matricula": 49, "tipo": null, "cut_reg": "14", "cut_prov": "142", "cut_com": "14204", "region": "Los Ríos", "provincia": "Ranco", "comuna": "Río Bueno", "globalid": "63610735-19dd-42f4-8bb4-4cdb176c9ff3", "latitud": -40.60105, "longitud": -72.51647 }, "geometry": { "type": "Point", "coordinates": [ -72.51647, -40.60105 ] } },
{ "type": "Feature", "properties": { "objectid": 19447, "dependencia": "MUNICIPAL", "nombre_establecimiento": "ESCUELA RURAL CHIRRE", "rbd": "7261", "dgv_rbd": null, "estado": null, "direccion": null, "urbano_rural": "RURAL", "matricula": 24, "tipo": null, "cut_reg": "14", "cut_prov": "142", "cut_com": "14204", "region": "Los Ríos", "provincia": "Ranco", "comuna": "Río Bueno", "globalid": "60f80f33-4ad6-44f9-b7b8-26c75f597111", "latitud": -40.57653, "longitud": -72.6501 }, "geometry": { "type": "Point", "coordinates": [ -72.6501, -40.57653 ] } },
{ "type": "Feature", "properties": { "objectid": 19518, "dependencia": "PARTICULAR SUBVENCIONADO", "nombre_establecimiento": "ESCUELA PARTICULAR BOQUIAL", "rbd": "7285", "dgv_rbd": null, "estado": null, "direccion": null, "urbano_rural": "RURAL", "matricula": 25, "tipo": null, "cut_reg": "14", "cut_prov": "142", "cut_com": "14204", "region": "Los Ríos", "provincia": "Ranco", "comuna": "Río Bueno", "globalid": "52a3c201-a9bb-4e68-87cb-0f7d7c1fcc84", "latitud": -40.54231, "longitud": -72.54156 }, "geometry": { "type": "Point", "coordinates": [ -72.54156, -40.54231 ] } },
{ "type": "Feature", "properties": { "objectid": 19520, "dependencia": "MUNICIPAL", "nombre_establecimiento": "ESCUELA RURAL SANTA ISABEL", "rbd": "7297", "dgv_rbd": null, "estado": null, "direccion": null, "urbano_rural": "RURAL", "matricula": 8, "tipo": null, "cut_reg": "14", "cut_prov": "142", "cut_com": "14204", "region": "Los Ríos", "provincia": "Ranco", "comuna": "Río Bueno", "globalid": "074dca0e-0252-4aaa-8d84-6cf74ba04f91", "latitud": -40.53056, "longitud": -72.5895 }, "geometry": { "type": "Point", "coordinates": [ -72.5895, -40.53056 ] } },
{ "type": "Feature", "properties": { "objectid": 19523, "dependencia": "MUNICIPAL", "nombre_establecimiento": "ESCUELA RURAL CURRALHUE GRANDE", "rbd": "7253", "dgv_rbd": null, "estado": null, "direccion": null, "urbano_rural": "RURAL", "matricula": 11, "tipo": null, "cut_reg": "14", "cut_prov": "142", "cut_com": "14204", "region": "Los Ríos", "provincia": "Ranco", "comuna": "Río Bueno", "globalid": "e619af97-b4a3-465a-ad07-13890bd16e0b", "latitud": -40.51108, "longitud": -72.60831 }, "geometry": { "type": "Point", "coordinates": [ -72.60831, -40.51108 ] } }
]
}
