{
"type": "FeatureCollection",
"name": "ANT",
"crs": { "type": "name", "properties": { "name": "urn:ogc:def:crs:OGC:1.3:CRS84" } },
"xy_coordinate_resolution": 1e-05,
"features": [
{ "type": "Feature", "properties": { "objectid": 21149, "dependencia": "MUNICIPAL", "nombre_establecimiento": "ESCUELA PROFESORA ALBERTINA SÁNCHEZ VALENZUELA", "rbd": "4340", "dgv_rbd": null, "estado": null, "direccion": null, "urbano_rural": "RURAL", "matricula": 4, "tipo": null, "cut_reg": "08", "cut_prov": "083", "cut_com": "08309", "region": "Biobío", "provincia": "Biobío", "comuna": "Quilleco", "globalid": "a8d5b352-61de-425b-b734-aa524196629b", "latitud": -37.43936, "longitud": -71.88704 }, "geometry": { "type": "Point", "coordinates": [ -71.88704, -37.43936 ] } },
{ "type": "Feature", "properties": { "objectid": 21164, "dependencia": "MUNICIPAL", "nombre_establecimiento": "ESCUELA ERMINDA GOMEZ DE POLIC.", "rbd": "4342", "dgv_rbd": null, "estado": null, "direccion": null, "urbano_rural": "RURAL", "matricula": 10, "tipo": null, "cut_reg": "08", "cut_prov": "083", "cut_com": "08309", "region": "Biobío", "provincia": "Biobío", "comuna": "Quilleco", "globalid": "cd8229af-a833-4fff-9ecb-94d55c0580ce", "latitud": -37.41721, "longitud": -71.85685 }, "geometry": { "type": "Point", "coordinates": [ -71.85685, -37.41721 ] } },
{ "type": "Feature", "properties": { "objectid": 21210, "dependencia": "MUNICIPAL", "nombre_establecimiento": "ESCUELA VOLCAN ANTUCO", "rbd": "4327", "dgv_rbd": null, "estado": null, "direccion": null, "urbano_rural": "RURAL", "matricula": 24, "tipo": null, "cut_reg": "08", "cut_prov": "083", "cut_com": "08302", "region": "Biobío", "provincia": "Biobío", "comuna": "Antuco", "globalid": "f23df051-bb16-4336-83e3-50f0f4a3b4bd", "latitud": -37.35958, "longitud": -71.52912 }, "geometry": { "type": "Point", "coordinates": [ -71.52912, -37.35958 ] } },
{ "type": "Feature", "properties": { "objectid": 21218, "dependencia": "MUNICIPAL", "nombre_establecimiento": "ESCUELA BASICA CERRO PILQUE", "rbd": "4328", "dgv_rbd": null, "estado": null, "direccion": null, "urbano_rural": "RURAL", "matricula": 12, "tipo": null, "cut_reg": "08", "cut_prov": "083", "cut_com": "08302", "region": "Biobío", "provincia": "Biobío", "comuna": "Antuco", "globalid": "215cb798-bf67-41f6-83bf-2ff4f88278d1", "latitud": -37.33603, "longitud": -71.61775 }, "geometry": { "type": "Point", "coordinates": [ -71.61775, -37.33603 ] } },
{ "type": "Feature", "properties": { "objectid": 21220, "dependencia": "MUNICIPAL", "nombre_establecimiento": "LICEO DOCTOR VÍCTOR RÍOS RUIZ", "rbd": "4324", "dgv_rbd": null, "estado": null, "direccion": null, "urbano_rural": "URBANO", "matricula": 542, "tipo": null, "cut_reg": "08", "cut_prov": "083", "cut_com": "08302", "region": "Biobío", "provincia": "Biobío", "comuna": "Antuco", "globalid": "2a8729ba-31b0-4bd9-9c0c-2c3891605286", "latitud": -37.33181, "longitud": -71.67837 }, "geometry": { "type": "Point", "coordinates": [ -71.67837, -37.33181 ] } },
{ "type": "Feature", "properties": { "objectid": 21221, "dependencia": "PARTICULAR SUBVENCIONADO", "nombre_establecimiento": "COLEGIO ALTAZOR", "rbd": "18234", "dgv_rbd": null, "estado": null, "direccion": null, "urbano_rural": "URBANO", "matricula": 116, "tipo": null, "cut_reg": "08", "cut_prov": "083", "cut_com": "08302", "region": "Biobío", "provincia": "Biobío", "comuna": "Antuco", "globalid": "403e9352-9c1b-4b97-80c8-ea8f281a2bfe", "latitud": -37.3311, "longitud": -71.674 }, "geometry": { "type": "Point", "coordinates": [ -71.674, -37.3311 ] } },
{ "type": "Feature", "properties": { "objectid": 21222, "dependencia": "MUNICIPAL", "nombre_establecimiento": "ESCUELA OLGA RIOS DE PINOCHET", "rbd": "4330", "dgv_rbd": null, "estado": null, "direccion": null, "urbano_rural": "RURAL", "matricula": 12, "tipo": null, "cut_reg": "08", "cut_prov": "083", "cut_com": "08302", "region": "Biobío", "provincia": "Biobío", "comuna": "Antuco", "globalid": "24be4a0c-a0bf-4963-9d48-4917d304bdbc", "latitud": -37.32912, "longitud": -71.74169 }, "geometry": { "type": "Point", "coordinates": [ -71.74169, -37.32912 ] } },
{ "type": "Feature", "properties": { "objectid": 21223, "dependencia": "PARTICULAR SUBVENCIONADO", "nombre_establecimiento": "ESCUELA ESPECIAL DE LENGUAJE ALTOS DE ANTUCO", "rbd": "42307", "dgv_rbd": null, "estado": null, "direccion": null, "urbano_rural": "URBANO", "matricula": 30, "tipo": null, "cut_reg": "08", "cut_prov": "083", "cut_com": "08302", "region": "Biobío", "provincia": "Biobío", "comuna": "Antuco", "globalid": "5f877a49-80ee-487c-a0d8-fc08dd2235dc", "latitud": -37.32801, "longitud": -71.6809 }, "geometry": { "type": "Point", "coordinates": [ -71.6809, -37.32801 ] } },
{ "type": "Feature", "properties": { "objectid": 21224, "dependencia": "INTEGRA", "nombre_establecimiento": "ISABEL RIQUELME", "rbd": "I82401", "dgv_rbd": null, "estado": null, "direccion": null, "urbano_rural": "URBANO", "matricula": 40, "tipo": null, "cut_reg": "08", "cut_prov": "083", "cut_com": "08302", "region": "Biobío", "provincia": "Biobío", "comuna": "Antuco", "globalid": "6ac0e613-1492-44b2-b8c5-7b8e2fcc2dca", "latitud": -37.32738787, "longitud": -71.67446115 }, "geometry": { "type": "Point", "coordinates": [ -71.67446, -37.32739 ] } },
{ "type": "Feature", "properties": { "objectid": 21246, "dependencia": "MUNICIPAL", "nombre_establecimiento": "ESCUELA LOS AVELLANOS", "rbd": "4311", "dgv_rbd": null, "estado": null, "direccion": null, "urbano_rural": "RURAL", "matricula": 106, "tipo": null, "cut_reg": "08", "cut_prov": "083", "cut_com": "08312", "region": "Biobío", "provincia": "Biobío", "comuna": "Tucapel", "globalid": "eec01cce-f9e3-4bf3-8511-3cb346059c49", "latitud": -37.28883, "longitud": -71.72223 }, "geometry": { "type": "Point", "coordinates": [ -71.72223, -37.28883 ] } },
{ "type": "Feature", "properties": { "objectid": 21248, "dependencia": "INTEGRA", "nombre_establecimiento": "POLCURA", "rbd": "I82303", "dgv_rbd": null, "estado": null, "direccion": null, "urbano_rural": "RURAL", "matricula": 14, "tipo": null, "cut_reg": "08", "cut_prov": "083", "cut_com": "08312", "region": "Biobío", "provincia": "Biobío", "comuna": "Tucapel", "globalid": "de98af38-6961-416e-b3d2-f4446e9a8806", "latitud": -37.287936, "longitud": -71.724415 }, "geometry": { "type": "Point", "coordinates": [ -71.72441, -37.28794 ] } },
{ "type": "Feature", "properties": { "objectid": 21251, "dependencia": "MUNICIPAL", "nombre_establecimiento": "ESCUELA LOS AROMOS", "rbd": "4317", "dgv_rbd": null, "estado": null, "direccion": null, "urbano_rural": "RURAL", "matricula": 9, "tipo": null, "cut_reg": "08", "cut_prov": "083", "cut_com": "08312", "region": "Biobío", "provincia": "Biobío", "comuna": "Tucapel", "globalid": "55197124-64f9-459d-821b-c0ed51155357", "latitud": -37.28569, "longitud": -71.76942 }, "geometry": { "type": "Point", "coordinates": [ -71.76942, -37.28569 ] } },
{ "type": "Feature", "properties": { "objectid": 21261, "dependencia": "JUNJI - VTF", "nombre_establecimiento": "RAYITOS DE SOL", "rbd": "J8312007", "dgv_rbd": null, "estado": null, "direccion": null, "urbano_rural": "RURAL", "matricula": 10, "tipo": null, "cut_reg": "08", "cut_prov": "083", "cut_com": "08312", "region": "Biobío", "provincia": "Biobío", "comuna": "Tucapel", "globalid": "740f25f5-b93f-46b3-af4f-5349d666890d", "latitud": -37.27944, "longitud": -71.826536 }, "geometry": { "type": "Point", "coordinates": [ -71.82654, -37.27944 ] } },
{ "type": "Feature", "properties": { "objectid": 21265, "dependencia": "MUNICIPAL", "nombre_establecimiento": "ESCUELA ALEJANDRO PEREZ URBANO", "rbd": "4312", "dgv_rbd": null, "estado": null, "direccion": null, "urbano_rural": "RURAL", "matricula": 166, "tipo": null, "cut_reg": "08", "cut_prov": "083", "cut_com": "08312", "region": "Biobío", "provincia": "Biobío", "comuna": "Tucapel", "globalid": "461f47f1-3845-4f89-8a39-e230a7cfc089", "latitud": -37.27697, "longitud": -71.83366 }, "geometry": { "type": "Point", "coordinates": [ -71.83366, -37.27697 ] } },
{ "type": "Feature", "properties": { "objectid": 21268, "dependencia": "INTEGRA", "nombre_establecimiento": "TRUPÁN", "rbd": "I82304", "dgv_rbd": null, "estado": null, "direccion": null, "urbano_rural": "RURAL", "matricula": 16, "tipo": null, "cut_reg": "08", "cut_prov": "083", "cut_com": "08312", "region": "Biobío", "provincia": "Biobío", "comuna": "Tucapel", "globalid": "d214e217-347d-44a1-a310-0d7f15b37ee3", "latitud": -37.276204, "longitud": -71.835605 }, "geometry": { "type": "Point", "coordinates": [ -71.83561, -37.2762 ] } },
{ "type": "Feature", "properties": { "objectid": 22238, "dependencia": "PARTICULAR SUBVENCIONADO", "nombre_establecimiento": "ESCUELA PART.TRAPA TRAPA BUTALELBUM", "rbd": "11739", "dgv_rbd": null, "estado": null, "direccion": null, "urbano_rural": "RURAL", "matricula": 79, "tipo": null, "cut_reg": "08", "cut_prov": "083", "cut_com": "08314", "region": "Biobío", "provincia": "Biobío", "comuna": "Alto Biobío", "globalid": "8bc335f0-9990-4799-8287-df178e0ea1aa", "latitud": -37.75737, "longitud": -71.21786 }, "geometry": { "type": "Point", "coordinates": [ -71.21786, -37.75737 ] } },
{ "type": "Feature", "properties": { "objectid": 22244, "dependencia": "JUNJI", "nombre_establecimiento": "KUPULWE-TRAPA TRAPA", "rbd": "J8314029", "dgv_rbd": null, "estado": null, "direccion": null, "urbano_rural": "RURAL", "matricula": 15, "tipo": null, "cut_reg": "08", "cut_prov": "083", "cut_com": "08314", "region": "Biobío", "provincia": "Biobío", "comuna": "Alto Biobío", "globalid": "79b91d9d-6f92-46f2-a3f5-730ec2db5778", "latitud": -37.731817, "longitud": -71.221345 }, "geometry": { "type": "Point", "coordinates": [ -71.22134, -37.73182 ] } },
{ "type": "Feature", "properties": { "objectid": 22277, "dependencia": "PARTICULAR SUBVENCIONADO", "nombre_establecimiento": "ESCUELA PARTICULAR CANICU", "rbd": "11674", "dgv_rbd": null, "estado": null, "direccion": null, "urbano_rural": "RURAL", "matricula": 88, "tipo": null, "cut_reg": "08", "cut_prov": "083", "cut_com": "08314", "region": "Biobío", "provincia": "Biobío", "comuna": "Alto Biobío", "globalid": "5b2b85bb-d1e6-4e35-97c2-efa1ec836b9a", "latitud": -37.71093, "longitud": -71.48191 }, "geometry": { "type": "Point", "coordinates": [ -71.48191, -37.71093 ] } },
{ "type": "Feature", "properties": { "objectid": 22278, "dependencia": "PARTICULAR SUBVENCIONADO", "nombre_establecimiento": "ESCUELA PARTICULAR TRAPA TRAPA", "rbd": "4389", "dgv_rbd": null, "estado": null, "direccion": null, "urbano_rural": "RURAL", "matricula": 50, "tipo": null, "cut_reg": "08", "cut_prov": "083", "cut_com": "08314", "region": "Biobío", "provincia": "Biobío", "comuna": "Alto Biobío", "globalid": "0e6abea9-ae95-4d75-a4cf-1a59a207f79d", "latitud": -37.7109, "longitud": -71.26525 }, "geometry": { "type": "Point", "coordinates": [ -71.26525, -37.7109 ] } },
{ "type": "Feature", "properties": { "objectid": 22318, "dependencia": "MUNICIPAL", "nombre_establecimiento": "ESCUELA QUILLAILEO", "rbd": "4372", "dgv_rbd": null, "estado": null, "direccion": null, "urbano_rural": "RURAL", "matricula": 19, "tipo": null, "cut_reg": "08", "cut_prov": "083", "cut_com": "08311", "region": "Biobío", "provincia": "Biobío", "comuna": "Santa Bárbara", "globalid": "54172f01-fc8e-4c2e-94ca-bcc5a03e370b", "latitud": -37.6535, "longitud": -71.73573 }, "geometry": { "type": "Point", "coordinates": [ -71.73573, -37.6535 ] } },
{ "type": "Feature", "properties": { "objectid": 22326, "dependencia": "MUNICIPAL", "nombre_establecimiento": "ESCUELA DE EDUCACIÓN GENERAL BÁSICA EL HUACHI", "rbd": "4355", "dgv_rbd": null, "estado": null, "direccion": null, "urbano_rural": "RURAL", "matricula": 63, "tipo": null, "cut_reg": "08", "cut_prov": "083", "cut_com": "08311", "region": "Biobío", "provincia": "Biobío", "comuna": "Santa Bárbara", "globalid": "1bb68547-77d0-4615-9732-cf62c40b7a29", "latitud": -37.64135, "longitud": -71.77251 }, "geometry": { "type": "Point", "coordinates": [ -71.77251, -37.64135 ] } },
{ "type": "Feature", "properties": { "objectid": 22402, "dependencia": "PARTICULAR SUBVENCIONADO", "nombre_establecimiento": "ESCUELA LAS PARCELAS", "rbd": "4387", "dgv_rbd": null, "estado": null, "direccion": null, "urbano_rural": "RURAL", "matricula": 174, "tipo": null, "cut_reg": "08", "cut_prov": "083", "cut_com": "08311", "region": "Biobío", "provincia": "Biobío", "comuna": "Santa Bárbara", "globalid": "62973968-5936-4ccf-86c7-7c51aba82b43", "latitud": -37.53105, "longitud": -71.8548 }, "geometry": { "type": "Point", "coordinates": [ -71.8548, -37.53105 ] } },
{ "type": "Feature", "properties": { "objectid": 22407, "dependencia": "PARTICULAR SUBVENCIONADO", "nombre_establecimiento": "ESCUELA EL CASTILLO", "rbd": "4391", "dgv_rbd": null, "estado": null, "direccion": null, "urbano_rural": "RURAL", "matricula": 56, "tipo": null, "cut_reg": "08", "cut_prov": "083", "cut_com": "08311", "region": "Biobío", "provincia": "Biobío", "comuna": "Santa Bárbara", "globalid": "0e05c19d-a58a-4339-8d2c-627158f3571f", "latitud": -37.51688, "longitud": -71.84612 }, "geometry": { "type": "Point", "coordinates": [ -71.84612, -37.51688 ] } }
]
}
