{
"type": "FeatureCollection",
"name": "CAY",
"crs": { "type": "name", "properties": { "name": "urn:ogc:def:crs:OGC:1.3:CRS84" } },
"xy_coordinate_resolution": 1e-05,
"features": [
{ "type": "Feature", "properties": { "objectid": 19790, "dependencia": "SLEP", "nombre_establecimiento": "ESCUELA ALMIRANTE SIMPSON", "rbd": "8384", "dgv_rbd": null, "estado": null, "direccion": null, "urbano_rural": "URBANO", "matricula": 137, "tipo": null, "cut_reg": "11", "cut_prov": "112", "cut_com": "11201", "region": "Aysén del General Carlos Ibáñez del Campo", "provincia": "Aisén", "comuna": "Aisén", "globalid": "a5bcbf51-2643-4c4e-ab98-05ca4d315cef", "latitud": -45.46182, "longitud": -72.81585 }, "geometry": { "type": "Point", "coordinates": [ -72.81585, -45.46182 ] } },
{ "type": "Feature", "properties": { "objectid": 19791, "dependencia": "JUNJI - VTF", "nombre_establecimiento": "AYELEN RUKA", "rbd": "J11201019", "dgv_rbd": null, "estado": null, "direccion": null, "urbano_rural": "URBANO", "matricula": 31, "tipo": null, "cut_reg": "11", "cut_prov": "112", "cut_com": "11201", "region": "Aysén del General Carlos Ibáñez del Campo", "provincia": "Aisén", "comuna": "Aisén", "globalid": "a5f81951-5ec0-4410-9a1e-55161692649d", "latitud": -45.46105513, "longitud": -72.81586619 }, "geometry": { "type": "Point", "coordinates": [ -72.81587, -45.46106 ] } },
{ "type": "Feature", "properties": { "objectid": 19792, "dependencia": "PARTICULAR SUBVENCIONADO", "nombre_establecimiento": "COLEGIO SINAI", "rbd": "40137", "dgv_rbd": null, "estado": null, "direccion": null, "urbano_rural": "URBANO", "matricula": 97, "tipo": null, "cut_reg": "11", "cut_prov": "112", "cut_com": "11201", "region": "Aysén del General Carlos Ibáñez del Campo", "provincia": "Aisén", "comuna": "Aisén", "globalid": "476ffa0a-9c1f-4b99-aa06-97bbd680e072", "latitud": -45.41768, "longitud": -72.69256 }, "geometry": { "type": "Point", "coordinates": [ -72.69256, -45.41768 ] } },
{ "type": "Feature", "properties": { "objectid": 19793, "dependencia": "PARTICULAR SUBVENCIONADO", "nombre_establecimiento": "CENTRO DE ESTUDIOS PATAGONIA DE AYSEN", "rbd": "24241", "dgv_rbd": null, "estado": null, "direccion": null, "urbano_rural": "URBANO", "matricula": 210, "tipo": null, "cut_reg": "11", "cut_prov": "112", "cut_com": "11201", "region": "Aysén del General Carlos Ibáñez del Campo", "provincia": "Aisén", "comuna": "Aisén", "globalid": "a2130fb9-4669-4b9a-b7c1-bdda899b82f2", "latitud": -45.41557, "longitud": -72.69385 }, "geometry": { "type": "Point", "coordinates": [ -72.69385, -45.41557 ] } },
{ "type": "Feature", "properties": { "objectid": 19794, "dependencia": "SLEP", "nombre_establecimiento": "ESCUELA BASICA RIBERA SUR", "rbd": "11612", "dgv_rbd": null, "estado": null, "direccion": null, "urbano_rural": "URBANO", "matricula": 167, "tipo": null, "cut_reg": "11", "cut_prov": "112", "cut_com": "11201", "region": "Aysén del General Carlos Ibáñez del Campo", "provincia": "Aisén", "comuna": "Aisén", "globalid": "38be165a-67e3-4ff4-a160-8abf81555f0d", "latitud": -45.41356, "longitud": -72.6871 }, "geometry": { "type": "Point", "coordinates": [ -72.6871, -45.41356 ] } },
{ "type": "Feature", "properties": { "objectid": 19795, "dependencia": "JUNJI - VTF", "nombre_establecimiento": "AYSEN CHIQUITO", "rbd": "J11201003", "dgv_rbd": null, "estado": null, "direccion": null, "urbano_rural": "URBANO", "matricula": 71, "tipo": null, "cut_reg": "11", "cut_prov": "112", "cut_com": "11201", "region": "Aysén del General Carlos Ibáñez del Campo", "provincia": "Aisén", "comuna": "Aisén", "globalid": "9106f3d6-6394-4c46-a3d3-e9076ed39880", "latitud": -45.41233156, "longitud": -72.70289221 }, "geometry": { "type": "Point", "coordinates": [ -72.70289, -45.41233 ] } },
{ "type": "Feature", "properties": { "objectid": 19796, "dependencia": "SLEP", "nombre_establecimiento": "ESCUELA LITORAL AUSTRAL", "rbd": "24229", "dgv_rbd": null, "estado": null, "direccion": null, "urbano_rural": "URBANO", "matricula": 383, "tipo": null, "cut_reg": "11", "cut_prov": "112", "cut_com": "11201", "region": "Aysén del General Carlos Ibáñez del Campo", "provincia": "Aisén", "comuna": "Aisén", "globalid": "7ce8a726-427b-4c72-8869-0967a575ca1c", "latitud": -45.41095, "longitud": -72.67937 }, "geometry": { "type": "Point", "coordinates": [ -72.67937, -45.41095 ] } },
{ "type": "Feature", "properties": { "objectid": 19797, "dependencia": "SLEP", "nombre_establecimiento": "LICEO POLITECNICO DE AYSEN", "rbd": "8375", "dgv_rbd": null, "estado": null, "direccion": null, "urbano_rural": "URBANO", "matricula": 314, "tipo": null, "cut_reg": "11", "cut_prov": "112", "cut_com": "11201", "region": "Aysén del General Carlos Ibáñez del Campo", "provincia": "Aisén", "comuna": "Aisén", "globalid": "0930c754-f667-48eb-a10c-0779e39f2b00", "latitud": -45.4106, "longitud": -72.68613 }, "geometry": { "type": "Point", "coordinates": [ -72.68613, -45.4106 ] } },
{ "type": "Feature", "properties": { "objectid": 19798, "dependencia": "PARTICULAR SUBVENCIONADO", "nombre_establecimiento": "ESCUELA DE LENGUAJE KALEM", "rbd": "24223", "dgv_rbd": null, "estado": null, "direccion": null, "urbano_rural": "URBANO", "matricula": 104, "tipo": null, "cut_reg": "11", "cut_prov": "112", "cut_com": "11201", "region": "Aysén del General Carlos Ibáñez del Campo", "provincia": "Aisén", "comuna": "Aisén", "globalid": "1acb2170-af1b-4bf9-9432-2b79a1bb63cc", "latitud": -45.4104, "longitud": -72.70042 }, "geometry": { "type": "Point", "coordinates": [ -72.70042, -45.4104 ] } },
{ "type": "Feature", "properties": { "objectid": 19799, "dependencia": "SLEP", "nombre_establecimiento": "ESCUELA DESPERTAR", "rbd": "8374", "dgv_rbd": null, "estado": null, "direccion": null, "urbano_rural": "URBANO", "matricula": 67, "tipo": null, "cut_reg": "11", "cut_prov": "112", "cut_com": "11201", "region": "Aysén del General Carlos Ibáñez del Campo", "provincia": "Aisén", "comuna": "Aisén", "globalid": "cb6eccda-6312-48ec-98f2-f9c0a441209f", "latitud": -45.40937, "longitud": -72.68572 }, "geometry": { "type": "Point", "coordinates": [ -72.68572, -45.40937 ] } },
{ "type": "Feature", "properties": { "objectid": 19800, "dependencia": "INTEGRA", "nombre_establecimiento": "GOTITA DE LLUVIA", "rbd": "I110305", "dgv_rbd": null, "estado": null, "direccion": null, "urbano_rural": "URBANO", "matricula": 18, "tipo": null, "cut_reg": "11", "cut_prov": "112", "cut_com": "11201", "region": "Aysén del General Carlos Ibáñez del Campo", "provincia": "Aisén", "comuna": "Aisén", "globalid": "45dec4d3-0caf-42ff-8b61-e771c53d843c", "latitud": -45.409084, "longitud": -72.68521 }, "geometry": { "type": "Point", "coordinates": [ -72.68521, -45.40908 ] } },
{ "type": "Feature", "properties": { "objectid": 19801, "dependencia": "INTEGRA", "nombre_establecimiento": "LOS CHILCOS", "rbd": "I110303", "dgv_rbd": null, "estado": null, "direccion": null, "urbano_rural": "URBANO", "matricula": 86, "tipo": null, "cut_reg": "11", "cut_prov": "112", "cut_com": "11201", "region": "Aysén del General Carlos Ibáñez del Campo", "provincia": "Aisén", "comuna": "Aisén", "globalid": "43efbc18-5696-4573-9460-7bd6cb89dee9", "latitud": -45.408822, "longitud": -72.699148 }, "geometry": { "type": "Point", "coordinates": [ -72.69915, -45.40882 ] } },
{ "type": "Feature", "properties": { "objectid": 19802, "dependencia": "SLEP", "nombre_establecimiento": "ESCUELA AYSEN", "rbd": "8377", "dgv_rbd": null, "estado": null, "direccion": null, "urbano_rural": "URBANO", "matricula": 165, "tipo": null, "cut_reg": "11", "cut_prov": "112", "cut_com": "11201", "region": "Aysén del General Carlos Ibáñez del Campo", "provincia": "Aisén", "comuna": "Aisén", "globalid": "cbfc5e26-6105-4912-a938-85e44b8ae3de", "latitud": -45.4079, "longitud": -72.69751 }, "geometry": { "type": "Point", "coordinates": [ -72.69751, -45.4079 ] } },
{ "type": "Feature", "properties": { "objectid": 19803, "dependencia": "PARTICULAR SUBVENCIONADO", "nombre_establecimiento": "COLEGIO SAGRADA FAMILIA", "rbd": "24209", "dgv_rbd": null, "estado": null, "direccion": null, "urbano_rural": "URBANO", "matricula": 536, "tipo": null, "cut_reg": "11", "cut_prov": "112", "cut_com": "11201", "region": "Aysén del General Carlos Ibáñez del Campo", "provincia": "Aisén", "comuna": "Aisén", "globalid": "554a9e54-a5c7-4347-a291-1ab8d49e14ec", "latitud": -45.40728, "longitud": -72.70067 }, "geometry": { "type": "Point", "coordinates": [ -72.70067, -45.40728 ] } },
{ "type": "Feature", "properties": { "objectid": 19804, "dependencia": "JUNJI - VTF", "nombre_establecimiento": "BAMBIN GESU", "rbd": "J11201004", "dgv_rbd": null, "estado": null, "direccion": null, "urbano_rural": "URBANO", "matricula": 141, "tipo": null, "cut_reg": "11", "cut_prov": "112", "cut_com": "11201", "region": "Aysén del General Carlos Ibáñez del Campo", "provincia": "Aisén", "comuna": "Aisén", "globalid": "a905c37a-56ab-4245-ba58-1b493b294ddf", "latitud": -45.406385, "longitud": -72.701149 }, "geometry": { "type": "Point", "coordinates": [ -72.70115, -45.40638 ] } },
{ "type": "Feature", "properties": { "objectid": 19805, "dependencia": "SLEP", "nombre_establecimiento": "ESCUELA HOSPITALARIA. JUNTOS FORJANDO EL MAÑANA", "rbd": "41695", "dgv_rbd": null, "estado": null, "direccion": null, "urbano_rural": "URBANO", "matricula": 7, "tipo": null, "cut_reg": "11", "cut_prov": "112", "cut_com": "11201", "region": "Aysén del General Carlos Ibáñez del Campo", "provincia": "Aisén", "comuna": "Aisén", "globalid": "66d0b810-354f-464c-9b34-6f567ef551c8", "latitud": -45.40556, "longitud": -72.70214 }, "geometry": { "type": "Point", "coordinates": [ -72.70214, -45.40556 ] } },
{ "type": "Feature", "properties": { "objectid": 19806, "dependencia": "PARTICULAR SUBVENCIONADO", "nombre_establecimiento": "COLEGIO KALEM BICENTENARIO", "rbd": "24230", "dgv_rbd": null, "estado": null, "direccion": null, "urbano_rural": "URBANO", "matricula": 967, "tipo": null, "cut_reg": "11", "cut_prov": "112", "cut_com": "11201", "region": "Aysén del General Carlos Ibáñez del Campo", "provincia": "Aisén", "comuna": "Aisén", "globalid": "087ceade-5e7a-4988-a236-6e6063c46b53", "latitud": -45.40521, "longitud": -72.69207 }, "geometry": { "type": "Point", "coordinates": [ -72.69207, -45.40521 ] } },
{ "type": "Feature", "properties": { "objectid": 19807, "dependencia": "SLEP", "nombre_establecimiento": "LICEO RAUL BROUSSAIN CAMPINO", "rbd": "24203", "dgv_rbd": null, "estado": null, "direccion": null, "urbano_rural": "URBANO", "matricula": 368, "tipo": null, "cut_reg": "11", "cut_prov": "112", "cut_com": "11201", "region": "Aysén del General Carlos Ibáñez del Campo", "provincia": "Aisén", "comuna": "Aisén", "globalid": "5b928b75-ff00-4d21-a781-82d236266a6c", "latitud": -45.40505, "longitud": -72.69627 }, "geometry": { "type": "Point", "coordinates": [ -72.69627, -45.40505 ] } },
{ "type": "Feature", "properties": { "objectid": 19808, "dependencia": "JUNJI", "nombre_establecimiento": "LOBITO FEROZ", "rbd": "J11201001", "dgv_rbd": null, "estado": null, "direccion": null, "urbano_rural": "URBANO", "matricula": 65, "tipo": null, "cut_reg": "11", "cut_prov": "112", "cut_com": "11201", "region": "Aysén del General Carlos Ibáñez del Campo", "provincia": "Aisén", "comuna": "Aisén", "globalid": "91ac2478-0c1b-4b89-bbfa-3d4193fc45f8", "latitud": -45.40367815, "longitud": -72.68771893 }, "geometry": { "type": "Point", "coordinates": [ -72.68772, -45.40368 ] } },
{ "type": "Feature", "properties": { "objectid": 19809, "dependencia": "SLEP", "nombre_establecimiento": "ESCUELA PEDRO AGUIRRE CERDA", "rbd": "8379", "dgv_rbd": null, "estado": null, "direccion": null, "urbano_rural": "RURAL", "matricula": 78, "tipo": null, "cut_reg": "11", "cut_prov": "112", "cut_com": "11201", "region": "Aysén del General Carlos Ibáñez del Campo", "provincia": "Aisén", "comuna": "Aisén", "globalid": "8786261f-ba1d-4cd9-ae55-239ace69ca20", "latitud": -45.40352, "longitud": -72.69736 }, "geometry": { "type": "Point", "coordinates": [ -72.69736, -45.40352 ] } },
{ "type": "Feature", "properties": { "objectid": 19810, "dependencia": "PARTICULAR SUBVENCIONADO", "nombre_establecimiento": "LICEO SAN JOSE U.R.", "rbd": "24207", "dgv_rbd": null, "estado": null, "direccion": null, "urbano_rural": "URBANO", "matricula": 485, "tipo": null, "cut_reg": "11", "cut_prov": "112", "cut_com": "11201", "region": "Aysén del General Carlos Ibáñez del Campo", "provincia": "Aisén", "comuna": "Aisén", "globalid": "c01a1f4a-b2e3-4000-8215-05bbcd90b4e8", "latitud": -45.40194, "longitud": -72.69482 }, "geometry": { "type": "Point", "coordinates": [ -72.69482, -45.40194 ] } },
{ "type": "Feature", "properties": { "objectid": 19811, "dependencia": "SLEP", "nombre_establecimiento": "ESCUELA CARLOS CONDELL", "rbd": "8382", "dgv_rbd": null, "estado": null, "direccion": null, "urbano_rural": "RURAL", "matricula": 52, "tipo": null, "cut_reg": "11", "cut_prov": "112", "cut_com": "11201", "region": "Aysén del General Carlos Ibáñez del Campo", "provincia": "Aisén", "comuna": "Aisén", "globalid": "b89083fc-60e0-4d5a-a126-916d9e609d44", "latitud": -45.39933, "longitud": -72.6861 }, "geometry": { "type": "Point", "coordinates": [ -72.6861, -45.39933 ] } },
{ "type": "Feature", "properties": { "objectid": 19812, "dependencia": "SLEP", "nombre_establecimiento": "ESCUELA BASICA MUNICIPAL POETISA GABRIELA MISTRAL", "rbd": "8376", "dgv_rbd": null, "estado": null, "direccion": null, "urbano_rural": "URBANO", "matricula": 309, "tipo": null, "cut_reg": "11", "cut_prov": "112", "cut_com": "11201", "region": "Aysén del General Carlos Ibáñez del Campo", "provincia": "Aisén", "comuna": "Aisén", "globalid": "7684b22a-f247-4554-b0b8-d062f0c1eb7e", "latitud": -45.39675, "longitud": -72.68807 }, "geometry": { "type": "Point", "coordinates": [ -72.68807, -45.39675 ] } },
{ "type": "Feature", "properties": { "objectid": 19813, "dependencia": "PARTICULAR SUBVENCIONADO", "nombre_establecimiento": "LICEO BICENTENARIO SANTA TERESA DE LOS ANDES", "rbd": "24213", "dgv_rbd": null, "estado": null, "direccion": null, "urbano_rural": "URBANO", "matricula": 487, "tipo": null, "cut_reg": "11", "cut_prov": "112", "cut_com": "11201", "region": "Aysén del General Carlos Ibáñez del Campo", "provincia": "Aisén", "comuna": "Aisén", "globalid": "6d458a28-8460-478c-bdb7-41a7f852b62d", "latitud": -45.39671, "longitud": -72.66453 }, "geometry": { "type": "Point", "coordinates": [ -72.66453, -45.39671 ] } },
{ "type": "Feature", "properties": { "objectid": 19814, "dependencia": "JUNJI", "nombre_establecimiento": "CRECIENDO CONTENTO", "rbd": "J11201005", "dgv_rbd": null, "estado": null, "direccion": null, "urbano_rural": "URBANO", "matricula": 58, "tipo": null, "cut_reg": "11", "cut_prov": "112", "cut_com": "11201", "region": "Aysén del General Carlos Ibáñez del Campo", "provincia": "Aisén", "comuna": "Aisén", "globalid": "da8470ac-bc0c-4b00-b4d3-ceb64b16eca1", "latitud": -45.39276509, "longitud": -72.6899179 }, "geometry": { "type": "Point", "coordinates": [ -72.68992, -45.39277 ] } },
{ "type": "Feature", "properties": { "objectid": 19819, "dependencia": "INTEGRA", "nombre_establecimiento": "LOS CIPRESES", "rbd": "I110302", "dgv_rbd": null, "estado": null, "direccion": null, "urbano_rural": "RURAL", "matricula": 21, "tipo": null, "cut_reg": "11", "cut_prov": "112", "cut_com": "11201", "region": "Aysén del General Carlos Ibáñez del Campo", "provincia": "Aisén", "comuna": "Aisén", "globalid": "1779e1a7-b55e-414b-bfbb-c0719f36f6e6", "latitud": -45.163622, "longitud": -73.523263 }, "geometry": { "type": "Point", "coordinates": [ -73.52326, -45.16362 ] } },
{ "type": "Feature", "properties": { "objectid": 19820, "dependencia": "INTEGRA", "nombre_establecimiento": "LOS CANELOS", "rbd": "I110301", "dgv_rbd": null, "estado": null, "direccion": null, "urbano_rural": "RURAL", "matricula": 3, "tipo": null, "cut_reg": "11", "cut_prov": "112", "cut_com": "11201", "region": "Aysén del General Carlos Ibáñez del Campo", "provincia": "Aisén", "comuna": "Aisén", "globalid": "58b96a59-bf13-45b2-97d6-465d344652b1", "latitud": -45.150218, "longitud": -73.508101 }, "geometry": { "type": "Point", "coordinates": [ -73.5081, -45.15022 ] } },
{ "type": "Feature", "properties": { "objectid": 19825, "dependencia": "JUNJI", "nombre_establecimiento": "LOS NAVEGANTES", "rbd": "J11202005", "dgv_rbd": null, "estado": null, "direccion": null, "urbano_rural": "URBANO", "matricula": 42, "tipo": null, "cut_reg": "11", "cut_prov": "112", "cut_com": "11202", "region": "Aysén del General Carlos Ibáñez del Campo", "provincia": "Aisén", "comuna": "Cisnes", "globalid": "f1ef7b45-006a-4d7d-aeda-b59c41165628", "latitud": -44.73025, "longitud": -72.678343 }, "geometry": { "type": "Point", "coordinates": [ -72.67834, -44.73025 ] } },
{ "type": "Feature", "properties": { "objectid": 19826, "dependencia": "SLEP", "nombre_establecimiento": "LICEO BICENTENARIO DE EXCELENCIA ARTURO PRAT CHACON", "rbd": "24204", "dgv_rbd": null, "estado": null, "direccion": null, "urbano_rural": "URBANO", "matricula": 206, "tipo": null, "cut_reg": "11", "cut_prov": "112", "cut_com": "11202", "region": "Aysén del General Carlos Ibáñez del Campo", "provincia": "Aisén", "comuna": "Cisnes", "globalid": "64238b76-490e-48cf-9afc-585b29061520", "latitud": -44.72992, "longitud": -72.69103 }, "geometry": { "type": "Point", "coordinates": [ -72.69103, -44.72992 ] } },
{ "type": "Feature", "properties": { "objectid": 19827, "dependencia": "SLEP", "nombre_establecimiento": "ESCUELA GUIDO GOMEZ MUNOZ", "rbd": "8388", "dgv_rbd": null, "estado": null, "direccion": null, "urbano_rural": "URBANO", "matricula": 382, "tipo": null, "cut_reg": "11", "cut_prov": "112", "cut_com": "11202", "region": "Aysén del General Carlos Ibáñez del Campo", "provincia": "Aisén", "comuna": "Cisnes", "globalid": "b74d78e6-6be1-40af-86ff-f4be9f4ca60c", "latitud": -44.72933, "longitud": -72.68192 }, "geometry": { "type": "Point", "coordinates": [ -72.68192, -44.72933 ] } },
{ "type": "Feature", "properties": { "objectid": 19828, "dependencia": "SLEP", "nombre_establecimiento": "ESCUELA MADRE DE LA DIVINA PROVIDENCIA", "rbd": "24210", "dgv_rbd": null, "estado": null, "direccion": null, "urbano_rural": "RURAL", "matricula": 2, "tipo": null, "cut_reg": "11", "cut_prov": "112", "cut_com": "11202", "region": "Aysén del General Carlos Ibáñez del Campo", "provincia": "Aisén", "comuna": "Cisnes", "globalid": "965630ee-fb85-4fe5-b80f-2276bc90dd8f", "latitud": -44.72758, "longitud": -72.6812 }, "geometry": { "type": "Point", "coordinates": [ -72.6812, -44.72758 ] } },
{ "type": "Feature", "properties": { "objectid": 19829, "dependencia": "JUNJI", "nombre_establecimiento": "LA SIRENITA", "rbd": "J11202001", "dgv_rbd": null, "estado": null, "direccion": null, "urbano_rural": "URBANO", "matricula": 57, "tipo": null, "cut_reg": "11", "cut_prov": "112", "cut_com": "11202", "region": "Aysén del General Carlos Ibáñez del Campo", "provincia": "Aisén", "comuna": "Cisnes", "globalid": "a6c2be10-3f94-4111-a00a-64eba2ca150d", "latitud": -44.727043, "longitud": -72.680095 }, "geometry": { "type": "Point", "coordinates": [ -72.68009, -44.72704 ] } },
{ "type": "Feature", "properties": { "objectid": 19830, "dependencia": "PARTICULAR SUBVENCIONADO", "nombre_establecimiento": "ESC.NUESTRA SRA DE LA DIVINA PROVIDENCIA", "rbd": "24218", "dgv_rbd": null, "estado": null, "direccion": null, "urbano_rural": "RURAL", "matricula": 2, "tipo": null, "cut_reg": "11", "cut_prov": "112", "cut_com": "11202", "region": "Aysén del General Carlos Ibáñez del Campo", "provincia": "Aisén", "comuna": "Cisnes", "globalid": "f42b157e-48d0-4749-b7b5-4823dab2d396", "latitud": -44.66867, "longitud": -72.83655 }, "geometry": { "type": "Point", "coordinates": [ -72.83655, -44.66867 ] } }
]
}
