{
"type": "FeatureCollection",
"name": "CHA",
"crs": { "type": "name", "properties": { "name": "urn:ogc:def:crs:OGC:1.3:CRS84" } },
"xy_coordinate_resolution": 1e-05,
"features": [
{ "type": "Feature", "properties": { "objectid": 18077, "dependencia": "JUNJI", "nombre_establecimiento": "LOS ANGELITOS", "rbd": "J10401017", "dgv_rbd": null, "estado": null, "direccion": null, "urbano_rural": "RURAL", "matricula": 18, "tipo": null, "cut_reg": "10", "cut_prov": "104", "cut_com": "10401", "region": "Los Lagos", "provincia": "Palena", "comuna": "Chaitén", "globalid": "f781f172-6135-4bd0-a820-fe75ab68ce36", "latitud": -42.40276333000001, "longitud": -72.72378314 }, "geometry": { "type": "Point", "coordinates": [ -72.72378, -42.40276 ] } },
{ "type": "Feature", "properties": { "objectid": 18079, "dependencia": "MUNICIPAL", "nombre_establecimiento": "ESCUELA RURAL BUILL", "rbd": "8301", "dgv_rbd": null, "estado": null, "direccion": null, "urbano_rural": "RURAL", "matricula": 24, "tipo": null, "cut_reg": "10", "cut_prov": "104", "cut_com": "10401", "region": "Los Lagos", "provincia": "Palena", "comuna": "Chaitén", "globalid": "3e58345e-8f59-4fa0-b160-e612dfcae3c5", "latitud": -42.39978, "longitud": -72.7192 }, "geometry": { "type": "Point", "coordinates": [ -72.7192, -42.39978 ] } },
{ "type": "Feature", "properties": { "objectid": 19916, "dependencia": "MUNICIPAL", "nombre_establecimiento": "ESCUELA RURAL RIO AMARILLO", "rbd": "8304", "dgv_rbd": null, "estado": null, "direccion": null, "urbano_rural": "RURAL", "matricula": 8, "tipo": null, "cut_reg": "10", "cut_prov": "104", "cut_com": "10401", "region": "Los Lagos", "provincia": "Palena", "comuna": "Chaitén", "globalid": "c233115d-7cdb-45cb-be7c-ffed9fefcae3", "latitud": -43.00977, "longitud": -72.48084 }, "geometry": { "type": "Point", "coordinates": [ -72.48084, -43.00977 ] } },
{ "type": "Feature", "properties": { "objectid": 19926, "dependencia": "MUNICIPAL", "nombre_establecimiento": "COLEGIO ALMIRANTE JUAN JOSE LATORRE", "rbd": "22083", "dgv_rbd": null, "estado": null, "direccion": null, "urbano_rural": "RURAL", "matricula": 462, "tipo": null, "cut_reg": "10", "cut_prov": "104", "cut_com": "10401", "region": "Los Lagos", "provincia": "Palena", "comuna": "Chaitén", "globalid": "e996b10c-4cc3-472a-8f0c-ecc1013a18ea", "latitud": -42.91738, "longitud": -72.70902 }, "geometry": { "type": "Point", "coordinates": [ -72.70902, -42.91738 ] } },
{ "type": "Feature", "properties": { "objectid": 19927, "dependencia": "JUNJI", "nombre_establecimiento": "EL CANTO DEL CHUCAO", "rbd": "J10401002", "dgv_rbd": null, "estado": null, "direccion": null, "urbano_rural": "URBANO", "matricula": 49, "tipo": null, "cut_reg": "10", "cut_prov": "104", "cut_com": "10401", "region": "Los Lagos", "provincia": "Palena", "comuna": "Chaitén", "globalid": "f85f92bb-5de8-4298-8409-c06ddbb92ad8", "latitud": -42.916, "longitud": -72.7047 }, "geometry": { "type": "Point", "coordinates": [ -72.7047, -42.916 ] } },
{ "type": "Feature", "properties": { "objectid": 19947, "dependencia": "MUNICIPAL", "nombre_establecimiento": "ESCUELA RURAL CHANA", "rbd": "8305", "dgv_rbd": null, "estado": null, "direccion": null, "urbano_rural": "RURAL", "matricula": 3, "tipo": null, "cut_reg": "10", "cut_prov": "104", "cut_com": "10401", "region": "Los Lagos", "provincia": "Palena", "comuna": "Chaitén", "globalid": "4a2da6cb-8de7-4bac-8e0c-7916628f0e20", "latitud": -42.74548, "longitud": -72.82933 }, "geometry": { "type": "Point", "coordinates": [ -72.82933, -42.74548 ] } },
{ "type": "Feature", "properties": { "objectid": 19948, "dependencia": "MUNICIPAL", "nombre_establecimiento": "ESCUELA RURAL AUTENI", "rbd": "8294", "dgv_rbd": null, "estado": null, "direccion": null, "urbano_rural": "RURAL", "matricula": 2, "tipo": null, "cut_reg": "10", "cut_prov": "104", "cut_com": "10401", "region": "Los Lagos", "provincia": "Palena", "comuna": "Chaitén", "globalid": "62f1d69e-e808-4465-9f12-840b6219cc71", "latitud": -42.7278, "longitud": -73.08926 }, "geometry": { "type": "Point", "coordinates": [ -73.08926, -42.7278 ] } },
{ "type": "Feature", "properties": { "objectid": 19949, "dependencia": "MUNICIPAL", "nombre_establecimiento": "ESCUELA RURAL NAYAHUE", "rbd": "8293", "dgv_rbd": null, "estado": null, "direccion": null, "urbano_rural": "RURAL", "matricula": 2, "tipo": null, "cut_reg": "10", "cut_prov": "104", "cut_com": "10401", "region": "Los Lagos", "provincia": "Palena", "comuna": "Chaitén", "globalid": "bc18f73b-d1cc-44c8-8610-5c43ef02e26b", "latitud": -42.71595, "longitud": -73.07623 }, "geometry": { "type": "Point", "coordinates": [ -73.07623, -42.71595 ] } },
{ "type": "Feature", "properties": { "objectid": 19955, "dependencia": "MUNICIPAL", "nombre_establecimiento": "ESCUELA RURAL CHUIT", "rbd": "8295", "dgv_rbd": null, "estado": null, "direccion": null, "urbano_rural": "RURAL", "matricula": 8, "tipo": null, "cut_reg": "10", "cut_prov": "104", "cut_com": "10401", "region": "Los Lagos", "provincia": "Palena", "comuna": "Chaitén", "globalid": "8bf27490-60fc-4f6e-a426-3a42d40b4ce8", "latitud": -42.67505, "longitud": -73.0809 }, "geometry": { "type": "Point", "coordinates": [ -73.0809, -42.67505 ] } },
{ "type": "Feature", "properties": { "objectid": 19969, "dependencia": "MUNICIPAL", "nombre_establecimiento": "ESCUELA RURAL NUEVA ESPERANZA", "rbd": "8296", "dgv_rbd": null, "estado": null, "direccion": null, "urbano_rural": "RURAL", "matricula": 8, "tipo": null, "cut_reg": "10", "cut_prov": "104", "cut_com": "10401", "region": "Los Lagos", "provincia": "Palena", "comuna": "Chaitén", "globalid": "45588274-440a-4957-bfdb-a3213684221d", "latitud": -42.62136, "longitud": -73.03832 }, "geometry": { "type": "Point", "coordinates": [ -73.03832, -42.62136 ] } },
{ "type": "Feature", "properties": { "objectid": 19996, "dependencia": "MUNICIPAL", "nombre_establecimiento": "ESCUELA RURAL CASA DE PESCA", "rbd": "8299", "dgv_rbd": null, "estado": null, "direccion": null, "urbano_rural": "RURAL", "matricula": 9, "tipo": null, "cut_reg": "10", "cut_prov": "104", "cut_com": "10401", "region": "Los Lagos", "provincia": "Palena", "comuna": "Chaitén", "globalid": "9bc22ebb-9659-4292-a9e7-e854e55822c1", "latitud": -42.56391, "longitud": -72.82368 }, "geometry": { "type": "Point", "coordinates": [ -72.82368, -42.56391 ] } },
{ "type": "Feature", "properties": { "objectid": 20004, "dependencia": "MUNICIPAL", "nombre_establecimiento": "ESCUELA RURAL CHUMELDEN", "rbd": "8303", "dgv_rbd": null, "estado": null, "direccion": null, "urbano_rural": "RURAL", "matricula": 3, "tipo": null, "cut_reg": "10", "cut_prov": "104", "cut_com": "10401", "region": "Los Lagos", "provincia": "Palena", "comuna": "Chaitén", "globalid": "d3e3095f-3e61-4967-8dc6-93d1f82512ad", "latitud": -42.52114, "longitud": -72.812 }, "geometry": { "type": "Point", "coordinates": [ -72.812, -42.52114 ] } },
{ "type": "Feature", "properties": { "objectid": 20006, "dependencia": "MUNICIPAL", "nombre_establecimiento": "ESCUELA RURAL LOYOLA", "rbd": "8300", "dgv_rbd": null, "estado": null, "direccion": null, "urbano_rural": "RURAL", "matricula": 4, "tipo": null, "cut_reg": "10", "cut_prov": "104", "cut_com": "10401", "region": "Los Lagos", "provincia": "Palena", "comuna": "Chaitén", "globalid": "20565865-b3c9-4538-bfc1-3afc56b7fb26", "latitud": -42.51675, "longitud": -72.71956 }, "geometry": { "type": "Point", "coordinates": [ -72.71956, -42.51675 ] } }
]
}
