{
"type": "FeatureCollection",
"name": "COR",
"crs": { "type": "name", "properties": { "name": "urn:ogc:def:crs:OGC:1.3:CRS84" } },
"xy_coordinate_resolution": 1e-05,
"features": [
{ "type": "Feature", "properties": { "objectid": 19852, "dependencia": "MUNICIPAL", "nombre_establecimiento": "ESCUELA RURAL VALLE EL FRIO", "rbd": "8306", "dgv_rbd": null, "estado": null, "direccion": null, "urbano_rural": "RURAL", "matricula": 17, "tipo": null, "cut_reg": "10", "cut_prov": "104", "cut_com": "10401", "region": "Los Lagos", "provincia": "Palena", "comuna": "Chaitén", "globalid": "efbb9096-4878-4414-a247-70a39f347d69", "latitud": -43.41111, "longitud": -72.36651 }, "geometry": { "type": "Point", "coordinates": [ -72.36651, -43.41111 ] } },
{ "type": "Feature", "properties": { "objectid": 19916, "dependencia": "MUNICIPAL", "nombre_establecimiento": "ESCUELA RURAL RIO AMARILLO", "rbd": "8304", "dgv_rbd": null, "estado": null, "direccion": null, "urbano_rural": "RURAL", "matricula": 8, "tipo": null, "cut_reg": "10", "cut_prov": "104", "cut_com": "10401", "region": "Los Lagos", "provincia": "Palena", "comuna": "Chaitén", "globalid": "c233115d-7cdb-45cb-be7c-ffed9fefcae3", "latitud": -43.00977, "longitud": -72.48084 }, "geometry": { "type": "Point", "coordinates": [ -72.48084, -43.00977 ] } },
{ "type": "Feature", "properties": { "objectid": 19926, "dependencia": "MUNICIPAL", "nombre_establecimiento": "COLEGIO ALMIRANTE JUAN JOSE LATORRE", "rbd": "22083", "dgv_rbd": null, "estado": null, "direccion": null, "urbano_rural": "RURAL", "matricula": 462, "tipo": null, "cut_reg": "10", "cut_prov": "104", "cut_com": "10401", "region": "Los Lagos", "provincia": "Palena", "comuna": "Chaitén", "globalid": "e996b10c-4cc3-472a-8f0c-ecc1013a18ea", "latitud": -42.91738, "longitud": -72.70902 }, "geometry": { "type": "Point", "coordinates": [ -72.70902, -42.91738 ] } },
{ "type": "Feature", "properties": { "objectid": 19927, "dependencia": "JUNJI", "nombre_establecimiento": "EL CANTO DEL CHUCAO", "rbd": "J10401002", "dgv_rbd": null, "estado": null, "direccion": null, "urbano_rural": "URBANO", "matricula": 49, "tipo": null, "cut_reg": "10", "cut_prov": "104", "cut_com": "10401", "region": "Los Lagos", "provincia": "Palena", "comuna": "Chaitén", "globalid": "f85f92bb-5de8-4298-8409-c06ddbb92ad8", "latitud": -42.916, "longitud": -72.7047 }, "geometry": { "type": "Point", "coordinates": [ -72.7047, -42.916 ] } },
{ "type": "Feature", "properties": { "objectid": 19947, "dependencia": "MUNICIPAL", "nombre_establecimiento": "ESCUELA RURAL CHANA", "rbd": "8305", "dgv_rbd": null, "estado": null, "direccion": null, "urbano_rural": "RURAL", "matricula": 3, "tipo": null, "cut_reg": "10", "cut_prov": "104", "cut_com": "10401", "region": "Los Lagos", "provincia": "Palena", "comuna": "Chaitén", "globalid": "4a2da6cb-8de7-4bac-8e0c-7916628f0e20", "latitud": -42.74548, "longitud": -72.82933 }, "geometry": { "type": "Point", "coordinates": [ -72.82933, -42.74548 ] } }
]
}
