{
"type": "FeatureCollection",
"name": "CPA",
"crs": { "type": "name", "properties": { "name": "urn:ogc:def:crs:OGC:1.3:CRS84" } },
"xy_coordinate_resolution": 1e-05,
"features": [
{ "type": "Feature", "properties": { "objectid": 20082, "dependencia": "JUNJI", "nombre_establecimiento": "KIMCHE-EL BARCO", "rbd": "J8314040", "dgv_rbd": null, "estado": null, "direccion": null, "urbano_rural": "RURAL", "matricula": 9, "tipo": null, "cut_reg": "08", "cut_prov": "083", "cut_com": "08314", "region": "Biobío", "provincia": "Biobío", "comuna": "Alto Biobío", "globalid": "13ce8120-235e-48a5-8516-db7f8f6a7611", "latitud": -38.01007, "longitud": -71.306723 }, "geometry": { "type": "Point", "coordinates": [ -71.30672, -38.01007 ] } },
{ "type": "Feature", "properties": { "objectid": 20427, "dependencia": "MUNICIPAL", "nombre_establecimiento": "ESCUELA DE TROYO", "rbd": "5339", "dgv_rbd": null, "estado": null, "direccion": null, "urbano_rural": "RURAL", "matricula": 46, "tipo": null, "cut_reg": "09", "cut_prov": "092", "cut_com": "09205", "region": "La Araucanía", "provincia": "Malleco", "comuna": "Lonquimay", "globalid": "c8d79f07-245b-40fc-b5ed-52f444499962", "latitud": -38.25069, "longitud": -71.30116 }, "geometry": { "type": "Point", "coordinates": [ -71.30116, -38.25069 ] } },
{ "type": "Feature", "properties": { "objectid": 20538, "dependencia": "MUNICIPAL", "nombre_establecimiento": "ESCUELA RALCO LEPOY", "rbd": "4375", "dgv_rbd": null, "estado": null, "direccion": null, "urbano_rural": "RURAL", "matricula": 149, "tipo": null, "cut_reg": "08", "cut_prov": "083", "cut_com": "08314", "region": "Biobío", "provincia": "Biobío", "comuna": "Alto Biobío", "globalid": "ec86dadf-909e-452c-8627-aac93f147e34", "latitud": -38.06447, "longitud": -71.35392 }, "geometry": { "type": "Point", "coordinates": [ -71.35392, -38.06447 ] } },
{ "type": "Feature", "properties": { "objectid": 20550, "dependencia": "PARTICULAR SUBVENCIONADO", "nombre_establecimiento": "ESCUELA PARTICULAR EDGARDO SOLAR ACUÑA", "rbd": "4386", "dgv_rbd": null, "estado": null, "direccion": null, "urbano_rural": "RURAL", "matricula": 18, "tipo": null, "cut_reg": "08", "cut_prov": "083", "cut_com": "08314", "region": "Biobío", "provincia": "Biobío", "comuna": "Alto Biobío", "globalid": "bc781122-a7d9-4f0d-8d7b-5eafbdb696ef", "latitud": -38.04522, "longitud": -71.27527 }, "geometry": { "type": "Point", "coordinates": [ -71.27527, -38.04522 ] } },
{ "type": "Feature", "properties": { "objectid": 21174, "dependencia": "MUNICIPAL", "nombre_establecimiento": "ESCUELA DE CONCENTRACIÓN FRONTERIZA RALCO ALTO BIOBÍO", "rbd": "4354", "dgv_rbd": null, "estado": null, "direccion": null, "urbano_rural": "RURAL", "matricula": 333, "tipo": null, "cut_reg": "08", "cut_prov": "083", "cut_com": "08314", "region": "Biobío", "provincia": "Biobío", "comuna": "Alto Biobío", "globalid": "05ca1e89-1c01-4b5d-8322-f95e3e4bb89d", "latitud": -37.88008, "longitud": -71.63719 }, "geometry": { "type": "Point", "coordinates": [ -71.63719, -37.88008 ] } },
{ "type": "Feature", "properties": { "objectid": 21176, "dependencia": "MUNICIPAL", "nombre_establecimiento": "LICEO RALCO", "rbd": "18037", "dgv_rbd": null, "estado": null, "direccion": null, "urbano_rural": "RURAL", "matricula": 170, "tipo": null, "cut_reg": "08", "cut_prov": "083", "cut_com": "08314", "region": "Biobío", "provincia": "Biobío", "comuna": "Alto Biobío", "globalid": "108e7083-e57d-4914-b721-f89887d738bb", "latitud": -37.87896, "longitud": -71.64021 }, "geometry": { "type": "Point", "coordinates": [ -71.64021, -37.87896 ] } },
{ "type": "Feature", "properties": { "objectid": 21178, "dependencia": "JUNJI - VTF", "nombre_establecimiento": "COPITO DE NIEVE", "rbd": "J8314005", "dgv_rbd": null, "estado": null, "direccion": null, "urbano_rural": "URBANO", "matricula": 51, "tipo": null, "cut_reg": "08", "cut_prov": "083", "cut_com": "08314", "region": "Biobío", "provincia": "Biobío", "comuna": "Alto Biobío", "globalid": "c3e86d2c-c6d4-4fa2-b1d3-3583432b0f04", "latitud": -37.87831911, "longitud": -71.63876299 }, "geometry": { "type": "Point", "coordinates": [ -71.63876, -37.87832 ] } },
{ "type": "Feature", "properties": { "objectid": 21180, "dependencia": "JUNJI - VTF", "nombre_establecimiento": "ETNICO CALLAQUI", "rbd": "J8314004", "dgv_rbd": null, "estado": null, "direccion": null, "urbano_rural": "RURAL", "matricula": 24, "tipo": null, "cut_reg": "08", "cut_prov": "083", "cut_com": "08314", "region": "Biobío", "provincia": "Biobío", "comuna": "Alto Biobío", "globalid": "6c5f9d5a-d2cc-4388-8f3b-a251a1a0b47a", "latitud": -37.87528755, "longitud": -71.64415671 }, "geometry": { "type": "Point", "coordinates": [ -71.64416, -37.87529 ] } },
{ "type": "Feature", "properties": { "objectid": 21195, "dependencia": "MUNICIPAL", "nombre_establecimiento": "ESCUELA CALLAQUI", "rbd": "4379", "dgv_rbd": null, "estado": null, "direccion": null, "urbano_rural": "RURAL", "matricula": 173, "tipo": null, "cut_reg": "08", "cut_prov": "083", "cut_com": "08314", "region": "Biobío", "provincia": "Biobío", "comuna": "Alto Biobío", "globalid": "28d8c205-113b-412b-94f2-91fd08d7bb14", "latitud": -37.85516, "longitud": -71.67001 }, "geometry": { "type": "Point", "coordinates": [ -71.67001, -37.85516 ] } },
{ "type": "Feature", "properties": { "objectid": 21203, "dependencia": "JUNJI", "nombre_establecimiento": "RALCO LEPOY(ETNICO)", "rbd": "J8314003", "dgv_rbd": null, "estado": null, "direccion": null, "urbano_rural": "RURAL", "matricula": 14, "tipo": null, "cut_reg": "08", "cut_prov": "083", "cut_com": "08314", "region": "Biobío", "provincia": "Biobío", "comuna": "Alto Biobío", "globalid": "3f405b60-5bc9-4285-a802-f43c26ac14db", "latitud": -37.83306458, "longitud": -71.57373935 }, "geometry": { "type": "Point", "coordinates": [ -71.57374, -37.83306 ] } },
{ "type": "Feature", "properties": { "objectid": 21205, "dependencia": "MUNICIPAL", "nombre_establecimiento": "ESCUELA BASICA PITRIL", "rbd": "4374", "dgv_rbd": null, "estado": null, "direccion": null, "urbano_rural": "RURAL", "matricula": 98, "tipo": null, "cut_reg": "08", "cut_prov": "083", "cut_com": "08314", "region": "Biobío", "provincia": "Biobío", "comuna": "Alto Biobío", "globalid": "faaf1157-74a3-46e1-83e4-ee35cc64e4f7", "latitud": -37.83299, "longitud": -71.56996 }, "geometry": { "type": "Point", "coordinates": [ -71.56996, -37.83299 ] } },
{ "type": "Feature", "properties": { "objectid": 22238, "dependencia": "PARTICULAR SUBVENCIONADO", "nombre_establecimiento": "ESCUELA PART.TRAPA TRAPA BUTALELBUM", "rbd": "11739", "dgv_rbd": null, "estado": null, "direccion": null, "urbano_rural": "RURAL", "matricula": 79, "tipo": null, "cut_reg": "08", "cut_prov": "083", "cut_com": "08314", "region": "Biobío", "provincia": "Biobío", "comuna": "Alto Biobío", "globalid": "8bc335f0-9990-4799-8287-df178e0ea1aa", "latitud": -37.75737, "longitud": -71.21786 }, "geometry": { "type": "Point", "coordinates": [ -71.21786, -37.75737 ] } },
{ "type": "Feature", "properties": { "objectid": 22244, "dependencia": "JUNJI", "nombre_establecimiento": "KUPULWE-TRAPA TRAPA", "rbd": "J8314029", "dgv_rbd": null, "estado": null, "direccion": null, "urbano_rural": "RURAL", "matricula": 15, "tipo": null, "cut_reg": "08", "cut_prov": "083", "cut_com": "08314", "region": "Biobío", "provincia": "Biobío", "comuna": "Alto Biobío", "globalid": "79b91d9d-6f92-46f2-a3f5-730ec2db5778", "latitud": -37.731817, "longitud": -71.221345 }, "geometry": { "type": "Point", "coordinates": [ -71.22134, -37.73182 ] } },
{ "type": "Feature", "properties": { "objectid": 22277, "dependencia": "PARTICULAR SUBVENCIONADO", "nombre_establecimiento": "ESCUELA PARTICULAR CANICU", "rbd": "11674", "dgv_rbd": null, "estado": null, "direccion": null, "urbano_rural": "RURAL", "matricula": 88, "tipo": null, "cut_reg": "08", "cut_prov": "083", "cut_com": "08314", "region": "Biobío", "provincia": "Biobío", "comuna": "Alto Biobío", "globalid": "5b2b85bb-d1e6-4e35-97c2-efa1ec836b9a", "latitud": -37.71093, "longitud": -71.48191 }, "geometry": { "type": "Point", "coordinates": [ -71.48191, -37.71093 ] } },
{ "type": "Feature", "properties": { "objectid": 22278, "dependencia": "PARTICULAR SUBVENCIONADO", "nombre_establecimiento": "ESCUELA PARTICULAR TRAPA TRAPA", "rbd": "4389", "dgv_rbd": null, "estado": null, "direccion": null, "urbano_rural": "RURAL", "matricula": 50, "tipo": null, "cut_reg": "08", "cut_prov": "083", "cut_com": "08314", "region": "Biobío", "provincia": "Biobío", "comuna": "Alto Biobío", "globalid": "0e6abea9-ae95-4d75-a4cf-1a59a207f79d", "latitud": -37.7109, "longitud": -71.26525 }, "geometry": { "type": "Point", "coordinates": [ -71.26525, -37.7109 ] } }
]
}
