{
"type": "FeatureCollection",
"name": "HUE",
"crs": { "type": "name", "properties": { "name": "urn:ogc:def:crs:OGC:1.3:CRS84" } },
"xy_coordinate_resolution": 1e-05,
"features": [
{ "type": "Feature", "properties": { "objectid": 18077, "dependencia": "JUNJI", "nombre_establecimiento": "LOS ANGELITOS", "rbd": "J10401017", "dgv_rbd": null, "estado": null, "direccion": null, "urbano_rural": "RURAL", "matricula": 18, "tipo": null, "cut_reg": "10", "cut_prov": "104", "cut_com": "10401", "region": "Los Lagos", "provincia": "Palena", "comuna": "Chaitén", "globalid": "f781f172-6135-4bd0-a820-fe75ab68ce36", "latitud": -42.40276333000001, "longitud": -72.72378314 }, "geometry": { "type": "Point", "coordinates": [ -72.72378, -42.40276 ] } },
{ "type": "Feature", "properties": { "objectid": 18079, "dependencia": "MUNICIPAL", "nombre_establecimiento": "ESCUELA RURAL BUILL", "rbd": "8301", "dgv_rbd": null, "estado": null, "direccion": null, "urbano_rural": "RURAL", "matricula": 24, "tipo": null, "cut_reg": "10", "cut_prov": "104", "cut_com": "10401", "region": "Los Lagos", "provincia": "Palena", "comuna": "Chaitén", "globalid": "3e58345e-8f59-4fa0-b160-e612dfcae3c5", "latitud": -42.39978, "longitud": -72.7192 }, "geometry": { "type": "Point", "coordinates": [ -72.7192, -42.39978 ] } },
{ "type": "Feature", "properties": { "objectid": 18083, "dependencia": "SLEP", "nombre_establecimiento": "ESCUELA RURAL TAC", "rbd": "8135", "dgv_rbd": null, "estado": null, "direccion": null, "urbano_rural": "RURAL", "matricula": 30, "tipo": null, "cut_reg": "10", "cut_prov": "102", "cut_com": "10209", "region": "Los Lagos", "provincia": "Chiloé", "comuna": "Quemchi", "globalid": "b76be20a-6a30-4927-b69f-faedca9c8632", "latitud": -42.38668, "longitud": -73.13621 }, "geometry": { "type": "Point", "coordinates": [ -73.13621, -42.38668 ] } },
{ "type": "Feature", "properties": { "objectid": 18089, "dependencia": "PARTICULAR SUBVENCIONADO", "nombre_establecimiento": "ESCUELA PARTICULAR N.310 RELDEHUE", "rbd": "12193", "dgv_rbd": null, "estado": null, "direccion": null, "urbano_rural": "RURAL", "matricula": 15, "tipo": null, "cut_reg": "10", "cut_prov": "104", "cut_com": "10401", "region": "Los Lagos", "provincia": "Palena", "comuna": "Chaitén", "globalid": "d8e8990c-acf6-40aa-a765-592b54d4deea", "latitud": -42.37846, "longitud": -72.75507 }, "geometry": { "type": "Point", "coordinates": [ -72.75507, -42.37846 ] } },
{ "type": "Feature", "properties": { "objectid": 18106, "dependencia": "SLEP", "nombre_establecimiento": "ESCUELA RURAL CONEB", "rbd": "8134", "dgv_rbd": null, "estado": null, "direccion": null, "urbano_rural": "RURAL", "matricula": 1, "tipo": null, "cut_reg": "10", "cut_prov": "102", "cut_com": "10209", "region": "Los Lagos", "provincia": "Chiloé", "comuna": "Quemchi", "globalid": "8fc86500-514d-438a-b8d2-7f87ec5be8e5", "latitud": -42.326, "longitud": -73.10484 }, "geometry": { "type": "Point", "coordinates": [ -73.10484, -42.326 ] } },
{ "type": "Feature", "properties": { "objectid": 18110, "dependencia": "JUNJI", "nombre_establecimiento": "ABEJITAS AYACARA", "rbd": "J10401021", "dgv_rbd": null, "estado": null, "direccion": null, "urbano_rural": "RURAL", "matricula": 12, "tipo": null, "cut_reg": "10", "cut_prov": "104", "cut_com": "10401", "region": "Los Lagos", "provincia": "Palena", "comuna": "Chaitén", "globalid": "e891c90b-e9d2-422d-b2c9-e0ad821e7959", "latitud": -42.308325, "longitud": -72.78593889 }, "geometry": { "type": "Point", "coordinates": [ -72.78594, -42.30833 ] } },
{ "type": "Feature", "properties": { "objectid": 18111, "dependencia": "MUNICIPAL", "nombre_establecimiento": "LICEO PENINSULAR AYACARA", "rbd": "8309", "dgv_rbd": null, "estado": null, "direccion": null, "urbano_rural": "RURAL", "matricula": 163, "tipo": null, "cut_reg": "10", "cut_prov": "104", "cut_com": "10401", "region": "Los Lagos", "provincia": "Palena", "comuna": "Chaitén", "globalid": "a276b282-b057-4b8e-a0d8-dc9d6ce39e3c", "latitud": -42.30578, "longitud": -72.78574 }, "geometry": { "type": "Point", "coordinates": [ -72.78574, -42.30578 ] } },
{ "type": "Feature", "properties": { "objectid": 18114, "dependencia": "SLEP", "nombre_establecimiento": "ESCUELA RURAL LINDA VISTA", "rbd": "8133", "dgv_rbd": null, "estado": null, "direccion": null, "urbano_rural": "RURAL", "matricula": 16, "tipo": null, "cut_reg": "10", "cut_prov": "102", "cut_com": "10209", "region": "Los Lagos", "provincia": "Chiloé", "comuna": "Quemchi", "globalid": "26f83017-57df-4bdf-92aa-6d8a7e175e62", "latitud": -42.29973, "longitud": -73.1291 }, "geometry": { "type": "Point", "coordinates": [ -73.1291, -42.29973 ] } },
{ "type": "Feature", "properties": { "objectid": 18115, "dependencia": "SLEP", "nombre_establecimiento": "ESCUELA RURAL MALUCO", "rbd": "8131", "dgv_rbd": null, "estado": null, "direccion": null, "urbano_rural": "RURAL", "matricula": 3, "tipo": null, "cut_reg": "10", "cut_prov": "102", "cut_com": "10209", "region": "Los Lagos", "provincia": "Chiloé", "comuna": "Quemchi", "globalid": "b33a1669-ee72-4471-a324-ff1e82aa4bc5", "latitud": -42.29449, "longitud": -73.06106 }, "geometry": { "type": "Point", "coordinates": [ -73.06106, -42.29449 ] } },
{ "type": "Feature", "properties": { "objectid": 18116, "dependencia": "SLEP", "nombre_establecimiento": "ESCUELA RURAL SAN JOSE", "rbd": "8141", "dgv_rbd": null, "estado": null, "direccion": null, "urbano_rural": "RURAL", "matricula": 1, "tipo": null, "cut_reg": "10", "cut_prov": "102", "cut_com": "10209", "region": "Los Lagos", "provincia": "Chiloé", "comuna": "Quemchi", "globalid": "97feae79-288b-40a6-8efd-7161c9336fd0", "latitud": -42.28229, "longitud": -73.15325 }, "geometry": { "type": "Point", "coordinates": [ -73.15325, -42.28229 ] } },
{ "type": "Feature", "properties": { "objectid": 18118, "dependencia": "SLEP", "nombre_establecimiento": "ESCUELA RURAL NAYAHUE", "rbd": "8143", "dgv_rbd": null, "estado": null, "direccion": null, "urbano_rural": "RURAL", "matricula": 3, "tipo": null, "cut_reg": "10", "cut_prov": "102", "cut_com": "10209", "region": "Los Lagos", "provincia": "Chiloé", "comuna": "Quemchi", "globalid": "950c764e-dbc9-4dd3-9d42-f9069ee7ba00", "latitud": -42.27265, "longitud": -73.11766 }, "geometry": { "type": "Point", "coordinates": [ -73.11766, -42.27265 ] } },
{ "type": "Feature", "properties": { "objectid": 18119, "dependencia": "PARTICULAR SUBVENCIONADO", "nombre_establecimiento": "COLEGIO FRANCISCO COLOANE", "rbd": "22220", "dgv_rbd": null, "estado": null, "direccion": null, "urbano_rural": "RURAL", "matricula": 53, "tipo": null, "cut_reg": "10", "cut_prov": "102", "cut_com": "10209", "region": "Los Lagos", "provincia": "Chiloé", "comuna": "Quemchi", "globalid": "8e6bc939-d917-44c3-ba41-8afa968f9624", "latitud": -42.27263, "longitud": -73.11767 }, "geometry": { "type": "Point", "coordinates": [ -73.11767, -42.27263 ] } },
{ "type": "Feature", "properties": { "objectid": 18123, "dependencia": "SLEP", "nombre_establecimiento": "ESCUELA DE AULIN", "rbd": "8132", "dgv_rbd": null, "estado": null, "direccion": null, "urbano_rural": "RURAL", "matricula": 2, "tipo": null, "cut_reg": "10", "cut_prov": "102", "cut_com": "10209", "region": "Los Lagos", "provincia": "Chiloé", "comuna": "Quemchi", "globalid": "2eb7f7e3-fcbd-4420-adf3-5e12c27e6d4f", "latitud": -42.25916, "longitud": -73.15263 }, "geometry": { "type": "Point", "coordinates": [ -73.15263, -42.25916 ] } },
{ "type": "Feature", "properties": { "objectid": 18125, "dependencia": "MUNICIPAL", "nombre_establecimiento": "ESCUELA RURAL HUEQUE", "rbd": "8307", "dgv_rbd": null, "estado": null, "direccion": null, "urbano_rural": "RURAL", "matricula": 13, "tipo": null, "cut_reg": "10", "cut_prov": "104", "cut_com": "10401", "region": "Los Lagos", "provincia": "Palena", "comuna": "Chaitén", "globalid": "495c4cac-34a5-4ab8-a46b-71c36581efdd", "latitud": -42.24955, "longitud": -72.73547 }, "geometry": { "type": "Point", "coordinates": [ -72.73547, -42.24955 ] } },
{ "type": "Feature", "properties": { "objectid": 18126, "dependencia": "JUNJI", "nombre_establecimiento": "CECI SECTOR POYO", "rbd": "J10401090", "dgv_rbd": null, "estado": null, "direccion": null, "urbano_rural": "RURAL", "matricula": 4, "tipo": null, "cut_reg": "10", "cut_prov": "104", "cut_com": "10401", "region": "Los Lagos", "provincia": "Palena", "comuna": "Chaitén", "globalid": "59a3afd7-2bc4-4158-a2f7-bd42f4752f3b", "latitud": -42.224289, "longitud": -72.690585 }, "geometry": { "type": "Point", "coordinates": [ -72.69058, -42.22429 ] } },
{ "type": "Feature", "properties": { "objectid": 18127, "dependencia": "MUNICIPAL", "nombre_establecimiento": "ESCUELA RURAL POYO", "rbd": "8308", "dgv_rbd": null, "estado": null, "direccion": null, "urbano_rural": "RURAL", "matricula": 10, "tipo": null, "cut_reg": "10", "cut_prov": "104", "cut_com": "10401", "region": "Los Lagos", "provincia": "Palena", "comuna": "Chaitén", "globalid": "74dc9cc9-1f0d-44e3-b7d9-4885fc9a4390", "latitud": -42.2241, "longitud": -72.6903 }, "geometry": { "type": "Point", "coordinates": [ -72.6903, -42.2241 ] } },
{ "type": "Feature", "properties": { "objectid": 18134, "dependencia": "MUNICIPAL", "nombre_establecimiento": "ESCUELA RURAL QUIACA", "rbd": "8327", "dgv_rbd": null, "estado": null, "direccion": null, "urbano_rural": "RURAL", "matricula": 1, "tipo": null, "cut_reg": "10", "cut_prov": "104", "cut_com": "10403", "region": "Los Lagos", "provincia": "Palena", "comuna": "Hualaihué", "globalid": "e7f89f34-52b0-4692-a73f-8f1c0db395b5", "latitud": -42.1512, "longitud": -72.48385 }, "geometry": { "type": "Point", "coordinates": [ -72.48385, -42.1512 ] } },
{ "type": "Feature", "properties": { "objectid": 18147, "dependencia": "MUNICIPAL", "nombre_establecimiento": "ESCUELA RURAL CANDELARIA", "rbd": "8314", "dgv_rbd": null, "estado": null, "direccion": null, "urbano_rural": "RURAL", "matricula": 4, "tipo": null, "cut_reg": "10", "cut_prov": "104", "cut_com": "10403", "region": "Los Lagos", "provincia": "Palena", "comuna": "Hualaihué", "globalid": "e719e8f1-6ffd-409b-9446-b44f1c4aad57", "latitud": -42.05057, "longitud": -72.58758 }, "geometry": { "type": "Point", "coordinates": [ -72.58758, -42.05057 ] } },
{ "type": "Feature", "properties": { "objectid": 18149, "dependencia": "PARTICULAR SUBVENCIONADO", "nombre_establecimiento": "ESCUELA PARTICULAR LOS HALCONES", "rbd": "22092", "dgv_rbd": null, "estado": null, "direccion": null, "urbano_rural": "RURAL", "matricula": 6, "tipo": null, "cut_reg": "10", "cut_prov": "104", "cut_com": "10403", "region": "Los Lagos", "provincia": "Palena", "comuna": "Hualaihué", "globalid": "ffde28f6-cded-4c48-bd17-f9de34d93abb", "latitud": -42.0338, "longitud": -72.60188 }, "geometry": { "type": "Point", "coordinates": [ -72.60188, -42.0338 ] } },
{ "type": "Feature", "properties": { "objectid": 18151, "dependencia": "MUNICIPAL", "nombre_establecimiento": "ESCUELA RURAL CATARATAS DEL ALERCE", "rbd": "8313", "dgv_rbd": null, "estado": null, "direccion": null, "urbano_rural": "RURAL", "matricula": 64, "tipo": null, "cut_reg": "10", "cut_prov": "104", "cut_com": "10403", "region": "Los Lagos", "provincia": "Palena", "comuna": "Hualaihué", "globalid": "4d8ebc7f-44bb-499b-a933-d9c86aaa5800", "latitud": -42.02483, "longitud": -72.68754 }, "geometry": { "type": "Point", "coordinates": [ -72.68754, -42.02483 ] } },
{ "type": "Feature", "properties": { "objectid": 18153, "dependencia": "MUNICIPAL", "nombre_establecimiento": "ESCUELA RURAL CALETA EL MANZANO", "rbd": "8321", "dgv_rbd": null, "estado": null, "direccion": null, "urbano_rural": "RURAL", "matricula": 60, "tipo": null, "cut_reg": "10", "cut_prov": "104", "cut_com": "10403", "region": "Los Lagos", "provincia": "Palena", "comuna": "Hualaihué", "globalid": "b47d3d74-da85-4d9d-9443-2be6dacafdc5", "latitud": -42.01107, "longitud": -72.64532 }, "geometry": { "type": "Point", "coordinates": [ -72.64532, -42.01107 ] } },
{ "type": "Feature", "properties": { "objectid": 18154, "dependencia": "JUNJI", "nombre_establecimiento": "LAS GAVIOTITAS", "rbd": "J10403015", "dgv_rbd": null, "estado": null, "direccion": null, "urbano_rural": "RURAL", "matricula": 18, "tipo": null, "cut_reg": "10", "cut_prov": "104", "cut_com": "10403", "region": "Los Lagos", "provincia": "Palena", "comuna": "Hualaihué", "globalid": "005c6e2a-ab00-4e71-8021-54a5705c1674", "latitud": -42.01079984, "longitud": -72.64329144 }, "geometry": { "type": "Point", "coordinates": [ -72.64329, -42.0108 ] } },
{ "type": "Feature", "properties": { "objectid": 18156, "dependencia": "MUNICIPAL", "nombre_establecimiento": "ESCUELA RURAL VALLE HERMOSO", "rbd": "8319", "dgv_rbd": null, "estado": null, "direccion": null, "urbano_rural": "RURAL", "matricula": 1, "tipo": null, "cut_reg": "10", "cut_prov": "104", "cut_com": "10403", "region": "Los Lagos", "provincia": "Palena", "comuna": "Hualaihué", "globalid": "12be6341-90aa-4298-8dac-c458a0d6d2fb", "latitud": -42.0021, "longitud": -72.67808 }, "geometry": { "type": "Point", "coordinates": [ -72.67808, -42.0021 ] } },
{ "type": "Feature", "properties": { "objectid": 18157, "dependencia": "MUNICIPAL", "nombre_establecimiento": "ESCUELA RURAL PICHICOLO", "rbd": "8312", "dgv_rbd": null, "estado": null, "direccion": null, "urbano_rural": "RURAL", "matricula": 14, "tipo": null, "cut_reg": "10", "cut_prov": "104", "cut_com": "10403", "region": "Los Lagos", "provincia": "Palena", "comuna": "Hualaihué", "globalid": "c568976c-5ef5-4c21-b8d9-e8d8b78801a9", "latitud": -42.00134, "longitud": -72.58819 }, "geometry": { "type": "Point", "coordinates": [ -72.58819, -42.00134 ] } },
{ "type": "Feature", "properties": { "objectid": 18158, "dependencia": "JUNJI", "nombre_establecimiento": "PICHIKELOWILLI", "rbd": "J10403018", "dgv_rbd": null, "estado": null, "direccion": null, "urbano_rural": "RURAL", "matricula": 12, "tipo": null, "cut_reg": "10", "cut_prov": "104", "cut_com": "10403", "region": "Los Lagos", "provincia": "Palena", "comuna": "Hualaihué", "globalid": "e542fbda-b68b-406f-baf9-03584e541a60", "latitud": -41.99899483, "longitud": -72.63865431 }, "geometry": { "type": "Point", "coordinates": [ -72.63865, -41.99899 ] } },
{ "type": "Feature", "properties": { "objectid": 18159, "dependencia": "JUNJI - VTF", "nombre_establecimiento": "PASO A PASITO", "rbd": "J10403001", "dgv_rbd": null, "estado": null, "direccion": null, "urbano_rural": "RURAL", "matricula": 34, "tipo": null, "cut_reg": "10", "cut_prov": "104", "cut_com": "10403", "region": "Los Lagos", "provincia": "Palena", "comuna": "Hualaihué", "globalid": "179c3bd4-6d0e-42fb-ad99-b4faf7342d97", "latitud": -41.9965528, "longitud": -72.68543095 }, "geometry": { "type": "Point", "coordinates": [ -72.68543, -41.99655 ] } },
{ "type": "Feature", "properties": { "objectid": 18160, "dependencia": "MUNICIPAL", "nombre_establecimiento": "ESCUELA RURAL SAN FRANCISCO", "rbd": "8326", "dgv_rbd": null, "estado": null, "direccion": null, "urbano_rural": "RURAL", "matricula": 1, "tipo": null, "cut_reg": "10", "cut_prov": "104", "cut_com": "10403", "region": "Los Lagos", "provincia": "Palena", "comuna": "Hualaihué", "globalid": "d4c6534e-7371-41db-8bcf-1fa3a3908cf4", "latitud": -41.9843, "longitud": -72.75676 }, "geometry": { "type": "Point", "coordinates": [ -72.75676, -41.9843 ] } },
{ "type": "Feature", "properties": { "objectid": 18161, "dependencia": "MUNICIPAL", "nombre_establecimiento": "ESCUELA RURAL SAN PEDRO", "rbd": "8315", "dgv_rbd": null, "estado": null, "direccion": null, "urbano_rural": "RURAL", "matricula": 8, "tipo": null, "cut_reg": "10", "cut_prov": "104", "cut_com": "10403", "region": "Los Lagos", "provincia": "Palena", "comuna": "Hualaihué", "globalid": "4eaa15b0-06cd-48dc-9ec0-ebc771f28a32", "latitud": -41.97375, "longitud": -72.78968 }, "geometry": { "type": "Point", "coordinates": [ -72.78968, -41.97375 ] } },
{ "type": "Feature", "properties": { "objectid": 18162, "dependencia": "MUNICIPAL", "nombre_establecimiento": "ESCUELA RURAL EL VARAL", "rbd": "22100", "dgv_rbd": null, "estado": null, "direccion": null, "urbano_rural": "RURAL", "matricula": 3, "tipo": null, "cut_reg": "10", "cut_prov": "104", "cut_com": "10403", "region": "Los Lagos", "provincia": "Palena", "comuna": "Hualaihué", "globalid": "3d772493-45a0-448b-99fd-28fa850dd315", "latitud": -41.97271, "longitud": -72.66329 }, "geometry": { "type": "Point", "coordinates": [ -72.66329, -41.97271 ] } },
{ "type": "Feature", "properties": { "objectid": 18163, "dependencia": "INTEGRA", "nombre_establecimiento": "COPITO DE NIEVE", "rbd": "I104002", "dgv_rbd": null, "estado": null, "direccion": null, "urbano_rural": "RURAL", "matricula": 114, "tipo": null, "cut_reg": "10", "cut_prov": "104", "cut_com": "10403", "region": "Los Lagos", "provincia": "Palena", "comuna": "Hualaihué", "globalid": "8cc1be86-4422-490d-9b57-475098681628", "latitud": -41.968978, "longitud": -72.475267 }, "geometry": { "type": "Point", "coordinates": [ -72.47527, -41.96898 ] } },
{ "type": "Feature", "properties": { "objectid": 18164, "dependencia": "MUNICIPAL", "nombre_establecimiento": "ESCUELA ANTUPIREN", "rbd": "8325", "dgv_rbd": null, "estado": null, "direccion": null, "urbano_rural": "RURAL", "matricula": 311, "tipo": null, "cut_reg": "10", "cut_prov": "104", "cut_com": "10403", "region": "Los Lagos", "provincia": "Palena", "comuna": "Hualaihué", "globalid": "02e5a69d-415a-4fad-b028-b16504a9db28", "latitud": -41.9685, "longitud": -72.54239 }, "geometry": { "type": "Point", "coordinates": [ -72.54239, -41.9685 ] } },
{ "type": "Feature", "properties": { "objectid": 18165, "dependencia": "PARTICULAR SUBVENCIONADO", "nombre_establecimiento": "INSTITUTO APRENDER", "rbd": "22604", "dgv_rbd": null, "estado": null, "direccion": null, "urbano_rural": "RURAL", "matricula": 93, "tipo": null, "cut_reg": "10", "cut_prov": "104", "cut_com": "10403", "region": "Los Lagos", "provincia": "Palena", "comuna": "Hualaihué", "globalid": "67814f38-247e-4ca7-a020-13c454c0a429", "latitud": -41.96757, "longitud": -72.46924 }, "geometry": { "type": "Point", "coordinates": [ -72.46924, -41.96757 ] } },
{ "type": "Feature", "properties": { "objectid": 18166, "dependencia": "MUNICIPAL", "nombre_establecimiento": "LICEO HORNOPIREN", "rbd": "22027", "dgv_rbd": null, "estado": null, "direccion": null, "urbano_rural": "RURAL", "matricula": 340, "tipo": null, "cut_reg": "10", "cut_prov": "104", "cut_com": "10403", "region": "Los Lagos", "provincia": "Palena", "comuna": "Hualaihué", "globalid": "080760fc-ad46-4aca-bc33-37ca57e94a40", "latitud": -41.96755, "longitud": -72.46922 }, "geometry": { "type": "Point", "coordinates": [ -72.46922, -41.96755 ] } },
{ "type": "Feature", "properties": { "objectid": 18168, "dependencia": "PARTICULAR SUBVENCIONADO", "nombre_establecimiento": "COLEGIO SAGRADA FAMILIA", "rbd": "22641", "dgv_rbd": null, "estado": null, "direccion": null, "urbano_rural": "URBANO", "matricula": 418, "tipo": null, "cut_reg": "10", "cut_prov": "104", "cut_com": "10403", "region": "Los Lagos", "provincia": "Palena", "comuna": "Hualaihué", "globalid": "b237ffdf-396f-498c-aa0c-6b86d554750c", "latitud": -41.96388, "longitud": -72.47024 }, "geometry": { "type": "Point", "coordinates": [ -72.47024, -41.96388 ] } },
{ "type": "Feature", "properties": { "objectid": 19947, "dependencia": "MUNICIPAL", "nombre_establecimiento": "ESCUELA RURAL CHANA", "rbd": "8305", "dgv_rbd": null, "estado": null, "direccion": null, "urbano_rural": "RURAL", "matricula": 3, "tipo": null, "cut_reg": "10", "cut_prov": "104", "cut_com": "10401", "region": "Los Lagos", "provincia": "Palena", "comuna": "Chaitén", "globalid": "4a2da6cb-8de7-4bac-8e0c-7916628f0e20", "latitud": -42.74548, "longitud": -72.82933 }, "geometry": { "type": "Point", "coordinates": [ -72.82933, -42.74548 ] } },
{ "type": "Feature", "properties": { "objectid": 19969, "dependencia": "MUNICIPAL", "nombre_establecimiento": "ESCUELA RURAL NUEVA ESPERANZA", "rbd": "8296", "dgv_rbd": null, "estado": null, "direccion": null, "urbano_rural": "RURAL", "matricula": 8, "tipo": null, "cut_reg": "10", "cut_prov": "104", "cut_com": "10401", "region": "Los Lagos", "provincia": "Palena", "comuna": "Chaitén", "globalid": "45588274-440a-4957-bfdb-a3213684221d", "latitud": -42.62136, "longitud": -73.03832 }, "geometry": { "type": "Point", "coordinates": [ -73.03832, -42.62136 ] } },
{ "type": "Feature", "properties": { "objectid": 19996, "dependencia": "MUNICIPAL", "nombre_establecimiento": "ESCUELA RURAL CASA DE PESCA", "rbd": "8299", "dgv_rbd": null, "estado": null, "direccion": null, "urbano_rural": "RURAL", "matricula": 9, "tipo": null, "cut_reg": "10", "cut_prov": "104", "cut_com": "10401", "region": "Los Lagos", "provincia": "Palena", "comuna": "Chaitén", "globalid": "9bc22ebb-9659-4292-a9e7-e854e55822c1", "latitud": -42.56391, "longitud": -72.82368 }, "geometry": { "type": "Point", "coordinates": [ -72.82368, -42.56391 ] } },
{ "type": "Feature", "properties": { "objectid": 20004, "dependencia": "MUNICIPAL", "nombre_establecimiento": "ESCUELA RURAL CHUMELDEN", "rbd": "8303", "dgv_rbd": null, "estado": null, "direccion": null, "urbano_rural": "RURAL", "matricula": 3, "tipo": null, "cut_reg": "10", "cut_prov": "104", "cut_com": "10401", "region": "Los Lagos", "provincia": "Palena", "comuna": "Chaitén", "globalid": "d3e3095f-3e61-4967-8dc6-93d1f82512ad", "latitud": -42.52114, "longitud": -72.812 }, "geometry": { "type": "Point", "coordinates": [ -72.812, -42.52114 ] } },
{ "type": "Feature", "properties": { "objectid": 20006, "dependencia": "MUNICIPAL", "nombre_establecimiento": "ESCUELA RURAL LOYOLA", "rbd": "8300", "dgv_rbd": null, "estado": null, "direccion": null, "urbano_rural": "RURAL", "matricula": 4, "tipo": null, "cut_reg": "10", "cut_prov": "104", "cut_com": "10401", "region": "Los Lagos", "provincia": "Palena", "comuna": "Chaitén", "globalid": "20565865-b3c9-4538-bfc1-3afc56b7fb26", "latitud": -42.51675, "longitud": -72.71956 }, "geometry": { "type": "Point", "coordinates": [ -72.71956, -42.51675 ] } }
]
}
