{
"type": "FeatureCollection",
"name": "ISL",
"crs": { "type": "name", "properties": { "name": "urn:ogc:def:crs:OGC:1.3:CRS84" } },
"xy_coordinate_resolution": 1e-05,
"features": [
{ "type": "Feature", "properties": { "objectid": 32581, "dependencia": "JUNJI", "nombre_establecimiento": "WANAPITO", "rbd": "J1403002", "dgv_rbd": null, "estado": null, "direccion": null, "urbano_rural": "RURAL", "matricula": 7, "tipo": null, "cut_reg": "01", "cut_prov": "014", "cut_com": "01403", "region": "Tarapacá", "provincia": "Tamarugal", "comuna": "Colchane", "globalid": "a0acdaca-0b58-4661-8ce6-28486dfca3d3", "latitud": -19.467552, "longitud": -68.645105 }, "geometry": { "type": "Point", "coordinates": [ -68.6451, -19.46755 ] } },
{ "type": "Feature", "properties": { "objectid": 32583, "dependencia": "MUNICIPAL", "nombre_establecimiento": "ESCUELA BASICA CARIQUIMA", "rbd": "177", "dgv_rbd": null, "estado": null, "direccion": null, "urbano_rural": "RURAL", "matricula": 14, "tipo": null, "cut_reg": "01", "cut_prov": "014", "cut_com": "01403", "region": "Tarapacá", "provincia": "Tamarugal", "comuna": "Colchane", "globalid": "ce1030f8-c3a1-474d-9fc3-1f1c7df2fdf3", "latitud": -19.46721, "longitud": -68.64475 }, "geometry": { "type": "Point", "coordinates": [ -68.64475, -19.46721 ] } },
{ "type": "Feature", "properties": { "objectid": 32598, "dependencia": "MUNICIPAL", "nombre_establecimiento": "ESCUELA BASICA PISIGA-CHOQUE", "rbd": "185", "dgv_rbd": null, "estado": null, "direccion": null, "urbano_rural": "RURAL", "matricula": 10, "tipo": null, "cut_reg": "01", "cut_prov": "014", "cut_com": "01403", "region": "Tarapacá", "provincia": "Tamarugal", "comuna": "Colchane", "globalid": "de60a895-fff4-4e82-b348-fa28f352c55f", "latitud": -19.30284, "longitud": -68.61779 }, "geometry": { "type": "Point", "coordinates": [ -68.61779, -19.30284 ] } },
{ "type": "Feature", "properties": { "objectid": 32599, "dependencia": "MUNICIPAL", "nombre_establecimiento": "LICEO TECNICO PROFESIONAL COLCHANE", "rbd": "178", "dgv_rbd": null, "estado": null, "direccion": null, "urbano_rural": "RURAL", "matricula": 217, "tipo": null, "cut_reg": "01", "cut_prov": "014", "cut_com": "01403", "region": "Tarapacá", "provincia": "Tamarugal", "comuna": "Colchane", "globalid": "a4446849-13fa-482a-be4a-59e38a9e2069", "latitud": -19.27648, "longitud": -68.63914 }, "geometry": { "type": "Point", "coordinates": [ -68.63914, -19.27648 ] } },
{ "type": "Feature", "properties": { "objectid": 32600, "dependencia": "JUNJI - VTF", "nombre_establecimiento": "INTI JALSU", "rbd": "J1403005", "dgv_rbd": null, "estado": null, "direccion": null, "urbano_rural": "RURAL", "matricula": 22, "tipo": null, "cut_reg": "01", "cut_prov": "014", "cut_com": "01403", "region": "Tarapacá", "provincia": "Tamarugal", "comuna": "Colchane", "globalid": "c5f52fd2-84da-408a-8915-f6ea32446c00", "latitud": -19.2749114, "longitud": -68.63852402 }, "geometry": { "type": "Point", "coordinates": [ -68.63852, -19.27491 ] } },
{ "type": "Feature", "properties": { "objectid": 32601, "dependencia": "MUNICIPAL", "nombre_establecimiento": "ESCUELA BASICA ENQUELGA", "rbd": "186", "dgv_rbd": null, "estado": null, "direccion": null, "urbano_rural": "RURAL", "matricula": 5, "tipo": null, "cut_reg": "01", "cut_prov": "014", "cut_com": "01403", "region": "Tarapacá", "provincia": "Tamarugal", "comuna": "Colchane", "globalid": "2f53fcb2-309c-49e3-9daf-fb6c79b1a1ed", "latitud": -19.22897, "longitud": -68.80449 }, "geometry": { "type": "Point", "coordinates": [ -68.80449, -19.22897 ] } }
]
}
