{
"type": "FeatureCollection",
"name": "LAS",
"crs": { "type": "name", "properties": { "name": "urn:ogc:def:crs:OGC:1.3:CRS84" } },
"xy_coordinate_resolution": 1e-05,
"features": [
{ "type": "Feature", "properties": { "objectid": 31339, "dependencia": "INTEGRA", "nombre_establecimiento": "MISCANTI", "rbd": "I20504", "dgv_rbd": null, "estado": null, "direccion": null, "urbano_rural": "RURAL", "matricula": 7, "tipo": null, "cut_reg": "02", "cut_prov": "022", "cut_com": "02203", "region": "Antofagasta", "provincia": "El Loa", "comuna": "San Pedro de Atacama", "globalid": "ed5e75c7-78bc-4e53-8b00-2224633de3be", "latitud": -23.590756, "longitud": -67.891091 }, "geometry": { "type": "Point", "coordinates": [ -67.89109, -23.59076 ] } },
{ "type": "Feature", "properties": { "objectid": 31510, "dependencia": "JUNJI", "nombre_establecimiento": "SOL DEL NORTE", "rbd": "J2203019", "dgv_rbd": null, "estado": null, "direccion": null, "urbano_rural": "RURAL", "matricula": 9, "tipo": null, "cut_reg": "02", "cut_prov": "022", "cut_com": "02203", "region": "Antofagasta", "provincia": "El Loa", "comuna": "San Pedro de Atacama", "globalid": "9f1e62ef-80d6-47c3-9b1f-5ae1af890958", "latitud": -23.40773815, "longitud": -67.96182602 }, "geometry": { "type": "Point", "coordinates": [ -67.96183, -23.40774 ] } },
{ "type": "Feature", "properties": { "objectid": 31519, "dependencia": "SLEP", "nombre_establecimiento": "ESCUELA BASICA TALABRE", "rbd": "276", "dgv_rbd": null, "estado": null, "direccion": null, "urbano_rural": "RURAL", "matricula": 12, "tipo": null, "cut_reg": "02", "cut_prov": "022", "cut_com": "02203", "region": "Antofagasta", "provincia": "El Loa", "comuna": "San Pedro de Atacama", "globalid": "eee62008-ca6f-4020-a5e9-b15eaa66bb0f", "latitud": -23.32528, "longitud": -67.83606 }, "geometry": { "type": "Point", "coordinates": [ -67.83606, -23.32528 ] } },
{ "type": "Feature", "properties": { "objectid": 31522, "dependencia": "JUNJI", "nombre_establecimiento": "CAPPIN PAHNIR", "rbd": "J2203021", "dgv_rbd": null, "estado": null, "direccion": null, "urbano_rural": "RURAL", "matricula": 6, "tipo": null, "cut_reg": "02", "cut_prov": "022", "cut_com": "02203", "region": "Antofagasta", "provincia": "El Loa", "comuna": "San Pedro de Atacama", "globalid": "7ca34581-2fc0-40f4-a044-4bb38bf50c09", "latitud": -23.31545525, "longitud": -67.89037353 }, "geometry": { "type": "Point", "coordinates": [ -67.89037, -23.31546 ] } },
{ "type": "Feature", "properties": { "objectid": 31525, "dependencia": "INTEGRA", "nombre_establecimiento": "LICKAN ANTAY", "rbd": "I20503", "dgv_rbd": null, "estado": null, "direccion": null, "urbano_rural": "RURAL", "matricula": 39, "tipo": null, "cut_reg": "02", "cut_prov": "022", "cut_com": "02203", "region": "Antofagasta", "provincia": "El Loa", "comuna": "San Pedro de Atacama", "globalid": "51f27be2-0d5c-4341-b8a6-1c4cf29b3f71", "latitud": -23.190942, "longitud": -68.005583 }, "geometry": { "type": "Point", "coordinates": [ -68.00558, -23.19094 ] } },
{ "type": "Feature", "properties": { "objectid": 31551, "dependencia": "SLEP", "nombre_establecimiento": "COMPLEJO EDUCACIONAL TOCONAO", "rbd": "270", "dgv_rbd": null, "estado": null, "direccion": null, "urbano_rural": "RURAL", "matricula": 404, "tipo": null, "cut_reg": "02", "cut_prov": "022", "cut_com": "02203", "region": "Antofagasta", "provincia": "El Loa", "comuna": "San Pedro de Atacama", "globalid": "f169da55-24b1-4576-90fe-d85dd9eb5ada", "latitud": -23.19017, "longitud": -68.00643 }, "geometry": { "type": "Point", "coordinates": [ -68.00643, -23.19017 ] } },
{ "type": "Feature", "properties": { "objectid": 32496, "dependencia": "INTEGRA", "nombre_establecimiento": "PARINITAS", "rbd": "I20502", "dgv_rbd": null, "estado": null, "direccion": null, "urbano_rural": "RURAL", "matricula": 11, "tipo": null, "cut_reg": "02", "cut_prov": "022", "cut_com": "02203", "region": "Antofagasta", "provincia": "El Loa", "comuna": "San Pedro de Atacama", "globalid": "c5db7d25-165b-4781-baee-71de510aec38", "latitud": -23.682946, "longitud": -68.06565 }, "geometry": { "type": "Point", "coordinates": [ -68.06565, -23.68295 ] } },
{ "type": "Feature", "properties": { "objectid": 32498, "dependencia": "SLEP", "nombre_establecimiento": "ESCUELA BASICA SAN ROQUE", "rbd": "274", "dgv_rbd": null, "estado": null, "direccion": null, "urbano_rural": "RURAL", "matricula": 31, "tipo": null, "cut_reg": "02", "cut_prov": "022", "cut_com": "02203", "region": "Antofagasta", "provincia": "El Loa", "comuna": "San Pedro de Atacama", "globalid": "e84f8f8e-6016-46f6-9cdc-42e1d35d4786", "latitud": -23.67869, "longitud": -68.07309 }, "geometry": { "type": "Point", "coordinates": [ -68.07309, -23.67869 ] } }
]
}
