{
"type": "FeatureCollection",
"name": "LLA",
"crs": { "type": "name", "properties": { "name": "urn:ogc:def:crs:OGC:1.3:CRS84" } },
"xy_coordinate_resolution": 1e-05,
"features": [
{ "type": "Feature", "properties": { "objectid": 18885, "dependencia": "PARTICULAR SUBVENCIONADO", "nombre_establecimiento": "ESC. PART. STA. ISABEL DE TRAFAMPULLI", "rbd": "6003", "dgv_rbd": null, "estado": null, "direccion": null, "urbano_rural": "RURAL", "matricula": 3, "tipo": null, "cut_reg": "09", "cut_prov": "091", "cut_com": "09103", "region": "La Araucanía", "provincia": "Cautín", "comuna": "Cunco", "globalid": "82ca0f59-39d5-4b8b-bda8-1d5e9a849379", "latitud": -39.08878, "longitud": -71.78547 }, "geometry": { "type": "Point", "coordinates": [ -71.78547, -39.08878 ] } },
{ "type": "Feature", "properties": { "objectid": 18923, "dependencia": "MUNICIPAL", "nombre_establecimiento": "ESCUELA BASICA QUECHEREHUE", "rbd": "5990", "dgv_rbd": null, "estado": null, "direccion": null, "urbano_rural": "RURAL", "matricula": 118, "tipo": null, "cut_reg": "09", "cut_prov": "091", "cut_com": "09103", "region": "La Araucanía", "provincia": "Cautín", "comuna": "Cunco", "globalid": "7a2f437a-051a-477c-9ae7-722e5b206859", "latitud": -38.99773, "longitud": -72.04838 }, "geometry": { "type": "Point", "coordinates": [ -72.04838, -38.99773 ] } },
{ "type": "Feature", "properties": { "objectid": 18934, "dependencia": "PARTICULAR SUBVENCIONADO", "nombre_establecimiento": "ESCUELA PARTICULAR QUECHEREHUE", "rbd": "5995", "dgv_rbd": null, "estado": null, "direccion": null, "urbano_rural": "RURAL", "matricula": 17, "tipo": null, "cut_reg": "09", "cut_prov": "091", "cut_com": "09103", "region": "La Araucanía", "provincia": "Cautín", "comuna": "Cunco", "globalid": "21a42716-56a7-497c-873e-aad0a1b00707", "latitud": -38.99256, "longitud": -72.05048 }, "geometry": { "type": "Point", "coordinates": [ -72.05048, -38.99256 ] } },
{ "type": "Feature", "properties": { "objectid": 18970, "dependencia": "MUNICIPAL", "nombre_establecimiento": "ESC. BASICA LLAULLAHUE", "rbd": "5980", "dgv_rbd": null, "estado": null, "direccion": null, "urbano_rural": "RURAL", "matricula": 3, "tipo": null, "cut_reg": "09", "cut_prov": "091", "cut_com": "09103", "region": "La Araucanía", "provincia": "Cautín", "comuna": "Cunco", "globalid": "b9635bde-9b88-4b58-a8e6-d0a5bb7489b2", "latitud": -38.97722, "longitud": -72.10628 }, "geometry": { "type": "Point", "coordinates": [ -72.10628, -38.97722 ] } },
{ "type": "Feature", "properties": { "objectid": 18971, "dependencia": "MUNICIPAL", "nombre_establecimiento": "ESC. BASICA LO SCHMITH", "rbd": "5984", "dgv_rbd": null, "estado": null, "direccion": null, "urbano_rural": "RURAL", "matricula": 3, "tipo": null, "cut_reg": "09", "cut_prov": "091", "cut_com": "09103", "region": "La Araucanía", "provincia": "Cautín", "comuna": "Cunco", "globalid": "d0fba36e-8cc7-4271-aaa5-a856f06a2c29", "latitud": -38.976, "longitud": -72.13461 }, "geometry": { "type": "Point", "coordinates": [ -72.13461, -38.976 ] } },
{ "type": "Feature", "properties": { "objectid": 18980, "dependencia": "MUNICIPAL", "nombre_establecimiento": "ESC. BASICA LEUFUCHE", "rbd": "5987", "dgv_rbd": null, "estado": null, "direccion": null, "urbano_rural": "RURAL", "matricula": 4, "tipo": null, "cut_reg": "09", "cut_prov": "091", "cut_com": "09103", "region": "La Araucanía", "provincia": "Cautín", "comuna": "Cunco", "globalid": "b48730a9-3fe3-4fbc-a04c-c6c40f6fe25d", "latitud": -38.95712, "longitud": -72.10922 }, "geometry": { "type": "Point", "coordinates": [ -72.10922, -38.95712 ] } },
{ "type": "Feature", "properties": { "objectid": 18992, "dependencia": "PARTICULAR SUBVENCIONADO", "nombre_establecimiento": "ESCUELA PARTICULAR LA DEHESA", "rbd": "20071", "dgv_rbd": null, "estado": null, "direccion": null, "urbano_rural": "URBANO", "matricula": 166, "tipo": null, "cut_reg": "09", "cut_prov": "091", "cut_com": "09103", "region": "La Araucanía", "provincia": "Cautín", "comuna": "Cunco", "globalid": "22d80dba-7df1-464e-882c-3fbc01f4dcb2", "latitud": -38.94499, "longitud": -72.03851 }, "geometry": { "type": "Point", "coordinates": [ -72.03851, -38.94499 ] } },
{ "type": "Feature", "properties": { "objectid": 18993, "dependencia": "JUNJI - VTF", "nombre_establecimiento": "LOS MADEROS", "rbd": "J9103006", "dgv_rbd": null, "estado": null, "direccion": null, "urbano_rural": "URBANO", "matricula": 17, "tipo": null, "cut_reg": "09", "cut_prov": "091", "cut_com": "09103", "region": "La Araucanía", "provincia": "Cautín", "comuna": "Cunco", "globalid": "6d5cdd3d-1a3e-4c52-a0e6-373a823f787a", "latitud": -38.94424347, "longitud": -72.02743465 }, "geometry": { "type": "Point", "coordinates": [ -72.02743, -38.94424 ] } },
{ "type": "Feature", "properties": { "objectid": 18994, "dependencia": "PARTICULAR SUBVENCIONADO", "nombre_establecimiento": "CENTRO EDUC.INTEGRAL ADULTOS ACROPOLIS", "rbd": "20073", "dgv_rbd": null, "estado": null, "direccion": null, "urbano_rural": "URBANO", "matricula": 81, "tipo": null, "cut_reg": "09", "cut_prov": "091", "cut_com": "09103", "region": "La Araucanía", "provincia": "Cautín", "comuna": "Cunco", "globalid": "c6cf0215-969f-4a81-a828-3dfb88f7e7a9", "latitud": -38.94408, "longitud": -72.02568 }, "geometry": { "type": "Point", "coordinates": [ -72.02568, -38.94408 ] } },
{ "type": "Feature", "properties": { "objectid": 18995, "dependencia": "JUNJI - VTF", "nombre_establecimiento": "LA UNION", "rbd": "J9103001", "dgv_rbd": null, "estado": null, "direccion": null, "urbano_rural": "URBANO", "matricula": 52, "tipo": null, "cut_reg": "09", "cut_prov": "091", "cut_com": "09103", "region": "La Araucanía", "provincia": "Cautín", "comuna": "Cunco", "globalid": "a69f2cb7-30dd-4923-a49d-efbb2be8fe59", "latitud": -38.943041, "longitud": -72.034633 }, "geometry": { "type": "Point", "coordinates": [ -72.03463, -38.94304 ] } },
{ "type": "Feature", "properties": { "objectid": 18997, "dependencia": "MUNICIPAL", "nombre_establecimiento": "ESCUELA BASICA LAS HORTENCIAS", "rbd": "5960", "dgv_rbd": null, "estado": null, "direccion": null, "urbano_rural": "URBANO", "matricula": 124, "tipo": null, "cut_reg": "09", "cut_prov": "091", "cut_com": "09103", "region": "La Araucanía", "provincia": "Cautín", "comuna": "Cunco", "globalid": "b0d72dbd-0d27-4520-b61c-862196b5fde1", "latitud": -38.94223, "longitud": -72.15171 }, "geometry": { "type": "Point", "coordinates": [ -72.15171, -38.94223 ] } },
{ "type": "Feature", "properties": { "objectid": 18998, "dependencia": "JUNJI - VTF", "nombre_establecimiento": "COMENZANDO A APRENDER", "rbd": "J9103003", "dgv_rbd": null, "estado": null, "direccion": null, "urbano_rural": "URBANO", "matricula": 14, "tipo": null, "cut_reg": "09", "cut_prov": "091", "cut_com": "09103", "region": "La Araucanía", "provincia": "Cautín", "comuna": "Cunco", "globalid": "c39ac37a-40b3-4035-b355-aeabdbe53ed5", "latitud": -38.94171646, "longitud": -72.15254293000001 }, "geometry": { "type": "Point", "coordinates": [ -72.15254, -38.94172 ] } },
{ "type": "Feature", "properties": { "objectid": 19003, "dependencia": "MUNICIPAL", "nombre_establecimiento": "ESC. BASICA MOLULCO", "rbd": "6009", "dgv_rbd": null, "estado": null, "direccion": null, "urbano_rural": "RURAL", "matricula": 2, "tipo": null, "cut_reg": "09", "cut_prov": "091", "cut_com": "09110", "region": "La Araucanía", "provincia": "Cautín", "comuna": "Melipeuco", "globalid": "16e1fdd1-a0a9-4dab-a774-6bc54d732574", "latitud": -38.93652, "longitud": -71.70712 }, "geometry": { "type": "Point", "coordinates": [ -71.70712, -38.93652 ] } },
{ "type": "Feature", "properties": { "objectid": 19005, "dependencia": "MUNICIPAL", "nombre_establecimiento": "ESCUELA MUNICIPAL CARÉN", "rbd": "6017", "dgv_rbd": null, "estado": null, "direccion": null, "urbano_rural": "RURAL", "matricula": 4, "tipo": null, "cut_reg": "09", "cut_prov": "091", "cut_com": "09110", "region": "La Araucanía", "provincia": "Cautín", "comuna": "Melipeuco", "globalid": "97402a22-f7e9-4510-9e42-eae7f58afac2", "latitud": -38.93495, "longitud": -71.45177 }, "geometry": { "type": "Point", "coordinates": [ -71.45177, -38.93495 ] } },
{ "type": "Feature", "properties": { "objectid": 19006, "dependencia": "PARTICULAR SUBVENCIONADO", "nombre_establecimiento": "LICEO BICENTENARIO DE EXCELENCIA POLITÉCNICO SANTA CRUZ", "rbd": "12368", "dgv_rbd": null, "estado": null, "direccion": null, "urbano_rural": "URBANO", "matricula": 811, "tipo": null, "cut_reg": "09", "cut_prov": "091", "cut_com": "09103", "region": "La Araucanía", "provincia": "Cautín", "comuna": "Cunco", "globalid": "212d3310-254a-48ec-b364-be2640f0791e", "latitud": -38.93338, "longitud": -72.02891 }, "geometry": { "type": "Point", "coordinates": [ -72.02891, -38.93338 ] } },
{ "type": "Feature", "properties": { "objectid": 19007, "dependencia": "JUNJI - VTF", "nombre_establecimiento": "SALA CUNA PASO A PASITO", "rbd": "J9103004", "dgv_rbd": null, "estado": null, "direccion": null, "urbano_rural": "URBANO", "matricula": 50, "tipo": null, "cut_reg": "09", "cut_prov": "091", "cut_com": "09103", "region": "La Araucanía", "provincia": "Cautín", "comuna": "Cunco", "globalid": "b1eaa937-178e-45af-bbb2-633f2df8f89e", "latitud": -38.93325023, "longitud": -72.03098175000001 }, "geometry": { "type": "Point", "coordinates": [ -72.03098, -38.93325 ] } },
{ "type": "Feature", "properties": { "objectid": 19008, "dependencia": "PARTICULAR SUBVENCIONADO", "nombre_establecimiento": "ESCUELA LEOVIGILDO KLEY", "rbd": "5993", "dgv_rbd": null, "estado": null, "direccion": null, "urbano_rural": "URBANO", "matricula": 330, "tipo": null, "cut_reg": "09", "cut_prov": "091", "cut_com": "09103", "region": "La Araucanía", "provincia": "Cautín", "comuna": "Cunco", "globalid": "733118ff-ae2f-4a8f-a2b5-a7639b3fd64a", "latitud": -38.9329, "longitud": -72.02899 }, "geometry": { "type": "Point", "coordinates": [ -72.02899, -38.9329 ] } },
{ "type": "Feature", "properties": { "objectid": 19009, "dependencia": "MUNICIPAL", "nombre_establecimiento": "LICEO MUNICIPAL ATENEA", "rbd": "5957", "dgv_rbd": null, "estado": null, "direccion": null, "urbano_rural": "URBANO", "matricula": 730, "tipo": null, "cut_reg": "09", "cut_prov": "091", "cut_com": "09103", "region": "La Araucanía", "provincia": "Cautín", "comuna": "Cunco", "globalid": "0131c5d4-d3d4-42eb-8e18-25ec90e598dd", "latitud": -38.93259, "longitud": -72.03082 }, "geometry": { "type": "Point", "coordinates": [ -72.03082, -38.93259 ] } },
{ "type": "Feature", "properties": { "objectid": 19010, "dependencia": "PARTICULAR SUBVENCIONADO", "nombre_establecimiento": "LICEO BICENTENARIO DE EXCELENCIA JUAN BOSCO", "rbd": "5992", "dgv_rbd": null, "estado": null, "direccion": null, "urbano_rural": "URBANO", "matricula": 269, "tipo": null, "cut_reg": "09", "cut_prov": "091", "cut_com": "09103", "region": "La Araucanía", "provincia": "Cautín", "comuna": "Cunco", "globalid": "64f42cec-c7cf-4587-8690-a461153c7d3b", "latitud": -38.9321, "longitud": -72.02884 }, "geometry": { "type": "Point", "coordinates": [ -72.02884, -38.9321 ] } },
{ "type": "Feature", "properties": { "objectid": 19011, "dependencia": "JUNJI - VTF", "nombre_establecimiento": "JI Y SC MI PEQUEÑO MUNDO", "rbd": "J9103015", "dgv_rbd": null, "estado": null, "direccion": null, "urbano_rural": "URBANO", "matricula": 38, "tipo": null, "cut_reg": "09", "cut_prov": "091", "cut_com": "09103", "region": "La Araucanía", "provincia": "Cautín", "comuna": "Cunco", "globalid": "ee4bad40-9387-49e6-a9a5-03f60c4d8d9c", "latitud": -38.931213, "longitud": -72.037385 }, "geometry": { "type": "Point", "coordinates": [ -72.03739, -38.93121 ] } },
{ "type": "Feature", "properties": { "objectid": 19012, "dependencia": "JUNJI", "nombre_establecimiento": "CUMBRES MAGICAS", "rbd": "J9103016", "dgv_rbd": null, "estado": null, "direccion": null, "urbano_rural": "URBANO", "matricula": 17, "tipo": null, "cut_reg": "09", "cut_prov": "091", "cut_com": "09103", "region": "La Araucanía", "provincia": "Cautín", "comuna": "Cunco", "globalid": "5b6da39f-474c-4203-b613-df5cd73c447f", "latitud": -38.930526, "longitud": -72.032045 }, "geometry": { "type": "Point", "coordinates": [ -72.03204, -38.93053 ] } },
{ "type": "Feature", "properties": { "objectid": 19013, "dependencia": "PARTICULAR SUBVENCIONADO", "nombre_establecimiento": "COLEGIO JUAN PABLO II", "rbd": "20182", "dgv_rbd": null, "estado": null, "direccion": null, "urbano_rural": "URBANO", "matricula": 231, "tipo": null, "cut_reg": "09", "cut_prov": "091", "cut_com": "09103", "region": "La Araucanía", "provincia": "Cautín", "comuna": "Cunco", "globalid": "8332dad9-ee05-443d-bbd1-6f02d8b87c79", "latitud": -38.93052, "longitud": -72.01831 }, "geometry": { "type": "Point", "coordinates": [ -72.01831, -38.93052 ] } },
{ "type": "Feature", "properties": { "objectid": 19014, "dependencia": "INTEGRA", "nombre_establecimiento": "RUCA-HUENEI", "rbd": "I91601", "dgv_rbd": null, "estado": null, "direccion": null, "urbano_rural": "URBANO", "matricula": 66, "tipo": null, "cut_reg": "09", "cut_prov": "091", "cut_com": "09103", "region": "La Araucanía", "provincia": "Cautín", "comuna": "Cunco", "globalid": "325d542e-8f0f-47a5-b466-2ef786a67b85", "latitud": -38.927323, "longitud": -72.036952 }, "geometry": { "type": "Point", "coordinates": [ -72.03695, -38.92732 ] } },
{ "type": "Feature", "properties": { "objectid": 19015, "dependencia": "MUNICIPAL", "nombre_establecimiento": "ESC. BASICA QUINETRU", "rbd": "5977", "dgv_rbd": null, "estado": null, "direccion": null, "urbano_rural": "RURAL", "matricula": 5, "tipo": null, "cut_reg": "09", "cut_prov": "091", "cut_com": "09103", "region": "La Araucanía", "provincia": "Cautín", "comuna": "Cunco", "globalid": "ffb787ee-9089-448a-bd08-488ce33b975f", "latitud": -38.92685, "longitud": -71.90749 }, "geometry": { "type": "Point", "coordinates": [ -71.90749, -38.92685 ] } },
{ "type": "Feature", "properties": { "objectid": 19016, "dependencia": "MUNICIPAL", "nombre_establecimiento": "ESC. BASICA CURACALCO", "rbd": "6015", "dgv_rbd": null, "estado": null, "direccion": null, "urbano_rural": "RURAL", "matricula": 4, "tipo": null, "cut_reg": "09", "cut_prov": "091", "cut_com": "09103", "region": "La Araucanía", "provincia": "Cautín", "comuna": "Cunco", "globalid": "c251dc2a-4f15-4172-9b35-0a3aae9a6408", "latitud": -38.92682, "longitud": -71.83466 }, "geometry": { "type": "Point", "coordinates": [ -71.83466, -38.92682 ] } },
{ "type": "Feature", "properties": { "objectid": 19018, "dependencia": "JUNJI", "nombre_establecimiento": "KIMRAKIZUAM", "rbd": "J9103014", "dgv_rbd": null, "estado": null, "direccion": null, "urbano_rural": "RURAL", "matricula": 7, "tipo": null, "cut_reg": "09", "cut_prov": "091", "cut_com": "09103", "region": "La Araucanía", "provincia": "Cautín", "comuna": "Cunco", "globalid": "f8292ad8-1f86-4be3-a6aa-c83f8643d34b", "latitud": -38.920903, "longitud": -71.931482 }, "geometry": { "type": "Point", "coordinates": [ -71.93148, -38.9209 ] } },
{ "type": "Feature", "properties": { "objectid": 19021, "dependencia": "MUNICIPAL", "nombre_establecimiento": "ESC. BASICA EL ROSAL", "rbd": "5973", "dgv_rbd": null, "estado": null, "direccion": null, "urbano_rural": "RURAL", "matricula": 11, "tipo": null, "cut_reg": "09", "cut_prov": "091", "cut_com": "09103", "region": "La Araucanía", "provincia": "Cautín", "comuna": "Cunco", "globalid": "acd47304-ac20-4960-bec9-45ee942c5dc7", "latitud": -38.90945, "longitud": -72.19038 }, "geometry": { "type": "Point", "coordinates": [ -72.19038, -38.90945 ] } },
{ "type": "Feature", "properties": { "objectid": 19022, "dependencia": "JUNJI", "nombre_establecimiento": "EL ROSAL", "rbd": "J9103017", "dgv_rbd": null, "estado": null, "direccion": null, "urbano_rural": "RURAL", "matricula": 5, "tipo": null, "cut_reg": "09", "cut_prov": "091", "cut_com": "09103", "region": "La Araucanía", "provincia": "Cautín", "comuna": "Cunco", "globalid": "4378562f-0ddd-4024-a2f0-e6087c74c04f", "latitud": -38.90942, "longitud": -72.190359 }, "geometry": { "type": "Point", "coordinates": [ -72.19036, -38.90942 ] } },
{ "type": "Feature", "properties": { "objectid": 19023, "dependencia": "PARTICULAR SUBVENCIONADO", "nombre_establecimiento": "ESCUELA PARTICULAR PADRE BERNABE", "rbd": "5999", "dgv_rbd": null, "estado": null, "direccion": null, "urbano_rural": "RURAL", "matricula": 44, "tipo": null, "cut_reg": "09", "cut_prov": "091", "cut_com": "09103", "region": "La Araucanía", "provincia": "Cautín", "comuna": "Cunco", "globalid": "f9a62e2f-14b0-404f-af99-c18e50d953b6", "latitud": -38.90831, "longitud": -71.93202 }, "geometry": { "type": "Point", "coordinates": [ -71.93202, -38.90831 ] } },
{ "type": "Feature", "properties": { "objectid": 19028, "dependencia": "PARTICULAR SUBVENCIONADO", "nombre_establecimiento": "ESCUELA PARTICULAR LLAIMA", "rbd": "6019", "dgv_rbd": null, "estado": null, "direccion": null, "urbano_rural": "RURAL", "matricula": 34, "tipo": null, "cut_reg": "09", "cut_prov": "091", "cut_com": "09110", "region": "La Araucanía", "provincia": "Cautín", "comuna": "Melipeuco", "globalid": "607388f8-87d3-4717-a928-850383a697f2", "latitud": -38.89925, "longitud": -71.73684 }, "geometry": { "type": "Point", "coordinates": [ -71.73684, -38.89925 ] } },
{ "type": "Feature", "properties": { "objectid": 19035, "dependencia": "MUNICIPAL", "nombre_establecimiento": "ESCUELA PAULO ARAVENA ARAVENA", "rbd": "5981", "dgv_rbd": null, "estado": null, "direccion": null, "urbano_rural": "RURAL", "matricula": 1, "tipo": null, "cut_reg": "09", "cut_prov": "091", "cut_com": "09103", "region": "La Araucanía", "provincia": "Cautín", "comuna": "Cunco", "globalid": "a085eadf-970a-4f75-acbd-743a349a9f57", "latitud": -38.88272, "longitud": -72.05445 }, "geometry": { "type": "Point", "coordinates": [ -72.05445, -38.88272 ] } },
{ "type": "Feature", "properties": { "objectid": 19036, "dependencia": "JUNJI", "nombre_establecimiento": "WE KIMUN - SANTA MARIA LLAIMA", "rbd": "J9110009", "dgv_rbd": null, "estado": null, "direccion": null, "urbano_rural": "RURAL", "matricula": 12, "tipo": null, "cut_reg": "09", "cut_prov": "091", "cut_com": "09110", "region": "La Araucanía", "provincia": "Cautín", "comuna": "Melipeuco", "globalid": "886729da-f8c1-40a6-8807-6ebc3a354f6b", "latitud": -38.882418, "longitud": -71.767953 }, "geometry": { "type": "Point", "coordinates": [ -71.76795, -38.88242 ] } },
{ "type": "Feature", "properties": { "objectid": 19040, "dependencia": "MUNICIPAL", "nombre_establecimiento": "ESC. BASICA MOLULCO", "rbd": "6011", "dgv_rbd": null, "estado": null, "direccion": null, "urbano_rural": "RURAL", "matricula": 6, "tipo": null, "cut_reg": "09", "cut_prov": "091", "cut_com": "09110", "region": "La Araucanía", "provincia": "Cautín", "comuna": "Melipeuco", "globalid": "ce5ba7ec-7d2b-4fe4-8ae4-0361c6bdd488", "latitud": -38.88116, "longitud": -71.72278 }, "geometry": { "type": "Point", "coordinates": [ -71.72278, -38.88116 ] } },
{ "type": "Feature", "properties": { "objectid": 19043, "dependencia": "JUNJI - VTF", "nombre_establecimiento": "PICHIKECHE ESC.PAIHUAN PILLAN", "rbd": "J9110001", "dgv_rbd": null, "estado": null, "direccion": null, "urbano_rural": "RURAL", "matricula": 14, "tipo": null, "cut_reg": "09", "cut_prov": "091", "cut_com": "09110", "region": "La Araucanía", "provincia": "Cautín", "comuna": "Melipeuco", "globalid": "c5141820-007a-4491-92c8-a277a027e501", "latitud": -38.87594452, "longitud": -71.82161111000001 }, "geometry": { "type": "Point", "coordinates": [ -71.82161, -38.87594 ] } },
{ "type": "Feature", "properties": { "objectid": 19045, "dependencia": "PARTICULAR SUBVENCIONADO", "nombre_establecimiento": "ESCUELA PARTICULAR PALIHUEPILLAN", "rbd": "6023", "dgv_rbd": null, "estado": null, "direccion": null, "urbano_rural": "RURAL", "matricula": 22, "tipo": null, "cut_reg": "09", "cut_prov": "091", "cut_com": "09110", "region": "La Araucanía", "provincia": "Cautín", "comuna": "Melipeuco", "globalid": "666ce1a8-bc78-4ea4-9dec-1da594b85593", "latitud": -38.8722, "longitud": -71.81915 }, "geometry": { "type": "Point", "coordinates": [ -71.81915, -38.8722 ] } },
{ "type": "Feature", "properties": { "objectid": 19056, "dependencia": "PARTICULAR SUBVENCIONADO", "nombre_establecimiento": "ESCUELA PARTICULAR LA SUERTE", "rbd": "6022", "dgv_rbd": null, "estado": null, "direccion": null, "urbano_rural": "RURAL", "matricula": 12, "tipo": null, "cut_reg": "09", "cut_prov": "091", "cut_com": "09110", "region": "La Araucanía", "provincia": "Cautín", "comuna": "Melipeuco", "globalid": "46362891-21d2-48c2-894c-cd63b638d730", "latitud": -38.8672, "longitud": -71.77164 }, "geometry": { "type": "Point", "coordinates": [ -71.77164, -38.8672 ] } },
{ "type": "Feature", "properties": { "objectid": 19058, "dependencia": "MUNICIPAL", "nombre_establecimiento": "ESC. BASICA CUMCUMLLAQUE", "rbd": "6012", "dgv_rbd": null, "estado": null, "direccion": null, "urbano_rural": "RURAL", "matricula": 27, "tipo": null, "cut_reg": "09", "cut_prov": "091", "cut_com": "09110", "region": "La Araucanía", "provincia": "Cautín", "comuna": "Melipeuco", "globalid": "e95a7e78-0d4d-4880-bdb1-7951bc3e75b5", "latitud": -38.86414, "longitud": -71.58165 }, "geometry": { "type": "Point", "coordinates": [ -71.58165, -38.86414 ] } },
{ "type": "Feature", "properties": { "objectid": 19064, "dependencia": "PARTICULAR SUBVENCIONADO", "nombre_establecimiento": "ESCUELA PARTICULAR SAN GABRIEL", "rbd": "6018", "dgv_rbd": null, "estado": null, "direccion": null, "urbano_rural": "URBANO", "matricula": 151, "tipo": null, "cut_reg": "09", "cut_prov": "091", "cut_com": "09110", "region": "La Araucanía", "provincia": "Cautín", "comuna": "Melipeuco", "globalid": "f72efdb8-50ea-47d4-94e5-107274351faa", "latitud": -38.85475, "longitud": -71.70229 }, "geometry": { "type": "Point", "coordinates": [ -71.70229, -38.85475 ] } },
{ "type": "Feature", "properties": { "objectid": 20065, "dependencia": "JUNJI", "nombre_establecimiento": "AUKARAKIÑ (CUMCUMLLAQUE)", "rbd": "J9110013", "dgv_rbd": null, "estado": null, "direccion": null, "urbano_rural": "RURAL", "matricula": 9, "tipo": null, "cut_reg": "09", "cut_prov": "091", "cut_com": "09110", "region": "La Araucanía", "provincia": "Cautín", "comuna": "Melipeuco", "globalid": "74bafec5-67fa-40d0-aa96-9fa4869cfc1c", "latitud": -38.854516, "longitud": -71.605733 }, "geometry": { "type": "Point", "coordinates": [ -71.60573, -38.85452 ] } },
{ "type": "Feature", "properties": { "objectid": 20068, "dependencia": "MUNICIPAL", "nombre_establecimiento": "ESCUELA BASICA VOLCAN LLAIMA", "rbd": "19927", "dgv_rbd": null, "estado": null, "direccion": null, "urbano_rural": "URBANO", "matricula": 280, "tipo": null, "cut_reg": "09", "cut_prov": "091", "cut_com": "09110", "region": "La Araucanía", "provincia": "Cautín", "comuna": "Melipeuco", "globalid": "fb26e583-c47a-4849-bc55-992ccd47faae", "latitud": -38.85431, "longitud": -71.69701 }, "geometry": { "type": "Point", "coordinates": [ -71.69701, -38.85431 ] } },
{ "type": "Feature", "properties": { "objectid": 20070, "dependencia": "INTEGRA", "nombre_establecimiento": "LOS PEQUES", "rbd": "I91701", "dgv_rbd": null, "estado": null, "direccion": null, "urbano_rural": "URBANO", "matricula": 41, "tipo": null, "cut_reg": "09", "cut_prov": "091", "cut_com": "09110", "region": "La Araucanía", "provincia": "Cautín", "comuna": "Melipeuco", "globalid": "cda80295-ea3d-449f-a16a-3d14cffc3f9a", "latitud": -38.854099, "longitud": -71.69938 }, "geometry": { "type": "Point", "coordinates": [ -71.69938, -38.8541 ] } },
{ "type": "Feature", "properties": { "objectid": 20071, "dependencia": "JUNJI - VTF", "nombre_establecimiento": "CUNCUNITA PUTREW", "rbd": "J9119016", "dgv_rbd": null, "estado": null, "direccion": null, "urbano_rural": "URBANO", "matricula": 30, "tipo": null, "cut_reg": "09", "cut_prov": "091", "cut_com": "09119", "region": "La Araucanía", "provincia": "Cautín", "comuna": "Vilcún", "globalid": "31370ae7-4e54-443d-963d-0274b1049ff1", "latitud": -38.676448, "longitud": -72.218207 }, "geometry": { "type": "Point", "coordinates": [ -72.21821, -38.67645 ] } },
{ "type": "Feature", "properties": { "objectid": 20072, "dependencia": "JUNJI", "nombre_establecimiento": "PEWEN", "rbd": "J9110011", "dgv_rbd": null, "estado": null, "direccion": null, "urbano_rural": "URBANO", "matricula": 64, "tipo": null, "cut_reg": "09", "cut_prov": "091", "cut_com": "09110", "region": "La Araucanía", "provincia": "Cautín", "comuna": "Melipeuco", "globalid": "88eb644f-172a-4bcc-9f63-21f1c2cd7441", "latitud": -38.853956, "longitud": -71.693833 }, "geometry": { "type": "Point", "coordinates": [ -71.69383, -38.85396 ] } },
{ "type": "Feature", "properties": { "objectid": 20073, "dependencia": "JUNJI", "nombre_establecimiento": "PINTANDO SUEÑOS", "rbd": "J9119023", "dgv_rbd": null, "estado": null, "direccion": null, "urbano_rural": "URBANO", "matricula": 65, "tipo": null, "cut_reg": "09", "cut_prov": "091", "cut_com": "09119", "region": "La Araucanía", "provincia": "Cautín", "comuna": "Vilcún", "globalid": "df3b53c2-a6a0-4222-ac09-b1300d8e916d", "latitud": -38.675869, "longitud": -72.218886 }, "geometry": { "type": "Point", "coordinates": [ -72.21889, -38.67587 ] } },
{ "type": "Feature", "properties": { "objectid": 20074, "dependencia": "MUNICIPAL", "nombre_establecimiento": "LICEO LOS ANDES", "rbd": "6007", "dgv_rbd": null, "estado": null, "direccion": null, "urbano_rural": "URBANO", "matricula": 171, "tipo": null, "cut_reg": "09", "cut_prov": "091", "cut_com": "09110", "region": "La Araucanía", "provincia": "Cautín", "comuna": "Melipeuco", "globalid": "6d124eb1-28cc-41d2-8abc-237313d14dbd", "latitud": -38.85388, "longitud": -71.70094 }, "geometry": { "type": "Point", "coordinates": [ -71.70094, -38.85388 ] } },
{ "type": "Feature", "properties": { "objectid": 20079, "dependencia": "PARTICULAR SUBVENCIONADO", "nombre_establecimiento": "ESCUELA PARTICULAR VILCUN", "rbd": "11467", "dgv_rbd": null, "estado": null, "direccion": null, "urbano_rural": "URBANO", "matricula": 328, "tipo": null, "cut_reg": "09", "cut_prov": "091", "cut_com": "09119", "region": "La Araucanía", "provincia": "Cautín", "comuna": "Vilcún", "globalid": "403d9b03-0984-435a-9b11-47642861127e", "latitud": -38.67101, "longitud": -72.22334 }, "geometry": { "type": "Point", "coordinates": [ -72.22334, -38.67101 ] } },
{ "type": "Feature", "properties": { "objectid": 20081, "dependencia": "PARTICULAR SUBVENCIONADO", "nombre_establecimiento": "LICEO BICENTENARIO PADRE NICOLÁS", "rbd": "5921", "dgv_rbd": null, "estado": null, "direccion": null, "urbano_rural": "URBANO", "matricula": 570, "tipo": null, "cut_reg": "09", "cut_prov": "091", "cut_com": "09119", "region": "La Araucanía", "provincia": "Cautín", "comuna": "Vilcún", "globalid": "5c87d3c0-31e4-4064-a13b-a79ca95b7600", "latitud": -38.671, "longitud": -72.2229 }, "geometry": { "type": "Point", "coordinates": [ -72.2229, -38.671 ] } },
{ "type": "Feature", "properties": { "objectid": 20084, "dependencia": "INTEGRA", "nombre_establecimiento": "BELLAVISTA", "rbd": "I91502", "dgv_rbd": null, "estado": null, "direccion": null, "urbano_rural": "URBANO", "matricula": 62, "tipo": null, "cut_reg": "09", "cut_prov": "091", "cut_com": "09119", "region": "La Araucanía", "provincia": "Cautín", "comuna": "Vilcún", "globalid": "91e63052-1cd0-4dbe-a495-bfefb04372fd", "latitud": -38.670983, "longitud": -72.225553 }, "geometry": { "type": "Point", "coordinates": [ -72.22555, -38.67098 ] } },
{ "type": "Feature", "properties": { "objectid": 20087, "dependencia": "MUNICIPAL", "nombre_establecimiento": "ESC.ESP.RET.MENTAL FEYENTUN", "rbd": "19914", "dgv_rbd": null, "estado": null, "direccion": null, "urbano_rural": "URBANO", "matricula": 16, "tipo": null, "cut_reg": "09", "cut_prov": "091", "cut_com": "09119", "region": "La Araucanía", "provincia": "Cautín", "comuna": "Vilcún", "globalid": "9f68336e-77ec-4d4f-ad37-d4171d99f65e", "latitud": -38.67081, "longitud": -72.23029 }, "geometry": { "type": "Point", "coordinates": [ -72.23029, -38.67081 ] } },
{ "type": "Feature", "properties": { "objectid": 20091, "dependencia": "PARTICULAR SUBVENCIONADO", "nombre_establecimiento": "ESCUELA ESPECIAL DE LENGUAJE EL CASTILLO DE VILCÚN", "rbd": "13207", "dgv_rbd": null, "estado": null, "direccion": null, "urbano_rural": "URBANO", "matricula": 75, "tipo": null, "cut_reg": "09", "cut_prov": "091", "cut_com": "09119", "region": "La Araucanía", "provincia": "Cautín", "comuna": "Vilcún", "globalid": "859c2152-c838-44bf-b9de-0a96d56fd036", "latitud": -38.67058, "longitud": -72.2282 }, "geometry": { "type": "Point", "coordinates": [ -72.2282, -38.67058 ] } },
{ "type": "Feature", "properties": { "objectid": 20092, "dependencia": "PARTICULAR SUBVENCIONADO", "nombre_establecimiento": "ESCUELA BASICA NINOS FELICES", "rbd": "20133", "dgv_rbd": null, "estado": null, "direccion": null, "urbano_rural": "URBANO", "matricula": 297, "tipo": null, "cut_reg": "09", "cut_prov": "091", "cut_com": "09119", "region": "La Araucanía", "provincia": "Cautín", "comuna": "Vilcún", "globalid": "bb9bf443-2173-4aeb-8d63-29b89deb169c", "latitud": -38.66993, "longitud": -72.21961 }, "geometry": { "type": "Point", "coordinates": [ -72.21961, -38.66993 ] } },
{ "type": "Feature", "properties": { "objectid": 20093, "dependencia": "PARTICULAR SUBVENCIONADO", "nombre_establecimiento": "ESCUELA ESPECIAL DE LENGUAJE SUYAI VILCÚN", "rbd": "20271", "dgv_rbd": null, "estado": null, "direccion": null, "urbano_rural": "URBANO", "matricula": 92, "tipo": null, "cut_reg": "09", "cut_prov": "091", "cut_com": "09119", "region": "La Araucanía", "provincia": "Cautín", "comuna": "Vilcún", "globalid": "ff04feab-89b1-40c0-9331-043fe52e0fc6", "latitud": -38.66873, "longitud": -72.2288 }, "geometry": { "type": "Point", "coordinates": [ -72.2288, -38.66873 ] } },
{ "type": "Feature", "properties": { "objectid": 20095, "dependencia": "MUNICIPAL", "nombre_establecimiento": "COLEGIO AMERICA", "rbd": "5897", "dgv_rbd": null, "estado": null, "direccion": null, "urbano_rural": "URBANO", "matricula": 597, "tipo": null, "cut_reg": "09", "cut_prov": "091", "cut_com": "09119", "region": "La Araucanía", "provincia": "Cautín", "comuna": "Vilcún", "globalid": "53c328c4-a8aa-4271-b314-e5345f281c1b", "latitud": -38.66836, "longitud": -72.22619 }, "geometry": { "type": "Point", "coordinates": [ -72.22619, -38.66836 ] } },
{ "type": "Feature", "properties": { "objectid": 20096, "dependencia": "INTEGRA", "nombre_establecimiento": "ENTRE JUEGOS Y SUEÑOS", "rbd": "I91504", "dgv_rbd": null, "estado": null, "direccion": null, "urbano_rural": "URBANO", "matricula": 48, "tipo": null, "cut_reg": "09", "cut_prov": "091", "cut_com": "09119", "region": "La Araucanía", "provincia": "Cautín", "comuna": "Vilcún", "globalid": "96bb8d76-f358-4249-9bfd-0197018e2034", "latitud": -38.668134, "longitud": -72.232201 }, "geometry": { "type": "Point", "coordinates": [ -72.2322, -38.66813 ] } },
{ "type": "Feature", "properties": { "objectid": 20097, "dependencia": "JUNJI - VTF", "nombre_establecimiento": "MI PEQUEÑO TESORO", "rbd": "J9119014", "dgv_rbd": null, "estado": null, "direccion": null, "urbano_rural": "URBANO", "matricula": 50, "tipo": null, "cut_reg": "09", "cut_prov": "091", "cut_com": "09119", "region": "La Araucanía", "provincia": "Cautín", "comuna": "Vilcún", "globalid": "a51eb420-249c-4342-bbb6-876eb2dbfab5", "latitud": -38.667922, "longitud": -72.225925 }, "geometry": { "type": "Point", "coordinates": [ -72.22593, -38.66792 ] } },
{ "type": "Feature", "properties": { "objectid": 20098, "dependencia": "PARTICULAR SUBVENCIONADO", "nombre_establecimiento": "COLEGIO ARRAYAN", "rbd": "20281", "dgv_rbd": null, "estado": null, "direccion": null, "urbano_rural": "RURAL", "matricula": 156, "tipo": null, "cut_reg": "09", "cut_prov": "091", "cut_com": "09119", "region": "La Araucanía", "provincia": "Cautín", "comuna": "Vilcún", "globalid": "a76a5259-c07a-4f4e-b4bd-89db3bebff84", "latitud": -38.6676, "longitud": -72.20089 }, "geometry": { "type": "Point", "coordinates": [ -72.20089, -38.6676 ] } },
{ "type": "Feature", "properties": { "objectid": 20101, "dependencia": "INTEGRA", "nombre_establecimiento": "COPITO DE NIEVE", "rbd": "I91503", "dgv_rbd": null, "estado": null, "direccion": null, "urbano_rural": "RURAL", "matricula": 17, "tipo": null, "cut_reg": "09", "cut_prov": "091", "cut_com": "09119", "region": "La Araucanía", "provincia": "Cautín", "comuna": "Vilcún", "globalid": "d2a5e2fd-db09-4a3f-896d-06710a07be5d", "latitud": -38.660376, "longitud": -72.114798 }, "geometry": { "type": "Point", "coordinates": [ -72.1148, -38.66038 ] } },
{ "type": "Feature", "properties": { "objectid": 20104, "dependencia": "PARTICULAR SUBVENCIONADO", "nombre_establecimiento": "ESCUELA PARTICULAR QUINQUEN", "rbd": "19958", "dgv_rbd": null, "estado": null, "direccion": null, "urbano_rural": "RURAL", "matricula": 13, "tipo": null, "cut_reg": "09", "cut_prov": "092", "cut_com": "09205", "region": "La Araucanía", "provincia": "Malleco", "comuna": "Lonquimay", "globalid": "19c2a2d9-2733-464d-9795-6582b67ef4af", "latitud": -38.65848, "longitud": -71.38602 }, "geometry": { "type": "Point", "coordinates": [ -71.38602, -38.65848 ] } },
{ "type": "Feature", "properties": { "objectid": 20106, "dependencia": "MUNICIPAL", "nombre_establecimiento": "ESCUELA DAGOBERTO GODOY", "rbd": "5899", "dgv_rbd": null, "estado": null, "direccion": null, "urbano_rural": "RURAL", "matricula": 102, "tipo": null, "cut_reg": "09", "cut_prov": "091", "cut_com": "09119", "region": "La Araucanía", "provincia": "Cautín", "comuna": "Vilcún", "globalid": "1943c71e-68fb-45de-a8ca-ade7e821b537", "latitud": -38.65755, "longitud": -72.11519 }, "geometry": { "type": "Point", "coordinates": [ -72.11519, -38.65755 ] } },
{ "type": "Feature", "properties": { "objectid": 20166, "dependencia": "MUNICIPAL", "nombre_establecimiento": "ESC. BASICA VISTA HERMOSA", "rbd": "5850", "dgv_rbd": null, "estado": null, "direccion": null, "urbano_rural": "RURAL", "matricula": 4, "tipo": null, "cut_reg": "09", "cut_prov": "091", "cut_com": "09108", "region": "La Araucanía", "provincia": "Cautín", "comuna": "Lautaro", "globalid": "5a9ec94c-0c3e-475e-9644-5d6923cb07e2", "latitud": -38.5853, "longitud": -72.0421 }, "geometry": { "type": "Point", "coordinates": [ -72.0421, -38.5853 ] } },
{ "type": "Feature", "properties": { "objectid": 20175, "dependencia": "MUNICIPAL", "nombre_establecimiento": "ESC. BASICA VEGA REDONDA", "rbd": "5901", "dgv_rbd": null, "estado": null, "direccion": null, "urbano_rural": "RURAL", "matricula": 195, "tipo": null, "cut_reg": "09", "cut_prov": "091", "cut_com": "09119", "region": "La Araucanía", "provincia": "Cautín", "comuna": "Vilcún", "globalid": "d391c3e4-b12a-487d-8be7-3d43a26b7797", "latitud": -38.57675, "longitud": -72.26824 }, "geometry": { "type": "Point", "coordinates": [ -72.26824, -38.57675 ] } },
{ "type": "Feature", "properties": { "objectid": 20176, "dependencia": "JUNJI - VTF", "nombre_establecimiento": "CASITA DE NINOS", "rbd": "J9119005", "dgv_rbd": null, "estado": null, "direccion": null, "urbano_rural": "RURAL", "matricula": 29, "tipo": null, "cut_reg": "09", "cut_prov": "091", "cut_com": "09119", "region": "La Araucanía", "provincia": "Cautín", "comuna": "Vilcún", "globalid": "1ad44ef9-678e-4879-b372-6db3200fab1a", "latitud": -38.57671, "longitud": -72.2688 }, "geometry": { "type": "Point", "coordinates": [ -72.2688, -38.57671 ] } },
{ "type": "Feature", "properties": { "objectid": 20182, "dependencia": "JUNJI", "nombre_establecimiento": "RAYÉN", "rbd": "J9119009", "dgv_rbd": null, "estado": null, "direccion": null, "urbano_rural": "RURAL", "matricula": 16, "tipo": null, "cut_reg": "09", "cut_prov": "091", "cut_com": "09119", "region": "La Araucanía", "provincia": "Cautín", "comuna": "Vilcún", "globalid": "af873ec9-16a3-4370-9146-f5e18bdfa38e", "latitud": -38.567376, "longitud": -72.240182 }, "geometry": { "type": "Point", "coordinates": [ -72.24018, -38.56738 ] } },
{ "type": "Feature", "properties": { "objectid": 20185, "dependencia": "JUNJI", "nombre_establecimiento": "LAS ABEJITAS DEL ESCUDO", "rbd": "J9108020", "dgv_rbd": null, "estado": null, "direccion": null, "urbano_rural": "RURAL", "matricula": 11, "tipo": null, "cut_reg": "09", "cut_prov": "091", "cut_com": "09108", "region": "La Araucanía", "provincia": "Cautín", "comuna": "Lautaro", "globalid": "9e9483cc-186b-4abb-b958-d61dd6c599f2", "latitud": -38.564553, "longitud": -72.086694 }, "geometry": { "type": "Point", "coordinates": [ -72.08669, -38.56455 ] } },
{ "type": "Feature", "properties": { "objectid": 20186, "dependencia": "MUNICIPAL", "nombre_establecimiento": "ESC. BASICA COLLIN ALTO", "rbd": "5905", "dgv_rbd": null, "estado": null, "direccion": null, "urbano_rural": "RURAL", "matricula": 59, "tipo": null, "cut_reg": "09", "cut_prov": "091", "cut_com": "09119", "region": "La Araucanía", "provincia": "Cautín", "comuna": "Vilcún", "globalid": "7ccebaed-8c1c-4fe9-a5b4-14f9f1459f55", "latitud": -38.56446, "longitud": -72.23823 }, "geometry": { "type": "Point", "coordinates": [ -72.23823, -38.56446 ] } },
{ "type": "Feature", "properties": { "objectid": 20187, "dependencia": "MUNICIPAL", "nombre_establecimiento": "ESC. BASICA EL ESCUDO", "rbd": "5852", "dgv_rbd": null, "estado": null, "direccion": null, "urbano_rural": "RURAL", "matricula": 37, "tipo": null, "cut_reg": "09", "cut_prov": "091", "cut_com": "09108", "region": "La Araucanía", "provincia": "Cautín", "comuna": "Lautaro", "globalid": "efc05fb1-f185-4473-a1a3-6e5446267dd8", "latitud": -38.56437, "longitud": -72.08682 }, "geometry": { "type": "Point", "coordinates": [ -72.08682, -38.56437 ] } },
{ "type": "Feature", "properties": { "objectid": 20190, "dependencia": "MUNICIPAL", "nombre_establecimiento": "ESCUELA DE SIERRA NEVADA", "rbd": "5337", "dgv_rbd": null, "estado": null, "direccion": null, "urbano_rural": "RURAL", "matricula": 3, "tipo": null, "cut_reg": "09", "cut_prov": "092", "cut_com": "09205", "region": "La Araucanía", "provincia": "Malleco", "comuna": "Lonquimay", "globalid": "3c05999e-c5e2-4b07-b6ef-a55c51c36227", "latitud": -38.55944, "longitud": -71.4733 }, "geometry": { "type": "Point", "coordinates": [ -71.4733, -38.55944 ] } },
{ "type": "Feature", "properties": { "objectid": 20202, "dependencia": "MUNICIPAL", "nombre_establecimiento": "ESC. BASICA LAS MINAS", "rbd": "5838", "dgv_rbd": null, "estado": null, "direccion": null, "urbano_rural": "RURAL", "matricula": 10, "tipo": null, "cut_reg": "09", "cut_prov": "091", "cut_com": "09108", "region": "La Araucanía", "provincia": "Cautín", "comuna": "Lautaro", "globalid": "ca67c8c6-a158-4f6f-86a2-28a939f5c771", "latitud": -38.54412, "longitud": -72.05239 }, "geometry": { "type": "Point", "coordinates": [ -72.05239, -38.54412 ] } },
{ "type": "Feature", "properties": { "objectid": 20212, "dependencia": "INTEGRA", "nombre_establecimiento": "LOS PIÑONCITOS", "rbd": "I90404", "dgv_rbd": null, "estado": null, "direccion": null, "urbano_rural": "RURAL", "matricula": 15, "tipo": null, "cut_reg": "09", "cut_prov": "092", "cut_com": "09205", "region": "La Araucanía", "provincia": "Malleco", "comuna": "Lonquimay", "globalid": "b4dec0ab-9eb8-4684-8535-e34b1fe5f604", "latitud": -38.535916, "longitud": -71.256365 }, "geometry": { "type": "Point", "coordinates": [ -71.25637, -38.53592 ] } },
{ "type": "Feature", "properties": { "objectid": 20219, "dependencia": "MUNICIPAL", "nombre_establecimiento": "ESCUELA BASICA MALALMAHUIDA", "rbd": "5326", "dgv_rbd": null, "estado": null, "direccion": null, "urbano_rural": "RURAL", "matricula": 126, "tipo": null, "cut_reg": "09", "cut_prov": "092", "cut_com": "09205", "region": "La Araucanía", "provincia": "Malleco", "comuna": "Lonquimay", "globalid": "ec253cad-163a-44f9-ad15-a6aeaccd17cb", "latitud": -38.5318, "longitud": -71.25323 }, "geometry": { "type": "Point", "coordinates": [ -71.25323, -38.5318 ] } },
{ "type": "Feature", "properties": { "objectid": 20238, "dependencia": "MUNICIPAL", "nombre_establecimiento": "ESCUELA RIO BLANCO", "rbd": "5362", "dgv_rbd": null, "estado": null, "direccion": null, "urbano_rural": "RURAL", "matricula": 2, "tipo": null, "cut_reg": "09", "cut_prov": "092", "cut_com": "09203", "region": "La Araucanía", "provincia": "Malleco", "comuna": "Curacautín", "globalid": "334b5e43-72d4-422a-8994-d125420e10ea", "latitud": -38.51335, "longitud": -71.68535 }, "geometry": { "type": "Point", "coordinates": [ -71.68535, -38.51335 ] } },
{ "type": "Feature", "properties": { "objectid": 20240, "dependencia": "MUNICIPAL", "nombre_establecimiento": "ESCUELA JOSE CHANIN SILHY", "rbd": "5365", "dgv_rbd": null, "estado": null, "direccion": null, "urbano_rural": "RURAL", "matricula": 4, "tipo": null, "cut_reg": "09", "cut_prov": "092", "cut_com": "09203", "region": "La Araucanía", "provincia": "Malleco", "comuna": "Curacautín", "globalid": "6f87c930-d729-4d55-9b95-687c57f61156", "latitud": -38.50765, "longitud": -71.82533 }, "geometry": { "type": "Point", "coordinates": [ -71.82533, -38.50765 ] } },
{ "type": "Feature", "properties": { "objectid": 20253, "dependencia": "MUNICIPAL", "nombre_establecimiento": "ESC. BASICA SANTA YOLANDA", "rbd": "5847", "dgv_rbd": null, "estado": null, "direccion": null, "urbano_rural": "RURAL", "matricula": 28, "tipo": null, "cut_reg": "09", "cut_prov": "091", "cut_com": "09108", "region": "La Araucanía", "provincia": "Cautín", "comuna": "Lautaro", "globalid": "bd5e4f0d-aba3-42e3-a7f7-0e5b929d18e5", "latitud": -38.49082, "longitud": -72.20022 }, "geometry": { "type": "Point", "coordinates": [ -72.20022, -38.49082 ] } },
{ "type": "Feature", "properties": { "objectid": 20260, "dependencia": "MUNICIPAL", "nombre_establecimiento": "ESCUELA MANCHURIA", "rbd": "5364", "dgv_rbd": null, "estado": null, "direccion": null, "urbano_rural": "RURAL", "matricula": 2, "tipo": null, "cut_reg": "09", "cut_prov": "092", "cut_com": "09203", "region": "La Araucanía", "provincia": "Malleco", "comuna": "Curacautín", "globalid": "e56d251d-15cb-428d-9d32-8dcb9610ea0c", "latitud": -38.4862, "longitud": -71.72671 }, "geometry": { "type": "Point", "coordinates": [ -71.72671, -38.4862 ] } },
{ "type": "Feature", "properties": { "objectid": 20264, "dependencia": "MUNICIPAL", "nombre_establecimiento": "ESCUELA BASICA LEFUCO", "rbd": "5360", "dgv_rbd": null, "estado": null, "direccion": null, "urbano_rural": "RURAL", "matricula": 18, "tipo": null, "cut_reg": "09", "cut_prov": "092", "cut_com": "09203", "region": "La Araucanía", "provincia": "Malleco", "comuna": "Curacautín", "globalid": "0d566cbe-ced7-4045-ba93-f72f2d634224", "latitud": -38.48224, "longitud": -71.77764 }, "geometry": { "type": "Point", "coordinates": [ -71.77764, -38.48224 ] } },
{ "type": "Feature", "properties": { "objectid": 20265, "dependencia": "MUNICIPAL", "nombre_establecimiento": "ESCUELA DE SANTA JULIA", "rbd": "5371", "dgv_rbd": null, "estado": null, "direccion": null, "urbano_rural": "RURAL", "matricula": 13, "tipo": null, "cut_reg": "09", "cut_prov": "092", "cut_com": "09203", "region": "La Araucanía", "provincia": "Malleco", "comuna": "Curacautín", "globalid": "38d2309d-b891-4074-937e-d8ec1b970109", "latitud": -38.48209, "longitud": -71.98515 }, "geometry": { "type": "Point", "coordinates": [ -71.98515, -38.48209 ] } },
{ "type": "Feature", "properties": { "objectid": 20271, "dependencia": "INTEGRA", "nombre_establecimiento": "TÍA LAURA", "rbd": "I90502", "dgv_rbd": null, "estado": null, "direccion": null, "urbano_rural": "URBANO", "matricula": 19, "tipo": null, "cut_reg": "09", "cut_prov": "092", "cut_com": "09203", "region": "La Araucanía", "provincia": "Malleco", "comuna": "Curacautín", "globalid": "ded82fe4-e259-49b6-9ec0-6bbe1719687d", "latitud": -38.474933, "longitud": -71.582489 }, "geometry": { "type": "Point", "coordinates": [ -71.58249, -38.47493 ] } },
{ "type": "Feature", "properties": { "objectid": 20274, "dependencia": "MUNICIPAL", "nombre_establecimiento": "RAMON EDUARDO RAMIREZ HENRIQUEZ", "rbd": "5348", "dgv_rbd": null, "estado": null, "direccion": null, "urbano_rural": "RURAL", "matricula": 138, "tipo": null, "cut_reg": "09", "cut_prov": "092", "cut_com": "09203", "region": "La Araucanía", "provincia": "Malleco", "comuna": "Curacautín", "globalid": "21678c3b-9bfb-4dc9-b889-15803ac3784a", "latitud": -38.47087, "longitud": -71.57637 }, "geometry": { "type": "Point", "coordinates": [ -71.57637, -38.47087 ] } },
{ "type": "Feature", "properties": { "objectid": 20275, "dependencia": "JUNJI - VTF", "nombre_establecimiento": "GOTITA DE AGUA (SANTA EMA)", "rbd": "J9203007", "dgv_rbd": null, "estado": null, "direccion": null, "urbano_rural": "RURAL", "matricula": 13, "tipo": null, "cut_reg": "09", "cut_prov": "092", "cut_com": "09203", "region": "La Araucanía", "provincia": "Malleco", "comuna": "Curacautín", "globalid": "7653bd9e-ace5-45a3-9a49-e0fb65e648a7", "latitud": -38.47073337, "longitud": -72.03301667 }, "geometry": { "type": "Point", "coordinates": [ -72.03302, -38.47073 ] } },
{ "type": "Feature", "properties": { "objectid": 20276, "dependencia": "PARTICULAR SUBVENCIONADO", "nombre_establecimiento": "ESCUELA PARTICULAR SANTA EMMA", "rbd": "5373", "dgv_rbd": null, "estado": null, "direccion": null, "urbano_rural": "RURAL", "matricula": 88, "tipo": null, "cut_reg": "09", "cut_prov": "092", "cut_com": "09203", "region": "La Araucanía", "provincia": "Malleco", "comuna": "Curacautín", "globalid": "9de31d9a-81c7-4bfd-ab9e-379e52c0064b", "latitud": -38.4702, "longitud": -72.03207 }, "geometry": { "type": "Point", "coordinates": [ -72.03207, -38.4702 ] } },
{ "type": "Feature", "properties": { "objectid": 20283, "dependencia": "MUNICIPAL", "nombre_establecimiento": "ESCUELA BASICA ALEJO TASCON", "rbd": "5363", "dgv_rbd": null, "estado": null, "direccion": null, "urbano_rural": "RURAL", "matricula": 90, "tipo": null, "cut_reg": "09", "cut_prov": "092", "cut_com": "09203", "region": "La Araucanía", "provincia": "Malleco", "comuna": "Curacautín", "globalid": "143375f8-a5a1-4c5b-904e-f11daec69a2a", "latitud": -38.46612, "longitud": -71.69813 }, "geometry": { "type": "Point", "coordinates": [ -71.69813, -38.46612 ] } },
{ "type": "Feature", "properties": { "objectid": 20288, "dependencia": "JUNJI - VTF", "nombre_establecimiento": "LELFUN PIREN", "rbd": "J9205001", "dgv_rbd": null, "estado": null, "direccion": null, "urbano_rural": "URBANO", "matricula": 39, "tipo": null, "cut_reg": "09", "cut_prov": "092", "cut_com": "09205", "region": "La Araucanía", "provincia": "Malleco", "comuna": "Lonquimay", "globalid": "7017110e-6899-4ac8-933d-26368d5bc158", "latitud": -38.45965001, "longitud": -71.369333329999989 }, "geometry": { "type": "Point", "coordinates": [ -71.36933, -38.45965 ] } },
{ "type": "Feature", "properties": { "objectid": 20289, "dependencia": "JUNJI", "nombre_establecimiento": "MUNDO DE COLORES", "rbd": "J9205016", "dgv_rbd": null, "estado": null, "direccion": null, "urbano_rural": "URBANO", "matricula": 63, "tipo": null, "cut_reg": "09", "cut_prov": "092", "cut_com": "09205", "region": "La Araucanía", "provincia": "Malleco", "comuna": "Lonquimay", "globalid": "f7e7dc8a-f8d5-40cd-a673-042fcc2af37d", "latitud": -38.459307, "longitud": -71.364643 }, "geometry": { "type": "Point", "coordinates": [ -71.36464, -38.45931 ] } },
{ "type": "Feature", "properties": { "objectid": 20290, "dependencia": "PARTICULAR SUBVENCIONADO", "nombre_establecimiento": "ESCUELA HOSPITALARIA DE LONQUIMAY", "rbd": "42256", "dgv_rbd": null, "estado": null, "direccion": null, "urbano_rural": "URBANO", "matricula": 16, "tipo": null, "cut_reg": "09", "cut_prov": "092", "cut_com": "09205", "region": "La Araucanía", "provincia": "Malleco", "comuna": "Lonquimay", "globalid": "244209d2-1017-43cc-9c46-2afe4057fce8", "latitud": -38.45502, "longitud": -71.36911 }, "geometry": { "type": "Point", "coordinates": [ -71.36911, -38.45502 ] } },
{ "type": "Feature", "properties": { "objectid": 20293, "dependencia": "MUNICIPAL", "nombre_establecimiento": "ESCUELA MUNICIPAL FRONTERIZA", "rbd": "5324", "dgv_rbd": null, "estado": null, "direccion": null, "urbano_rural": "URBANO", "matricula": 415, "tipo": null, "cut_reg": "09", "cut_prov": "092", "cut_com": "09205", "region": "La Araucanía", "provincia": "Malleco", "comuna": "Lonquimay", "globalid": "b0be3623-9091-401c-8067-68d92bca33c4", "latitud": -38.45436, "longitud": -71.36929 }, "geometry": { "type": "Point", "coordinates": [ -71.36929, -38.45436 ] } },
{ "type": "Feature", "properties": { "objectid": 20294, "dependencia": "MUNICIPAL", "nombre_establecimiento": "ESC. BASICA CHUMIL", "rbd": "5851", "dgv_rbd": null, "estado": null, "direccion": null, "urbano_rural": "RURAL", "matricula": 6, "tipo": null, "cut_reg": "09", "cut_prov": "091", "cut_com": "09108", "region": "La Araucanía", "provincia": "Cautín", "comuna": "Lautaro", "globalid": "d086ac65-5737-4550-aef3-d808648195cc", "latitud": -38.45406, "longitud": -72.17576 }, "geometry": { "type": "Point", "coordinates": [ -72.17576, -38.45406 ] } },
{ "type": "Feature", "properties": { "objectid": 20295, "dependencia": "PARTICULAR SUBVENCIONADO", "nombre_establecimiento": "ESCUELA PARTICULAR LONQUIMAY", "rbd": "5342", "dgv_rbd": null, "estado": null, "direccion": null, "urbano_rural": "URBANO", "matricula": 272, "tipo": null, "cut_reg": "09", "cut_prov": "092", "cut_com": "09205", "region": "La Araucanía", "provincia": "Malleco", "comuna": "Lonquimay", "globalid": "5330a614-cc8c-4f9c-b437-45f1711fb56c", "latitud": -38.45387, "longitud": -71.37333 }, "geometry": { "type": "Point", "coordinates": [ -71.37333, -38.45387 ] } },
{ "type": "Feature", "properties": { "objectid": 20298, "dependencia": "INTEGRA", "nombre_establecimiento": "JOSÉ MARÍA CARO", "rbd": "I90401", "dgv_rbd": null, "estado": null, "direccion": null, "urbano_rural": "URBANO", "matricula": 55, "tipo": null, "cut_reg": "09", "cut_prov": "092", "cut_com": "09205", "region": "La Araucanía", "provincia": "Malleco", "comuna": "Lonquimay", "globalid": "78732858-0f26-40de-810b-980d4a102408", "latitud": -38.45258, "longitud": -71.369818 }, "geometry": { "type": "Point", "coordinates": [ -71.36982, -38.45258 ] } },
{ "type": "Feature", "properties": { "objectid": 20301, "dependencia": "MUNICIPAL", "nombre_establecimiento": "LICEO BICENTENARIO POLIVALENTE LONQUIMAY", "rbd": "5323", "dgv_rbd": null, "estado": null, "direccion": null, "urbano_rural": "URBANO", "matricula": 572, "tipo": null, "cut_reg": "09", "cut_prov": "092", "cut_com": "09205", "region": "La Araucanía", "provincia": "Malleco", "comuna": "Lonquimay", "globalid": "57c574b4-af30-4356-bc04-62a9d1092488", "latitud": -38.44638, "longitud": -71.37026 }, "geometry": { "type": "Point", "coordinates": [ -71.37026, -38.44638 ] } },
{ "type": "Feature", "properties": { "objectid": 20302, "dependencia": "JUNJI - VTF", "nombre_establecimiento": "ARCOIRIS", "rbd": "J9203003", "dgv_rbd": null, "estado": null, "direccion": null, "urbano_rural": "URBANO", "matricula": 36, "tipo": null, "cut_reg": "09", "cut_prov": "092", "cut_com": "09203", "region": "La Araucanía", "provincia": "Malleco", "comuna": "Curacautín", "globalid": "210588de-3943-44f8-a0c0-cb97581320ff", "latitud": -38.44365002000001, "longitud": -71.88828334 }, "geometry": { "type": "Point", "coordinates": [ -71.88828, -38.44365 ] } },
{ "type": "Feature", "properties": { "objectid": 20303, "dependencia": "MUNICIPAL", "nombre_establecimiento": "ESCUELA PATRICIO CHAVEZ SOTO", "rbd": "5347", "dgv_rbd": null, "estado": null, "direccion": null, "urbano_rural": "URBANO", "matricula": 459, "tipo": null, "cut_reg": "09", "cut_prov": "092", "cut_com": "09203", "region": "La Araucanía", "provincia": "Malleco", "comuna": "Curacautín", "globalid": "6ca1699f-35df-425f-a0fa-2140390eca1f", "latitud": -38.44334, "longitud": -71.88896 }, "geometry": { "type": "Point", "coordinates": [ -71.88896, -38.44334 ] } },
{ "type": "Feature", "properties": { "objectid": 20304, "dependencia": "JUNJI - VTF", "nombre_establecimiento": "VILLA LAS FLORES", "rbd": "J9203006", "dgv_rbd": null, "estado": null, "direccion": null, "urbano_rural": "URBANO", "matricula": 28, "tipo": null, "cut_reg": "09", "cut_prov": "092", "cut_com": "09203", "region": "La Araucanía", "provincia": "Malleco", "comuna": "Curacautín", "globalid": "2c717f94-11f6-4476-93cd-b7c3c6c84b58", "latitud": -38.44314374, "longitud": -71.8713924 }, "geometry": { "type": "Point", "coordinates": [ -71.87139, -38.44314 ] } },
{ "type": "Feature", "properties": { "objectid": 20306, "dependencia": "JUNJI", "nombre_establecimiento": "PINOCHO", "rbd": "J9203008", "dgv_rbd": null, "estado": null, "direccion": null, "urbano_rural": "URBANO", "matricula": 85, "tipo": null, "cut_reg": "09", "cut_prov": "092", "cut_com": "09203", "region": "La Araucanía", "provincia": "Malleco", "comuna": "Curacautín", "globalid": "c2567e4f-da2d-40b7-b836-2ebe1dee196c", "latitud": -38.44121798, "longitud": -71.87704348 }, "geometry": { "type": "Point", "coordinates": [ -71.87704, -38.44122 ] } },
{ "type": "Feature", "properties": { "objectid": 20307, "dependencia": "MUNICIPAL", "nombre_establecimiento": "COLEGIO MANUEL BULNES PRIETO", "rbd": "5351", "dgv_rbd": null, "estado": null, "direccion": null, "urbano_rural": "URBANO", "matricula": 9, "tipo": null, "cut_reg": "09", "cut_prov": "092", "cut_com": "09203", "region": "La Araucanía", "provincia": "Malleco", "comuna": "Curacautín", "globalid": "b39ca3be-4191-4997-b262-4733ed7e5d71", "latitud": -38.44109, "longitud": -71.89696 }, "geometry": { "type": "Point", "coordinates": [ -71.89696, -38.44109 ] } },
{ "type": "Feature", "properties": { "objectid": 20309, "dependencia": "MUNICIPAL", "nombre_establecimiento": "ESCUELA OSVALDO FUENTES BARRERA", "rbd": "5346", "dgv_rbd": null, "estado": null, "direccion": null, "urbano_rural": "URBANO", "matricula": 162, "tipo": null, "cut_reg": "09", "cut_prov": "092", "cut_com": "09203", "region": "La Araucanía", "provincia": "Malleco", "comuna": "Curacautín", "globalid": "676428e6-5246-42a8-b52e-e357a013bbc1", "latitud": -38.44078, "longitud": -71.89671 }, "geometry": { "type": "Point", "coordinates": [ -71.89671, -38.44078 ] } },
{ "type": "Feature", "properties": { "objectid": 20311, "dependencia": "PARTICULAR SUBVENCIONADO", "nombre_establecimiento": "ESCUELA PARTICULAR SAN ANDRES", "rbd": "19950", "dgv_rbd": null, "estado": null, "direccion": null, "urbano_rural": "URBANO", "matricula": 118, "tipo": null, "cut_reg": "09", "cut_prov": "092", "cut_com": "09203", "region": "La Araucanía", "provincia": "Malleco", "comuna": "Curacautín", "globalid": "83995692-771d-4c4a-9a39-13c43e7c384f", "latitud": -38.439, "longitud": -71.89228 }, "geometry": { "type": "Point", "coordinates": [ -71.89228, -38.439 ] } },
{ "type": "Feature", "properties": { "objectid": 20312, "dependencia": "INTEGRA", "nombre_establecimiento": "S.C. LAS RAÍCES", "rbd": "I90505", "dgv_rbd": null, "estado": null, "direccion": null, "urbano_rural": "URBANO", "matricula": 13, "tipo": null, "cut_reg": "09", "cut_prov": "092", "cut_com": "09203", "region": "La Araucanía", "provincia": "Malleco", "comuna": "Curacautín", "globalid": "b9d968d4-f5a3-4ebc-aaa9-4baffab86ae0", "latitud": -38.438943, "longitud": -71.898328 }, "geometry": { "type": "Point", "coordinates": [ -71.89833, -38.43894 ] } },
{ "type": "Feature", "properties": { "objectid": 20313, "dependencia": "CORP. DE ADMINISTRACION DELEGADA", "nombre_establecimiento": "LICEO POLITECNICO C-12 CURACAUTIN", "rbd": "5343", "dgv_rbd": null, "estado": null, "direccion": null, "urbano_rural": "URBANO", "matricula": 381, "tipo": null, "cut_reg": "09", "cut_prov": "092", "cut_com": "09203", "region": "La Araucanía", "provincia": "Malleco", "comuna": "Curacautín", "globalid": "138b47dd-8734-4e61-a541-b98483087abf", "latitud": -38.43893, "longitud": -71.89288 }, "geometry": { "type": "Point", "coordinates": [ -71.89288, -38.43893 ] } },
{ "type": "Feature", "properties": { "objectid": 20314, "dependencia": "INTEGRA", "nombre_establecimiento": "PRINCESITA", "rbd": "I90503", "dgv_rbd": null, "estado": null, "direccion": null, "urbano_rural": "URBANO", "matricula": 46, "tipo": null, "cut_reg": "09", "cut_prov": "092", "cut_com": "09203", "region": "La Araucanía", "provincia": "Malleco", "comuna": "Curacautín", "globalid": "26eb7d44-cb5a-49b3-b3dd-904ef9e7bb20", "latitud": -38.438755, "longitud": -71.89863 }, "geometry": { "type": "Point", "coordinates": [ -71.89863, -38.43876 ] } },
{ "type": "Feature", "properties": { "objectid": 20315, "dependencia": "MUNICIPAL", "nombre_establecimiento": "ESCUELA LUIS CRUZ MARTINEZ", "rbd": "5345", "dgv_rbd": null, "estado": null, "direccion": null, "urbano_rural": "URBANO", "matricula": 178, "tipo": null, "cut_reg": "09", "cut_prov": "092", "cut_com": "09203", "region": "La Araucanía", "provincia": "Malleco", "comuna": "Curacautín", "globalid": "2959c58d-fa6c-4ed8-8a94-58c266214e6a", "latitud": -38.43863, "longitud": -71.87426 }, "geometry": { "type": "Point", "coordinates": [ -71.87426, -38.43863 ] } },
{ "type": "Feature", "properties": { "objectid": 20316, "dependencia": "PARTICULAR SUBVENCIONADO", "nombre_establecimiento": "ESCUELA PARTICULAR SANTA ELENA", "rbd": "5372", "dgv_rbd": null, "estado": null, "direccion": null, "urbano_rural": "URBANO", "matricula": 453, "tipo": null, "cut_reg": "09", "cut_prov": "092", "cut_com": "09203", "region": "La Araucanía", "provincia": "Malleco", "comuna": "Curacautín", "globalid": "ba037696-d920-4055-a779-0c3dbfb926e4", "latitud": -38.43858, "longitud": -71.88888 }, "geometry": { "type": "Point", "coordinates": [ -71.88888, -38.43858 ] } },
{ "type": "Feature", "properties": { "objectid": 20317, "dependencia": "MUNICIPAL", "nombre_establecimiento": "ESCUELA ESPECIAL LOS VOLCANES", "rbd": "5350", "dgv_rbd": null, "estado": null, "direccion": null, "urbano_rural": "URBANO", "matricula": 36, "tipo": null, "cut_reg": "09", "cut_prov": "092", "cut_com": "09203", "region": "La Araucanía", "provincia": "Malleco", "comuna": "Curacautín", "globalid": "979b6890-193e-4149-b57b-49fbbae4cc69", "latitud": -38.43829, "longitud": -71.88554 }, "geometry": { "type": "Point", "coordinates": [ -71.88554, -38.43829 ] } },
{ "type": "Feature", "properties": { "objectid": 20319, "dependencia": "MUNICIPAL", "nombre_establecimiento": "LICEO LAS ARAUCARIAS", "rbd": "5344", "dgv_rbd": null, "estado": null, "direccion": null, "urbano_rural": "URBANO", "matricula": 1092, "tipo": null, "cut_reg": "09", "cut_prov": "092", "cut_com": "09203", "region": "La Araucanía", "provincia": "Malleco", "comuna": "Curacautín", "globalid": "2ae731e2-98db-4a20-8ac1-0f21ce674689", "latitud": -38.43606, "longitud": -71.89408 }, "geometry": { "type": "Point", "coordinates": [ -71.89408, -38.43606 ] } },
{ "type": "Feature", "properties": { "objectid": 20320, "dependencia": "JUNJI - VTF", "nombre_establecimiento": "RAYITO DE LUNA", "rbd": "J9203005", "dgv_rbd": null, "estado": null, "direccion": null, "urbano_rural": "URBANO", "matricula": 22, "tipo": null, "cut_reg": "09", "cut_prov": "092", "cut_com": "09203", "region": "La Araucanía", "provincia": "Malleco", "comuna": "Curacautín", "globalid": "f4955683-5cf1-466f-96e1-bf275ad8c773", "latitud": -38.43578336, "longitud": -71.90161667 }, "geometry": { "type": "Point", "coordinates": [ -71.90162, -38.43578 ] } },
{ "type": "Feature", "properties": { "objectid": 20321, "dependencia": "MUNICIPAL", "nombre_establecimiento": "ESCUELA BASICA REPUBLICA DE MEXICO", "rbd": "5353", "dgv_rbd": null, "estado": null, "direccion": null, "urbano_rural": "RURAL", "matricula": 122, "tipo": null, "cut_reg": "09", "cut_prov": "092", "cut_com": "09203", "region": "La Araucanía", "provincia": "Malleco", "comuna": "Curacautín", "globalid": "f7e95fc2-98d1-454b-ae7b-452756e187b9", "latitud": -38.43447, "longitud": -71.89872 }, "geometry": { "type": "Point", "coordinates": [ -71.89872, -38.43447 ] } },
{ "type": "Feature", "properties": { "objectid": 20322, "dependencia": "INTEGRA", "nombre_establecimiento": "PEHUENCITO", "rbd": "I90501", "dgv_rbd": null, "estado": null, "direccion": null, "urbano_rural": "URBANO", "matricula": 46, "tipo": null, "cut_reg": "09", "cut_prov": "092", "cut_com": "09203", "region": "La Araucanía", "provincia": "Malleco", "comuna": "Curacautín", "globalid": "76fa11ca-9338-4750-b69b-547552afc616", "latitud": -38.434116, "longitud": -71.885089 }, "geometry": { "type": "Point", "coordinates": [ -71.88509, -38.43412 ] } },
{ "type": "Feature", "properties": { "objectid": 20323, "dependencia": "INTEGRA", "nombre_establecimiento": "EL NARANJITO", "rbd": "I90403", "dgv_rbd": null, "estado": null, "direccion": null, "urbano_rural": "RURAL", "matricula": 29, "tipo": null, "cut_reg": "09", "cut_prov": "092", "cut_com": "09205", "region": "La Araucanía", "provincia": "Malleco", "comuna": "Lonquimay", "globalid": "c72ef882-59c2-4db5-946e-b2fdc70a4ea3", "latitud": -38.43396, "longitud": -71.366024 }, "geometry": { "type": "Point", "coordinates": [ -71.36602, -38.43396 ] } },
{ "type": "Feature", "properties": { "objectid": 20324, "dependencia": "INTEGRA", "nombre_establecimiento": "PADRE JUAN", "rbd": "I90507", "dgv_rbd": null, "estado": null, "direccion": null, "urbano_rural": "URBANO", "matricula": 29, "tipo": null, "cut_reg": "09", "cut_prov": "092", "cut_com": "09203", "region": "La Araucanía", "provincia": "Malleco", "comuna": "Curacautín", "globalid": "89a17ee4-ae52-40ad-b5e8-d9895e4f9051", "latitud": -38.433101, "longitud": -71.881303 }, "geometry": { "type": "Point", "coordinates": [ -71.8813, -38.4331 ] } },
{ "type": "Feature", "properties": { "objectid": 20325, "dependencia": "JUNJI", "nombre_establecimiento": "QUILLAY", "rbd": "J9203010", "dgv_rbd": null, "estado": null, "direccion": null, "urbano_rural": "URBANO", "matricula": 41, "tipo": null, "cut_reg": "09", "cut_prov": "092", "cut_com": "09203", "region": "La Araucanía", "provincia": "Malleco", "comuna": "Curacautín", "globalid": "548c6095-8994-401f-8454-0a1bcb4de693", "latitud": -38.432409, "longitud": -71.903622 }, "geometry": { "type": "Point", "coordinates": [ -71.90362, -38.43241 ] } },
{ "type": "Feature", "properties": { "objectid": 20327, "dependencia": "JUNJI - VTF", "nombre_establecimiento": "DE LOS SUENOS", "rbd": "J9203004", "dgv_rbd": null, "estado": null, "direccion": null, "urbano_rural": "URBANO", "matricula": 27, "tipo": null, "cut_reg": "09", "cut_prov": "092", "cut_com": "09203", "region": "La Araucanía", "provincia": "Malleco", "comuna": "Curacautín", "globalid": "fb0ed513-abea-4474-950b-acebdc707054", "latitud": -38.43178336, "longitud": -71.89511667 }, "geometry": { "type": "Point", "coordinates": [ -71.89512, -38.43178 ] } },
{ "type": "Feature", "properties": { "objectid": 20331, "dependencia": "MUNICIPAL", "nombre_establecimiento": "ESCUELA LOS PRADOS", "rbd": "5357", "dgv_rbd": null, "estado": null, "direccion": null, "urbano_rural": "RURAL", "matricula": 3, "tipo": null, "cut_reg": "09", "cut_prov": "092", "cut_com": "09203", "region": "La Araucanía", "provincia": "Malleco", "comuna": "Curacautín", "globalid": "9e184ae3-7050-4ee4-b47a-498c96ccde71", "latitud": -38.42582, "longitud": -71.76067 }, "geometry": { "type": "Point", "coordinates": [ -71.76067, -38.42582 ] } },
{ "type": "Feature", "properties": { "objectid": 20333, "dependencia": "MUNICIPAL", "nombre_establecimiento": "ESCUELA BÁSICA BERNARDO ÑANKO", "rbd": "5622", "dgv_rbd": null, "estado": null, "direccion": null, "urbano_rural": "RURAL", "matricula": 221, "tipo": null, "cut_reg": "09", "cut_prov": "092", "cut_com": "09205", "region": "La Araucanía", "provincia": "Malleco", "comuna": "Lonquimay", "globalid": "65cb4b92-b012-4515-9b23-8456d0a5d455", "latitud": -38.42469, "longitud": -71.3513 }, "geometry": { "type": "Point", "coordinates": [ -71.3513, -38.42469 ] } },
{ "type": "Feature", "properties": { "objectid": 20338, "dependencia": "MUNICIPAL", "nombre_establecimiento": "ESCUELA BASICA DOMINGO CAMARGO", "rbd": "5341", "dgv_rbd": null, "estado": null, "direccion": null, "urbano_rural": "RURAL", "matricula": 74, "tipo": null, "cut_reg": "09", "cut_prov": "092", "cut_com": "09205", "region": "La Araucanía", "provincia": "Malleco", "comuna": "Lonquimay", "globalid": "ef4fbde9-1625-4019-83f7-206c42f798c7", "latitud": -38.42045, "longitud": -71.39032 }, "geometry": { "type": "Point", "coordinates": [ -71.39032, -38.42045 ] } },
{ "type": "Feature", "properties": { "objectid": 20354, "dependencia": "MUNICIPAL", "nombre_establecimiento": "ESCUELA BASICA EL PORVENIR", "rbd": "5415", "dgv_rbd": null, "estado": null, "direccion": null, "urbano_rural": "RURAL", "matricula": 1, "tipo": null, "cut_reg": "09", "cut_prov": "092", "cut_com": "09211", "region": "La Araucanía", "provincia": "Malleco", "comuna": "Victoria", "globalid": "a6b69a37-5a42-48bf-8c21-9af17abc52cd", "latitud": -38.41027, "longitud": -72.08649 }, "geometry": { "type": "Point", "coordinates": [ -72.08649, -38.41027 ] } },
{ "type": "Feature", "properties": { "objectid": 20364, "dependencia": "PARTICULAR SUBVENCIONADO", "nombre_establecimiento": "ESCUELA ESPECIAL DE LENGUAJE CAPULLITO", "rbd": "20240", "dgv_rbd": null, "estado": null, "direccion": null, "urbano_rural": "URBANO", "matricula": 43, "tipo": null, "cut_reg": "09", "cut_prov": "092", "cut_com": "09203", "region": "La Araucanía", "provincia": "Malleco", "comuna": "Curacautín", "globalid": "e4781038-8e0c-44a5-a8a3-61ace8db5c87", "latitud": -38.39854, "longitud": -71.97316 }, "geometry": { "type": "Point", "coordinates": [ -71.97316, -38.39854 ] } },
{ "type": "Feature", "properties": { "objectid": 20367, "dependencia": "INTEGRA", "nombre_establecimiento": "MALLÍN EL TREILE", "rbd": "I90402", "dgv_rbd": null, "estado": null, "direccion": null, "urbano_rural": "RURAL", "matricula": 23, "tipo": null, "cut_reg": "09", "cut_prov": "092", "cut_com": "09205", "region": "La Araucanía", "provincia": "Malleco", "comuna": "Lonquimay", "globalid": "8282cd62-18f8-42e0-a324-486e4a704ac0", "latitud": -38.381857, "longitud": -71.457734 }, "geometry": { "type": "Point", "coordinates": [ -71.45773, -38.38186 ] } },
{ "type": "Feature", "properties": { "objectid": 20368, "dependencia": "MUNICIPAL", "nombre_establecimiento": "ESC. BASICA SAN ARTURO, RADALCO ESTE.", "rbd": "5368", "dgv_rbd": null, "estado": null, "direccion": null, "urbano_rural": "RURAL", "matricula": 1, "tipo": null, "cut_reg": "09", "cut_prov": "092", "cut_com": "09203", "region": "La Araucanía", "provincia": "Malleco", "comuna": "Curacautín", "globalid": "dffd092e-0cdd-48c4-ae72-136041f20043", "latitud": -38.37872, "longitud": -71.93328 }, "geometry": { "type": "Point", "coordinates": [ -71.93328, -38.37872 ] } },
{ "type": "Feature", "properties": { "objectid": 20394, "dependencia": "MUNICIPAL", "nombre_establecimiento": "ESCUELA PEHUENCO", "rbd": "5410", "dgv_rbd": null, "estado": null, "direccion": null, "urbano_rural": "RURAL", "matricula": 8, "tipo": null, "cut_reg": "09", "cut_prov": "092", "cut_com": "09211", "region": "La Araucanía", "provincia": "Malleco", "comuna": "Victoria", "globalid": "17817718-dee8-4548-a258-1ece7aa8143f", "latitud": -38.33523, "longitud": -72.00323 }, "geometry": { "type": "Point", "coordinates": [ -72.00323, -38.33523 ] } },
{ "type": "Feature", "properties": { "objectid": 20595, "dependencia": "PARTICULAR SUBVENCIONADO", "nombre_establecimiento": "COLEGIO BICENTENARIO DE EXCELENCIA ADENAUER", "rbd": "20219", "dgv_rbd": null, "estado": null, "direccion": null, "urbano_rural": "URBANO", "matricula": 479, "tipo": null, "cut_reg": "09", "cut_prov": "091", "cut_com": "09110", "region": "La Araucanía", "provincia": "Cautín", "comuna": "Melipeuco", "globalid": "25bacf30-cef3-49d5-8fdf-1786e3c2d6cd", "latitud": -38.84955, "longitud": -71.68464 }, "geometry": { "type": "Point", "coordinates": [ -71.68464, -38.84955 ] } },
{ "type": "Feature", "properties": { "objectid": 20622, "dependencia": "PARTICULAR SUBVENCIONADO", "nombre_establecimiento": "ESCUELA PARTICULAR ALAMEDA", "rbd": "6006", "dgv_rbd": null, "estado": null, "direccion": null, "urbano_rural": "RURAL", "matricula": 54, "tipo": null, "cut_reg": "09", "cut_prov": "091", "cut_com": "09103", "region": "La Araucanía", "provincia": "Cautín", "comuna": "Cunco", "globalid": "1b3d945e-4f8e-47fc-bcab-c18b84ed7d7d", "latitud": -38.83737, "longitud": -72.22842 }, "geometry": { "type": "Point", "coordinates": [ -72.22842, -38.83737 ] } },
{ "type": "Feature", "properties": { "objectid": 20637, "dependencia": "PARTICULAR SUBVENCIONADO", "nombre_establecimiento": "ESCUELA PARTICULAR CAREN", "rbd": "6021", "dgv_rbd": null, "estado": null, "direccion": null, "urbano_rural": "RURAL", "matricula": 5, "tipo": null, "cut_reg": "09", "cut_prov": "091", "cut_com": "09110", "region": "La Araucanía", "provincia": "Cautín", "comuna": "Melipeuco", "globalid": "cc9f84fc-2215-4e6d-a33a-7ad0d6e2050d", "latitud": -38.82478, "longitud": -71.55357 }, "geometry": { "type": "Point", "coordinates": [ -71.55357, -38.82478 ] } },
{ "type": "Feature", "properties": { "objectid": 20657, "dependencia": "JUNJI - VTF", "nombre_establecimiento": "RAYITO DE ALEGRIA", "rbd": "J9119012", "dgv_rbd": null, "estado": null, "direccion": null, "urbano_rural": "RURAL", "matricula": 4, "tipo": null, "cut_reg": "09", "cut_prov": "091", "cut_com": "09119", "region": "La Araucanía", "provincia": "Cautín", "comuna": "Vilcún", "globalid": "f9eba696-71ee-4b60-89a7-7f03a214b7bd", "latitud": -38.81134113, "longitud": -72.26454095 }, "geometry": { "type": "Point", "coordinates": [ -72.26454, -38.81134 ] } },
{ "type": "Feature", "properties": { "objectid": 20658, "dependencia": "MUNICIPAL", "nombre_establecimiento": "ESC. BASICA CRUZ DEL SUR", "rbd": "19912", "dgv_rbd": null, "estado": null, "direccion": null, "urbano_rural": "RURAL", "matricula": 10, "tipo": null, "cut_reg": "09", "cut_prov": "091", "cut_com": "09119", "region": "La Araucanía", "provincia": "Cautín", "comuna": "Vilcún", "globalid": "3cec43cd-52fc-40a1-9e50-dc4279b9d642", "latitud": -38.81134, "longitud": -72.26454 }, "geometry": { "type": "Point", "coordinates": [ -72.26454, -38.81134 ] } },
{ "type": "Feature", "properties": { "objectid": 20660, "dependencia": "PARTICULAR SUBVENCIONADO", "nombre_establecimiento": "ESCUELA DAHUELHUE", "rbd": "6025", "dgv_rbd": null, "estado": null, "direccion": null, "urbano_rural": "RURAL", "matricula": 6, "tipo": null, "cut_reg": "09", "cut_prov": "091", "cut_com": "09110", "region": "La Araucanía", "provincia": "Cautín", "comuna": "Melipeuco", "globalid": "b4e4ec42-b44e-44fd-9236-46b73e8e5ff2", "latitud": -38.81094, "longitud": -71.62649 }, "geometry": { "type": "Point", "coordinates": [ -71.62649, -38.81094 ] } },
{ "type": "Feature", "properties": { "objectid": 20661, "dependencia": "MUNICIPAL", "nombre_establecimiento": "ESCUELA DE ICALMA", "rbd": "5333", "dgv_rbd": null, "estado": null, "direccion": null, "urbano_rural": "RURAL", "matricula": 153, "tipo": null, "cut_reg": "09", "cut_prov": "092", "cut_com": "09205", "region": "La Araucanía", "provincia": "Malleco", "comuna": "Lonquimay", "globalid": "56291c9a-51b3-4345-9448-78c22869ab56", "latitud": -38.81021, "longitud": -71.27909 }, "geometry": { "type": "Point", "coordinates": [ -71.27909, -38.81021 ] } },
{ "type": "Feature", "properties": { "objectid": 20668, "dependencia": "JUNJI", "nombre_establecimiento": "RUKA WE KIMUN - ICALMA", "rbd": "J9205007", "dgv_rbd": null, "estado": null, "direccion": null, "urbano_rural": "RURAL", "matricula": 11, "tipo": null, "cut_reg": "09", "cut_prov": "092", "cut_com": "09205", "region": "La Araucanía", "provincia": "Malleco", "comuna": "Lonquimay", "globalid": "23158a14-fb29-4b4b-a4a4-eeb17944f782", "latitud": -38.800195, "longitud": -71.267926 }, "geometry": { "type": "Point", "coordinates": [ -71.26793, -38.8002 ] } },
{ "type": "Feature", "properties": { "objectid": 20687, "dependencia": "PARTICULAR SUBVENCIONADO", "nombre_establecimiento": "ESCUELA PARTICULAR SANTA TERESITA", "rbd": "5935", "dgv_rbd": null, "estado": null, "direccion": null, "urbano_rural": "RURAL", "matricula": 101, "tipo": null, "cut_reg": "09", "cut_prov": "091", "cut_com": "09119", "region": "La Araucanía", "provincia": "Cautín", "comuna": "Vilcún", "globalid": "ea195c33-ca3e-4d9f-815d-1d662856fa5a", "latitud": -38.7804, "longitud": -72.26076 }, "geometry": { "type": "Point", "coordinates": [ -72.26076, -38.7804 ] } },
{ "type": "Feature", "properties": { "objectid": 20690, "dependencia": "PARTICULAR SUBVENCIONADO", "nombre_establecimiento": "ESCUELA PARTICULAR LOS ROBLES", "rbd": "5954", "dgv_rbd": null, "estado": null, "direccion": null, "urbano_rural": "RURAL", "matricula": 58, "tipo": null, "cut_reg": "09", "cut_prov": "091", "cut_com": "09119", "region": "La Araucanía", "provincia": "Cautín", "comuna": "Vilcún", "globalid": "9970f8b8-564e-491a-8fd6-ea09360de8a9", "latitud": -38.77897, "longitud": -72.23847 }, "geometry": { "type": "Point", "coordinates": [ -72.23847, -38.77897 ] } },
{ "type": "Feature", "properties": { "objectid": 20693, "dependencia": "JUNJI", "nombre_establecimiento": "WE NEWEN", "rbd": "J9205004", "dgv_rbd": null, "estado": null, "direccion": null, "urbano_rural": "RURAL", "matricula": 13, "tipo": null, "cut_reg": "09", "cut_prov": "092", "cut_com": "09205", "region": "La Araucanía", "provincia": "Malleco", "comuna": "Lonquimay", "globalid": "cf675438-f7ae-4038-b5bc-74d930324c8f", "latitud": -38.776617, "longitud": -71.227583 }, "geometry": { "type": "Point", "coordinates": [ -71.22758, -38.77662 ] } },
{ "type": "Feature", "properties": { "objectid": 20783, "dependencia": "PARTICULAR SUBVENCIONADO", "nombre_establecimiento": "ESCUELA PARTICULAR CODINHUE", "rbd": "5927", "dgv_rbd": null, "estado": null, "direccion": null, "urbano_rural": "RURAL", "matricula": 5, "tipo": null, "cut_reg": "09", "cut_prov": "091", "cut_com": "09119", "region": "La Araucanía", "provincia": "Cautín", "comuna": "Vilcún", "globalid": "75b8f6b4-e396-4405-8665-4b6a3d25fb2d", "latitud": -38.75616, "longitud": -72.22707 }, "geometry": { "type": "Point", "coordinates": [ -72.22707, -38.75616 ] } },
{ "type": "Feature", "properties": { "objectid": 20789, "dependencia": "JUNJI - VTF", "nombre_establecimiento": "LA ESPERANZA", "rbd": "J9119006", "dgv_rbd": null, "estado": null, "direccion": null, "urbano_rural": "URBANO", "matricula": 9, "tipo": null, "cut_reg": "09", "cut_prov": "091", "cut_com": "09119", "region": "La Araucanía", "provincia": "Cautín", "comuna": "Vilcún", "globalid": "ab3c1d90-adcc-453a-973d-5bc84be39564", "latitud": -38.7550119, "longitud": -72.28333293 }, "geometry": { "type": "Point", "coordinates": [ -72.28333, -38.75501 ] } },
{ "type": "Feature", "properties": { "objectid": 20902, "dependencia": "MUNICIPAL", "nombre_establecimiento": "ESC. BASICA CANTINO", "rbd": "5911", "dgv_rbd": null, "estado": null, "direccion": null, "urbano_rural": "RURAL", "matricula": 33, "tipo": null, "cut_reg": "09", "cut_prov": "091", "cut_com": "09119", "region": "La Araucanía", "provincia": "Cautín", "comuna": "Vilcún", "globalid": "214d173f-bc63-49d8-a37b-7e0f70c0ec47", "latitud": -38.73569, "longitud": -72.29458 }, "geometry": { "type": "Point", "coordinates": [ -72.29458, -38.73569 ] } },
{ "type": "Feature", "properties": { "objectid": 20930, "dependencia": "JUNJI", "nombre_establecimiento": "PICHI TROQUIN PEWEN - MARIMENUCO ALTO", "rbd": "J9205006", "dgv_rbd": null, "estado": null, "direccion": null, "urbano_rural": "RURAL", "matricula": 9, "tipo": null, "cut_reg": "09", "cut_prov": "092", "cut_com": "09205", "region": "La Araucanía", "provincia": "Malleco", "comuna": "Lonquimay", "globalid": "31c327db-6b6d-444c-ad8f-f43fd2557418", "latitud": -38.733452, "longitud": -71.16606 }, "geometry": { "type": "Point", "coordinates": [ -71.16606, -38.73345 ] } },
{ "type": "Feature", "properties": { "objectid": 21015, "dependencia": "PARTICULAR SUBVENCIONADO", "nombre_establecimiento": "ESCUELA PARTICULAR CRUZ DEL SUR", "rbd": "5947", "dgv_rbd": null, "estado": null, "direccion": null, "urbano_rural": "RURAL", "matricula": 32, "tipo": null, "cut_reg": "09", "cut_prov": "091", "cut_com": "09119", "region": "La Araucanía", "provincia": "Cautín", "comuna": "Vilcún", "globalid": "ed25e75d-2581-43cd-b4bf-09b9fea98017", "latitud": -38.71644, "longitud": -72.26908 }, "geometry": { "type": "Point", "coordinates": [ -72.26908, -38.71644 ] } },
{ "type": "Feature", "properties": { "objectid": 21061, "dependencia": "PARTICULAR SUBVENCIONADO", "nombre_establecimiento": "ESCUELA PARTICULAR GALLETUE", "rbd": "19999", "dgv_rbd": null, "estado": null, "direccion": null, "urbano_rural": "RURAL", "matricula": 11, "tipo": null, "cut_reg": "09", "cut_prov": "092", "cut_com": "09205", "region": "La Araucanía", "provincia": "Malleco", "comuna": "Lonquimay", "globalid": "73bd645f-74fb-45ad-9ae9-df8f99b20f8e", "latitud": -38.70126, "longitud": -71.29962 }, "geometry": { "type": "Point", "coordinates": [ -71.29962, -38.70126 ] } },
{ "type": "Feature", "properties": { "objectid": 21079, "dependencia": "PARTICULAR SUBVENCIONADO", "nombre_establecimiento": "ESCUELA PADRE OSVALDO VEGA", "rbd": "5919", "dgv_rbd": null, "estado": null, "direccion": null, "urbano_rural": "URBANO", "matricula": 175, "tipo": null, "cut_reg": "09", "cut_prov": "091", "cut_com": "09119", "region": "La Araucanía", "provincia": "Cautín", "comuna": "Vilcún", "globalid": "f475b38e-83b2-4ce8-b383-291e7356972b", "latitud": -38.68819, "longitud": -72.01069 }, "geometry": { "type": "Point", "coordinates": [ -72.01069, -38.68819 ] } },
{ "type": "Feature", "properties": { "objectid": 21080, "dependencia": "INTEGRA", "nombre_establecimiento": "PEQUEÑOS ARTISTAS", "rbd": "I91501", "dgv_rbd": null, "estado": null, "direccion": null, "urbano_rural": "URBANO", "matricula": 36, "tipo": null, "cut_reg": "09", "cut_prov": "091", "cut_com": "09119", "region": "La Araucanía", "provincia": "Cautín", "comuna": "Vilcún", "globalid": "e429eeaa-ca26-4efa-bf66-c59adcaaf905", "latitud": -38.687059, "longitud": -72.004852 }, "geometry": { "type": "Point", "coordinates": [ -72.00485, -38.68706 ] } },
{ "type": "Feature", "properties": { "objectid": 21086, "dependencia": "MUNICIPAL", "nombre_establecimiento": "ESCUELA JAPON", "rbd": "5896", "dgv_rbd": null, "estado": null, "direccion": null, "urbano_rural": "URBANO", "matricula": 150, "tipo": null, "cut_reg": "09", "cut_prov": "091", "cut_com": "09119", "region": "La Araucanía", "provincia": "Cautín", "comuna": "Vilcún", "globalid": "3697b986-1490-4771-a5ba-d838c6754d5c", "latitud": -38.68422, "longitud": -72.00839 }, "geometry": { "type": "Point", "coordinates": [ -72.00839, -38.68422 ] } },
{ "type": "Feature", "properties": { "objectid": 21087, "dependencia": "JUNJI - VTF", "nombre_establecimiento": "TERNURAS DEL LLAIMA", "rbd": "J9119015", "dgv_rbd": null, "estado": null, "direccion": null, "urbano_rural": "URBANO", "matricula": 42, "tipo": null, "cut_reg": "09", "cut_prov": "091", "cut_com": "09119", "region": "La Araucanía", "provincia": "Cautín", "comuna": "Vilcún", "globalid": "9425134d-1186-415b-bd11-282afade2145", "latitud": -38.68342016, "longitud": -72.004521739999987 }, "geometry": { "type": "Point", "coordinates": [ -72.00452, -38.68342 ] } }
]
}
