{
"type": "FeatureCollection",
"name": "LON",
"crs": { "type": "name", "properties": { "name": "urn:ogc:def:crs:OGC:1.3:CRS84" } },
"xy_coordinate_resolution": 1e-05,
"features": [
{ "type": "Feature", "properties": { "objectid": 20082, "dependencia": "JUNJI", "nombre_establecimiento": "KIMCHE-EL BARCO", "rbd": "J8314040", "dgv_rbd": null, "estado": null, "direccion": null, "urbano_rural": "RURAL", "matricula": 9, "tipo": null, "cut_reg": "08", "cut_prov": "083", "cut_com": "08314", "region": "Biobío", "provincia": "Biobío", "comuna": "Alto Biobío", "globalid": "13ce8120-235e-48a5-8516-db7f8f6a7611", "latitud": -38.01007, "longitud": -71.306723 }, "geometry": { "type": "Point", "coordinates": [ -71.30672, -38.01007 ] } },
{ "type": "Feature", "properties": { "objectid": 20104, "dependencia": "PARTICULAR SUBVENCIONADO", "nombre_establecimiento": "ESCUELA PARTICULAR QUINQUEN", "rbd": "19958", "dgv_rbd": null, "estado": null, "direccion": null, "urbano_rural": "RURAL", "matricula": 13, "tipo": null, "cut_reg": "09", "cut_prov": "092", "cut_com": "09205", "region": "La Araucanía", "provincia": "Malleco", "comuna": "Lonquimay", "globalid": "19c2a2d9-2733-464d-9795-6582b67ef4af", "latitud": -38.65848, "longitud": -71.38602 }, "geometry": { "type": "Point", "coordinates": [ -71.38602, -38.65848 ] } },
{ "type": "Feature", "properties": { "objectid": 20135, "dependencia": "MUNICIPAL", "nombre_establecimiento": "ESCUELA BASICA PEHUENCO", "rbd": "5336", "dgv_rbd": null, "estado": null, "direccion": null, "urbano_rural": "RURAL", "matricula": 9, "tipo": null, "cut_reg": "09", "cut_prov": "092", "cut_com": "09205", "region": "La Araucanía", "provincia": "Malleco", "comuna": "Lonquimay", "globalid": "88964f93-da1e-4f73-9b32-0555cb324720", "latitud": -38.60945, "longitud": -71.09678 }, "geometry": { "type": "Point", "coordinates": [ -71.09678, -38.60945 ] } },
{ "type": "Feature", "properties": { "objectid": 20166, "dependencia": "MUNICIPAL", "nombre_establecimiento": "ESC. BASICA VISTA HERMOSA", "rbd": "5850", "dgv_rbd": null, "estado": null, "direccion": null, "urbano_rural": "RURAL", "matricula": 4, "tipo": null, "cut_reg": "09", "cut_prov": "091", "cut_com": "09108", "region": "La Araucanía", "provincia": "Cautín", "comuna": "Lautaro", "globalid": "5a9ec94c-0c3e-475e-9644-5d6923cb07e2", "latitud": -38.5853, "longitud": -72.0421 }, "geometry": { "type": "Point", "coordinates": [ -72.0421, -38.5853 ] } },
{ "type": "Feature", "properties": { "objectid": 20185, "dependencia": "JUNJI", "nombre_establecimiento": "LAS ABEJITAS DEL ESCUDO", "rbd": "J9108020", "dgv_rbd": null, "estado": null, "direccion": null, "urbano_rural": "RURAL", "matricula": 11, "tipo": null, "cut_reg": "09", "cut_prov": "091", "cut_com": "09108", "region": "La Araucanía", "provincia": "Cautín", "comuna": "Lautaro", "globalid": "9e9483cc-186b-4abb-b958-d61dd6c599f2", "latitud": -38.564553, "longitud": -72.086694 }, "geometry": { "type": "Point", "coordinates": [ -72.08669, -38.56455 ] } },
{ "type": "Feature", "properties": { "objectid": 20187, "dependencia": "MUNICIPAL", "nombre_establecimiento": "ESC. BASICA EL ESCUDO", "rbd": "5852", "dgv_rbd": null, "estado": null, "direccion": null, "urbano_rural": "RURAL", "matricula": 37, "tipo": null, "cut_reg": "09", "cut_prov": "091", "cut_com": "09108", "region": "La Araucanía", "provincia": "Cautín", "comuna": "Lautaro", "globalid": "efc05fb1-f185-4473-a1a3-6e5446267dd8", "latitud": -38.56437, "longitud": -72.08682 }, "geometry": { "type": "Point", "coordinates": [ -72.08682, -38.56437 ] } },
{ "type": "Feature", "properties": { "objectid": 20190, "dependencia": "MUNICIPAL", "nombre_establecimiento": "ESCUELA DE SIERRA NEVADA", "rbd": "5337", "dgv_rbd": null, "estado": null, "direccion": null, "urbano_rural": "RURAL", "matricula": 3, "tipo": null, "cut_reg": "09", "cut_prov": "092", "cut_com": "09205", "region": "La Araucanía", "provincia": "Malleco", "comuna": "Lonquimay", "globalid": "3c05999e-c5e2-4b07-b6ef-a55c51c36227", "latitud": -38.55944, "longitud": -71.4733 }, "geometry": { "type": "Point", "coordinates": [ -71.4733, -38.55944 ] } },
{ "type": "Feature", "properties": { "objectid": 20196, "dependencia": "MUNICIPAL", "nombre_establecimiento": "ESC. BASICA LEONTINA VASQUEZ RIVERA", "rbd": "5340", "dgv_rbd": null, "estado": null, "direccion": null, "urbano_rural": "RURAL", "matricula": 2, "tipo": null, "cut_reg": "09", "cut_prov": "092", "cut_com": "09205", "region": "La Araucanía", "provincia": "Malleco", "comuna": "Lonquimay", "globalid": "0e734f15-76b3-498c-8184-6ca7319a28c3", "latitud": -38.5512, "longitud": -71.15871 }, "geometry": { "type": "Point", "coordinates": [ -71.15871, -38.5512 ] } },
{ "type": "Feature", "properties": { "objectid": 20202, "dependencia": "MUNICIPAL", "nombre_establecimiento": "ESC. BASICA LAS MINAS", "rbd": "5838", "dgv_rbd": null, "estado": null, "direccion": null, "urbano_rural": "RURAL", "matricula": 10, "tipo": null, "cut_reg": "09", "cut_prov": "091", "cut_com": "09108", "region": "La Araucanía", "provincia": "Cautín", "comuna": "Lautaro", "globalid": "ca67c8c6-a158-4f6f-86a2-28a939f5c771", "latitud": -38.54412, "longitud": -72.05239 }, "geometry": { "type": "Point", "coordinates": [ -72.05239, -38.54412 ] } },
{ "type": "Feature", "properties": { "objectid": 20212, "dependencia": "INTEGRA", "nombre_establecimiento": "LOS PIÑONCITOS", "rbd": "I90404", "dgv_rbd": null, "estado": null, "direccion": null, "urbano_rural": "RURAL", "matricula": 15, "tipo": null, "cut_reg": "09", "cut_prov": "092", "cut_com": "09205", "region": "La Araucanía", "provincia": "Malleco", "comuna": "Lonquimay", "globalid": "b4dec0ab-9eb8-4684-8535-e34b1fe5f604", "latitud": -38.535916, "longitud": -71.256365 }, "geometry": { "type": "Point", "coordinates": [ -71.25637, -38.53592 ] } },
{ "type": "Feature", "properties": { "objectid": 20219, "dependencia": "MUNICIPAL", "nombre_establecimiento": "ESCUELA BASICA MALALMAHUIDA", "rbd": "5326", "dgv_rbd": null, "estado": null, "direccion": null, "urbano_rural": "RURAL", "matricula": 126, "tipo": null, "cut_reg": "09", "cut_prov": "092", "cut_com": "09205", "region": "La Araucanía", "provincia": "Malleco", "comuna": "Lonquimay", "globalid": "ec253cad-163a-44f9-ad15-a6aeaccd17cb", "latitud": -38.5318, "longitud": -71.25323 }, "geometry": { "type": "Point", "coordinates": [ -71.25323, -38.5318 ] } },
{ "type": "Feature", "properties": { "objectid": 20238, "dependencia": "MUNICIPAL", "nombre_establecimiento": "ESCUELA RIO BLANCO", "rbd": "5362", "dgv_rbd": null, "estado": null, "direccion": null, "urbano_rural": "RURAL", "matricula": 2, "tipo": null, "cut_reg": "09", "cut_prov": "092", "cut_com": "09203", "region": "La Araucanía", "provincia": "Malleco", "comuna": "Curacautín", "globalid": "334b5e43-72d4-422a-8994-d125420e10ea", "latitud": -38.51335, "longitud": -71.68535 }, "geometry": { "type": "Point", "coordinates": [ -71.68535, -38.51335 ] } },
{ "type": "Feature", "properties": { "objectid": 20240, "dependencia": "MUNICIPAL", "nombre_establecimiento": "ESCUELA JOSE CHANIN SILHY", "rbd": "5365", "dgv_rbd": null, "estado": null, "direccion": null, "urbano_rural": "RURAL", "matricula": 4, "tipo": null, "cut_reg": "09", "cut_prov": "092", "cut_com": "09203", "region": "La Araucanía", "provincia": "Malleco", "comuna": "Curacautín", "globalid": "6f87c930-d729-4d55-9b95-687c57f61156", "latitud": -38.50765, "longitud": -71.82533 }, "geometry": { "type": "Point", "coordinates": [ -71.82533, -38.50765 ] } },
{ "type": "Feature", "properties": { "objectid": 20260, "dependencia": "MUNICIPAL", "nombre_establecimiento": "ESCUELA MANCHURIA", "rbd": "5364", "dgv_rbd": null, "estado": null, "direccion": null, "urbano_rural": "RURAL", "matricula": 2, "tipo": null, "cut_reg": "09", "cut_prov": "092", "cut_com": "09203", "region": "La Araucanía", "provincia": "Malleco", "comuna": "Curacautín", "globalid": "e56d251d-15cb-428d-9d32-8dcb9610ea0c", "latitud": -38.4862, "longitud": -71.72671 }, "geometry": { "type": "Point", "coordinates": [ -71.72671, -38.4862 ] } },
{ "type": "Feature", "properties": { "objectid": 20264, "dependencia": "MUNICIPAL", "nombre_establecimiento": "ESCUELA BASICA LEFUCO", "rbd": "5360", "dgv_rbd": null, "estado": null, "direccion": null, "urbano_rural": "RURAL", "matricula": 18, "tipo": null, "cut_reg": "09", "cut_prov": "092", "cut_com": "09203", "region": "La Araucanía", "provincia": "Malleco", "comuna": "Curacautín", "globalid": "0d566cbe-ced7-4045-ba93-f72f2d634224", "latitud": -38.48224, "longitud": -71.77764 }, "geometry": { "type": "Point", "coordinates": [ -71.77764, -38.48224 ] } },
{ "type": "Feature", "properties": { "objectid": 20265, "dependencia": "MUNICIPAL", "nombre_establecimiento": "ESCUELA DE SANTA JULIA", "rbd": "5371", "dgv_rbd": null, "estado": null, "direccion": null, "urbano_rural": "RURAL", "matricula": 13, "tipo": null, "cut_reg": "09", "cut_prov": "092", "cut_com": "09203", "region": "La Araucanía", "provincia": "Malleco", "comuna": "Curacautín", "globalid": "38d2309d-b891-4074-937e-d8ec1b970109", "latitud": -38.48209, "longitud": -71.98515 }, "geometry": { "type": "Point", "coordinates": [ -71.98515, -38.48209 ] } },
{ "type": "Feature", "properties": { "objectid": 20271, "dependencia": "INTEGRA", "nombre_establecimiento": "TÍA LAURA", "rbd": "I90502", "dgv_rbd": null, "estado": null, "direccion": null, "urbano_rural": "URBANO", "matricula": 19, "tipo": null, "cut_reg": "09", "cut_prov": "092", "cut_com": "09203", "region": "La Araucanía", "provincia": "Malleco", "comuna": "Curacautín", "globalid": "ded82fe4-e259-49b6-9ec0-6bbe1719687d", "latitud": -38.474933, "longitud": -71.582489 }, "geometry": { "type": "Point", "coordinates": [ -71.58249, -38.47493 ] } },
{ "type": "Feature", "properties": { "objectid": 20274, "dependencia": "MUNICIPAL", "nombre_establecimiento": "RAMON EDUARDO RAMIREZ HENRIQUEZ", "rbd": "5348", "dgv_rbd": null, "estado": null, "direccion": null, "urbano_rural": "RURAL", "matricula": 138, "tipo": null, "cut_reg": "09", "cut_prov": "092", "cut_com": "09203", "region": "La Araucanía", "provincia": "Malleco", "comuna": "Curacautín", "globalid": "21678c3b-9bfb-4dc9-b889-15803ac3784a", "latitud": -38.47087, "longitud": -71.57637 }, "geometry": { "type": "Point", "coordinates": [ -71.57637, -38.47087 ] } },
{ "type": "Feature", "properties": { "objectid": 20275, "dependencia": "JUNJI - VTF", "nombre_establecimiento": "GOTITA DE AGUA (SANTA EMA)", "rbd": "J9203007", "dgv_rbd": null, "estado": null, "direccion": null, "urbano_rural": "RURAL", "matricula": 13, "tipo": null, "cut_reg": "09", "cut_prov": "092", "cut_com": "09203", "region": "La Araucanía", "provincia": "Malleco", "comuna": "Curacautín", "globalid": "7653bd9e-ace5-45a3-9a49-e0fb65e648a7", "latitud": -38.47073337, "longitud": -72.03301667 }, "geometry": { "type": "Point", "coordinates": [ -72.03302, -38.47073 ] } },
{ "type": "Feature", "properties": { "objectid": 20276, "dependencia": "PARTICULAR SUBVENCIONADO", "nombre_establecimiento": "ESCUELA PARTICULAR SANTA EMMA", "rbd": "5373", "dgv_rbd": null, "estado": null, "direccion": null, "urbano_rural": "RURAL", "matricula": 88, "tipo": null, "cut_reg": "09", "cut_prov": "092", "cut_com": "09203", "region": "La Araucanía", "provincia": "Malleco", "comuna": "Curacautín", "globalid": "9de31d9a-81c7-4bfd-ab9e-379e52c0064b", "latitud": -38.4702, "longitud": -72.03207 }, "geometry": { "type": "Point", "coordinates": [ -72.03207, -38.4702 ] } },
{ "type": "Feature", "properties": { "objectid": 20278, "dependencia": "MUNICIPAL", "nombre_establecimiento": "ESCUELA BASICA MITRAUQUEN", "rbd": "5328", "dgv_rbd": null, "estado": null, "direccion": null, "urbano_rural": "RURAL", "matricula": 4, "tipo": null, "cut_reg": "09", "cut_prov": "092", "cut_com": "09205", "region": "La Araucanía", "provincia": "Malleco", "comuna": "Lonquimay", "globalid": "260e2d2b-4bd7-4f2b-975f-5dfb4e9540f9", "latitud": -38.4685, "longitud": -71.17804 }, "geometry": { "type": "Point", "coordinates": [ -71.17804, -38.4685 ] } },
{ "type": "Feature", "properties": { "objectid": 20283, "dependencia": "MUNICIPAL", "nombre_establecimiento": "ESCUELA BASICA ALEJO TASCON", "rbd": "5363", "dgv_rbd": null, "estado": null, "direccion": null, "urbano_rural": "RURAL", "matricula": 90, "tipo": null, "cut_reg": "09", "cut_prov": "092", "cut_com": "09203", "region": "La Araucanía", "provincia": "Malleco", "comuna": "Curacautín", "globalid": "143375f8-a5a1-4c5b-904e-f11daec69a2a", "latitud": -38.46612, "longitud": -71.69813 }, "geometry": { "type": "Point", "coordinates": [ -71.69813, -38.46612 ] } },
{ "type": "Feature", "properties": { "objectid": 20285, "dependencia": "MUNICIPAL", "nombre_establecimiento": "ESCUELA BASICA CRUZACO", "rbd": "5329", "dgv_rbd": null, "estado": null, "direccion": null, "urbano_rural": "RURAL", "matricula": 42, "tipo": null, "cut_reg": "09", "cut_prov": "092", "cut_com": "09205", "region": "La Araucanía", "provincia": "Malleco", "comuna": "Lonquimay", "globalid": "90add6b3-da27-40d9-b1b3-629f1e26a043", "latitud": -38.46357, "longitud": -71.13399 }, "geometry": { "type": "Point", "coordinates": [ -71.13399, -38.46357 ] } },
{ "type": "Feature", "properties": { "objectid": 20286, "dependencia": "MUNICIPAL", "nombre_establecimiento": "ESC. BASICA JUSTO SCHWEITZER M.", "rbd": "5338", "dgv_rbd": null, "estado": null, "direccion": null, "urbano_rural": "RURAL", "matricula": 13, "tipo": null, "cut_reg": "09", "cut_prov": "092", "cut_com": "09205", "region": "La Araucanía", "provincia": "Malleco", "comuna": "Lonquimay", "globalid": "b6df01b2-8af0-46d3-a71a-3575d36b66dd", "latitud": -38.46324, "longitud": -71.2339 }, "geometry": { "type": "Point", "coordinates": [ -71.2339, -38.46324 ] } },
{ "type": "Feature", "properties": { "objectid": 20288, "dependencia": "JUNJI - VTF", "nombre_establecimiento": "LELFUN PIREN", "rbd": "J9205001", "dgv_rbd": null, "estado": null, "direccion": null, "urbano_rural": "URBANO", "matricula": 39, "tipo": null, "cut_reg": "09", "cut_prov": "092", "cut_com": "09205", "region": "La Araucanía", "provincia": "Malleco", "comuna": "Lonquimay", "globalid": "7017110e-6899-4ac8-933d-26368d5bc158", "latitud": -38.45965001, "longitud": -71.369333329999989 }, "geometry": { "type": "Point", "coordinates": [ -71.36933, -38.45965 ] } },
{ "type": "Feature", "properties": { "objectid": 20289, "dependencia": "JUNJI", "nombre_establecimiento": "MUNDO DE COLORES", "rbd": "J9205016", "dgv_rbd": null, "estado": null, "direccion": null, "urbano_rural": "URBANO", "matricula": 63, "tipo": null, "cut_reg": "09", "cut_prov": "092", "cut_com": "09205", "region": "La Araucanía", "provincia": "Malleco", "comuna": "Lonquimay", "globalid": "f7e7dc8a-f8d5-40cd-a673-042fcc2af37d", "latitud": -38.459307, "longitud": -71.364643 }, "geometry": { "type": "Point", "coordinates": [ -71.36464, -38.45931 ] } },
{ "type": "Feature", "properties": { "objectid": 20290, "dependencia": "PARTICULAR SUBVENCIONADO", "nombre_establecimiento": "ESCUELA HOSPITALARIA DE LONQUIMAY", "rbd": "42256", "dgv_rbd": null, "estado": null, "direccion": null, "urbano_rural": "URBANO", "matricula": 16, "tipo": null, "cut_reg": "09", "cut_prov": "092", "cut_com": "09205", "region": "La Araucanía", "provincia": "Malleco", "comuna": "Lonquimay", "globalid": "244209d2-1017-43cc-9c46-2afe4057fce8", "latitud": -38.45502, "longitud": -71.36911 }, "geometry": { "type": "Point", "coordinates": [ -71.36911, -38.45502 ] } },
{ "type": "Feature", "properties": { "objectid": 20293, "dependencia": "MUNICIPAL", "nombre_establecimiento": "ESCUELA MUNICIPAL FRONTERIZA", "rbd": "5324", "dgv_rbd": null, "estado": null, "direccion": null, "urbano_rural": "URBANO", "matricula": 415, "tipo": null, "cut_reg": "09", "cut_prov": "092", "cut_com": "09205", "region": "La Araucanía", "provincia": "Malleco", "comuna": "Lonquimay", "globalid": "b0be3623-9091-401c-8067-68d92bca33c4", "latitud": -38.45436, "longitud": -71.36929 }, "geometry": { "type": "Point", "coordinates": [ -71.36929, -38.45436 ] } },
{ "type": "Feature", "properties": { "objectid": 20295, "dependencia": "PARTICULAR SUBVENCIONADO", "nombre_establecimiento": "ESCUELA PARTICULAR LONQUIMAY", "rbd": "5342", "dgv_rbd": null, "estado": null, "direccion": null, "urbano_rural": "URBANO", "matricula": 272, "tipo": null, "cut_reg": "09", "cut_prov": "092", "cut_com": "09205", "region": "La Araucanía", "provincia": "Malleco", "comuna": "Lonquimay", "globalid": "5330a614-cc8c-4f9c-b437-45f1711fb56c", "latitud": -38.45387, "longitud": -71.37333 }, "geometry": { "type": "Point", "coordinates": [ -71.37333, -38.45387 ] } },
{ "type": "Feature", "properties": { "objectid": 20298, "dependencia": "INTEGRA", "nombre_establecimiento": "JOSÉ MARÍA CARO", "rbd": "I90401", "dgv_rbd": null, "estado": null, "direccion": null, "urbano_rural": "URBANO", "matricula": 55, "tipo": null, "cut_reg": "09", "cut_prov": "092", "cut_com": "09205", "region": "La Araucanía", "provincia": "Malleco", "comuna": "Lonquimay", "globalid": "78732858-0f26-40de-810b-980d4a102408", "latitud": -38.45258, "longitud": -71.369818 }, "geometry": { "type": "Point", "coordinates": [ -71.36982, -38.45258 ] } },
{ "type": "Feature", "properties": { "objectid": 20301, "dependencia": "MUNICIPAL", "nombre_establecimiento": "LICEO BICENTENARIO POLIVALENTE LONQUIMAY", "rbd": "5323", "dgv_rbd": null, "estado": null, "direccion": null, "urbano_rural": "URBANO", "matricula": 572, "tipo": null, "cut_reg": "09", "cut_prov": "092", "cut_com": "09205", "region": "La Araucanía", "provincia": "Malleco", "comuna": "Lonquimay", "globalid": "57c574b4-af30-4356-bc04-62a9d1092488", "latitud": -38.44638, "longitud": -71.37026 }, "geometry": { "type": "Point", "coordinates": [ -71.37026, -38.44638 ] } },
{ "type": "Feature", "properties": { "objectid": 20302, "dependencia": "JUNJI - VTF", "nombre_establecimiento": "ARCOIRIS", "rbd": "J9203003", "dgv_rbd": null, "estado": null, "direccion": null, "urbano_rural": "URBANO", "matricula": 36, "tipo": null, "cut_reg": "09", "cut_prov": "092", "cut_com": "09203", "region": "La Araucanía", "provincia": "Malleco", "comuna": "Curacautín", "globalid": "210588de-3943-44f8-a0c0-cb97581320ff", "latitud": -38.44365002000001, "longitud": -71.88828334 }, "geometry": { "type": "Point", "coordinates": [ -71.88828, -38.44365 ] } },
{ "type": "Feature", "properties": { "objectid": 20303, "dependencia": "MUNICIPAL", "nombre_establecimiento": "ESCUELA PATRICIO CHAVEZ SOTO", "rbd": "5347", "dgv_rbd": null, "estado": null, "direccion": null, "urbano_rural": "URBANO", "matricula": 459, "tipo": null, "cut_reg": "09", "cut_prov": "092", "cut_com": "09203", "region": "La Araucanía", "provincia": "Malleco", "comuna": "Curacautín", "globalid": "6ca1699f-35df-425f-a0fa-2140390eca1f", "latitud": -38.44334, "longitud": -71.88896 }, "geometry": { "type": "Point", "coordinates": [ -71.88896, -38.44334 ] } },
{ "type": "Feature", "properties": { "objectid": 20304, "dependencia": "JUNJI - VTF", "nombre_establecimiento": "VILLA LAS FLORES", "rbd": "J9203006", "dgv_rbd": null, "estado": null, "direccion": null, "urbano_rural": "URBANO", "matricula": 28, "tipo": null, "cut_reg": "09", "cut_prov": "092", "cut_com": "09203", "region": "La Araucanía", "provincia": "Malleco", "comuna": "Curacautín", "globalid": "2c717f94-11f6-4476-93cd-b7c3c6c84b58", "latitud": -38.44314374, "longitud": -71.8713924 }, "geometry": { "type": "Point", "coordinates": [ -71.87139, -38.44314 ] } },
{ "type": "Feature", "properties": { "objectid": 20306, "dependencia": "JUNJI", "nombre_establecimiento": "PINOCHO", "rbd": "J9203008", "dgv_rbd": null, "estado": null, "direccion": null, "urbano_rural": "URBANO", "matricula": 85, "tipo": null, "cut_reg": "09", "cut_prov": "092", "cut_com": "09203", "region": "La Araucanía", "provincia": "Malleco", "comuna": "Curacautín", "globalid": "c2567e4f-da2d-40b7-b836-2ebe1dee196c", "latitud": -38.44121798, "longitud": -71.87704348 }, "geometry": { "type": "Point", "coordinates": [ -71.87704, -38.44122 ] } },
{ "type": "Feature", "properties": { "objectid": 20307, "dependencia": "MUNICIPAL", "nombre_establecimiento": "COLEGIO MANUEL BULNES PRIETO", "rbd": "5351", "dgv_rbd": null, "estado": null, "direccion": null, "urbano_rural": "URBANO", "matricula": 9, "tipo": null, "cut_reg": "09", "cut_prov": "092", "cut_com": "09203", "region": "La Araucanía", "provincia": "Malleco", "comuna": "Curacautín", "globalid": "b39ca3be-4191-4997-b262-4733ed7e5d71", "latitud": -38.44109, "longitud": -71.89696 }, "geometry": { "type": "Point", "coordinates": [ -71.89696, -38.44109 ] } },
{ "type": "Feature", "properties": { "objectid": 20308, "dependencia": "MUNICIPAL", "nombre_establecimiento": "ESCUELA BASICA LA ANGOSTURA", "rbd": "5332", "dgv_rbd": null, "estado": null, "direccion": null, "urbano_rural": "RURAL", "matricula": 3, "tipo": null, "cut_reg": "09", "cut_prov": "092", "cut_com": "09205", "region": "La Araucanía", "provincia": "Malleco", "comuna": "Lonquimay", "globalid": "933bba20-5765-45c9-a2f2-30d96d57b529", "latitud": -38.44085, "longitud": -71.15847 }, "geometry": { "type": "Point", "coordinates": [ -71.15847, -38.44085 ] } },
{ "type": "Feature", "properties": { "objectid": 20309, "dependencia": "MUNICIPAL", "nombre_establecimiento": "ESCUELA OSVALDO FUENTES BARRERA", "rbd": "5346", "dgv_rbd": null, "estado": null, "direccion": null, "urbano_rural": "URBANO", "matricula": 162, "tipo": null, "cut_reg": "09", "cut_prov": "092", "cut_com": "09203", "region": "La Araucanía", "provincia": "Malleco", "comuna": "Curacautín", "globalid": "676428e6-5246-42a8-b52e-e357a013bbc1", "latitud": -38.44078, "longitud": -71.89671 }, "geometry": { "type": "Point", "coordinates": [ -71.89671, -38.44078 ] } },
{ "type": "Feature", "properties": { "objectid": 20311, "dependencia": "PARTICULAR SUBVENCIONADO", "nombre_establecimiento": "ESCUELA PARTICULAR SAN ANDRES", "rbd": "19950", "dgv_rbd": null, "estado": null, "direccion": null, "urbano_rural": "URBANO", "matricula": 118, "tipo": null, "cut_reg": "09", "cut_prov": "092", "cut_com": "09203", "region": "La Araucanía", "provincia": "Malleco", "comuna": "Curacautín", "globalid": "83995692-771d-4c4a-9a39-13c43e7c384f", "latitud": -38.439, "longitud": -71.89228 }, "geometry": { "type": "Point", "coordinates": [ -71.89228, -38.439 ] } },
{ "type": "Feature", "properties": { "objectid": 20312, "dependencia": "INTEGRA", "nombre_establecimiento": "S.C. LAS RAÍCES", "rbd": "I90505", "dgv_rbd": null, "estado": null, "direccion": null, "urbano_rural": "URBANO", "matricula": 13, "tipo": null, "cut_reg": "09", "cut_prov": "092", "cut_com": "09203", "region": "La Araucanía", "provincia": "Malleco", "comuna": "Curacautín", "globalid": "b9d968d4-f5a3-4ebc-aaa9-4baffab86ae0", "latitud": -38.438943, "longitud": -71.898328 }, "geometry": { "type": "Point", "coordinates": [ -71.89833, -38.43894 ] } },
{ "type": "Feature", "properties": { "objectid": 20313, "dependencia": "CORP. DE ADMINISTRACION DELEGADA", "nombre_establecimiento": "LICEO POLITECNICO C-12 CURACAUTIN", "rbd": "5343", "dgv_rbd": null, "estado": null, "direccion": null, "urbano_rural": "URBANO", "matricula": 381, "tipo": null, "cut_reg": "09", "cut_prov": "092", "cut_com": "09203", "region": "La Araucanía", "provincia": "Malleco", "comuna": "Curacautín", "globalid": "138b47dd-8734-4e61-a541-b98483087abf", "latitud": -38.43893, "longitud": -71.89288 }, "geometry": { "type": "Point", "coordinates": [ -71.89288, -38.43893 ] } },
{ "type": "Feature", "properties": { "objectid": 20314, "dependencia": "INTEGRA", "nombre_establecimiento": "PRINCESITA", "rbd": "I90503", "dgv_rbd": null, "estado": null, "direccion": null, "urbano_rural": "URBANO", "matricula": 46, "tipo": null, "cut_reg": "09", "cut_prov": "092", "cut_com": "09203", "region": "La Araucanía", "provincia": "Malleco", "comuna": "Curacautín", "globalid": "26eb7d44-cb5a-49b3-b3dd-904ef9e7bb20", "latitud": -38.438755, "longitud": -71.89863 }, "geometry": { "type": "Point", "coordinates": [ -71.89863, -38.43876 ] } },
{ "type": "Feature", "properties": { "objectid": 20315, "dependencia": "MUNICIPAL", "nombre_establecimiento": "ESCUELA LUIS CRUZ MARTINEZ", "rbd": "5345", "dgv_rbd": null, "estado": null, "direccion": null, "urbano_rural": "URBANO", "matricula": 178, "tipo": null, "cut_reg": "09", "cut_prov": "092", "cut_com": "09203", "region": "La Araucanía", "provincia": "Malleco", "comuna": "Curacautín", "globalid": "2959c58d-fa6c-4ed8-8a94-58c266214e6a", "latitud": -38.43863, "longitud": -71.87426 }, "geometry": { "type": "Point", "coordinates": [ -71.87426, -38.43863 ] } },
{ "type": "Feature", "properties": { "objectid": 20316, "dependencia": "PARTICULAR SUBVENCIONADO", "nombre_establecimiento": "ESCUELA PARTICULAR SANTA ELENA", "rbd": "5372", "dgv_rbd": null, "estado": null, "direccion": null, "urbano_rural": "URBANO", "matricula": 453, "tipo": null, "cut_reg": "09", "cut_prov": "092", "cut_com": "09203", "region": "La Araucanía", "provincia": "Malleco", "comuna": "Curacautín", "globalid": "ba037696-d920-4055-a779-0c3dbfb926e4", "latitud": -38.43858, "longitud": -71.88888 }, "geometry": { "type": "Point", "coordinates": [ -71.88888, -38.43858 ] } },
{ "type": "Feature", "properties": { "objectid": 20317, "dependencia": "MUNICIPAL", "nombre_establecimiento": "ESCUELA ESPECIAL LOS VOLCANES", "rbd": "5350", "dgv_rbd": null, "estado": null, "direccion": null, "urbano_rural": "URBANO", "matricula": 36, "tipo": null, "cut_reg": "09", "cut_prov": "092", "cut_com": "09203", "region": "La Araucanía", "provincia": "Malleco", "comuna": "Curacautín", "globalid": "979b6890-193e-4149-b57b-49fbbae4cc69", "latitud": -38.43829, "longitud": -71.88554 }, "geometry": { "type": "Point", "coordinates": [ -71.88554, -38.43829 ] } },
{ "type": "Feature", "properties": { "objectid": 20319, "dependencia": "MUNICIPAL", "nombre_establecimiento": "LICEO LAS ARAUCARIAS", "rbd": "5344", "dgv_rbd": null, "estado": null, "direccion": null, "urbano_rural": "URBANO", "matricula": 1092, "tipo": null, "cut_reg": "09", "cut_prov": "092", "cut_com": "09203", "region": "La Araucanía", "provincia": "Malleco", "comuna": "Curacautín", "globalid": "2ae731e2-98db-4a20-8ac1-0f21ce674689", "latitud": -38.43606, "longitud": -71.89408 }, "geometry": { "type": "Point", "coordinates": [ -71.89408, -38.43606 ] } },
{ "type": "Feature", "properties": { "objectid": 20320, "dependencia": "JUNJI - VTF", "nombre_establecimiento": "RAYITO DE LUNA", "rbd": "J9203005", "dgv_rbd": null, "estado": null, "direccion": null, "urbano_rural": "URBANO", "matricula": 22, "tipo": null, "cut_reg": "09", "cut_prov": "092", "cut_com": "09203", "region": "La Araucanía", "provincia": "Malleco", "comuna": "Curacautín", "globalid": "f4955683-5cf1-466f-96e1-bf275ad8c773", "latitud": -38.43578336, "longitud": -71.90161667 }, "geometry": { "type": "Point", "coordinates": [ -71.90162, -38.43578 ] } },
{ "type": "Feature", "properties": { "objectid": 20321, "dependencia": "MUNICIPAL", "nombre_establecimiento": "ESCUELA BASICA REPUBLICA DE MEXICO", "rbd": "5353", "dgv_rbd": null, "estado": null, "direccion": null, "urbano_rural": "RURAL", "matricula": 122, "tipo": null, "cut_reg": "09", "cut_prov": "092", "cut_com": "09203", "region": "La Araucanía", "provincia": "Malleco", "comuna": "Curacautín", "globalid": "f7e95fc2-98d1-454b-ae7b-452756e187b9", "latitud": -38.43447, "longitud": -71.89872 }, "geometry": { "type": "Point", "coordinates": [ -71.89872, -38.43447 ] } },
{ "type": "Feature", "properties": { "objectid": 20322, "dependencia": "INTEGRA", "nombre_establecimiento": "PEHUENCITO", "rbd": "I90501", "dgv_rbd": null, "estado": null, "direccion": null, "urbano_rural": "URBANO", "matricula": 46, "tipo": null, "cut_reg": "09", "cut_prov": "092", "cut_com": "09203", "region": "La Araucanía", "provincia": "Malleco", "comuna": "Curacautín", "globalid": "76fa11ca-9338-4750-b69b-547552afc616", "latitud": -38.434116, "longitud": -71.885089 }, "geometry": { "type": "Point", "coordinates": [ -71.88509, -38.43412 ] } },
{ "type": "Feature", "properties": { "objectid": 20323, "dependencia": "INTEGRA", "nombre_establecimiento": "EL NARANJITO", "rbd": "I90403", "dgv_rbd": null, "estado": null, "direccion": null, "urbano_rural": "RURAL", "matricula": 29, "tipo": null, "cut_reg": "09", "cut_prov": "092", "cut_com": "09205", "region": "La Araucanía", "provincia": "Malleco", "comuna": "Lonquimay", "globalid": "c72ef882-59c2-4db5-946e-b2fdc70a4ea3", "latitud": -38.43396, "longitud": -71.366024 }, "geometry": { "type": "Point", "coordinates": [ -71.36602, -38.43396 ] } },
{ "type": "Feature", "properties": { "objectid": 20324, "dependencia": "INTEGRA", "nombre_establecimiento": "PADRE JUAN", "rbd": "I90507", "dgv_rbd": null, "estado": null, "direccion": null, "urbano_rural": "URBANO", "matricula": 29, "tipo": null, "cut_reg": "09", "cut_prov": "092", "cut_com": "09203", "region": "La Araucanía", "provincia": "Malleco", "comuna": "Curacautín", "globalid": "89a17ee4-ae52-40ad-b5e8-d9895e4f9051", "latitud": -38.433101, "longitud": -71.881303 }, "geometry": { "type": "Point", "coordinates": [ -71.8813, -38.4331 ] } },
{ "type": "Feature", "properties": { "objectid": 20325, "dependencia": "JUNJI", "nombre_establecimiento": "QUILLAY", "rbd": "J9203010", "dgv_rbd": null, "estado": null, "direccion": null, "urbano_rural": "URBANO", "matricula": 41, "tipo": null, "cut_reg": "09", "cut_prov": "092", "cut_com": "09203", "region": "La Araucanía", "provincia": "Malleco", "comuna": "Curacautín", "globalid": "548c6095-8994-401f-8454-0a1bcb4de693", "latitud": -38.432409, "longitud": -71.903622 }, "geometry": { "type": "Point", "coordinates": [ -71.90362, -38.43241 ] } },
{ "type": "Feature", "properties": { "objectid": 20327, "dependencia": "JUNJI - VTF", "nombre_establecimiento": "DE LOS SUENOS", "rbd": "J9203004", "dgv_rbd": null, "estado": null, "direccion": null, "urbano_rural": "URBANO", "matricula": 27, "tipo": null, "cut_reg": "09", "cut_prov": "092", "cut_com": "09203", "region": "La Araucanía", "provincia": "Malleco", "comuna": "Curacautín", "globalid": "fb0ed513-abea-4474-950b-acebdc707054", "latitud": -38.43178336, "longitud": -71.89511667 }, "geometry": { "type": "Point", "coordinates": [ -71.89512, -38.43178 ] } },
{ "type": "Feature", "properties": { "objectid": 20331, "dependencia": "MUNICIPAL", "nombre_establecimiento": "ESCUELA LOS PRADOS", "rbd": "5357", "dgv_rbd": null, "estado": null, "direccion": null, "urbano_rural": "RURAL", "matricula": 3, "tipo": null, "cut_reg": "09", "cut_prov": "092", "cut_com": "09203", "region": "La Araucanía", "provincia": "Malleco", "comuna": "Curacautín", "globalid": "9e184ae3-7050-4ee4-b47a-498c96ccde71", "latitud": -38.42582, "longitud": -71.76067 }, "geometry": { "type": "Point", "coordinates": [ -71.76067, -38.42582 ] } },
{ "type": "Feature", "properties": { "objectid": 20333, "dependencia": "MUNICIPAL", "nombre_establecimiento": "ESCUELA BÁSICA BERNARDO ÑANKO", "rbd": "5622", "dgv_rbd": null, "estado": null, "direccion": null, "urbano_rural": "RURAL", "matricula": 221, "tipo": null, "cut_reg": "09", "cut_prov": "092", "cut_com": "09205", "region": "La Araucanía", "provincia": "Malleco", "comuna": "Lonquimay", "globalid": "65cb4b92-b012-4515-9b23-8456d0a5d455", "latitud": -38.42469, "longitud": -71.3513 }, "geometry": { "type": "Point", "coordinates": [ -71.3513, -38.42469 ] } },
{ "type": "Feature", "properties": { "objectid": 20338, "dependencia": "MUNICIPAL", "nombre_establecimiento": "ESCUELA BASICA DOMINGO CAMARGO", "rbd": "5341", "dgv_rbd": null, "estado": null, "direccion": null, "urbano_rural": "RURAL", "matricula": 74, "tipo": null, "cut_reg": "09", "cut_prov": "092", "cut_com": "09205", "region": "La Araucanía", "provincia": "Malleco", "comuna": "Lonquimay", "globalid": "ef4fbde9-1625-4019-83f7-206c42f798c7", "latitud": -38.42045, "longitud": -71.39032 }, "geometry": { "type": "Point", "coordinates": [ -71.39032, -38.42045 ] } },
{ "type": "Feature", "properties": { "objectid": 20354, "dependencia": "MUNICIPAL", "nombre_establecimiento": "ESCUELA BASICA EL PORVENIR", "rbd": "5415", "dgv_rbd": null, "estado": null, "direccion": null, "urbano_rural": "RURAL", "matricula": 1, "tipo": null, "cut_reg": "09", "cut_prov": "092", "cut_com": "09211", "region": "La Araucanía", "provincia": "Malleco", "comuna": "Victoria", "globalid": "a6b69a37-5a42-48bf-8c21-9af17abc52cd", "latitud": -38.41027, "longitud": -72.08649 }, "geometry": { "type": "Point", "coordinates": [ -72.08649, -38.41027 ] } },
{ "type": "Feature", "properties": { "objectid": 20364, "dependencia": "PARTICULAR SUBVENCIONADO", "nombre_establecimiento": "ESCUELA ESPECIAL DE LENGUAJE CAPULLITO", "rbd": "20240", "dgv_rbd": null, "estado": null, "direccion": null, "urbano_rural": "URBANO", "matricula": 43, "tipo": null, "cut_reg": "09", "cut_prov": "092", "cut_com": "09203", "region": "La Araucanía", "provincia": "Malleco", "comuna": "Curacautín", "globalid": "e4781038-8e0c-44a5-a8a3-61ace8db5c87", "latitud": -38.39854, "longitud": -71.97316 }, "geometry": { "type": "Point", "coordinates": [ -71.97316, -38.39854 ] } },
{ "type": "Feature", "properties": { "objectid": 20367, "dependencia": "INTEGRA", "nombre_establecimiento": "MALLÍN EL TREILE", "rbd": "I90402", "dgv_rbd": null, "estado": null, "direccion": null, "urbano_rural": "RURAL", "matricula": 23, "tipo": null, "cut_reg": "09", "cut_prov": "092", "cut_com": "09205", "region": "La Araucanía", "provincia": "Malleco", "comuna": "Lonquimay", "globalid": "8282cd62-18f8-42e0-a324-486e4a704ac0", "latitud": -38.381857, "longitud": -71.457734 }, "geometry": { "type": "Point", "coordinates": [ -71.45773, -38.38186 ] } },
{ "type": "Feature", "properties": { "objectid": 20368, "dependencia": "MUNICIPAL", "nombre_establecimiento": "ESC. BASICA SAN ARTURO, RADALCO ESTE.", "rbd": "5368", "dgv_rbd": null, "estado": null, "direccion": null, "urbano_rural": "RURAL", "matricula": 1, "tipo": null, "cut_reg": "09", "cut_prov": "092", "cut_com": "09203", "region": "La Araucanía", "provincia": "Malleco", "comuna": "Curacautín", "globalid": "dffd092e-0cdd-48c4-ae72-136041f20043", "latitud": -38.37872, "longitud": -71.93328 }, "geometry": { "type": "Point", "coordinates": [ -71.93328, -38.37872 ] } },
{ "type": "Feature", "properties": { "objectid": 20394, "dependencia": "MUNICIPAL", "nombre_establecimiento": "ESCUELA PEHUENCO", "rbd": "5410", "dgv_rbd": null, "estado": null, "direccion": null, "urbano_rural": "RURAL", "matricula": 8, "tipo": null, "cut_reg": "09", "cut_prov": "092", "cut_com": "09211", "region": "La Araucanía", "provincia": "Malleco", "comuna": "Victoria", "globalid": "17817718-dee8-4548-a258-1ece7aa8143f", "latitud": -38.33523, "longitud": -72.00323 }, "geometry": { "type": "Point", "coordinates": [ -72.00323, -38.33523 ] } },
{ "type": "Feature", "properties": { "objectid": 20405, "dependencia": "MUNICIPAL", "nombre_establecimiento": "ESCUELA BASICA SANTA ELENA", "rbd": "5425", "dgv_rbd": null, "estado": null, "direccion": null, "urbano_rural": "RURAL", "matricula": 67, "tipo": null, "cut_reg": "09", "cut_prov": "092", "cut_com": "09211", "region": "La Araucanía", "provincia": "Malleco", "comuna": "Victoria", "globalid": "163b93fb-670b-4346-bbc2-f950df422c6c", "latitud": -38.3009, "longitud": -72.07518 }, "geometry": { "type": "Point", "coordinates": [ -72.07518, -38.3009 ] } },
{ "type": "Feature", "properties": { "objectid": 20427, "dependencia": "MUNICIPAL", "nombre_establecimiento": "ESCUELA DE TROYO", "rbd": "5339", "dgv_rbd": null, "estado": null, "direccion": null, "urbano_rural": "RURAL", "matricula": 46, "tipo": null, "cut_reg": "09", "cut_prov": "092", "cut_com": "09205", "region": "La Araucanía", "provincia": "Malleco", "comuna": "Lonquimay", "globalid": "c8d79f07-245b-40fc-b5ed-52f444499962", "latitud": -38.25069, "longitud": -71.30116 }, "geometry": { "type": "Point", "coordinates": [ -71.30116, -38.25069 ] } },
{ "type": "Feature", "properties": { "objectid": 20491, "dependencia": "MUNICIPAL", "nombre_establecimiento": "ESC. ASENTAMIENTO PABLO NERUDA", "rbd": "5381", "dgv_rbd": null, "estado": null, "direccion": null, "urbano_rural": "RURAL", "matricula": 4, "tipo": null, "cut_reg": "09", "cut_prov": "092", "cut_com": "09204", "region": "La Araucanía", "provincia": "Malleco", "comuna": "Ercilla", "globalid": "11150034-8653-499e-916a-127779e87fef", "latitud": -38.17843, "longitud": -72.03196 }, "geometry": { "type": "Point", "coordinates": [ -72.03196, -38.17843 ] } },
{ "type": "Feature", "properties": { "objectid": 20525, "dependencia": "MUNICIPAL", "nombre_establecimiento": "ESCUELA BASICA RIO AMARGO", "rbd": "5309", "dgv_rbd": null, "estado": null, "direccion": null, "urbano_rural": "RURAL", "matricula": 28, "tipo": null, "cut_reg": "09", "cut_prov": "092", "cut_com": "09202", "region": "La Araucanía", "provincia": "Malleco", "comuna": "Collipulli", "globalid": "f2ed52e3-a89e-4d19-a10c-e01ea91c247a", "latitud": -38.08173, "longitud": -71.85856 }, "geometry": { "type": "Point", "coordinates": [ -71.85856, -38.08173 ] } },
{ "type": "Feature", "properties": { "objectid": 20528, "dependencia": "JUNJI", "nombre_establecimiento": "LOS TINEOS", "rbd": "J9202007", "dgv_rbd": null, "estado": null, "direccion": null, "urbano_rural": "RURAL", "matricula": 9, "tipo": null, "cut_reg": "09", "cut_prov": "092", "cut_com": "09202", "region": "La Araucanía", "provincia": "Malleco", "comuna": "Collipulli", "globalid": "187fa9d8-f5ff-4faa-a3ab-c712d391c9b6", "latitud": -38.077323, "longitud": -71.870221 }, "geometry": { "type": "Point", "coordinates": [ -71.87022, -38.07732 ] } },
{ "type": "Feature", "properties": { "objectid": 20538, "dependencia": "MUNICIPAL", "nombre_establecimiento": "ESCUELA RALCO LEPOY", "rbd": "4375", "dgv_rbd": null, "estado": null, "direccion": null, "urbano_rural": "RURAL", "matricula": 149, "tipo": null, "cut_reg": "08", "cut_prov": "083", "cut_com": "08314", "region": "Biobío", "provincia": "Biobío", "comuna": "Alto Biobío", "globalid": "ec86dadf-909e-452c-8627-aac93f147e34", "latitud": -38.06447, "longitud": -71.35392 }, "geometry": { "type": "Point", "coordinates": [ -71.35392, -38.06447 ] } },
{ "type": "Feature", "properties": { "objectid": 20550, "dependencia": "PARTICULAR SUBVENCIONADO", "nombre_establecimiento": "ESCUELA PARTICULAR EDGARDO SOLAR ACUÑA", "rbd": "4386", "dgv_rbd": null, "estado": null, "direccion": null, "urbano_rural": "RURAL", "matricula": 18, "tipo": null, "cut_reg": "08", "cut_prov": "083", "cut_com": "08314", "region": "Biobío", "provincia": "Biobío", "comuna": "Alto Biobío", "globalid": "bc781122-a7d9-4f0d-8d7b-5eafbdb696ef", "latitud": -38.04522, "longitud": -71.27527 }, "geometry": { "type": "Point", "coordinates": [ -71.27527, -38.04522 ] } },
{ "type": "Feature", "properties": { "objectid": 20637, "dependencia": "PARTICULAR SUBVENCIONADO", "nombre_establecimiento": "ESCUELA PARTICULAR CAREN", "rbd": "6021", "dgv_rbd": null, "estado": null, "direccion": null, "urbano_rural": "RURAL", "matricula": 5, "tipo": null, "cut_reg": "09", "cut_prov": "091", "cut_com": "09110", "region": "La Araucanía", "provincia": "Cautín", "comuna": "Melipeuco", "globalid": "cc9f84fc-2215-4e6d-a33a-7ad0d6e2050d", "latitud": -38.82478, "longitud": -71.55357 }, "geometry": { "type": "Point", "coordinates": [ -71.55357, -38.82478 ] } },
{ "type": "Feature", "properties": { "objectid": 20660, "dependencia": "PARTICULAR SUBVENCIONADO", "nombre_establecimiento": "ESCUELA DAHUELHUE", "rbd": "6025", "dgv_rbd": null, "estado": null, "direccion": null, "urbano_rural": "RURAL", "matricula": 6, "tipo": null, "cut_reg": "09", "cut_prov": "091", "cut_com": "09110", "region": "La Araucanía", "provincia": "Cautín", "comuna": "Melipeuco", "globalid": "b4e4ec42-b44e-44fd-9236-46b73e8e5ff2", "latitud": -38.81094, "longitud": -71.62649 }, "geometry": { "type": "Point", "coordinates": [ -71.62649, -38.81094 ] } },
{ "type": "Feature", "properties": { "objectid": 21061, "dependencia": "PARTICULAR SUBVENCIONADO", "nombre_establecimiento": "ESCUELA PARTICULAR GALLETUE", "rbd": "19999", "dgv_rbd": null, "estado": null, "direccion": null, "urbano_rural": "RURAL", "matricula": 11, "tipo": null, "cut_reg": "09", "cut_prov": "092", "cut_com": "09205", "region": "La Araucanía", "provincia": "Malleco", "comuna": "Lonquimay", "globalid": "73bd645f-74fb-45ad-9ae9-df8f99b20f8e", "latitud": -38.70126, "longitud": -71.29962 }, "geometry": { "type": "Point", "coordinates": [ -71.29962, -38.70126 ] } }
]
}
