{
"type": "FeatureCollection",
"name": "MAC",
"crs": { "type": "name", "properties": { "name": "urn:ogc:def:crs:OGC:1.3:CRS84" } },
"xy_coordinate_resolution": 1e-05,
"features": [
{ "type": "Feature", "properties": { "objectid": 19790, "dependencia": "SLEP", "nombre_establecimiento": "ESCUELA ALMIRANTE SIMPSON", "rbd": "8384", "dgv_rbd": null, "estado": null, "direccion": null, "urbano_rural": "URBANO", "matricula": 137, "tipo": null, "cut_reg": "11", "cut_prov": "112", "cut_com": "11201", "region": "Aysén del General Carlos Ibáñez del Campo", "provincia": "Aisén", "comuna": "Aisén", "globalid": "a5bcbf51-2643-4c4e-ab98-05ca4d315cef", "latitud": -45.46182, "longitud": -72.81585 }, "geometry": { "type": "Point", "coordinates": [ -72.81585, -45.46182 ] } },
{ "type": "Feature", "properties": { "objectid": 19791, "dependencia": "JUNJI - VTF", "nombre_establecimiento": "AYELEN RUKA", "rbd": "J11201019", "dgv_rbd": null, "estado": null, "direccion": null, "urbano_rural": "URBANO", "matricula": 31, "tipo": null, "cut_reg": "11", "cut_prov": "112", "cut_com": "11201", "region": "Aysén del General Carlos Ibáñez del Campo", "provincia": "Aisén", "comuna": "Aisén", "globalid": "a5f81951-5ec0-4410-9a1e-55161692649d", "latitud": -45.46105513, "longitud": -72.81586619 }, "geometry": { "type": "Point", "coordinates": [ -72.81587, -45.46106 ] } },
{ "type": "Feature", "properties": { "objectid": 19814, "dependencia": "JUNJI", "nombre_establecimiento": "CRECIENDO CONTENTO", "rbd": "J11201005", "dgv_rbd": null, "estado": null, "direccion": null, "urbano_rural": "URBANO", "matricula": 58, "tipo": null, "cut_reg": "11", "cut_prov": "112", "cut_com": "11201", "region": "Aysén del General Carlos Ibáñez del Campo", "provincia": "Aisén", "comuna": "Aisén", "globalid": "da8470ac-bc0c-4b00-b4d3-ceb64b16eca1", "latitud": -45.39276509, "longitud": -72.6899179 }, "geometry": { "type": "Point", "coordinates": [ -72.68992, -45.39277 ] } },
{ "type": "Feature", "properties": { "objectid": 19819, "dependencia": "INTEGRA", "nombre_establecimiento": "LOS CIPRESES", "rbd": "I110302", "dgv_rbd": null, "estado": null, "direccion": null, "urbano_rural": "RURAL", "matricula": 21, "tipo": null, "cut_reg": "11", "cut_prov": "112", "cut_com": "11201", "region": "Aysén del General Carlos Ibáñez del Campo", "provincia": "Aisén", "comuna": "Aisén", "globalid": "1779e1a7-b55e-414b-bfbb-c0719f36f6e6", "latitud": -45.163622, "longitud": -73.523263 }, "geometry": { "type": "Point", "coordinates": [ -73.52326, -45.16362 ] } },
{ "type": "Feature", "properties": { "objectid": 19820, "dependencia": "INTEGRA", "nombre_establecimiento": "LOS CANELOS", "rbd": "I110301", "dgv_rbd": null, "estado": null, "direccion": null, "urbano_rural": "RURAL", "matricula": 3, "tipo": null, "cut_reg": "11", "cut_prov": "112", "cut_com": "11201", "region": "Aysén del General Carlos Ibáñez del Campo", "provincia": "Aisén", "comuna": "Aisén", "globalid": "58b96a59-bf13-45b2-97d6-465d344652b1", "latitud": -45.150218, "longitud": -73.508101 }, "geometry": { "type": "Point", "coordinates": [ -73.5081, -45.15022 ] } }
]
}
