{
"type": "FeatureCollection",
"name": "MEL",
"crs": { "type": "name", "properties": { "name": "urn:ogc:def:crs:OGC:1.3:CRS84" } },
"xy_coordinate_resolution": 1e-05,
"features": [
{ "type": "Feature", "properties": { "objectid": 19832, "dependencia": "INTEGRA", "nombre_establecimiento": "TÍA NORA", "rbd": "I110402", "dgv_rbd": null, "estado": null, "direccion": null, "urbano_rural": "RURAL", "matricula": 20, "tipo": null, "cut_reg": "11", "cut_prov": "112", "cut_com": "11202", "region": "Aysén del General Carlos Ibáñez del Campo", "provincia": "Aisén", "comuna": "Cisnes", "globalid": "f399b3f2-4e3b-4239-8b9a-aaa76e0b7bad", "latitud": -44.325102, "longitud": -72.556799 }, "geometry": { "type": "Point", "coordinates": [ -72.5568, -44.3251 ] } },
{ "type": "Feature", "properties": { "objectid": 19833, "dependencia": "SLEP", "nombre_establecimiento": "ESCUELA HAMBURGO", "rbd": "8390", "dgv_rbd": null, "estado": null, "direccion": null, "urbano_rural": "RURAL", "matricula": 74, "tipo": null, "cut_reg": "11", "cut_prov": "112", "cut_com": "11202", "region": "Aysén del General Carlos Ibáñez del Campo", "provincia": "Aisén", "comuna": "Cisnes", "globalid": "dcb8a689-5120-492e-a397-977f809d327f", "latitud": -44.32458, "longitud": -72.55668 }, "geometry": { "type": "Point", "coordinates": [ -72.55668, -44.32458 ] } },
{ "type": "Feature", "properties": { "objectid": 19837, "dependencia": "SLEP", "nombre_establecimiento": "ESCUELA MUNICIPAL MELIMOYU", "rbd": "11609", "dgv_rbd": null, "estado": null, "direccion": null, "urbano_rural": "RURAL", "matricula": 1, "tipo": null, "cut_reg": "11", "cut_prov": "112", "cut_com": "11202", "region": "Aysén del General Carlos Ibáñez del Campo", "provincia": "Aisén", "comuna": "Cisnes", "globalid": "18913137-af10-4d5e-9f81-eb885ce5eeb4", "latitud": -44.07699, "longitud": -73.08633 }, "geometry": { "type": "Point", "coordinates": [ -73.08633, -44.07699 ] } },
{ "type": "Feature", "properties": { "objectid": 19838, "dependencia": "INTEGRA", "nombre_establecimiento": "RAYITO DE SOL", "rbd": "I110401", "dgv_rbd": null, "estado": null, "direccion": null, "urbano_rural": "RURAL", "matricula": 53, "tipo": null, "cut_reg": "11", "cut_prov": "112", "cut_com": "11202", "region": "Aysén del General Carlos Ibáñez del Campo", "provincia": "Aisén", "comuna": "Cisnes", "globalid": "8cb76050-6e85-4d2d-897c-3238aedff3d7", "latitud": -43.971275, "longitud": -72.404719 }, "geometry": { "type": "Point", "coordinates": [ -72.40472, -43.97127 ] } },
{ "type": "Feature", "properties": { "objectid": 19839, "dependencia": "SLEP", "nombre_establecimiento": "ESCUELA EUSEBIO IBAR SCHEPELER", "rbd": "8391", "dgv_rbd": null, "estado": null, "direccion": null, "urbano_rural": "RURAL", "matricula": 266, "tipo": null, "cut_reg": "11", "cut_prov": "112", "cut_com": "11202", "region": "Aysén del General Carlos Ibáñez del Campo", "provincia": "Aisén", "comuna": "Cisnes", "globalid": "833f3188-23bb-41e2-b742-1bfd16897202", "latitud": -43.96894, "longitud": -72.40779 }, "geometry": { "type": "Point", "coordinates": [ -72.40779, -43.96894 ] } },
{ "type": "Feature", "properties": { "objectid": 19843, "dependencia": "SLEP", "nombre_establecimiento": "ESCUELA AMANDA LABARCA HUBERSTONE", "rbd": "8389", "dgv_rbd": null, "estado": null, "direccion": null, "urbano_rural": "RURAL", "matricula": 25, "tipo": null, "cut_reg": "11", "cut_prov": "112", "cut_com": "11202", "region": "Aysén del General Carlos Ibáñez del Campo", "provincia": "Aisén", "comuna": "Cisnes", "globalid": "93289ba9-ee88-4bbc-ab19-3a1820f855be", "latitud": -43.77731, "longitud": -72.95303 }, "geometry": { "type": "Point", "coordinates": [ -72.95303, -43.77731 ] } },
{ "type": "Feature", "properties": { "objectid": 19844, "dependencia": "JUNJI", "nombre_establecimiento": "CUNCUNITA", "rbd": "J11202004", "dgv_rbd": null, "estado": null, "direccion": null, "urbano_rural": "RURAL", "matricula": 9, "tipo": null, "cut_reg": "11", "cut_prov": "112", "cut_com": "11202", "region": "Aysén del General Carlos Ibáñez del Campo", "provincia": "Aisén", "comuna": "Cisnes", "globalid": "b888cb66-3d79-432e-8c21-404579b007ee", "latitud": -43.775382, "longitud": -72.9544833 }, "geometry": { "type": "Point", "coordinates": [ -72.95448, -43.77538 ] } }
]
}
