{
"type": "FeatureCollection",
"name": "MEN",
"crs": { "type": "name", "properties": { "name": "urn:ogc:def:crs:OGC:1.3:CRS84" } },
"xy_coordinate_resolution": 1e-05,
"features": [
{ "type": "Feature", "properties": { "objectid": 19825, "dependencia": "JUNJI", "nombre_establecimiento": "LOS NAVEGANTES", "rbd": "J11202005", "dgv_rbd": null, "estado": null, "direccion": null, "urbano_rural": "URBANO", "matricula": 42, "tipo": null, "cut_reg": "11", "cut_prov": "112", "cut_com": "11202", "region": "Aysén del General Carlos Ibáñez del Campo", "provincia": "Aisén", "comuna": "Cisnes", "globalid": "f1ef7b45-006a-4d7d-aeda-b59c41165628", "latitud": -44.73025, "longitud": -72.678343 }, "geometry": { "type": "Point", "coordinates": [ -72.67834, -44.73025 ] } },
{ "type": "Feature", "properties": { "objectid": 19826, "dependencia": "SLEP", "nombre_establecimiento": "LICEO BICENTENARIO DE EXCELENCIA ARTURO PRAT CHACON", "rbd": "24204", "dgv_rbd": null, "estado": null, "direccion": null, "urbano_rural": "URBANO", "matricula": 206, "tipo": null, "cut_reg": "11", "cut_prov": "112", "cut_com": "11202", "region": "Aysén del General Carlos Ibáñez del Campo", "provincia": "Aisén", "comuna": "Cisnes", "globalid": "64238b76-490e-48cf-9afc-585b29061520", "latitud": -44.72992, "longitud": -72.69103 }, "geometry": { "type": "Point", "coordinates": [ -72.69103, -44.72992 ] } },
{ "type": "Feature", "properties": { "objectid": 19827, "dependencia": "SLEP", "nombre_establecimiento": "ESCUELA GUIDO GOMEZ MUNOZ", "rbd": "8388", "dgv_rbd": null, "estado": null, "direccion": null, "urbano_rural": "URBANO", "matricula": 382, "tipo": null, "cut_reg": "11", "cut_prov": "112", "cut_com": "11202", "region": "Aysén del General Carlos Ibáñez del Campo", "provincia": "Aisén", "comuna": "Cisnes", "globalid": "b74d78e6-6be1-40af-86ff-f4be9f4ca60c", "latitud": -44.72933, "longitud": -72.68192 }, "geometry": { "type": "Point", "coordinates": [ -72.68192, -44.72933 ] } },
{ "type": "Feature", "properties": { "objectid": 19828, "dependencia": "SLEP", "nombre_establecimiento": "ESCUELA MADRE DE LA DIVINA PROVIDENCIA", "rbd": "24210", "dgv_rbd": null, "estado": null, "direccion": null, "urbano_rural": "RURAL", "matricula": 2, "tipo": null, "cut_reg": "11", "cut_prov": "112", "cut_com": "11202", "region": "Aysén del General Carlos Ibáñez del Campo", "provincia": "Aisén", "comuna": "Cisnes", "globalid": "965630ee-fb85-4fe5-b80f-2276bc90dd8f", "latitud": -44.72758, "longitud": -72.6812 }, "geometry": { "type": "Point", "coordinates": [ -72.6812, -44.72758 ] } },
{ "type": "Feature", "properties": { "objectid": 19829, "dependencia": "JUNJI", "nombre_establecimiento": "LA SIRENITA", "rbd": "J11202001", "dgv_rbd": null, "estado": null, "direccion": null, "urbano_rural": "URBANO", "matricula": 57, "tipo": null, "cut_reg": "11", "cut_prov": "112", "cut_com": "11202", "region": "Aysén del General Carlos Ibáñez del Campo", "provincia": "Aisén", "comuna": "Cisnes", "globalid": "a6c2be10-3f94-4111-a00a-64eba2ca150d", "latitud": -44.727043, "longitud": -72.680095 }, "geometry": { "type": "Point", "coordinates": [ -72.68009, -44.72704 ] } },
{ "type": "Feature", "properties": { "objectid": 19830, "dependencia": "PARTICULAR SUBVENCIONADO", "nombre_establecimiento": "ESC.NUESTRA SRA DE LA DIVINA PROVIDENCIA", "rbd": "24218", "dgv_rbd": null, "estado": null, "direccion": null, "urbano_rural": "RURAL", "matricula": 2, "tipo": null, "cut_reg": "11", "cut_prov": "112", "cut_com": "11202", "region": "Aysén del General Carlos Ibáñez del Campo", "provincia": "Aisén", "comuna": "Cisnes", "globalid": "f42b157e-48d0-4749-b7b5-4823dab2d396", "latitud": -44.66867, "longitud": -72.83655 }, "geometry": { "type": "Point", "coordinates": [ -72.83655, -44.66867 ] } }
]
}
