{
"type": "FeatureCollection",
"name": "NCH",
"crs": { "type": "name", "properties": { "name": "urn:ogc:def:crs:OGC:1.3:CRS84" } },
"xy_coordinate_resolution": 1e-05,
"features": [
{ "type": "Feature", "properties": { "objectid": 21513, "dependencia": "INTEGRA", "nombre_establecimiento": "ANGORITA", "rbd": "I170502", "dgv_rbd": null, "estado": null, "direccion": null, "urbano_rural": "RURAL", "matricula": 10, "tipo": null, "cut_reg": "16", "cut_prov": "161", "cut_com": "16105", "region": "Ñuble", "provincia": "Diguillín", "comuna": "Pemuco", "globalid": "d20b69cb-3a61-4bbf-b0d3-f3617e98e3b9", "latitud": -37.021679, "longitud": -71.847406 }, "geometry": { "type": "Point", "coordinates": [ -71.84741, -37.02168 ] } },
{ "type": "Feature", "properties": { "objectid": 21514, "dependencia": "MUNICIPAL", "nombre_establecimiento": "ESCUELA JOSÉ RENÉ SALGADO", "rbd": "3971", "dgv_rbd": null, "estado": null, "direccion": null, "urbano_rural": "RURAL", "matricula": 65, "tipo": null, "cut_reg": "16", "cut_prov": "161", "cut_com": "16105", "region": "Ñuble", "provincia": "Diguillín", "comuna": "Pemuco", "globalid": "37a857c6-7c2a-4b6f-b202-a9b79262020e", "latitud": -37.02088, "longitud": -71.85515 }, "geometry": { "type": "Point", "coordinates": [ -71.85515, -37.02088 ] } },
{ "type": "Feature", "properties": { "objectid": 21517, "dependencia": "MUNICIPAL", "nombre_establecimiento": "ESCUELA BASICA MONTE EL LEON", "rbd": "3968", "dgv_rbd": null, "estado": null, "direccion": null, "urbano_rural": "RURAL", "matricula": 6, "tipo": null, "cut_reg": "16", "cut_prov": "161", "cut_com": "16105", "region": "Ñuble", "provincia": "Diguillín", "comuna": "Pemuco", "globalid": "7f9aaef6-818b-403c-8e8a-ea12d46e3b27", "latitud": -37.01637, "longitud": -71.74462 }, "geometry": { "type": "Point", "coordinates": [ -71.74462, -37.01637 ] } },
{ "type": "Feature", "properties": { "objectid": 21572, "dependencia": "MUNICIPAL", "nombre_establecimiento": "ESCUELA SAN JOSE SUR", "rbd": "3926", "dgv_rbd": null, "estado": null, "direccion": null, "urbano_rural": "RURAL", "matricula": 4, "tipo": null, "cut_reg": "16", "cut_prov": "161", "cut_com": "16104", "region": "Ñuble", "provincia": "Diguillín", "comuna": "El Carmen", "globalid": "7c625d42-3693-43e9-9970-f07d9626aa16", "latitud": -36.98769, "longitud": -71.76601 }, "geometry": { "type": "Point", "coordinates": [ -71.76601, -36.98769 ] } },
{ "type": "Feature", "properties": { "objectid": 21634, "dependencia": "JUNJI", "nombre_establecimiento": "CAPILLA SUR - LAS CUNCUNITAS", "rbd": "J16104007", "dgv_rbd": null, "estado": null, "direccion": null, "urbano_rural": "RURAL", "matricula": 15, "tipo": null, "cut_reg": "16", "cut_prov": "161", "cut_com": "16104", "region": "Ñuble", "provincia": "Diguillín", "comuna": "El Carmen", "globalid": "57316658-7cc0-497c-9d7c-5d0c38144d52", "latitud": -36.953056, "longitud": -71.785889 }, "geometry": { "type": "Point", "coordinates": [ -71.78589, -36.95306 ] } },
{ "type": "Feature", "properties": { "objectid": 21676, "dependencia": "MUNICIPAL", "nombre_establecimiento": "ESCUELA BERNARDINO MUNOZ GONZALEZ", "rbd": "3914", "dgv_rbd": null, "estado": null, "direccion": null, "urbano_rural": "RURAL", "matricula": 53, "tipo": null, "cut_reg": "16", "cut_prov": "161", "cut_com": "16104", "region": "Ñuble", "provincia": "Diguillín", "comuna": "El Carmen", "globalid": "47e08d23-9674-40ed-873b-b22bc872e492", "latitud": -36.93207, "longitud": -71.87263 }, "geometry": { "type": "Point", "coordinates": [ -71.87263, -36.93207 ] } },
{ "type": "Feature", "properties": { "objectid": 21678, "dependencia": "MUNICIPAL", "nombre_establecimiento": "ESCUELA SAN RICAEL", "rbd": "3920", "dgv_rbd": null, "estado": null, "direccion": null, "urbano_rural": "RURAL", "matricula": 5, "tipo": null, "cut_reg": "16", "cut_prov": "161", "cut_com": "16104", "region": "Ñuble", "provincia": "Diguillín", "comuna": "El Carmen", "globalid": "10f3dd4f-1bee-4488-a626-844485fbe4fe", "latitud": -36.93198, "longitud": -71.74355 }, "geometry": { "type": "Point", "coordinates": [ -71.74355, -36.93198 ] } },
{ "type": "Feature", "properties": { "objectid": 21716, "dependencia": "PARTICULAR SUBVENCIONADO", "nombre_establecimiento": "ESCUELA ESPECIAL DE LENGUAJE PINTO Y APRENDO", "rbd": "18207", "dgv_rbd": null, "estado": null, "direccion": null, "urbano_rural": "URBANO", "matricula": 128, "tipo": null, "cut_reg": "16", "cut_prov": "161", "cut_com": "16106", "region": "Ñuble", "provincia": "Diguillín", "comuna": "Pinto", "globalid": "4a9c1a66-0644-47eb-91ce-5dedeb1b8ce1", "latitud": -36.91981, "longitud": -71.47922 }, "geometry": { "type": "Point", "coordinates": [ -71.47922, -36.91981 ] } },
{ "type": "Feature", "properties": { "objectid": 21721, "dependencia": "MUNICIPAL", "nombre_establecimiento": "ESCUELA CAPILLA NORTE", "rbd": "3916", "dgv_rbd": null, "estado": null, "direccion": null, "urbano_rural": "RURAL", "matricula": 33, "tipo": null, "cut_reg": "16", "cut_prov": "161", "cut_com": "16104", "region": "Ñuble", "provincia": "Diguillín", "comuna": "El Carmen", "globalid": "0e5c3cd1-8ce6-4f1a-a90d-db2afdb76b59", "latitud": -36.91637, "longitud": -71.80312 }, "geometry": { "type": "Point", "coordinates": [ -71.80312, -36.91637 ] } },
{ "type": "Feature", "properties": { "objectid": 21723, "dependencia": "JUNJI", "nombre_establecimiento": "CAPILLA NORTE - EL AROMITO", "rbd": "J16104005", "dgv_rbd": null, "estado": null, "direccion": null, "urbano_rural": "RURAL", "matricula": 11, "tipo": null, "cut_reg": "16", "cut_prov": "161", "cut_com": "16104", "region": "Ñuble", "provincia": "Diguillín", "comuna": "El Carmen", "globalid": "a0778d7d-659f-4017-a7f7-b5f5ca8f2973", "latitud": -36.916233, "longitud": -71.80316 }, "geometry": { "type": "Point", "coordinates": [ -71.80316, -36.91623 ] } },
{ "type": "Feature", "properties": { "objectid": 21725, "dependencia": "MUNICIPAL", "nombre_establecimiento": "ESCUELA LUIS TEODORO ORTEGA OYARCE", "rbd": "3918", "dgv_rbd": null, "estado": null, "direccion": null, "urbano_rural": "RURAL", "matricula": 19, "tipo": null, "cut_reg": "16", "cut_prov": "161", "cut_com": "16104", "region": "Ñuble", "provincia": "Diguillín", "comuna": "El Carmen", "globalid": "85ff06a8-6c8f-4424-9006-a30ff6abb2b1", "latitud": -36.91623, "longitud": -71.80299 }, "geometry": { "type": "Point", "coordinates": [ -71.80299, -36.91623 ] } },
{ "type": "Feature", "properties": { "objectid": 21739, "dependencia": "SLEP", "nombre_establecimiento": "ESCUELA CENTRO ECOEDUCATIVO LAS TRANCAS", "rbd": "17636", "dgv_rbd": null, "estado": null, "direccion": null, "urbano_rural": "RURAL", "matricula": 18, "tipo": null, "cut_reg": "16", "cut_prov": "161", "cut_com": "16106", "region": "Ñuble", "provincia": "Diguillín", "comuna": "Pinto", "globalid": "afdba018-de2f-4026-91e9-969ca7f8d262", "latitud": -36.91058, "longitud": -71.48003 }, "geometry": { "type": "Point", "coordinates": [ -71.48003, -36.91058 ] } },
{ "type": "Feature", "properties": { "objectid": 21759, "dependencia": "MUNICIPAL", "nombre_establecimiento": "ESCUELA VERGARA", "rbd": "3924", "dgv_rbd": null, "estado": null, "direccion": null, "urbano_rural": "RURAL", "matricula": 6, "tipo": null, "cut_reg": "16", "cut_prov": "161", "cut_com": "16104", "region": "Ñuble", "provincia": "Diguillín", "comuna": "El Carmen", "globalid": "fa73204f-a212-4691-b3d3-a8fb47b1733a", "latitud": -36.90219, "longitud": -71.75864 }, "geometry": { "type": "Point", "coordinates": [ -71.75864, -36.90219 ] } },
{ "type": "Feature", "properties": { "objectid": 21779, "dependencia": "MUNICIPAL", "nombre_establecimiento": "ESCUELA NAVIDAD-TREHUALEMU", "rbd": "3913", "dgv_rbd": null, "estado": null, "direccion": null, "urbano_rural": "RURAL", "matricula": 95, "tipo": null, "cut_reg": "16", "cut_prov": "161", "cut_com": "16104", "region": "Ñuble", "provincia": "Diguillín", "comuna": "El Carmen", "globalid": "165e70fd-1ea7-46d5-9763-9c3d227f524d", "latitud": -36.8972, "longitud": -71.92951 }, "geometry": { "type": "Point", "coordinates": [ -71.92951, -36.8972 ] } },
{ "type": "Feature", "properties": { "objectid": 21793, "dependencia": "MUNICIPAL", "nombre_establecimiento": "ESCUELA VALLE DE ATACALCO", "rbd": "3917", "dgv_rbd": null, "estado": null, "direccion": null, "urbano_rural": "RURAL", "matricula": 4, "tipo": null, "cut_reg": "16", "cut_prov": "161", "cut_com": "16104", "region": "Ñuble", "provincia": "Diguillín", "comuna": "El Carmen", "globalid": "64cd6882-9f5b-4a12-af23-d472e9811b4b", "latitud": -36.88845, "longitud": -71.62996 }, "geometry": { "type": "Point", "coordinates": [ -71.62996, -36.88845 ] } },
{ "type": "Feature", "properties": { "objectid": 21817, "dependencia": "MUNICIPAL", "nombre_establecimiento": "ESCUELA DE SAN VICENTE ALTO", "rbd": "3935", "dgv_rbd": null, "estado": null, "direccion": null, "urbano_rural": "RURAL", "matricula": 52, "tipo": null, "cut_reg": "16", "cut_prov": "161", "cut_com": "16104", "region": "Ñuble", "provincia": "Diguillín", "comuna": "El Carmen", "globalid": "809b4784-b515-4d5b-8912-b55d0bfb685b", "latitud": -36.85913, "longitud": -71.80187 }, "geometry": { "type": "Point", "coordinates": [ -71.80187, -36.85913 ] } },
{ "type": "Feature", "properties": { "objectid": 21820, "dependencia": "SLEP", "nombre_establecimiento": "ESCUELA JAVIER JARPA SOTOMAYOR", "rbd": "3874", "dgv_rbd": null, "estado": null, "direccion": null, "urbano_rural": "RURAL", "matricula": 54, "tipo": null, "cut_reg": "16", "cut_prov": "161", "cut_com": "16106", "region": "Ñuble", "provincia": "Diguillín", "comuna": "Pinto", "globalid": "5583feab-17ce-4a89-8483-9444737b2b76", "latitud": -36.85605, "longitud": -71.64403 }, "geometry": { "type": "Point", "coordinates": [ -71.64403, -36.85605 ] } },
{ "type": "Feature", "properties": { "objectid": 21839, "dependencia": "JUNJI - VTF", "nombre_establecimiento": "EL REFUGIO", "rbd": "J16106001", "dgv_rbd": null, "estado": null, "direccion": null, "urbano_rural": "RURAL", "matricula": 38, "tipo": null, "cut_reg": "16", "cut_prov": "161", "cut_com": "16106", "region": "Ñuble", "provincia": "Diguillín", "comuna": "Pinto", "globalid": "0e38b590-1321-458b-a7aa-921a31dfc4ea", "latitud": -36.84698, "longitud": -71.656265 }, "geometry": { "type": "Point", "coordinates": [ -71.65627, -36.84698 ] } },
{ "type": "Feature", "properties": { "objectid": 21845, "dependencia": "MUNICIPAL", "nombre_establecimiento": "ESCUELA SANTA MARIA", "rbd": "3894", "dgv_rbd": null, "estado": null, "direccion": null, "urbano_rural": "RURAL", "matricula": 8, "tipo": null, "cut_reg": "16", "cut_prov": "161", "cut_com": "16108", "region": "Ñuble", "provincia": "Diguillín", "comuna": "San Ignacio", "globalid": "1ae6e4ca-d26b-4e1b-816c-7d63783da58b", "latitud": -36.84611, "longitud": -71.90178 }, "geometry": { "type": "Point", "coordinates": [ -71.90178, -36.84611 ] } },
{ "type": "Feature", "properties": { "objectid": 21846, "dependencia": "SLEP", "nombre_establecimiento": "ESCUELA JOSE TOHA SOLDEVILLA", "rbd": "3872", "dgv_rbd": null, "estado": null, "direccion": null, "urbano_rural": "RURAL", "matricula": 243, "tipo": null, "cut_reg": "16", "cut_prov": "161", "cut_com": "16106", "region": "Ñuble", "provincia": "Diguillín", "comuna": "Pinto", "globalid": "274cf6ea-ba36-463d-93a8-d39757802e29", "latitud": -36.84539, "longitud": -71.65778 }, "geometry": { "type": "Point", "coordinates": [ -71.65778, -36.84539 ] } },
{ "type": "Feature", "properties": { "objectid": 21855, "dependencia": "MUNICIPAL", "nombre_establecimiento": "ESCUELA BALSA ZAPALLAR", "rbd": "3937", "dgv_rbd": null, "estado": null, "direccion": null, "urbano_rural": "RURAL", "matricula": 6, "tipo": null, "cut_reg": "16", "cut_prov": "161", "cut_com": "16104", "region": "Ñuble", "provincia": "Diguillín", "comuna": "El Carmen", "globalid": "d51e4703-825c-4167-9898-67c014462ccc", "latitud": -36.84283, "longitud": -71.80212 }, "geometry": { "type": "Point", "coordinates": [ -71.80212, -36.84283 ] } },
{ "type": "Feature", "properties": { "objectid": 22028, "dependencia": "MUNICIPAL", "nombre_establecimiento": "ESCUELA MAYULERMO", "rbd": "3903", "dgv_rbd": null, "estado": null, "direccion": null, "urbano_rural": "RURAL", "matricula": 43, "tipo": null, "cut_reg": "16", "cut_prov": "161", "cut_com": "16108", "region": "Ñuble", "provincia": "Diguillín", "comuna": "San Ignacio", "globalid": "4af8a053-704b-46a9-aec8-c4249cc2033c", "latitud": -36.81872, "longitud": -71.89512 }, "geometry": { "type": "Point", "coordinates": [ -71.89512, -36.81872 ] } },
{ "type": "Feature", "properties": { "objectid": 22034, "dependencia": "SLEP", "nombre_establecimiento": "ESCUELA NIDO DE GOLONDRINAS", "rbd": "3882", "dgv_rbd": null, "estado": null, "direccion": null, "urbano_rural": "RURAL", "matricula": 8, "tipo": null, "cut_reg": "16", "cut_prov": "161", "cut_com": "16106", "region": "Ñuble", "provincia": "Diguillín", "comuna": "Pinto", "globalid": "d31fcfd4-ec72-4f15-bba4-11e4e273326f", "latitud": -36.81704, "longitud": -71.71739 }, "geometry": { "type": "Point", "coordinates": [ -71.71739, -36.81704 ] } },
{ "type": "Feature", "properties": { "objectid": 22058, "dependencia": "MUNICIPAL", "nombre_establecimiento": "ESCUELA LAS HORMIGAS", "rbd": "3921", "dgv_rbd": null, "estado": null, "direccion": null, "urbano_rural": "RURAL", "matricula": 11, "tipo": null, "cut_reg": "16", "cut_prov": "161", "cut_com": "16106", "region": "Ñuble", "provincia": "Diguillín", "comuna": "Pinto", "globalid": "c13ac5fb-ec98-46b6-8b87-4b85737519d5", "latitud": -36.81116, "longitud": -71.82729 }, "geometry": { "type": "Point", "coordinates": [ -71.82729, -36.81116 ] } },
{ "type": "Feature", "properties": { "objectid": 22083, "dependencia": "SLEP", "nombre_establecimiento": "ESCUELA EL RODEO", "rbd": "12018", "dgv_rbd": null, "estado": null, "direccion": null, "urbano_rural": "RURAL", "matricula": 7, "tipo": null, "cut_reg": "16", "cut_prov": "161", "cut_com": "16106", "region": "Ñuble", "provincia": "Diguillín", "comuna": "Pinto", "globalid": "611e6007-d38c-4b99-b5fa-a6dbf96cda24", "latitud": -36.80471, "longitud": -71.81334 }, "geometry": { "type": "Point", "coordinates": [ -71.81334, -36.80471 ] } },
{ "type": "Feature", "properties": { "objectid": 22132, "dependencia": "SLEP", "nombre_establecimiento": "ESCUELA HECTOR MANUEL ARIAS CORTES", "rbd": "3876", "dgv_rbd": null, "estado": null, "direccion": null, "urbano_rural": "RURAL", "matricula": 22, "tipo": null, "cut_reg": "16", "cut_prov": "161", "cut_com": "16106", "region": "Ñuble", "provincia": "Diguillín", "comuna": "Pinto", "globalid": "1697a3b8-a6e4-4aec-8f92-f600888a1d86", "latitud": -36.79132, "longitud": -71.83364 }, "geometry": { "type": "Point", "coordinates": [ -71.83364, -36.79132 ] } },
{ "type": "Feature", "properties": { "objectid": 22190, "dependencia": "PARTICULAR SUBVENCIONADO", "nombre_establecimiento": "ESCUELA AGROECOLÓGICAS LAS ISLAS", "rbd": "3869", "dgv_rbd": null, "estado": null, "direccion": null, "urbano_rural": "RURAL", "matricula": 12, "tipo": null, "cut_reg": "16", "cut_prov": "163", "cut_com": "16302", "region": "Ñuble", "provincia": "Punilla", "comuna": "Coihueco", "globalid": "4b3b4543-7f65-47cb-9ace-6f1705114ba7", "latitud": -36.77226, "longitud": -71.78058 }, "geometry": { "type": "Point", "coordinates": [ -71.78058, -36.77226 ] } },
{ "type": "Feature", "properties": { "objectid": 23194, "dependencia": "SLEP", "nombre_establecimiento": "ESCUELA BENJAMIN VICUNA MACKENNA", "rbd": "3857", "dgv_rbd": null, "estado": null, "direccion": null, "urbano_rural": "RURAL", "matricula": 15, "tipo": null, "cut_reg": "16", "cut_prov": "163", "cut_com": "16302", "region": "Ñuble", "provincia": "Punilla", "comuna": "Coihueco", "globalid": "36c61e59-23fe-4472-a010-1e8d81404ec0", "latitud": -36.74461, "longitud": -71.80239 }, "geometry": { "type": "Point", "coordinates": [ -71.80239, -36.74461 ] } },
{ "type": "Feature", "properties": { "objectid": 23355, "dependencia": "SLEP", "nombre_establecimiento": "ESCUELA BASICA TANILVORO", "rbd": "3838", "dgv_rbd": null, "estado": null, "direccion": null, "urbano_rural": "RURAL", "matricula": 70, "tipo": null, "cut_reg": "16", "cut_prov": "163", "cut_com": "16302", "region": "Ñuble", "provincia": "Punilla", "comuna": "Coihueco", "globalid": "3164aef5-5d91-4b78-8d99-923722a2ad1a", "latitud": -36.73629, "longitud": -71.81365 }, "geometry": { "type": "Point", "coordinates": [ -71.81365, -36.73629 ] } },
{ "type": "Feature", "properties": { "objectid": 23407, "dependencia": "INTEGRA", "nombre_establecimiento": "MI CABAÑA", "rbd": "I171802", "dgv_rbd": null, "estado": null, "direccion": null, "urbano_rural": "RURAL", "matricula": 18, "tipo": null, "cut_reg": "16", "cut_prov": "163", "cut_com": "16302", "region": "Ñuble", "provincia": "Punilla", "comuna": "Coihueco", "globalid": "20fcd0ca-a366-4fdc-85c4-69204cfb9c65", "latitud": -36.724462, "longitud": -71.822494 }, "geometry": { "type": "Point", "coordinates": [ -71.82249, -36.72446 ] } },
{ "type": "Feature", "properties": { "objectid": 23420, "dependencia": "SLEP", "nombre_establecimiento": "ESCUELA BASICA JUAN JORGE", "rbd": "3883", "dgv_rbd": null, "estado": null, "direccion": null, "urbano_rural": "RURAL", "matricula": 77, "tipo": null, "cut_reg": "16", "cut_prov": "161", "cut_com": "16106", "region": "Ñuble", "provincia": "Diguillín", "comuna": "Pinto", "globalid": "b87020b7-76ab-4ae0-a8ed-542540c18726", "latitud": -36.72376, "longitud": -71.84131 }, "geometry": { "type": "Point", "coordinates": [ -71.84131, -36.72376 ] } },
{ "type": "Feature", "properties": { "objectid": 23495, "dependencia": "INTEGRA", "nombre_establecimiento": "GIRASOL", "rbd": "I170602", "dgv_rbd": null, "estado": null, "direccion": null, "urbano_rural": "RURAL", "matricula": 21, "tipo": null, "cut_reg": "16", "cut_prov": "161", "cut_com": "16106", "region": "Ñuble", "provincia": "Diguillín", "comuna": "Pinto", "globalid": "cc7d5ef1-f087-464b-a1c9-af0409ff8182", "latitud": -36.720353, "longitud": -71.848146 }, "geometry": { "type": "Point", "coordinates": [ -71.84815, -36.72035 ] } },
{ "type": "Feature", "properties": { "objectid": 23583, "dependencia": "SLEP", "nombre_establecimiento": "ESCUELA SAN ALFONSO", "rbd": "3884", "dgv_rbd": null, "estado": null, "direccion": null, "urbano_rural": "RURAL", "matricula": 10, "tipo": null, "cut_reg": "16", "cut_prov": "161", "cut_com": "16106", "region": "Ñuble", "provincia": "Diguillín", "comuna": "Pinto", "globalid": "7df36aca-f491-4008-8606-d3cbb4cfd07b", "latitud": -36.71294, "longitud": -71.86695 }, "geometry": { "type": "Point", "coordinates": [ -71.86695, -36.71294 ] } },
{ "type": "Feature", "properties": { "objectid": 23621, "dependencia": "SLEP", "nombre_establecimiento": "ESCUELA PUERTA DE LA CORDILLERA", "rbd": "11704", "dgv_rbd": null, "estado": null, "direccion": null, "urbano_rural": "URBANO", "matricula": 390, "tipo": null, "cut_reg": "16", "cut_prov": "161", "cut_com": "16106", "region": "Ñuble", "provincia": "Diguillín", "comuna": "Pinto", "globalid": "493a5c7c-b08c-4178-905f-6e72e9cc892d", "latitud": -36.70543, "longitud": -71.89205 }, "geometry": { "type": "Point", "coordinates": [ -71.89205, -36.70543 ] } },
{ "type": "Feature", "properties": { "objectid": 23629, "dependencia": "PARTICULAR SUBVENCIONADO", "nombre_establecimiento": "COLEGIO FRANCISCO DE ASIS", "rbd": "3885", "dgv_rbd": null, "estado": null, "direccion": null, "urbano_rural": "URBANO", "matricula": 664, "tipo": null, "cut_reg": "16", "cut_prov": "161", "cut_com": "16106", "region": "Ñuble", "provincia": "Diguillín", "comuna": "Pinto", "globalid": "0a3d2770-bb62-4ac0-8a83-f24586c14624", "latitud": -36.70467, "longitud": -71.89025 }, "geometry": { "type": "Point", "coordinates": [ -71.89025, -36.70467 ] } },
{ "type": "Feature", "properties": { "objectid": 23633, "dependencia": "SLEP", "nombre_establecimiento": "LICEO BICENTENARIO POLITÉCNICO JOSÉ MANUEL PINTO ARIAS", "rbd": "3871", "dgv_rbd": null, "estado": null, "direccion": null, "urbano_rural": "URBANO", "matricula": 416, "tipo": null, "cut_reg": "16", "cut_prov": "161", "cut_com": "16106", "region": "Ñuble", "provincia": "Diguillín", "comuna": "Pinto", "globalid": "7d572bf5-4692-48d2-a818-9ab1414627a2", "latitud": -36.70417, "longitud": -71.89411 }, "geometry": { "type": "Point", "coordinates": [ -71.89411, -36.70417 ] } },
{ "type": "Feature", "properties": { "objectid": 23637, "dependencia": "PARTICULAR SUBVENCIONADO", "nombre_establecimiento": "ESCUELA PARTICULAR AMANECER", "rbd": "3870", "dgv_rbd": null, "estado": null, "direccion": null, "urbano_rural": "RURAL", "matricula": 2, "tipo": null, "cut_reg": "16", "cut_prov": "163", "cut_com": "16302", "region": "Ñuble", "provincia": "Punilla", "comuna": "Coihueco", "globalid": "35fcb426-d33e-4b4a-8417-f6f3fff2c8bd", "latitud": -36.70402, "longitud": -71.72982 }, "geometry": { "type": "Point", "coordinates": [ -71.72982, -36.70402 ] } },
{ "type": "Feature", "properties": { "objectid": 23641, "dependencia": "INTEGRA", "nombre_establecimiento": "PETETÍN", "rbd": "I170601", "dgv_rbd": null, "estado": null, "direccion": null, "urbano_rural": "URBANO", "matricula": 109, "tipo": null, "cut_reg": "16", "cut_prov": "161", "cut_com": "16106", "region": "Ñuble", "provincia": "Diguillín", "comuna": "Pinto", "globalid": "bccae834-0da2-48cf-9b43-693b1eba268b", "latitud": -36.701499, "longitud": -71.892316 }, "geometry": { "type": "Point", "coordinates": [ -71.89232, -36.7015 ] } },
{ "type": "Feature", "properties": { "objectid": 23646, "dependencia": "JUNJI - VTF", "nombre_establecimiento": "CAPULLO DE ROSA", "rbd": "J16106002", "dgv_rbd": null, "estado": null, "direccion": null, "urbano_rural": "RURAL", "matricula": 18, "tipo": null, "cut_reg": "16", "cut_prov": "161", "cut_com": "16106", "region": "Ñuble", "provincia": "Diguillín", "comuna": "Pinto", "globalid": "28a9edff-e624-4b0a-9bbc-79c8bdf3afad", "latitud": -36.7009775, "longitud": -71.9003988 }, "geometry": { "type": "Point", "coordinates": [ -71.9004, -36.70098 ] } },
{ "type": "Feature", "properties": { "objectid": 23661, "dependencia": "SLEP", "nombre_establecimiento": "ESCUELA MANUEL MATUS HERMOSILLA", "rbd": "3856", "dgv_rbd": null, "estado": null, "direccion": null, "urbano_rural": "RURAL", "matricula": 168, "tipo": null, "cut_reg": "16", "cut_prov": "163", "cut_com": "16302", "region": "Ñuble", "provincia": "Punilla", "comuna": "Coihueco", "globalid": "b1fed6f5-5438-448a-a2e2-f443ab541f38", "latitud": -36.68533, "longitud": -71.89217 }, "geometry": { "type": "Point", "coordinates": [ -71.89217, -36.68533 ] } },
{ "type": "Feature", "properties": { "objectid": 23701, "dependencia": "SLEP", "nombre_establecimiento": "ESCUELA GUARDIA MARINA ERNESTO RIQUELME", "rbd": "3841", "dgv_rbd": null, "estado": null, "direccion": null, "urbano_rural": "RURAL", "matricula": 116, "tipo": null, "cut_reg": "16", "cut_prov": "163", "cut_com": "16302", "region": "Ñuble", "provincia": "Punilla", "comuna": "Coihueco", "globalid": "cb2e00ad-5cad-4b3c-9fe8-7bce5aa1d133", "latitud": -36.66741, "longitud": -71.70734 }, "geometry": { "type": "Point", "coordinates": [ -71.70734, -36.66741 ] } },
{ "type": "Feature", "properties": { "objectid": 23705, "dependencia": "INTEGRA", "nombre_establecimiento": "MINAS DEL PRADO", "rbd": "I171806", "dgv_rbd": null, "estado": null, "direccion": null, "urbano_rural": "RURAL", "matricula": 18, "tipo": null, "cut_reg": "16", "cut_prov": "163", "cut_com": "16302", "region": "Ñuble", "provincia": "Punilla", "comuna": "Coihueco", "globalid": "9c94e691-c249-425d-871e-e118295e5679", "latitud": -36.667357, "longitud": -71.706761 }, "geometry": { "type": "Point", "coordinates": [ -71.70676, -36.66736 ] } },
{ "type": "Feature", "properties": { "objectid": 23709, "dependencia": "PARTICULAR SUBVENCIONADO", "nombre_establecimiento": "ESCUELA PARTIC.LOS ALTOS DE MIRAFLORES", "rbd": "3867", "dgv_rbd": null, "estado": null, "direccion": null, "urbano_rural": "RURAL", "matricula": 43, "tipo": null, "cut_reg": "16", "cut_prov": "163", "cut_com": "16302", "region": "Ñuble", "provincia": "Punilla", "comuna": "Coihueco", "globalid": "2cbefe4e-a4d1-4728-91be-c6207162c727", "latitud": -36.66628, "longitud": -71.8426 }, "geometry": { "type": "Point", "coordinates": [ -71.8426, -36.66628 ] } },
{ "type": "Feature", "properties": { "objectid": 23717, "dependencia": "SLEP", "nombre_establecimiento": "ESCUELA CANCHA RAYADA", "rbd": "3854", "dgv_rbd": null, "estado": null, "direccion": null, "urbano_rural": "RURAL", "matricula": 9, "tipo": null, "cut_reg": "16", "cut_prov": "163", "cut_com": "16302", "region": "Ñuble", "provincia": "Punilla", "comuna": "Coihueco", "globalid": "f886c5ab-1fe8-405e-9172-d449f7b5091f", "latitud": -36.66408, "longitud": -71.77775 }, "geometry": { "type": "Point", "coordinates": [ -71.77775, -36.66408 ] } },
{ "type": "Feature", "properties": { "objectid": 23747, "dependencia": "SLEP", "nombre_establecimiento": "ESCUELA BÁSICA JOSÉ ANDRES LEIVA LEIVA", "rbd": "3829", "dgv_rbd": null, "estado": null, "direccion": null, "urbano_rural": "RURAL", "matricula": 34, "tipo": null, "cut_reg": "16", "cut_prov": "163", "cut_com": "16304", "region": "Ñuble", "provincia": "Punilla", "comuna": "San Fabián", "globalid": "1843401a-6bd0-440e-b3b4-d3394dfc058b", "latitud": -36.65161, "longitud": -71.39523 }, "geometry": { "type": "Point", "coordinates": [ -71.39523, -36.65161 ] } },
{ "type": "Feature", "properties": { "objectid": 23766, "dependencia": "JUNJI - VTF", "nombre_establecimiento": "MONTAÑA DE ESPERANZA", "rbd": "J16302004", "dgv_rbd": null, "estado": null, "direccion": null, "urbano_rural": "RURAL", "matricula": 14, "tipo": null, "cut_reg": "16", "cut_prov": "163", "cut_com": "16302", "region": "Ñuble", "provincia": "Punilla", "comuna": "Coihueco", "globalid": "8369ba16-fbc9-4439-96af-132520330490", "latitud": -36.64502923000001, "longitud": -71.81004035000001 }, "geometry": { "type": "Point", "coordinates": [ -71.81004, -36.64503 ] } },
{ "type": "Feature", "properties": { "objectid": 23844, "dependencia": "PARTICULAR SUBVENCIONADO", "nombre_establecimiento": "YIRE LICEO POLITECNICO DE COIHUECO", "rbd": "17848", "dgv_rbd": null, "estado": null, "direccion": null, "urbano_rural": "URBANO", "matricula": 466, "tipo": null, "cut_reg": "16", "cut_prov": "163", "cut_com": "16302", "region": "Ñuble", "provincia": "Punilla", "comuna": "Coihueco", "globalid": "50434783-41be-4496-be67-91a4ddef49d0", "latitud": -36.63216, "longitud": -71.84135 }, "geometry": { "type": "Point", "coordinates": [ -71.84135, -36.63216 ] } },
{ "type": "Feature", "properties": { "objectid": 23852, "dependencia": "JUNJI", "nombre_establecimiento": "FRUTOS DEL COIHUE", "rbd": "J16302005", "dgv_rbd": null, "estado": null, "direccion": null, "urbano_rural": "URBANO", "matricula": 48, "tipo": null, "cut_reg": "16", "cut_prov": "163", "cut_com": "16302", "region": "Ñuble", "provincia": "Punilla", "comuna": "Coihueco", "globalid": "5973118e-b54b-439e-8fed-db9649833c88", "latitud": -36.632, "longitud": -71.826686 }, "geometry": { "type": "Point", "coordinates": [ -71.82669, -36.632 ] } },
{ "type": "Feature", "properties": { "objectid": 23874, "dependencia": "SLEP", "nombre_establecimiento": "ESCUELA BÁSICA EMBALSE COIHUECO", "rbd": "3846", "dgv_rbd": null, "estado": null, "direccion": null, "urbano_rural": "RURAL", "matricula": 15, "tipo": null, "cut_reg": "16", "cut_prov": "163", "cut_com": "16302", "region": "Ñuble", "provincia": "Punilla", "comuna": "Coihueco", "globalid": "0c2e0ca9-7456-40c5-b3e4-b8f494bd501d", "latitud": -36.63076, "longitud": -71.78705 }, "geometry": { "type": "Point", "coordinates": [ -71.78705, -36.63076 ] } },
{ "type": "Feature", "properties": { "objectid": 23887, "dependencia": "SLEP", "nombre_establecimiento": "LICEO BICENTENARIO CLAUDIO ARRAU LEÓN", "rbd": "17662", "dgv_rbd": null, "estado": null, "direccion": null, "urbano_rural": "URBANO", "matricula": 615, "tipo": null, "cut_reg": "16", "cut_prov": "163", "cut_com": "16302", "region": "Ñuble", "provincia": "Punilla", "comuna": "Coihueco", "globalid": "95d93dcd-5c66-4e5b-bd9a-c98370c35031", "latitud": -36.63054, "longitud": -71.83753 }, "geometry": { "type": "Point", "coordinates": [ -71.83753, -36.63054 ] } },
{ "type": "Feature", "properties": { "objectid": 23908, "dependencia": "SLEP", "nombre_establecimiento": "ESCUELA MARTA COLVIN ANDRADE", "rbd": "18012", "dgv_rbd": null, "estado": null, "direccion": null, "urbano_rural": "URBANO", "matricula": 327, "tipo": null, "cut_reg": "16", "cut_prov": "163", "cut_com": "16302", "region": "Ñuble", "provincia": "Punilla", "comuna": "Coihueco", "globalid": "7971450b-fa32-4186-b0f1-46a25dd13e28", "latitud": -36.63003, "longitud": -71.83635 }, "geometry": { "type": "Point", "coordinates": [ -71.83635, -36.63003 ] } },
{ "type": "Feature", "properties": { "objectid": 23937, "dependencia": "PARTICULAR SUBVENCIONADO", "nombre_establecimiento": "ESCUELA ESPECIAL DE LENGUAJE ABRAPALABRA", "rbd": "18191", "dgv_rbd": null, "estado": null, "direccion": null, "urbano_rural": "URBANO", "matricula": 101, "tipo": null, "cut_reg": "16", "cut_prov": "163", "cut_com": "16302", "region": "Ñuble", "provincia": "Punilla", "comuna": "Coihueco", "globalid": "d11fd428-3d8b-4beb-88ab-3e314b1d7c57", "latitud": -36.62891, "longitud": -71.84045 }, "geometry": { "type": "Point", "coordinates": [ -71.84045, -36.62891 ] } },
{ "type": "Feature", "properties": { "objectid": 23943, "dependencia": "PARTICULAR SUBVENCIONADO", "nombre_establecimiento": "COLEGIO CUMBRES DE COIHUECO", "rbd": "16919", "dgv_rbd": null, "estado": null, "direccion": null, "urbano_rural": "URBANO", "matricula": 466, "tipo": null, "cut_reg": "16", "cut_prov": "163", "cut_com": "16302", "region": "Ñuble", "provincia": "Punilla", "comuna": "Coihueco", "globalid": "a05d62cf-5169-467b-b99c-bf2d337390b7", "latitud": -36.62828, "longitud": -71.82796 }, "geometry": { "type": "Point", "coordinates": [ -71.82796, -36.62828 ] } },
{ "type": "Feature", "properties": { "objectid": 23947, "dependencia": "PARTICULAR SUBVENCIONADO", "nombre_establecimiento": "COLEGIO LORENZO MONDANELLI", "rbd": "12046", "dgv_rbd": null, "estado": null, "direccion": null, "urbano_rural": "URBANO", "matricula": 481, "tipo": null, "cut_reg": "16", "cut_prov": "163", "cut_com": "16302", "region": "Ñuble", "provincia": "Punilla", "comuna": "Coihueco", "globalid": "348ee230-6fb2-4eff-8cb1-83c62527ab93", "latitud": -36.62814, "longitud": -71.83086 }, "geometry": { "type": "Point", "coordinates": [ -71.83086, -36.62814 ] } },
{ "type": "Feature", "properties": { "objectid": 23951, "dependencia": "JUNJI - VTF", "nombre_establecimiento": "ILUSIONES DE NIÑO", "rbd": "J16302001", "dgv_rbd": null, "estado": null, "direccion": null, "urbano_rural": "URBANO", "matricula": 83, "tipo": null, "cut_reg": "16", "cut_prov": "163", "cut_com": "16302", "region": "Ñuble", "provincia": "Punilla", "comuna": "Coihueco", "globalid": "b54d10d8-4084-4d3d-9d82-9b08a2fe6ce8", "latitud": -36.628137, "longitud": -71.831791 }, "geometry": { "type": "Point", "coordinates": [ -71.83179, -36.62814 ] } },
{ "type": "Feature", "properties": { "objectid": 23963, "dependencia": "SLEP", "nombre_establecimiento": "ESCUELA BRITANICA GUILLERMINA DRAKE WOOD", "rbd": "3835", "dgv_rbd": null, "estado": null, "direccion": null, "urbano_rural": "URBANO", "matricula": 476, "tipo": null, "cut_reg": "16", "cut_prov": "163", "cut_com": "16302", "region": "Ñuble", "provincia": "Punilla", "comuna": "Coihueco", "globalid": "effab131-6f9a-46ea-8f58-0c6f94097b6d", "latitud": -36.62779, "longitud": -71.8325 }, "geometry": { "type": "Point", "coordinates": [ -71.8325, -36.62779 ] } },
{ "type": "Feature", "properties": { "objectid": 24017, "dependencia": "INTEGRA", "nombre_establecimiento": "IRENE CERDA DÍAZ", "rbd": "I171801", "dgv_rbd": null, "estado": null, "direccion": null, "urbano_rural": "URBANO", "matricula": 65, "tipo": null, "cut_reg": "16", "cut_prov": "163", "cut_com": "16302", "region": "Ñuble", "provincia": "Punilla", "comuna": "Coihueco", "globalid": "9be15ab3-e2cf-4c40-89aa-7910eac53542", "latitud": -36.625189, "longitud": -71.830417 }, "geometry": { "type": "Point", "coordinates": [ -71.83042, -36.62519 ] } },
{ "type": "Feature", "properties": { "objectid": 24109, "dependencia": "PARTICULAR SUBVENCIONADO", "nombre_establecimiento": "ESCUELA ESPECIAL DE LENGUAJE PEQUEÑOS SUEÑOS", "rbd": "18195", "dgv_rbd": null, "estado": null, "direccion": null, "urbano_rural": "URBANO", "matricula": 177, "tipo": null, "cut_reg": "16", "cut_prov": "163", "cut_com": "16302", "region": "Ñuble", "provincia": "Punilla", "comuna": "Coihueco", "globalid": "266c2b7c-f3f2-412e-8158-1533922a0dbb", "latitud": -36.62095, "longitud": -71.82774 }, "geometry": { "type": "Point", "coordinates": [ -71.82774, -36.62095 ] } },
{ "type": "Feature", "properties": { "objectid": 24250, "dependencia": "SLEP", "nombre_establecimiento": "ESCUELA BASICA FABIAN DE LA FUENTE", "rbd": "3832", "dgv_rbd": null, "estado": null, "direccion": null, "urbano_rural": "RURAL", "matricula": 13, "tipo": null, "cut_reg": "16", "cut_prov": "163", "cut_com": "16304", "region": "Ñuble", "provincia": "Punilla", "comuna": "San Fabián", "globalid": "024a8302-c4f6-4be0-a672-dbc6a1b51354", "latitud": -36.61526, "longitud": -71.44461 }, "geometry": { "type": "Point", "coordinates": [ -71.44461, -36.61526 ] } },
{ "type": "Feature", "properties": { "objectid": 24360, "dependencia": "JUNJI - VTF", "nombre_establecimiento": "ESTACION DE TERNURA", "rbd": "J16302003", "dgv_rbd": null, "estado": null, "direccion": null, "urbano_rural": "RURAL", "matricula": 16, "tipo": null, "cut_reg": "16", "cut_prov": "163", "cut_com": "16302", "region": "Ñuble", "provincia": "Punilla", "comuna": "Coihueco", "globalid": "bd9ea185-70d0-4270-b57a-94a7d952b5ac", "latitud": -36.61048026, "longitud": -71.78461786 }, "geometry": { "type": "Point", "coordinates": [ -71.78462, -36.61048 ] } },
{ "type": "Feature", "properties": { "objectid": 24629, "dependencia": "SLEP", "nombre_establecimiento": "ESCUELA BASICA NIBLINTO", "rbd": "3840", "dgv_rbd": null, "estado": null, "direccion": null, "urbano_rural": "RURAL", "matricula": 97, "tipo": null, "cut_reg": "16", "cut_prov": "163", "cut_com": "16302", "region": "Ñuble", "provincia": "Punilla", "comuna": "Coihueco", "globalid": "7932c5b0-cd33-4dc8-8d74-beee3675c879", "latitud": -36.5996, "longitud": -71.77553 }, "geometry": { "type": "Point", "coordinates": [ -71.77553, -36.5996 ] } },
{ "type": "Feature", "properties": { "objectid": 24718, "dependencia": "SLEP", "nombre_establecimiento": "ESCUELA HEROES DE IQUIQUE", "rbd": "3842", "dgv_rbd": null, "estado": null, "direccion": null, "urbano_rural": "RURAL", "matricula": 159, "tipo": null, "cut_reg": "16", "cut_prov": "163", "cut_com": "16302", "region": "Ñuble", "provincia": "Punilla", "comuna": "Coihueco", "globalid": "6c648f5d-c166-42b0-a602-28e8bac991c7", "latitud": -36.59037, "longitud": -71.76606 }, "geometry": { "type": "Point", "coordinates": [ -71.76606, -36.59037 ] } },
{ "type": "Feature", "properties": { "objectid": 24724, "dependencia": "INTEGRA", "nombre_establecimiento": "LOS CASTORCITOS", "rbd": "I171804", "dgv_rbd": null, "estado": null, "direccion": null, "urbano_rural": "RURAL", "matricula": 26, "tipo": null, "cut_reg": "16", "cut_prov": "163", "cut_com": "16302", "region": "Ñuble", "provincia": "Punilla", "comuna": "Coihueco", "globalid": "7fd55f51-a54f-4328-a0da-3cf51452881e", "latitud": -36.587454, "longitud": -71.7476 }, "geometry": { "type": "Point", "coordinates": [ -71.7476, -36.58745 ] } },
{ "type": "Feature", "properties": { "objectid": 24782, "dependencia": "SLEP", "nombre_establecimiento": "ESCUELA JULIO MONTT SALAMANCA", "rbd": "3853", "dgv_rbd": null, "estado": null, "direccion": null, "urbano_rural": "RURAL", "matricula": 9, "tipo": null, "cut_reg": "16", "cut_prov": "163", "cut_com": "16302", "region": "Ñuble", "provincia": "Punilla", "comuna": "Coihueco", "globalid": "ec838d21-6f20-4677-966e-110136dc77ab", "latitud": -36.56039, "longitud": -71.76277 }, "geometry": { "type": "Point", "coordinates": [ -71.76277, -36.56039 ] } },
{ "type": "Feature", "properties": { "objectid": 24794, "dependencia": "SLEP", "nombre_establecimiento": "LICEO BICENTENARIO POLIVALENTE JORGE ALESSANDRI RODRIGUEZ", "rbd": "3823", "dgv_rbd": null, "estado": null, "direccion": null, "urbano_rural": "URBANO", "matricula": 707, "tipo": null, "cut_reg": "16", "cut_prov": "163", "cut_com": "16304", "region": "Ñuble", "provincia": "Punilla", "comuna": "San Fabián", "globalid": "eb4eeb04-cf83-4a1b-9ade-b85466a83572", "latitud": -36.55625, "longitud": -71.5497 }, "geometry": { "type": "Point", "coordinates": [ -71.5497, -36.55625 ] } },
{ "type": "Feature", "properties": { "objectid": 24798, "dependencia": "INTEGRA", "nombre_establecimiento": "PULGARCITO", "rbd": "I172001", "dgv_rbd": null, "estado": null, "direccion": null, "urbano_rural": "URBANO", "matricula": 26, "tipo": null, "cut_reg": "16", "cut_prov": "163", "cut_com": "16304", "region": "Ñuble", "provincia": "Punilla", "comuna": "San Fabián", "globalid": "7bce95b8-bcbd-41b5-ac23-099f6720d40d", "latitud": -36.556109, "longitud": -71.550299 }, "geometry": { "type": "Point", "coordinates": [ -71.5503, -36.55611 ] } },
{ "type": "Feature", "properties": { "objectid": 24812, "dependencia": "JUNJI - VTF", "nombre_establecimiento": "ARCO IRIS", "rbd": "J16304001", "dgv_rbd": null, "estado": null, "direccion": null, "urbano_rural": "URBANO", "matricula": 48, "tipo": null, "cut_reg": "16", "cut_prov": "163", "cut_com": "16304", "region": "Ñuble", "provincia": "Punilla", "comuna": "San Fabián", "globalid": "1a496db0-615a-4fad-8362-e99c9789892a", "latitud": -36.55373033, "longitud": -71.55119381 }, "geometry": { "type": "Point", "coordinates": [ -71.55119, -36.55373 ] } }
]
}
