{
"type": "FeatureCollection",
"name": "NLO",
"crs": { "type": "name", "properties": { "name": "urn:ogc:def:crs:OGC:1.3:CRS84" } },
"xy_coordinate_resolution": 1e-05,
"features": [
{ "type": "Feature", "properties": { "objectid": 23121, "dependencia": "SLEP", "nombre_establecimiento": "ESCUELA BASICA LOS COIGUES", "rbd": "3828", "dgv_rbd": null, "estado": null, "direccion": null, "urbano_rural": "RURAL", "matricula": 7, "tipo": null, "cut_reg": "16", "cut_prov": "163", "cut_com": "16304", "region": "Ñuble", "provincia": "Punilla", "comuna": "San Fabián", "globalid": "66c374bd-182e-4791-b834-ca62855d6790", "latitud": -36.44203, "longitud": -71.61311 }, "geometry": { "type": "Point", "coordinates": [ -71.61311, -36.44203 ] } },
{ "type": "Feature", "properties": { "objectid": 23295, "dependencia": "PARTICULAR SUBVENCIONADO", "nombre_establecimiento": "INSTITUTO CUMBRES DE MAULE", "rbd": "16456", "dgv_rbd": null, "estado": null, "direccion": null, "urbano_rural": "RURAL", "matricula": 138, "tipo": null, "cut_reg": "07", "cut_prov": "074", "cut_com": "07404", "region": "Maule", "provincia": "Linares", "comuna": "Parral", "globalid": "d050537f-94d2-4ae3-b484-3279e83e90ab", "latitud": -36.41028, "longitud": -71.50139 }, "geometry": { "type": "Point", "coordinates": [ -71.50139, -36.41028 ] } },
{ "type": "Feature", "properties": { "objectid": 23299, "dependencia": "SLEP", "nombre_establecimiento": "ESCUELA BASICA TRABUNCURA", "rbd": "3833", "dgv_rbd": null, "estado": null, "direccion": null, "urbano_rural": "RURAL", "matricula": 38, "tipo": null, "cut_reg": "16", "cut_prov": "163", "cut_com": "16304", "region": "Ñuble", "provincia": "Punilla", "comuna": "San Fabián", "globalid": "2597feda-64f6-4b0c-abb7-0a688156f01b", "latitud": -36.40848, "longitud": -71.618 }, "geometry": { "type": "Point", "coordinates": [ -71.618, -36.40848 ] } },
{ "type": "Feature", "properties": { "objectid": 23308, "dependencia": "JUNJI", "nombre_establecimiento": "TRABUNCURA - BOSQUECITO DE PINOS", "rbd": "J16304002", "dgv_rbd": null, "estado": null, "direccion": null, "urbano_rural": "RURAL", "matricula": 12, "tipo": null, "cut_reg": "16", "cut_prov": "163", "cut_com": "16304", "region": "Ñuble", "provincia": "Punilla", "comuna": "San Fabián", "globalid": "9b095479-54ca-4425-b74b-83b2f8f36844", "latitud": -36.408114, "longitud": -71.617682 }, "geometry": { "type": "Point", "coordinates": [ -71.61768, -36.40811 ] } },
{ "type": "Feature", "properties": { "objectid": 23443, "dependencia": "MUNICIPAL", "nombre_establecimiento": "COLEGIO ALBERTO MOLINA CASTILLO", "rbd": "3400", "dgv_rbd": null, "estado": null, "direccion": null, "urbano_rural": "RURAL", "matricula": 207, "tipo": null, "cut_reg": "07", "cut_prov": "074", "cut_com": "07404", "region": "Maule", "provincia": "Linares", "comuna": "Parral", "globalid": "065e452d-c34c-430d-8c68-bc74e5ede211", "latitud": -36.29127, "longitud": -71.65125 }, "geometry": { "type": "Point", "coordinates": [ -71.65125, -36.29127 ] } },
{ "type": "Feature", "properties": { "objectid": 23450, "dependencia": "JUNJI", "nombre_establecimiento": "LOS ENANITOS", "rbd": "J7404003", "dgv_rbd": null, "estado": null, "direccion": null, "urbano_rural": "URBANO", "matricula": 19, "tipo": null, "cut_reg": "07", "cut_prov": "074", "cut_com": "07404", "region": "Maule", "provincia": "Linares", "comuna": "Parral", "globalid": "3d9f118f-c575-4663-a23b-e3a0781aa3ee", "latitud": -36.290652, "longitud": -71.650339 }, "geometry": { "type": "Point", "coordinates": [ -71.65034, -36.29065 ] } },
{ "type": "Feature", "properties": { "objectid": 23530, "dependencia": "MUNICIPAL", "nombre_establecimiento": "ESCUELA EL LIBERTADOR", "rbd": "3401", "dgv_rbd": null, "estado": null, "direccion": null, "urbano_rural": "RURAL", "matricula": 150, "tipo": null, "cut_reg": "07", "cut_prov": "074", "cut_com": "07404", "region": "Maule", "provincia": "Linares", "comuna": "Parral", "globalid": "1b0c9710-1cbf-4636-8699-3f1f81087c96", "latitud": -36.25581, "longitud": -71.6908 }, "geometry": { "type": "Point", "coordinates": [ -71.6908, -36.25581 ] } },
{ "type": "Feature", "properties": { "objectid": 23548, "dependencia": "MUNICIPAL", "nombre_establecimiento": "ESCUELA SOFIA VASQUEZ REBOLLEDO", "rbd": "3378", "dgv_rbd": null, "estado": null, "direccion": null, "urbano_rural": "RURAL", "matricula": 3, "tipo": null, "cut_reg": "07", "cut_prov": "074", "cut_com": "07403", "region": "Maule", "provincia": "Linares", "comuna": "Longaví", "globalid": "226aba58-9632-4c2d-accf-cd5237f6d795", "latitud": -36.22355, "longitud": -71.42552 }, "geometry": { "type": "Point", "coordinates": [ -71.42552, -36.22355 ] } },
{ "type": "Feature", "properties": { "objectid": 23552, "dependencia": "PARTICULAR SUBVENCIONADO", "nombre_establecimiento": "ESCUELA DE LENGUAJE PALABRITAS", "rbd": "41619", "dgv_rbd": null, "estado": null, "direccion": null, "urbano_rural": "RURAL", "matricula": 41, "tipo": null, "cut_reg": "07", "cut_prov": "074", "cut_com": "07405", "region": "Maule", "provincia": "Linares", "comuna": "Retiro", "globalid": "83c5b06f-4860-40cf-a4de-a6ccc1432039", "latitud": -36.21602, "longitud": -71.60702 }, "geometry": { "type": "Point", "coordinates": [ -71.60702, -36.21602 ] } },
{ "type": "Feature", "properties": { "objectid": 23556, "dependencia": "JUNJI - VTF", "nombre_establecimiento": "MIS PRIMEROS PASITOS", "rbd": "J7405008", "dgv_rbd": null, "estado": null, "direccion": null, "urbano_rural": "RURAL", "matricula": 36, "tipo": null, "cut_reg": "07", "cut_prov": "074", "cut_com": "07405", "region": "Maule", "provincia": "Linares", "comuna": "Retiro", "globalid": "6b5f1804-a8ee-4281-b6d0-b1ae6d329e75", "latitud": -36.212496, "longitud": -71.605594 }, "geometry": { "type": "Point", "coordinates": [ -71.60559, -36.2125 ] } },
{ "type": "Feature", "properties": { "objectid": 23560, "dependencia": "MUNICIPAL", "nombre_establecimiento": "COLEGIO ROBINSON CABRERA BELTRAN", "rbd": "3443", "dgv_rbd": null, "estado": null, "direccion": null, "urbano_rural": "RURAL", "matricula": 339, "tipo": null, "cut_reg": "07", "cut_prov": "074", "cut_com": "07405", "region": "Maule", "provincia": "Linares", "comuna": "Retiro", "globalid": "94e884ea-8632-4894-b10a-a5f3055d88b6", "latitud": -36.21185, "longitud": -71.60596 }, "geometry": { "type": "Point", "coordinates": [ -71.60596, -36.21185 ] } },
{ "type": "Feature", "properties": { "objectid": 23568, "dependencia": "PARTICULAR SUBVENCIONADO", "nombre_establecimiento": "COLEGIO BICENTENARIO POLIVALENTE LAS CAMELIAS", "rbd": "3460", "dgv_rbd": null, "estado": null, "direccion": null, "urbano_rural": "RURAL", "matricula": 785, "tipo": null, "cut_reg": "07", "cut_prov": "074", "cut_com": "07405", "region": "Maule", "provincia": "Linares", "comuna": "Retiro", "globalid": "eebf2c8e-c5c8-4110-9ee3-0400afaee881", "latitud": -36.2049, "longitud": -71.61623 }, "geometry": { "type": "Point", "coordinates": [ -71.61623, -36.2049 ] } },
{ "type": "Feature", "properties": { "objectid": 23576, "dependencia": "MUNICIPAL", "nombre_establecimiento": "ESCUELA ROMERAL", "rbd": "3445", "dgv_rbd": null, "estado": null, "direccion": null, "urbano_rural": "RURAL", "matricula": 80, "tipo": null, "cut_reg": "07", "cut_prov": "074", "cut_com": "07405", "region": "Maule", "provincia": "Linares", "comuna": "Retiro", "globalid": "7061e15e-d358-49d7-a93c-131bf75988ba", "latitud": -36.18931, "longitud": -71.66574 }, "geometry": { "type": "Point", "coordinates": [ -71.66574, -36.18931 ] } },
{ "type": "Feature", "properties": { "objectid": 23602, "dependencia": "JUNJI", "nombre_establecimiento": "FRUTOS DE ESPERANZA", "rbd": "J7403050", "dgv_rbd": null, "estado": null, "direccion": null, "urbano_rural": "RURAL", "matricula": 15, "tipo": null, "cut_reg": "07", "cut_prov": "074", "cut_com": "07403", "region": "Maule", "provincia": "Linares", "comuna": "Longaví", "globalid": "0b3cdc2f-768c-4cf4-95ba-8b42096f2dcb", "latitud": -36.168849, "longitud": -71.553952 }, "geometry": { "type": "Point", "coordinates": [ -71.55395, -36.16885 ] } },
{ "type": "Feature", "properties": { "objectid": 23606, "dependencia": "MUNICIPAL", "nombre_establecimiento": "ESCUELA MARCELA PAZ", "rbd": "3376", "dgv_rbd": null, "estado": null, "direccion": null, "urbano_rural": "RURAL", "matricula": 141, "tipo": null, "cut_reg": "07", "cut_prov": "074", "cut_com": "07403", "region": "Maule", "provincia": "Linares", "comuna": "Longaví", "globalid": "e08c9384-67c4-4d40-ac8f-8b727a26d5e9", "latitud": -36.16797, "longitud": -71.55581 }, "geometry": { "type": "Point", "coordinates": [ -71.55581, -36.16797 ] } },
{ "type": "Feature", "properties": { "objectid": 23624, "dependencia": "MUNICIPAL", "nombre_establecimiento": "ESCUELA LOS HUALLES", "rbd": "3271", "dgv_rbd": null, "estado": null, "direccion": null, "urbano_rural": "RURAL", "matricula": 8, "tipo": null, "cut_reg": "07", "cut_prov": "074", "cut_com": "07401", "region": "Maule", "provincia": "Linares", "comuna": "Linares", "globalid": "0596cfc4-8230-4bb7-981a-20c79d577574", "latitud": -36.15518, "longitud": -71.31868 }, "geometry": { "type": "Point", "coordinates": [ -71.31868, -36.15518 ] } },
{ "type": "Feature", "properties": { "objectid": 23628, "dependencia": "MUNICIPAL", "nombre_establecimiento": "ESCUELA SANTA CECILIA", "rbd": "3453", "dgv_rbd": null, "estado": null, "direccion": null, "urbano_rural": "RURAL", "matricula": 20, "tipo": null, "cut_reg": "07", "cut_prov": "074", "cut_com": "07405", "region": "Maule", "provincia": "Linares", "comuna": "Retiro", "globalid": "ee46f7ea-2a10-4348-938f-ef5ced625d7a", "latitud": -36.15257, "longitud": -71.70828 }, "geometry": { "type": "Point", "coordinates": [ -71.70828, -36.15257 ] } },
{ "type": "Feature", "properties": { "objectid": 23632, "dependencia": "MUNICIPAL", "nombre_establecimiento": "LICEO LAURA URRUTIA BENAVENTE", "rbd": "3359", "dgv_rbd": null, "estado": null, "direccion": null, "urbano_rural": "RURAL", "matricula": 281, "tipo": null, "cut_reg": "07", "cut_prov": "074", "cut_com": "07403", "region": "Maule", "provincia": "Linares", "comuna": "Longaví", "globalid": "6a126c55-1fef-4557-aec1-e074d999e8d8", "latitud": -36.15129, "longitud": -71.58071 }, "geometry": { "type": "Point", "coordinates": [ -71.58071, -36.15129 ] } },
{ "type": "Feature", "properties": { "objectid": 23636, "dependencia": "JUNJI - VTF", "nombre_establecimiento": "BURBUJITAS DE COLORES", "rbd": "J7403041", "dgv_rbd": null, "estado": null, "direccion": null, "urbano_rural": "RURAL", "matricula": 4, "tipo": null, "cut_reg": "07", "cut_prov": "074", "cut_com": "07403", "region": "Maule", "provincia": "Linares", "comuna": "Longaví", "globalid": "cd1cfb8d-6f05-46a6-b691-00d356a8bdb8", "latitud": -36.15091, "longitud": -71.582061 }, "geometry": { "type": "Point", "coordinates": [ -71.58206, -36.15091 ] } },
{ "type": "Feature", "properties": { "objectid": 23759, "dependencia": "JUNJI", "nombre_establecimiento": "LAS PALMERITAS", "rbd": "J7403051", "dgv_rbd": null, "estado": null, "direccion": null, "urbano_rural": "RURAL", "matricula": 11, "tipo": null, "cut_reg": "07", "cut_prov": "074", "cut_com": "07403", "region": "Maule", "provincia": "Linares", "comuna": "Longaví", "globalid": "be7914fc-144c-430e-b718-1a98afabb40d", "latitud": -36.1333, "longitud": -71.601589 }, "geometry": { "type": "Point", "coordinates": [ -71.60159, -36.1333 ] } },
{ "type": "Feature", "properties": { "objectid": 23813, "dependencia": "MUNICIPAL", "nombre_establecimiento": "ESCUELA PAULA JARAQUEMADA", "rbd": "3371", "dgv_rbd": null, "estado": null, "direccion": null, "urbano_rural": "RURAL", "matricula": 44, "tipo": null, "cut_reg": "07", "cut_prov": "074", "cut_com": "07403", "region": "Maule", "provincia": "Linares", "comuna": "Longaví", "globalid": "394464d9-a235-4481-ac94-e24e3af1d880", "latitud": -36.09072, "longitud": -71.55735 }, "geometry": { "type": "Point", "coordinates": [ -71.55735, -36.09072 ] } },
{ "type": "Feature", "properties": { "objectid": 23817, "dependencia": "MUNICIPAL", "nombre_establecimiento": "ESCUELA CARLOS CONDELL", "rbd": "3375", "dgv_rbd": null, "estado": null, "direccion": null, "urbano_rural": "RURAL", "matricula": 3, "tipo": null, "cut_reg": "07", "cut_prov": "074", "cut_com": "07403", "region": "Maule", "provincia": "Linares", "comuna": "Longaví", "globalid": "61f17ca4-590e-4976-a8a5-008ffd715402", "latitud": -36.09066, "longitud": -71.66696 }, "geometry": { "type": "Point", "coordinates": [ -71.66696, -36.09066 ] } },
{ "type": "Feature", "properties": { "objectid": 23829, "dependencia": "JUNJI", "nombre_establecimiento": "PASITOS AL NEVADO", "rbd": "J7403063", "dgv_rbd": null, "estado": null, "direccion": null, "urbano_rural": "RURAL", "matricula": 41, "tipo": null, "cut_reg": "07", "cut_prov": "074", "cut_com": "07403", "region": "Maule", "provincia": "Linares", "comuna": "Longaví", "globalid": "91698d96-3500-4b8a-abb7-20a7a154d364", "latitud": -36.089026, "longitud": -71.556842 }, "geometry": { "type": "Point", "coordinates": [ -71.55684, -36.08903 ] } },
{ "type": "Feature", "properties": { "objectid": 23835, "dependencia": "MUNICIPAL", "nombre_establecimiento": "ESCUELA PEDRO ALESSANDRI VARGAS", "rbd": "3382", "dgv_rbd": null, "estado": null, "direccion": null, "urbano_rural": "RURAL", "matricula": 220, "tipo": null, "cut_reg": "07", "cut_prov": "074", "cut_com": "07403", "region": "Maule", "provincia": "Linares", "comuna": "Longaví", "globalid": "4b251e01-462a-42fd-b8d2-b8b23376dfc8", "latitud": -36.08775, "longitud": -71.62273 }, "geometry": { "type": "Point", "coordinates": [ -71.62273, -36.08775 ] } },
{ "type": "Feature", "properties": { "objectid": 23839, "dependencia": "JUNJI - VTF", "nombre_establecimiento": "SEMILLA DE VIDA", "rbd": "J7403037", "dgv_rbd": null, "estado": null, "direccion": null, "urbano_rural": "RURAL", "matricula": 26, "tipo": null, "cut_reg": "07", "cut_prov": "074", "cut_com": "07403", "region": "Maule", "provincia": "Linares", "comuna": "Longaví", "globalid": "4f12f339-5a41-482b-bb0e-3ab46ab0eca8", "latitud": -36.087404, "longitud": -71.623579 }, "geometry": { "type": "Point", "coordinates": [ -71.62358, -36.0874 ] } },
{ "type": "Feature", "properties": { "objectid": 23847, "dependencia": "MUNICIPAL", "nombre_establecimiento": "ESCUELA EL CARMEN", "rbd": "3373", "dgv_rbd": null, "estado": null, "direccion": null, "urbano_rural": "RURAL", "matricula": 81, "tipo": null, "cut_reg": "07", "cut_prov": "074", "cut_com": "07403", "region": "Maule", "provincia": "Linares", "comuna": "Longaví", "globalid": "f37c69d8-bbba-4660-910e-974f29b20c62", "latitud": -36.08096, "longitud": -71.54482 }, "geometry": { "type": "Point", "coordinates": [ -71.54482, -36.08096 ] } },
{ "type": "Feature", "properties": { "objectid": 23867, "dependencia": "JUNJI", "nombre_establecimiento": "LOS NIÑOS PRIMERO", "rbd": "J7403047", "dgv_rbd": null, "estado": null, "direccion": null, "urbano_rural": "RURAL", "matricula": 10, "tipo": null, "cut_reg": "07", "cut_prov": "074", "cut_com": "07403", "region": "Maule", "provincia": "Linares", "comuna": "Longaví", "globalid": "6ec6e1c5-34f0-4098-bc09-d74aca017848", "latitud": -36.066892, "longitud": -71.514334 }, "geometry": { "type": "Point", "coordinates": [ -71.51433, -36.06689 ] } },
{ "type": "Feature", "properties": { "objectid": 23871, "dependencia": "MUNICIPAL", "nombre_establecimiento": "ESCUELA MANUEL ROZAS ARISTIA", "rbd": "3377", "dgv_rbd": null, "estado": null, "direccion": null, "urbano_rural": "RURAL", "matricula": 10, "tipo": null, "cut_reg": "07", "cut_prov": "074", "cut_com": "07403", "region": "Maule", "provincia": "Linares", "comuna": "Longaví", "globalid": "87cca2ba-c3d7-4560-a9dd-3dd4c011e372", "latitud": -36.06264, "longitud": -71.553 }, "geometry": { "type": "Point", "coordinates": [ -71.553, -36.06264 ] } },
{ "type": "Feature", "properties": { "objectid": 23895, "dependencia": "MUNICIPAL", "nombre_establecimiento": "ESCUELA JORGE HERRERA GUZMAN", "rbd": "3277", "dgv_rbd": null, "estado": null, "direccion": null, "urbano_rural": "RURAL", "matricula": 3, "tipo": null, "cut_reg": "07", "cut_prov": "074", "cut_com": "07401", "region": "Maule", "provincia": "Linares", "comuna": "Linares", "globalid": "29d1d358-a618-4275-8e3d-9aaa90ba3a45", "latitud": -36.05486, "longitud": -71.39993 }, "geometry": { "type": "Point", "coordinates": [ -71.39993, -36.05486 ] } },
{ "type": "Feature", "properties": { "objectid": 23907, "dependencia": "MUNICIPAL", "nombre_establecimiento": "ESCUELA FRANCISCO URRUTIA URRUTIA", "rbd": "3361", "dgv_rbd": null, "estado": null, "direccion": null, "urbano_rural": "RURAL", "matricula": 220, "tipo": null, "cut_reg": "07", "cut_prov": "074", "cut_com": "07403", "region": "Maule", "provincia": "Linares", "comuna": "Longaví", "globalid": "44188277-856a-45eb-be5b-18543c722e4b", "latitud": -36.05415, "longitud": -71.56756 }, "geometry": { "type": "Point", "coordinates": [ -71.56756, -36.05415 ] } },
{ "type": "Feature", "properties": { "objectid": 23910, "dependencia": "JUNJI - VTF", "nombre_establecimiento": "MIS PRIMEROS PASOS", "rbd": "J7403027", "dgv_rbd": null, "estado": null, "direccion": null, "urbano_rural": "RURAL", "matricula": 37, "tipo": null, "cut_reg": "07", "cut_prov": "074", "cut_com": "07403", "region": "Maule", "provincia": "Linares", "comuna": "Longaví", "globalid": "c4a2bfec-a914-4eab-9ee2-384de2067353", "latitud": -36.054081, "longitud": -71.568752 }, "geometry": { "type": "Point", "coordinates": [ -71.56875, -36.05408 ] } },
{ "type": "Feature", "properties": { "objectid": 23930, "dependencia": "JUNJI - VTF", "nombre_establecimiento": "GOTAS DE CRISTAL", "rbd": "J7403026", "dgv_rbd": null, "estado": null, "direccion": null, "urbano_rural": "RURAL", "matricula": 23, "tipo": null, "cut_reg": "07", "cut_prov": "074", "cut_com": "07401", "region": "Maule", "provincia": "Linares", "comuna": "Linares", "globalid": "8cc62672-9f22-4196-a13d-563b0dd47de6", "latitud": -36.04127, "longitud": -71.39494 }, "geometry": { "type": "Point", "coordinates": [ -71.39494, -36.04127 ] } },
{ "type": "Feature", "properties": { "objectid": 23952, "dependencia": "MUNICIPAL", "nombre_establecimiento": "ESCUELA CARDENAL JOSE MARIA CARO", "rbd": "3356", "dgv_rbd": null, "estado": null, "direccion": null, "urbano_rural": "RURAL", "matricula": 300, "tipo": null, "cut_reg": "07", "cut_prov": "074", "cut_com": "07403", "region": "Maule", "provincia": "Linares", "comuna": "Longaví", "globalid": "6a85a29f-90a1-40db-bfa6-5c88b47ae680", "latitud": -36.02401, "longitud": -71.62092 }, "geometry": { "type": "Point", "coordinates": [ -71.62092, -36.02401 ] } },
{ "type": "Feature", "properties": { "objectid": 23956, "dependencia": "JUNJI - VTF", "nombre_establecimiento": "SUEÑOS MAGICOS", "rbd": "J7403042", "dgv_rbd": null, "estado": null, "direccion": null, "urbano_rural": "RURAL", "matricula": 26, "tipo": null, "cut_reg": "07", "cut_prov": "074", "cut_com": "07403", "region": "Maule", "provincia": "Linares", "comuna": "Longaví", "globalid": "68682c99-1561-4319-809e-c66a61f087c7", "latitud": -36.022488, "longitud": -71.620014 }, "geometry": { "type": "Point", "coordinates": [ -71.62001, -36.02249 ] } },
{ "type": "Feature", "properties": { "objectid": 23960, "dependencia": "MUNICIPAL", "nombre_establecimiento": "ESCUELA SANTIAGO BUERAS AVARIA", "rbd": "3383", "dgv_rbd": null, "estado": null, "direccion": null, "urbano_rural": "RURAL", "matricula": 30, "tipo": null, "cut_reg": "07", "cut_prov": "074", "cut_com": "07403", "region": "Maule", "provincia": "Linares", "comuna": "Longaví", "globalid": "dcb8d692-0b2a-48c9-ad9a-fb5bfc8742b4", "latitud": -36.01954, "longitud": -71.64424 }, "geometry": { "type": "Point", "coordinates": [ -71.64424, -36.01954 ] } },
{ "type": "Feature", "properties": { "objectid": 23964, "dependencia": "MUNICIPAL", "nombre_establecimiento": "ESCUELA GABRIEL BENAVENTE BENAVENTE", "rbd": "3362", "dgv_rbd": null, "estado": null, "direccion": null, "urbano_rural": "RURAL", "matricula": 316, "tipo": null, "cut_reg": "07", "cut_prov": "074", "cut_com": "07403", "region": "Maule", "provincia": "Linares", "comuna": "Longaví", "globalid": "ba488dd9-1508-4538-b4f9-a49e6c605199", "latitud": -36.01514, "longitud": -71.65069 }, "geometry": { "type": "Point", "coordinates": [ -71.65069, -36.01514 ] } },
{ "type": "Feature", "properties": { "objectid": 23967, "dependencia": "INTEGRA", "nombre_establecimiento": "CERRITO NEVADO", "rbd": "I72203", "dgv_rbd": null, "estado": null, "direccion": null, "urbano_rural": "RURAL", "matricula": 0, "tipo": null, "cut_reg": "07", "cut_prov": "074", "cut_com": "07403", "region": "Maule", "provincia": "Linares", "comuna": "Longaví", "globalid": "ac43a095-d93f-4ad1-b39c-cd533e04b57f", "latitud": -36.014644, "longitud": -71.650626 }, "geometry": { "type": "Point", "coordinates": [ -71.65063, -36.01464 ] } },
{ "type": "Feature", "properties": { "objectid": 23974, "dependencia": "PARTICULAR SUBVENCIONADO", "nombre_establecimiento": "ESCUELA ESPECIAL DE LENGUAJE PALABRAS DE CRISTAL", "rbd": "20344", "dgv_rbd": null, "estado": null, "direccion": null, "urbano_rural": "URBANO", "matricula": 85, "tipo": null, "cut_reg": "07", "cut_prov": "074", "cut_com": "07403", "region": "Maule", "provincia": "Linares", "comuna": "Longaví", "globalid": "180e24db-1a44-4aaa-98c1-7b0cef6a4819", "latitud": -36.0083, "longitud": -71.6645 }, "geometry": { "type": "Point", "coordinates": [ -71.6645, -36.0083 ] } },
{ "type": "Feature", "properties": { "objectid": 23990, "dependencia": "MUNICIPAL", "nombre_establecimiento": "ESCUELA ANGEL CRUCHAGA SANTA MARIA", "rbd": "3381", "dgv_rbd": null, "estado": null, "direccion": null, "urbano_rural": "RURAL", "matricula": 118, "tipo": null, "cut_reg": "07", "cut_prov": "074", "cut_com": "07403", "region": "Maule", "provincia": "Linares", "comuna": "Longaví", "globalid": "91fbc173-9b24-4436-af4d-117d2d2abf50", "latitud": -36.00187, "longitud": -71.54079 }, "geometry": { "type": "Point", "coordinates": [ -71.54079, -36.00187 ] } },
{ "type": "Feature", "properties": { "objectid": 23993, "dependencia": "JUNJI", "nombre_establecimiento": "ROCIO DEL BOSQUE", "rbd": "J7403059", "dgv_rbd": null, "estado": null, "direccion": null, "urbano_rural": "RURAL", "matricula": 14, "tipo": null, "cut_reg": "07", "cut_prov": "074", "cut_com": "07403", "region": "Maule", "provincia": "Linares", "comuna": "Longaví", "globalid": "5323b7cf-953b-461f-9277-89fb41b372b9", "latitud": -36.000779, "longitud": -71.539874 }, "geometry": { "type": "Point", "coordinates": [ -71.53987, -36.00078 ] } },
{ "type": "Feature", "properties": { "objectid": 24010, "dependencia": "MUNICIPAL", "nombre_establecimiento": "ESCUELA RAMBERTO CARRERA MARTINEZ", "rbd": "3384", "dgv_rbd": null, "estado": null, "direccion": null, "urbano_rural": "RURAL", "matricula": 9, "tipo": null, "cut_reg": "07", "cut_prov": "074", "cut_com": "07403", "region": "Maule", "provincia": "Linares", "comuna": "Longaví", "globalid": "56eaa014-554d-4426-8cbd-bd335053528a", "latitud": -35.99138, "longitud": -71.47031 }, "geometry": { "type": "Point", "coordinates": [ -71.47031, -35.99138 ] } },
{ "type": "Feature", "properties": { "objectid": 24047, "dependencia": "MUNICIPAL", "nombre_establecimiento": "ESCUELA EL CULMEN", "rbd": "3282", "dgv_rbd": null, "estado": null, "direccion": null, "urbano_rural": "RURAL", "matricula": 4, "tipo": null, "cut_reg": "07", "cut_prov": "074", "cut_com": "07401", "region": "Maule", "provincia": "Linares", "comuna": "Linares", "globalid": "ca5d2e3c-6f99-4f79-bd93-459024022b21", "latitud": -35.98, "longitud": -71.3145 }, "geometry": { "type": "Point", "coordinates": [ -71.3145, -35.98 ] } },
{ "type": "Feature", "properties": { "objectid": 24194, "dependencia": "MUNICIPAL", "nombre_establecimiento": "ESCUELA VIOLETA PARRA", "rbd": "3284", "dgv_rbd": null, "estado": null, "direccion": null, "urbano_rural": "RURAL", "matricula": 5, "tipo": null, "cut_reg": "07", "cut_prov": "074", "cut_com": "07401", "region": "Maule", "provincia": "Linares", "comuna": "Linares", "globalid": "c9d2417d-9a2b-42d3-bb68-54a9a4df5d71", "latitud": -35.96262, "longitud": -71.48516 }, "geometry": { "type": "Point", "coordinates": [ -71.48516, -35.96262 ] } },
{ "type": "Feature", "properties": { "objectid": 24215, "dependencia": "MUNICIPAL", "nombre_establecimiento": "ESCUELA LOS MOGOTES", "rbd": "3287", "dgv_rbd": null, "estado": null, "direccion": null, "urbano_rural": "RURAL", "matricula": 2, "tipo": null, "cut_reg": "07", "cut_prov": "074", "cut_com": "07401", "region": "Maule", "provincia": "Linares", "comuna": "Linares", "globalid": "88dbac12-d969-4304-90ad-7084c681b427", "latitud": -35.96155, "longitud": -71.4499 }, "geometry": { "type": "Point", "coordinates": [ -71.4499, -35.96155 ] } },
{ "type": "Feature", "properties": { "objectid": 24237, "dependencia": "MUNICIPAL", "nombre_establecimiento": "ESCUELA ROBERTO OPAZO GALVEZ", "rbd": "3353", "dgv_rbd": null, "estado": null, "direccion": null, "urbano_rural": "RURAL", "matricula": 171, "tipo": null, "cut_reg": "07", "cut_prov": "074", "cut_com": "07403", "region": "Maule", "provincia": "Linares", "comuna": "Longaví", "globalid": "4489bc4a-001a-4638-bfa7-6cf324a0edc2", "latitud": -35.95629, "longitud": -71.55958 }, "geometry": { "type": "Point", "coordinates": [ -71.55958, -35.95629 ] } },
{ "type": "Feature", "properties": { "objectid": 24270, "dependencia": "MUNICIPAL", "nombre_establecimiento": "ESCUELA ONOFRE VASQUEZ NORAMBUENA", "rbd": "3354", "dgv_rbd": null, "estado": null, "direccion": null, "urbano_rural": "RURAL", "matricula": 222, "tipo": null, "cut_reg": "07", "cut_prov": "074", "cut_com": "07403", "region": "Maule", "provincia": "Linares", "comuna": "Longaví", "globalid": "370fc1ba-12fc-4852-abd4-d51b6f09c301", "latitud": -35.94655, "longitud": -71.62265 }, "geometry": { "type": "Point", "coordinates": [ -71.62265, -35.94655 ] } },
{ "type": "Feature", "properties": { "objectid": 24274, "dependencia": "MUNICIPAL", "nombre_establecimiento": "ESCUELA CAMILO HENRIQUEZ", "rbd": "3288", "dgv_rbd": null, "estado": null, "direccion": null, "urbano_rural": "RURAL", "matricula": 2, "tipo": null, "cut_reg": "07", "cut_prov": "074", "cut_com": "07401", "region": "Maule", "provincia": "Linares", "comuna": "Linares", "globalid": "c0db4866-675e-4993-954f-212c3d88a897", "latitud": -35.94322, "longitud": -71.48925 }, "geometry": { "type": "Point", "coordinates": [ -71.48925, -35.94322 ] } },
{ "type": "Feature", "properties": { "objectid": 24278, "dependencia": "MUNICIPAL", "nombre_establecimiento": "ESCUELA JUAN SEGUNDO MUNOZ BRIONES", "rbd": "3368", "dgv_rbd": null, "estado": null, "direccion": null, "urbano_rural": "RURAL", "matricula": 95, "tipo": null, "cut_reg": "07", "cut_prov": "074", "cut_com": "07403", "region": "Maule", "provincia": "Linares", "comuna": "Longaví", "globalid": "1ba754ad-74b9-423b-9cb8-ada672a13f45", "latitud": -35.94142, "longitud": -71.50585 }, "geometry": { "type": "Point", "coordinates": [ -71.50585, -35.94142 ] } },
{ "type": "Feature", "properties": { "objectid": 24285, "dependencia": "JUNJI", "nombre_establecimiento": "BELLA VISTA", "rbd": "J7401044", "dgv_rbd": null, "estado": null, "direccion": null, "urbano_rural": "RURAL", "matricula": 11, "tipo": null, "cut_reg": "07", "cut_prov": "074", "cut_com": "07401", "region": "Maule", "provincia": "Linares", "comuna": "Linares", "globalid": "176d4cd1-1854-4e63-b19b-c4be45b3ea6c", "latitud": -35.925426, "longitud": -71.376953 }, "geometry": { "type": "Point", "coordinates": [ -71.37695, -35.92543 ] } },
{ "type": "Feature", "properties": { "objectid": 24288, "dependencia": "MUNICIPAL", "nombre_establecimiento": "ESCUELA BELLAVISTA", "rbd": "3286", "dgv_rbd": null, "estado": null, "direccion": null, "urbano_rural": "RURAL", "matricula": 3, "tipo": null, "cut_reg": "07", "cut_prov": "074", "cut_com": "07401", "region": "Maule", "provincia": "Linares", "comuna": "Linares", "globalid": "ddc839fe-f499-4dfb-aaab-e6cc6063c63f", "latitud": -35.92535, "longitud": -71.37802 }, "geometry": { "type": "Point", "coordinates": [ -71.37802, -35.92535 ] } },
{ "type": "Feature", "properties": { "objectid": 24323, "dependencia": "MUNICIPAL", "nombre_establecimiento": "ESCUELA LLANKANAO MANUEL FRANCISCO MEZA SECO", "rbd": "3285", "dgv_rbd": null, "estado": null, "direccion": null, "urbano_rural": "RURAL", "matricula": 174, "tipo": null, "cut_reg": "07", "cut_prov": "074", "cut_com": "07401", "region": "Maule", "provincia": "Linares", "comuna": "Linares", "globalid": "9d045a61-40b3-4d39-b815-79d881d8298f", "latitud": -35.89779, "longitud": -71.52073 }, "geometry": { "type": "Point", "coordinates": [ -71.52073, -35.89779 ] } },
{ "type": "Feature", "properties": { "objectid": 24327, "dependencia": "MUNICIPAL", "nombre_establecimiento": "ESCUELA HUAPI ALTO", "rbd": "11334", "dgv_rbd": null, "estado": null, "direccion": null, "urbano_rural": "RURAL", "matricula": 6, "tipo": null, "cut_reg": "07", "cut_prov": "074", "cut_com": "07401", "region": "Maule", "provincia": "Linares", "comuna": "Linares", "globalid": "ecc87d39-a190-4a56-8fd1-df1b4678917b", "latitud": -35.8964, "longitud": -71.57417 }, "geometry": { "type": "Point", "coordinates": [ -71.57417, -35.8964 ] } },
{ "type": "Feature", "properties": { "objectid": 24335, "dependencia": "MUNICIPAL", "nombre_establecimiento": "ESCUELA SAN VICTOR ALAMOS", "rbd": "3264", "dgv_rbd": null, "estado": null, "direccion": null, "urbano_rural": "RURAL", "matricula": 196, "tipo": null, "cut_reg": "07", "cut_prov": "074", "cut_com": "07401", "region": "Maule", "provincia": "Linares", "comuna": "Linares", "globalid": "a774db0b-b916-48f3-9e05-ea9993e99d1b", "latitud": -35.88779, "longitud": -71.47167 }, "geometry": { "type": "Point", "coordinates": [ -71.47167, -35.88779 ] } },
{ "type": "Feature", "properties": { "objectid": 24338, "dependencia": "JUNJI - VTF", "nombre_establecimiento": "DULCES MOMENTOS", "rbd": "J7401037", "dgv_rbd": null, "estado": null, "direccion": null, "urbano_rural": "URBANO", "matricula": 41, "tipo": null, "cut_reg": "07", "cut_prov": "074", "cut_com": "07401", "region": "Maule", "provincia": "Linares", "comuna": "Linares", "globalid": "1ac4e454-9862-4f88-82d8-44fdc409806a", "latitud": -35.886206, "longitud": -71.47206 }, "geometry": { "type": "Point", "coordinates": [ -71.47206, -35.88621 ] } },
{ "type": "Feature", "properties": { "objectid": 24369, "dependencia": "MUNICIPAL", "nombre_establecimiento": "ESCUELA SAN ANTONIO", "rbd": "3266", "dgv_rbd": null, "estado": null, "direccion": null, "urbano_rural": "RURAL", "matricula": 120, "tipo": null, "cut_reg": "07", "cut_prov": "074", "cut_com": "07401", "region": "Maule", "provincia": "Linares", "comuna": "Linares", "globalid": "b558958f-5474-451f-a259-6f541a3f76cf", "latitud": -35.86666, "longitud": -71.54212 }, "geometry": { "type": "Point", "coordinates": [ -71.54212, -35.86666 ] } },
{ "type": "Feature", "properties": { "objectid": 24396, "dependencia": "MUNICIPAL", "nombre_establecimiento": "ESCUELA CHUPALLAR", "rbd": "3272", "dgv_rbd": null, "estado": null, "direccion": null, "urbano_rural": "RURAL", "matricula": 8, "tipo": null, "cut_reg": "07", "cut_prov": "074", "cut_com": "07401", "region": "Maule", "provincia": "Linares", "comuna": "Linares", "globalid": "2c1d2457-51f2-4453-8aa8-c76f7bf54d7d", "latitud": -35.86221, "longitud": -71.21752 }, "geometry": { "type": "Point", "coordinates": [ -71.21752, -35.86221 ] } },
{ "type": "Feature", "properties": { "objectid": 24426, "dependencia": "MUNICIPAL", "nombre_establecimiento": "ESCUELA DE ROBLERIA", "rbd": "3289", "dgv_rbd": null, "estado": null, "direccion": null, "urbano_rural": "RURAL", "matricula": 4, "tipo": null, "cut_reg": "07", "cut_prov": "074", "cut_com": "07401", "region": "Maule", "provincia": "Linares", "comuna": "Linares", "globalid": "18747be4-561c-447c-b27d-e8e56fd4dabd", "latitud": -35.86041, "longitud": -71.26386 }, "geometry": { "type": "Point", "coordinates": [ -71.26386, -35.86041 ] } },
{ "type": "Feature", "properties": { "objectid": 24430, "dependencia": "JUNJI - VTF", "nombre_establecimiento": "FRAMBUESITAS", "rbd": "J7401031", "dgv_rbd": null, "estado": null, "direccion": null, "urbano_rural": "RURAL", "matricula": 35, "tipo": null, "cut_reg": "07", "cut_prov": "074", "cut_com": "07401", "region": "Maule", "provincia": "Linares", "comuna": "Linares", "globalid": "31c9e0a7-58ce-4ac0-9ed2-171f4e617962", "latitud": -35.859635, "longitud": -71.493448 }, "geometry": { "type": "Point", "coordinates": [ -71.49345, -35.85963 ] } },
{ "type": "Feature", "properties": { "objectid": 24586, "dependencia": "PARTICULAR SUBVENCIONADO", "nombre_establecimiento": "COLEGIO PARTICULAR JOSEFINA MEDEL", "rbd": "16708", "dgv_rbd": null, "estado": null, "direccion": null, "urbano_rural": "RURAL", "matricula": 108, "tipo": null, "cut_reg": "07", "cut_prov": "074", "cut_com": "07401", "region": "Maule", "provincia": "Linares", "comuna": "Linares", "globalid": "222ad24e-5208-4d7f-87d7-982d0bb9a246", "latitud": -35.84417, "longitud": -71.4896 }, "geometry": { "type": "Point", "coordinates": [ -71.4896, -35.84417 ] } },
{ "type": "Feature", "properties": { "objectid": 24709, "dependencia": "MUNICIPAL", "nombre_establecimiento": "ESCUELA LOMAS DE PUTAGAN", "rbd": "3345", "dgv_rbd": null, "estado": null, "direccion": null, "urbano_rural": "RURAL", "matricula": 68, "tipo": null, "cut_reg": "07", "cut_prov": "074", "cut_com": "07402", "region": "Maule", "provincia": "Linares", "comuna": "Colbún", "globalid": "d08eb0aa-db84-45bc-8a21-a8998538a870", "latitud": -35.82426, "longitud": -71.45499 }, "geometry": { "type": "Point", "coordinates": [ -71.45499, -35.82426 ] } },
{ "type": "Feature", "properties": { "objectid": 24745, "dependencia": "MUNICIPAL", "nombre_establecimiento": "ESCUELA AMALIA AMSTRONG DE TORRES", "rbd": "3337", "dgv_rbd": null, "estado": null, "direccion": null, "urbano_rural": "RURAL", "matricula": 31, "tipo": null, "cut_reg": "07", "cut_prov": "074", "cut_com": "07402", "region": "Maule", "provincia": "Linares", "comuna": "Colbún", "globalid": "a125abbb-f6de-4a26-8778-9f835e820e28", "latitud": -35.80561, "longitud": -71.43771 }, "geometry": { "type": "Point", "coordinates": [ -71.43771, -35.80561 ] } },
{ "type": "Feature", "properties": { "objectid": 24747, "dependencia": "JUNJI", "nombre_establecimiento": "LOS PEQUEÑOS ARTESANOS", "rbd": "J7402009", "dgv_rbd": null, "estado": null, "direccion": null, "urbano_rural": "RURAL", "matricula": 13, "tipo": null, "cut_reg": "07", "cut_prov": "074", "cut_com": "07402", "region": "Maule", "provincia": "Linares", "comuna": "Colbún", "globalid": "c65bdcf0-c7da-46d1-9186-e2f9a3df1f76", "latitud": -35.804767, "longitud": -71.437408 }, "geometry": { "type": "Point", "coordinates": [ -71.43741, -35.80477 ] } }
]
}
