{
"type": "FeatureCollection",
"name": "OSO",
"crs": { "type": "name", "properties": { "name": "urn:ogc:def:crs:OGC:1.3:CRS84" } },
"xy_coordinate_resolution": 1e-05,
"features": [
{ "type": "Feature", "properties": { "objectid": 18377, "dependencia": "INTEGRA", "nombre_establecimiento": "SOL NACIENTE", "rbd": "I102202", "dgv_rbd": null, "estado": null, "direccion": null, "urbano_rural": "RURAL", "matricula": 15, "tipo": null, "cut_reg": "10", "cut_prov": "101", "cut_com": "10103", "region": "Los Lagos", "provincia": "Llanquihue", "comuna": "Cochamó", "globalid": "60b0c78f-f8e0-4401-af1a-e2fab1a18eb9", "latitud": -41.495854, "longitud": -72.333353 }, "geometry": { "type": "Point", "coordinates": [ -72.33335, -41.49585 ] } },
{ "type": "Feature", "properties": { "objectid": 18378, "dependencia": "MUNICIPAL", "nombre_establecimiento": "ESCUELA RURAL SAN ANTONIO", "rbd": "7758", "dgv_rbd": null, "estado": null, "direccion": null, "urbano_rural": "RURAL", "matricula": 31, "tipo": null, "cut_reg": "10", "cut_prov": "101", "cut_com": "10103", "region": "Los Lagos", "provincia": "Llanquihue", "comuna": "Cochamó", "globalid": "ac38478a-7948-4d92-bcf2-8d8ee43c73c8", "latitud": -41.49579, "longitud": -72.33305 }, "geometry": { "type": "Point", "coordinates": [ -72.33305, -41.49579 ] } },
{ "type": "Feature", "properties": { "objectid": 18379, "dependencia": "INTEGRA", "nombre_establecimiento": "LOS ALEVINES", "rbd": "I102201", "dgv_rbd": null, "estado": null, "direccion": null, "urbano_rural": "RURAL", "matricula": 15, "tipo": null, "cut_reg": "10", "cut_prov": "101", "cut_com": "10103", "region": "Los Lagos", "provincia": "Llanquihue", "comuna": "Cochamó", "globalid": "cc806826-fa65-490b-ab84-fc1d1593169a", "latitud": -41.493202, "longitud": -72.304219 }, "geometry": { "type": "Point", "coordinates": [ -72.30422, -41.4932 ] } },
{ "type": "Feature", "properties": { "objectid": 18380, "dependencia": "MUNICIPAL", "nombre_establecimiento": "ESCUELA BASICA FRONTERIZA JUAN SOLER MANFREDINI", "rbd": "7753", "dgv_rbd": null, "estado": null, "direccion": null, "urbano_rural": "RURAL", "matricula": 179, "tipo": null, "cut_reg": "10", "cut_prov": "101", "cut_com": "10103", "region": "Los Lagos", "provincia": "Llanquihue", "comuna": "Cochamó", "globalid": "eb66be12-ca86-438e-b747-85f39e34b817", "latitud": -41.49194, "longitud": -72.30523 }, "geometry": { "type": "Point", "coordinates": [ -72.30523, -41.49194 ] } },
{ "type": "Feature", "properties": { "objectid": 18528, "dependencia": "MUNICIPAL", "nombre_establecimiento": "ESCUELA RURAL RIO BLANCO", "rbd": "7690", "dgv_rbd": null, "estado": null, "direccion": null, "urbano_rural": "RURAL", "matricula": 12, "tipo": null, "cut_reg": "10", "cut_prov": "101", "cut_com": "10101", "region": "Los Lagos", "provincia": "Llanquihue", "comuna": "Puerto Montt", "globalid": "85e16d47-1175-4dec-b734-1d302632ae10", "latitud": -41.45578, "longitud": -72.63835 }, "geometry": { "type": "Point", "coordinates": [ -72.63835, -41.45578 ] } },
{ "type": "Feature", "properties": { "objectid": 18533, "dependencia": "INTEGRA", "nombre_establecimiento": "LOS PASTORCITOS", "rbd": "I102004", "dgv_rbd": null, "estado": null, "direccion": null, "urbano_rural": "RURAL", "matricula": 25, "tipo": null, "cut_reg": "10", "cut_prov": "101", "cut_com": "10101", "region": "Los Lagos", "provincia": "Llanquihue", "comuna": "Puerto Montt", "globalid": "0e0b3791-09cb-4e8c-a8b4-1ce8ab785a48", "latitud": -41.454197, "longitud": -72.659116 }, "geometry": { "type": "Point", "coordinates": [ -72.65912, -41.4542 ] } },
{ "type": "Feature", "properties": { "objectid": 18535, "dependencia": "MUNICIPAL", "nombre_establecimiento": "ESCUELA RURAL CORRENTOSO", "rbd": "7658", "dgv_rbd": null, "estado": null, "direccion": null, "urbano_rural": "RURAL", "matricula": 120, "tipo": null, "cut_reg": "10", "cut_prov": "101", "cut_com": "10101", "region": "Los Lagos", "provincia": "Llanquihue", "comuna": "Puerto Montt", "globalid": "715cf15e-3e73-4b2b-a718-d855dc6f7376", "latitud": -41.45325, "longitud": -72.65761 }, "geometry": { "type": "Point", "coordinates": [ -72.65761, -41.45325 ] } },
{ "type": "Feature", "properties": { "objectid": 18552, "dependencia": "SLEP", "nombre_establecimiento": "ESCUELA RURAL LA PENINSULA", "rbd": "7765", "dgv_rbd": null, "estado": null, "direccion": null, "urbano_rural": "RURAL", "matricula": 5, "tipo": null, "cut_reg": "10", "cut_prov": "101", "cut_com": "10109", "region": "Los Lagos", "provincia": "Llanquihue", "comuna": "Puerto Varas", "globalid": "da34b1b6-4bd8-4cde-851a-5a708d79c490", "latitud": -41.44096, "longitud": -72.3301 }, "geometry": { "type": "Point", "coordinates": [ -72.3301, -41.44096 ] } },
{ "type": "Feature", "properties": { "objectid": 18553, "dependencia": "MUNICIPAL", "nombre_establecimiento": "ESCUELA RURAL RIO CHICO", "rbd": "7681", "dgv_rbd": null, "estado": null, "direccion": null, "urbano_rural": "RURAL", "matricula": 8, "tipo": null, "cut_reg": "10", "cut_prov": "101", "cut_com": "10101", "region": "Los Lagos", "provincia": "Llanquihue", "comuna": "Puerto Montt", "globalid": "c35ee4b2-7d74-48df-9a44-9fdf3d66046c", "latitud": -41.43148, "longitud": -72.81619 }, "geometry": { "type": "Point", "coordinates": [ -72.81619, -41.43148 ] } },
{ "type": "Feature", "properties": { "objectid": 18554, "dependencia": "MUNICIPAL", "nombre_establecimiento": "ESCUELA RURAL SENDA SUR", "rbd": "7662", "dgv_rbd": null, "estado": null, "direccion": null, "urbano_rural": "RURAL", "matricula": 14, "tipo": null, "cut_reg": "10", "cut_prov": "101", "cut_com": "10101", "region": "Los Lagos", "provincia": "Llanquihue", "comuna": "Puerto Montt", "globalid": "44afa867-2ca8-439f-bec2-4a5304c77cf8", "latitud": -41.43116, "longitud": -72.86929 }, "geometry": { "type": "Point", "coordinates": [ -72.86929, -41.43116 ] } },
{ "type": "Feature", "properties": { "objectid": 18560, "dependencia": "PARTICULAR SUBVENCIONADO", "nombre_establecimiento": "COLEGIO PATAGONIA ALERCE CORDILLERA", "rbd": "22702", "dgv_rbd": null, "estado": null, "direccion": null, "urbano_rural": "URBANO", "matricula": 876, "tipo": null, "cut_reg": "10", "cut_prov": "101", "cut_com": "10101", "region": "Los Lagos", "provincia": "Llanquihue", "comuna": "Puerto Montt", "globalid": "c34e6bd5-f544-44a5-a924-7db43419d221", "latitud": -41.4134, "longitud": -72.90771 }, "geometry": { "type": "Point", "coordinates": [ -72.90771, -41.4134 ] } },
{ "type": "Feature", "properties": { "objectid": 18561, "dependencia": "INTEGRA", "nombre_establecimiento": "ATRAPASUEÑOS", "rbd": "I102040", "dgv_rbd": null, "estado": null, "direccion": null, "urbano_rural": "URBANO", "matricula": 46, "tipo": null, "cut_reg": "10", "cut_prov": "101", "cut_com": "10101", "region": "Los Lagos", "provincia": "Llanquihue", "comuna": "Puerto Montt", "globalid": "2d47b16e-5ab7-4378-b7c3-db7372710e7c", "latitud": -41.411109, "longitud": -72.906609 }, "geometry": { "type": "Point", "coordinates": [ -72.90661, -41.41111 ] } },
{ "type": "Feature", "properties": { "objectid": 18562, "dependencia": "PARTICULAR SUBVENCIONADO", "nombre_establecimiento": "ESCUELA ESPECIAL DE LENGUAJE DIALECTA ALERCE", "rbd": "12773", "dgv_rbd": null, "estado": null, "direccion": null, "urbano_rural": "URBANO", "matricula": 138, "tipo": null, "cut_reg": "10", "cut_prov": "101", "cut_com": "10101", "region": "Los Lagos", "provincia": "Llanquihue", "comuna": "Puerto Montt", "globalid": "5ff71b0a-3f2b-4c4c-a8f5-d3e13c03d50b", "latitud": -41.41019, "longitud": -72.90336 }, "geometry": { "type": "Point", "coordinates": [ -72.90336, -41.41019 ] } },
{ "type": "Feature", "properties": { "objectid": 18563, "dependencia": "JUNJI", "nombre_establecimiento": "SENDEROS DE LUZ", "rbd": "J10101039", "dgv_rbd": null, "estado": null, "direccion": null, "urbano_rural": "URBANO", "matricula": 81, "tipo": null, "cut_reg": "10", "cut_prov": "101", "cut_com": "10101", "region": "Los Lagos", "provincia": "Llanquihue", "comuna": "Puerto Montt", "globalid": "94b88ead-1120-40fe-aba4-c53f736bf46b", "latitud": -41.4080529, "longitud": -72.90369065 }, "geometry": { "type": "Point", "coordinates": [ -72.90369, -41.40805 ] } },
{ "type": "Feature", "properties": { "objectid": 18564, "dependencia": "PARTICULAR SUBVENCIONADO", "nombre_establecimiento": "INSTITUTO INGLES ANTUQUENU", "rbd": "22499", "dgv_rbd": null, "estado": null, "direccion": null, "urbano_rural": "URBANO", "matricula": 1200, "tipo": null, "cut_reg": "10", "cut_prov": "101", "cut_com": "10101", "region": "Los Lagos", "provincia": "Llanquihue", "comuna": "Puerto Montt", "globalid": "491c667c-708a-49f3-a6c0-8c1817b36378", "latitud": -41.40593, "longitud": -72.90568 }, "geometry": { "type": "Point", "coordinates": [ -72.90568, -41.40593 ] } },
{ "type": "Feature", "properties": { "objectid": 19065, "dependencia": "MUNICIPAL", "nombre_establecimiento": "ESCUELA RURAL LAUCA", "rbd": "7688", "dgv_rbd": null, "estado": null, "direccion": null, "urbano_rural": "RURAL", "matricula": 5, "tipo": null, "cut_reg": "10", "cut_prov": "101", "cut_com": "10101", "region": "Los Lagos", "provincia": "Llanquihue", "comuna": "Puerto Montt", "globalid": "7a0c5d98-01b6-41ab-a781-dfdba7639f37", "latitud": -41.40577, "longitud": -72.80284 }, "geometry": { "type": "Point", "coordinates": [ -72.80284, -41.40577 ] } },
{ "type": "Feature", "properties": { "objectid": 19066, "dependencia": "JUNJI", "nombre_establecimiento": "FEN AYUN", "rbd": "J10101069", "dgv_rbd": null, "estado": null, "direccion": null, "urbano_rural": "URBANO", "matricula": 7, "tipo": null, "cut_reg": "10", "cut_prov": "101", "cut_com": "10101", "region": "Los Lagos", "provincia": "Llanquihue", "comuna": "Puerto Montt", "globalid": "43d8a445-08c6-4094-8e6f-26da53f6cbfa", "latitud": -41.40409722, "longitud": -72.91120833 }, "geometry": { "type": "Point", "coordinates": [ -72.91121, -41.4041 ] } },
{ "type": "Feature", "properties": { "objectid": 19067, "dependencia": "JUNJI - VTF", "nombre_establecimiento": "LAS TEJUELITAS DE ALERCE", "rbd": "J10101007", "dgv_rbd": null, "estado": null, "direccion": null, "urbano_rural": "URBANO", "matricula": 83, "tipo": null, "cut_reg": "10", "cut_prov": "101", "cut_com": "10101", "region": "Los Lagos", "provincia": "Llanquihue", "comuna": "Puerto Montt", "globalid": "cf341953-9cb1-4c6b-bb03-ad14a297a901", "latitud": -41.403872, "longitud": -72.910832 }, "geometry": { "type": "Point", "coordinates": [ -72.91083, -41.40387 ] } },
{ "type": "Feature", "properties": { "objectid": 19068, "dependencia": "PARTICULAR SUBVENCIONADO", "nombre_establecimiento": "ESCUELA ESPECIAL DE LENGUAJE LAWAL", "rbd": "20374", "dgv_rbd": null, "estado": null, "direccion": null, "urbano_rural": "URBANO", "matricula": 17, "tipo": null, "cut_reg": "10", "cut_prov": "101", "cut_com": "10101", "region": "Los Lagos", "provincia": "Llanquihue", "comuna": "Puerto Montt", "globalid": "34bcf501-c8cc-45b9-8ee1-534c7dcc4cdd", "latitud": -41.4038, "longitud": -72.91405 }, "geometry": { "type": "Point", "coordinates": [ -72.91405, -41.4038 ] } },
{ "type": "Feature", "properties": { "objectid": 19069, "dependencia": "INTEGRA", "nombre_establecimiento": "ELUNEY", "rbd": "I102031", "dgv_rbd": null, "estado": null, "direccion": null, "urbano_rural": "URBANO", "matricula": 84, "tipo": null, "cut_reg": "10", "cut_prov": "101", "cut_com": "10101", "region": "Los Lagos", "provincia": "Llanquihue", "comuna": "Puerto Montt", "globalid": "1d0446d7-cab2-4772-acea-ddec68424d29", "latitud": -41.403445, "longitud": -72.907299 }, "geometry": { "type": "Point", "coordinates": [ -72.9073, -41.40344 ] } },
{ "type": "Feature", "properties": { "objectid": 19071, "dependencia": "MUNICIPAL", "nombre_establecimiento": "ESCUELA BASICA KIMUN LAWAL", "rbd": "22418", "dgv_rbd": null, "estado": null, "direccion": null, "urbano_rural": "URBANO", "matricula": 807, "tipo": null, "cut_reg": "10", "cut_prov": "101", "cut_com": "10101", "region": "Los Lagos", "provincia": "Llanquihue", "comuna": "Puerto Montt", "globalid": "7f608b49-2482-4073-936d-8641c43b58ce", "latitud": -41.40316, "longitud": -72.91318 }, "geometry": { "type": "Point", "coordinates": [ -72.91318, -41.40316 ] } },
{ "type": "Feature", "properties": { "objectid": 19074, "dependencia": "JUNJI", "nombre_establecimiento": "MILLA ANTU", "rbd": "J10101071", "dgv_rbd": null, "estado": null, "direccion": null, "urbano_rural": "URBANO", "matricula": 115, "tipo": null, "cut_reg": "10", "cut_prov": "101", "cut_com": "10101", "region": "Los Lagos", "provincia": "Llanquihue", "comuna": "Puerto Montt", "globalid": "55ea32e4-2d70-448e-ab7b-d96af0d01eaf", "latitud": -41.39944444, "longitud": -72.90255 }, "geometry": { "type": "Point", "coordinates": [ -72.90255, -41.39944 ] } },
{ "type": "Feature", "properties": { "objectid": 19075, "dependencia": "PARTICULAR SUBVENCIONADO", "nombre_establecimiento": "ESCUELA ESPECIAL DE LENGUAJE SEMILLITAS DE ALERCE", "rbd": "40444", "dgv_rbd": null, "estado": null, "direccion": null, "urbano_rural": "URBANO", "matricula": 104, "tipo": null, "cut_reg": "10", "cut_prov": "101", "cut_com": "10101", "region": "Los Lagos", "provincia": "Llanquihue", "comuna": "Puerto Montt", "globalid": "50f81f59-d147-41de-8f57-a41ab205b361", "latitud": -41.39928, "longitud": -72.91558 }, "geometry": { "type": "Point", "coordinates": [ -72.91558, -41.39928 ] } },
{ "type": "Feature", "properties": { "objectid": 19076, "dependencia": "PARTICULAR SUBVENCIONADO", "nombre_establecimiento": "COLEGIO PARTICULAR ANTARES DE ALERCE", "rbd": "22361", "dgv_rbd": null, "estado": null, "direccion": null, "urbano_rural": "URBANO", "matricula": 342, "tipo": null, "cut_reg": "10", "cut_prov": "101", "cut_com": "10101", "region": "Los Lagos", "provincia": "Llanquihue", "comuna": "Puerto Montt", "globalid": "b5a26e95-3a7b-4f2a-8193-bb7a7fab8024", "latitud": -41.39912, "longitud": -72.91026 }, "geometry": { "type": "Point", "coordinates": [ -72.91026, -41.39912 ] } },
{ "type": "Feature", "properties": { "objectid": 19077, "dependencia": "MUNICIPAL", "nombre_establecimiento": "ESCUELA ALERCE HISTORICO", "rbd": "7659", "dgv_rbd": null, "estado": null, "direccion": null, "urbano_rural": "URBANO", "matricula": 368, "tipo": null, "cut_reg": "10", "cut_prov": "101", "cut_com": "10101", "region": "Los Lagos", "provincia": "Llanquihue", "comuna": "Puerto Montt", "globalid": "62c578ca-1e10-4960-bc58-53a9c508a89b", "latitud": -41.39907, "longitud": -72.91933 }, "geometry": { "type": "Point", "coordinates": [ -72.91933, -41.39907 ] } },
{ "type": "Feature", "properties": { "objectid": 19080, "dependencia": "PARTICULAR SUBVENCIONADO", "nombre_establecimiento": "ESCUELA ESPECIAL DE LENGUAJE HABLARTE", "rbd": "22585", "dgv_rbd": null, "estado": null, "direccion": null, "urbano_rural": "URBANO", "matricula": 35, "tipo": null, "cut_reg": "10", "cut_prov": "101", "cut_com": "10101", "region": "Los Lagos", "provincia": "Llanquihue", "comuna": "Puerto Montt", "globalid": "b24537fc-7ad8-4fb0-8e3f-492f4f2a8b33", "latitud": -41.39866, "longitud": -72.90778 }, "geometry": { "type": "Point", "coordinates": [ -72.90778, -41.39866 ] } },
{ "type": "Feature", "properties": { "objectid": 19081, "dependencia": "INTEGRA", "nombre_establecimiento": "ALERCITOS", "rbd": "I102013", "dgv_rbd": null, "estado": null, "direccion": null, "urbano_rural": "URBANO", "matricula": 23, "tipo": null, "cut_reg": "10", "cut_prov": "101", "cut_com": "10101", "region": "Los Lagos", "provincia": "Llanquihue", "comuna": "Puerto Montt", "globalid": "19c9f2df-ad3c-43bb-acb0-3c2f5063df6d", "latitud": -41.398587, "longitud": -72.899545 }, "geometry": { "type": "Point", "coordinates": [ -72.89955, -41.39859 ] } },
{ "type": "Feature", "properties": { "objectid": 19083, "dependencia": "PARTICULAR SUBVENCIONADO", "nombre_establecimiento": "ESCUELA ESPECIAL DE LENGUAJE CASTILLO DE PALABRAS", "rbd": "22704", "dgv_rbd": null, "estado": null, "direccion": null, "urbano_rural": "URBANO", "matricula": 133, "tipo": null, "cut_reg": "10", "cut_prov": "101", "cut_com": "10101", "region": "Los Lagos", "provincia": "Llanquihue", "comuna": "Puerto Montt", "globalid": "95b85b7f-146c-4390-a74c-e500d7621072", "latitud": -41.39805, "longitud": -72.90996 }, "geometry": { "type": "Point", "coordinates": [ -72.90996, -41.39805 ] } },
{ "type": "Feature", "properties": { "objectid": 19084, "dependencia": "INTEGRA", "nombre_establecimiento": "LEMU LAHUEN", "rbd": "I102017", "dgv_rbd": null, "estado": null, "direccion": null, "urbano_rural": "URBANO", "matricula": 77, "tipo": null, "cut_reg": "10", "cut_prov": "101", "cut_com": "10101", "region": "Los Lagos", "provincia": "Llanquihue", "comuna": "Puerto Montt", "globalid": "672d4ada-e92a-4de8-b256-479e28268c0a", "latitud": -41.397748, "longitud": -72.918378 }, "geometry": { "type": "Point", "coordinates": [ -72.91838, -41.39775 ] } },
{ "type": "Feature", "properties": { "objectid": 19087, "dependencia": "PARTICULAR SUBVENCIONADO", "nombre_establecimiento": "COLEGIO COLONOS DE ALERCE", "rbd": "22560", "dgv_rbd": null, "estado": null, "direccion": null, "urbano_rural": "URBANO", "matricula": 966, "tipo": null, "cut_reg": "10", "cut_prov": "101", "cut_com": "10101", "region": "Los Lagos", "provincia": "Llanquihue", "comuna": "Puerto Montt", "globalid": "dae7c620-4819-40b5-864b-5e57a987b130", "latitud": -41.39483, "longitud": -72.90174 }, "geometry": { "type": "Point", "coordinates": [ -72.90174, -41.39483 ] } },
{ "type": "Feature", "properties": { "objectid": 19088, "dependencia": "PARTICULAR SUBVENCIONADO", "nombre_establecimiento": "ESCUELA PARTICULAR RAYEN QUITRAL", "rbd": "22489", "dgv_rbd": null, "estado": null, "direccion": null, "urbano_rural": "RURAL", "matricula": 304, "tipo": null, "cut_reg": "10", "cut_prov": "101", "cut_com": "10101", "region": "Los Lagos", "provincia": "Llanquihue", "comuna": "Puerto Montt", "globalid": "3999b184-5ca4-4114-905d-2275aa03a5f6", "latitud": -41.39473, "longitud": -72.90018 }, "geometry": { "type": "Point", "coordinates": [ -72.90018, -41.39473 ] } },
{ "type": "Feature", "properties": { "objectid": 19089, "dependencia": "PARTICULAR SUBVENCIONADO", "nombre_establecimiento": "ESCUELA ESPECIAL DE LENGUAJE AMAPOLA ALERCE", "rbd": "16767", "dgv_rbd": null, "estado": null, "direccion": null, "urbano_rural": "URBANO", "matricula": 58, "tipo": null, "cut_reg": "10", "cut_prov": "101", "cut_com": "10101", "region": "Los Lagos", "provincia": "Llanquihue", "comuna": "Puerto Montt", "globalid": "cadaff53-a57d-46b0-b304-a4d0d85bd96a", "latitud": -41.39395, "longitud": -72.91265 }, "geometry": { "type": "Point", "coordinates": [ -72.91265, -41.39395 ] } },
{ "type": "Feature", "properties": { "objectid": 19090, "dependencia": "PARTICULAR SUBVENCIONADO", "nombre_establecimiento": "COLEGIO MOZART", "rbd": "22616", "dgv_rbd": null, "estado": null, "direccion": null, "urbano_rural": "URBANO", "matricula": 230, "tipo": null, "cut_reg": "10", "cut_prov": "101", "cut_com": "10101", "region": "Los Lagos", "provincia": "Llanquihue", "comuna": "Puerto Montt", "globalid": "ef7fff39-82fc-4ce7-8936-e70129c7a71a", "latitud": -41.39395, "longitud": -72.89775 }, "geometry": { "type": "Point", "coordinates": [ -72.89775, -41.39395 ] } },
{ "type": "Feature", "properties": { "objectid": 19091, "dependencia": "PARTICULAR SUBVENCIONADO", "nombre_establecimiento": "INSTITUTO APRENDER ALERCE", "rbd": "42158", "dgv_rbd": null, "estado": null, "direccion": null, "urbano_rural": "URBANO", "matricula": 307, "tipo": null, "cut_reg": "10", "cut_prov": "101", "cut_com": "10109", "region": "Los Lagos", "provincia": "Llanquihue", "comuna": "Puerto Varas", "globalid": "b2efaf62-9a92-4201-84a6-12393762e320", "latitud": -41.39355, "longitud": -72.92716 }, "geometry": { "type": "Point", "coordinates": [ -72.92716, -41.39355 ] } },
{ "type": "Feature", "properties": { "objectid": 19092, "dependencia": "JUNJI", "nombre_establecimiento": "RAICES DE COLORES", "rbd": "J10101074", "dgv_rbd": null, "estado": null, "direccion": null, "urbano_rural": "URBANO", "matricula": 106, "tipo": null, "cut_reg": "10", "cut_prov": "101", "cut_com": "10101", "region": "Los Lagos", "provincia": "Llanquihue", "comuna": "Puerto Montt", "globalid": "b91aa068-b712-486e-a57e-bbc9da47edc8", "latitud": -41.39345556, "longitud": -72.90711111 }, "geometry": { "type": "Point", "coordinates": [ -72.90711, -41.39346 ] } },
{ "type": "Feature", "properties": { "objectid": 19094, "dependencia": "JUNJI - VTF", "nombre_establecimiento": "ANGELITOS TRAVIESOS", "rbd": "J10101051", "dgv_rbd": null, "estado": null, "direccion": null, "urbano_rural": "URBANO", "matricula": 72, "tipo": null, "cut_reg": "10", "cut_prov": "101", "cut_com": "10101", "region": "Los Lagos", "provincia": "Llanquihue", "comuna": "Puerto Montt", "globalid": "166f8b3e-829b-44d6-beb8-3a32b9c848ab", "latitud": -41.392416, "longitud": -72.906585 }, "geometry": { "type": "Point", "coordinates": [ -72.90659, -41.39242 ] } },
{ "type": "Feature", "properties": { "objectid": 19097, "dependencia": "INTEGRA", "nombre_establecimiento": "S.C. HUELLITAS", "rbd": "I102043", "dgv_rbd": null, "estado": null, "direccion": null, "urbano_rural": "URBANO", "matricula": 20, "tipo": null, "cut_reg": "10", "cut_prov": "101", "cut_com": "10101", "region": "Los Lagos", "provincia": "Llanquihue", "comuna": "Puerto Montt", "globalid": "66e8c4e1-526a-4acd-b58a-ea960362d603", "latitud": -41.391726, "longitud": -72.893524 }, "geometry": { "type": "Point", "coordinates": [ -72.89352, -41.39173 ] } },
{ "type": "Feature", "properties": { "objectid": 19098, "dependencia": "INTEGRA", "nombre_establecimiento": "MIL CARITAS", "rbd": "I102010", "dgv_rbd": null, "estado": null, "direccion": null, "urbano_rural": "URBANO", "matricula": 56, "tipo": null, "cut_reg": "10", "cut_prov": "101", "cut_com": "10101", "region": "Los Lagos", "provincia": "Llanquihue", "comuna": "Puerto Montt", "globalid": "3e1413e0-fb94-401f-bba5-a074433c3a17", "latitud": -41.391571, "longitud": -72.904626 }, "geometry": { "type": "Point", "coordinates": [ -72.90463, -41.39157 ] } },
{ "type": "Feature", "properties": { "objectid": 19099, "dependencia": "INTEGRA", "nombre_establecimiento": "LOS CARIÑOSITOS", "rbd": "I102005", "dgv_rbd": null, "estado": null, "direccion": null, "urbano_rural": "URBANO", "matricula": 41, "tipo": null, "cut_reg": "10", "cut_prov": "101", "cut_com": "10101", "region": "Los Lagos", "provincia": "Llanquihue", "comuna": "Puerto Montt", "globalid": "68eb5f4c-299b-4434-a91f-8ef8f5b5f50b", "latitud": -41.390913, "longitud": -72.901991 }, "geometry": { "type": "Point", "coordinates": [ -72.90199, -41.39091 ] } },
{ "type": "Feature", "properties": { "objectid": 19100, "dependencia": "JUNJI - VTF", "nombre_establecimiento": "LOS PEQUENOS GIGANTES", "rbd": "J10101052", "dgv_rbd": null, "estado": null, "direccion": null, "urbano_rural": "URBANO", "matricula": 48, "tipo": null, "cut_reg": "10", "cut_prov": "101", "cut_com": "10101", "region": "Los Lagos", "provincia": "Llanquihue", "comuna": "Puerto Montt", "globalid": "039474c8-f9db-4747-b234-97cc090e6d47", "latitud": -41.390053, "longitud": -72.904884 }, "geometry": { "type": "Point", "coordinates": [ -72.90488, -41.39005 ] } },
{ "type": "Feature", "properties": { "objectid": 19101, "dependencia": "PARTICULAR SUBVENCIONADO", "nombre_establecimiento": "COLEGIO BOSQUES DE ALERCE", "rbd": "22688", "dgv_rbd": null, "estado": null, "direccion": null, "urbano_rural": "RURAL", "matricula": 752, "tipo": null, "cut_reg": "10", "cut_prov": "101", "cut_com": "10101", "region": "Los Lagos", "provincia": "Llanquihue", "comuna": "Puerto Montt", "globalid": "5a42efb9-76d3-4289-bd63-3a6cd3b1be29", "latitud": -41.38983, "longitud": -72.88354 }, "geometry": { "type": "Point", "coordinates": [ -72.88354, -41.38983 ] } },
{ "type": "Feature", "properties": { "objectid": 19102, "dependencia": "MUNICIPAL", "nombre_establecimiento": "INSTITUTO TÉCNICO FORJADORES DE ALERCE", "rbd": "22553", "dgv_rbd": null, "estado": null, "direccion": null, "urbano_rural": "URBANO", "matricula": 487, "tipo": null, "cut_reg": "10", "cut_prov": "101", "cut_com": "10101", "region": "Los Lagos", "provincia": "Llanquihue", "comuna": "Puerto Montt", "globalid": "d3ec0f6c-3321-4780-a8ef-ad3302be52f5", "latitud": -41.38976, "longitud": -72.90635 }, "geometry": { "type": "Point", "coordinates": [ -72.90635, -41.38976 ] } },
{ "type": "Feature", "properties": { "objectid": 19103, "dependencia": "INTEGRA", "nombre_establecimiento": "RINCONCITO MILENARIO", "rbd": "I102042", "dgv_rbd": null, "estado": null, "direccion": null, "urbano_rural": "URBANO", "matricula": 28, "tipo": null, "cut_reg": "10", "cut_prov": "101", "cut_com": "10101", "region": "Los Lagos", "provincia": "Llanquihue", "comuna": "Puerto Montt", "globalid": "76d9d2ad-f9d3-4a1b-ac81-48a1731c60c6", "latitud": -41.389628, "longitud": -72.895263 }, "geometry": { "type": "Point", "coordinates": [ -72.89526, -41.38963 ] } },
{ "type": "Feature", "properties": { "objectid": 19104, "dependencia": "JUNJI", "nombre_establecimiento": "LOS PECESITOS", "rbd": "J10109016", "dgv_rbd": null, "estado": null, "direccion": null, "urbano_rural": "RURAL", "matricula": 5, "tipo": null, "cut_reg": "10", "cut_prov": "101", "cut_com": "10109", "region": "Los Lagos", "provincia": "Llanquihue", "comuna": "Puerto Varas", "globalid": "84dabf39-4a38-4b26-9990-0cf636f24dc6", "latitud": -41.38955816, "longitud": -72.32957122 }, "geometry": { "type": "Point", "coordinates": [ -72.32957, -41.38956 ] } },
{ "type": "Feature", "properties": { "objectid": 19105, "dependencia": "SLEP", "nombre_establecimiento": "ESCUELA RURAL CRISTO REY", "rbd": "7756", "dgv_rbd": null, "estado": null, "direccion": null, "urbano_rural": "RURAL", "matricula": 57, "tipo": null, "cut_reg": "10", "cut_prov": "101", "cut_com": "10109", "region": "Los Lagos", "provincia": "Llanquihue", "comuna": "Puerto Varas", "globalid": "1900843a-8f43-4041-8b41-0a92d0f6b78f", "latitud": -41.38881, "longitud": -72.32811 }, "geometry": { "type": "Point", "coordinates": [ -72.32811, -41.38881 ] } },
{ "type": "Feature", "properties": { "objectid": 19106, "dependencia": "PARTICULAR SUBVENCIONADO", "nombre_establecimiento": "ESCUELA ESPECIAL DE LENGUAJE ABRACADABRA", "rbd": "22578", "dgv_rbd": null, "estado": null, "direccion": null, "urbano_rural": "URBANO", "matricula": 54, "tipo": null, "cut_reg": "10", "cut_prov": "101", "cut_com": "10101", "region": "Los Lagos", "provincia": "Llanquihue", "comuna": "Puerto Montt", "globalid": "34edb979-65f5-46fc-b8b1-be33812f9149", "latitud": -41.38871, "longitud": -72.91975 }, "geometry": { "type": "Point", "coordinates": [ -72.91975, -41.38871 ] } },
{ "type": "Feature", "properties": { "objectid": 19107, "dependencia": "INTEGRA", "nombre_establecimiento": "PASITOS AL VOLCÁN", "rbd": "I102033", "dgv_rbd": null, "estado": null, "direccion": null, "urbano_rural": "URBANO", "matricula": 94, "tipo": null, "cut_reg": "10", "cut_prov": "101", "cut_com": "10101", "region": "Los Lagos", "provincia": "Llanquihue", "comuna": "Puerto Montt", "globalid": "0345d78d-541c-4564-b68e-74e816b58a7e", "latitud": -41.38849, "longitud": -72.917088 }, "geometry": { "type": "Point", "coordinates": [ -72.91709, -41.38849 ] } },
{ "type": "Feature", "properties": { "objectid": 19108, "dependencia": "JUNJI - VTF", "nombre_establecimiento": "ANULEN", "rbd": "J10101049", "dgv_rbd": null, "estado": null, "direccion": null, "urbano_rural": "URBANO", "matricula": 25, "tipo": null, "cut_reg": "10", "cut_prov": "101", "cut_com": "10101", "region": "Los Lagos", "provincia": "Llanquihue", "comuna": "Puerto Montt", "globalid": "7362beff-1919-4050-b2c7-3b1a86ee9af5", "latitud": -41.388419, "longitud": -72.910106 }, "geometry": { "type": "Point", "coordinates": [ -72.91011, -41.38842 ] } },
{ "type": "Feature", "properties": { "objectid": 19109, "dependencia": "PARTICULAR SUBVENCIONADO", "nombre_establecimiento": "ESCUELA PARTICULAR BICENTENARIO", "rbd": "22566", "dgv_rbd": null, "estado": null, "direccion": null, "urbano_rural": "RURAL", "matricula": 261, "tipo": null, "cut_reg": "10", "cut_prov": "101", "cut_com": "10101", "region": "Los Lagos", "provincia": "Llanquihue", "comuna": "Puerto Montt", "globalid": "ecb0d0f4-4791-43d3-a1e0-306ca6cbf968", "latitud": -41.38778, "longitud": -72.87656 }, "geometry": { "type": "Point", "coordinates": [ -72.87656, -41.38778 ] } },
{ "type": "Feature", "properties": { "objectid": 19110, "dependencia": "MUNICIPAL", "nombre_establecimiento": "ESCUELA DE ADULTOS RELONCAVI", "rbd": "7624", "dgv_rbd": null, "estado": null, "direccion": null, "urbano_rural": "URBANO", "matricula": 103, "tipo": null, "cut_reg": "10", "cut_prov": "101", "cut_com": "10101", "region": "Los Lagos", "provincia": "Llanquihue", "comuna": "Puerto Montt", "globalid": "06b5cf31-5dcc-40ad-9c14-04dd159590e6", "latitud": -41.38634, "longitud": -72.89768 }, "geometry": { "type": "Point", "coordinates": [ -72.89768, -41.38634 ] } },
{ "type": "Feature", "properties": { "objectid": 19111, "dependencia": "INTEGRA", "nombre_establecimiento": "S.C. MANITOS TRAVIESAS", "rbd": "I102014", "dgv_rbd": null, "estado": null, "direccion": null, "urbano_rural": "URBANO", "matricula": 25, "tipo": null, "cut_reg": "10", "cut_prov": "101", "cut_com": "10101", "region": "Los Lagos", "provincia": "Llanquihue", "comuna": "Puerto Montt", "globalid": "6196187c-fd19-43c9-9ba5-0da27e402ef2", "latitud": -41.386276, "longitud": -72.895604 }, "geometry": { "type": "Point", "coordinates": [ -72.8956, -41.38628 ] } },
{ "type": "Feature", "properties": { "objectid": 19112, "dependencia": "MUNICIPAL", "nombre_establecimiento": "COLEGIO NUEVA ALERCE", "rbd": "20376", "dgv_rbd": null, "estado": null, "direccion": null, "urbano_rural": "URBANO", "matricula": 738, "tipo": null, "cut_reg": "10", "cut_prov": "101", "cut_com": "10101", "region": "Los Lagos", "provincia": "Llanquihue", "comuna": "Puerto Montt", "globalid": "f56c6390-17c3-4499-a533-00f7fcaab27f", "latitud": -41.3862, "longitud": -72.8972 }, "geometry": { "type": "Point", "coordinates": [ -72.8972, -41.3862 ] } },
{ "type": "Feature", "properties": { "objectid": 19113, "dependencia": "JUNJI", "nombre_establecimiento": "NAVEGANDO SONRISAS", "rbd": "J10101073", "dgv_rbd": null, "estado": null, "direccion": null, "urbano_rural": "URBANO", "matricula": 81, "tipo": null, "cut_reg": "10", "cut_prov": "101", "cut_com": "10101", "region": "Los Lagos", "provincia": "Llanquihue", "comuna": "Puerto Montt", "globalid": "175088a9-25a5-4fd6-97bd-183855b8322a", "latitud": -41.38530278, "longitud": -72.903675 }, "geometry": { "type": "Point", "coordinates": [ -72.90368, -41.3853 ] } },
{ "type": "Feature", "properties": { "objectid": 19114, "dependencia": "INTEGRA", "nombre_establecimiento": "LOS GIRASOLES", "rbd": "I102012", "dgv_rbd": null, "estado": null, "direccion": null, "urbano_rural": "URBANO", "matricula": 25, "tipo": null, "cut_reg": "10", "cut_prov": "101", "cut_com": "10101", "region": "Los Lagos", "provincia": "Llanquihue", "comuna": "Puerto Montt", "globalid": "f60d7fe3-9fd1-4f8b-aa05-76a02284ec21", "latitud": -41.384677, "longitud": -72.896823 }, "geometry": { "type": "Point", "coordinates": [ -72.89682, -41.38468 ] } },
{ "type": "Feature", "properties": { "objectid": 19115, "dependencia": "MUNICIPAL", "nombre_establecimiento": "COLEGIO LOS ALERCES", "rbd": "22480", "dgv_rbd": null, "estado": null, "direccion": null, "urbano_rural": "URBANO", "matricula": 401, "tipo": null, "cut_reg": "10", "cut_prov": "101", "cut_com": "10101", "region": "Los Lagos", "provincia": "Llanquihue", "comuna": "Puerto Montt", "globalid": "28d137e5-6176-43be-9606-3b97dbf70578", "latitud": -41.38462, "longitud": -72.91716 }, "geometry": { "type": "Point", "coordinates": [ -72.91716, -41.38462 ] } },
{ "type": "Feature", "properties": { "objectid": 19116, "dependencia": "SLEP", "nombre_establecimiento": "ESCUELA RURAL LAS CAMELIAS", "rbd": "7761", "dgv_rbd": null, "estado": null, "direccion": null, "urbano_rural": "RURAL", "matricula": 5, "tipo": null, "cut_reg": "10", "cut_prov": "101", "cut_com": "10109", "region": "Los Lagos", "provincia": "Llanquihue", "comuna": "Puerto Varas", "globalid": "37c4c672-d63f-41de-93fd-d970762ec8d3", "latitud": -41.3816, "longitud": -72.27862 }, "geometry": { "type": "Point", "coordinates": [ -72.27862, -41.3816 ] } },
{ "type": "Feature", "properties": { "objectid": 19117, "dependencia": "INTEGRA", "nombre_establecimiento": "KIMPELU", "rbd": "I102015", "dgv_rbd": null, "estado": null, "direccion": null, "urbano_rural": "URBANO", "matricula": 39, "tipo": null, "cut_reg": "10", "cut_prov": "101", "cut_com": "10101", "region": "Los Lagos", "provincia": "Llanquihue", "comuna": "Puerto Montt", "globalid": "1f0c3d80-d682-4533-8693-37a1deef989c", "latitud": -41.381255, "longitud": -72.898161 }, "geometry": { "type": "Point", "coordinates": [ -72.89816, -41.38126 ] } },
{ "type": "Feature", "properties": { "objectid": 19118, "dependencia": "JUNJI - VTF", "nombre_establecimiento": "ANTU-LEMU", "rbd": "J10101065", "dgv_rbd": null, "estado": null, "direccion": null, "urbano_rural": "URBANO", "matricula": 10, "tipo": null, "cut_reg": "10", "cut_prov": "101", "cut_com": "10101", "region": "Los Lagos", "provincia": "Llanquihue", "comuna": "Puerto Montt", "globalid": "4c23dbfa-4de1-4802-a840-914372ec7d4b", "latitud": -41.381102, "longitud": -72.917751 }, "geometry": { "type": "Point", "coordinates": [ -72.91775, -41.3811 ] } },
{ "type": "Feature", "properties": { "objectid": 19119, "dependencia": "MUNICIPAL", "nombre_establecimiento": "ESCUELA RURAL LOS COLONOS", "rbd": "7663", "dgv_rbd": null, "estado": null, "direccion": null, "urbano_rural": "RURAL", "matricula": 59, "tipo": null, "cut_reg": "10", "cut_prov": "101", "cut_com": "10101", "region": "Los Lagos", "provincia": "Llanquihue", "comuna": "Puerto Montt", "globalid": "813073b4-e761-455e-921e-0a7e54a80fe0", "latitud": -41.38044, "longitud": -72.85383 }, "geometry": { "type": "Point", "coordinates": [ -72.85383, -41.38044 ] } },
{ "type": "Feature", "properties": { "objectid": 19120, "dependencia": "INTEGRA", "nombre_establecimiento": "LUZ DE LUNA", "rbd": "I102034", "dgv_rbd": null, "estado": null, "direccion": null, "urbano_rural": "URBANO", "matricula": 41, "tipo": null, "cut_reg": "10", "cut_prov": "101", "cut_com": "10101", "region": "Los Lagos", "provincia": "Llanquihue", "comuna": "Puerto Montt", "globalid": "6c5a4ded-7bbe-43a9-a1fa-6940beac95c4", "latitud": -41.37992, "longitud": -72.919979 }, "geometry": { "type": "Point", "coordinates": [ -72.91998, -41.37992 ] } },
{ "type": "Feature", "properties": { "objectid": 19121, "dependencia": "JUNJI - VTF", "nombre_establecimiento": "RINCONCITO DE LUZ", "rbd": "J10101066", "dgv_rbd": null, "estado": null, "direccion": null, "urbano_rural": "URBANO", "matricula": 46, "tipo": null, "cut_reg": "10", "cut_prov": "101", "cut_com": "10101", "region": "Los Lagos", "provincia": "Llanquihue", "comuna": "Puerto Montt", "globalid": "86727544-8fb2-461f-9dc8-255707b95cd6", "latitud": -41.37980447, "longitud": -72.9134789 }, "geometry": { "type": "Point", "coordinates": [ -72.91348, -41.3798 ] } },
{ "type": "Feature", "properties": { "objectid": 19124, "dependencia": "MUNICIPAL", "nombre_establecimiento": "ESCUELA RURAL COLONIA METRENQUEN", "rbd": "7661", "dgv_rbd": null, "estado": null, "direccion": null, "urbano_rural": "RURAL", "matricula": 5, "tipo": null, "cut_reg": "10", "cut_prov": "101", "cut_com": "10101", "region": "Los Lagos", "provincia": "Llanquihue", "comuna": "Puerto Montt", "globalid": "d882b86a-80c9-4fca-88d9-98e08bd826d2", "latitud": -41.36406, "longitud": -72.80881 }, "geometry": { "type": "Point", "coordinates": [ -72.80881, -41.36406 ] } },
{ "type": "Feature", "properties": { "objectid": 19127, "dependencia": "PARTICULAR SUBVENCIONADO", "nombre_establecimiento": "ESCUELA ESPECIAL DE LENGUAJE HUELLITAS", "rbd": "20408", "dgv_rbd": null, "estado": null, "direccion": null, "urbano_rural": "URBANO", "matricula": 85, "tipo": null, "cut_reg": "10", "cut_prov": "101", "cut_com": "10109", "region": "Los Lagos", "provincia": "Llanquihue", "comuna": "Puerto Varas", "globalid": "82f87c33-2a07-4d52-a658-14bbe1e620ec", "latitud": -41.34603, "longitud": -72.94405 }, "geometry": { "type": "Point", "coordinates": [ -72.94405, -41.34603 ] } },
{ "type": "Feature", "properties": { "objectid": 19128, "dependencia": "INTEGRA", "nombre_establecimiento": "MI PEQUEÑO MIRADOR", "rbd": "I102107", "dgv_rbd": null, "estado": null, "direccion": null, "urbano_rural": "URBANO", "matricula": 47, "tipo": null, "cut_reg": "10", "cut_prov": "101", "cut_com": "10109", "region": "Los Lagos", "provincia": "Llanquihue", "comuna": "Puerto Varas", "globalid": "d4b566dc-8c8b-4c9c-be8a-5130d0602fd9", "latitud": -41.344234, "longitud": -72.947989 }, "geometry": { "type": "Point", "coordinates": [ -72.94799, -41.34423 ] } },
{ "type": "Feature", "properties": { "objectid": 19130, "dependencia": "PARTICULAR SUBVENCIONADO", "nombre_establecimiento": "COLEGIO ALTAS CUMBRES", "rbd": "22672", "dgv_rbd": null, "estado": null, "direccion": null, "urbano_rural": "URBANO", "matricula": 451, "tipo": null, "cut_reg": "10", "cut_prov": "101", "cut_com": "10109", "region": "Los Lagos", "provincia": "Llanquihue", "comuna": "Puerto Varas", "globalid": "d27e4271-e3a7-4513-959c-a29564aa5069", "latitud": -41.34398, "longitud": -72.94736 }, "geometry": { "type": "Point", "coordinates": [ -72.94736, -41.34398 ] } },
{ "type": "Feature", "properties": { "objectid": 19131, "dependencia": "SLEP", "nombre_establecimiento": "ESCUELA RURAL COLONIA RIO SUR", "rbd": "7725", "dgv_rbd": null, "estado": null, "direccion": null, "urbano_rural": "RURAL", "matricula": 173, "tipo": null, "cut_reg": "10", "cut_prov": "101", "cut_com": "10109", "region": "Los Lagos", "provincia": "Llanquihue", "comuna": "Puerto Varas", "globalid": "b3b23e71-a9f0-4096-b6bd-0ad48cd4f710", "latitud": -41.33972, "longitud": -72.70077 }, "geometry": { "type": "Point", "coordinates": [ -72.70077, -41.33972 ] } },
{ "type": "Feature", "properties": { "objectid": 19132, "dependencia": "JUNJI - VTF", "nombre_establecimiento": "LICARAYEN", "rbd": "J10109007", "dgv_rbd": null, "estado": null, "direccion": null, "urbano_rural": "URBANO", "matricula": 20, "tipo": null, "cut_reg": "10", "cut_prov": "101", "cut_com": "10109", "region": "Los Lagos", "provincia": "Llanquihue", "comuna": "Puerto Varas", "globalid": "6379c4c1-d5f1-4d21-b4ee-d1f23d496de2", "latitud": -41.335585, "longitud": -72.967415 }, "geometry": { "type": "Point", "coordinates": [ -72.96742, -41.33559 ] } },
{ "type": "Feature", "properties": { "objectid": 19135, "dependencia": "JUNJI", "nombre_establecimiento": "LAGO ENCANTADO", "rbd": "J10109008", "dgv_rbd": null, "estado": null, "direccion": null, "urbano_rural": "URBANO", "matricula": 49, "tipo": null, "cut_reg": "10", "cut_prov": "101", "cut_com": "10109", "region": "Los Lagos", "provincia": "Llanquihue", "comuna": "Puerto Varas", "globalid": "0d5d7930-c9ab-4762-b8ad-53386d955d4c", "latitud": -41.33469167000001, "longitud": -72.97313611 }, "geometry": { "type": "Point", "coordinates": [ -72.97314, -41.33469 ] } },
{ "type": "Feature", "properties": { "objectid": 19136, "dependencia": "JUNJI - VTF", "nombre_establecimiento": "ARCO IRIS", "rbd": "J10109002", "dgv_rbd": null, "estado": null, "direccion": null, "urbano_rural": "URBANO", "matricula": 105, "tipo": null, "cut_reg": "10", "cut_prov": "101", "cut_com": "10109", "region": "Los Lagos", "provincia": "Llanquihue", "comuna": "Puerto Varas", "globalid": "bc857aa5-23bc-4597-b22d-af9bd5fb503f", "latitud": -41.33239, "longitud": -72.973781 }, "geometry": { "type": "Point", "coordinates": [ -72.97378, -41.33239 ] } },
{ "type": "Feature", "properties": { "objectid": 19138, "dependencia": "INTEGRA", "nombre_establecimiento": "LOS ALPINOS", "rbd": "I102104", "dgv_rbd": null, "estado": null, "direccion": null, "urbano_rural": "URBANO", "matricula": 80, "tipo": null, "cut_reg": "10", "cut_prov": "101", "cut_com": "10109", "region": "Los Lagos", "provincia": "Llanquihue", "comuna": "Puerto Varas", "globalid": "beff097b-3dd1-4b9b-898d-646dc45624f9", "latitud": -41.331735, "longitud": -72.965296 }, "geometry": { "type": "Point", "coordinates": [ -72.9653, -41.33174 ] } },
{ "type": "Feature", "properties": { "objectid": 19139, "dependencia": "SLEP", "nombre_establecimiento": "ESCUELA RURAL JANEQUEO", "rbd": "7732", "dgv_rbd": null, "estado": null, "direccion": null, "urbano_rural": "RURAL", "matricula": 34, "tipo": null, "cut_reg": "10", "cut_prov": "101", "cut_com": "10109", "region": "Los Lagos", "provincia": "Llanquihue", "comuna": "Puerto Varas", "globalid": "b146a320-9fff-49e8-bde2-d53d1065abb7", "latitud": -41.33133, "longitud": -72.77916 }, "geometry": { "type": "Point", "coordinates": [ -72.77916, -41.33133 ] } },
{ "type": "Feature", "properties": { "objectid": 19141, "dependencia": "JUNJI", "nombre_establecimiento": "HEIDI", "rbd": "J10109001", "dgv_rbd": null, "estado": null, "direccion": null, "urbano_rural": "URBANO", "matricula": 112, "tipo": null, "cut_reg": "10", "cut_prov": "101", "cut_com": "10109", "region": "Los Lagos", "provincia": "Llanquihue", "comuna": "Puerto Varas", "globalid": "3d59433a-88c6-41af-85ec-81b960157285", "latitud": -41.33043714, "longitud": -72.97342574 }, "geometry": { "type": "Point", "coordinates": [ -72.97343, -41.33044 ] } },
{ "type": "Feature", "properties": { "objectid": 19142, "dependencia": "SLEP", "nombre_establecimiento": "COLEGIO MIRADOR DEL LAGO", "rbd": "22519", "dgv_rbd": null, "estado": null, "direccion": null, "urbano_rural": "URBANO", "matricula": 749, "tipo": null, "cut_reg": "10", "cut_prov": "101", "cut_com": "10109", "region": "Los Lagos", "provincia": "Llanquihue", "comuna": "Puerto Varas", "globalid": "5850ec2f-9ad4-419d-b56a-21ad756c8289", "latitud": -41.33006, "longitud": -72.96577 }, "geometry": { "type": "Point", "coordinates": [ -72.96577, -41.33006 ] } },
{ "type": "Feature", "properties": { "objectid": 19143, "dependencia": "SLEP", "nombre_establecimiento": "ESCUELA DIFERENCIAL 'ASPADEP'", "rbd": "22101", "dgv_rbd": null, "estado": null, "direccion": null, "urbano_rural": "URBANO", "matricula": 84, "tipo": null, "cut_reg": "10", "cut_prov": "101", "cut_com": "10109", "region": "Los Lagos", "provincia": "Llanquihue", "comuna": "Puerto Varas", "globalid": "1b651ad1-a700-4e53-986f-adf220e219b9", "latitud": -41.32997, "longitud": -72.97154 }, "geometry": { "type": "Point", "coordinates": [ -72.97154, -41.32997 ] } },
{ "type": "Feature", "properties": { "objectid": 19144, "dependencia": "INTEGRA", "nombre_establecimiento": "PRINCESA DEL LAGO", "rbd": "I102102", "dgv_rbd": null, "estado": null, "direccion": null, "urbano_rural": "URBANO", "matricula": 145, "tipo": null, "cut_reg": "10", "cut_prov": "101", "cut_com": "10109", "region": "Los Lagos", "provincia": "Llanquihue", "comuna": "Puerto Varas", "globalid": "3d5275c4-9b2e-4aef-a90b-0fbb122e039c", "latitud": -41.329865, "longitud": -72.971741 }, "geometry": { "type": "Point", "coordinates": [ -72.97174, -41.32986 ] } },
{ "type": "Feature", "properties": { "objectid": 19145, "dependencia": "PARTICULAR SUBVENCIONADO", "nombre_establecimiento": "COLEGIO BICENTENARIO FELMER NIKLITSCHEK", "rbd": "7743", "dgv_rbd": null, "estado": null, "direccion": null, "urbano_rural": "URBANO", "matricula": 1415, "tipo": null, "cut_reg": "10", "cut_prov": "101", "cut_com": "10109", "region": "Los Lagos", "provincia": "Llanquihue", "comuna": "Puerto Varas", "globalid": "331d0c45-fba6-4f03-9b3b-0428ef720528", "latitud": -41.32943, "longitud": -72.9684 }, "geometry": { "type": "Point", "coordinates": [ -72.9684, -41.32943 ] } },
{ "type": "Feature", "properties": { "objectid": 19146, "dependencia": "SLEP", "nombre_establecimiento": "COLEGIO ROSITA NOVARO DE NOVARO PUERTO VARAS", "rbd": "7722", "dgv_rbd": null, "estado": null, "direccion": null, "urbano_rural": "URBANO", "matricula": 568, "tipo": null, "cut_reg": "10", "cut_prov": "101", "cut_com": "10109", "region": "Los Lagos", "provincia": "Llanquihue", "comuna": "Puerto Varas", "globalid": "b5f46946-cc06-41a1-a54e-9690df6b2e7e", "latitud": -41.32592, "longitud": -72.97434 }, "geometry": { "type": "Point", "coordinates": [ -72.97434, -41.32592 ] } },
{ "type": "Feature", "properties": { "objectid": 19148, "dependencia": "PARTICULAR SUBVENCIONADO", "nombre_establecimiento": "ESCUELA ESPECIAL DE LENGUAJE RELMU DUNGUN", "rbd": "22617", "dgv_rbd": null, "estado": null, "direccion": null, "urbano_rural": "URBANO", "matricula": 18, "tipo": null, "cut_reg": "10", "cut_prov": "101", "cut_com": "10109", "region": "Los Lagos", "provincia": "Llanquihue", "comuna": "Puerto Varas", "globalid": "9d7c6923-6842-4f7c-8e77-9d455958fc67", "latitud": -41.32541, "longitud": -72.97849 }, "geometry": { "type": "Point", "coordinates": [ -72.97849, -41.32541 ] } },
{ "type": "Feature", "properties": { "objectid": 19152, "dependencia": "INTEGRA", "nombre_establecimiento": "BURBUJITAS", "rbd": "I102101", "dgv_rbd": null, "estado": null, "direccion": null, "urbano_rural": "URBANO", "matricula": 70, "tipo": null, "cut_reg": "10", "cut_prov": "101", "cut_com": "10109", "region": "Los Lagos", "provincia": "Llanquihue", "comuna": "Puerto Varas", "globalid": "2c4d1e12-212e-4467-8e84-65f04f05a71f", "latitud": -41.324868, "longitud": -72.987874 }, "geometry": { "type": "Point", "coordinates": [ -72.98787, -41.32487 ] } },
{ "type": "Feature", "properties": { "objectid": 19153, "dependencia": "PARTICULAR SUBVENCIONADO", "nombre_establecimiento": "ESCUELA ESPECIAL DE LENGUAJE MI MUNDO DE COLORES", "rbd": "13214", "dgv_rbd": null, "estado": null, "direccion": null, "urbano_rural": "URBANO", "matricula": 45, "tipo": null, "cut_reg": "10", "cut_prov": "101", "cut_com": "10109", "region": "Los Lagos", "provincia": "Llanquihue", "comuna": "Puerto Varas", "globalid": "b6de7269-35f6-439e-904c-719c24cf9bb5", "latitud": -41.32375, "longitud": -72.98281 }, "geometry": { "type": "Point", "coordinates": [ -72.98281, -41.32375 ] } },
{ "type": "Feature", "properties": { "objectid": 19154, "dependencia": "PARTICULAR SUBVENCIONADO", "nombre_establecimiento": "ESCUELA ESPECIAL DE LENGUAJE GIRASOL", "rbd": "22387", "dgv_rbd": null, "estado": null, "direccion": null, "urbano_rural": "URBANO", "matricula": 106, "tipo": null, "cut_reg": "10", "cut_prov": "101", "cut_com": "10109", "region": "Los Lagos", "provincia": "Llanquihue", "comuna": "Puerto Varas", "globalid": "f53165d4-ce75-4c43-9907-e2bab30327b3", "latitud": -41.32243, "longitud": -72.98895 }, "geometry": { "type": "Point", "coordinates": [ -72.98895, -41.32243 ] } },
{ "type": "Feature", "properties": { "objectid": 19155, "dependencia": "SLEP", "nombre_establecimiento": "ESCUELA GRUPO ESCOLAR", "rbd": "7723", "dgv_rbd": null, "estado": null, "direccion": null, "urbano_rural": "URBANO", "matricula": 563, "tipo": null, "cut_reg": "10", "cut_prov": "101", "cut_com": "10109", "region": "Los Lagos", "provincia": "Llanquihue", "comuna": "Puerto Varas", "globalid": "01d431df-d02f-491e-b8fd-1379e6864b37", "latitud": -41.3216, "longitud": -72.98564 }, "geometry": { "type": "Point", "coordinates": [ -72.98564, -41.3216 ] } },
{ "type": "Feature", "properties": { "objectid": 19156, "dependencia": "PARTICULAR SUBVENCIONADO", "nombre_establecimiento": "ESCUELA ESPECIAL DE LENGUAJE TECNOLOGICA", "rbd": "22679", "dgv_rbd": null, "estado": null, "direccion": null, "urbano_rural": "URBANO", "matricula": 22, "tipo": null, "cut_reg": "10", "cut_prov": "101", "cut_com": "10109", "region": "Los Lagos", "provincia": "Llanquihue", "comuna": "Puerto Varas", "globalid": "56cfc1b0-c2cb-4207-9e59-39f005146fa0", "latitud": -41.32096, "longitud": -72.9818 }, "geometry": { "type": "Point", "coordinates": [ -72.9818, -41.32096 ] } },
{ "type": "Feature", "properties": { "objectid": 19157, "dependencia": "PARTICULAR PAGADO", "nombre_establecimiento": "COLEGIO ALEMAN", "rbd": "7435", "dgv_rbd": null, "estado": null, "direccion": null, "urbano_rural": "URBANO", "matricula": 735, "tipo": null, "cut_reg": "10", "cut_prov": "101", "cut_com": "10109", "region": "Los Lagos", "provincia": "Llanquihue", "comuna": "Puerto Varas", "globalid": "8f5da2a6-2040-4f55-b223-b73ca7a0e2b6", "latitud": -41.32079, "longitud": -72.97745 }, "geometry": { "type": "Point", "coordinates": [ -72.97745, -41.32079 ] } },
{ "type": "Feature", "properties": { "objectid": 19158, "dependencia": "PARTICULAR PAGADO", "nombre_establecimiento": "COLEGIO GERMANIA DEL VERBO DIVINO", "rbd": "7742", "dgv_rbd": null, "estado": null, "direccion": null, "urbano_rural": "URBANO", "matricula": 1068, "tipo": null, "cut_reg": "10", "cut_prov": "101", "cut_com": "10109", "region": "Los Lagos", "provincia": "Llanquihue", "comuna": "Puerto Varas", "globalid": "119cc240-8a89-4668-814e-f5f44293b881", "latitud": -41.32076, "longitud": -72.98888 }, "geometry": { "type": "Point", "coordinates": [ -72.98888, -41.32076 ] } },
{ "type": "Feature", "properties": { "objectid": 19159, "dependencia": "SLEP", "nombre_establecimiento": "LICEO PEDRO AGUIRRE CERDA", "rbd": "7720", "dgv_rbd": null, "estado": null, "direccion": null, "urbano_rural": "URBANO", "matricula": 585, "tipo": null, "cut_reg": "10", "cut_prov": "101", "cut_com": "10109", "region": "Los Lagos", "provincia": "Llanquihue", "comuna": "Puerto Varas", "globalid": "a99790fb-37a4-4646-88ea-012c3a1a6649", "latitud": -41.32072, "longitud": -72.98097 }, "geometry": { "type": "Point", "coordinates": [ -72.98097, -41.32072 ] } },
{ "type": "Feature", "properties": { "objectid": 19160, "dependencia": "PARTICULAR SUBVENCIONADO", "nombre_establecimiento": "ESCUELA ESPECIAL DE LENGUAJE ALIWEN", "rbd": "22682", "dgv_rbd": null, "estado": null, "direccion": null, "urbano_rural": "URBANO", "matricula": 46, "tipo": null, "cut_reg": "10", "cut_prov": "101", "cut_com": "10109", "region": "Los Lagos", "provincia": "Llanquihue", "comuna": "Puerto Varas", "globalid": "870cce01-bf51-458f-acf5-b99f5fb8cef4", "latitud": -41.32035, "longitud": -72.98269 }, "geometry": { "type": "Point", "coordinates": [ -72.98269, -41.32035 ] } },
{ "type": "Feature", "properties": { "objectid": 19161, "dependencia": "PARTICULAR SUBVENCIONADO", "nombre_establecimiento": "COLEGIO INMACULADA CONCEPCION PUERTO VARAS", "rbd": "7744", "dgv_rbd": null, "estado": null, "direccion": null, "urbano_rural": "URBANO", "matricula": 1196, "tipo": null, "cut_reg": "10", "cut_prov": "101", "cut_com": "10109", "region": "Los Lagos", "provincia": "Llanquihue", "comuna": "Puerto Varas", "globalid": "b36e3664-6e03-4903-b20a-5e8e6915d193", "latitud": -41.31895, "longitud": -72.98857 }, "geometry": { "type": "Point", "coordinates": [ -72.98857, -41.31895 ] } },
{ "type": "Feature", "properties": { "objectid": 19162, "dependencia": "PARTICULAR PAGADO", "nombre_establecimiento": "COLEGIO TERRAVIDA", "rbd": "20601", "dgv_rbd": null, "estado": null, "direccion": null, "urbano_rural": "URBANO", "matricula": 341, "tipo": null, "cut_reg": "10", "cut_prov": "101", "cut_com": "10109", "region": "Los Lagos", "provincia": "Llanquihue", "comuna": "Puerto Varas", "globalid": "7472cd28-eb9c-46a2-976c-47f830ba499d", "latitud": -41.3187, "longitud": -72.98831 }, "geometry": { "type": "Point", "coordinates": [ -72.98831, -41.3187 ] } },
{ "type": "Feature", "properties": { "objectid": 19163, "dependencia": "PARTICULAR SUBVENCIONADO", "nombre_establecimiento": "COLEGIO VENCEDOR", "rbd": "22478", "dgv_rbd": null, "estado": null, "direccion": null, "urbano_rural": "RURAL", "matricula": 539, "tipo": null, "cut_reg": "10", "cut_prov": "101", "cut_com": "10109", "region": "Los Lagos", "provincia": "Llanquihue", "comuna": "Puerto Varas", "globalid": "027f6d4b-a822-49d8-add5-4ce3917c2021", "latitud": -41.31627, "longitud": -72.69339 }, "geometry": { "type": "Point", "coordinates": [ -72.69339, -41.31627 ] } },
{ "type": "Feature", "properties": { "objectid": 19165, "dependencia": "PARTICULAR PAGADO", "nombre_establecimiento": "COLEGIO PUERTO VARAS", "rbd": "22144", "dgv_rbd": null, "estado": null, "direccion": null, "urbano_rural": "URBANO", "matricula": 992, "tipo": null, "cut_reg": "10", "cut_prov": "101", "cut_com": "10109", "region": "Los Lagos", "provincia": "Llanquihue", "comuna": "Puerto Varas", "globalid": "bc9cd573-f836-47b8-b901-66c328c6670b", "latitud": -41.30835, "longitud": -72.99248 }, "geometry": { "type": "Point", "coordinates": [ -72.99248, -41.30835 ] } },
{ "type": "Feature", "properties": { "objectid": 19171, "dependencia": "PARTICULAR PAGADO", "nombre_establecimiento": "COLEGIO PATAGONIA PUERTO VARAS", "rbd": "41439", "dgv_rbd": null, "estado": null, "direccion": null, "urbano_rural": "RURAL", "matricula": 698, "tipo": null, "cut_reg": "10", "cut_prov": "101", "cut_com": "10109", "region": "Los Lagos", "provincia": "Llanquihue", "comuna": "Puerto Varas", "globalid": "21f142ab-7a4b-46bd-bbd1-76089902dcaf", "latitud": -41.29515, "longitud": -72.99145 }, "geometry": { "type": "Point", "coordinates": [ -72.99145, -41.29515 ] } },
{ "type": "Feature", "properties": { "objectid": 19177, "dependencia": "SLEP", "nombre_establecimiento": "LICEO BICENTENARIO POLITECNICO HOLANDA", "rbd": "7956", "dgv_rbd": null, "estado": null, "direccion": null, "urbano_rural": "URBANO", "matricula": 387, "tipo": null, "cut_reg": "10", "cut_prov": "101", "cut_com": "10107", "region": "Los Lagos", "provincia": "Llanquihue", "comuna": "Llanquihue", "globalid": "3f37ff15-58ec-42dd-9d2d-e41b56bf88b6", "latitud": -41.27212, "longitud": -72.99972 }, "geometry": { "type": "Point", "coordinates": [ -72.99972, -41.27212 ] } },
{ "type": "Feature", "properties": { "objectid": 19178, "dependencia": "PARTICULAR SUBVENCIONADO", "nombre_establecimiento": "ESCUELA PARTICULAR N.239 LOS VOLCANES", "rbd": "7970", "dgv_rbd": null, "estado": null, "direccion": null, "urbano_rural": "URBANO", "matricula": 435, "tipo": null, "cut_reg": "10", "cut_prov": "101", "cut_com": "10107", "region": "Los Lagos", "provincia": "Llanquihue", "comuna": "Llanquihue", "globalid": "1b8abc0c-3a63-4cc7-b4a8-5edb570107df", "latitud": -41.2717, "longitud": -72.99508 }, "geometry": { "type": "Point", "coordinates": [ -72.99508, -41.2717 ] } },
{ "type": "Feature", "properties": { "objectid": 19179, "dependencia": "SLEP", "nombre_establecimiento": "ESCUELA BASICA GABRIELA MISTRAL", "rbd": "7959", "dgv_rbd": null, "estado": null, "direccion": null, "urbano_rural": "URBANO", "matricula": 524, "tipo": null, "cut_reg": "10", "cut_prov": "101", "cut_com": "10107", "region": "Los Lagos", "provincia": "Llanquihue", "comuna": "Llanquihue", "globalid": "b65d6195-6dc9-496f-ba1c-aea830c65ad4", "latitud": -41.27141, "longitud": -72.99858 }, "geometry": { "type": "Point", "coordinates": [ -72.99858, -41.27141 ] } },
{ "type": "Feature", "properties": { "objectid": 19180, "dependencia": "JUNJI", "nombre_establecimiento": "LOS VOLCANES", "rbd": "J10107001", "dgv_rbd": null, "estado": null, "direccion": null, "urbano_rural": "URBANO", "matricula": 78, "tipo": null, "cut_reg": "10", "cut_prov": "101", "cut_com": "10107", "region": "Los Lagos", "provincia": "Llanquihue", "comuna": "Llanquihue", "globalid": "26ed641f-5955-4e84-92dc-38161c433f8e", "latitud": -41.26883863, "longitud": -72.99625791 }, "geometry": { "type": "Point", "coordinates": [ -72.99626, -41.26884 ] } },
{ "type": "Feature", "properties": { "objectid": 19181, "dependencia": "PARTICULAR SUBVENCIONADO", "nombre_establecimiento": "CENTRO DE INTEGRACION LABORAL LAGOS DEL SUR", "rbd": "22701", "dgv_rbd": null, "estado": null, "direccion": null, "urbano_rural": "URBANO", "matricula": 28, "tipo": null, "cut_reg": "10", "cut_prov": "101", "cut_com": "10107", "region": "Los Lagos", "provincia": "Llanquihue", "comuna": "Llanquihue", "globalid": "9da93cee-d987-42fe-b083-4d5510753ad0", "latitud": -41.26595, "longitud": -72.99949 }, "geometry": { "type": "Point", "coordinates": [ -72.99949, -41.26595 ] } },
{ "type": "Feature", "properties": { "objectid": 19183, "dependencia": "SLEP", "nombre_establecimiento": "ESCUELA INES GALLARDO ALVARADO", "rbd": "7958", "dgv_rbd": null, "estado": null, "direccion": null, "urbano_rural": "URBANO", "matricula": 513, "tipo": null, "cut_reg": "10", "cut_prov": "101", "cut_com": "10107", "region": "Los Lagos", "provincia": "Llanquihue", "comuna": "Llanquihue", "globalid": "9e88d4f2-21d7-45a5-abef-3002f90f141b", "latitud": -41.26125, "longitud": -73.00607 }, "geometry": { "type": "Point", "coordinates": [ -73.00607, -41.26125 ] } },
{ "type": "Feature", "properties": { "objectid": 19185, "dependencia": "JUNJI - VTF", "nombre_establecimiento": "MI PEQUENO PARAISO", "rbd": "J10107005", "dgv_rbd": null, "estado": null, "direccion": null, "urbano_rural": "URBANO", "matricula": 65, "tipo": null, "cut_reg": "10", "cut_prov": "101", "cut_com": "10107", "region": "Los Lagos", "provincia": "Llanquihue", "comuna": "Llanquihue", "globalid": "fc282a45-aa02-464b-b208-bc034daf7d77", "latitud": -41.2597149, "longitud": -73.00851755 }, "geometry": { "type": "Point", "coordinates": [ -73.00852, -41.25971 ] } },
{ "type": "Feature", "properties": { "objectid": 19186, "dependencia": "SLEP", "nombre_establecimiento": "ESCUELA RURAL REINALDO RADDATZ HARRICH", "rbd": "7730", "dgv_rbd": null, "estado": null, "direccion": null, "urbano_rural": "RURAL", "matricula": 16, "tipo": null, "cut_reg": "10", "cut_prov": "101", "cut_com": "10109", "region": "Los Lagos", "provincia": "Llanquihue", "comuna": "Puerto Varas", "globalid": "05224a76-1c0c-48ea-80ba-79ad3d51ee89", "latitud": -41.25698, "longitud": -72.80288 }, "geometry": { "type": "Point", "coordinates": [ -72.80288, -41.25698 ] } },
{ "type": "Feature", "properties": { "objectid": 19187, "dependencia": "JUNJI", "nombre_establecimiento": "GOTITAS DE LAGUNA", "rbd": "J10107003", "dgv_rbd": null, "estado": null, "direccion": null, "urbano_rural": "URBANO", "matricula": 104, "tipo": null, "cut_reg": "10", "cut_prov": "101", "cut_com": "10107", "region": "Los Lagos", "provincia": "Llanquihue", "comuna": "Llanquihue", "globalid": "42043482-4f3b-4ad3-9afa-f61cad67efb5", "latitud": -41.25605278, "longitud": -73.00936944 }, "geometry": { "type": "Point", "coordinates": [ -73.00937, -41.25605 ] } },
{ "type": "Feature", "properties": { "objectid": 19188, "dependencia": "PARTICULAR SUBVENCIONADO", "nombre_establecimiento": "ESCUELA ESPECIAL DE LENGUAJE LOS CISNES", "rbd": "22648", "dgv_rbd": null, "estado": null, "direccion": null, "urbano_rural": "URBANO", "matricula": 82, "tipo": null, "cut_reg": "10", "cut_prov": "101", "cut_com": "10107", "region": "Los Lagos", "provincia": "Llanquihue", "comuna": "Llanquihue", "globalid": "d6b93bed-f143-43dc-937c-bef57b1066de", "latitud": -41.25464, "longitud": -73.00266 }, "geometry": { "type": "Point", "coordinates": [ -73.00266, -41.25464 ] } },
{ "type": "Feature", "properties": { "objectid": 19189, "dependencia": "INTEGRA", "nombre_establecimiento": "AYELÉN", "rbd": "I102701", "dgv_rbd": null, "estado": null, "direccion": null, "urbano_rural": "URBANO", "matricula": 80, "tipo": null, "cut_reg": "10", "cut_prov": "101", "cut_com": "10107", "region": "Los Lagos", "provincia": "Llanquihue", "comuna": "Llanquihue", "globalid": "21e48aa2-ccd6-4d00-be43-334f0190569b", "latitud": -41.253302, "longitud": -73.012018 }, "geometry": { "type": "Point", "coordinates": [ -73.01202, -41.2533 ] } },
{ "type": "Feature", "properties": { "objectid": 19190, "dependencia": "PARTICULAR SUBVENCIONADO", "nombre_establecimiento": "SAINT PAUL COLLEGE", "rbd": "22602", "dgv_rbd": null, "estado": null, "direccion": null, "urbano_rural": "URBANO", "matricula": 415, "tipo": null, "cut_reg": "10", "cut_prov": "101", "cut_com": "10107", "region": "Los Lagos", "provincia": "Llanquihue", "comuna": "Llanquihue", "globalid": "ec7a6d3f-b200-48ac-bab5-3b6f43f44c1b", "latitud": -41.25328, "longitud": -73.005 }, "geometry": { "type": "Point", "coordinates": [ -73.005, -41.25328 ] } },
{ "type": "Feature", "properties": { "objectid": 19191, "dependencia": "PARTICULAR SUBVENCIONADO", "nombre_establecimiento": "ESCUELA ESPECIAL DE LENGUAJE GIRASOLES", "rbd": "22647", "dgv_rbd": null, "estado": null, "direccion": null, "urbano_rural": "URBANO", "matricula": 102, "tipo": null, "cut_reg": "10", "cut_prov": "101", "cut_com": "10107", "region": "Los Lagos", "provincia": "Llanquihue", "comuna": "Llanquihue", "globalid": "02b16cd0-b2a7-4b6a-b0ab-a5a0d876a62a", "latitud": -41.24625, "longitud": -73.01006 }, "geometry": { "type": "Point", "coordinates": [ -73.01006, -41.24625 ] } },
{ "type": "Feature", "properties": { "objectid": 19193, "dependencia": "SLEP", "nombre_establecimiento": "ESCUELA RURAL HARDY MINTE BARTSCH", "rbd": "7738", "dgv_rbd": null, "estado": null, "direccion": null, "urbano_rural": "RURAL", "matricula": 48, "tipo": null, "cut_reg": "10", "cut_prov": "101", "cut_com": "10109", "region": "Los Lagos", "provincia": "Llanquihue", "comuna": "Puerto Varas", "globalid": "e2989542-3a9c-4923-ae88-443c93d2013a", "latitud": -41.22366, "longitud": -72.73603 }, "geometry": { "type": "Point", "coordinates": [ -72.73603, -41.22366 ] } },
{ "type": "Feature", "properties": { "objectid": 19197, "dependencia": "JUNJI - VTF", "nombre_establecimiento": "ENSENADA", "rbd": "J10109005", "dgv_rbd": null, "estado": null, "direccion": null, "urbano_rural": "RURAL", "matricula": 27, "tipo": null, "cut_reg": "10", "cut_prov": "101", "cut_com": "10109", "region": "Los Lagos", "provincia": "Llanquihue", "comuna": "Puerto Varas", "globalid": "f190b5cc-b507-4840-98c1-06150db61a41", "latitud": -41.21788833, "longitud": -72.54809226 }, "geometry": { "type": "Point", "coordinates": [ -72.54809, -41.21789 ] } },
{ "type": "Feature", "properties": { "objectid": 19198, "dependencia": "SLEP", "nombre_establecimiento": "ESCUELA RURAL EPSON DE ENSENADA", "rbd": "7740", "dgv_rbd": null, "estado": null, "direccion": null, "urbano_rural": "RURAL", "matricula": 208, "tipo": null, "cut_reg": "10", "cut_prov": "101", "cut_com": "10109", "region": "Los Lagos", "provincia": "Llanquihue", "comuna": "Puerto Varas", "globalid": "088c2f94-77b8-47ee-909b-9126f96198d7", "latitud": -41.20818, "longitud": -72.53943 }, "geometry": { "type": "Point", "coordinates": [ -72.53943, -41.20818 ] } },
{ "type": "Feature", "properties": { "objectid": 19201, "dependencia": "SLEP", "nombre_establecimiento": "ESCUELA RURAL LOS PELLINES", "rbd": "7961", "dgv_rbd": null, "estado": null, "direccion": null, "urbano_rural": "RURAL", "matricula": 178, "tipo": null, "cut_reg": "10", "cut_prov": "101", "cut_com": "10107", "region": "Los Lagos", "provincia": "Llanquihue", "comuna": "Llanquihue", "globalid": "0829b025-8894-4bf0-8884-62afa0eae501", "latitud": -41.19112, "longitud": -73.06567 }, "geometry": { "type": "Point", "coordinates": [ -73.06567, -41.19112 ] } },
{ "type": "Feature", "properties": { "objectid": 19202, "dependencia": "JUNJI", "nombre_establecimiento": "MAPU ALIWEN", "rbd": "J10107002", "dgv_rbd": null, "estado": null, "direccion": null, "urbano_rural": "URBANO", "matricula": 22, "tipo": null, "cut_reg": "10", "cut_prov": "101", "cut_com": "10107", "region": "Los Lagos", "provincia": "Llanquihue", "comuna": "Llanquihue", "globalid": "5dede5cd-f014-4bde-af4e-2a9ce393a06e", "latitud": -41.18860833, "longitud": -73.06843333 }, "geometry": { "type": "Point", "coordinates": [ -73.06843, -41.18861 ] } },
{ "type": "Feature", "properties": { "objectid": 19216, "dependencia": "SLEP", "nombre_establecimiento": "ESCUELA RURAL RICARDO ROTH SCHUTZ", "rbd": "7741", "dgv_rbd": null, "estado": null, "direccion": null, "urbano_rural": "RURAL", "matricula": 16, "tipo": null, "cut_reg": "10", "cut_prov": "101", "cut_com": "10109", "region": "Los Lagos", "provincia": "Llanquihue", "comuna": "Puerto Varas", "globalid": "e52b9aa8-e462-4199-a9d0-2a93ce68ff35", "latitud": -41.13706, "longitud": -72.40318 }, "geometry": { "type": "Point", "coordinates": [ -72.40318, -41.13706 ] } },
{ "type": "Feature", "properties": { "objectid": 19217, "dependencia": "PARTICULAR SUBVENCIONADO", "nombre_establecimiento": "ESCUELA ESPECIAL DE LENGUAJE SANTA CRUZ", "rbd": "40359", "dgv_rbd": null, "estado": null, "direccion": null, "urbano_rural": "URBANO", "matricula": 88, "tipo": null, "cut_reg": "10", "cut_prov": "101", "cut_com": "10105", "region": "Los Lagos", "provincia": "Llanquihue", "comuna": "Frutillar", "globalid": "c9f0f843-fdb1-44ee-8702-1be11e204a9c", "latitud": -41.13691, "longitud": -73.05542 }, "geometry": { "type": "Point", "coordinates": [ -73.05542, -41.13691 ] } },
{ "type": "Feature", "properties": { "objectid": 19218, "dependencia": "SLEP", "nombre_establecimiento": "LICEO INDUSTRIAL CHILENO-ALEMAN", "rbd": "7973", "dgv_rbd": null, "estado": null, "direccion": null, "urbano_rural": "URBANO", "matricula": 581, "tipo": null, "cut_reg": "10", "cut_prov": "101", "cut_com": "10105", "region": "Los Lagos", "provincia": "Llanquihue", "comuna": "Frutillar", "globalid": "6279f278-9c28-4381-9aa2-00aa2657ce90", "latitud": -41.1357, "longitud": -73.0345 }, "geometry": { "type": "Point", "coordinates": [ -73.0345, -41.1357 ] } },
{ "type": "Feature", "properties": { "objectid": 19219, "dependencia": "PARTICULAR PAGADO", "nombre_establecimiento": "COLEGIO KOPERNIKUS", "rbd": "16978", "dgv_rbd": null, "estado": null, "direccion": null, "urbano_rural": "URBANO", "matricula": 314, "tipo": null, "cut_reg": "10", "cut_prov": "101", "cut_com": "10105", "region": "Los Lagos", "provincia": "Llanquihue", "comuna": "Frutillar", "globalid": "8dd4e2b7-c590-43bc-afff-eeb58c3ef9b3", "latitud": -41.1351, "longitud": -73.02744 }, "geometry": { "type": "Point", "coordinates": [ -73.02744, -41.1351 ] } },
{ "type": "Feature", "properties": { "objectid": 19220, "dependencia": "SLEP", "nombre_establecimiento": "ESCUELA BERNARDO PHILIPPI", "rbd": "7976", "dgv_rbd": null, "estado": null, "direccion": null, "urbano_rural": "URBANO", "matricula": 342, "tipo": null, "cut_reg": "10", "cut_prov": "101", "cut_com": "10105", "region": "Los Lagos", "provincia": "Llanquihue", "comuna": "Frutillar", "globalid": "ffe976b1-6823-48b5-967c-7e71432b971c", "latitud": -41.13379, "longitud": -73.02777 }, "geometry": { "type": "Point", "coordinates": [ -73.02777, -41.13379 ] } },
{ "type": "Feature", "properties": { "objectid": 19221, "dependencia": "PARTICULAR PAGADO", "nombre_establecimiento": "INSTITUTO ALEMAN DE FRUTILLAR", "rbd": "8000", "dgv_rbd": null, "estado": null, "direccion": null, "urbano_rural": "URBANO", "matricula": 361, "tipo": null, "cut_reg": "10", "cut_prov": "101", "cut_com": "10105", "region": "Los Lagos", "provincia": "Llanquihue", "comuna": "Frutillar", "globalid": "00096674-e321-4161-96f8-f710820f7a32", "latitud": -41.13304, "longitud": -73.02958 }, "geometry": { "type": "Point", "coordinates": [ -73.02958, -41.13304 ] } },
{ "type": "Feature", "properties": { "objectid": 19223, "dependencia": "PARTICULAR SUBVENCIONADO", "nombre_establecimiento": "JARDIN INFANTIL 'MANZANITA'", "rbd": "22472", "dgv_rbd": null, "estado": null, "direccion": null, "urbano_rural": "URBANO", "matricula": 37, "tipo": null, "cut_reg": "10", "cut_prov": "101", "cut_com": "10105", "region": "Los Lagos", "provincia": "Llanquihue", "comuna": "Frutillar", "globalid": "f0231775-4d5e-4b52-9c5c-832b455873fc", "latitud": -41.13132, "longitud": -73.05871 }, "geometry": { "type": "Point", "coordinates": [ -73.05871, -41.13132 ] } },
{ "type": "Feature", "properties": { "objectid": 19224, "dependencia": "PARTICULAR SUBVENCIONADO", "nombre_establecimiento": "COLEGIO PARTICULAR N. 244 'MADRE DE DIOS'", "rbd": "7989", "dgv_rbd": null, "estado": null, "direccion": null, "urbano_rural": "URBANO", "matricula": 571, "tipo": null, "cut_reg": "10", "cut_prov": "101", "cut_com": "10105", "region": "Los Lagos", "provincia": "Llanquihue", "comuna": "Frutillar", "globalid": "31c96021-71c7-4602-ad81-4ded6812a83f", "latitud": -41.13067, "longitud": -73.05804 }, "geometry": { "type": "Point", "coordinates": [ -73.05804, -41.13067 ] } },
{ "type": "Feature", "properties": { "objectid": 19225, "dependencia": "INTEGRA", "nombre_establecimiento": "BLANCA NIEVES Y LOS ENANITOS", "rbd": "I102801", "dgv_rbd": null, "estado": null, "direccion": null, "urbano_rural": "URBANO", "matricula": 114, "tipo": null, "cut_reg": "10", "cut_prov": "101", "cut_com": "10105", "region": "Los Lagos", "provincia": "Llanquihue", "comuna": "Frutillar", "globalid": "f497395e-a451-4ec8-9ac3-28f81f056ce1", "latitud": -41.130079, "longitud": -73.05868 }, "geometry": { "type": "Point", "coordinates": [ -73.05868, -41.13008 ] } },
{ "type": "Feature", "properties": { "objectid": 19226, "dependencia": "SLEP", "nombre_establecimiento": "ESCUELA ESPECIAL 'SAN AGUSTIN'", "rbd": "22293", "dgv_rbd": null, "estado": null, "direccion": null, "urbano_rural": "URBANO", "matricula": 38, "tipo": null, "cut_reg": "10", "cut_prov": "101", "cut_com": "10105", "region": "Los Lagos", "provincia": "Llanquihue", "comuna": "Frutillar", "globalid": "cc42f20c-f207-498d-a57c-96f133e53cb4", "latitud": -41.13005, "longitud": -73.0598 }, "geometry": { "type": "Point", "coordinates": [ -73.0598, -41.13005 ] } },
{ "type": "Feature", "properties": { "objectid": 19227, "dependencia": "SLEP", "nombre_establecimiento": "LICEO IGNACIO CARRERA PINTO", "rbd": "22022", "dgv_rbd": null, "estado": null, "direccion": null, "urbano_rural": "URBANO", "matricula": 504, "tipo": null, "cut_reg": "10", "cut_prov": "101", "cut_com": "10105", "region": "Los Lagos", "provincia": "Llanquihue", "comuna": "Frutillar", "globalid": "0137f0e3-0c4c-4ddb-8c03-ab2f5e623e62", "latitud": -41.12944, "longitud": -73.06046 }, "geometry": { "type": "Point", "coordinates": [ -73.06046, -41.12944 ] } },
{ "type": "Feature", "properties": { "objectid": 19229, "dependencia": "PARTICULAR SUBVENCIONADO", "nombre_establecimiento": "GREEN COLLEGE", "rbd": "22546", "dgv_rbd": null, "estado": null, "direccion": null, "urbano_rural": "URBANO", "matricula": 222, "tipo": null, "cut_reg": "10", "cut_prov": "101", "cut_com": "10105", "region": "Los Lagos", "provincia": "Llanquihue", "comuna": "Frutillar", "globalid": "660909ff-3a5b-45b6-ae8e-6d2f2e063a45", "latitud": -41.12797, "longitud": -73.05596 }, "geometry": { "type": "Point", "coordinates": [ -73.05596, -41.12797 ] } },
{ "type": "Feature", "properties": { "objectid": 19230, "dependencia": "SLEP", "nombre_establecimiento": "ESCUELA ARTURO ALESSANDRI PALMA", "rbd": "7975", "dgv_rbd": null, "estado": null, "direccion": null, "urbano_rural": "URBANO", "matricula": 358, "tipo": null, "cut_reg": "10", "cut_prov": "101", "cut_com": "10105", "region": "Los Lagos", "provincia": "Llanquihue", "comuna": "Frutillar", "globalid": "1b8b9a9d-b16d-4d39-9a3c-3feca02f016f", "latitud": -41.12678, "longitud": -73.06158 }, "geometry": { "type": "Point", "coordinates": [ -73.06158, -41.12678 ] } },
{ "type": "Feature", "properties": { "objectid": 19232, "dependencia": "JUNJI - VTF", "nombre_establecimiento": "MANITOS DE COLORES", "rbd": "J10105003", "dgv_rbd": null, "estado": null, "direccion": null, "urbano_rural": "URBANO", "matricula": 49, "tipo": null, "cut_reg": "10", "cut_prov": "101", "cut_com": "10105", "region": "Los Lagos", "provincia": "Llanquihue", "comuna": "Frutillar", "globalid": "f1ac6ad6-aabc-4e8b-b535-8a0c3ab8a030", "latitud": -41.12013864, "longitud": -73.05124822 }, "geometry": { "type": "Point", "coordinates": [ -73.05125, -41.12014 ] } },
{ "type": "Feature", "properties": { "objectid": 19233, "dependencia": "JUNJI - VTF", "nombre_establecimiento": "PEQUENOS ANGELITOS", "rbd": "J10105002", "dgv_rbd": null, "estado": null, "direccion": null, "urbano_rural": "URBANO", "matricula": 71, "tipo": null, "cut_reg": "10", "cut_prov": "101", "cut_com": "10105", "region": "Los Lagos", "provincia": "Llanquihue", "comuna": "Frutillar", "globalid": "c9a1fe8c-39d0-45cc-956d-8e899a10a934", "latitud": -41.11767544000001, "longitud": -73.05088491 }, "geometry": { "type": "Point", "coordinates": [ -73.05088, -41.11768 ] } },
{ "type": "Feature", "properties": { "objectid": 19234, "dependencia": "SLEP", "nombre_establecimiento": "ESCUELA VICENTE PEREZ ROSALES", "rbd": "22493", "dgv_rbd": null, "estado": null, "direccion": null, "urbano_rural": "URBANO", "matricula": 303, "tipo": null, "cut_reg": "10", "cut_prov": "101", "cut_com": "10105", "region": "Los Lagos", "provincia": "Llanquihue", "comuna": "Frutillar", "globalid": "a76ec1b8-76d7-4be0-9360-4da019aaab9d", "latitud": -41.11662, "longitud": -73.04896 }, "geometry": { "type": "Point", "coordinates": [ -73.04896, -41.11662 ] } },
{ "type": "Feature", "properties": { "objectid": 19236, "dependencia": "SLEP", "nombre_establecimiento": "ESCUELA CLAUDIO MATTE", "rbd": "11548", "dgv_rbd": null, "estado": null, "direccion": null, "urbano_rural": "RURAL", "matricula": 369, "tipo": null, "cut_reg": "10", "cut_prov": "101", "cut_com": "10105", "region": "Los Lagos", "provincia": "Llanquihue", "comuna": "Frutillar", "globalid": "d2b8ec05-b832-4766-a1ee-2f0cbbb96aa3", "latitud": -41.11353, "longitud": -73.05319 }, "geometry": { "type": "Point", "coordinates": [ -73.05319, -41.11353 ] } },
{ "type": "Feature", "properties": { "objectid": 19237, "dependencia": "PARTICULAR SUBVENCIONADO", "nombre_establecimiento": "ESCUELA ESPECIAL DE LENGUAJE AVELLANOS", "rbd": "22706", "dgv_rbd": null, "estado": null, "direccion": null, "urbano_rural": "URBANO", "matricula": 47, "tipo": null, "cut_reg": "10", "cut_prov": "101", "cut_com": "10105", "region": "Los Lagos", "provincia": "Llanquihue", "comuna": "Frutillar", "globalid": "7f105510-d8d7-4a01-b1c6-862d0eb10ffa", "latitud": -41.1131, "longitud": -73.05378 }, "geometry": { "type": "Point", "coordinates": [ -73.05378, -41.1131 ] } },
{ "type": "Feature", "properties": { "objectid": 19239, "dependencia": "JUNJI - VTF", "nombre_establecimiento": "FRUTILLITA", "rbd": "J10105001", "dgv_rbd": null, "estado": null, "direccion": null, "urbano_rural": "URBANO", "matricula": 90, "tipo": null, "cut_reg": "10", "cut_prov": "101", "cut_com": "10105", "region": "Los Lagos", "provincia": "Llanquihue", "comuna": "Frutillar", "globalid": "b46967bc-06c9-42c6-a3d7-d6bfde7f00e5", "latitud": -41.11177392, "longitud": -73.05504229 }, "geometry": { "type": "Point", "coordinates": [ -73.05504, -41.11177 ] } },
{ "type": "Feature", "properties": { "objectid": 19241, "dependencia": "MUNICIPAL", "nombre_establecimiento": "ESCUELA RURAL LAS CASCADAS", "rbd": "7478", "dgv_rbd": null, "estado": null, "direccion": null, "urbano_rural": "RURAL", "matricula": 195, "tipo": null, "cut_reg": "10", "cut_prov": "103", "cut_com": "10302", "region": "Los Lagos", "provincia": "Osorno", "comuna": "Puerto Octay", "globalid": "eb34ae72-64d2-4eab-b336-ee415bbd4139", "latitud": -41.08197, "longitud": -72.63618 }, "geometry": { "type": "Point", "coordinates": [ -72.63618, -41.08197 ] } },
{ "type": "Feature", "properties": { "objectid": 19244, "dependencia": "SLEP", "nombre_establecimiento": "ESCUELA RURAL MARIO PEREZ NAVARRO", "rbd": "7978", "dgv_rbd": null, "estado": null, "direccion": null, "urbano_rural": "RURAL", "matricula": 23, "tipo": null, "cut_reg": "10", "cut_prov": "101", "cut_com": "10105", "region": "Los Lagos", "provincia": "Llanquihue", "comuna": "Frutillar", "globalid": "4c952da9-6049-485c-b2d6-8d9a3c1aec1c", "latitud": -41.07196, "longitud": -72.93503 }, "geometry": { "type": "Point", "coordinates": [ -72.93503, -41.07196 ] } },
{ "type": "Feature", "properties": { "objectid": 19247, "dependencia": "PARTICULAR SUBVENCIONADO", "nombre_establecimiento": "ESCUELA PARTICULAR JUANITA FERNANDEZ SOLAR", "rbd": "22096", "dgv_rbd": null, "estado": null, "direccion": null, "urbano_rural": "RURAL", "matricula": 81, "tipo": null, "cut_reg": "10", "cut_prov": "101", "cut_com": "10105", "region": "Los Lagos", "provincia": "Llanquihue", "comuna": "Frutillar", "globalid": "9e448015-09ff-476f-886d-da4858a4bfdd", "latitud": -41.05101, "longitud": -72.99426 }, "geometry": { "type": "Point", "coordinates": [ -72.99426, -41.05101 ] } },
{ "type": "Feature", "properties": { "objectid": 19252, "dependencia": "SLEP", "nombre_establecimiento": "ESCUELA RURAL COLONIA SAN MARTIN", "rbd": "7990", "dgv_rbd": null, "estado": null, "direccion": null, "urbano_rural": "RURAL", "matricula": 8, "tipo": null, "cut_reg": "10", "cut_prov": "101", "cut_com": "10105", "region": "Los Lagos", "provincia": "Llanquihue", "comuna": "Frutillar", "globalid": "aa820ccd-8a5e-4eb4-a7b8-5c9415990aca", "latitud": -41.03516, "longitud": -73.06106 }, "geometry": { "type": "Point", "coordinates": [ -73.06106, -41.03516 ] } },
{ "type": "Feature", "properties": { "objectid": 19254, "dependencia": "SLEP", "nombre_establecimiento": "ESCUELA CARLOS SPRINGER NIKLITSCHEK", "rbd": "7987", "dgv_rbd": null, "estado": null, "direccion": null, "urbano_rural": "RURAL", "matricula": 21, "tipo": null, "cut_reg": "10", "cut_prov": "101", "cut_com": "10105", "region": "Los Lagos", "provincia": "Llanquihue", "comuna": "Frutillar", "globalid": "85ed29ad-0a66-4a25-86ae-d5cdfbdb655b", "latitud": -41.02412, "longitud": -72.94321 }, "geometry": { "type": "Point", "coordinates": [ -72.94321, -41.02412 ] } },
{ "type": "Feature", "properties": { "objectid": 19260, "dependencia": "JUNJI - VTF", "nombre_establecimiento": "PECECITOS", "rbd": "J10302004", "dgv_rbd": null, "estado": null, "direccion": null, "urbano_rural": "RURAL", "matricula": 29, "tipo": null, "cut_reg": "10", "cut_prov": "103", "cut_com": "10302", "region": "Los Lagos", "provincia": "Osorno", "comuna": "Puerto Octay", "globalid": "3c57b9aa-51ee-4c90-88b0-135d2a93967b", "latitud": -40.9784621, "longitud": -72.88174772 }, "geometry": { "type": "Point", "coordinates": [ -72.88175, -40.97846 ] } },
{ "type": "Feature", "properties": { "objectid": 19261, "dependencia": "JUNJI - VTF", "nombre_establecimiento": "PAUL HARRIS", "rbd": "J10302003", "dgv_rbd": null, "estado": null, "direccion": null, "urbano_rural": "URBANO", "matricula": 48, "tipo": null, "cut_reg": "10", "cut_prov": "103", "cut_com": "10302", "region": "Los Lagos", "provincia": "Osorno", "comuna": "Puerto Octay", "globalid": "196b982c-74ba-4e69-b990-fbab3fce00ee", "latitud": -40.974837, "longitud": -72.881618 }, "geometry": { "type": "Point", "coordinates": [ -72.88162, -40.97484 ] } },
{ "type": "Feature", "properties": { "objectid": 19262, "dependencia": "MUNICIPAL", "nombre_establecimiento": "ESCUELA ALBERTO HURTADO", "rbd": "7476", "dgv_rbd": null, "estado": null, "direccion": null, "urbano_rural": "URBANO", "matricula": 162, "tipo": null, "cut_reg": "10", "cut_prov": "103", "cut_com": "10302", "region": "Los Lagos", "provincia": "Osorno", "comuna": "Puerto Octay", "globalid": "c3798926-b99c-412a-9cbf-70d277a55477", "latitud": -40.97445, "longitud": -72.88052 }, "geometry": { "type": "Point", "coordinates": [ -72.88052, -40.97445 ] } },
{ "type": "Feature", "properties": { "objectid": 19263, "dependencia": "MUNICIPAL", "nombre_establecimiento": "LICEO BICENTENARIO DE EXCELENCIA BENJAMIN MUÑOZ GAMERO", "rbd": "22050", "dgv_rbd": null, "estado": null, "direccion": null, "urbano_rural": "URBANO", "matricula": 265, "tipo": null, "cut_reg": "10", "cut_prov": "103", "cut_com": "10302", "region": "Los Lagos", "provincia": "Osorno", "comuna": "Puerto Octay", "globalid": "afda10cd-47a8-44c0-a553-b396bbf28b93", "latitud": -40.97412, "longitud": -72.88191 }, "geometry": { "type": "Point", "coordinates": [ -72.88191, -40.97412 ] } },
{ "type": "Feature", "properties": { "objectid": 19264, "dependencia": "PARTICULAR SUBVENCIONADO", "nombre_establecimiento": "COLEGIO SAN VICENTE DE PAUL", "rbd": "22234", "dgv_rbd": null, "estado": null, "direccion": null, "urbano_rural": "URBANO", "matricula": 456, "tipo": null, "cut_reg": "10", "cut_prov": "103", "cut_com": "10302", "region": "Los Lagos", "provincia": "Osorno", "comuna": "Puerto Octay", "globalid": "c9844fb4-cf9d-409a-be23-2bb031f412ed", "latitud": -40.97234, "longitud": -72.88593 }, "geometry": { "type": "Point", "coordinates": [ -72.88593, -40.97234 ] } },
{ "type": "Feature", "properties": { "objectid": 19265, "dependencia": "JUNJI - VTF", "nombre_establecimiento": "LAS CUNCUNITAS", "rbd": "J10302002", "dgv_rbd": null, "estado": null, "direccion": null, "urbano_rural": "URBANO", "matricula": 20, "tipo": null, "cut_reg": "10", "cut_prov": "103", "cut_com": "10302", "region": "Los Lagos", "provincia": "Osorno", "comuna": "Puerto Octay", "globalid": "e74c7d9e-5468-473e-b245-0b21150b9f2f", "latitud": -40.97115308, "longitud": -72.89049631 }, "geometry": { "type": "Point", "coordinates": [ -72.8905, -40.97115 ] } },
{ "type": "Feature", "properties": { "objectid": 19266, "dependencia": "PARTICULAR SUBVENCIONADO", "nombre_establecimiento": "ESCUELA PARTICULAR EMMANUEL", "rbd": "22427", "dgv_rbd": null, "estado": null, "direccion": null, "urbano_rural": "RURAL", "matricula": 26, "tipo": null, "cut_reg": "10", "cut_prov": "103", "cut_com": "10302", "region": "Los Lagos", "provincia": "Osorno", "comuna": "Puerto Octay", "globalid": "5d4ee9b1-f845-40a4-9cc3-97ebd7c0876d", "latitud": -40.95765, "longitud": -72.52881 }, "geometry": { "type": "Point", "coordinates": [ -72.52881, -40.95765 ] } },
{ "type": "Feature", "properties": { "objectid": 19295, "dependencia": "MUNICIPAL", "nombre_establecimiento": "ESCUELA RURAL NOCHACO", "rbd": "7496", "dgv_rbd": null, "estado": null, "direccion": null, "urbano_rural": "RURAL", "matricula": 231, "tipo": null, "cut_reg": "10", "cut_prov": "103", "cut_com": "10302", "region": "Los Lagos", "provincia": "Osorno", "comuna": "Puerto Octay", "globalid": "07a7845e-2e5c-41f3-b986-798c6e02822c", "latitud": -40.89461, "longitud": -72.88232 }, "geometry": { "type": "Point", "coordinates": [ -72.88232, -40.89461 ] } },
{ "type": "Feature", "properties": { "objectid": 19296, "dependencia": "PARTICULAR SUBVENCIONADO", "nombre_establecimiento": "ESCUELA PARTICULAR N.181 LAS GAVIOTAS", "rbd": "7502", "dgv_rbd": null, "estado": null, "direccion": null, "urbano_rural": "RURAL", "matricula": 1, "tipo": null, "cut_reg": "10", "cut_prov": "103", "cut_com": "10302", "region": "Los Lagos", "provincia": "Osorno", "comuna": "Puerto Octay", "globalid": "03d1c18a-3c7a-4e09-87d7-6d0447a50c66", "latitud": -40.89282, "longitud": -72.17409 }, "geometry": { "type": "Point", "coordinates": [ -72.17409, -40.89282 ] } },
{ "type": "Feature", "properties": { "objectid": 19298, "dependencia": "PARTICULAR SUBVENCIONADO", "nombre_establecimiento": "ESCUELA PARTICULAR N.179 NOCHACO", "rbd": "7501", "dgv_rbd": null, "estado": null, "direccion": null, "urbano_rural": "RURAL", "matricula": 7, "tipo": null, "cut_reg": "10", "cut_prov": "103", "cut_com": "10302", "region": "Los Lagos", "provincia": "Osorno", "comuna": "Puerto Octay", "globalid": "cad4c0da-c727-4660-8768-3d1d5f1a4405", "latitud": -40.88631, "longitud": -72.83174 }, "geometry": { "type": "Point", "coordinates": [ -72.83174, -40.88631 ] } },
{ "type": "Feature", "properties": { "objectid": 19299, "dependencia": "JUNJI", "nombre_establecimiento": "CECI PIEDRAS NEGRAS", "rbd": "J10302091", "dgv_rbd": null, "estado": null, "direccion": null, "urbano_rural": "RURAL", "matricula": 3, "tipo": null, "cut_reg": "10", "cut_prov": "103", "cut_com": "10302", "region": "Los Lagos", "provincia": "Osorno", "comuna": "Puerto Octay", "globalid": "7121f6c4-a7ff-480c-9ffe-85b3eeadcb3f", "latitud": -40.885163, "longitud": -72.477827 }, "geometry": { "type": "Point", "coordinates": [ -72.47783, -40.88516 ] } },
{ "type": "Feature", "properties": { "objectid": 19300, "dependencia": "MUNICIPAL", "nombre_establecimiento": "ESCUELA RURAL EL ISLOTE RUPANCO", "rbd": "7479", "dgv_rbd": null, "estado": null, "direccion": null, "urbano_rural": "RURAL", "matricula": 65, "tipo": null, "cut_reg": "10", "cut_prov": "103", "cut_com": "10302", "region": "Los Lagos", "provincia": "Osorno", "comuna": "Puerto Octay", "globalid": "0cda5ec0-5f73-4f3b-8e23-7bb648992c6c", "latitud": -40.88066, "longitud": -72.40867 }, "geometry": { "type": "Point", "coordinates": [ -72.40867, -40.88066 ] } },
{ "type": "Feature", "properties": { "objectid": 19301, "dependencia": "MUNICIPAL", "nombre_establecimiento": "ESCUELA RURAL LA PELLINADA", "rbd": "7489", "dgv_rbd": null, "estado": null, "direccion": null, "urbano_rural": "RURAL", "matricula": 8, "tipo": null, "cut_reg": "10", "cut_prov": "103", "cut_com": "10302", "region": "Los Lagos", "provincia": "Osorno", "comuna": "Puerto Octay", "globalid": "b62c53da-bca0-4e78-bf87-fb7aee2e2222", "latitud": -40.86039, "longitud": -72.57888 }, "geometry": { "type": "Point", "coordinates": [ -72.57888, -40.86039 ] } },
{ "type": "Feature", "properties": { "objectid": 19302, "dependencia": "JUNJI", "nombre_establecimiento": "CECI PELLINADA", "rbd": "J10302092", "dgv_rbd": null, "estado": null, "direccion": null, "urbano_rural": "RURAL", "matricula": 7, "tipo": null, "cut_reg": "10", "cut_prov": "103", "cut_com": "10302", "region": "Los Lagos", "provincia": "Osorno", "comuna": "Puerto Octay", "globalid": "a8d9612a-df9a-49b3-b81b-f9af25d224ae", "latitud": -40.860283, "longitud": -72.579038 }, "geometry": { "type": "Point", "coordinates": [ -72.57904, -40.86028 ] } },
{ "type": "Feature", "properties": { "objectid": 19305, "dependencia": "MUNICIPAL", "nombre_establecimiento": "ESCUELA RURAL SANTA ELVIRA", "rbd": "7469", "dgv_rbd": null, "estado": null, "direccion": null, "urbano_rural": "RURAL", "matricula": 4, "tipo": null, "cut_reg": "10", "cut_prov": "103", "cut_com": "10304", "region": "Los Lagos", "provincia": "Osorno", "comuna": "Puyehue", "globalid": "6f0062c5-fd92-409e-aca1-bc1efca76587", "latitud": -40.84206, "longitud": -72.33298 }, "geometry": { "type": "Point", "coordinates": [ -72.33298, -40.84206 ] } },
{ "type": "Feature", "properties": { "objectid": 19306, "dependencia": "MUNICIPAL", "nombre_establecimiento": "ESCUELA RURAL ADMINISTRACION RUPANCO", "rbd": "7477", "dgv_rbd": null, "estado": null, "direccion": null, "urbano_rural": "RURAL", "matricula": 71, "tipo": null, "cut_reg": "10", "cut_prov": "103", "cut_com": "10302", "region": "Los Lagos", "provincia": "Osorno", "comuna": "Puerto Octay", "globalid": "20ed8f96-8c4b-4cc3-b57e-cef516979008", "latitud": -40.83412, "longitud": -72.89107 }, "geometry": { "type": "Point", "coordinates": [ -72.89107, -40.83412 ] } },
{ "type": "Feature", "properties": { "objectid": 19321, "dependencia": "MUNICIPAL", "nombre_establecimiento": "ESCUELA RURAL EL ENCANTO", "rbd": "7452", "dgv_rbd": null, "estado": null, "direccion": null, "urbano_rural": "RURAL", "matricula": 83, "tipo": null, "cut_reg": "10", "cut_prov": "103", "cut_com": "10304", "region": "Los Lagos", "provincia": "Osorno", "comuna": "Puyehue", "globalid": "d146f942-86d9-4bed-aefd-7918a20033de", "latitud": -40.76761, "longitud": -72.43919 }, "geometry": { "type": "Point", "coordinates": [ -72.43919, -40.76761 ] } },
{ "type": "Feature", "properties": { "objectid": 19322, "dependencia": "JUNJI", "nombre_establecimiento": "LOS PITUFOS", "rbd": "J10304016", "dgv_rbd": null, "estado": null, "direccion": null, "urbano_rural": "URBANO", "matricula": 11, "tipo": null, "cut_reg": "10", "cut_prov": "103", "cut_com": "10304", "region": "Los Lagos", "provincia": "Osorno", "comuna": "Puyehue", "globalid": "df651c21-9b9c-439a-9432-b8514d69d04b", "latitud": -40.76197498, "longitud": -72.6799455 }, "geometry": { "type": "Point", "coordinates": [ -72.67995, -40.76197 ] } },
{ "type": "Feature", "properties": { "objectid": 19323, "dependencia": "MUNICIPAL", "nombre_establecimiento": "ESCUELA RURAL DESAGUE RUPANCO", "rbd": "7463", "dgv_rbd": null, "estado": null, "direccion": null, "urbano_rural": "RURAL", "matricula": 20, "tipo": null, "cut_reg": "10", "cut_prov": "103", "cut_com": "10304", "region": "Los Lagos", "provincia": "Osorno", "comuna": "Puyehue", "globalid": "ee48c87c-24df-4440-a9e2-d638e0d1c06e", "latitud": -40.76168, "longitud": -72.67938 }, "geometry": { "type": "Point", "coordinates": [ -72.67938, -40.76168 ] } },
{ "type": "Feature", "properties": { "objectid": 19326, "dependencia": "JUNJI", "nombre_establecimiento": "CECI RADALES", "rbd": "J10304090", "dgv_rbd": null, "estado": null, "direccion": null, "urbano_rural": "RURAL", "matricula": 15, "tipo": null, "cut_reg": "10", "cut_prov": "103", "cut_com": "10304", "region": "Los Lagos", "provincia": "Osorno", "comuna": "Puyehue", "globalid": "320d53c3-92c2-4d09-b616-2bc267492bec", "latitud": -40.74186796, "longitud": -72.76730077000001 }, "geometry": { "type": "Point", "coordinates": [ -72.7673, -40.74187 ] } },
{ "type": "Feature", "properties": { "objectid": 19327, "dependencia": "MUNICIPAL", "nombre_establecimiento": "ESCUELA RURAL RADALES", "rbd": "7453", "dgv_rbd": null, "estado": null, "direccion": null, "urbano_rural": "RURAL", "matricula": 9, "tipo": null, "cut_reg": "10", "cut_prov": "103", "cut_com": "10304", "region": "Los Lagos", "provincia": "Osorno", "comuna": "Puyehue", "globalid": "a30690d3-1e86-4fb4-a73a-41dccd793fb3", "latitud": -40.74169, "longitud": -72.76677 }, "geometry": { "type": "Point", "coordinates": [ -72.76677, -40.74169 ] } },
{ "type": "Feature", "properties": { "objectid": 19328, "dependencia": "JUNJI", "nombre_establecimiento": "VECHI CARUHA", "rbd": "J10304015", "dgv_rbd": null, "estado": null, "direccion": null, "urbano_rural": "RURAL", "matricula": 15, "tipo": null, "cut_reg": "10", "cut_prov": "103", "cut_com": "10304", "region": "Los Lagos", "provincia": "Osorno", "comuna": "Puyehue", "globalid": "6e83adfa-bd64-4c6a-b0a6-28ffccb12182", "latitud": -40.72631316, "longitud": -72.46174805 }, "geometry": { "type": "Point", "coordinates": [ -72.46175, -40.72631 ] } },
{ "type": "Feature", "properties": { "objectid": 19329, "dependencia": "MUNICIPAL", "nombre_establecimiento": "ESCUELA RURAL FUTACUHIN", "rbd": "7464", "dgv_rbd": null, "estado": null, "direccion": null, "urbano_rural": "RURAL", "matricula": 70, "tipo": null, "cut_reg": "10", "cut_prov": "103", "cut_com": "10304", "region": "Los Lagos", "provincia": "Osorno", "comuna": "Puyehue", "globalid": "d09dc1d6-b46e-49c6-83eb-e7d246646982", "latitud": -40.7258, "longitud": -72.44195 }, "geometry": { "type": "Point", "coordinates": [ -72.44195, -40.7258 ] } },
{ "type": "Feature", "properties": { "objectid": 19330, "dependencia": "JUNJI - VTF", "nombre_establecimiento": "PEQUEÑO PARAISO", "rbd": "J10304003", "dgv_rbd": null, "estado": null, "direccion": null, "urbano_rural": "URBANO", "matricula": 22, "tipo": null, "cut_reg": "10", "cut_prov": "103", "cut_com": "10304", "region": "Los Lagos", "provincia": "Osorno", "comuna": "Puyehue", "globalid": "6374c98a-a9e7-4b1a-a41a-88b7b374b6b9", "latitud": -40.72488735, "longitud": -72.43759043 }, "geometry": { "type": "Point", "coordinates": [ -72.43759, -40.72489 ] } },
{ "type": "Feature", "properties": { "objectid": 19335, "dependencia": "MUNICIPAL", "nombre_establecimiento": "ESCUELA RURAL TERMAS DE PUYEHUE", "rbd": "7465", "dgv_rbd": null, "estado": null, "direccion": null, "urbano_rural": "RURAL", "matricula": 27, "tipo": null, "cut_reg": "10", "cut_prov": "103", "cut_com": "10304", "region": "Los Lagos", "provincia": "Osorno", "comuna": "Puyehue", "globalid": "3ae4636e-990f-49c8-8d3c-85533d7fbf06", "latitud": -40.69646, "longitud": -72.36642 }, "geometry": { "type": "Point", "coordinates": [ -72.36642, -40.69646 ] } },
{ "type": "Feature", "properties": { "objectid": 19336, "dependencia": "PARTICULAR SUBVENCIONADO", "nombre_establecimiento": "ESCUELA ESPECIAL DE LENGUAJE MATISSE", "rbd": "40388", "dgv_rbd": null, "estado": null, "direccion": null, "urbano_rural": "URBANO", "matricula": 25, "tipo": null, "cut_reg": "10", "cut_prov": "103", "cut_com": "10304", "region": "Los Lagos", "provincia": "Osorno", "comuna": "Puyehue", "globalid": "5cbd8e93-c4f2-4da6-8341-7b800a4f2065", "latitud": -40.69389, "longitud": -72.59014 }, "geometry": { "type": "Point", "coordinates": [ -72.59014, -40.69389 ] } },
{ "type": "Feature", "properties": { "objectid": 19337, "dependencia": "MUNICIPAL", "nombre_establecimiento": "ESCUELA RURAL ESTACION NUEVO PORVENIR", "rbd": "7459", "dgv_rbd": null, "estado": null, "direccion": null, "urbano_rural": "URBANO", "matricula": 252, "tipo": null, "cut_reg": "10", "cut_prov": "103", "cut_com": "10304", "region": "Los Lagos", "provincia": "Osorno", "comuna": "Puyehue", "globalid": "08d5dc90-4e71-499c-9c68-740a11fb6964", "latitud": -40.69373, "longitud": -72.60588 }, "geometry": { "type": "Point", "coordinates": [ -72.60588, -40.69373 ] } },
{ "type": "Feature", "properties": { "objectid": 19338, "dependencia": "JUNJI - VTF", "nombre_establecimiento": "NIDITO DE LUZ", "rbd": "J10304001", "dgv_rbd": null, "estado": null, "direccion": null, "urbano_rural": "RURAL", "matricula": 28, "tipo": null, "cut_reg": "10", "cut_prov": "103", "cut_com": "10304", "region": "Los Lagos", "provincia": "Osorno", "comuna": "Puyehue", "globalid": "9ea7178a-cc2d-4b63-ab50-a46af2245aac", "latitud": -40.692761, "longitud": -72.605622 }, "geometry": { "type": "Point", "coordinates": [ -72.60562, -40.69276 ] } },
{ "type": "Feature", "properties": { "objectid": 19339, "dependencia": "INTEGRA", "nombre_establecimiento": "LAS GOLONDRINAS", "rbd": "I101501", "dgv_rbd": null, "estado": null, "direccion": null, "urbano_rural": "URBANO", "matricula": 95, "tipo": null, "cut_reg": "10", "cut_prov": "103", "cut_com": "10304", "region": "Los Lagos", "provincia": "Osorno", "comuna": "Puyehue", "globalid": "d9dddae9-cdbf-482a-8b8c-e9f0beed834f", "latitud": -40.691346, "longitud": -72.605528 }, "geometry": { "type": "Point", "coordinates": [ -72.60553, -40.69135 ] } },
{ "type": "Feature", "properties": { "objectid": 19342, "dependencia": "MUNICIPAL", "nombre_establecimiento": "ESCUELA PARVULARIA 'RAYITO DE SOL'", "rbd": "22070", "dgv_rbd": null, "estado": null, "direccion": null, "urbano_rural": "URBANO", "matricula": 21, "tipo": null, "cut_reg": "10", "cut_prov": "103", "cut_com": "10304", "region": "Los Lagos", "provincia": "Osorno", "comuna": "Puyehue", "globalid": "70ffe361-fc14-4041-8a4e-d1b38b65bf6b", "latitud": -40.68508, "longitud": -72.59142 }, "geometry": { "type": "Point", "coordinates": [ -72.59142, -40.68508 ] } },
{ "type": "Feature", "properties": { "objectid": 19343, "dependencia": "MUNICIPAL", "nombre_establecimiento": "LICEO LAS AMERICAS", "rbd": "22021", "dgv_rbd": null, "estado": null, "direccion": null, "urbano_rural": "URBANO", "matricula": 290, "tipo": null, "cut_reg": "10", "cut_prov": "103", "cut_com": "10304", "region": "Los Lagos", "provincia": "Osorno", "comuna": "Puyehue", "globalid": "59760202-408b-4143-820b-b5df988ebe6a", "latitud": -40.68374, "longitud": -72.59986 }, "geometry": { "type": "Point", "coordinates": [ -72.59986, -40.68374 ] } },
{ "type": "Feature", "properties": { "objectid": 19344, "dependencia": "MUNICIPAL", "nombre_establecimiento": "ESCUELA ENTRE LAGOS", "rbd": "7448", "dgv_rbd": null, "estado": null, "direccion": null, "urbano_rural": "URBANO", "matricula": 363, "tipo": null, "cut_reg": "10", "cut_prov": "103", "cut_com": "10304", "region": "Los Lagos", "provincia": "Osorno", "comuna": "Puyehue", "globalid": "d077aae1-28a7-45b9-b6c3-de414eeacd32", "latitud": -40.68363, "longitud": -72.60412 }, "geometry": { "type": "Point", "coordinates": [ -72.60412, -40.68363 ] } }
]
}
