{
"type": "FeatureCollection",
"name": "PAR",
"crs": { "type": "name", "properties": { "name": "urn:ogc:def:crs:OGC:1.3:CRS84" } },
"xy_coordinate_resolution": 1e-05,
"features": [
{ "type": "Feature", "properties": { "objectid": 32794, "dependencia": "SLEP", "nombre_establecimiento": "ESCUELA SAN FRANCISCO DE ASIS", "rbd": "82", "dgv_rbd": null, "estado": null, "direccion": null, "urbano_rural": "RURAL", "matricula": 2, "tipo": null, "cut_reg": "15", "cut_prov": "152", "cut_com": "15201", "region": "Arica y Parinacota", "provincia": "Parinacota", "comuna": "Putre", "globalid": "0b24b9e2-b9df-4f40-b069-5a3fbf9728dd", "latitud": -18.2688, "longitud": -69.59647 }, "geometry": { "type": "Point", "coordinates": [ -69.59647, -18.2688 ] } },
{ "type": "Feature", "properties": { "objectid": 32795, "dependencia": "INTEGRA", "nombre_establecimiento": "PACHAMAMA", "rbd": "I150301", "dgv_rbd": null, "estado": null, "direccion": null, "urbano_rural": "URBANO", "matricula": 44, "tipo": null, "cut_reg": "15", "cut_prov": "152", "cut_com": "15201", "region": "Arica y Parinacota", "provincia": "Parinacota", "comuna": "Putre", "globalid": "9541e304-4e88-46b5-81f4-062363abc36b", "latitud": -18.198708, "longitud": -69.558798 }, "geometry": { "type": "Point", "coordinates": [ -69.5588, -18.19871 ] } },
{ "type": "Feature", "properties": { "objectid": 32796, "dependencia": "JUNJI", "nombre_establecimiento": "CECI PUTRE", "rbd": "J15201001", "dgv_rbd": null, "estado": null, "direccion": null, "urbano_rural": "RURAL", "matricula": 4, "tipo": null, "cut_reg": "15", "cut_prov": "152", "cut_com": "15201", "region": "Arica y Parinacota", "provincia": "Parinacota", "comuna": "Putre", "globalid": "99c13a48-2a81-4aaa-b74a-a35f8a81b060", "latitud": -18.197051, "longitud": -69.557687 }, "geometry": { "type": "Point", "coordinates": [ -69.55769, -18.19705 ] } },
{ "type": "Feature", "properties": { "objectid": 32797, "dependencia": "SLEP", "nombre_establecimiento": "ESCUELA LOS ALAMOS", "rbd": "84", "dgv_rbd": null, "estado": null, "direccion": null, "urbano_rural": "RURAL", "matricula": 4, "tipo": null, "cut_reg": "15", "cut_prov": "152", "cut_com": "15201", "region": "Arica y Parinacota", "provincia": "Parinacota", "comuna": "Putre", "globalid": "efca21b6-14f3-468f-a405-a8f9b7578823", "latitud": -18.19635, "longitud": -69.55922 }, "geometry": { "type": "Point", "coordinates": [ -69.55922, -18.19635 ] } },
{ "type": "Feature", "properties": { "objectid": 32798, "dependencia": "SLEP", "nombre_establecimiento": "LICEO GRANADEROS", "rbd": "78", "dgv_rbd": null, "estado": null, "direccion": null, "urbano_rural": "RURAL", "matricula": 222, "tipo": null, "cut_reg": "15", "cut_prov": "152", "cut_com": "15201", "region": "Arica y Parinacota", "provincia": "Parinacota", "comuna": "Putre", "globalid": "a6ff5256-2e9e-42de-a952-d1c98026ab7a", "latitud": -18.19582, "longitud": -69.56193 }, "geometry": { "type": "Point", "coordinates": [ -69.56193, -18.19582 ] } },
{ "type": "Feature", "properties": { "objectid": 32799, "dependencia": "SLEP", "nombre_establecimiento": "ESCUELA PAYACHATAS", "rbd": "81", "dgv_rbd": null, "estado": null, "direccion": null, "urbano_rural": "RURAL", "matricula": 6, "tipo": null, "cut_reg": "15", "cut_prov": "152", "cut_com": "15201", "region": "Arica y Parinacota", "provincia": "Parinacota", "comuna": "Putre", "globalid": "39c85501-cca7-47dc-9947-d596025d7a70", "latitud": -18.0544, "longitud": -69.20101 }, "geometry": { "type": "Point", "coordinates": [ -69.20101, -18.0544 ] } },
{ "type": "Feature", "properties": { "objectid": 32800, "dependencia": "INTEGRA", "nombre_establecimiento": "PAYACHATA", "rbd": "I150402", "dgv_rbd": null, "estado": null, "direccion": null, "urbano_rural": "RURAL", "matricula": 4, "tipo": null, "cut_reg": "15", "cut_prov": "152", "cut_com": "15202", "region": "Arica y Parinacota", "provincia": "Parinacota", "comuna": "General Lagos", "globalid": "79f8470d-f02c-4ed5-9adf-aa101227fa85", "latitud": -17.900466, "longitud": -69.348236 }, "geometry": { "type": "Point", "coordinates": [ -69.34824, -17.90047 ] } },
{ "type": "Feature", "properties": { "objectid": 32801, "dependencia": "SLEP", "nombre_establecimiento": "ESCUELA CHUJLLUTA", "rbd": "93", "dgv_rbd": null, "estado": null, "direccion": null, "urbano_rural": "RURAL", "matricula": 3, "tipo": null, "cut_reg": "15", "cut_prov": "152", "cut_com": "15202", "region": "Arica y Parinacota", "provincia": "Parinacota", "comuna": "General Lagos", "globalid": "8d6365d0-46c4-4b6c-af4f-1354ce4e6fd5", "latitud": -17.89942, "longitud": -69.34922 }, "geometry": { "type": "Point", "coordinates": [ -69.34922, -17.89942 ] } },
{ "type": "Feature", "properties": { "objectid": 32804, "dependencia": "SLEP", "nombre_establecimiento": "ESCUELA GUACOYO", "rbd": "94", "dgv_rbd": null, "estado": null, "direccion": null, "urbano_rural": "RURAL", "matricula": 8, "tipo": null, "cut_reg": "15", "cut_prov": "152", "cut_com": "15202", "region": "Arica y Parinacota", "provincia": "Parinacota", "comuna": "General Lagos", "globalid": "1c4a6649-c983-41a3-b593-a458b5f1e8a3", "latitud": -17.76013, "longitud": -69.34494 }, "geometry": { "type": "Point", "coordinates": [ -69.34494, -17.76013 ] } }
]
}
