{
"type": "FeatureCollection",
"name": "PCC",
"crs": { "type": "name", "properties": { "name": "urn:ogc:def:crs:OGC:1.3:CRS84" } },
"xy_coordinate_resolution": 1e-05,
"features": [
{ "type": "Feature", "properties": { "objectid": 17569, "dependencia": "PARTICULAR SUBVENCIONADO", "nombre_establecimiento": "ESCUELA PARTICULAR ESTRELLA SOLITARIA", "rbd": "22153", "dgv_rbd": null, "estado": null, "direccion": null, "urbano_rural": "RURAL", "matricula": 11, "tipo": null, "cut_reg": "14", "cut_prov": "142", "cut_com": "14203", "region": "Los Ríos", "provincia": "Ranco", "comuna": "Lago Ranco", "globalid": "c30bee4b-fb1d-492a-aaa9-0f83789a5c9b", "latitud": -40.37651, "longitud": -72.10715 }, "geometry": { "type": "Point", "coordinates": [ -72.10715, -40.37651 ] } },
{ "type": "Feature", "properties": { "objectid": 17573, "dependencia": "MUNICIPAL", "nombre_establecimiento": "ESCUELA RURAL VIVANCO", "rbd": "7242", "dgv_rbd": null, "estado": null, "direccion": null, "urbano_rural": "RURAL", "matricula": 68, "tipo": null, "cut_reg": "14", "cut_prov": "142", "cut_com": "14204", "region": "Los Ríos", "provincia": "Ranco", "comuna": "Río Bueno", "globalid": "00f72726-2513-4d9d-8385-d6761194e58b", "latitud": -40.37349, "longitud": -72.61694 }, "geometry": { "type": "Point", "coordinates": [ -72.61694, -40.37349 ] } },
{ "type": "Feature", "properties": { "objectid": 17575, "dependencia": "PARTICULAR SUBVENCIONADO", "nombre_establecimiento": "ESCUELA PARTICULAR HUEIMEN", "rbd": "7318", "dgv_rbd": null, "estado": null, "direccion": null, "urbano_rural": "RURAL", "matricula": 1, "tipo": null, "cut_reg": "14", "cut_prov": "142", "cut_com": "14203", "region": "Los Ríos", "provincia": "Ranco", "comuna": "Lago Ranco", "globalid": "8ec77464-7bfc-41b4-aa5e-4765d0a26ae6", "latitud": -40.36013, "longitud": -72.46209 }, "geometry": { "type": "Point", "coordinates": [ -72.46209, -40.36013 ] } },
{ "type": "Feature", "properties": { "objectid": 17576, "dependencia": "PARTICULAR SUBVENCIONADO", "nombre_establecimiento": "ESCUELA PARTICULAR LOS GUINDOS", "rbd": "7314", "dgv_rbd": null, "estado": null, "direccion": null, "urbano_rural": "RURAL", "matricula": 7, "tipo": null, "cut_reg": "14", "cut_prov": "142", "cut_com": "14203", "region": "Los Ríos", "provincia": "Ranco", "comuna": "Lago Ranco", "globalid": "e1c42d78-035f-4f21-8dd1-74d2d34caf4a", "latitud": -40.35676, "longitud": -71.9851 }, "geometry": { "type": "Point", "coordinates": [ -71.9851, -40.35676 ] } },
{ "type": "Feature", "properties": { "objectid": 17577, "dependencia": "PARTICULAR SUBVENCIONADO", "nombre_establecimiento": "ESCUELA PARTICULAR POCURA", "rbd": "7316", "dgv_rbd": null, "estado": null, "direccion": null, "urbano_rural": "RURAL", "matricula": 14, "tipo": null, "cut_reg": "14", "cut_prov": "142", "cut_com": "14203", "region": "Los Ríos", "provincia": "Ranco", "comuna": "Lago Ranco", "globalid": "ca0da8f9-57bc-4d95-a89b-4cadf6e0150b", "latitud": -40.3445, "longitud": -72.10742 }, "geometry": { "type": "Point", "coordinates": [ -72.10742, -40.3445 ] } },
{ "type": "Feature", "properties": { "objectid": 17581, "dependencia": "PARTICULAR SUBVENCIONADO", "nombre_establecimiento": "ESCUELA PARTICULAR CARRAN", "rbd": "7312", "dgv_rbd": null, "estado": null, "direccion": null, "urbano_rural": "RURAL", "matricula": 119, "tipo": null, "cut_reg": "14", "cut_prov": "142", "cut_com": "14203", "region": "Los Ríos", "provincia": "Ranco", "comuna": "Lago Ranco", "globalid": "bb875316-560c-428e-bacc-a5cc04ad2fad", "latitud": -40.33932, "longitud": -72.10302 }, "geometry": { "type": "Point", "coordinates": [ -72.10302, -40.33932 ] } },
{ "type": "Feature", "properties": { "objectid": 17595, "dependencia": "MUNICIPAL", "nombre_establecimiento": "LICEO BICENTENARIO COMPLEJO EDUCACIONAL IGNAO", "rbd": "22758", "dgv_rbd": null, "estado": null, "direccion": null, "urbano_rural": "URBANO", "matricula": 597, "tipo": null, "cut_reg": "14", "cut_prov": "142", "cut_com": "14203", "region": "Los Ríos", "provincia": "Ranco", "comuna": "Lago Ranco", "globalid": "8c2a0a1b-f840-4746-aa26-9381b4e9f73d", "latitud": -40.33413, "longitud": -72.55656 }, "geometry": { "type": "Point", "coordinates": [ -72.55656, -40.33413 ] } },
{ "type": "Feature", "properties": { "objectid": 17598, "dependencia": "JUNJI - VTF", "nombre_establecimiento": "LOS BROTECITOS", "rbd": "J14203004", "dgv_rbd": null, "estado": null, "direccion": null, "urbano_rural": "URBANO", "matricula": 31, "tipo": null, "cut_reg": "14", "cut_prov": "142", "cut_com": "14203", "region": "Los Ríos", "provincia": "Ranco", "comuna": "Lago Ranco", "globalid": "ec7b359e-eb49-4f4c-a7cb-2186af5e2655", "latitud": -40.33182505, "longitud": -72.55412945 }, "geometry": { "type": "Point", "coordinates": [ -72.55413, -40.33183 ] } },
{ "type": "Feature", "properties": { "objectid": 17602, "dependencia": "MUNICIPAL", "nombre_establecimiento": "ESCUELA RURAL PITRENO", "rbd": "7302", "dgv_rbd": null, "estado": null, "direccion": null, "urbano_rural": "RURAL", "matricula": 4, "tipo": null, "cut_reg": "14", "cut_prov": "142", "cut_com": "14203", "region": "Los Ríos", "provincia": "Ranco", "comuna": "Lago Ranco", "globalid": "2a73efb4-9470-470f-8b7e-27d16e0126a2", "latitud": -40.32771, "longitud": -72.31748 }, "geometry": { "type": "Point", "coordinates": [ -72.31748, -40.32771 ] } },
{ "type": "Feature", "properties": { "objectid": 17604, "dependencia": "JUNJI", "nombre_establecimiento": "RINCÓN DEL PARAÍSO", "rbd": "J14203007", "dgv_rbd": null, "estado": null, "direccion": null, "urbano_rural": "RURAL", "matricula": 46, "tipo": null, "cut_reg": "14", "cut_prov": "142", "cut_com": "14203", "region": "Los Ríos", "provincia": "Ranco", "comuna": "Lago Ranco", "globalid": "57413f1b-fce9-4c1d-b5c7-7ccbe487e12a", "latitud": -40.325009, "longitud": -72.483229 }, "geometry": { "type": "Point", "coordinates": [ -72.48323, -40.32501 ] } },
{ "type": "Feature", "properties": { "objectid": 17605, "dependencia": "JUNJI", "nombre_establecimiento": "TREN TREN CO", "rbd": "J14203002", "dgv_rbd": null, "estado": null, "direccion": null, "urbano_rural": "RURAL", "matricula": 16, "tipo": null, "cut_reg": "14", "cut_prov": "142", "cut_com": "14203", "region": "Los Ríos", "provincia": "Ranco", "comuna": "Lago Ranco", "globalid": "ff1ef38b-70c9-4c03-8999-780832109847", "latitud": -40.32374, "longitud": -72.377363 }, "geometry": { "type": "Point", "coordinates": [ -72.37736, -40.32374 ] } },
{ "type": "Feature", "properties": { "objectid": 17606, "dependencia": "MUNICIPAL", "nombre_establecimiento": "ESCUELA RURAL ILIHUE", "rbd": "7301", "dgv_rbd": null, "estado": null, "direccion": null, "urbano_rural": "RURAL", "matricula": 44, "tipo": null, "cut_reg": "14", "cut_prov": "142", "cut_com": "14203", "region": "Los Ríos", "provincia": "Ranco", "comuna": "Lago Ranco", "globalid": "6080eea1-89ab-48ac-8a8e-7d5ffa5fab69", "latitud": -40.32345, "longitud": -72.37741 }, "geometry": { "type": "Point", "coordinates": [ -72.37741, -40.32345 ] } },
{ "type": "Feature", "properties": { "objectid": 17607, "dependencia": "INTEGRA", "nombre_establecimiento": "RUCANTU", "rbd": "I161101", "dgv_rbd": null, "estado": null, "direccion": null, "urbano_rural": "URBANO", "matricula": 67, "tipo": null, "cut_reg": "14", "cut_prov": "142", "cut_com": "14203", "region": "Los Ríos", "provincia": "Ranco", "comuna": "Lago Ranco", "globalid": "001c9e8a-b54a-4fc0-8e13-52eaf0da99c7", "latitud": -40.322254, "longitud": -72.480123 }, "geometry": { "type": "Point", "coordinates": [ -72.48012, -40.32225 ] } },
{ "type": "Feature", "properties": { "objectid": 17608, "dependencia": "MUNICIPAL", "nombre_establecimiento": "LICEO ANTONIO VARAS", "rbd": "7299", "dgv_rbd": null, "estado": null, "direccion": null, "urbano_rural": "URBANO", "matricula": 879, "tipo": null, "cut_reg": "14", "cut_prov": "142", "cut_com": "14203", "region": "Los Ríos", "provincia": "Ranco", "comuna": "Lago Ranco", "globalid": "2085159b-60b8-4c3c-af2a-1daa938e7ddb", "latitud": -40.32111, "longitud": -72.47612 }, "geometry": { "type": "Point", "coordinates": [ -72.47612, -40.32111 ] } },
{ "type": "Feature", "properties": { "objectid": 17609, "dependencia": "PARTICULAR SUBVENCIONADO", "nombre_establecimiento": "ESCUELA PARTICULAR RUPUMEICA", "rbd": "7315", "dgv_rbd": null, "estado": null, "direccion": null, "urbano_rural": "RURAL", "matricula": 11, "tipo": null, "cut_reg": "14", "cut_prov": "142", "cut_com": "14203", "region": "Los Ríos", "provincia": "Ranco", "comuna": "Lago Ranco", "globalid": "a497c734-7ebf-49b2-ae23-d8114ec07e57", "latitud": -40.32107, "longitud": -71.96755 }, "geometry": { "type": "Point", "coordinates": [ -71.96755, -40.32107 ] } },
{ "type": "Feature", "properties": { "objectid": 17610, "dependencia": "MUNICIPAL", "nombre_establecimiento": "ESCUELA RURAL RININAHUE", "rbd": "7303", "dgv_rbd": null, "estado": null, "direccion": null, "urbano_rural": "RURAL", "matricula": 152, "tipo": null, "cut_reg": "14", "cut_prov": "142", "cut_com": "14203", "region": "Los Ríos", "provincia": "Ranco", "comuna": "Lago Ranco", "globalid": "d280dfa7-41d9-420e-99ff-ae5655b986c7", "latitud": -40.31849, "longitud": -72.20941 }, "geometry": { "type": "Point", "coordinates": [ -72.20941, -40.31849 ] } },
{ "type": "Feature", "properties": { "objectid": 17611, "dependencia": "PARTICULAR SUBVENCIONADO", "nombre_establecimiento": "ESCUELA PARTICULAR SAN SEBASTIÁN DE CHANCOYAN", "rbd": "7321", "dgv_rbd": null, "estado": null, "direccion": null, "urbano_rural": "RURAL", "matricula": 13, "tipo": null, "cut_reg": "14", "cut_prov": "142", "cut_com": "14203", "region": "Los Ríos", "provincia": "Ranco", "comuna": "Lago Ranco", "globalid": "d7f63a58-3906-4ac9-97bf-68cb14cc63e5", "latitud": -40.31722, "longitud": -71.9487 }, "geometry": { "type": "Point", "coordinates": [ -71.9487, -40.31722 ] } },
{ "type": "Feature", "properties": { "objectid": 17615, "dependencia": "MUNICIPAL", "nombre_establecimiento": "ESCUELA RURAL HUEINAHUE", "rbd": "7000", "dgv_rbd": null, "estado": null, "direccion": null, "urbano_rural": "RURAL", "matricula": 11, "tipo": null, "cut_reg": "14", "cut_prov": "142", "cut_com": "14202", "region": "Los Ríos", "provincia": "Ranco", "comuna": "Futrono", "globalid": "0e31b21d-f43f-4aae-bad2-2cb86356c2aa", "latitud": -40.31235, "longitud": -71.97689 }, "geometry": { "type": "Point", "coordinates": [ -71.97689, -40.31235 ] } },
{ "type": "Feature", "properties": { "objectid": 17619, "dependencia": "PARTICULAR SUBVENCIONADO", "nombre_establecimiento": "CENTRO EDUCACIONAL INTEGRADO DE ADULTOS LATINOAMERICANO", "rbd": "41533", "dgv_rbd": null, "estado": null, "direccion": null, "urbano_rural": "RURAL", "matricula": 200, "tipo": null, "cut_reg": "14", "cut_prov": "142", "cut_com": "14203", "region": "Los Ríos", "provincia": "Ranco", "comuna": "Lago Ranco", "globalid": "7ca4c663-fef6-4349-bfa4-f08bde74d805", "latitud": -40.31012, "longitud": -72.23335 }, "geometry": { "type": "Point", "coordinates": [ -72.23335, -40.31012 ] } },
{ "type": "Feature", "properties": { "objectid": 17620, "dependencia": "JUNJI - VTF", "nombre_establecimiento": "RAYITO DE SOL", "rbd": "J14203005", "dgv_rbd": null, "estado": null, "direccion": null, "urbano_rural": "RURAL", "matricula": 24, "tipo": null, "cut_reg": "14", "cut_prov": "142", "cut_com": "14203", "region": "Los Ríos", "provincia": "Ranco", "comuna": "Lago Ranco", "globalid": "32654025-df83-412d-bec2-b558d45a57b7", "latitud": -40.30920278, "longitud": -72.22692778 }, "geometry": { "type": "Point", "coordinates": [ -72.22693, -40.3092 ] } },
{ "type": "Feature", "properties": { "objectid": 17635, "dependencia": "PARTICULAR SUBVENCIONADO", "nombre_establecimiento": "ESCUELA PARTICULAR CARRAN CHICO", "rbd": "22016", "dgv_rbd": null, "estado": null, "direccion": null, "urbano_rural": "RURAL", "matricula": 2, "tipo": null, "cut_reg": "14", "cut_prov": "142", "cut_com": "14203", "region": "Los Ríos", "provincia": "Ranco", "comuna": "Lago Ranco", "globalid": "ea152ae4-d745-4c74-8ac2-85bdeb4c1337", "latitud": -40.29927, "longitud": -72.09225 }, "geometry": { "type": "Point", "coordinates": [ -72.09225, -40.29927 ] } },
{ "type": "Feature", "properties": { "objectid": 17657, "dependencia": "MUNICIPAL", "nombre_establecimiento": "ESCUELA RURAL QUILLIN", "rbd": "7306", "dgv_rbd": null, "estado": null, "direccion": null, "urbano_rural": "RURAL", "matricula": 5, "tipo": null, "cut_reg": "14", "cut_prov": "142", "cut_com": "14203", "region": "Los Ríos", "provincia": "Ranco", "comuna": "Lago Ranco", "globalid": "bf489b27-57c3-4fa6-80c9-dfb839d6c9fa", "latitud": -40.28551, "longitud": -72.54405 }, "geometry": { "type": "Point", "coordinates": [ -72.54405, -40.28551 ] } },
{ "type": "Feature", "properties": { "objectid": 17661, "dependencia": "MUNICIPAL", "nombre_establecimiento": "ESCUELA RURAL LA ENSENADA", "rbd": "7307", "dgv_rbd": null, "estado": null, "direccion": null, "urbano_rural": "RURAL", "matricula": 6, "tipo": null, "cut_reg": "14", "cut_prov": "142", "cut_com": "14203", "region": "Los Ríos", "provincia": "Ranco", "comuna": "Lago Ranco", "globalid": "fdf5f6b6-3d9d-4a77-95c8-3d5da942cb2d", "latitud": -40.2794, "longitud": -72.26777 }, "geometry": { "type": "Point", "coordinates": [ -72.26777, -40.2794 ] } },
{ "type": "Feature", "properties": { "objectid": 17665, "dependencia": "JUNJI", "nombre_establecimiento": "LOS ALKALITOS", "rbd": "J14203001", "dgv_rbd": null, "estado": null, "direccion": null, "urbano_rural": "RURAL", "matricula": 13, "tipo": null, "cut_reg": "14", "cut_prov": "142", "cut_com": "14203", "region": "Los Ríos", "provincia": "Ranco", "comuna": "Lago Ranco", "globalid": "2ce728d2-8667-4746-bcf6-b55f575d2d8f", "latitud": -40.272055, "longitud": -72.311335 }, "geometry": { "type": "Point", "coordinates": [ -72.31133, -40.27206 ] } },
{ "type": "Feature", "properties": { "objectid": 17666, "dependencia": "MUNICIPAL", "nombre_establecimiento": "ESCUELA RURAL ILLAHUAPI", "rbd": "7305", "dgv_rbd": null, "estado": null, "direccion": null, "urbano_rural": "RURAL", "matricula": 28, "tipo": null, "cut_reg": "14", "cut_prov": "142", "cut_com": "14203", "region": "Los Ríos", "provincia": "Ranco", "comuna": "Lago Ranco", "globalid": "ac2af81b-1a03-4389-b6a0-af167be376dc", "latitud": -40.27153, "longitud": -72.31063 }, "geometry": { "type": "Point", "coordinates": [ -72.31063, -40.27153 ] } },
{ "type": "Feature", "properties": { "objectid": 17672, "dependencia": "JUNJI - VTF", "nombre_establecimiento": "RAYEN UNELFE", "rbd": "J14202003", "dgv_rbd": null, "estado": null, "direccion": null, "urbano_rural": "RURAL", "matricula": 21, "tipo": null, "cut_reg": "14", "cut_prov": "142", "cut_com": "14202", "region": "Los Ríos", "provincia": "Ranco", "comuna": "Futrono", "globalid": "62e28295-0854-4e39-91fd-d4e9405a951d", "latitud": -40.25174963, "longitud": -72.01732014000001 }, "geometry": { "type": "Point", "coordinates": [ -72.01732, -40.25175 ] } },
{ "type": "Feature", "properties": { "objectid": 17674, "dependencia": "PARTICULAR SUBVENCIONADO", "nombre_establecimiento": "ESCUELA PARTICULAR COMUY", "rbd": "22125", "dgv_rbd": null, "estado": null, "direccion": null, "urbano_rural": "RURAL", "matricula": 5, "tipo": null, "cut_reg": "14", "cut_prov": "142", "cut_com": "14203", "region": "Los Ríos", "provincia": "Ranco", "comuna": "Lago Ranco", "globalid": "f03f8ba5-b654-4bb8-812e-74883869d910", "latitud": -40.24917, "longitud": -72.19874 }, "geometry": { "type": "Point", "coordinates": [ -72.19874, -40.24917 ] } },
{ "type": "Feature", "properties": { "objectid": 17677, "dependencia": "PARTICULAR SUBVENCIONADO", "nombre_establecimiento": "ESCUELA PARTICULAR EL BOSQUE", "rbd": "6848", "dgv_rbd": null, "estado": null, "direccion": null, "urbano_rural": "RURAL", "matricula": 6, "tipo": null, "cut_reg": "14", "cut_prov": "142", "cut_com": "14203", "region": "Los Ríos", "provincia": "Ranco", "comuna": "Lago Ranco", "globalid": "ffb143bc-1aac-4604-8584-aabe1024ff8e", "latitud": -40.24443, "longitud": -72.21938 }, "geometry": { "type": "Point", "coordinates": [ -72.21938, -40.24443 ] } },
{ "type": "Feature", "properties": { "objectid": 17680, "dependencia": "MUNICIPAL", "nombre_establecimiento": "ESCUELA RURAL CALCURRUPE", "rbd": "7304", "dgv_rbd": null, "estado": null, "direccion": null, "urbano_rural": "RURAL", "matricula": 11, "tipo": null, "cut_reg": "14", "cut_prov": "142", "cut_com": "14203", "region": "Los Ríos", "provincia": "Ranco", "comuna": "Lago Ranco", "globalid": "95ae1f1c-926b-4a3b-90ae-b791982eb968", "latitud": -40.2354, "longitud": -72.25059 }, "geometry": { "type": "Point", "coordinates": [ -72.25059, -40.2354 ] } },
{ "type": "Feature", "properties": { "objectid": 17681, "dependencia": "PARTICULAR SUBVENCIONADO", "nombre_establecimiento": "ESCUELA PARTICULAR CHIHUIO", "rbd": "7011", "dgv_rbd": null, "estado": null, "direccion": null, "urbano_rural": "RURAL", "matricula": 21, "tipo": null, "cut_reg": "14", "cut_prov": "142", "cut_com": "14202", "region": "Los Ríos", "provincia": "Ranco", "comuna": "Futrono", "globalid": "e6cebd07-08c3-4e55-a203-e42cb51bf29e", "latitud": -40.23307, "longitud": -71.95974 }, "geometry": { "type": "Point", "coordinates": [ -71.95974, -40.23307 ] } },
{ "type": "Feature", "properties": { "objectid": 17682, "dependencia": "MUNICIPAL", "nombre_establecimiento": "ESCUELA RURAL CURRINE", "rbd": "7003", "dgv_rbd": null, "estado": null, "direccion": null, "urbano_rural": "RURAL", "matricula": 195, "tipo": null, "cut_reg": "14", "cut_prov": "142", "cut_com": "14202", "region": "Los Ríos", "provincia": "Ranco", "comuna": "Futrono", "globalid": "221bc848-e7ac-43bd-84a8-5d9690c55a08", "latitud": -40.23013, "longitud": -72.0023 }, "geometry": { "type": "Point", "coordinates": [ -72.0023, -40.23013 ] } },
{ "type": "Feature", "properties": { "objectid": 17683, "dependencia": "PARTICULAR SUBVENCIONADO", "nombre_establecimiento": "ESCUELA PARTICULAR ALONSO DE ERCILLA", "rbd": "22280", "dgv_rbd": null, "estado": null, "direccion": null, "urbano_rural": "RURAL", "matricula": 43, "tipo": null, "cut_reg": "14", "cut_prov": "142", "cut_com": "14202", "region": "Los Ríos", "provincia": "Ranco", "comuna": "Futrono", "globalid": "b99a0439-d925-4c9e-bd81-9365417e6544", "latitud": -40.21722, "longitud": -71.99861 }, "geometry": { "type": "Point", "coordinates": [ -71.99861, -40.21722 ] } },
{ "type": "Feature", "properties": { "objectid": 17684, "dependencia": "MUNICIPAL", "nombre_establecimiento": "ESCUELA RURAL ISLA HUAPI", "rbd": "6991", "dgv_rbd": null, "estado": null, "direccion": null, "urbano_rural": "RURAL", "matricula": 22, "tipo": null, "cut_reg": "14", "cut_prov": "142", "cut_com": "14202", "region": "Los Ríos", "provincia": "Ranco", "comuna": "Futrono", "globalid": "995b83f1-87a2-480e-98b8-70856ad95bad", "latitud": -40.21471, "longitud": -72.38241 }, "geometry": { "type": "Point", "coordinates": [ -72.38241, -40.21471 ] } },
{ "type": "Feature", "properties": { "objectid": 17687, "dependencia": "PARTICULAR SUBVENCIONADO", "nombre_establecimiento": "ESCUELA PARTICULAR SICHAHUE", "rbd": "22349", "dgv_rbd": null, "estado": null, "direccion": null, "urbano_rural": "RURAL", "matricula": 17, "tipo": null, "cut_reg": "14", "cut_prov": "142", "cut_com": "14202", "region": "Los Ríos", "provincia": "Ranco", "comuna": "Futrono", "globalid": "2edb6c9e-d184-49e3-9595-582b58e15520", "latitud": -40.20956, "longitud": -72.17487 }, "geometry": { "type": "Point", "coordinates": [ -72.17487, -40.20956 ] } },
{ "type": "Feature", "properties": { "objectid": 17691, "dependencia": "PARTICULAR SUBVENCIONADO", "nombre_establecimiento": "ESCUELA PARTICULAR CHOLLINCO", "rbd": "7009", "dgv_rbd": null, "estado": null, "direccion": null, "urbano_rural": "RURAL", "matricula": 110, "tipo": null, "cut_reg": "14", "cut_prov": "142", "cut_com": "14202", "region": "Los Ríos", "provincia": "Ranco", "comuna": "Futrono", "globalid": "3c3c2674-ba8e-4c0a-8e41-772f9856e2b2", "latitud": -40.19983, "longitud": -72.23532 }, "geometry": { "type": "Point", "coordinates": [ -72.23532, -40.19983 ] } },
{ "type": "Feature", "properties": { "objectid": 17693, "dependencia": "MUNICIPAL", "nombre_establecimiento": "ESCUELA FRONTERIZA DE LLIFEN", "rbd": "6986", "dgv_rbd": null, "estado": null, "direccion": null, "urbano_rural": "RURAL", "matricula": 136, "tipo": null, "cut_reg": "14", "cut_prov": "142", "cut_com": "14202", "region": "Los Ríos", "provincia": "Ranco", "comuna": "Futrono", "globalid": "312bea58-f3d5-48e0-89ce-02f91c3d3465", "latitud": -40.1983, "longitud": -72.25901 }, "geometry": { "type": "Point", "coordinates": [ -72.25901, -40.1983 ] } },
{ "type": "Feature", "properties": { "objectid": 17694, "dependencia": "MUNICIPAL", "nombre_establecimiento": "INSTITUTO TECNICO PROFESIONAL LLIFEN", "rbd": "11591", "dgv_rbd": null, "estado": null, "direccion": null, "urbano_rural": "RURAL", "matricula": 289, "tipo": null, "cut_reg": "14", "cut_prov": "142", "cut_com": "14202", "region": "Los Ríos", "provincia": "Ranco", "comuna": "Futrono", "globalid": "b6208807-4a85-4a53-8644-4a92576b86e8", "latitud": -40.19814, "longitud": -72.2587 }, "geometry": { "type": "Point", "coordinates": [ -72.2587, -40.19814 ] } },
{ "type": "Feature", "properties": { "objectid": 17695, "dependencia": "JUNJI - VTF", "nombre_establecimiento": "SEMILLITAS DEL EDEN", "rbd": "J14202006", "dgv_rbd": null, "estado": null, "direccion": null, "urbano_rural": "URBANO", "matricula": 30, "tipo": null, "cut_reg": "14", "cut_prov": "142", "cut_com": "14202", "region": "Los Ríos", "provincia": "Ranco", "comuna": "Futrono", "globalid": "b9fcf9c1-1277-4e3f-bf41-d9f807bf8602", "latitud": -40.19795278, "longitud": -72.26003333 }, "geometry": { "type": "Point", "coordinates": [ -72.26003, -40.19795 ] } },
{ "type": "Feature", "properties": { "objectid": 19296, "dependencia": "PARTICULAR SUBVENCIONADO", "nombre_establecimiento": "ESCUELA PARTICULAR N.181 LAS GAVIOTAS", "rbd": "7502", "dgv_rbd": null, "estado": null, "direccion": null, "urbano_rural": "RURAL", "matricula": 1, "tipo": null, "cut_reg": "10", "cut_prov": "103", "cut_com": "10302", "region": "Los Lagos", "provincia": "Osorno", "comuna": "Puerto Octay", "globalid": "03d1c18a-3c7a-4e09-87d7-6d0447a50c66", "latitud": -40.89282, "longitud": -72.17409 }, "geometry": { "type": "Point", "coordinates": [ -72.17409, -40.89282 ] } },
{ "type": "Feature", "properties": { "objectid": 19299, "dependencia": "JUNJI", "nombre_establecimiento": "CECI PIEDRAS NEGRAS", "rbd": "J10302091", "dgv_rbd": null, "estado": null, "direccion": null, "urbano_rural": "RURAL", "matricula": 3, "tipo": null, "cut_reg": "10", "cut_prov": "103", "cut_com": "10302", "region": "Los Lagos", "provincia": "Osorno", "comuna": "Puerto Octay", "globalid": "7121f6c4-a7ff-480c-9ffe-85b3eeadcb3f", "latitud": -40.885163, "longitud": -72.477827 }, "geometry": { "type": "Point", "coordinates": [ -72.47783, -40.88516 ] } },
{ "type": "Feature", "properties": { "objectid": 19300, "dependencia": "MUNICIPAL", "nombre_establecimiento": "ESCUELA RURAL EL ISLOTE RUPANCO", "rbd": "7479", "dgv_rbd": null, "estado": null, "direccion": null, "urbano_rural": "RURAL", "matricula": 65, "tipo": null, "cut_reg": "10", "cut_prov": "103", "cut_com": "10302", "region": "Los Lagos", "provincia": "Osorno", "comuna": "Puerto Octay", "globalid": "0cda5ec0-5f73-4f3b-8e23-7bb648992c6c", "latitud": -40.88066, "longitud": -72.40867 }, "geometry": { "type": "Point", "coordinates": [ -72.40867, -40.88066 ] } },
{ "type": "Feature", "properties": { "objectid": 19301, "dependencia": "MUNICIPAL", "nombre_establecimiento": "ESCUELA RURAL LA PELLINADA", "rbd": "7489", "dgv_rbd": null, "estado": null, "direccion": null, "urbano_rural": "RURAL", "matricula": 8, "tipo": null, "cut_reg": "10", "cut_prov": "103", "cut_com": "10302", "region": "Los Lagos", "provincia": "Osorno", "comuna": "Puerto Octay", "globalid": "b62c53da-bca0-4e78-bf87-fb7aee2e2222", "latitud": -40.86039, "longitud": -72.57888 }, "geometry": { "type": "Point", "coordinates": [ -72.57888, -40.86039 ] } },
{ "type": "Feature", "properties": { "objectid": 19302, "dependencia": "JUNJI", "nombre_establecimiento": "CECI PELLINADA", "rbd": "J10302092", "dgv_rbd": null, "estado": null, "direccion": null, "urbano_rural": "RURAL", "matricula": 7, "tipo": null, "cut_reg": "10", "cut_prov": "103", "cut_com": "10302", "region": "Los Lagos", "provincia": "Osorno", "comuna": "Puerto Octay", "globalid": "a8d9612a-df9a-49b3-b81b-f9af25d224ae", "latitud": -40.860283, "longitud": -72.579038 }, "geometry": { "type": "Point", "coordinates": [ -72.57904, -40.86028 ] } },
{ "type": "Feature", "properties": { "objectid": 19305, "dependencia": "MUNICIPAL", "nombre_establecimiento": "ESCUELA RURAL SANTA ELVIRA", "rbd": "7469", "dgv_rbd": null, "estado": null, "direccion": null, "urbano_rural": "RURAL", "matricula": 4, "tipo": null, "cut_reg": "10", "cut_prov": "103", "cut_com": "10304", "region": "Los Lagos", "provincia": "Osorno", "comuna": "Puyehue", "globalid": "6f0062c5-fd92-409e-aca1-bc1efca76587", "latitud": -40.84206, "longitud": -72.33298 }, "geometry": { "type": "Point", "coordinates": [ -72.33298, -40.84206 ] } },
{ "type": "Feature", "properties": { "objectid": 19321, "dependencia": "MUNICIPAL", "nombre_establecimiento": "ESCUELA RURAL EL ENCANTO", "rbd": "7452", "dgv_rbd": null, "estado": null, "direccion": null, "urbano_rural": "RURAL", "matricula": 83, "tipo": null, "cut_reg": "10", "cut_prov": "103", "cut_com": "10304", "region": "Los Lagos", "provincia": "Osorno", "comuna": "Puyehue", "globalid": "d146f942-86d9-4bed-aefd-7918a20033de", "latitud": -40.76761, "longitud": -72.43919 }, "geometry": { "type": "Point", "coordinates": [ -72.43919, -40.76761 ] } },
{ "type": "Feature", "properties": { "objectid": 19328, "dependencia": "JUNJI", "nombre_establecimiento": "VECHI CARUHA", "rbd": "J10304015", "dgv_rbd": null, "estado": null, "direccion": null, "urbano_rural": "RURAL", "matricula": 15, "tipo": null, "cut_reg": "10", "cut_prov": "103", "cut_com": "10304", "region": "Los Lagos", "provincia": "Osorno", "comuna": "Puyehue", "globalid": "6e83adfa-bd64-4c6a-b0a6-28ffccb12182", "latitud": -40.72631316, "longitud": -72.46174805 }, "geometry": { "type": "Point", "coordinates": [ -72.46175, -40.72631 ] } },
{ "type": "Feature", "properties": { "objectid": 19329, "dependencia": "MUNICIPAL", "nombre_establecimiento": "ESCUELA RURAL FUTACUHIN", "rbd": "7464", "dgv_rbd": null, "estado": null, "direccion": null, "urbano_rural": "RURAL", "matricula": 70, "tipo": null, "cut_reg": "10", "cut_prov": "103", "cut_com": "10304", "region": "Los Lagos", "provincia": "Osorno", "comuna": "Puyehue", "globalid": "d09dc1d6-b46e-49c6-83eb-e7d246646982", "latitud": -40.7258, "longitud": -72.44195 }, "geometry": { "type": "Point", "coordinates": [ -72.44195, -40.7258 ] } },
{ "type": "Feature", "properties": { "objectid": 19330, "dependencia": "JUNJI - VTF", "nombre_establecimiento": "PEQUEÑO PARAISO", "rbd": "J10304003", "dgv_rbd": null, "estado": null, "direccion": null, "urbano_rural": "URBANO", "matricula": 22, "tipo": null, "cut_reg": "10", "cut_prov": "103", "cut_com": "10304", "region": "Los Lagos", "provincia": "Osorno", "comuna": "Puyehue", "globalid": "6374c98a-a9e7-4b1a-a41a-88b7b374b6b9", "latitud": -40.72488735, "longitud": -72.43759043 }, "geometry": { "type": "Point", "coordinates": [ -72.43759, -40.72489 ] } },
{ "type": "Feature", "properties": { "objectid": 19335, "dependencia": "MUNICIPAL", "nombre_establecimiento": "ESCUELA RURAL TERMAS DE PUYEHUE", "rbd": "7465", "dgv_rbd": null, "estado": null, "direccion": null, "urbano_rural": "RURAL", "matricula": 27, "tipo": null, "cut_reg": "10", "cut_prov": "103", "cut_com": "10304", "region": "Los Lagos", "provincia": "Osorno", "comuna": "Puyehue", "globalid": "3ae4636e-990f-49c8-8d3c-85533d7fbf06", "latitud": -40.69646, "longitud": -72.36642 }, "geometry": { "type": "Point", "coordinates": [ -72.36642, -40.69646 ] } },
{ "type": "Feature", "properties": { "objectid": 19336, "dependencia": "PARTICULAR SUBVENCIONADO", "nombre_establecimiento": "ESCUELA ESPECIAL DE LENGUAJE MATISSE", "rbd": "40388", "dgv_rbd": null, "estado": null, "direccion": null, "urbano_rural": "URBANO", "matricula": 25, "tipo": null, "cut_reg": "10", "cut_prov": "103", "cut_com": "10304", "region": "Los Lagos", "provincia": "Osorno", "comuna": "Puyehue", "globalid": "5cbd8e93-c4f2-4da6-8341-7b800a4f2065", "latitud": -40.69389, "longitud": -72.59014 }, "geometry": { "type": "Point", "coordinates": [ -72.59014, -40.69389 ] } },
{ "type": "Feature", "properties": { "objectid": 19337, "dependencia": "MUNICIPAL", "nombre_establecimiento": "ESCUELA RURAL ESTACION NUEVO PORVENIR", "rbd": "7459", "dgv_rbd": null, "estado": null, "direccion": null, "urbano_rural": "URBANO", "matricula": 252, "tipo": null, "cut_reg": "10", "cut_prov": "103", "cut_com": "10304", "region": "Los Lagos", "provincia": "Osorno", "comuna": "Puyehue", "globalid": "08d5dc90-4e71-499c-9c68-740a11fb6964", "latitud": -40.69373, "longitud": -72.60588 }, "geometry": { "type": "Point", "coordinates": [ -72.60588, -40.69373 ] } },
{ "type": "Feature", "properties": { "objectid": 19338, "dependencia": "JUNJI - VTF", "nombre_establecimiento": "NIDITO DE LUZ", "rbd": "J10304001", "dgv_rbd": null, "estado": null, "direccion": null, "urbano_rural": "RURAL", "matricula": 28, "tipo": null, "cut_reg": "10", "cut_prov": "103", "cut_com": "10304", "region": "Los Lagos", "provincia": "Osorno", "comuna": "Puyehue", "globalid": "9ea7178a-cc2d-4b63-ab50-a46af2245aac", "latitud": -40.692761, "longitud": -72.605622 }, "geometry": { "type": "Point", "coordinates": [ -72.60562, -40.69276 ] } },
{ "type": "Feature", "properties": { "objectid": 19339, "dependencia": "INTEGRA", "nombre_establecimiento": "LAS GOLONDRINAS", "rbd": "I101501", "dgv_rbd": null, "estado": null, "direccion": null, "urbano_rural": "URBANO", "matricula": 95, "tipo": null, "cut_reg": "10", "cut_prov": "103", "cut_com": "10304", "region": "Los Lagos", "provincia": "Osorno", "comuna": "Puyehue", "globalid": "d9dddae9-cdbf-482a-8b8c-e9f0beed834f", "latitud": -40.691346, "longitud": -72.605528 }, "geometry": { "type": "Point", "coordinates": [ -72.60553, -40.69135 ] } },
{ "type": "Feature", "properties": { "objectid": 19342, "dependencia": "MUNICIPAL", "nombre_establecimiento": "ESCUELA PARVULARIA 'RAYITO DE SOL'", "rbd": "22070", "dgv_rbd": null, "estado": null, "direccion": null, "urbano_rural": "URBANO", "matricula": 21, "tipo": null, "cut_reg": "10", "cut_prov": "103", "cut_com": "10304", "region": "Los Lagos", "provincia": "Osorno", "comuna": "Puyehue", "globalid": "70ffe361-fc14-4041-8a4e-d1b38b65bf6b", "latitud": -40.68508, "longitud": -72.59142 }, "geometry": { "type": "Point", "coordinates": [ -72.59142, -40.68508 ] } },
{ "type": "Feature", "properties": { "objectid": 19343, "dependencia": "MUNICIPAL", "nombre_establecimiento": "LICEO LAS AMERICAS", "rbd": "22021", "dgv_rbd": null, "estado": null, "direccion": null, "urbano_rural": "URBANO", "matricula": 290, "tipo": null, "cut_reg": "10", "cut_prov": "103", "cut_com": "10304", "region": "Los Lagos", "provincia": "Osorno", "comuna": "Puyehue", "globalid": "59760202-408b-4143-820b-b5df988ebe6a", "latitud": -40.68374, "longitud": -72.59986 }, "geometry": { "type": "Point", "coordinates": [ -72.59986, -40.68374 ] } },
{ "type": "Feature", "properties": { "objectid": 19344, "dependencia": "MUNICIPAL", "nombre_establecimiento": "ESCUELA ENTRE LAGOS", "rbd": "7448", "dgv_rbd": null, "estado": null, "direccion": null, "urbano_rural": "URBANO", "matricula": 363, "tipo": null, "cut_reg": "10", "cut_prov": "103", "cut_com": "10304", "region": "Los Lagos", "provincia": "Osorno", "comuna": "Puyehue", "globalid": "d077aae1-28a7-45b9-b6c3-de414eeacd32", "latitud": -40.68363, "longitud": -72.60412 }, "geometry": { "type": "Point", "coordinates": [ -72.60412, -40.68363 ] } },
{ "type": "Feature", "properties": { "objectid": 19352, "dependencia": "MUNICIPAL", "nombre_establecimiento": "ESCUELA RURAL PILMAIQUEN", "rbd": "7460", "dgv_rbd": null, "estado": null, "direccion": null, "urbano_rural": "RURAL", "matricula": 206, "tipo": null, "cut_reg": "10", "cut_prov": "103", "cut_com": "10304", "region": "Los Lagos", "provincia": "Osorno", "comuna": "Puyehue", "globalid": "4a3e83f2-6425-431f-a8b5-cf9eb407ba9d", "latitud": -40.65227, "longitud": -72.65843 }, "geometry": { "type": "Point", "coordinates": [ -72.65843, -40.65227 ] } },
{ "type": "Feature", "properties": { "objectid": 19353, "dependencia": "JUNJI - VTF", "nombre_establecimiento": "LOS DUENDECITOS DEL SALTO", "rbd": "J10304002", "dgv_rbd": null, "estado": null, "direccion": null, "urbano_rural": "RURAL", "matricula": 21, "tipo": null, "cut_reg": "10", "cut_prov": "103", "cut_com": "10304", "region": "Los Lagos", "provincia": "Osorno", "comuna": "Puyehue", "globalid": "9790e25c-3508-42ff-8d58-40465d8a7e8a", "latitud": -40.650554, "longitud": -72.658678 }, "geometry": { "type": "Point", "coordinates": [ -72.65868, -40.65055 ] } },
{ "type": "Feature", "properties": { "objectid": 19357, "dependencia": "PARTICULAR SUBVENCIONADO", "nombre_establecimiento": "LICEO BICENTENARIO PEOPLE HELP PEOPLE DE PILMAIQUEN", "rbd": "7470", "dgv_rbd": null, "estado": null, "direccion": null, "urbano_rural": "RURAL", "matricula": 494, "tipo": null, "cut_reg": "10", "cut_prov": "103", "cut_com": "10304", "region": "Los Lagos", "provincia": "Osorno", "comuna": "Puyehue", "globalid": "3cfd8fd8-66ec-4d43-a0a5-7d54b953a124", "latitud": -40.63992, "longitud": -72.65522 }, "geometry": { "type": "Point", "coordinates": [ -72.65522, -40.63992 ] } },
{ "type": "Feature", "properties": { "objectid": 19359, "dependencia": "MUNICIPAL", "nombre_establecimiento": "ESCUELA RURAL MANTILHUE ALTO", "rbd": "7252", "dgv_rbd": null, "estado": null, "direccion": null, "urbano_rural": "RURAL", "matricula": 128, "tipo": null, "cut_reg": "14", "cut_prov": "142", "cut_com": "14204", "region": "Los Ríos", "provincia": "Ranco", "comuna": "Río Bueno", "globalid": "c65f8741-b908-4113-8c5f-4ab907560c05", "latitud": -40.63049, "longitud": -72.42586 }, "geometry": { "type": "Point", "coordinates": [ -72.42586, -40.63049 ] } },
{ "type": "Feature", "properties": { "objectid": 19361, "dependencia": "MUNICIPAL", "nombre_establecimiento": "ESCUELA RURAL PISU-PISUE", "rbd": "7262", "dgv_rbd": null, "estado": null, "direccion": null, "urbano_rural": "RURAL", "matricula": 5, "tipo": null, "cut_reg": "14", "cut_prov": "142", "cut_com": "14204", "region": "Los Ríos", "provincia": "Ranco", "comuna": "Río Bueno", "globalid": "a8b24288-8316-4cba-9f4c-4370b3e1dc6f", "latitud": -40.62871, "longitud": -72.53802 }, "geometry": { "type": "Point", "coordinates": [ -72.53802, -40.62871 ] } },
{ "type": "Feature", "properties": { "objectid": 19362, "dependencia": "PARTICULAR SUBVENCIONADO", "nombre_establecimiento": "ESCUELA CHISCAIHUE", "rbd": "7288", "dgv_rbd": null, "estado": null, "direccion": null, "urbano_rural": "RURAL", "matricula": 25, "tipo": null, "cut_reg": "14", "cut_prov": "142", "cut_com": "14204", "region": "Los Ríos", "provincia": "Ranco", "comuna": "Río Bueno", "globalid": "46b5ba4a-f39f-496f-a994-8c52ae9f2a48", "latitud": -40.62361, "longitud": -72.59502 }, "geometry": { "type": "Point", "coordinates": [ -72.59502, -40.62361 ] } },
{ "type": "Feature", "properties": { "objectid": 19364, "dependencia": "MUNICIPAL", "nombre_establecimiento": "ESCUELA RURAL VALLE MANTILHUE BAJO", "rbd": "7250", "dgv_rbd": null, "estado": null, "direccion": null, "urbano_rural": "RURAL", "matricula": 114, "tipo": null, "cut_reg": "14", "cut_prov": "142", "cut_com": "14204", "region": "Los Ríos", "provincia": "Ranco", "comuna": "Río Bueno", "globalid": "9be30313-462e-4fab-abb7-abc70e393c98", "latitud": -40.61709, "longitud": -72.4851 }, "geometry": { "type": "Point", "coordinates": [ -72.4851, -40.61709 ] } },
{ "type": "Feature", "properties": { "objectid": 19366, "dependencia": "PARTICULAR SUBVENCIONADO", "nombre_establecimiento": "ESCUELA CERRO ALEGRE", "rbd": "12188", "dgv_rbd": null, "estado": null, "direccion": null, "urbano_rural": "RURAL", "matricula": 48, "tipo": null, "cut_reg": "14", "cut_prov": "142", "cut_com": "14204", "region": "Los Ríos", "provincia": "Ranco", "comuna": "Río Bueno", "globalid": "5a07dddd-afff-46f5-8c6c-074d62132268", "latitud": -40.61313, "longitud": -72.407 }, "geometry": { "type": "Point", "coordinates": [ -72.407, -40.61313 ] } },
{ "type": "Feature", "properties": { "objectid": 19370, "dependencia": "PARTICULAR SUBVENCIONADO", "nombre_establecimiento": "ESCUELA PARTICULAR TREHUACO", "rbd": "7290", "dgv_rbd": null, "estado": null, "direccion": null, "urbano_rural": "RURAL", "matricula": 32, "tipo": null, "cut_reg": "14", "cut_prov": "142", "cut_com": "14204", "region": "Los Ríos", "provincia": "Ranco", "comuna": "Río Bueno", "globalid": "e5d36085-bd38-4a9d-b0dd-63451ecb7f56", "latitud": -40.60529, "longitud": -72.67035 }, "geometry": { "type": "Point", "coordinates": [ -72.67035, -40.60529 ] } },
{ "type": "Feature", "properties": { "objectid": 19373, "dependencia": "MUNICIPAL", "nombre_establecimiento": "ESCUELA RURAL EL ARRAYAN", "rbd": "7273", "dgv_rbd": null, "estado": null, "direccion": null, "urbano_rural": "RURAL", "matricula": 49, "tipo": null, "cut_reg": "14", "cut_prov": "142", "cut_com": "14204", "region": "Los Ríos", "provincia": "Ranco", "comuna": "Río Bueno", "globalid": "63610735-19dd-42f4-8bb4-4cdb176c9ff3", "latitud": -40.60105, "longitud": -72.51647 }, "geometry": { "type": "Point", "coordinates": [ -72.51647, -40.60105 ] } },
{ "type": "Feature", "properties": { "objectid": 19447, "dependencia": "MUNICIPAL", "nombre_establecimiento": "ESCUELA RURAL CHIRRE", "rbd": "7261", "dgv_rbd": null, "estado": null, "direccion": null, "urbano_rural": "RURAL", "matricula": 24, "tipo": null, "cut_reg": "14", "cut_prov": "142", "cut_com": "14204", "region": "Los Ríos", "provincia": "Ranco", "comuna": "Río Bueno", "globalid": "60f80f33-4ad6-44f9-b7b8-26c75f597111", "latitud": -40.57653, "longitud": -72.6501 }, "geometry": { "type": "Point", "coordinates": [ -72.6501, -40.57653 ] } },
{ "type": "Feature", "properties": { "objectid": 19518, "dependencia": "PARTICULAR SUBVENCIONADO", "nombre_establecimiento": "ESCUELA PARTICULAR BOQUIAL", "rbd": "7285", "dgv_rbd": null, "estado": null, "direccion": null, "urbano_rural": "RURAL", "matricula": 25, "tipo": null, "cut_reg": "14", "cut_prov": "142", "cut_com": "14204", "region": "Los Ríos", "provincia": "Ranco", "comuna": "Río Bueno", "globalid": "52a3c201-a9bb-4e68-87cb-0f7d7c1fcc84", "latitud": -40.54231, "longitud": -72.54156 }, "geometry": { "type": "Point", "coordinates": [ -72.54156, -40.54231 ] } },
{ "type": "Feature", "properties": { "objectid": 19520, "dependencia": "MUNICIPAL", "nombre_establecimiento": "ESCUELA RURAL SANTA ISABEL", "rbd": "7297", "dgv_rbd": null, "estado": null, "direccion": null, "urbano_rural": "RURAL", "matricula": 8, "tipo": null, "cut_reg": "14", "cut_prov": "142", "cut_com": "14204", "region": "Los Ríos", "provincia": "Ranco", "comuna": "Río Bueno", "globalid": "074dca0e-0252-4aaa-8d84-6cf74ba04f91", "latitud": -40.53056, "longitud": -72.5895 }, "geometry": { "type": "Point", "coordinates": [ -72.5895, -40.53056 ] } },
{ "type": "Feature", "properties": { "objectid": 19521, "dependencia": "MUNICIPAL", "nombre_establecimiento": "ESCUELA RURAL CHAMPULLI", "rbd": "7260", "dgv_rbd": null, "estado": null, "direccion": null, "urbano_rural": "RURAL", "matricula": 59, "tipo": null, "cut_reg": "14", "cut_prov": "142", "cut_com": "14204", "region": "Los Ríos", "provincia": "Ranco", "comuna": "Río Bueno", "globalid": "7f68058e-fdd1-4666-8549-ea5d25068bc9", "latitud": -40.52822, "longitud": -72.69787 }, "geometry": { "type": "Point", "coordinates": [ -72.69787, -40.52822 ] } },
{ "type": "Feature", "properties": { "objectid": 19522, "dependencia": "PARTICULAR SUBVENCIONADO", "nombre_establecimiento": "ESCUELA PARTICULAR LOS AZADORES", "rbd": "7296", "dgv_rbd": null, "estado": null, "direccion": null, "urbano_rural": "RURAL", "matricula": 17, "tipo": null, "cut_reg": "14", "cut_prov": "142", "cut_com": "14204", "region": "Los Ríos", "provincia": "Ranco", "comuna": "Río Bueno", "globalid": "f2a801f3-117c-4d12-8cd2-d3110641b09f", "latitud": -40.52471, "longitud": -72.65771 }, "geometry": { "type": "Point", "coordinates": [ -72.65771, -40.52471 ] } },
{ "type": "Feature", "properties": { "objectid": 19523, "dependencia": "MUNICIPAL", "nombre_establecimiento": "ESCUELA RURAL CURRALHUE GRANDE", "rbd": "7253", "dgv_rbd": null, "estado": null, "direccion": null, "urbano_rural": "RURAL", "matricula": 11, "tipo": null, "cut_reg": "14", "cut_prov": "142", "cut_com": "14204", "region": "Los Ríos", "provincia": "Ranco", "comuna": "Río Bueno", "globalid": "e619af97-b4a3-465a-ad07-13890bd16e0b", "latitud": -40.51108, "longitud": -72.60831 }, "geometry": { "type": "Point", "coordinates": [ -72.60831, -40.51108 ] } },
{ "type": "Feature", "properties": { "objectid": 19535, "dependencia": "MUNICIPAL", "nombre_establecimiento": "ESCUELA RURAL FUTAHUENTE", "rbd": "7257", "dgv_rbd": null, "estado": null, "direccion": null, "urbano_rural": "RURAL", "matricula": 6, "tipo": null, "cut_reg": "14", "cut_prov": "142", "cut_com": "14204", "region": "Los Ríos", "provincia": "Ranco", "comuna": "Río Bueno", "globalid": "d49b332c-5da5-4091-b767-5735874af4c7", "latitud": -40.48616, "longitud": -72.6299 }, "geometry": { "type": "Point", "coordinates": [ -72.6299, -40.48616 ] } },
{ "type": "Feature", "properties": { "objectid": 19548, "dependencia": "PARTICULAR SUBVENCIONADO", "nombre_establecimiento": "ESCUELA PARTICULAR EL RADAL", "rbd": "7298", "dgv_rbd": null, "estado": null, "direccion": null, "urbano_rural": "RURAL", "matricula": 18, "tipo": null, "cut_reg": "14", "cut_prov": "142", "cut_com": "14204", "region": "Los Ríos", "provincia": "Ranco", "comuna": "Río Bueno", "globalid": "4af22b60-3ab4-476c-a82f-dd5a429640f7", "latitud": -40.44327, "longitud": -72.65289 }, "geometry": { "type": "Point", "coordinates": [ -72.65289, -40.44327 ] } }
]
}
