{
"type": "FeatureCollection",
"name": "PLP",
"crs": { "type": "name", "properties": { "name": "urn:ogc:def:crs:OGC:1.3:CRS84" } },
"xy_coordinate_resolution": 1e-05,
"features": [
{ "type": "Feature", "properties": { "objectid": 22612, "dependencia": "MUNICIPAL", "nombre_establecimiento": "ESCUELA PABLO NERUDA", "rbd": "2771", "dgv_rbd": null, "estado": null, "direccion": null, "urbano_rural": "RURAL", "matricula": 34, "tipo": null, "cut_reg": "07", "cut_prov": "073", "cut_com": "07301", "region": "Maule", "provincia": "Curicó", "comuna": "Curicó", "globalid": "e2472afc-84aa-476f-8c31-522bd7ece6d0", "latitud": -35.09594, "longitud": -71.08082 }, "geometry": { "type": "Point", "coordinates": [ -71.08082, -35.09594 ] } },
{ "type": "Feature", "properties": { "objectid": 22667, "dependencia": "MUNICIPAL", "nombre_establecimiento": "ESCUELA BASICA LUIS ESCOBAR LARA", "rbd": "2829", "dgv_rbd": null, "estado": null, "direccion": null, "urbano_rural": "RURAL", "matricula": 50, "tipo": null, "cut_reg": "07", "cut_prov": "073", "cut_com": "07306", "region": "Maule", "provincia": "Curicó", "comuna": "Romeral", "globalid": "a3b66da4-296d-49b9-8092-3cda7d36adc5", "latitud": -35.00017, "longitud": -70.81158 }, "geometry": { "type": "Point", "coordinates": [ -70.81158, -35.00017 ] } },
{ "type": "Feature", "properties": { "objectid": 22668, "dependencia": "INTEGRA", "nombre_establecimiento": "LOS PALOMOS", "rbd": "I70302", "dgv_rbd": null, "estado": null, "direccion": null, "urbano_rural": "RURAL", "matricula": 12, "tipo": null, "cut_reg": "07", "cut_prov": "073", "cut_com": "07306", "region": "Maule", "provincia": "Curicó", "comuna": "Romeral", "globalid": "9e1c7fe0-b661-471e-8525-1329314db8e2", "latitud": -34.999793, "longitud": -70.812163 }, "geometry": { "type": "Point", "coordinates": [ -70.81216, -34.99979 ] } },
{ "type": "Feature", "properties": { "objectid": 22736, "dependencia": "MUNICIPAL", "nombre_establecimiento": "ESCUELA GERARDO RODRIGUEZ ORTUZAR", "rbd": "2831", "dgv_rbd": null, "estado": null, "direccion": null, "urbano_rural": "RURAL", "matricula": 67, "tipo": null, "cut_reg": "07", "cut_prov": "073", "cut_com": "07306", "region": "Maule", "provincia": "Curicó", "comuna": "Romeral", "globalid": "6f1ddcff-7e93-4e3f-901b-bcf679df19b4", "latitud": -34.97979, "longitud": -70.98368 }, "geometry": { "type": "Point", "coordinates": [ -70.98368, -34.97979 ] } },
{ "type": "Feature", "properties": { "objectid": 22795, "dependencia": "MUNICIPAL", "nombre_establecimiento": "ESC. MANUEL RODRIGUEZ ERDOIZA", "rbd": "2804", "dgv_rbd": null, "estado": null, "direccion": null, "urbano_rural": "RURAL", "matricula": 162, "tipo": null, "cut_reg": "07", "cut_prov": "073", "cut_com": "07308", "region": "Maule", "provincia": "Curicó", "comuna": "Teno", "globalid": "946d9d8c-5814-44ae-a9d3-0547b696784a", "latitud": -34.95922, "longitud": -70.97116 }, "geometry": { "type": "Point", "coordinates": [ -70.97116, -34.95922 ] } },
{ "type": "Feature", "properties": { "objectid": 24407, "dependencia": "MUNICIPAL", "nombre_establecimiento": "ESCUELA EL RADAL", "rbd": "2856", "dgv_rbd": null, "estado": null, "direccion": null, "urbano_rural": "RURAL", "matricula": 5, "tipo": null, "cut_reg": "07", "cut_prov": "073", "cut_com": "07304", "region": "Maule", "provincia": "Curicó", "comuna": "Molina", "globalid": "c800f23a-7222-4b3d-a950-b943e088b6ec", "latitud": -35.41418, "longitud": -71.05494 }, "geometry": { "type": "Point", "coordinates": [ -71.05494, -35.41418 ] } },
{ "type": "Feature", "properties": { "objectid": 24829, "dependencia": "MUNICIPAL", "nombre_establecimiento": "ESCUELA JULIA CATAN DABIKE", "rbd": "2850", "dgv_rbd": null, "estado": null, "direccion": null, "urbano_rural": "RURAL", "matricula": 14, "tipo": null, "cut_reg": "07", "cut_prov": "073", "cut_com": "07304", "region": "Maule", "provincia": "Curicó", "comuna": "Molina", "globalid": "2b9224c1-d166-41cc-8362-bb7a3572e920", "latitud": -35.22816, "longitud": -71.09185 }, "geometry": { "type": "Point", "coordinates": [ -71.09185, -35.22816 ] } },
{ "type": "Feature", "properties": { "objectid": 24867, "dependencia": "MUNICIPAL", "nombre_establecimiento": "ESCUELA RAMON FREIRE", "rbd": "2765", "dgv_rbd": null, "estado": null, "direccion": null, "urbano_rural": "RURAL", "matricula": 36, "tipo": null, "cut_reg": "07", "cut_prov": "073", "cut_com": "07301", "region": "Maule", "provincia": "Curicó", "comuna": "Curicó", "globalid": "23c9a66c-a8c0-4284-9a93-4ca8f64104c3", "latitud": -35.20524, "longitud": -71.07681 }, "geometry": { "type": "Point", "coordinates": [ -71.07681, -35.20524 ] } },
{ "type": "Feature", "properties": { "objectid": 24889, "dependencia": "JUNJI - VTF", "nombre_establecimiento": "LUCIERNAGA", "rbd": "J7304036", "dgv_rbd": null, "estado": null, "direccion": null, "urbano_rural": "RURAL", "matricula": 21, "tipo": null, "cut_reg": "07", "cut_prov": "073", "cut_com": "07304", "region": "Maule", "provincia": "Curicó", "comuna": "Molina", "globalid": "39ae8788-74e1-40e8-866a-2a4f508c9d37", "latitud": -35.194347, "longitud": -71.115584 }, "geometry": { "type": "Point", "coordinates": [ -71.11558, -35.19435 ] } },
{ "type": "Feature", "properties": { "objectid": 24901, "dependencia": "MUNICIPAL", "nombre_establecimiento": "CENTRO EDUCATIVO POTRERO GRANDE", "rbd": "2754", "dgv_rbd": null, "estado": null, "direccion": null, "urbano_rural": "RURAL", "matricula": 49, "tipo": null, "cut_reg": "07", "cut_prov": "073", "cut_com": "07301", "region": "Maule", "provincia": "Curicó", "comuna": "Curicó", "globalid": "1bab177a-4452-4405-b3b9-02b169e06bf3", "latitud": -35.18085, "longitud": -71.10486 }, "geometry": { "type": "Point", "coordinates": [ -71.10486, -35.18085 ] } },
{ "type": "Feature", "properties": { "objectid": 24996, "dependencia": "MUNICIPAL", "nombre_establecimiento": "ESCUELA JOSE D. MORALES DIAZ", "rbd": "2768", "dgv_rbd": null, "estado": null, "direccion": null, "urbano_rural": "RURAL", "matricula": 11, "tipo": null, "cut_reg": "07", "cut_prov": "073", "cut_com": "07301", "region": "Maule", "provincia": "Curicó", "comuna": "Curicó", "globalid": "8f635743-8a76-4625-bc7a-7e8831632b7c", "latitud": -35.13312, "longitud": -71.04067 }, "geometry": { "type": "Point", "coordinates": [ -71.04067, -35.13312 ] } }
]
}
