{
"type": "FeatureCollection",
"name": "PUT",
"crs": { "type": "name", "properties": { "name": "urn:ogc:def:crs:OGC:1.3:CRS84" } },
"xy_coordinate_resolution": 1e-05,
"features": [
{ "type": "Feature", "properties": { "objectid": 31608, "dependencia": "JUNJI", "nombre_establecimiento": "CHAÑARCITO", "rbd": "J2203001", "dgv_rbd": null, "estado": null, "direccion": null, "urbano_rural": "RURAL", "matricula": 112, "tipo": null, "cut_reg": "02", "cut_prov": "022", "cut_com": "02203", "region": "Antofagasta", "provincia": "El Loa", "comuna": "San Pedro de Atacama", "globalid": "075722ef-27c6-4476-8cb6-233c6e6b6577", "latitud": -22.91294181, "longitud": -68.19604117 }, "geometry": { "type": "Point", "coordinates": [ -68.19604, -22.91294 ] } },
{ "type": "Feature", "properties": { "objectid": 31611, "dependencia": "SLEP", "nombre_establecimiento": "LICEO BICENTENARIO AGROPECUARIO LIKAN ANTAI", "rbd": "12842", "dgv_rbd": null, "estado": null, "direccion": null, "urbano_rural": "URBANO", "matricula": 676, "tipo": null, "cut_reg": "02", "cut_prov": "022", "cut_com": "02203", "region": "Antofagasta", "provincia": "El Loa", "comuna": "San Pedro de Atacama", "globalid": "0f750af2-4cec-433b-8a73-48133967ca6d", "latitud": -22.91293, "longitud": -68.19128 }, "geometry": { "type": "Point", "coordinates": [ -68.19128, -22.91293 ] } },
{ "type": "Feature", "properties": { "objectid": 31614, "dependencia": "INTEGRA", "nombre_establecimiento": "PAUNA LICKAN", "rbd": "I20501", "dgv_rbd": null, "estado": null, "direccion": null, "urbano_rural": "RURAL", "matricula": 86, "tipo": null, "cut_reg": "02", "cut_prov": "022", "cut_com": "02203", "region": "Antofagasta", "provincia": "El Loa", "comuna": "San Pedro de Atacama", "globalid": "3a427d4d-dbfb-4e50-8f05-3446851d00cf", "latitud": -22.912372, "longitud": -68.195358 }, "geometry": { "type": "Point", "coordinates": [ -68.19536, -22.91237 ] } },
{ "type": "Feature", "properties": { "objectid": 31618, "dependencia": "SLEP", "nombre_establecimiento": "ESCUELA BASICA CAMAR", "rbd": "271", "dgv_rbd": null, "estado": null, "direccion": null, "urbano_rural": "RURAL", "matricula": 17, "tipo": null, "cut_reg": "02", "cut_prov": "022", "cut_com": "02203", "region": "Antofagasta", "provincia": "El Loa", "comuna": "San Pedro de Atacama", "globalid": "735bec14-e96d-48e2-9e18-2b4892eac4da", "latitud": -22.91159, "longitud": -68.19796 }, "geometry": { "type": "Point", "coordinates": [ -68.19796, -22.91159 ] } },
{ "type": "Feature", "properties": { "objectid": 31621, "dependencia": "SLEP", "nombre_establecimiento": "ESCUELA BASICA SAN BARTOLOME", "rbd": "277", "dgv_rbd": null, "estado": null, "direccion": null, "urbano_rural": "RURAL", "matricula": 37, "tipo": null, "cut_reg": "02", "cut_prov": "022", "cut_com": "02203", "region": "Antofagasta", "provincia": "El Loa", "comuna": "San Pedro de Atacama", "globalid": "6f63ff51-e777-4acc-9553-e6171235e5f8", "latitud": -22.90843, "longitud": -68.19797 }, "geometry": { "type": "Point", "coordinates": [ -68.19797, -22.90843 ] } },
{ "type": "Feature", "properties": { "objectid": 31624, "dependencia": "SLEP", "nombre_establecimiento": "ESCUELA BASICA ANDINA", "rbd": "275", "dgv_rbd": null, "estado": null, "direccion": null, "urbano_rural": "RURAL", "matricula": 2, "tipo": null, "cut_reg": "02", "cut_prov": "022", "cut_com": "02203", "region": "Antofagasta", "provincia": "El Loa", "comuna": "San Pedro de Atacama", "globalid": "f2c0f903-17c4-4e8a-9d48-4a8ff5be2eb8", "latitud": -22.90804, "longitud": -68.20151 }, "geometry": { "type": "Point", "coordinates": [ -68.20151, -22.90804 ] } },
{ "type": "Feature", "properties": { "objectid": 31627, "dependencia": "JUNJI", "nombre_establecimiento": "LICKAN ANTAI", "rbd": "J2203003", "dgv_rbd": null, "estado": null, "direccion": null, "urbano_rural": "RURAL", "matricula": 123, "tipo": null, "cut_reg": "02", "cut_prov": "022", "cut_com": "02203", "region": "Antofagasta", "provincia": "El Loa", "comuna": "San Pedro de Atacama", "globalid": "078141a3-9da3-4654-a0f6-2336a1fdd3e1", "latitud": -22.900712, "longitud": -68.200163 }, "geometry": { "type": "Point", "coordinates": [ -68.20016, -22.90071 ] } }
]
}
