{
"type": "FeatureCollection",
"name": "QUE",
"crs": { "type": "name", "properties": { "name": "urn:ogc:def:crs:OGC:1.3:CRS84" } },
"xy_coordinate_resolution": 1e-05,
"features": [
{ "type": "Feature", "properties": { "objectid": 17793, "dependencia": "SLEP", "nombre_establecimiento": "ESCUELA RURAL LAGO AZUL", "rbd": "7071", "dgv_rbd": null, "estado": null, "direccion": null, "urbano_rural": "RURAL", "matricula": 67, "tipo": null, "cut_reg": "14", "cut_prov": "141", "cut_com": "14108", "region": "Los Ríos", "provincia": "Valdivia", "comuna": "Panguipulli", "globalid": "cdc8a2a8-c0a2-4788-813b-079c860d5791", "latitud": -39.87301, "longitud": -71.89383 }, "geometry": { "type": "Point", "coordinates": [ -71.89383, -39.87301 ] } },
{ "type": "Feature", "properties": { "objectid": 17830, "dependencia": "PARTICULAR SUBVENCIONADO", "nombre_establecimiento": "ESCUELA FRANCISCO DE ASIS", "rbd": "7114", "dgv_rbd": null, "estado": null, "direccion": null, "urbano_rural": "RURAL", "matricula": 232, "tipo": null, "cut_reg": "14", "cut_prov": "141", "cut_com": "14108", "region": "Los Ríos", "provincia": "Valdivia", "comuna": "Panguipulli", "globalid": "83c894a1-7ea0-471e-8482-56baed7c0bcb", "latitud": -39.8502, "longitud": -71.9466 }, "geometry": { "type": "Point", "coordinates": [ -71.9466, -39.8502 ] } },
{ "type": "Feature", "properties": { "objectid": 17832, "dependencia": "JUNJI - VTF", "nombre_establecimiento": "KIMEN", "rbd": "J14108013", "dgv_rbd": null, "estado": null, "direccion": null, "urbano_rural": "RURAL", "matricula": 56, "tipo": null, "cut_reg": "14", "cut_prov": "141", "cut_com": "14108", "region": "Los Ríos", "provincia": "Valdivia", "comuna": "Panguipulli", "globalid": "b75b1ee3-8755-4deb-b432-0b44e0d062e1", "latitud": -39.850059, "longitud": -71.942884 }, "geometry": { "type": "Point", "coordinates": [ -71.94288, -39.85006 ] } },
{ "type": "Feature", "properties": { "objectid": 17833, "dependencia": "SLEP", "nombre_establecimiento": "COMPLEJO EDUCACIONAL TIERRA DE ESPERANZA", "rbd": "7085", "dgv_rbd": null, "estado": null, "direccion": null, "urbano_rural": "RURAL", "matricula": 204, "tipo": null, "cut_reg": "14", "cut_prov": "141", "cut_com": "14108", "region": "Los Ríos", "provincia": "Valdivia", "comuna": "Panguipulli", "globalid": "7bdcb136-f826-44da-b24f-20469e06b188", "latitud": -39.84992, "longitud": -71.9458 }, "geometry": { "type": "Point", "coordinates": [ -71.9458, -39.84992 ] } },
{ "type": "Feature", "properties": { "objectid": 17868, "dependencia": "SLEP", "nombre_establecimiento": "ESCUELA RURAL LA RINCONADA", "rbd": "7061", "dgv_rbd": null, "estado": null, "direccion": null, "urbano_rural": "RURAL", "matricula": 122, "tipo": null, "cut_reg": "14", "cut_prov": "141", "cut_com": "14108", "region": "Los Ríos", "provincia": "Valdivia", "comuna": "Panguipulli", "globalid": "be0a6ca1-14bc-4676-b8c2-627c1a54cadb", "latitud": -39.83502, "longitud": -72.08224 }, "geometry": { "type": "Point", "coordinates": [ -72.08224, -39.83502 ] } },
{ "type": "Feature", "properties": { "objectid": 17869, "dependencia": "JUNJI - VTF", "nombre_establecimiento": "PEUMAYEN", "rbd": "J14108017", "dgv_rbd": null, "estado": null, "direccion": null, "urbano_rural": "RURAL", "matricula": 31, "tipo": null, "cut_reg": "14", "cut_prov": "141", "cut_com": "14108", "region": "Los Ríos", "provincia": "Valdivia", "comuna": "Panguipulli", "globalid": "53a0a777-eeb8-45d9-ac07-5524de75081b", "latitud": -39.83500278, "longitud": -72.082125 }, "geometry": { "type": "Point", "coordinates": [ -72.08213, -39.835 ] } },
{ "type": "Feature", "properties": { "objectid": 17886, "dependencia": "SLEP", "nombre_establecimiento": "ESCUELA RURAL PUNAHUE", "rbd": "7090", "dgv_rbd": null, "estado": null, "direccion": null, "urbano_rural": "RURAL", "matricula": 7, "tipo": null, "cut_reg": "14", "cut_prov": "141", "cut_com": "14108", "region": "Los Ríos", "provincia": "Valdivia", "comuna": "Panguipulli", "globalid": "5a0f022d-fbb2-4e8d-a96b-1a73b611f7ba", "latitud": -39.83051, "longitud": -72.02322 }, "geometry": { "type": "Point", "coordinates": [ -72.02322, -39.83051 ] } },
{ "type": "Feature", "properties": { "objectid": 17946, "dependencia": "SLEP", "nombre_establecimiento": "ESCUELA RURAL LAGO NELTUME", "rbd": "7089", "dgv_rbd": null, "estado": null, "direccion": null, "urbano_rural": "RURAL", "matricula": 8, "tipo": null, "cut_reg": "14", "cut_prov": "141", "cut_com": "14108", "region": "Los Ríos", "provincia": "Valdivia", "comuna": "Panguipulli", "globalid": "68257ca7-250b-4fc3-a5b0-c5dcdbc5d316", "latitud": -39.81066, "longitud": -71.98404 }, "geometry": { "type": "Point", "coordinates": [ -71.98404, -39.81066 ] } },
{ "type": "Feature", "properties": { "objectid": 17971, "dependencia": "PARTICULAR SUBVENCIONADO", "nombre_establecimiento": "ESCUELA PARTICULAR LIQUINE", "rbd": "7113", "dgv_rbd": null, "estado": null, "direccion": null, "urbano_rural": "RURAL", "matricula": 40, "tipo": null, "cut_reg": "14", "cut_prov": "141", "cut_com": "14108", "region": "Los Ríos", "provincia": "Valdivia", "comuna": "Panguipulli", "globalid": "97f7feb4-af44-4e3b-9983-19f3cdafedce", "latitud": -39.74919, "longitud": -71.85564 }, "geometry": { "type": "Point", "coordinates": [ -71.85564, -39.74919 ] } },
{ "type": "Feature", "properties": { "objectid": 17973, "dependencia": "PARTICULAR SUBVENCIONADO", "nombre_establecimiento": "ESCUELA PARTICULAR NUEVA LIQUINE", "rbd": "7115", "dgv_rbd": null, "estado": null, "direccion": null, "urbano_rural": "RURAL", "matricula": 154, "tipo": null, "cut_reg": "14", "cut_prov": "141", "cut_com": "14108", "region": "Los Ríos", "provincia": "Valdivia", "comuna": "Panguipulli", "globalid": "f33b1467-a1e3-4600-8f58-4653e6426534", "latitud": -39.74672, "longitud": -71.85446 }, "geometry": { "type": "Point", "coordinates": [ -71.85446, -39.74672 ] } },
{ "type": "Feature", "properties": { "objectid": 17974, "dependencia": "JUNJI", "nombre_establecimiento": "PICHIKECHE MAHUIDA", "rbd": "J14108028", "dgv_rbd": null, "estado": null, "direccion": null, "urbano_rural": "RURAL", "matricula": 26, "tipo": null, "cut_reg": "14", "cut_prov": "141", "cut_com": "14108", "region": "Los Ríos", "provincia": "Valdivia", "comuna": "Panguipulli", "globalid": "a57458aa-8f5a-486c-92c0-f6e7422d141e", "latitud": -39.743463, "longitud": -71.854882 }, "geometry": { "type": "Point", "coordinates": [ -71.85488, -39.74346 ] } },
{ "type": "Feature", "properties": { "objectid": 17981, "dependencia": "SLEP", "nombre_establecimiento": "ESCUELA RURAL CARRIRINE", "rbd": "7078", "dgv_rbd": null, "estado": null, "direccion": null, "urbano_rural": "RURAL", "matricula": 18, "tipo": null, "cut_reg": "14", "cut_prov": "141", "cut_com": "14108", "region": "Los Ríos", "provincia": "Valdivia", "comuna": "Panguipulli", "globalid": "0ebccfc0-44b7-4c58-82d3-7aefe3115a19", "latitud": -39.71504, "longitud": -71.85315 }, "geometry": { "type": "Point", "coordinates": [ -71.85315, -39.71504 ] } },
{ "type": "Feature", "properties": { "objectid": 17982, "dependencia": "SLEP", "nombre_establecimiento": "ESCUELA RURAL CACHIM", "rbd": "7101", "dgv_rbd": null, "estado": null, "direccion": null, "urbano_rural": "RURAL", "matricula": 4, "tipo": null, "cut_reg": "14", "cut_prov": "141", "cut_com": "14108", "region": "Los Ríos", "provincia": "Valdivia", "comuna": "Panguipulli", "globalid": "feef1c56-0867-4b88-bc8a-10f4f431b5b6", "latitud": -39.71368, "longitud": -71.87665 }, "geometry": { "type": "Point", "coordinates": [ -71.87665, -39.71368 ] } },
{ "type": "Feature", "properties": { "objectid": 17993, "dependencia": "SLEP", "nombre_establecimiento": "ESCUELA RURAL REHUEICO", "rbd": "7092", "dgv_rbd": null, "estado": null, "direccion": null, "urbano_rural": "RURAL", "matricula": 36, "tipo": null, "cut_reg": "14", "cut_prov": "141", "cut_com": "14108", "region": "Los Ríos", "provincia": "Valdivia", "comuna": "Panguipulli", "globalid": "640eeadd-ebfe-408c-87c0-b4589ccf4209", "latitud": -39.69513, "longitud": -71.89215 }, "geometry": { "type": "Point", "coordinates": [ -71.89215, -39.69513 ] } },
{ "type": "Feature", "properties": { "objectid": 18007, "dependencia": "SLEP", "nombre_establecimiento": "ESCUELA RURAL LLONQUEN", "rbd": "7100", "dgv_rbd": null, "estado": null, "direccion": null, "urbano_rural": "RURAL", "matricula": 91, "tipo": null, "cut_reg": "14", "cut_prov": "141", "cut_com": "14108", "region": "Los Ríos", "provincia": "Valdivia", "comuna": "Panguipulli", "globalid": "d11846d9-1365-46cf-9e20-eb76f96b7928", "latitud": -39.66482, "longitud": -71.90725 }, "geometry": { "type": "Point", "coordinates": [ -71.90725, -39.66482 ] } },
{ "type": "Feature", "properties": { "objectid": 18008, "dependencia": "PARTICULAR SUBVENCIONADO", "nombre_establecimiento": "ESCUELA PARTICULAR TRAFUN CHICO", "rbd": "22269", "dgv_rbd": null, "estado": null, "direccion": null, "urbano_rural": "RURAL", "matricula": 7, "tipo": null, "cut_reg": "14", "cut_prov": "141", "cut_com": "14108", "region": "Los Ríos", "provincia": "Valdivia", "comuna": "Panguipulli", "globalid": "60d52cfa-2294-4f3f-ba63-ba9f1857fd3a", "latitud": -39.66454, "longitud": -71.84603 }, "geometry": { "type": "Point", "coordinates": [ -71.84603, -39.66454 ] } },
{ "type": "Feature", "properties": { "objectid": 18017, "dependencia": "SLEP", "nombre_establecimiento": "ESCUELA RURAL COIHUECO", "rbd": "7086", "dgv_rbd": null, "estado": null, "direccion": null, "urbano_rural": "RURAL", "matricula": 32, "tipo": null, "cut_reg": "14", "cut_prov": "141", "cut_com": "14108", "region": "Los Ríos", "provincia": "Valdivia", "comuna": "Panguipulli", "globalid": "e9ff72a0-e7ff-4f8f-9280-68adda832de4", "latitud": -39.64417, "longitud": -72.20923 }, "geometry": { "type": "Point", "coordinates": [ -72.20923, -39.64417 ] } },
{ "type": "Feature", "properties": { "objectid": 18018, "dependencia": "JUNJI", "nombre_establecimiento": "CECI FULKUNPULLI", "rbd": "J14108022", "dgv_rbd": null, "estado": null, "direccion": null, "urbano_rural": "RURAL", "matricula": 15, "tipo": null, "cut_reg": "14", "cut_prov": "141", "cut_com": "14108", "region": "Los Ríos", "provincia": "Valdivia", "comuna": "Panguipulli", "globalid": "8662ca6b-1b77-4221-ab7e-2a235fc82312", "latitud": -39.64413, "longitud": -72.209196 }, "geometry": { "type": "Point", "coordinates": [ -72.2092, -39.64413 ] } },
{ "type": "Feature", "properties": { "objectid": 18033, "dependencia": "PARTICULAR SUBVENCIONADO", "nombre_establecimiento": "ESCUELA PARTICULAR TRULLUN MAPU", "rbd": "22353", "dgv_rbd": null, "estado": null, "direccion": null, "urbano_rural": "RURAL", "matricula": 7, "tipo": null, "cut_reg": "14", "cut_prov": "141", "cut_com": "14108", "region": "Los Ríos", "provincia": "Valdivia", "comuna": "Panguipulli", "globalid": "ec59631d-b8a5-4c80-bf7f-ea81c0871e21", "latitud": -39.63636, "longitud": -72.18747 }, "geometry": { "type": "Point", "coordinates": [ -72.18747, -39.63636 ] } },
{ "type": "Feature", "properties": { "objectid": 18041, "dependencia": "SLEP", "nombre_establecimiento": "ESCUELA RURAL CAYUMAPU", "rbd": "7088", "dgv_rbd": null, "estado": null, "direccion": null, "urbano_rural": "RURAL", "matricula": 9, "tipo": null, "cut_reg": "14", "cut_prov": "141", "cut_com": "14108", "region": "Los Ríos", "provincia": "Valdivia", "comuna": "Panguipulli", "globalid": "1f92c22a-2daa-4d31-a1c8-39391589560e", "latitud": -39.61272, "longitud": -72.19921 }, "geometry": { "type": "Point", "coordinates": [ -72.19921, -39.61272 ] } },
{ "type": "Feature", "properties": { "objectid": 18045, "dependencia": "PARTICULAR SUBVENCIONADO", "nombre_establecimiento": "LICEO TECNICO PROFESIONAL PEOPLE HELP PEOPLE PULLINQUE", "rbd": "16844", "dgv_rbd": null, "estado": null, "direccion": null, "urbano_rural": "RURAL", "matricula": 521, "tipo": null, "cut_reg": "14", "cut_prov": "141", "cut_com": "14108", "region": "Los Ríos", "provincia": "Valdivia", "comuna": "Panguipulli", "globalid": "8a480dfa-22a8-4297-85e1-7a82abefaa24", "latitud": -39.59905, "longitud": -72.23039 }, "geometry": { "type": "Point", "coordinates": [ -72.23039, -39.59905 ] } },
{ "type": "Feature", "properties": { "objectid": 18047, "dependencia": "SLEP", "nombre_establecimiento": "ESCUELA RURAL PULLINQUE", "rbd": "7062", "dgv_rbd": null, "estado": null, "direccion": null, "urbano_rural": "RURAL", "matricula": 105, "tipo": null, "cut_reg": "14", "cut_prov": "141", "cut_com": "14108", "region": "Los Ríos", "provincia": "Valdivia", "comuna": "Panguipulli", "globalid": "53a35192-59c6-4ba1-9b7e-f4994ef02144", "latitud": -39.5965, "longitud": -72.22223 }, "geometry": { "type": "Point", "coordinates": [ -72.22223, -39.5965 ] } },
{ "type": "Feature", "properties": { "objectid": 18049, "dependencia": "PARTICULAR SUBVENCIONADO", "nombre_establecimiento": "ESCUELA PARTICULAR SAN MIGUEL", "rbd": "22025", "dgv_rbd": null, "estado": null, "direccion": null, "urbano_rural": "RURAL", "matricula": 31, "tipo": null, "cut_reg": "14", "cut_prov": "141", "cut_com": "14108", "region": "Los Ríos", "provincia": "Valdivia", "comuna": "Panguipulli", "globalid": "936df8b6-5961-49ce-b593-7bbd65e1e5be", "latitud": -39.5875, "longitud": -72.00529 }, "geometry": { "type": "Point", "coordinates": [ -72.00529, -39.5875 ] } },
{ "type": "Feature", "properties": { "objectid": 18053, "dependencia": "SLEP", "nombre_establecimiento": "ESCUELA RURAL LLANCAHUE", "rbd": "7072", "dgv_rbd": null, "estado": null, "direccion": null, "urbano_rural": "RURAL", "matricula": 10, "tipo": null, "cut_reg": "14", "cut_prov": "141", "cut_com": "14108", "region": "Los Ríos", "provincia": "Valdivia", "comuna": "Panguipulli", "globalid": "6cef9215-aa54-4fff-a050-5193b09822db", "latitud": -39.58009, "longitud": -71.94461 }, "geometry": { "type": "Point", "coordinates": [ -71.94461, -39.58009 ] } },
{ "type": "Feature", "properties": { "objectid": 18055, "dependencia": "SLEP", "nombre_establecimiento": "ESCUELA RURAL BOCATOMA", "rbd": "7083", "dgv_rbd": null, "estado": null, "direccion": null, "urbano_rural": "RURAL", "matricula": 38, "tipo": null, "cut_reg": "14", "cut_prov": "141", "cut_com": "14108", "region": "Los Ríos", "provincia": "Valdivia", "comuna": "Panguipulli", "globalid": "8bd401f9-167d-4db1-b1b1-e26c6238ce3f", "latitud": -39.57433, "longitud": -72.17935 }, "geometry": { "type": "Point", "coordinates": [ -72.17935, -39.57433 ] } },
{ "type": "Feature", "properties": { "objectid": 18056, "dependencia": "JUNJI - VTF", "nombre_establecimiento": "METATUWE LLONGAHUE", "rbd": "J14108014", "dgv_rbd": null, "estado": null, "direccion": null, "urbano_rural": "RURAL", "matricula": 28, "tipo": null, "cut_reg": "14", "cut_prov": "141", "cut_com": "14108", "region": "Los Ríos", "provincia": "Valdivia", "comuna": "Panguipulli", "globalid": "80f267a1-102f-4b9c-966c-7d5b3d5a5c2d", "latitud": -39.574205, "longitud": -72.179527 }, "geometry": { "type": "Point", "coordinates": [ -72.17953, -39.5742 ] } },
{ "type": "Feature", "properties": { "objectid": 18057, "dependencia": "SLEP", "nombre_establecimiento": "ESCUELA RURAL PITREN", "rbd": "7057", "dgv_rbd": null, "estado": null, "direccion": null, "urbano_rural": "RURAL", "matricula": 5, "tipo": null, "cut_reg": "14", "cut_prov": "141", "cut_com": "14108", "region": "Los Ríos", "provincia": "Valdivia", "comuna": "Panguipulli", "globalid": "a03064b4-294e-4f0f-ba47-50d1079847b4", "latitud": -39.57163, "longitud": -72.21272 }, "geometry": { "type": "Point", "coordinates": [ -72.21272, -39.57163 ] } },
{ "type": "Feature", "properties": { "objectid": 18058, "dependencia": "JUNJI - VTF", "nombre_establecimiento": "RUCAMILLA", "rbd": "J14108015", "dgv_rbd": null, "estado": null, "direccion": null, "urbano_rural": "RURAL", "matricula": 51, "tipo": null, "cut_reg": "14", "cut_prov": "141", "cut_com": "14108", "region": "Los Ríos", "provincia": "Valdivia", "comuna": "Panguipulli", "globalid": "28f2e86b-37ec-4746-b58a-c145b87b64b0", "latitud": -39.56779444, "longitud": -72.00819722 }, "geometry": { "type": "Point", "coordinates": [ -72.0082, -39.56779 ] } },
{ "type": "Feature", "properties": { "objectid": 18059, "dependencia": "PARTICULAR SUBVENCIONADO", "nombre_establecimiento": "ESCUELA PART. PADRE ENRIQUE ROMER", "rbd": "7108", "dgv_rbd": null, "estado": null, "direccion": null, "urbano_rural": "RURAL", "matricula": 188, "tipo": null, "cut_reg": "14", "cut_prov": "141", "cut_com": "14108", "region": "Los Ríos", "provincia": "Valdivia", "comuna": "Panguipulli", "globalid": "3c1e68b5-e71b-4775-9bba-10a997315e57", "latitud": -39.56706, "longitud": -72.00762 }, "geometry": { "type": "Point", "coordinates": [ -72.00762, -39.56706 ] } },
{ "type": "Feature", "properties": { "objectid": 18060, "dependencia": "PARTICULAR SUBVENCIONADO", "nombre_establecimiento": "CENTRO INTEGRAL DE ADULTOS TREUCANCHE", "rbd": "22514", "dgv_rbd": null, "estado": null, "direccion": null, "urbano_rural": "RURAL", "matricula": 40, "tipo": null, "cut_reg": "14", "cut_prov": "141", "cut_com": "14108", "region": "Los Ríos", "provincia": "Valdivia", "comuna": "Panguipulli", "globalid": "21324d52-872d-404b-aa19-495cd3c3e30b", "latitud": -39.56656, "longitud": -72.02036 }, "geometry": { "type": "Point", "coordinates": [ -72.02036, -39.56656 ] } },
{ "type": "Feature", "properties": { "objectid": 18061, "dependencia": "PARTICULAR SUBVENCIONADO", "nombre_establecimiento": "COL. DE ARTES, CIENCIA Y TEC. DA VINCI", "rbd": "7122", "dgv_rbd": null, "estado": null, "direccion": null, "urbano_rural": "RURAL", "matricula": 209, "tipo": null, "cut_reg": "14", "cut_prov": "141", "cut_com": "14108", "region": "Los Ríos", "provincia": "Valdivia", "comuna": "Panguipulli", "globalid": "46f7942e-ea1e-48df-a9f9-f94aed8ce950", "latitud": -39.56603, "longitud": -72.00881 }, "geometry": { "type": "Point", "coordinates": [ -72.00881, -39.56603 ] } },
{ "type": "Feature", "properties": { "objectid": 18567, "dependencia": "PARTICULAR SUBVENCIONADO", "nombre_establecimiento": "LICEO TECNOLOGICO COÑARIPE", "rbd": "40102", "dgv_rbd": null, "estado": null, "direccion": null, "urbano_rural": "RURAL", "matricula": 248, "tipo": null, "cut_reg": "14", "cut_prov": "141", "cut_com": "14108", "region": "Los Ríos", "provincia": "Valdivia", "comuna": "Panguipulli", "globalid": "d79b1433-3ea8-41cd-803b-d886b8fc1c6a", "latitud": -39.54985, "longitud": -71.99007 }, "geometry": { "type": "Point", "coordinates": [ -71.99007, -39.54985 ] } },
{ "type": "Feature", "properties": { "objectid": 18570, "dependencia": "PARTICULAR SUBVENCIONADO", "nombre_establecimiento": "ESCUELA PARTICULAR TRELEHUENO", "rbd": "7123", "dgv_rbd": null, "estado": null, "direccion": null, "urbano_rural": "RURAL", "matricula": 34, "tipo": null, "cut_reg": "14", "cut_prov": "141", "cut_com": "14108", "region": "Los Ríos", "provincia": "Valdivia", "comuna": "Panguipulli", "globalid": "430320f5-2a05-4a74-846f-b18078cfa20d", "latitud": -39.54272, "longitud": -71.97366 }, "geometry": { "type": "Point", "coordinates": [ -71.97366, -39.54272 ] } },
{ "type": "Feature", "properties": { "objectid": 18583, "dependencia": "JUNJI", "nombre_establecimiento": "PICHI NEWEN MAPU", "rbd": "J14108025", "dgv_rbd": null, "estado": null, "direccion": null, "urbano_rural": "RURAL", "matricula": 13, "tipo": null, "cut_reg": "14", "cut_prov": "141", "cut_com": "14108", "region": "Los Ríos", "provincia": "Valdivia", "comuna": "Panguipulli", "globalid": "c3a1981b-9f9a-4e2e-be40-602e6c24747f", "latitud": -39.539192, "longitud": -72.039253 }, "geometry": { "type": "Point", "coordinates": [ -72.03925, -39.53919 ] } },
{ "type": "Feature", "properties": { "objectid": 18584, "dependencia": "PARTICULAR SUBVENCIONADO", "nombre_establecimiento": "ESCUELA PARTICULAR TRAITRAICO", "rbd": "7118", "dgv_rbd": null, "estado": null, "direccion": null, "urbano_rural": "RURAL", "matricula": 40, "tipo": null, "cut_reg": "14", "cut_prov": "141", "cut_com": "14108", "region": "Los Ríos", "provincia": "Valdivia", "comuna": "Panguipulli", "globalid": "671bc132-545e-4e0a-9e16-de650e23ebf6", "latitud": -39.53904, "longitud": -72.03862 }, "geometry": { "type": "Point", "coordinates": [ -72.03862, -39.53904 ] } },
{ "type": "Feature", "properties": { "objectid": 18609, "dependencia": "PARTICULAR SUBVENCIONADO", "nombre_establecimiento": "ESCUELA PARTICULAR PUCURA", "rbd": "7111", "dgv_rbd": null, "estado": null, "direccion": null, "urbano_rural": "RURAL", "matricula": 67, "tipo": null, "cut_reg": "14", "cut_prov": "141", "cut_com": "14108", "region": "Los Ríos", "provincia": "Valdivia", "comuna": "Panguipulli", "globalid": "6b1f7be4-8fb2-4df5-8bdd-78b7ebc94275", "latitud": -39.51178, "longitud": -72.06215 }, "geometry": { "type": "Point", "coordinates": [ -72.06215, -39.51178 ] } },
{ "type": "Feature", "properties": { "objectid": 18619, "dependencia": "PARTICULAR SUBVENCIONADO", "nombre_establecimiento": "ESCUELA PARTICULAR NUEVA ESPERANZA", "rbd": "6126", "dgv_rbd": null, "estado": null, "direccion": null, "urbano_rural": "URBANO", "matricula": 182, "tipo": null, "cut_reg": "09", "cut_prov": "091", "cut_com": "09120", "region": "La Araucanía", "provincia": "Cautín", "comuna": "Villarrica", "globalid": "5f5fab06-90c1-452a-942a-b3bb8d5d09d0", "latitud": -39.48848, "longitud": -72.15538 }, "geometry": { "type": "Point", "coordinates": [ -72.15538, -39.48848 ] } },
{ "type": "Feature", "properties": { "objectid": 18620, "dependencia": "JUNJI - VTF", "nombre_establecimiento": "SC Y JI PERUN RAYEN (LICAN RAY)", "rbd": "J9120015", "dgv_rbd": null, "estado": null, "direccion": null, "urbano_rural": "URBANO", "matricula": 52, "tipo": null, "cut_reg": "09", "cut_prov": "091", "cut_com": "09120", "region": "La Araucanía", "provincia": "Cautín", "comuna": "Villarrica", "globalid": "76b9d77f-8de6-4425-9c71-87a879c92b82", "latitud": -39.48757335, "longitud": -72.15574735 }, "geometry": { "type": "Point", "coordinates": [ -72.15575, -39.48757 ] } },
{ "type": "Feature", "properties": { "objectid": 18621, "dependencia": "MUNICIPAL", "nombre_establecimiento": "ESCUELA EPUKLEI", "rbd": "6092", "dgv_rbd": null, "estado": null, "direccion": null, "urbano_rural": "URBANO", "matricula": 205, "tipo": null, "cut_reg": "09", "cut_prov": "091", "cut_com": "09120", "region": "La Araucanía", "provincia": "Cautín", "comuna": "Villarrica", "globalid": "b88a496b-698b-49cf-bcdc-06709ff14613", "latitud": -39.48732, "longitud": -72.15584 }, "geometry": { "type": "Point", "coordinates": [ -72.15584, -39.48732 ] } },
{ "type": "Feature", "properties": { "objectid": 18622, "dependencia": "PARTICULAR SUBVENCIONADO", "nombre_establecimiento": "LICEO BICENTENARIO DE EXCELENCIA SAN AGUSTÍN", "rbd": "6115", "dgv_rbd": null, "estado": null, "direccion": null, "urbano_rural": "URBANO", "matricula": 413, "tipo": null, "cut_reg": "09", "cut_prov": "091", "cut_com": "09120", "region": "La Araucanía", "provincia": "Cautín", "comuna": "Villarrica", "globalid": "0f715836-d3fc-481e-9fbc-d0386caf54e1", "latitud": -39.48683, "longitud": -72.15504 }, "geometry": { "type": "Point", "coordinates": [ -72.15504, -39.48683 ] } },
{ "type": "Feature", "properties": { "objectid": 18623, "dependencia": "PARTICULAR SUBVENCIONADO", "nombre_establecimiento": "LICEO PART. LIBERTAD", "rbd": "6119", "dgv_rbd": null, "estado": null, "direccion": null, "urbano_rural": "URBANO", "matricula": 369, "tipo": null, "cut_reg": "09", "cut_prov": "091", "cut_com": "09120", "region": "La Araucanía", "provincia": "Cautín", "comuna": "Villarrica", "globalid": "5618be0e-2119-46ab-a757-2043f837f5c9", "latitud": -39.48448, "longitud": -72.16368 }, "geometry": { "type": "Point", "coordinates": [ -72.16368, -39.48448 ] } },
{ "type": "Feature", "properties": { "objectid": 18625, "dependencia": "PARTICULAR SUBVENCIONADO", "nombre_establecimiento": "ESCUELA PARTICULAR RAYENKO", "rbd": "6143", "dgv_rbd": null, "estado": null, "direccion": null, "urbano_rural": "RURAL", "matricula": 28, "tipo": null, "cut_reg": "09", "cut_prov": "091", "cut_com": "09120", "region": "La Araucanía", "provincia": "Cautín", "comuna": "Villarrica", "globalid": "323b31f3-4919-42dd-9103-eb249205307d", "latitud": -39.48176, "longitud": -72.27837 }, "geometry": { "type": "Point", "coordinates": [ -72.27837, -39.48176 ] } },
{ "type": "Feature", "properties": { "objectid": 18631, "dependencia": "PARTICULAR SUBVENCIONADO", "nombre_establecimiento": "ECO ESCUELA ANTU MAWIDA", "rbd": "6040", "dgv_rbd": null, "estado": null, "direccion": null, "urbano_rural": "RURAL", "matricula": 47, "tipo": null, "cut_reg": "09", "cut_prov": "091", "cut_com": "09104", "region": "La Araucanía", "provincia": "Cautín", "comuna": "Curarrehue", "globalid": "0973cbb9-6324-4fd4-9749-15c0cd6debfb", "latitud": -39.47472, "longitud": -71.52147 }, "geometry": { "type": "Point", "coordinates": [ -71.52147, -39.47472 ] } },
{ "type": "Feature", "properties": { "objectid": 18634, "dependencia": "MUNICIPAL", "nombre_establecimiento": "ESCUELA ALIHUEN", "rbd": "7077", "dgv_rbd": null, "estado": null, "direccion": null, "urbano_rural": "RURAL", "matricula": 15, "tipo": null, "cut_reg": "09", "cut_prov": "091", "cut_com": "09120", "region": "La Araucanía", "provincia": "Cautín", "comuna": "Villarrica", "globalid": "72c642ed-a98c-48e8-bda9-1dfa566dcb8b", "latitud": -39.45783, "longitud": -72.12659 }, "geometry": { "type": "Point", "coordinates": [ -72.12659, -39.45783 ] } },
{ "type": "Feature", "properties": { "objectid": 18650, "dependencia": "PARTICULAR SUBVENCIONADO", "nombre_establecimiento": "COLEGIO FILADELFIA", "rbd": "20260", "dgv_rbd": null, "estado": null, "direccion": null, "urbano_rural": "RURAL", "matricula": 259, "tipo": null, "cut_reg": "09", "cut_prov": "091", "cut_com": "09120", "region": "La Araucanía", "provincia": "Cautín", "comuna": "Villarrica", "globalid": "46472647-c7ce-4118-bc9f-346ef00c89ed", "latitud": -39.44825, "longitud": -72.21024 }, "geometry": { "type": "Point", "coordinates": [ -72.21024, -39.44825 ] } },
{ "type": "Feature", "properties": { "objectid": 18652, "dependencia": "PARTICULAR SUBVENCIONADO", "nombre_establecimiento": "ESCUELA PARTICULAR CUDICO", "rbd": "6127", "dgv_rbd": null, "estado": null, "direccion": null, "urbano_rural": "RURAL", "matricula": 4, "tipo": null, "cut_reg": "09", "cut_prov": "091", "cut_com": "09120", "region": "La Araucanía", "provincia": "Cautín", "comuna": "Villarrica", "globalid": "8bdb8276-3631-4593-9d27-538de531f48c", "latitud": -39.4415, "longitud": -72.16108 }, "geometry": { "type": "Point", "coordinates": [ -72.16108, -39.4415 ] } },
{ "type": "Feature", "properties": { "objectid": 18653, "dependencia": "PARTICULAR SUBVENCIONADO", "nombre_establecimiento": "ESCUELA PARTICULAR VIRGEN CANDELARIA", "rbd": "6157", "dgv_rbd": null, "estado": null, "direccion": null, "urbano_rural": "RURAL", "matricula": 4, "tipo": null, "cut_reg": "09", "cut_prov": "091", "cut_com": "09120", "region": "La Araucanía", "provincia": "Cautín", "comuna": "Villarrica", "globalid": "9c3049ee-244a-4206-a42b-c77b377674ca", "latitud": -39.44134, "longitud": -72.20414 }, "geometry": { "type": "Point", "coordinates": [ -72.20414, -39.44134 ] } },
{ "type": "Feature", "properties": { "objectid": 18654, "dependencia": "MUNICIPAL", "nombre_establecimiento": "ESCUELA MAMUIL MALAL", "rbd": "6032", "dgv_rbd": null, "estado": null, "direccion": null, "urbano_rural": "RURAL", "matricula": 13, "tipo": null, "cut_reg": "09", "cut_prov": "091", "cut_com": "09104", "region": "La Araucanía", "provincia": "Cautín", "comuna": "Curarrehue", "globalid": "7ffb23c6-2b61-442f-a4a5-9d45dbe1c33a", "latitud": -39.44002, "longitud": -71.55431 }, "geometry": { "type": "Point", "coordinates": [ -71.55431, -39.44002 ] } },
{ "type": "Feature", "properties": { "objectid": 18657, "dependencia": "MUNICIPAL", "nombre_establecimiento": "ESCUELA ESTADIO", "rbd": "7076", "dgv_rbd": null, "estado": null, "direccion": null, "urbano_rural": "RURAL", "matricula": 8, "tipo": null, "cut_reg": "09", "cut_prov": "091", "cut_com": "09120", "region": "La Araucanía", "provincia": "Cautín", "comuna": "Villarrica", "globalid": "4750d5fd-e9e1-400f-9913-85b2e15d68c6", "latitud": -39.43463, "longitud": -72.11671 }, "geometry": { "type": "Point", "coordinates": [ -72.11671, -39.43463 ] } },
{ "type": "Feature", "properties": { "objectid": 18659, "dependencia": "PARTICULAR SUBVENCIONADO", "nombre_establecimiento": "ESCUELA PARTICULAR VIRGEN DE RINCONADA", "rbd": "6042", "dgv_rbd": null, "estado": null, "direccion": null, "urbano_rural": "RURAL", "matricula": 1, "tipo": null, "cut_reg": "09", "cut_prov": "091", "cut_com": "09104", "region": "La Araucanía", "provincia": "Cautín", "comuna": "Curarrehue", "globalid": "81218923-85ab-4bd5-b6dd-ed044d16e1f8", "latitud": -39.43074, "longitud": -71.57008 }, "geometry": { "type": "Point", "coordinates": [ -71.57008, -39.43074 ] } },
{ "type": "Feature", "properties": { "objectid": 18660, "dependencia": "PARTICULAR SUBVENCIONADO", "nombre_establecimiento": "COLEGIO RAKIDUAM", "rbd": "11501", "dgv_rbd": null, "estado": null, "direccion": null, "urbano_rural": "RURAL", "matricula": 104, "tipo": null, "cut_reg": "09", "cut_prov": "091", "cut_com": "09120", "region": "La Araucanía", "provincia": "Cautín", "comuna": "Villarrica", "globalid": "0dab4ce3-6088-40ae-a62a-9a28238dd315", "latitud": -39.42808, "longitud": -72.1967 }, "geometry": { "type": "Point", "coordinates": [ -72.1967, -39.42808 ] } },
{ "type": "Feature", "properties": { "objectid": 18671, "dependencia": "PARTICULAR SUBVENCIONADO", "nombre_establecimiento": "ESCUELA PARTICULAR HUALAPULLI", "rbd": "11526", "dgv_rbd": null, "estado": null, "direccion": null, "urbano_rural": "RURAL", "matricula": 41, "tipo": null, "cut_reg": "09", "cut_prov": "091", "cut_com": "09120", "region": "La Araucanía", "provincia": "Cautín", "comuna": "Villarrica", "globalid": "74752190-f298-46ee-b7a3-20027c8b1a4a", "latitud": -39.39375, "longitud": -72.23978 }, "geometry": { "type": "Point", "coordinates": [ -72.23978, -39.39375 ] } },
{ "type": "Feature", "properties": { "objectid": 18674, "dependencia": "JUNJI - VTF", "nombre_establecimiento": "WE KIMUN", "rbd": "J9104005", "dgv_rbd": null, "estado": null, "direccion": null, "urbano_rural": "RURAL", "matricula": 44, "tipo": null, "cut_reg": "09", "cut_prov": "091", "cut_com": "09104", "region": "La Araucanía", "provincia": "Cautín", "comuna": "Curarrehue", "globalid": "55440804-4d9d-4a4d-9961-7cb79fbdcfe8", "latitud": -39.38331256, "longitud": -71.57462383000001 }, "geometry": { "type": "Point", "coordinates": [ -71.57462, -39.38331 ] } },
{ "type": "Feature", "properties": { "objectid": 18677, "dependencia": "PARTICULAR SUBVENCIONADO", "nombre_establecimiento": "ESCUELA PARTICULAR PANQUE", "rbd": "6045", "dgv_rbd": null, "estado": null, "direccion": null, "urbano_rural": "RURAL", "matricula": 88, "tipo": null, "cut_reg": "09", "cut_prov": "091", "cut_com": "09104", "region": "La Araucanía", "provincia": "Cautín", "comuna": "Curarrehue", "globalid": "809cfd88-9943-4cb8-adf1-207fe5e8c157", "latitud": -39.37897, "longitud": -71.59168 }, "geometry": { "type": "Point", "coordinates": [ -71.59168, -39.37897 ] } },
{ "type": "Feature", "properties": { "objectid": 18678, "dependencia": "PARTICULAR SUBVENCIONADO", "nombre_establecimiento": "ESCUELA PARTICULAR LONCOFILO", "rbd": "6043", "dgv_rbd": null, "estado": null, "direccion": null, "urbano_rural": "RURAL", "matricula": 19, "tipo": null, "cut_reg": "09", "cut_prov": "091", "cut_com": "09104", "region": "La Araucanía", "provincia": "Cautín", "comuna": "Curarrehue", "globalid": "589544e4-b6a7-405e-b5b0-94ab9abdf4ec", "latitud": -39.37678, "longitud": -71.70248 }, "geometry": { "type": "Point", "coordinates": [ -71.70248, -39.37678 ] } },
{ "type": "Feature", "properties": { "objectid": 18687, "dependencia": "PARTICULAR SUBVENCIONADO", "nombre_establecimiento": "COLEGIO JUAN PABLO II", "rbd": "20227", "dgv_rbd": null, "estado": null, "direccion": null, "urbano_rural": "RURAL", "matricula": 110, "tipo": null, "cut_reg": "09", "cut_prov": "091", "cut_com": "09120", "region": "La Araucanía", "provincia": "Cautín", "comuna": "Villarrica", "globalid": "4aaf9db0-1495-46d5-b23d-d21cec66abff", "latitud": -39.36927, "longitud": -72.21317 }, "geometry": { "type": "Point", "coordinates": [ -72.21317, -39.36927 ] } },
{ "type": "Feature", "properties": { "objectid": 18697, "dependencia": "PARTICULAR SUBVENCIONADO", "nombre_establecimiento": "ESCUELA PARTICULAR SAN LUIS", "rbd": "6075", "dgv_rbd": null, "estado": null, "direccion": null, "urbano_rural": "RURAL", "matricula": 9, "tipo": null, "cut_reg": "09", "cut_prov": "091", "cut_com": "09115", "region": "La Araucanía", "provincia": "Cautín", "comuna": "Pucón", "globalid": "babc0e91-4d11-44c7-bb07-341bd124062f", "latitud": -39.36029, "longitud": -71.73484 }, "geometry": { "type": "Point", "coordinates": [ -71.73484, -39.36029 ] } },
{ "type": "Feature", "properties": { "objectid": 18699, "dependencia": "PARTICULAR SUBVENCIONADO", "nombre_establecimiento": "ESCUELA PARTICULAR CALFUTUE", "rbd": "6138", "dgv_rbd": null, "estado": null, "direccion": null, "urbano_rural": "RURAL", "matricula": 93, "tipo": null, "cut_reg": "09", "cut_prov": "091", "cut_com": "09120", "region": "La Araucanía", "provincia": "Cautín", "comuna": "Villarrica", "globalid": "1ee3c188-55f1-4f42-a432-a6dd23c4e78f", "latitud": -39.35916, "longitud": -72.21288 }, "geometry": { "type": "Point", "coordinates": [ -72.21288, -39.35916 ] } },
{ "type": "Feature", "properties": { "objectid": 18700, "dependencia": "PARTICULAR SUBVENCIONADO", "nombre_establecimiento": "COMPLEJO EDUCACIONAL RUKA NGEN", "rbd": "6038", "dgv_rbd": null, "estado": null, "direccion": null, "urbano_rural": "URBANO", "matricula": 203, "tipo": null, "cut_reg": "09", "cut_prov": "091", "cut_com": "09104", "region": "La Araucanía", "provincia": "Cautín", "comuna": "Curarrehue", "globalid": "c6884519-883b-48c1-a9e1-3ceadd78e799", "latitud": -39.35842, "longitud": -71.5882 }, "geometry": { "type": "Point", "coordinates": [ -71.5882, -39.35842 ] } },
{ "type": "Feature", "properties": { "objectid": 18701, "dependencia": "MUNICIPAL", "nombre_establecimiento": "COMPLEJO EDUCACIONAL MONSEÑOR FRCO. VALDES S", "rbd": "6027", "dgv_rbd": null, "estado": null, "direccion": null, "urbano_rural": "URBANO", "matricula": 316, "tipo": null, "cut_reg": "09", "cut_prov": "091", "cut_com": "09104", "region": "La Araucanía", "provincia": "Cautín", "comuna": "Curarrehue", "globalid": "3dddca89-3f4e-46d6-b5f4-4434e90c2501", "latitud": -39.35838, "longitud": -71.58895 }, "geometry": { "type": "Point", "coordinates": [ -71.58895, -39.35838 ] } },
{ "type": "Feature", "properties": { "objectid": 18702, "dependencia": "INTEGRA", "nombre_establecimiento": "CARRUSEL", "rbd": "I91801", "dgv_rbd": null, "estado": null, "direccion": null, "urbano_rural": "URBANO", "matricula": 24, "tipo": null, "cut_reg": "09", "cut_prov": "091", "cut_com": "09104", "region": "La Araucanía", "provincia": "Cautín", "comuna": "Curarrehue", "globalid": "53fbc02e-a259-49e4-aa29-3c2401bfb283", "latitud": -39.358327, "longitud": -71.588606 }, "geometry": { "type": "Point", "coordinates": [ -71.58861, -39.35833 ] } },
{ "type": "Feature", "properties": { "objectid": 18703, "dependencia": "JUNJI - VTF", "nombre_establecimiento": "PU WANGUELEN", "rbd": "J9104002", "dgv_rbd": null, "estado": null, "direccion": null, "urbano_rural": "URBANO", "matricula": 51, "tipo": null, "cut_reg": "09", "cut_prov": "091", "cut_com": "09104", "region": "La Araucanía", "provincia": "Cautín", "comuna": "Curarrehue", "globalid": "30e48706-94e5-4f6c-903f-9e9b74371a0b", "latitud": -39.35779176, "longitud": -71.5871111 }, "geometry": { "type": "Point", "coordinates": [ -71.58711, -39.35779 ] } },
{ "type": "Feature", "properties": { "objectid": 18705, "dependencia": "PARTICULAR SUBVENCIONADO", "nombre_establecimiento": "COLEGIO CALASANZ KURAREWE", "rbd": "20435", "dgv_rbd": null, "estado": null, "direccion": null, "urbano_rural": "URBANO", "matricula": 153, "tipo": null, "cut_reg": "09", "cut_prov": "091", "cut_com": "09104", "region": "La Araucanía", "provincia": "Cautín", "comuna": "Curarrehue", "globalid": "dfe77c35-b600-4d0f-bfdb-f97c710662e3", "latitud": -39.35693, "longitud": -71.59045 }, "geometry": { "type": "Point", "coordinates": [ -71.59045, -39.35693 ] } },
{ "type": "Feature", "properties": { "objectid": 18706, "dependencia": "JUNJI - VTF", "nombre_establecimiento": "SALA CUNA Y J.INF.CALASANZ", "rbd": "J9104001", "dgv_rbd": null, "estado": null, "direccion": null, "urbano_rural": "URBANO", "matricula": 29, "tipo": null, "cut_reg": "09", "cut_prov": "091", "cut_com": "09104", "region": "La Araucanía", "provincia": "Cautín", "comuna": "Curarrehue", "globalid": "ed4d3c84-b0d3-4098-a586-83dfe1d0fd20", "latitud": -39.356646, "longitud": -71.59196 }, "geometry": { "type": "Point", "coordinates": [ -71.59196, -39.35665 ] } },
{ "type": "Feature", "properties": { "objectid": 18708, "dependencia": "PARTICULAR SUBVENCIONADO", "nombre_establecimiento": "ESCUELA PARTICULAR SANTA RITA", "rbd": "6139", "dgv_rbd": null, "estado": null, "direccion": null, "urbano_rural": "RURAL", "matricula": 30, "tipo": null, "cut_reg": "09", "cut_prov": "091", "cut_com": "09120", "region": "La Araucanía", "provincia": "Cautín", "comuna": "Villarrica", "globalid": "39053298-1f18-4347-8796-359402fd58a6", "latitud": -39.35355, "longitud": -72.21548 }, "geometry": { "type": "Point", "coordinates": [ -72.21548, -39.35355 ] } },
{ "type": "Feature", "properties": { "objectid": 18710, "dependencia": "MUNICIPAL", "nombre_establecimiento": "ESCUELA EL SANTILLO", "rbd": "6031", "dgv_rbd": null, "estado": null, "direccion": null, "urbano_rural": "RURAL", "matricula": 42, "tipo": null, "cut_reg": "09", "cut_prov": "091", "cut_com": "09104", "region": "La Araucanía", "provincia": "Cautín", "comuna": "Curarrehue", "globalid": "6924ba64-3197-4be7-b65e-2937b476e588", "latitud": -39.34818, "longitud": -71.70496 }, "geometry": { "type": "Point", "coordinates": [ -71.70496, -39.34818 ] } },
{ "type": "Feature", "properties": { "objectid": 18712, "dependencia": "PARTICULAR SUBVENCIONADO", "nombre_establecimiento": "ESCUELA PARTICULAR RELICURA", "rbd": "6083", "dgv_rbd": null, "estado": null, "direccion": null, "urbano_rural": "RURAL", "matricula": 4, "tipo": null, "cut_reg": "09", "cut_prov": "091", "cut_com": "09115", "region": "La Araucanía", "provincia": "Cautín", "comuna": "Pucón", "globalid": "ebf00a91-8663-4717-b1c5-2616308fedd1", "latitud": -39.34704, "longitud": -71.65073 }, "geometry": { "type": "Point", "coordinates": [ -71.65073, -39.34704 ] } },
{ "type": "Feature", "properties": { "objectid": 18713, "dependencia": "PARTICULAR SUBVENCIONADO", "nombre_establecimiento": "ESCUELA PARTICULAR CATRIPULLI", "rbd": "6039", "dgv_rbd": null, "estado": null, "direccion": null, "urbano_rural": "RURAL", "matricula": 228, "tipo": null, "cut_reg": "09", "cut_prov": "091", "cut_com": "09104", "region": "La Araucanía", "provincia": "Cautín", "comuna": "Curarrehue", "globalid": "65b2fdaa-641d-4530-bfeb-e46f6e77beb9", "latitud": -39.34473, "longitud": -71.70465 }, "geometry": { "type": "Point", "coordinates": [ -71.70465, -39.34473 ] } },
{ "type": "Feature", "properties": { "objectid": 18714, "dependencia": "JUNJI - VTF", "nombre_establecimiento": "CONQUIL", "rbd": "J9120045", "dgv_rbd": null, "estado": null, "direccion": null, "urbano_rural": "RURAL", "matricula": 36, "tipo": null, "cut_reg": "09", "cut_prov": "091", "cut_com": "09120", "region": "La Araucanía", "provincia": "Cautín", "comuna": "Villarrica", "globalid": "8d3d1628-f3f4-4cbb-86e3-e64650ab612b", "latitud": -39.341999, "longitud": -72.150396 }, "geometry": { "type": "Point", "coordinates": [ -72.1504, -39.342 ] } },
{ "type": "Feature", "properties": { "objectid": 18715, "dependencia": "PARTICULAR SUBVENCIONADO", "nombre_establecimiento": "ESCUELA PARTICULAR NUEVA LONCOTRARO", "rbd": "6140", "dgv_rbd": null, "estado": null, "direccion": null, "urbano_rural": "RURAL", "matricula": 5, "tipo": null, "cut_reg": "09", "cut_prov": "091", "cut_com": "09120", "region": "La Araucanía", "provincia": "Cautín", "comuna": "Villarrica", "globalid": "3c61abda-9638-4f26-afea-43e5828bab37", "latitud": -39.34173, "longitud": -72.03768 }, "geometry": { "type": "Point", "coordinates": [ -72.03768, -39.34173 ] } },
{ "type": "Feature", "properties": { "objectid": 18716, "dependencia": "MUNICIPAL", "nombre_establecimiento": "ESCUELA CONQUIL", "rbd": "6107", "dgv_rbd": null, "estado": null, "direccion": null, "urbano_rural": "RURAL", "matricula": 77, "tipo": null, "cut_reg": "09", "cut_prov": "091", "cut_com": "09120", "region": "La Araucanía", "provincia": "Cautín", "comuna": "Villarrica", "globalid": "64514032-7e11-4f40-9a01-5138a9e09732", "latitud": -39.33944, "longitud": -72.14527 }, "geometry": { "type": "Point", "coordinates": [ -72.14527, -39.33944 ] } },
{ "type": "Feature", "properties": { "objectid": 18717, "dependencia": "PARTICULAR SUBVENCIONADO", "nombre_establecimiento": "ESCUELA SANTA ROSA DE LLAFENCO", "rbd": "6082", "dgv_rbd": null, "estado": null, "direccion": null, "urbano_rural": "RURAL", "matricula": 67, "tipo": null, "cut_reg": "09", "cut_prov": "091", "cut_com": "09115", "region": "La Araucanía", "provincia": "Cautín", "comuna": "Pucón", "globalid": "0063113f-20ac-44ed-af77-b267fb0143cc", "latitud": -39.33489, "longitud": -71.77908 }, "geometry": { "type": "Point", "coordinates": [ -71.77908, -39.33489 ] } },
{ "type": "Feature", "properties": { "objectid": 18718, "dependencia": "MUNICIPAL", "nombre_establecimiento": "ESCUELA MOLCO ALTO", "rbd": "6093", "dgv_rbd": null, "estado": null, "direccion": null, "urbano_rural": "RURAL", "matricula": 112, "tipo": null, "cut_reg": "09", "cut_prov": "091", "cut_com": "09120", "region": "La Araucanía", "provincia": "Cautín", "comuna": "Villarrica", "globalid": "0efddfca-a693-4296-b44b-c3a2901dbe04", "latitud": -39.33196, "longitud": -72.0968 }, "geometry": { "type": "Point", "coordinates": [ -72.0968, -39.33196 ] } },
{ "type": "Feature", "properties": { "objectid": 18719, "dependencia": "JUNJI - VTF", "nombre_establecimiento": "MOLCO", "rbd": "J9120020", "dgv_rbd": null, "estado": null, "direccion": null, "urbano_rural": "URBANO", "matricula": 52, "tipo": null, "cut_reg": "09", "cut_prov": "091", "cut_com": "09120", "region": "La Araucanía", "provincia": "Cautín", "comuna": "Villarrica", "globalid": "5312cd87-a151-4ee0-a917-b9c5b7fd7425", "latitud": -39.33185761, "longitud": -72.09728604 }, "geometry": { "type": "Point", "coordinates": [ -72.09729, -39.33186 ] } },
{ "type": "Feature", "properties": { "objectid": 18720, "dependencia": "MUNICIPAL", "nombre_establecimiento": "ESCUELA JOSE MIGUEL MARTINEZ SOTO", "rbd": "6053", "dgv_rbd": null, "estado": null, "direccion": null, "urbano_rural": "RURAL", "matricula": 100, "tipo": null, "cut_reg": "09", "cut_prov": "091", "cut_com": "09115", "region": "La Araucanía", "provincia": "Cautín", "comuna": "Pucón", "globalid": "3bfa28e6-5cc6-4945-928b-0cfa1f42776c", "latitud": -39.33085, "longitud": -71.77648 }, "geometry": { "type": "Point", "coordinates": [ -71.77648, -39.33085 ] } },
{ "type": "Feature", "properties": { "objectid": 18722, "dependencia": "PARTICULAR SUBVENCIONADO", "nombre_establecimiento": "ESCUELA NUEVA MENETUE", "rbd": "19996", "dgv_rbd": null, "estado": null, "direccion": null, "urbano_rural": "RURAL", "matricula": 35, "tipo": null, "cut_reg": "09", "cut_prov": "091", "cut_com": "09115", "region": "La Araucanía", "provincia": "Cautín", "comuna": "Pucón", "globalid": "5722662d-e3e5-4e02-9eab-ca51090d9c00", "latitud": -39.32283, "longitud": -71.7319 }, "geometry": { "type": "Point", "coordinates": [ -71.7319, -39.32283 ] } },
{ "type": "Feature", "properties": { "objectid": 18723, "dependencia": "PARTICULAR SUBVENCIONADO", "nombre_establecimiento": "ESCUELA PARTICULAR SAN FRANCISCO", "rbd": "6155", "dgv_rbd": null, "estado": null, "direccion": null, "urbano_rural": "RURAL", "matricula": 7, "tipo": null, "cut_reg": "09", "cut_prov": "091", "cut_com": "09120", "region": "La Araucanía", "provincia": "Cautín", "comuna": "Villarrica", "globalid": "a6cc9a04-0b9d-475e-8d4e-1874f40ef30a", "latitud": -39.32243, "longitud": -72.14785 }, "geometry": { "type": "Point", "coordinates": [ -72.14785, -39.32243 ] } },
{ "type": "Feature", "properties": { "objectid": 18725, "dependencia": "MUNICIPAL", "nombre_establecimiento": "ESC. BASICA CANDELARIA", "rbd": "6063", "dgv_rbd": null, "estado": null, "direccion": null, "urbano_rural": "RURAL", "matricula": 34, "tipo": null, "cut_reg": "09", "cut_prov": "091", "cut_com": "09115", "region": "La Araucanía", "provincia": "Cautín", "comuna": "Pucón", "globalid": "72175d95-01b8-403f-b4aa-aaca6a7e0411", "latitud": -39.31318, "longitud": -71.98802 }, "geometry": { "type": "Point", "coordinates": [ -71.98802, -39.31318 ] } },
{ "type": "Feature", "properties": { "objectid": 18727, "dependencia": "JUNJI - VTF", "nombre_establecimiento": "SIGLO XXI", "rbd": "J9120019", "dgv_rbd": null, "estado": null, "direccion": null, "urbano_rural": "URBANO", "matricula": 51, "tipo": null, "cut_reg": "09", "cut_prov": "091", "cut_com": "09120", "region": "La Araucanía", "provincia": "Cautín", "comuna": "Villarrica", "globalid": "75e4e23c-86cc-421d-a753-c4702509508e", "latitud": -39.30999161, "longitud": -72.20909815 }, "geometry": { "type": "Point", "coordinates": [ -72.2091, -39.30999 ] } },
{ "type": "Feature", "properties": { "objectid": 18728, "dependencia": "JUNJI - VTF", "nombre_establecimiento": "GOTITAS DE AMOR", "rbd": "J9120027", "dgv_rbd": null, "estado": null, "direccion": null, "urbano_rural": "URBANO", "matricula": 52, "tipo": null, "cut_reg": "09", "cut_prov": "091", "cut_com": "09120", "region": "La Araucanía", "provincia": "Cautín", "comuna": "Villarrica", "globalid": "a8b38749-ff6c-4a5e-9944-99016875f4ef", "latitud": -39.30908421, "longitud": -72.21272319 }, "geometry": { "type": "Point", "coordinates": [ -72.21272, -39.30908 ] } },
{ "type": "Feature", "properties": { "objectid": 18729, "dependencia": "JUNJI - VTF", "nombre_establecimiento": "LA FRONTERA", "rbd": "J9120017", "dgv_rbd": null, "estado": null, "direccion": null, "urbano_rural": "URBANO", "matricula": 19, "tipo": null, "cut_reg": "09", "cut_prov": "091", "cut_com": "09120", "region": "La Araucanía", "provincia": "Cautín", "comuna": "Villarrica", "globalid": "43c3d983-b411-4a33-9e08-be273948458f", "latitud": -39.30875053, "longitud": -72.20881119 }, "geometry": { "type": "Point", "coordinates": [ -72.20881, -39.30875 ] } },
{ "type": "Feature", "properties": { "objectid": 18730, "dependencia": "PARTICULAR SUBVENCIONADO", "nombre_establecimiento": "COLEGIO JUAN XXIII", "rbd": "20263", "dgv_rbd": null, "estado": null, "direccion": null, "urbano_rural": "RURAL", "matricula": 333, "tipo": null, "cut_reg": "09", "cut_prov": "091", "cut_com": "09120", "region": "La Araucanía", "provincia": "Cautín", "comuna": "Villarrica", "globalid": "8826152e-bda7-417d-bcee-246e4b8b1aa1", "latitud": -39.30793, "longitud": -72.2077 }, "geometry": { "type": "Point", "coordinates": [ -72.2077, -39.30793 ] } },
{ "type": "Feature", "properties": { "objectid": 18731, "dependencia": "PARTICULAR SUBVENCIONADO", "nombre_establecimiento": "ESCUELA PARTICULAR MAITE", "rbd": "6044", "dgv_rbd": null, "estado": null, "direccion": null, "urbano_rural": "RURAL", "matricula": 13, "tipo": null, "cut_reg": "09", "cut_prov": "091", "cut_com": "09104", "region": "La Araucanía", "provincia": "Cautín", "comuna": "Curarrehue", "globalid": "0252c1cf-2cef-4e5d-83f4-af33bfae32fe", "latitud": -39.30787, "longitud": -71.45141 }, "geometry": { "type": "Point", "coordinates": [ -71.45141, -39.30787 ] } },
{ "type": "Feature", "properties": { "objectid": 18732, "dependencia": "JUNJI - VTF", "nombre_establecimiento": "SALA CUNA LAS ARAUCANAS", "rbd": "J9120042", "dgv_rbd": null, "estado": null, "direccion": null, "urbano_rural": "RURAL", "matricula": 20, "tipo": null, "cut_reg": "09", "cut_prov": "091", "cut_com": "09120", "region": "La Araucanía", "provincia": "Cautín", "comuna": "Villarrica", "globalid": "104d6640-1827-4a4c-89fd-0c31c934d4f2", "latitud": -39.307166, "longitud": -72.214877 }, "geometry": { "type": "Point", "coordinates": [ -72.21488, -39.30717 ] } },
{ "type": "Feature", "properties": { "objectid": 18733, "dependencia": "PARTICULAR SUBVENCIONADO", "nombre_establecimiento": "ESCUELA ESPECIAL DE LENGUAJE TIEMPO DE CRECER VILLARRICA", "rbd": "42354", "dgv_rbd": null, "estado": null, "direccion": null, "urbano_rural": "URBANO", "matricula": 57, "tipo": null, "cut_reg": "09", "cut_prov": "091", "cut_com": "09120", "region": "La Araucanía", "provincia": "Cautín", "comuna": "Villarrica", "globalid": "d4b07bd8-1a19-4fb0-8900-0d88ac31d1d2", "latitud": -39.30713, "longitud": -72.20994 }, "geometry": { "type": "Point", "coordinates": [ -72.20994, -39.30713 ] } },
{ "type": "Feature", "properties": { "objectid": 18734, "dependencia": "PARTICULAR SUBVENCIONADO", "nombre_establecimiento": "ESCUELA PARTICULAR PUENTE BASA", "rbd": "6151", "dgv_rbd": null, "estado": null, "direccion": null, "urbano_rural": "RURAL", "matricula": 13, "tipo": null, "cut_reg": "09", "cut_prov": "091", "cut_com": "09104", "region": "La Araucanía", "provincia": "Cautín", "comuna": "Curarrehue", "globalid": "c60fcefa-b445-4c0e-a8f7-123027baebb4", "latitud": -39.30708, "longitud": -71.45085 }, "geometry": { "type": "Point", "coordinates": [ -71.45085, -39.30708 ] } },
{ "type": "Feature", "properties": { "objectid": 18735, "dependencia": "INTEGRA", "nombre_establecimiento": "LOS VOLCANES", "rbd": "I92005", "dgv_rbd": null, "estado": null, "direccion": null, "urbano_rural": "URBANO", "matricula": 23, "tipo": null, "cut_reg": "09", "cut_prov": "091", "cut_com": "09120", "region": "La Araucanía", "provincia": "Cautín", "comuna": "Villarrica", "globalid": "68b82ded-96d8-43bd-a97f-f69e76d0bf43", "latitud": -39.30633, "longitud": -72.223279 }, "geometry": { "type": "Point", "coordinates": [ -72.22328, -39.30633 ] } },
{ "type": "Feature", "properties": { "objectid": 18736, "dependencia": "PARTICULAR SUBVENCIONADO", "nombre_establecimiento": "COLEGIO PUCÓN", "rbd": "20153", "dgv_rbd": null, "estado": null, "direccion": null, "urbano_rural": "URBANO", "matricula": 351, "tipo": null, "cut_reg": "09", "cut_prov": "091", "cut_com": "09115", "region": "La Araucanía", "provincia": "Cautín", "comuna": "Pucón", "globalid": "f9a0a5cd-31a3-403c-9e36-925b898d5c6c", "latitud": -39.30547, "longitud": -71.87245 }, "geometry": { "type": "Point", "coordinates": [ -71.87245, -39.30547 ] } },
{ "type": "Feature", "properties": { "objectid": 18743, "dependencia": "MUNICIPAL", "nombre_establecimiento": "ESCUELA BASICA MUNICIPAL DE EL CLARO", "rbd": "6056", "dgv_rbd": null, "estado": null, "direccion": null, "urbano_rural": "RURAL", "matricula": 289, "tipo": null, "cut_reg": "09", "cut_prov": "091", "cut_com": "09115", "region": "La Araucanía", "provincia": "Cautín", "comuna": "Pucón", "globalid": "8da7ca03-bdb7-4079-9587-dcb0024c1e3c", "latitud": -39.29878, "longitud": -71.9004 }, "geometry": { "type": "Point", "coordinates": [ -71.9004, -39.29878 ] } },
{ "type": "Feature", "properties": { "objectid": 18750, "dependencia": "PARTICULAR PAGADO", "nombre_establecimiento": "COLEGIO ALEMAN VILLARRICA", "rbd": "6161", "dgv_rbd": null, "estado": null, "direccion": null, "urbano_rural": "URBANO", "matricula": 259, "tipo": null, "cut_reg": "09", "cut_prov": "091", "cut_com": "09120", "region": "La Araucanía", "provincia": "Cautín", "comuna": "Villarrica", "globalid": "721a74b2-fcf6-4a4f-b143-e4b5130daebc", "latitud": -39.29583, "longitud": -72.18067 }, "geometry": { "type": "Point", "coordinates": [ -72.18067, -39.29583 ] } },
{ "type": "Feature", "properties": { "objectid": 18759, "dependencia": "JUNJI", "nombre_establecimiento": "MIGUEL ASTROZA", "rbd": "J9115023", "dgv_rbd": null, "estado": null, "direccion": null, "urbano_rural": "URBANO", "matricula": 47, "tipo": null, "cut_reg": "09", "cut_prov": "091", "cut_com": "09115", "region": "La Araucanía", "provincia": "Cautín", "comuna": "Pucón", "globalid": "480834fa-2090-4fb5-a981-05e7d55daaa2", "latitud": -39.29134, "longitud": -71.96098 }, "geometry": { "type": "Point", "coordinates": [ -71.96098, -39.29134 ] } },
{ "type": "Feature", "properties": { "objectid": 18762, "dependencia": "JUNJI - VTF", "nombre_establecimiento": "LA CASITA DE MIS SUENOS", "rbd": "J9115010", "dgv_rbd": null, "estado": null, "direccion": null, "urbano_rural": "URBANO", "matricula": 38, "tipo": null, "cut_reg": "09", "cut_prov": "091", "cut_com": "09115", "region": "La Araucanía", "provincia": "Cautín", "comuna": "Pucón", "globalid": "bacdc0c9-d777-467b-bdc2-a8f20d46bbc2", "latitud": -39.28877613, "longitud": -71.96178312 }, "geometry": { "type": "Point", "coordinates": [ -71.96178, -39.28878 ] } },
{ "type": "Feature", "properties": { "objectid": 18767, "dependencia": "PARTICULAR SUBVENCIONADO", "nombre_establecimiento": "COLEGIO RAITRAI DE PUCON", "rbd": "20209", "dgv_rbd": null, "estado": null, "direccion": null, "urbano_rural": "URBANO", "matricula": 376, "tipo": null, "cut_reg": "09", "cut_prov": "091", "cut_com": "09115", "region": "La Araucanía", "provincia": "Cautín", "comuna": "Pucón", "globalid": "ba39d479-342a-46ce-8178-8142328b88cb", "latitud": -39.287, "longitud": -71.94437 }, "geometry": { "type": "Point", "coordinates": [ -71.94437, -39.287 ] } },
{ "type": "Feature", "properties": { "objectid": 18772, "dependencia": "JUNJI", "nombre_establecimiento": "DULCES CASTAÑAS", "rbd": "J9115024", "dgv_rbd": null, "estado": null, "direccion": null, "urbano_rural": "URBANO", "matricula": 74, "tipo": null, "cut_reg": "09", "cut_prov": "091", "cut_com": "09115", "region": "La Araucanía", "provincia": "Cautín", "comuna": "Pucón", "globalid": "cf450a7b-0621-49a9-b906-82f7c53e5511", "latitud": -39.285183, "longitud": -71.95366 }, "geometry": { "type": "Point", "coordinates": [ -71.95366, -39.28518 ] } },
{ "type": "Feature", "properties": { "objectid": 18775, "dependencia": "JUNJI - VTF", "nombre_establecimiento": "LOS ROBLES", "rbd": "J9115011", "dgv_rbd": null, "estado": null, "direccion": null, "urbano_rural": "URBANO", "matricula": 51, "tipo": null, "cut_reg": "09", "cut_prov": "091", "cut_com": "09115", "region": "La Araucanía", "provincia": "Cautín", "comuna": "Pucón", "globalid": "8dce8664-ce78-4bae-aa00-ac9c35346c6e", "latitud": -39.28413482000001, "longitud": -71.96433473 }, "geometry": { "type": "Point", "coordinates": [ -71.96433, -39.28413 ] } },
{ "type": "Feature", "properties": { "objectid": 18776, "dependencia": "MUNICIPAL", "nombre_establecimiento": "ESCUELA ESPECIAL INCLUSIVA LIWEN", "rbd": "42234", "dgv_rbd": null, "estado": null, "direccion": null, "urbano_rural": "URBANO", "matricula": 28, "tipo": null, "cut_reg": "09", "cut_prov": "091", "cut_com": "09115", "region": "La Araucanía", "provincia": "Cautín", "comuna": "Pucón", "globalid": "c55013b0-a9f2-40c2-9601-b03570b92b01", "latitud": -39.28329, "longitud": -71.98223 }, "geometry": { "type": "Point", "coordinates": [ -71.98223, -39.28329 ] } },
{ "type": "Feature", "properties": { "objectid": 18777, "dependencia": "MUNICIPAL", "nombre_establecimiento": "ESCUELA CARLOS HOLZAFEL", "rbd": "6052", "dgv_rbd": null, "estado": null, "direccion": null, "urbano_rural": "URBANO", "matricula": 805, "tipo": null, "cut_reg": "09", "cut_prov": "091", "cut_com": "09115", "region": "La Araucanía", "provincia": "Cautín", "comuna": "Pucón", "globalid": "5733dade-c3d5-4181-9744-3089387b5827", "latitud": -39.28292, "longitud": -71.96395 }, "geometry": { "type": "Point", "coordinates": [ -71.96395, -39.28292 ] } },
{ "type": "Feature", "properties": { "objectid": 18779, "dependencia": "PARTICULAR SUBVENCIONADO", "nombre_establecimiento": "LICEO TECNOLOGICO MONTEMARIA", "rbd": "20139", "dgv_rbd": null, "estado": null, "direccion": null, "urbano_rural": "RURAL", "matricula": 565, "tipo": null, "cut_reg": "09", "cut_prov": "091", "cut_com": "09115", "region": "La Araucanía", "provincia": "Cautín", "comuna": "Pucón", "globalid": "8f9d7ba9-fb11-40f6-add4-f81285271be7", "latitud": -39.28262, "longitud": -71.94245 }, "geometry": { "type": "Point", "coordinates": [ -71.94245, -39.28262 ] } },
{ "type": "Feature", "properties": { "objectid": 18780, "dependencia": "JUNJI", "nombre_establecimiento": "LOS AVELLANITOS", "rbd": "J9115025", "dgv_rbd": null, "estado": null, "direccion": null, "urbano_rural": "URBANO", "matricula": 95, "tipo": null, "cut_reg": "09", "cut_prov": "091", "cut_com": "09115", "region": "La Araucanía", "provincia": "Cautín", "comuna": "Pucón", "globalid": "1be17978-2e95-4e61-bbdc-e70c8b5876de", "latitud": -39.282365, "longitud": -71.941295 }, "geometry": { "type": "Point", "coordinates": [ -71.94129, -39.28236 ] } },
{ "type": "Feature", "properties": { "objectid": 18781, "dependencia": "MUNICIPAL", "nombre_establecimiento": "ESCUELA MUNICIPAL LOS ARRAYANES", "rbd": "20121", "dgv_rbd": null, "estado": null, "direccion": null, "urbano_rural": "URBANO", "matricula": 292, "tipo": null, "cut_reg": "09", "cut_prov": "091", "cut_com": "09115", "region": "La Araucanía", "provincia": "Cautín", "comuna": "Pucón", "globalid": "e009d878-6173-4b00-bb0e-4e28f96baa52", "latitud": -39.28182, "longitud": -71.96072 }, "geometry": { "type": "Point", "coordinates": [ -71.96072, -39.28182 ] } },
{ "type": "Feature", "properties": { "objectid": 18788, "dependencia": "JUNJI", "nombre_establecimiento": "COPITO DE NIEVE", "rbd": "J9115001", "dgv_rbd": null, "estado": null, "direccion": null, "urbano_rural": "URBANO", "matricula": 135, "tipo": null, "cut_reg": "09", "cut_prov": "091", "cut_com": "09115", "region": "La Araucanía", "provincia": "Cautín", "comuna": "Pucón", "globalid": "0db6aea4-6f82-4ab7-a694-261f52fde9bf", "latitud": -39.279457, "longitud": -71.97102 }, "geometry": { "type": "Point", "coordinates": [ -71.97102, -39.27946 ] } },
{ "type": "Feature", "properties": { "objectid": 18790, "dependencia": "PARTICULAR SUBVENCIONADO", "nombre_establecimiento": "ESCUELA PARTICULAR RAMON GUINEZ", "rbd": "6072", "dgv_rbd": null, "estado": null, "direccion": null, "urbano_rural": "URBANO", "matricula": 837, "tipo": null, "cut_reg": "09", "cut_prov": "091", "cut_com": "09115", "region": "La Araucanía", "provincia": "Cautín", "comuna": "Pucón", "globalid": "9fdabcdf-19e5-435f-845f-9e2b3845a719", "latitud": -39.27873, "longitud": -71.96866 }, "geometry": { "type": "Point", "coordinates": [ -71.96866, -39.27873 ] } },
{ "type": "Feature", "properties": { "objectid": 18793, "dependencia": "JUNJI - VTF", "nombre_establecimiento": "RUKAYUN", "rbd": "J9115019", "dgv_rbd": null, "estado": null, "direccion": null, "urbano_rural": "URBANO", "matricula": 95, "tipo": null, "cut_reg": "09", "cut_prov": "091", "cut_com": "09115", "region": "La Araucanía", "provincia": "Cautín", "comuna": "Pucón", "globalid": "320a3ed5-4d0c-42d0-8cc9-481732985b17", "latitud": -39.278181, "longitud": -71.972706 }, "geometry": { "type": "Point", "coordinates": [ -71.97271, -39.27818 ] } },
{ "type": "Feature", "properties": { "objectid": 18796, "dependencia": "PARTICULAR SUBVENCIONADO", "nombre_establecimiento": "COMPLEJO EDUCACIONAL PABLO SEXTO", "rbd": "6070", "dgv_rbd": null, "estado": null, "direccion": null, "urbano_rural": "URBANO", "matricula": 467, "tipo": null, "cut_reg": "09", "cut_prov": "091", "cut_com": "09115", "region": "La Araucanía", "provincia": "Cautín", "comuna": "Pucón", "globalid": "5cb7ed0a-31e3-4016-a09a-d5641c6b572a", "latitud": -39.2781, "longitud": -71.97292 }, "geometry": { "type": "Point", "coordinates": [ -71.97292, -39.2781 ] } },
{ "type": "Feature", "properties": { "objectid": 18797, "dependencia": "PARTICULAR SUBVENCIONADO", "nombre_establecimiento": "COLEGIO LIAHONA", "rbd": "20167", "dgv_rbd": null, "estado": null, "direccion": null, "urbano_rural": "URBANO", "matricula": 767, "tipo": null, "cut_reg": "09", "cut_prov": "091", "cut_com": "09115", "region": "La Araucanía", "provincia": "Cautín", "comuna": "Pucón", "globalid": "7defb76b-db08-4674-ada3-7aab7303abe7", "latitud": -39.27777, "longitud": -71.96321 }, "geometry": { "type": "Point", "coordinates": [ -71.96321, -39.27777 ] } },
{ "type": "Feature", "properties": { "objectid": 18798, "dependencia": "INTEGRA", "nombre_establecimiento": "CUPULHUE CHE", "rbd": "I91901", "dgv_rbd": null, "estado": null, "direccion": null, "urbano_rural": "URBANO", "matricula": 89, "tipo": null, "cut_reg": "09", "cut_prov": "091", "cut_com": "09115", "region": "La Araucanía", "provincia": "Cautín", "comuna": "Pucón", "globalid": "0a5649bf-b4ab-4239-bd19-c5d4d537a361", "latitud": -39.27766, "longitud": -71.966009 }, "geometry": { "type": "Point", "coordinates": [ -71.96601, -39.27766 ] } },
{ "type": "Feature", "properties": { "objectid": 18800, "dependencia": "MUNICIPAL", "nombre_establecimiento": "LICEO BICENTENARIO HOTELERIA Y TURISMO", "rbd": "6051", "dgv_rbd": null, "estado": null, "direccion": null, "urbano_rural": "URBANO", "matricula": 353, "tipo": null, "cut_reg": "09", "cut_prov": "091", "cut_com": "09115", "region": "La Araucanía", "provincia": "Cautín", "comuna": "Pucón", "globalid": "f8607155-7cea-4713-8a1b-3312bde725a6", "latitud": -39.27729, "longitud": -71.96519 }, "geometry": { "type": "Point", "coordinates": [ -71.96519, -39.27729 ] } },
{ "type": "Feature", "properties": { "objectid": 18806, "dependencia": "PARTICULAR SUBVENCIONADO", "nombre_establecimiento": "ESCUELA PARTICULAR NTRA.SRA.DE FATIMA", "rbd": "6071", "dgv_rbd": null, "estado": null, "direccion": null, "urbano_rural": "URBANO", "matricula": 556, "tipo": null, "cut_reg": "09", "cut_prov": "091", "cut_com": "09115", "region": "La Araucanía", "provincia": "Cautín", "comuna": "Pucón", "globalid": "06534e33-51cb-4387-b8b9-c0d8a942810a", "latitud": -39.27456, "longitud": -71.97827 }, "geometry": { "type": "Point", "coordinates": [ -71.97827, -39.27456 ] } },
{ "type": "Feature", "properties": { "objectid": 18807, "dependencia": "PARTICULAR SUBVENCIONADO", "nombre_establecimiento": "ESCUELA PARTICULAR QUETROLELFU", "rbd": "6077", "dgv_rbd": null, "estado": null, "direccion": null, "urbano_rural": "RURAL", "matricula": 25, "tipo": null, "cut_reg": "09", "cut_prov": "091", "cut_com": "09115", "region": "La Araucanía", "provincia": "Cautín", "comuna": "Pucón", "globalid": "aea64768-e2bc-420d-bfa1-8b3b05d7c29a", "latitud": -39.27428, "longitud": -71.86102 }, "geometry": { "type": "Point", "coordinates": [ -71.86102, -39.27428 ] } },
{ "type": "Feature", "properties": { "objectid": 18808, "dependencia": "PARTICULAR SUBVENCIONADO", "nombre_establecimiento": "ESCUELA PARTICULAR MAICHIN", "rbd": "6048", "dgv_rbd": null, "estado": null, "direccion": null, "urbano_rural": "RURAL", "matricula": 5, "tipo": null, "cut_reg": "09", "cut_prov": "091", "cut_com": "09104", "region": "La Araucanía", "provincia": "Cautín", "comuna": "Curarrehue", "globalid": "10a8e8f2-2935-4624-948e-d5b3078a49fa", "latitud": -39.27358, "longitud": -71.4306 }, "geometry": { "type": "Point", "coordinates": [ -71.4306, -39.27358 ] } },
{ "type": "Feature", "properties": { "objectid": 18810, "dependencia": "PARTICULAR SUBVENCIONADO", "nombre_establecimiento": "ESCUELA DE LENGUAJE RENACE", "rbd": "41931", "dgv_rbd": null, "estado": null, "direccion": null, "urbano_rural": "URBANO", "matricula": 57, "tipo": null, "cut_reg": "09", "cut_prov": "091", "cut_com": "09115", "region": "La Araucanía", "provincia": "Cautín", "comuna": "Pucón", "globalid": "7c6a7c26-9329-4e67-ac6f-fda57941fb59", "latitud": -39.2721, "longitud": -71.96441 }, "geometry": { "type": "Point", "coordinates": [ -71.96441, -39.2721 ] } },
{ "type": "Feature", "properties": { "objectid": 18811, "dependencia": "MUNICIPAL", "nombre_establecimiento": "ESC. BASICA VILLA SAN PEDRO", "rbd": "6060", "dgv_rbd": null, "estado": null, "direccion": null, "urbano_rural": "RURAL", "matricula": 149, "tipo": null, "cut_reg": "09", "cut_prov": "091", "cut_com": "09115", "region": "La Araucanía", "provincia": "Cautín", "comuna": "Pucón", "globalid": "9fd7910a-99be-48bf-9c55-cef4d41be2da", "latitud": -39.26847, "longitud": -71.82174 }, "geometry": { "type": "Point", "coordinates": [ -71.82174, -39.26847 ] } },
{ "type": "Feature", "properties": { "objectid": 18813, "dependencia": "JUNJI", "nombre_establecimiento": "ANTU MAHUIDA", "rbd": "J9115016", "dgv_rbd": null, "estado": null, "direccion": null, "urbano_rural": "RURAL", "matricula": 14, "tipo": null, "cut_reg": "09", "cut_prov": "091", "cut_com": "09115", "region": "La Araucanía", "provincia": "Cautín", "comuna": "Pucón", "globalid": "8f86342a-101d-47a8-876d-ada962007856", "latitud": -39.266317, "longitud": -71.786667 }, "geometry": { "type": "Point", "coordinates": [ -71.78667, -39.26632 ] } },
{ "type": "Feature", "properties": { "objectid": 18814, "dependencia": "JUNJI - VTF", "nombre_establecimiento": "RUKADEUMAIN", "rbd": "J9115007", "dgv_rbd": null, "estado": null, "direccion": null, "urbano_rural": "RURAL", "matricula": 8, "tipo": null, "cut_reg": "09", "cut_prov": "091", "cut_com": "09115", "region": "La Araucanía", "provincia": "Cautín", "comuna": "Pucón", "globalid": "2d2a1265-5515-46ae-b817-914880c9a540", "latitud": -39.261877, "longitud": -71.920737 }, "geometry": { "type": "Point", "coordinates": [ -71.92074, -39.26188 ] } },
{ "type": "Feature", "properties": { "objectid": 18815, "dependencia": "MUNICIPAL", "nombre_establecimiento": "ESC. BASICA PICHARES", "rbd": "6062", "dgv_rbd": null, "estado": null, "direccion": null, "urbano_rural": "RURAL", "matricula": 24, "tipo": null, "cut_reg": "09", "cut_prov": "091", "cut_com": "09115", "region": "La Araucanía", "provincia": "Cautín", "comuna": "Pucón", "globalid": "75b0a031-0103-4884-a6db-193e7c210cdf", "latitud": -39.26056, "longitud": -71.77552 }, "geometry": { "type": "Point", "coordinates": [ -71.77552, -39.26056 ] } },
{ "type": "Feature", "properties": { "objectid": 18816, "dependencia": "MUNICIPAL", "nombre_establecimiento": "ESC. BASICA QUELHUE", "rbd": "6054", "dgv_rbd": null, "estado": null, "direccion": null, "urbano_rural": "RURAL", "matricula": 37, "tipo": null, "cut_reg": "09", "cut_prov": "091", "cut_com": "09115", "region": "La Araucanía", "provincia": "Cautín", "comuna": "Pucón", "globalid": "bc38fca0-446d-47cb-915c-7337038c95db", "latitud": -39.2605, "longitud": -71.91992 }, "geometry": { "type": "Point", "coordinates": [ -71.91992, -39.2605 ] } },
{ "type": "Feature", "properties": { "objectid": 18818, "dependencia": "MUNICIPAL", "nombre_establecimiento": "ESC. BASICA CARILEUFU", "rbd": "6066", "dgv_rbd": null, "estado": null, "direccion": null, "urbano_rural": "RURAL", "matricula": 269, "tipo": null, "cut_reg": "09", "cut_prov": "091", "cut_com": "09115", "region": "La Araucanía", "provincia": "Cautín", "comuna": "Pucón", "globalid": "fc6ed431-c253-450b-ad1f-2d2985295c0b", "latitud": -39.23888, "longitud": -71.81599 }, "geometry": { "type": "Point", "coordinates": [ -71.81599, -39.23888 ] } },
{ "type": "Feature", "properties": { "objectid": 18819, "dependencia": "JUNJI - VTF", "nombre_establecimiento": "CARILEUFU", "rbd": "J9115012", "dgv_rbd": null, "estado": null, "direccion": null, "urbano_rural": "RURAL", "matricula": 50, "tipo": null, "cut_reg": "09", "cut_prov": "091", "cut_com": "09115", "region": "La Araucanía", "provincia": "Cautín", "comuna": "Pucón", "globalid": "2b81f84b-ed8c-4b7a-a1f5-c698ebde6971", "latitud": -39.23801467, "longitud": -71.82585759 }, "geometry": { "type": "Point", "coordinates": [ -71.82586, -39.23801 ] } },
{ "type": "Feature", "properties": { "objectid": 18826, "dependencia": "JUNJI - VTF", "nombre_establecimiento": "QUINENAHUIN", "rbd": "J9104007", "dgv_rbd": null, "estado": null, "direccion": null, "urbano_rural": "RURAL", "matricula": 14, "tipo": null, "cut_reg": "09", "cut_prov": "091", "cut_com": "09104", "region": "La Araucanía", "provincia": "Cautín", "comuna": "Curarrehue", "globalid": "77b1e449-b1a7-4e55-9feb-249ceaf786ed", "latitud": -39.218667, "longitud": -71.434767 }, "geometry": { "type": "Point", "coordinates": [ -71.43477, -39.21867 ] } },
{ "type": "Feature", "properties": { "objectid": 18827, "dependencia": "MUNICIPAL", "nombre_establecimiento": "ESCUELA JERONIMO NECULPAN", "rbd": "6030", "dgv_rbd": null, "estado": null, "direccion": null, "urbano_rural": "RURAL", "matricula": 90, "tipo": null, "cut_reg": "09", "cut_prov": "091", "cut_com": "09104", "region": "La Araucanía", "provincia": "Cautín", "comuna": "Curarrehue", "globalid": "166f3f14-656b-4084-8cd6-715193c234db", "latitud": -39.21568, "longitud": -71.4318 }, "geometry": { "type": "Point", "coordinates": [ -71.4318, -39.21568 ] } },
{ "type": "Feature", "properties": { "objectid": 18831, "dependencia": "PARTICULAR SUBVENCIONADO", "nombre_establecimiento": "ESCUELA PARTICULAR CABURGUA", "rbd": "6076", "dgv_rbd": null, "estado": null, "direccion": null, "urbano_rural": "RURAL", "matricula": 17, "tipo": null, "cut_reg": "09", "cut_prov": "091", "cut_com": "09115", "region": "La Araucanía", "provincia": "Cautín", "comuna": "Pucón", "globalid": "60ffffd2-f48a-40b2-b818-b3005e838298", "latitud": -39.19759, "longitud": -71.82136 }, "geometry": { "type": "Point", "coordinates": [ -71.82136, -39.19759 ] } },
{ "type": "Feature", "properties": { "objectid": 18833, "dependencia": "MUNICIPAL", "nombre_establecimiento": "ESC.BASICA PAILLACO", "rbd": "6069", "dgv_rbd": null, "estado": null, "direccion": null, "urbano_rural": "RURAL", "matricula": 180, "tipo": null, "cut_reg": "09", "cut_prov": "091", "cut_com": "09115", "region": "La Araucanía", "provincia": "Cautín", "comuna": "Pucón", "globalid": "54b07844-0485-4e54-9580-a7c2720e10dd", "latitud": -39.19338, "longitud": -71.7582 }, "geometry": { "type": "Point", "coordinates": [ -71.7582, -39.19338 ] } },
{ "type": "Feature", "properties": { "objectid": 18835, "dependencia": "JUNJI - VTF", "nombre_establecimiento": "AMUN TREKAN - EPEUKURA", "rbd": "J9104004", "dgv_rbd": null, "estado": null, "direccion": null, "urbano_rural": "RURAL", "matricula": 19, "tipo": null, "cut_reg": "09", "cut_prov": "091", "cut_com": "09104", "region": "La Araucanía", "provincia": "Cautín", "comuna": "Curarrehue", "globalid": "470ae08f-4815-4e13-b298-f8b2c1c69b0d", "latitud": -39.1817, "longitud": -71.473617 }, "geometry": { "type": "Point", "coordinates": [ -71.47362, -39.1817 ] } },
{ "type": "Feature", "properties": { "objectid": 18840, "dependencia": "MUNICIPAL", "nombre_establecimiento": "ESCUELA LICANCURA", "rbd": "6036", "dgv_rbd": null, "estado": null, "direccion": null, "urbano_rural": "RURAL", "matricula": 70, "tipo": null, "cut_reg": "09", "cut_prov": "091", "cut_com": "09104", "region": "La Araucanía", "provincia": "Cautín", "comuna": "Curarrehue", "globalid": "8cc1fecd-c662-4f63-982d-2734fe8b089f", "latitud": -39.17836, "longitud": -71.4715 }, "geometry": { "type": "Point", "coordinates": [ -71.4715, -39.17836 ] } },
{ "type": "Feature", "properties": { "objectid": 18860, "dependencia": "MUNICIPAL", "nombre_establecimiento": "ESCUELA RUCA MANKE", "rbd": "6029", "dgv_rbd": null, "estado": null, "direccion": null, "urbano_rural": "RURAL", "matricula": 75, "tipo": null, "cut_reg": "09", "cut_prov": "091", "cut_com": "09104", "region": "La Araucanía", "provincia": "Cautín", "comuna": "Curarrehue", "globalid": "0ce45db2-3559-4701-b6f7-53926f46381a", "latitud": -39.11651, "longitud": -71.47355 }, "geometry": { "type": "Point", "coordinates": [ -71.47355, -39.11651 ] } },
{ "type": "Feature", "properties": { "objectid": 18861, "dependencia": "JUNJI - VTF", "nombre_establecimiento": "RUMY RAYEN (REIGOLIL)", "rbd": "J9104003", "dgv_rbd": null, "estado": null, "direccion": null, "urbano_rural": "RURAL", "matricula": 17, "tipo": null, "cut_reg": "09", "cut_prov": "091", "cut_com": "09104", "region": "La Araucanía", "provincia": "Cautín", "comuna": "Curarrehue", "globalid": "6f0947ec-1efe-4fa1-b6a4-b3ef3401998e", "latitud": -39.11650048, "longitud": -71.47286571000001 }, "geometry": { "type": "Point", "coordinates": [ -71.47287, -39.1165 ] } },
{ "type": "Feature", "properties": { "objectid": 18885, "dependencia": "PARTICULAR SUBVENCIONADO", "nombre_establecimiento": "ESC. PART. STA. ISABEL DE TRAFAMPULLI", "rbd": "6003", "dgv_rbd": null, "estado": null, "direccion": null, "urbano_rural": "RURAL", "matricula": 3, "tipo": null, "cut_reg": "09", "cut_prov": "091", "cut_com": "09103", "region": "La Araucanía", "provincia": "Cautín", "comuna": "Cunco", "globalid": "82ca0f59-39d5-4b8b-bda8-1d5e9a849379", "latitud": -39.08878, "longitud": -71.78547 }, "geometry": { "type": "Point", "coordinates": [ -71.78547, -39.08878 ] } }
]
}
