{
"type": "FeatureCollection",
"name": "SDP",
"crs": { "type": "name", "properties": { "name": "urn:ogc:def:crs:OGC:1.3:CRS84" } },
"xy_coordinate_resolution": 1e-05,
"features": [
{ "type": "Feature", "properties": { "objectid": 31900, "dependencia": "SLEP", "nombre_establecimiento": "ESCUELA BASICA SAN JOSE", "rbd": "248", "dgv_rbd": null, "estado": null, "direccion": null, "urbano_rural": "RURAL", "matricula": 6, "tipo": null, "cut_reg": "02", "cut_prov": "022", "cut_com": "02201", "region": "Antofagasta", "provincia": "El Loa", "comuna": "Calama", "globalid": "9369871b-f2c6-41ce-a58c-087b3852779c", "latitud": -22.27883, "longitud": -68.3224 }, "geometry": { "type": "Point", "coordinates": [ -68.3224, -22.27883 ] } },
{ "type": "Feature", "properties": { "objectid": 31903, "dependencia": "SLEP", "nombre_establecimiento": "ESCUELA REPUBLICA DE BOLIVIA", "rbd": "225", "dgv_rbd": null, "estado": null, "direccion": null, "urbano_rural": "URBANO", "matricula": 970, "tipo": null, "cut_reg": "02", "cut_prov": "022", "cut_com": "02201", "region": "Antofagasta", "provincia": "El Loa", "comuna": "Calama", "globalid": "2fc28bb6-cd87-465f-8394-5cc98753fed9", "latitud": -22.27457, "longitud": -68.55429 }, "geometry": { "type": "Point", "coordinates": [ -68.55429, -22.27457 ] } },
{ "type": "Feature", "properties": { "objectid": 31906, "dependencia": "SLEP", "nombre_establecimiento": "ESCUELA BASICA PUKARA", "rbd": "243", "dgv_rbd": null, "estado": null, "direccion": null, "urbano_rural": "RURAL", "matricula": 39, "tipo": null, "cut_reg": "02", "cut_prov": "022", "cut_com": "02201", "region": "Antofagasta", "provincia": "El Loa", "comuna": "Calama", "globalid": "4d33c6d3-1685-4ca0-b472-52293e10d718", "latitud": -22.26803, "longitud": -68.63122 }, "geometry": { "type": "Point", "coordinates": [ -68.63122, -22.26803 ] } }
]
}
