{
"type": "FeatureCollection",
"name": "SJO",
"crs": { "type": "name", "properties": { "name": "urn:ogc:def:crs:OGC:1.3:CRS84" } },
"xy_coordinate_resolution": 1e-05,
"features": [
{ "type": "Feature", "properties": { "objectid": 25768, "dependencia": "MUNICIPAL", "nombre_establecimiento": "ESCUELA BASICA G-NÂ°631 FRONTERIZA", "rbd": "10532", "dgv_rbd": null, "estado": null, "direccion": null, "urbano_rural": "RURAL", "matricula": 20, "tipo": null, "cut_reg": "13", "cut_prov": "132", "cut_com": "13203", "region": "Metropolitana de Santiago", "provincia": "Cordillera", "comuna": "San José de Maipo", "globalid": "5fe074e1-38f6-4ed2-8de0-afa5a7fcc87a", "latitud": -33.54803, "longitud": -70.28688 }, "geometry": { "type": "Point", "coordinates": [ -70.28688, -33.54803 ] } },
{ "type": "Feature", "properties": { "objectid": 26571, "dependencia": "INTEGRA", "nombre_establecimiento": "PAULA JARAQUEMADA", "rbd": "I133701", "dgv_rbd": null, "estado": null, "direccion": null, "urbano_rural": "URBANO", "matricula": 87, "tipo": null, "cut_reg": "13", "cut_prov": "132", "cut_com": "13203", "region": "Metropolitana de Santiago", "provincia": "Cordillera", "comuna": "San José de Maipo", "globalid": "2aa6a50f-a4ac-49c8-89ca-3fbdd1d76cdc", "latitud": -33.643291, "longitud": -70.354811 }, "geometry": { "type": "Point", "coordinates": [ -70.35481, -33.64329 ] } },
{ "type": "Feature", "properties": { "objectid": 26582, "dependencia": "MUNICIPAL", "nombre_establecimiento": "LICEO POLIVALENTE SAN JOSE DE MAIPO", "rbd": "10526", "dgv_rbd": null, "estado": null, "direccion": null, "urbano_rural": "URBANO", "matricula": 421, "tipo": null, "cut_reg": "13", "cut_prov": "132", "cut_com": "13203", "region": "Metropolitana de Santiago", "provincia": "Cordillera", "comuna": "San José de Maipo", "globalid": "5e1e4fb1-f421-4066-aa28-d8577eec6f42", "latitud": -33.64094, "longitud": -70.35354 }, "geometry": { "type": "Point", "coordinates": [ -70.35354, -33.64094 ] } },
{ "type": "Feature", "properties": { "objectid": 26587, "dependencia": "MUNICIPAL", "nombre_establecimiento": "ESCUELA JULIETA BECERRA ALVAREZ", "rbd": "10527", "dgv_rbd": null, "estado": null, "direccion": null, "urbano_rural": "URBANO", "matricula": 384, "tipo": null, "cut_reg": "13", "cut_prov": "132", "cut_com": "13203", "region": "Metropolitana de Santiago", "provincia": "Cordillera", "comuna": "San José de Maipo", "globalid": "96a99586-1464-4740-9d80-b13b3a2348c6", "latitud": -33.63986, "longitud": -70.35357 }, "geometry": { "type": "Point", "coordinates": [ -70.35357, -33.63986 ] } },
{ "type": "Feature", "properties": { "objectid": 26598, "dependencia": "PARTICULAR SUBVENCIONADO", "nombre_establecimiento": "COLEGIO RAFAEL EYZAGUIRRE", "rbd": "10540", "dgv_rbd": null, "estado": null, "direccion": null, "urbano_rural": "URBANO", "matricula": 611, "tipo": null, "cut_reg": "13", "cut_prov": "132", "cut_com": "13203", "region": "Metropolitana de Santiago", "provincia": "Cordillera", "comuna": "San José de Maipo", "globalid": "afe77c63-c08c-427c-9b4a-1defffb5acac", "latitud": -33.63854, "longitud": -70.35271 }, "geometry": { "type": "Point", "coordinates": [ -70.35271, -33.63854 ] } },
{ "type": "Feature", "properties": { "objectid": 26615, "dependencia": "JUNJI - VTF", "nombre_establecimiento": "COÑUE", "rbd": "J13203005", "dgv_rbd": null, "estado": null, "direccion": null, "urbano_rural": "RURAL", "matricula": 75, "tipo": null, "cut_reg": "13", "cut_prov": "132", "cut_com": "13203", "region": "Metropolitana de Santiago", "provincia": "Cordillera", "comuna": "San José de Maipo", "globalid": "28fe1253-4bef-4829-9df0-05bf93a23d7e", "latitud": -33.637204, "longitud": -70.353443 }, "geometry": { "type": "Point", "coordinates": [ -70.35344, -33.6372 ] } },
{ "type": "Feature", "properties": { "objectid": 26623, "dependencia": "JUNJI", "nombre_establecimiento": "NUEVO AMANECER", "rbd": "J13203004", "dgv_rbd": null, "estado": null, "direccion": null, "urbano_rural": "RURAL", "matricula": 19, "tipo": null, "cut_reg": "13", "cut_prov": "132", "cut_com": "13203", "region": "Metropolitana de Santiago", "provincia": "Cordillera", "comuna": "San José de Maipo", "globalid": "2f450509-a0a3-423e-9ff0-68285b8a8f48", "latitud": -33.63650086, "longitud": -70.35639786 }, "geometry": { "type": "Point", "coordinates": [ -70.3564, -33.6365 ] } },
{ "type": "Feature", "properties": { "objectid": 26937, "dependencia": "PARTICULAR SUBVENCIONADO", "nombre_establecimiento": "ESCUELA ESPECIAL CUNCUNITAS DE AMOR", "rbd": "31168", "dgv_rbd": null, "estado": null, "direccion": null, "urbano_rural": "URBANO", "matricula": 44, "tipo": null, "cut_reg": "13", "cut_prov": "132", "cut_com": "13203", "region": "Metropolitana de Santiago", "provincia": "Cordillera", "comuna": "San José de Maipo", "globalid": "4646aabf-2114-41e1-8781-090425267cd0", "latitud": -33.61978, "longitud": -70.34933 }, "geometry": { "type": "Point", "coordinates": [ -70.34933, -33.61978 ] } },
{ "type": "Feature", "properties": { "objectid": 27199, "dependencia": "MUNICIPAL", "nombre_establecimiento": "ESCUELA BASICA G-NÂ°637 LAS MELOSAS", "rbd": "10538", "dgv_rbd": null, "estado": null, "direccion": null, "urbano_rural": "RURAL", "matricula": 2, "tipo": null, "cut_reg": "13", "cut_prov": "132", "cut_com": "13203", "region": "Metropolitana de Santiago", "provincia": "Cordillera", "comuna": "San José de Maipo", "globalid": "e370d7c9-9dba-404a-9ca3-3feff2e59c2c", "latitud": -33.88159, "longitud": -70.19937 }, "geometry": { "type": "Point", "coordinates": [ -70.19937, -33.88159 ] } },
{ "type": "Feature", "properties": { "objectid": 27394, "dependencia": "JUNJI - VTF", "nombre_establecimiento": "RAI MAPU", "rbd": "J13203006", "dgv_rbd": null, "estado": null, "direccion": null, "urbano_rural": "URBANO", "matricula": 33, "tipo": null, "cut_reg": "13", "cut_prov": "132", "cut_com": "13203", "region": "Metropolitana de Santiago", "provincia": "Cordillera", "comuna": "San José de Maipo", "globalid": "553e505e-a00a-4cb7-9462-becc7182bfa5", "latitud": -33.78204758, "longitud": -70.24488473 }, "geometry": { "type": "Point", "coordinates": [ -70.24488, -33.78205 ] } },
{ "type": "Feature", "properties": { "objectid": 27408, "dependencia": "MUNICIPAL", "nombre_establecimiento": "ESCUELA BASICA F-NÂ°629 DE CONCENTRACION FRONTERIZA", "rbd": "10530", "dgv_rbd": null, "estado": null, "direccion": null, "urbano_rural": "RURAL", "matricula": 131, "tipo": null, "cut_reg": "13", "cut_prov": "132", "cut_com": "13203", "region": "Metropolitana de Santiago", "provincia": "Cordillera", "comuna": "San José de Maipo", "globalid": "395fd52e-c26a-4f47-a483-cc7e953b261d", "latitud": -33.78181, "longitud": -70.24102 }, "geometry": { "type": "Point", "coordinates": [ -70.24102, -33.78181 ] } },
{ "type": "Feature", "properties": { "objectid": 27509, "dependencia": "INTEGRA", "nombre_establecimiento": "SAN ALFONSO", "rbd": "I133702", "dgv_rbd": null, "estado": null, "direccion": null, "urbano_rural": "URBANO", "matricula": 27, "tipo": null, "cut_reg": "13", "cut_prov": "132", "cut_com": "13203", "region": "Metropolitana de Santiago", "provincia": "Cordillera", "comuna": "San José de Maipo", "globalid": "4845d7d6-94a3-4493-8006-43c1d6bdf48d", "latitud": -33.728898, "longitud": -70.317785 }, "geometry": { "type": "Point", "coordinates": [ -70.31779, -33.7289 ] } },
{ "type": "Feature", "properties": { "objectid": 27511, "dependencia": "MUNICIPAL", "nombre_establecimiento": "ESCUELA BASICA G-NÂ°636 SAN ALFONSO", "rbd": "10537", "dgv_rbd": null, "estado": null, "direccion": null, "urbano_rural": "RURAL", "matricula": 131, "tipo": null, "cut_reg": "13", "cut_prov": "132", "cut_com": "13203", "region": "Metropolitana de Santiago", "provincia": "Cordillera", "comuna": "San José de Maipo", "globalid": "8356cc0d-d103-4388-af1d-b21fd8c10add", "latitud": -33.72852, "longitud": -70.31903 }, "geometry": { "type": "Point", "coordinates": [ -70.31903, -33.72852 ] } },
{ "type": "Feature", "properties": { "objectid": 27539, "dependencia": "MUNICIPAL", "nombre_establecimiento": "ESCUELA BASICA F-NÂ°638 EL MELOCOTON", "rbd": "10529", "dgv_rbd": null, "estado": null, "direccion": null, "urbano_rural": "RURAL", "matricula": 131, "tipo": null, "cut_reg": "13", "cut_prov": "132", "cut_com": "13203", "region": "Metropolitana de Santiago", "provincia": "Cordillera", "comuna": "San José de Maipo", "globalid": "9154b05d-95ac-492e-91c0-9f03ec2e6a66", "latitud": -33.69953, "longitud": -70.33485 }, "geometry": { "type": "Point", "coordinates": [ -70.33485, -33.69953 ] } },
{ "type": "Feature", "properties": { "objectid": 27678, "dependencia": "SLEP", "nombre_establecimiento": "LICEO POLITECNICO ROSAURO SANTANA RIOS", "rbd": "4948", "dgv_rbd": null, "estado": null, "direccion": null, "urbano_rural": "URBANO", "matricula": 260, "tipo": null, "cut_reg": "13", "cut_prov": "132", "cut_com": "13203", "region": "Metropolitana de Santiago", "provincia": "Cordillera", "comuna": "San José de Maipo", "globalid": "6dc28da3-4b3d-4e47-820a-dc85c23b7f95", "latitud": -33.4444, "longitud": -70.15251 }, "geometry": { "type": "Point", "coordinates": [ -70.15251, -33.4444 ] } },
{ "type": "Feature", "properties": { "objectid": 30063, "dependencia": "PARTICULAR SUBVENCIONADO", "nombre_establecimiento": "CEIA INAPEWMA LA SERENA", "rbd": "41846", "dgv_rbd": null, "estado": null, "direccion": null, "urbano_rural": "URBANO", "matricula": 11, "tipo": null, "cut_reg": "13", "cut_prov": "132", "cut_com": "13203", "region": "Metropolitana de Santiago", "provincia": "Cordillera", "comuna": "San José de Maipo", "globalid": "4275f788-f8e3-4ba2-a62a-e1d21a27c6f6", "latitud": -33.45152, "longitud": -70.22626 }, "geometry": { "type": "Point", "coordinates": [ -70.22626, -33.45152 ] } }
]
}
