{
"type": "FeatureCollection",
"name": "SOL",
"crs": { "type": "name", "properties": { "name": "urn:ogc:def:crs:OGC:1.3:CRS84" } },
"xy_coordinate_resolution": 1e-05,
"features": [
{ "type": "Feature", "properties": { "objectid": 18674, "dependencia": "JUNJI - VTF", "nombre_establecimiento": "WE KIMUN", "rbd": "J9104005", "dgv_rbd": null, "estado": null, "direccion": null, "urbano_rural": "RURAL", "matricula": 44, "tipo": null, "cut_reg": "09", "cut_prov": "091", "cut_com": "09104", "region": "La Araucanía", "provincia": "Cautín", "comuna": "Curarrehue", "globalid": "55440804-4d9d-4a4d-9961-7cb79fbdcfe8", "latitud": -39.38331256, "longitud": -71.57462383000001 }, "geometry": { "type": "Point", "coordinates": [ -71.57462, -39.38331 ] } },
{ "type": "Feature", "properties": { "objectid": 18677, "dependencia": "PARTICULAR SUBVENCIONADO", "nombre_establecimiento": "ESCUELA PARTICULAR PANQUE", "rbd": "6045", "dgv_rbd": null, "estado": null, "direccion": null, "urbano_rural": "RURAL", "matricula": 88, "tipo": null, "cut_reg": "09", "cut_prov": "091", "cut_com": "09104", "region": "La Araucanía", "provincia": "Cautín", "comuna": "Curarrehue", "globalid": "809cfd88-9943-4cb8-adf1-207fe5e8c157", "latitud": -39.37897, "longitud": -71.59168 }, "geometry": { "type": "Point", "coordinates": [ -71.59168, -39.37897 ] } },
{ "type": "Feature", "properties": { "objectid": 18678, "dependencia": "PARTICULAR SUBVENCIONADO", "nombre_establecimiento": "ESCUELA PARTICULAR LONCOFILO", "rbd": "6043", "dgv_rbd": null, "estado": null, "direccion": null, "urbano_rural": "RURAL", "matricula": 19, "tipo": null, "cut_reg": "09", "cut_prov": "091", "cut_com": "09104", "region": "La Araucanía", "provincia": "Cautín", "comuna": "Curarrehue", "globalid": "589544e4-b6a7-405e-b5b0-94ab9abdf4ec", "latitud": -39.37678, "longitud": -71.70248 }, "geometry": { "type": "Point", "coordinates": [ -71.70248, -39.37678 ] } },
{ "type": "Feature", "properties": { "objectid": 18697, "dependencia": "PARTICULAR SUBVENCIONADO", "nombre_establecimiento": "ESCUELA PARTICULAR SAN LUIS", "rbd": "6075", "dgv_rbd": null, "estado": null, "direccion": null, "urbano_rural": "RURAL", "matricula": 9, "tipo": null, "cut_reg": "09", "cut_prov": "091", "cut_com": "09115", "region": "La Araucanía", "provincia": "Cautín", "comuna": "Pucón", "globalid": "babc0e91-4d11-44c7-bb07-341bd124062f", "latitud": -39.36029, "longitud": -71.73484 }, "geometry": { "type": "Point", "coordinates": [ -71.73484, -39.36029 ] } },
{ "type": "Feature", "properties": { "objectid": 18700, "dependencia": "PARTICULAR SUBVENCIONADO", "nombre_establecimiento": "COMPLEJO EDUCACIONAL RUKA NGEN", "rbd": "6038", "dgv_rbd": null, "estado": null, "direccion": null, "urbano_rural": "URBANO", "matricula": 203, "tipo": null, "cut_reg": "09", "cut_prov": "091", "cut_com": "09104", "region": "La Araucanía", "provincia": "Cautín", "comuna": "Curarrehue", "globalid": "c6884519-883b-48c1-a9e1-3ceadd78e799", "latitud": -39.35842, "longitud": -71.5882 }, "geometry": { "type": "Point", "coordinates": [ -71.5882, -39.35842 ] } },
{ "type": "Feature", "properties": { "objectid": 18701, "dependencia": "MUNICIPAL", "nombre_establecimiento": "COMPLEJO EDUCACIONAL MONSEÑOR FRCO. VALDES S", "rbd": "6027", "dgv_rbd": null, "estado": null, "direccion": null, "urbano_rural": "URBANO", "matricula": 316, "tipo": null, "cut_reg": "09", "cut_prov": "091", "cut_com": "09104", "region": "La Araucanía", "provincia": "Cautín", "comuna": "Curarrehue", "globalid": "3dddca89-3f4e-46d6-b5f4-4434e90c2501", "latitud": -39.35838, "longitud": -71.58895 }, "geometry": { "type": "Point", "coordinates": [ -71.58895, -39.35838 ] } },
{ "type": "Feature", "properties": { "objectid": 18702, "dependencia": "INTEGRA", "nombre_establecimiento": "CARRUSEL", "rbd": "I91801", "dgv_rbd": null, "estado": null, "direccion": null, "urbano_rural": "URBANO", "matricula": 24, "tipo": null, "cut_reg": "09", "cut_prov": "091", "cut_com": "09104", "region": "La Araucanía", "provincia": "Cautín", "comuna": "Curarrehue", "globalid": "53fbc02e-a259-49e4-aa29-3c2401bfb283", "latitud": -39.358327, "longitud": -71.588606 }, "geometry": { "type": "Point", "coordinates": [ -71.58861, -39.35833 ] } },
{ "type": "Feature", "properties": { "objectid": 18703, "dependencia": "JUNJI - VTF", "nombre_establecimiento": "PU WANGUELEN", "rbd": "J9104002", "dgv_rbd": null, "estado": null, "direccion": null, "urbano_rural": "URBANO", "matricula": 51, "tipo": null, "cut_reg": "09", "cut_prov": "091", "cut_com": "09104", "region": "La Araucanía", "provincia": "Cautín", "comuna": "Curarrehue", "globalid": "30e48706-94e5-4f6c-903f-9e9b74371a0b", "latitud": -39.35779176, "longitud": -71.5871111 }, "geometry": { "type": "Point", "coordinates": [ -71.58711, -39.35779 ] } },
{ "type": "Feature", "properties": { "objectid": 18705, "dependencia": "PARTICULAR SUBVENCIONADO", "nombre_establecimiento": "COLEGIO CALASANZ KURAREWE", "rbd": "20435", "dgv_rbd": null, "estado": null, "direccion": null, "urbano_rural": "URBANO", "matricula": 153, "tipo": null, "cut_reg": "09", "cut_prov": "091", "cut_com": "09104", "region": "La Araucanía", "provincia": "Cautín", "comuna": "Curarrehue", "globalid": "dfe77c35-b600-4d0f-bfdb-f97c710662e3", "latitud": -39.35693, "longitud": -71.59045 }, "geometry": { "type": "Point", "coordinates": [ -71.59045, -39.35693 ] } },
{ "type": "Feature", "properties": { "objectid": 18706, "dependencia": "JUNJI - VTF", "nombre_establecimiento": "SALA CUNA Y J.INF.CALASANZ", "rbd": "J9104001", "dgv_rbd": null, "estado": null, "direccion": null, "urbano_rural": "URBANO", "matricula": 29, "tipo": null, "cut_reg": "09", "cut_prov": "091", "cut_com": "09104", "region": "La Araucanía", "provincia": "Cautín", "comuna": "Curarrehue", "globalid": "ed4d3c84-b0d3-4098-a586-83dfe1d0fd20", "latitud": -39.356646, "longitud": -71.59196 }, "geometry": { "type": "Point", "coordinates": [ -71.59196, -39.35665 ] } },
{ "type": "Feature", "properties": { "objectid": 18710, "dependencia": "MUNICIPAL", "nombre_establecimiento": "ESCUELA EL SANTILLO", "rbd": "6031", "dgv_rbd": null, "estado": null, "direccion": null, "urbano_rural": "RURAL", "matricula": 42, "tipo": null, "cut_reg": "09", "cut_prov": "091", "cut_com": "09104", "region": "La Araucanía", "provincia": "Cautín", "comuna": "Curarrehue", "globalid": "6924ba64-3197-4be7-b65e-2937b476e588", "latitud": -39.34818, "longitud": -71.70496 }, "geometry": { "type": "Point", "coordinates": [ -71.70496, -39.34818 ] } },
{ "type": "Feature", "properties": { "objectid": 18712, "dependencia": "PARTICULAR SUBVENCIONADO", "nombre_establecimiento": "ESCUELA PARTICULAR RELICURA", "rbd": "6083", "dgv_rbd": null, "estado": null, "direccion": null, "urbano_rural": "RURAL", "matricula": 4, "tipo": null, "cut_reg": "09", "cut_prov": "091", "cut_com": "09115", "region": "La Araucanía", "provincia": "Cautín", "comuna": "Pucón", "globalid": "ebf00a91-8663-4717-b1c5-2616308fedd1", "latitud": -39.34704, "longitud": -71.65073 }, "geometry": { "type": "Point", "coordinates": [ -71.65073, -39.34704 ] } },
{ "type": "Feature", "properties": { "objectid": 18713, "dependencia": "PARTICULAR SUBVENCIONADO", "nombre_establecimiento": "ESCUELA PARTICULAR CATRIPULLI", "rbd": "6039", "dgv_rbd": null, "estado": null, "direccion": null, "urbano_rural": "RURAL", "matricula": 228, "tipo": null, "cut_reg": "09", "cut_prov": "091", "cut_com": "09104", "region": "La Araucanía", "provincia": "Cautín", "comuna": "Curarrehue", "globalid": "65b2fdaa-641d-4530-bfeb-e46f6e77beb9", "latitud": -39.34473, "longitud": -71.70465 }, "geometry": { "type": "Point", "coordinates": [ -71.70465, -39.34473 ] } },
{ "type": "Feature", "properties": { "objectid": 18717, "dependencia": "PARTICULAR SUBVENCIONADO", "nombre_establecimiento": "ESCUELA SANTA ROSA DE LLAFENCO", "rbd": "6082", "dgv_rbd": null, "estado": null, "direccion": null, "urbano_rural": "RURAL", "matricula": 67, "tipo": null, "cut_reg": "09", "cut_prov": "091", "cut_com": "09115", "region": "La Araucanía", "provincia": "Cautín", "comuna": "Pucón", "globalid": "0063113f-20ac-44ed-af77-b267fb0143cc", "latitud": -39.33489, "longitud": -71.77908 }, "geometry": { "type": "Point", "coordinates": [ -71.77908, -39.33489 ] } },
{ "type": "Feature", "properties": { "objectid": 18720, "dependencia": "MUNICIPAL", "nombre_establecimiento": "ESCUELA JOSE MIGUEL MARTINEZ SOTO", "rbd": "6053", "dgv_rbd": null, "estado": null, "direccion": null, "urbano_rural": "RURAL", "matricula": 100, "tipo": null, "cut_reg": "09", "cut_prov": "091", "cut_com": "09115", "region": "La Araucanía", "provincia": "Cautín", "comuna": "Pucón", "globalid": "3bfa28e6-5cc6-4945-928b-0cfa1f42776c", "latitud": -39.33085, "longitud": -71.77648 }, "geometry": { "type": "Point", "coordinates": [ -71.77648, -39.33085 ] } },
{ "type": "Feature", "properties": { "objectid": 18722, "dependencia": "PARTICULAR SUBVENCIONADO", "nombre_establecimiento": "ESCUELA NUEVA MENETUE", "rbd": "19996", "dgv_rbd": null, "estado": null, "direccion": null, "urbano_rural": "RURAL", "matricula": 35, "tipo": null, "cut_reg": "09", "cut_prov": "091", "cut_com": "09115", "region": "La Araucanía", "provincia": "Cautín", "comuna": "Pucón", "globalid": "5722662d-e3e5-4e02-9eab-ca51090d9c00", "latitud": -39.32283, "longitud": -71.7319 }, "geometry": { "type": "Point", "coordinates": [ -71.7319, -39.32283 ] } },
{ "type": "Feature", "properties": { "objectid": 18731, "dependencia": "PARTICULAR SUBVENCIONADO", "nombre_establecimiento": "ESCUELA PARTICULAR MAITE", "rbd": "6044", "dgv_rbd": null, "estado": null, "direccion": null, "urbano_rural": "RURAL", "matricula": 13, "tipo": null, "cut_reg": "09", "cut_prov": "091", "cut_com": "09104", "region": "La Araucanía", "provincia": "Cautín", "comuna": "Curarrehue", "globalid": "0252c1cf-2cef-4e5d-83f4-af33bfae32fe", "latitud": -39.30787, "longitud": -71.45141 }, "geometry": { "type": "Point", "coordinates": [ -71.45141, -39.30787 ] } },
{ "type": "Feature", "properties": { "objectid": 18734, "dependencia": "PARTICULAR SUBVENCIONADO", "nombre_establecimiento": "ESCUELA PARTICULAR PUENTE BASA", "rbd": "6151", "dgv_rbd": null, "estado": null, "direccion": null, "urbano_rural": "RURAL", "matricula": 13, "tipo": null, "cut_reg": "09", "cut_prov": "091", "cut_com": "09104", "region": "La Araucanía", "provincia": "Cautín", "comuna": "Curarrehue", "globalid": "c60fcefa-b445-4c0e-a8f7-123027baebb4", "latitud": -39.30708, "longitud": -71.45085 }, "geometry": { "type": "Point", "coordinates": [ -71.45085, -39.30708 ] } },
{ "type": "Feature", "properties": { "objectid": 18736, "dependencia": "PARTICULAR SUBVENCIONADO", "nombre_establecimiento": "COLEGIO PUCÓN", "rbd": "20153", "dgv_rbd": null, "estado": null, "direccion": null, "urbano_rural": "URBANO", "matricula": 351, "tipo": null, "cut_reg": "09", "cut_prov": "091", "cut_com": "09115", "region": "La Araucanía", "provincia": "Cautín", "comuna": "Pucón", "globalid": "f9a0a5cd-31a3-403c-9e36-925b898d5c6c", "latitud": -39.30547, "longitud": -71.87245 }, "geometry": { "type": "Point", "coordinates": [ -71.87245, -39.30547 ] } },
{ "type": "Feature", "properties": { "objectid": 18743, "dependencia": "MUNICIPAL", "nombre_establecimiento": "ESCUELA BASICA MUNICIPAL DE EL CLARO", "rbd": "6056", "dgv_rbd": null, "estado": null, "direccion": null, "urbano_rural": "RURAL", "matricula": 289, "tipo": null, "cut_reg": "09", "cut_prov": "091", "cut_com": "09115", "region": "La Araucanía", "provincia": "Cautín", "comuna": "Pucón", "globalid": "8da7ca03-bdb7-4079-9587-dcb0024c1e3c", "latitud": -39.29878, "longitud": -71.9004 }, "geometry": { "type": "Point", "coordinates": [ -71.9004, -39.29878 ] } },
{ "type": "Feature", "properties": { "objectid": 18807, "dependencia": "PARTICULAR SUBVENCIONADO", "nombre_establecimiento": "ESCUELA PARTICULAR QUETROLELFU", "rbd": "6077", "dgv_rbd": null, "estado": null, "direccion": null, "urbano_rural": "RURAL", "matricula": 25, "tipo": null, "cut_reg": "09", "cut_prov": "091", "cut_com": "09115", "region": "La Araucanía", "provincia": "Cautín", "comuna": "Pucón", "globalid": "aea64768-e2bc-420d-bfa1-8b3b05d7c29a", "latitud": -39.27428, "longitud": -71.86102 }, "geometry": { "type": "Point", "coordinates": [ -71.86102, -39.27428 ] } },
{ "type": "Feature", "properties": { "objectid": 18808, "dependencia": "PARTICULAR SUBVENCIONADO", "nombre_establecimiento": "ESCUELA PARTICULAR MAICHIN", "rbd": "6048", "dgv_rbd": null, "estado": null, "direccion": null, "urbano_rural": "RURAL", "matricula": 5, "tipo": null, "cut_reg": "09", "cut_prov": "091", "cut_com": "09104", "region": "La Araucanía", "provincia": "Cautín", "comuna": "Curarrehue", "globalid": "10a8e8f2-2935-4624-948e-d5b3078a49fa", "latitud": -39.27358, "longitud": -71.4306 }, "geometry": { "type": "Point", "coordinates": [ -71.4306, -39.27358 ] } },
{ "type": "Feature", "properties": { "objectid": 18811, "dependencia": "MUNICIPAL", "nombre_establecimiento": "ESC. BASICA VILLA SAN PEDRO", "rbd": "6060", "dgv_rbd": null, "estado": null, "direccion": null, "urbano_rural": "RURAL", "matricula": 149, "tipo": null, "cut_reg": "09", "cut_prov": "091", "cut_com": "09115", "region": "La Araucanía", "provincia": "Cautín", "comuna": "Pucón", "globalid": "9fd7910a-99be-48bf-9c55-cef4d41be2da", "latitud": -39.26847, "longitud": -71.82174 }, "geometry": { "type": "Point", "coordinates": [ -71.82174, -39.26847 ] } },
{ "type": "Feature", "properties": { "objectid": 18813, "dependencia": "JUNJI", "nombre_establecimiento": "ANTU MAHUIDA", "rbd": "J9115016", "dgv_rbd": null, "estado": null, "direccion": null, "urbano_rural": "RURAL", "matricula": 14, "tipo": null, "cut_reg": "09", "cut_prov": "091", "cut_com": "09115", "region": "La Araucanía", "provincia": "Cautín", "comuna": "Pucón", "globalid": "8f86342a-101d-47a8-876d-ada962007856", "latitud": -39.266317, "longitud": -71.786667 }, "geometry": { "type": "Point", "coordinates": [ -71.78667, -39.26632 ] } },
{ "type": "Feature", "properties": { "objectid": 18814, "dependencia": "JUNJI - VTF", "nombre_establecimiento": "RUKADEUMAIN", "rbd": "J9115007", "dgv_rbd": null, "estado": null, "direccion": null, "urbano_rural": "RURAL", "matricula": 8, "tipo": null, "cut_reg": "09", "cut_prov": "091", "cut_com": "09115", "region": "La Araucanía", "provincia": "Cautín", "comuna": "Pucón", "globalid": "2d2a1265-5515-46ae-b817-914880c9a540", "latitud": -39.261877, "longitud": -71.920737 }, "geometry": { "type": "Point", "coordinates": [ -71.92074, -39.26188 ] } },
{ "type": "Feature", "properties": { "objectid": 18815, "dependencia": "MUNICIPAL", "nombre_establecimiento": "ESC. BASICA PICHARES", "rbd": "6062", "dgv_rbd": null, "estado": null, "direccion": null, "urbano_rural": "RURAL", "matricula": 24, "tipo": null, "cut_reg": "09", "cut_prov": "091", "cut_com": "09115", "region": "La Araucanía", "provincia": "Cautín", "comuna": "Pucón", "globalid": "75b0a031-0103-4884-a6db-193e7c210cdf", "latitud": -39.26056, "longitud": -71.77552 }, "geometry": { "type": "Point", "coordinates": [ -71.77552, -39.26056 ] } },
{ "type": "Feature", "properties": { "objectid": 18816, "dependencia": "MUNICIPAL", "nombre_establecimiento": "ESC. BASICA QUELHUE", "rbd": "6054", "dgv_rbd": null, "estado": null, "direccion": null, "urbano_rural": "RURAL", "matricula": 37, "tipo": null, "cut_reg": "09", "cut_prov": "091", "cut_com": "09115", "region": "La Araucanía", "provincia": "Cautín", "comuna": "Pucón", "globalid": "bc38fca0-446d-47cb-915c-7337038c95db", "latitud": -39.2605, "longitud": -71.91992 }, "geometry": { "type": "Point", "coordinates": [ -71.91992, -39.2605 ] } },
{ "type": "Feature", "properties": { "objectid": 18818, "dependencia": "MUNICIPAL", "nombre_establecimiento": "ESC. BASICA CARILEUFU", "rbd": "6066", "dgv_rbd": null, "estado": null, "direccion": null, "urbano_rural": "RURAL", "matricula": 269, "tipo": null, "cut_reg": "09", "cut_prov": "091", "cut_com": "09115", "region": "La Araucanía", "provincia": "Cautín", "comuna": "Pucón", "globalid": "fc6ed431-c253-450b-ad1f-2d2985295c0b", "latitud": -39.23888, "longitud": -71.81599 }, "geometry": { "type": "Point", "coordinates": [ -71.81599, -39.23888 ] } },
{ "type": "Feature", "properties": { "objectid": 18819, "dependencia": "JUNJI - VTF", "nombre_establecimiento": "CARILEUFU", "rbd": "J9115012", "dgv_rbd": null, "estado": null, "direccion": null, "urbano_rural": "RURAL", "matricula": 50, "tipo": null, "cut_reg": "09", "cut_prov": "091", "cut_com": "09115", "region": "La Araucanía", "provincia": "Cautín", "comuna": "Pucón", "globalid": "2b81f84b-ed8c-4b7a-a1f5-c698ebde6971", "latitud": -39.23801467, "longitud": -71.82585759 }, "geometry": { "type": "Point", "coordinates": [ -71.82586, -39.23801 ] } },
{ "type": "Feature", "properties": { "objectid": 18826, "dependencia": "JUNJI - VTF", "nombre_establecimiento": "QUINENAHUIN", "rbd": "J9104007", "dgv_rbd": null, "estado": null, "direccion": null, "urbano_rural": "RURAL", "matricula": 14, "tipo": null, "cut_reg": "09", "cut_prov": "091", "cut_com": "09104", "region": "La Araucanía", "provincia": "Cautín", "comuna": "Curarrehue", "globalid": "77b1e449-b1a7-4e55-9feb-249ceaf786ed", "latitud": -39.218667, "longitud": -71.434767 }, "geometry": { "type": "Point", "coordinates": [ -71.43477, -39.21867 ] } },
{ "type": "Feature", "properties": { "objectid": 18827, "dependencia": "MUNICIPAL", "nombre_establecimiento": "ESCUELA JERONIMO NECULPAN", "rbd": "6030", "dgv_rbd": null, "estado": null, "direccion": null, "urbano_rural": "RURAL", "matricula": 90, "tipo": null, "cut_reg": "09", "cut_prov": "091", "cut_com": "09104", "region": "La Araucanía", "provincia": "Cautín", "comuna": "Curarrehue", "globalid": "166f3f14-656b-4084-8cd6-715193c234db", "latitud": -39.21568, "longitud": -71.4318 }, "geometry": { "type": "Point", "coordinates": [ -71.4318, -39.21568 ] } },
{ "type": "Feature", "properties": { "objectid": 18831, "dependencia": "PARTICULAR SUBVENCIONADO", "nombre_establecimiento": "ESCUELA PARTICULAR CABURGUA", "rbd": "6076", "dgv_rbd": null, "estado": null, "direccion": null, "urbano_rural": "RURAL", "matricula": 17, "tipo": null, "cut_reg": "09", "cut_prov": "091", "cut_com": "09115", "region": "La Araucanía", "provincia": "Cautín", "comuna": "Pucón", "globalid": "60ffffd2-f48a-40b2-b818-b3005e838298", "latitud": -39.19759, "longitud": -71.82136 }, "geometry": { "type": "Point", "coordinates": [ -71.82136, -39.19759 ] } },
{ "type": "Feature", "properties": { "objectid": 18833, "dependencia": "MUNICIPAL", "nombre_establecimiento": "ESC.BASICA PAILLACO", "rbd": "6069", "dgv_rbd": null, "estado": null, "direccion": null, "urbano_rural": "RURAL", "matricula": 180, "tipo": null, "cut_reg": "09", "cut_prov": "091", "cut_com": "09115", "region": "La Araucanía", "provincia": "Cautín", "comuna": "Pucón", "globalid": "54b07844-0485-4e54-9580-a7c2720e10dd", "latitud": -39.19338, "longitud": -71.7582 }, "geometry": { "type": "Point", "coordinates": [ -71.7582, -39.19338 ] } },
{ "type": "Feature", "properties": { "objectid": 18835, "dependencia": "JUNJI - VTF", "nombre_establecimiento": "AMUN TREKAN - EPEUKURA", "rbd": "J9104004", "dgv_rbd": null, "estado": null, "direccion": null, "urbano_rural": "RURAL", "matricula": 19, "tipo": null, "cut_reg": "09", "cut_prov": "091", "cut_com": "09104", "region": "La Araucanía", "provincia": "Cautín", "comuna": "Curarrehue", "globalid": "470ae08f-4815-4e13-b298-f8b2c1c69b0d", "latitud": -39.1817, "longitud": -71.473617 }, "geometry": { "type": "Point", "coordinates": [ -71.47362, -39.1817 ] } },
{ "type": "Feature", "properties": { "objectid": 18840, "dependencia": "MUNICIPAL", "nombre_establecimiento": "ESCUELA LICANCURA", "rbd": "6036", "dgv_rbd": null, "estado": null, "direccion": null, "urbano_rural": "RURAL", "matricula": 70, "tipo": null, "cut_reg": "09", "cut_prov": "091", "cut_com": "09104", "region": "La Araucanía", "provincia": "Cautín", "comuna": "Curarrehue", "globalid": "8cc1fecd-c662-4f63-982d-2734fe8b089f", "latitud": -39.17836, "longitud": -71.4715 }, "geometry": { "type": "Point", "coordinates": [ -71.4715, -39.17836 ] } },
{ "type": "Feature", "properties": { "objectid": 18860, "dependencia": "MUNICIPAL", "nombre_establecimiento": "ESCUELA RUCA MANKE", "rbd": "6029", "dgv_rbd": null, "estado": null, "direccion": null, "urbano_rural": "RURAL", "matricula": 75, "tipo": null, "cut_reg": "09", "cut_prov": "091", "cut_com": "09104", "region": "La Araucanía", "provincia": "Cautín", "comuna": "Curarrehue", "globalid": "0ce45db2-3559-4701-b6f7-53926f46381a", "latitud": -39.11651, "longitud": -71.47355 }, "geometry": { "type": "Point", "coordinates": [ -71.47355, -39.11651 ] } },
{ "type": "Feature", "properties": { "objectid": 18861, "dependencia": "JUNJI - VTF", "nombre_establecimiento": "RUMY RAYEN (REIGOLIL)", "rbd": "J9104003", "dgv_rbd": null, "estado": null, "direccion": null, "urbano_rural": "RURAL", "matricula": 17, "tipo": null, "cut_reg": "09", "cut_prov": "091", "cut_com": "09104", "region": "La Araucanía", "provincia": "Cautín", "comuna": "Curarrehue", "globalid": "6f0947ec-1efe-4fa1-b6a4-b3ef3401998e", "latitud": -39.11650048, "longitud": -71.47286571000001 }, "geometry": { "type": "Point", "coordinates": [ -71.47287, -39.1165 ] } },
{ "type": "Feature", "properties": { "objectid": 18885, "dependencia": "PARTICULAR SUBVENCIONADO", "nombre_establecimiento": "ESC. PART. STA. ISABEL DE TRAFAMPULLI", "rbd": "6003", "dgv_rbd": null, "estado": null, "direccion": null, "urbano_rural": "RURAL", "matricula": 3, "tipo": null, "cut_reg": "09", "cut_prov": "091", "cut_com": "09103", "region": "La Araucanía", "provincia": "Cautín", "comuna": "Cunco", "globalid": "82ca0f59-39d5-4b8b-bda8-1d5e9a849379", "latitud": -39.08878, "longitud": -71.78547 }, "geometry": { "type": "Point", "coordinates": [ -71.78547, -39.08878 ] } },
{ "type": "Feature", "properties": { "objectid": 18923, "dependencia": "MUNICIPAL", "nombre_establecimiento": "ESCUELA BASICA QUECHEREHUE", "rbd": "5990", "dgv_rbd": null, "estado": null, "direccion": null, "urbano_rural": "RURAL", "matricula": 118, "tipo": null, "cut_reg": "09", "cut_prov": "091", "cut_com": "09103", "region": "La Araucanía", "provincia": "Cautín", "comuna": "Cunco", "globalid": "7a2f437a-051a-477c-9ae7-722e5b206859", "latitud": -38.99773, "longitud": -72.04838 }, "geometry": { "type": "Point", "coordinates": [ -72.04838, -38.99773 ] } },
{ "type": "Feature", "properties": { "objectid": 18934, "dependencia": "PARTICULAR SUBVENCIONADO", "nombre_establecimiento": "ESCUELA PARTICULAR QUECHEREHUE", "rbd": "5995", "dgv_rbd": null, "estado": null, "direccion": null, "urbano_rural": "RURAL", "matricula": 17, "tipo": null, "cut_reg": "09", "cut_prov": "091", "cut_com": "09103", "region": "La Araucanía", "provincia": "Cautín", "comuna": "Cunco", "globalid": "21a42716-56a7-497c-873e-aad0a1b00707", "latitud": -38.99256, "longitud": -72.05048 }, "geometry": { "type": "Point", "coordinates": [ -72.05048, -38.99256 ] } },
{ "type": "Feature", "properties": { "objectid": 18992, "dependencia": "PARTICULAR SUBVENCIONADO", "nombre_establecimiento": "ESCUELA PARTICULAR LA DEHESA", "rbd": "20071", "dgv_rbd": null, "estado": null, "direccion": null, "urbano_rural": "URBANO", "matricula": 166, "tipo": null, "cut_reg": "09", "cut_prov": "091", "cut_com": "09103", "region": "La Araucanía", "provincia": "Cautín", "comuna": "Cunco", "globalid": "22d80dba-7df1-464e-882c-3fbc01f4dcb2", "latitud": -38.94499, "longitud": -72.03851 }, "geometry": { "type": "Point", "coordinates": [ -72.03851, -38.94499 ] } },
{ "type": "Feature", "properties": { "objectid": 18993, "dependencia": "JUNJI - VTF", "nombre_establecimiento": "LOS MADEROS", "rbd": "J9103006", "dgv_rbd": null, "estado": null, "direccion": null, "urbano_rural": "URBANO", "matricula": 17, "tipo": null, "cut_reg": "09", "cut_prov": "091", "cut_com": "09103", "region": "La Araucanía", "provincia": "Cautín", "comuna": "Cunco", "globalid": "6d5cdd3d-1a3e-4c52-a0e6-373a823f787a", "latitud": -38.94424347, "longitud": -72.02743465 }, "geometry": { "type": "Point", "coordinates": [ -72.02743, -38.94424 ] } },
{ "type": "Feature", "properties": { "objectid": 18994, "dependencia": "PARTICULAR SUBVENCIONADO", "nombre_establecimiento": "CENTRO EDUC.INTEGRAL ADULTOS ACROPOLIS", "rbd": "20073", "dgv_rbd": null, "estado": null, "direccion": null, "urbano_rural": "URBANO", "matricula": 81, "tipo": null, "cut_reg": "09", "cut_prov": "091", "cut_com": "09103", "region": "La Araucanía", "provincia": "Cautín", "comuna": "Cunco", "globalid": "c6cf0215-969f-4a81-a828-3dfb88f7e7a9", "latitud": -38.94408, "longitud": -72.02568 }, "geometry": { "type": "Point", "coordinates": [ -72.02568, -38.94408 ] } },
{ "type": "Feature", "properties": { "objectid": 18995, "dependencia": "JUNJI - VTF", "nombre_establecimiento": "LA UNION", "rbd": "J9103001", "dgv_rbd": null, "estado": null, "direccion": null, "urbano_rural": "URBANO", "matricula": 52, "tipo": null, "cut_reg": "09", "cut_prov": "091", "cut_com": "09103", "region": "La Araucanía", "provincia": "Cautín", "comuna": "Cunco", "globalid": "a69f2cb7-30dd-4923-a49d-efbb2be8fe59", "latitud": -38.943041, "longitud": -72.034633 }, "geometry": { "type": "Point", "coordinates": [ -72.03463, -38.94304 ] } },
{ "type": "Feature", "properties": { "objectid": 19003, "dependencia": "MUNICIPAL", "nombre_establecimiento": "ESC. BASICA MOLULCO", "rbd": "6009", "dgv_rbd": null, "estado": null, "direccion": null, "urbano_rural": "RURAL", "matricula": 2, "tipo": null, "cut_reg": "09", "cut_prov": "091", "cut_com": "09110", "region": "La Araucanía", "provincia": "Cautín", "comuna": "Melipeuco", "globalid": "16e1fdd1-a0a9-4dab-a774-6bc54d732574", "latitud": -38.93652, "longitud": -71.70712 }, "geometry": { "type": "Point", "coordinates": [ -71.70712, -38.93652 ] } },
{ "type": "Feature", "properties": { "objectid": 19005, "dependencia": "MUNICIPAL", "nombre_establecimiento": "ESCUELA MUNICIPAL CARÉN", "rbd": "6017", "dgv_rbd": null, "estado": null, "direccion": null, "urbano_rural": "RURAL", "matricula": 4, "tipo": null, "cut_reg": "09", "cut_prov": "091", "cut_com": "09110", "region": "La Araucanía", "provincia": "Cautín", "comuna": "Melipeuco", "globalid": "97402a22-f7e9-4510-9e42-eae7f58afac2", "latitud": -38.93495, "longitud": -71.45177 }, "geometry": { "type": "Point", "coordinates": [ -71.45177, -38.93495 ] } },
{ "type": "Feature", "properties": { "objectid": 19006, "dependencia": "PARTICULAR SUBVENCIONADO", "nombre_establecimiento": "LICEO BICENTENARIO DE EXCELENCIA POLITÉCNICO SANTA CRUZ", "rbd": "12368", "dgv_rbd": null, "estado": null, "direccion": null, "urbano_rural": "URBANO", "matricula": 811, "tipo": null, "cut_reg": "09", "cut_prov": "091", "cut_com": "09103", "region": "La Araucanía", "provincia": "Cautín", "comuna": "Cunco", "globalid": "212d3310-254a-48ec-b364-be2640f0791e", "latitud": -38.93338, "longitud": -72.02891 }, "geometry": { "type": "Point", "coordinates": [ -72.02891, -38.93338 ] } },
{ "type": "Feature", "properties": { "objectid": 19007, "dependencia": "JUNJI - VTF", "nombre_establecimiento": "SALA CUNA PASO A PASITO", "rbd": "J9103004", "dgv_rbd": null, "estado": null, "direccion": null, "urbano_rural": "URBANO", "matricula": 50, "tipo": null, "cut_reg": "09", "cut_prov": "091", "cut_com": "09103", "region": "La Araucanía", "provincia": "Cautín", "comuna": "Cunco", "globalid": "b1eaa937-178e-45af-bbb2-633f2df8f89e", "latitud": -38.93325023, "longitud": -72.03098175000001 }, "geometry": { "type": "Point", "coordinates": [ -72.03098, -38.93325 ] } },
{ "type": "Feature", "properties": { "objectid": 19008, "dependencia": "PARTICULAR SUBVENCIONADO", "nombre_establecimiento": "ESCUELA LEOVIGILDO KLEY", "rbd": "5993", "dgv_rbd": null, "estado": null, "direccion": null, "urbano_rural": "URBANO", "matricula": 330, "tipo": null, "cut_reg": "09", "cut_prov": "091", "cut_com": "09103", "region": "La Araucanía", "provincia": "Cautín", "comuna": "Cunco", "globalid": "733118ff-ae2f-4a8f-a2b5-a7639b3fd64a", "latitud": -38.9329, "longitud": -72.02899 }, "geometry": { "type": "Point", "coordinates": [ -72.02899, -38.9329 ] } },
{ "type": "Feature", "properties": { "objectid": 19009, "dependencia": "MUNICIPAL", "nombre_establecimiento": "LICEO MUNICIPAL ATENEA", "rbd": "5957", "dgv_rbd": null, "estado": null, "direccion": null, "urbano_rural": "URBANO", "matricula": 730, "tipo": null, "cut_reg": "09", "cut_prov": "091", "cut_com": "09103", "region": "La Araucanía", "provincia": "Cautín", "comuna": "Cunco", "globalid": "0131c5d4-d3d4-42eb-8e18-25ec90e598dd", "latitud": -38.93259, "longitud": -72.03082 }, "geometry": { "type": "Point", "coordinates": [ -72.03082, -38.93259 ] } },
{ "type": "Feature", "properties": { "objectid": 19010, "dependencia": "PARTICULAR SUBVENCIONADO", "nombre_establecimiento": "LICEO BICENTENARIO DE EXCELENCIA JUAN BOSCO", "rbd": "5992", "dgv_rbd": null, "estado": null, "direccion": null, "urbano_rural": "URBANO", "matricula": 269, "tipo": null, "cut_reg": "09", "cut_prov": "091", "cut_com": "09103", "region": "La Araucanía", "provincia": "Cautín", "comuna": "Cunco", "globalid": "64f42cec-c7cf-4587-8690-a461153c7d3b", "latitud": -38.9321, "longitud": -72.02884 }, "geometry": { "type": "Point", "coordinates": [ -72.02884, -38.9321 ] } },
{ "type": "Feature", "properties": { "objectid": 19011, "dependencia": "JUNJI - VTF", "nombre_establecimiento": "JI Y SC MI PEQUEÑO MUNDO", "rbd": "J9103015", "dgv_rbd": null, "estado": null, "direccion": null, "urbano_rural": "URBANO", "matricula": 38, "tipo": null, "cut_reg": "09", "cut_prov": "091", "cut_com": "09103", "region": "La Araucanía", "provincia": "Cautín", "comuna": "Cunco", "globalid": "ee4bad40-9387-49e6-a9a5-03f60c4d8d9c", "latitud": -38.931213, "longitud": -72.037385 }, "geometry": { "type": "Point", "coordinates": [ -72.03739, -38.93121 ] } },
{ "type": "Feature", "properties": { "objectid": 19012, "dependencia": "JUNJI", "nombre_establecimiento": "CUMBRES MAGICAS", "rbd": "J9103016", "dgv_rbd": null, "estado": null, "direccion": null, "urbano_rural": "URBANO", "matricula": 17, "tipo": null, "cut_reg": "09", "cut_prov": "091", "cut_com": "09103", "region": "La Araucanía", "provincia": "Cautín", "comuna": "Cunco", "globalid": "5b6da39f-474c-4203-b613-df5cd73c447f", "latitud": -38.930526, "longitud": -72.032045 }, "geometry": { "type": "Point", "coordinates": [ -72.03204, -38.93053 ] } },
{ "type": "Feature", "properties": { "objectid": 19013, "dependencia": "PARTICULAR SUBVENCIONADO", "nombre_establecimiento": "COLEGIO JUAN PABLO II", "rbd": "20182", "dgv_rbd": null, "estado": null, "direccion": null, "urbano_rural": "URBANO", "matricula": 231, "tipo": null, "cut_reg": "09", "cut_prov": "091", "cut_com": "09103", "region": "La Araucanía", "provincia": "Cautín", "comuna": "Cunco", "globalid": "8332dad9-ee05-443d-bbd1-6f02d8b87c79", "latitud": -38.93052, "longitud": -72.01831 }, "geometry": { "type": "Point", "coordinates": [ -72.01831, -38.93052 ] } },
{ "type": "Feature", "properties": { "objectid": 19014, "dependencia": "INTEGRA", "nombre_establecimiento": "RUCA-HUENEI", "rbd": "I91601", "dgv_rbd": null, "estado": null, "direccion": null, "urbano_rural": "URBANO", "matricula": 66, "tipo": null, "cut_reg": "09", "cut_prov": "091", "cut_com": "09103", "region": "La Araucanía", "provincia": "Cautín", "comuna": "Cunco", "globalid": "325d542e-8f0f-47a5-b466-2ef786a67b85", "latitud": -38.927323, "longitud": -72.036952 }, "geometry": { "type": "Point", "coordinates": [ -72.03695, -38.92732 ] } },
{ "type": "Feature", "properties": { "objectid": 19015, "dependencia": "MUNICIPAL", "nombre_establecimiento": "ESC. BASICA QUINETRU", "rbd": "5977", "dgv_rbd": null, "estado": null, "direccion": null, "urbano_rural": "RURAL", "matricula": 5, "tipo": null, "cut_reg": "09", "cut_prov": "091", "cut_com": "09103", "region": "La Araucanía", "provincia": "Cautín", "comuna": "Cunco", "globalid": "ffb787ee-9089-448a-bd08-488ce33b975f", "latitud": -38.92685, "longitud": -71.90749 }, "geometry": { "type": "Point", "coordinates": [ -71.90749, -38.92685 ] } },
{ "type": "Feature", "properties": { "objectid": 19016, "dependencia": "MUNICIPAL", "nombre_establecimiento": "ESC. BASICA CURACALCO", "rbd": "6015", "dgv_rbd": null, "estado": null, "direccion": null, "urbano_rural": "RURAL", "matricula": 4, "tipo": null, "cut_reg": "09", "cut_prov": "091", "cut_com": "09103", "region": "La Araucanía", "provincia": "Cautín", "comuna": "Cunco", "globalid": "c251dc2a-4f15-4172-9b35-0a3aae9a6408", "latitud": -38.92682, "longitud": -71.83466 }, "geometry": { "type": "Point", "coordinates": [ -71.83466, -38.92682 ] } },
{ "type": "Feature", "properties": { "objectid": 19018, "dependencia": "JUNJI", "nombre_establecimiento": "KIMRAKIZUAM", "rbd": "J9103014", "dgv_rbd": null, "estado": null, "direccion": null, "urbano_rural": "RURAL", "matricula": 7, "tipo": null, "cut_reg": "09", "cut_prov": "091", "cut_com": "09103", "region": "La Araucanía", "provincia": "Cautín", "comuna": "Cunco", "globalid": "f8292ad8-1f86-4be3-a6aa-c83f8643d34b", "latitud": -38.920903, "longitud": -71.931482 }, "geometry": { "type": "Point", "coordinates": [ -71.93148, -38.9209 ] } },
{ "type": "Feature", "properties": { "objectid": 19023, "dependencia": "PARTICULAR SUBVENCIONADO", "nombre_establecimiento": "ESCUELA PARTICULAR PADRE BERNABE", "rbd": "5999", "dgv_rbd": null, "estado": null, "direccion": null, "urbano_rural": "RURAL", "matricula": 44, "tipo": null, "cut_reg": "09", "cut_prov": "091", "cut_com": "09103", "region": "La Araucanía", "provincia": "Cautín", "comuna": "Cunco", "globalid": "f9a62e2f-14b0-404f-af99-c18e50d953b6", "latitud": -38.90831, "longitud": -71.93202 }, "geometry": { "type": "Point", "coordinates": [ -71.93202, -38.90831 ] } },
{ "type": "Feature", "properties": { "objectid": 19028, "dependencia": "PARTICULAR SUBVENCIONADO", "nombre_establecimiento": "ESCUELA PARTICULAR LLAIMA", "rbd": "6019", "dgv_rbd": null, "estado": null, "direccion": null, "urbano_rural": "RURAL", "matricula": 34, "tipo": null, "cut_reg": "09", "cut_prov": "091", "cut_com": "09110", "region": "La Araucanía", "provincia": "Cautín", "comuna": "Melipeuco", "globalid": "607388f8-87d3-4717-a928-850383a697f2", "latitud": -38.89925, "longitud": -71.73684 }, "geometry": { "type": "Point", "coordinates": [ -71.73684, -38.89925 ] } },
{ "type": "Feature", "properties": { "objectid": 19035, "dependencia": "MUNICIPAL", "nombre_establecimiento": "ESCUELA PAULO ARAVENA ARAVENA", "rbd": "5981", "dgv_rbd": null, "estado": null, "direccion": null, "urbano_rural": "RURAL", "matricula": 1, "tipo": null, "cut_reg": "09", "cut_prov": "091", "cut_com": "09103", "region": "La Araucanía", "provincia": "Cautín", "comuna": "Cunco", "globalid": "a085eadf-970a-4f75-acbd-743a349a9f57", "latitud": -38.88272, "longitud": -72.05445 }, "geometry": { "type": "Point", "coordinates": [ -72.05445, -38.88272 ] } },
{ "type": "Feature", "properties": { "objectid": 19036, "dependencia": "JUNJI", "nombre_establecimiento": "WE KIMUN - SANTA MARIA LLAIMA", "rbd": "J9110009", "dgv_rbd": null, "estado": null, "direccion": null, "urbano_rural": "RURAL", "matricula": 12, "tipo": null, "cut_reg": "09", "cut_prov": "091", "cut_com": "09110", "region": "La Araucanía", "provincia": "Cautín", "comuna": "Melipeuco", "globalid": "886729da-f8c1-40a6-8807-6ebc3a354f6b", "latitud": -38.882418, "longitud": -71.767953 }, "geometry": { "type": "Point", "coordinates": [ -71.76795, -38.88242 ] } },
{ "type": "Feature", "properties": { "objectid": 19040, "dependencia": "MUNICIPAL", "nombre_establecimiento": "ESC. BASICA MOLULCO", "rbd": "6011", "dgv_rbd": null, "estado": null, "direccion": null, "urbano_rural": "RURAL", "matricula": 6, "tipo": null, "cut_reg": "09", "cut_prov": "091", "cut_com": "09110", "region": "La Araucanía", "provincia": "Cautín", "comuna": "Melipeuco", "globalid": "ce5ba7ec-7d2b-4fe4-8ae4-0361c6bdd488", "latitud": -38.88116, "longitud": -71.72278 }, "geometry": { "type": "Point", "coordinates": [ -71.72278, -38.88116 ] } },
{ "type": "Feature", "properties": { "objectid": 19043, "dependencia": "JUNJI - VTF", "nombre_establecimiento": "PICHIKECHE ESC.PAIHUAN PILLAN", "rbd": "J9110001", "dgv_rbd": null, "estado": null, "direccion": null, "urbano_rural": "RURAL", "matricula": 14, "tipo": null, "cut_reg": "09", "cut_prov": "091", "cut_com": "09110", "region": "La Araucanía", "provincia": "Cautín", "comuna": "Melipeuco", "globalid": "c5141820-007a-4491-92c8-a277a027e501", "latitud": -38.87594452, "longitud": -71.82161111000001 }, "geometry": { "type": "Point", "coordinates": [ -71.82161, -38.87594 ] } },
{ "type": "Feature", "properties": { "objectid": 19045, "dependencia": "PARTICULAR SUBVENCIONADO", "nombre_establecimiento": "ESCUELA PARTICULAR PALIHUEPILLAN", "rbd": "6023", "dgv_rbd": null, "estado": null, "direccion": null, "urbano_rural": "RURAL", "matricula": 22, "tipo": null, "cut_reg": "09", "cut_prov": "091", "cut_com": "09110", "region": "La Araucanía", "provincia": "Cautín", "comuna": "Melipeuco", "globalid": "666ce1a8-bc78-4ea4-9dec-1da594b85593", "latitud": -38.8722, "longitud": -71.81915 }, "geometry": { "type": "Point", "coordinates": [ -71.81915, -38.8722 ] } },
{ "type": "Feature", "properties": { "objectid": 19056, "dependencia": "PARTICULAR SUBVENCIONADO", "nombre_establecimiento": "ESCUELA PARTICULAR LA SUERTE", "rbd": "6022", "dgv_rbd": null, "estado": null, "direccion": null, "urbano_rural": "RURAL", "matricula": 12, "tipo": null, "cut_reg": "09", "cut_prov": "091", "cut_com": "09110", "region": "La Araucanía", "provincia": "Cautín", "comuna": "Melipeuco", "globalid": "46362891-21d2-48c2-894c-cd63b638d730", "latitud": -38.8672, "longitud": -71.77164 }, "geometry": { "type": "Point", "coordinates": [ -71.77164, -38.8672 ] } },
{ "type": "Feature", "properties": { "objectid": 19058, "dependencia": "MUNICIPAL", "nombre_establecimiento": "ESC. BASICA CUMCUMLLAQUE", "rbd": "6012", "dgv_rbd": null, "estado": null, "direccion": null, "urbano_rural": "RURAL", "matricula": 27, "tipo": null, "cut_reg": "09", "cut_prov": "091", "cut_com": "09110", "region": "La Araucanía", "provincia": "Cautín", "comuna": "Melipeuco", "globalid": "e95a7e78-0d4d-4880-bdb1-7951bc3e75b5", "latitud": -38.86414, "longitud": -71.58165 }, "geometry": { "type": "Point", "coordinates": [ -71.58165, -38.86414 ] } },
{ "type": "Feature", "properties": { "objectid": 19064, "dependencia": "PARTICULAR SUBVENCIONADO", "nombre_establecimiento": "ESCUELA PARTICULAR SAN GABRIEL", "rbd": "6018", "dgv_rbd": null, "estado": null, "direccion": null, "urbano_rural": "URBANO", "matricula": 151, "tipo": null, "cut_reg": "09", "cut_prov": "091", "cut_com": "09110", "region": "La Araucanía", "provincia": "Cautín", "comuna": "Melipeuco", "globalid": "f72efdb8-50ea-47d4-94e5-107274351faa", "latitud": -38.85475, "longitud": -71.70229 }, "geometry": { "type": "Point", "coordinates": [ -71.70229, -38.85475 ] } },
{ "type": "Feature", "properties": { "objectid": 20065, "dependencia": "JUNJI", "nombre_establecimiento": "AUKARAKIÑ (CUMCUMLLAQUE)", "rbd": "J9110013", "dgv_rbd": null, "estado": null, "direccion": null, "urbano_rural": "RURAL", "matricula": 9, "tipo": null, "cut_reg": "09", "cut_prov": "091", "cut_com": "09110", "region": "La Araucanía", "provincia": "Cautín", "comuna": "Melipeuco", "globalid": "74bafec5-67fa-40d0-aa96-9fa4869cfc1c", "latitud": -38.854516, "longitud": -71.605733 }, "geometry": { "type": "Point", "coordinates": [ -71.60573, -38.85452 ] } },
{ "type": "Feature", "properties": { "objectid": 20068, "dependencia": "MUNICIPAL", "nombre_establecimiento": "ESCUELA BASICA VOLCAN LLAIMA", "rbd": "19927", "dgv_rbd": null, "estado": null, "direccion": null, "urbano_rural": "URBANO", "matricula": 280, "tipo": null, "cut_reg": "09", "cut_prov": "091", "cut_com": "09110", "region": "La Araucanía", "provincia": "Cautín", "comuna": "Melipeuco", "globalid": "fb26e583-c47a-4849-bc55-992ccd47faae", "latitud": -38.85431, "longitud": -71.69701 }, "geometry": { "type": "Point", "coordinates": [ -71.69701, -38.85431 ] } },
{ "type": "Feature", "properties": { "objectid": 20070, "dependencia": "INTEGRA", "nombre_establecimiento": "LOS PEQUES", "rbd": "I91701", "dgv_rbd": null, "estado": null, "direccion": null, "urbano_rural": "URBANO", "matricula": 41, "tipo": null, "cut_reg": "09", "cut_prov": "091", "cut_com": "09110", "region": "La Araucanía", "provincia": "Cautín", "comuna": "Melipeuco", "globalid": "cda80295-ea3d-449f-a16a-3d14cffc3f9a", "latitud": -38.854099, "longitud": -71.69938 }, "geometry": { "type": "Point", "coordinates": [ -71.69938, -38.8541 ] } },
{ "type": "Feature", "properties": { "objectid": 20072, "dependencia": "JUNJI", "nombre_establecimiento": "PEWEN", "rbd": "J9110011", "dgv_rbd": null, "estado": null, "direccion": null, "urbano_rural": "URBANO", "matricula": 64, "tipo": null, "cut_reg": "09", "cut_prov": "091", "cut_com": "09110", "region": "La Araucanía", "provincia": "Cautín", "comuna": "Melipeuco", "globalid": "88eb644f-172a-4bcc-9f63-21f1c2cd7441", "latitud": -38.853956, "longitud": -71.693833 }, "geometry": { "type": "Point", "coordinates": [ -71.69383, -38.85396 ] } },
{ "type": "Feature", "properties": { "objectid": 20074, "dependencia": "MUNICIPAL", "nombre_establecimiento": "LICEO LOS ANDES", "rbd": "6007", "dgv_rbd": null, "estado": null, "direccion": null, "urbano_rural": "URBANO", "matricula": 171, "tipo": null, "cut_reg": "09", "cut_prov": "091", "cut_com": "09110", "region": "La Araucanía", "provincia": "Cautín", "comuna": "Melipeuco", "globalid": "6d124eb1-28cc-41d2-8abc-237313d14dbd", "latitud": -38.85388, "longitud": -71.70094 }, "geometry": { "type": "Point", "coordinates": [ -71.70094, -38.85388 ] } },
{ "type": "Feature", "properties": { "objectid": 20104, "dependencia": "PARTICULAR SUBVENCIONADO", "nombre_establecimiento": "ESCUELA PARTICULAR QUINQUEN", "rbd": "19958", "dgv_rbd": null, "estado": null, "direccion": null, "urbano_rural": "RURAL", "matricula": 13, "tipo": null, "cut_reg": "09", "cut_prov": "092", "cut_com": "09205", "region": "La Araucanía", "provincia": "Malleco", "comuna": "Lonquimay", "globalid": "19c2a2d9-2733-464d-9795-6582b67ef4af", "latitud": -38.65848, "longitud": -71.38602 }, "geometry": { "type": "Point", "coordinates": [ -71.38602, -38.65848 ] } },
{ "type": "Feature", "properties": { "objectid": 20190, "dependencia": "MUNICIPAL", "nombre_establecimiento": "ESCUELA DE SIERRA NEVADA", "rbd": "5337", "dgv_rbd": null, "estado": null, "direccion": null, "urbano_rural": "RURAL", "matricula": 3, "tipo": null, "cut_reg": "09", "cut_prov": "092", "cut_com": "09205", "region": "La Araucanía", "provincia": "Malleco", "comuna": "Lonquimay", "globalid": "3c05999e-c5e2-4b07-b6ef-a55c51c36227", "latitud": -38.55944, "longitud": -71.4733 }, "geometry": { "type": "Point", "coordinates": [ -71.4733, -38.55944 ] } },
{ "type": "Feature", "properties": { "objectid": 20595, "dependencia": "PARTICULAR SUBVENCIONADO", "nombre_establecimiento": "COLEGIO BICENTENARIO DE EXCELENCIA ADENAUER", "rbd": "20219", "dgv_rbd": null, "estado": null, "direccion": null, "urbano_rural": "URBANO", "matricula": 479, "tipo": null, "cut_reg": "09", "cut_prov": "091", "cut_com": "09110", "region": "La Araucanía", "provincia": "Cautín", "comuna": "Melipeuco", "globalid": "25bacf30-cef3-49d5-8fdf-1786e3c2d6cd", "latitud": -38.84955, "longitud": -71.68464 }, "geometry": { "type": "Point", "coordinates": [ -71.68464, -38.84955 ] } },
{ "type": "Feature", "properties": { "objectid": 20637, "dependencia": "PARTICULAR SUBVENCIONADO", "nombre_establecimiento": "ESCUELA PARTICULAR CAREN", "rbd": "6021", "dgv_rbd": null, "estado": null, "direccion": null, "urbano_rural": "RURAL", "matricula": 5, "tipo": null, "cut_reg": "09", "cut_prov": "091", "cut_com": "09110", "region": "La Araucanía", "provincia": "Cautín", "comuna": "Melipeuco", "globalid": "cc9f84fc-2215-4e6d-a33a-7ad0d6e2050d", "latitud": -38.82478, "longitud": -71.55357 }, "geometry": { "type": "Point", "coordinates": [ -71.55357, -38.82478 ] } },
{ "type": "Feature", "properties": { "objectid": 20660, "dependencia": "PARTICULAR SUBVENCIONADO", "nombre_establecimiento": "ESCUELA DAHUELHUE", "rbd": "6025", "dgv_rbd": null, "estado": null, "direccion": null, "urbano_rural": "RURAL", "matricula": 6, "tipo": null, "cut_reg": "09", "cut_prov": "091", "cut_com": "09110", "region": "La Araucanía", "provincia": "Cautín", "comuna": "Melipeuco", "globalid": "b4e4ec42-b44e-44fd-9236-46b73e8e5ff2", "latitud": -38.81094, "longitud": -71.62649 }, "geometry": { "type": "Point", "coordinates": [ -71.62649, -38.81094 ] } },
{ "type": "Feature", "properties": { "objectid": 20661, "dependencia": "MUNICIPAL", "nombre_establecimiento": "ESCUELA DE ICALMA", "rbd": "5333", "dgv_rbd": null, "estado": null, "direccion": null, "urbano_rural": "RURAL", "matricula": 153, "tipo": null, "cut_reg": "09", "cut_prov": "092", "cut_com": "09205", "region": "La Araucanía", "provincia": "Malleco", "comuna": "Lonquimay", "globalid": "56291c9a-51b3-4345-9448-78c22869ab56", "latitud": -38.81021, "longitud": -71.27909 }, "geometry": { "type": "Point", "coordinates": [ -71.27909, -38.81021 ] } },
{ "type": "Feature", "properties": { "objectid": 20668, "dependencia": "JUNJI", "nombre_establecimiento": "RUKA WE KIMUN - ICALMA", "rbd": "J9205007", "dgv_rbd": null, "estado": null, "direccion": null, "urbano_rural": "RURAL", "matricula": 11, "tipo": null, "cut_reg": "09", "cut_prov": "092", "cut_com": "09205", "region": "La Araucanía", "provincia": "Malleco", "comuna": "Lonquimay", "globalid": "23158a14-fb29-4b4b-a4a4-eeb17944f782", "latitud": -38.800195, "longitud": -71.267926 }, "geometry": { "type": "Point", "coordinates": [ -71.26793, -38.8002 ] } },
{ "type": "Feature", "properties": { "objectid": 20693, "dependencia": "JUNJI", "nombre_establecimiento": "WE NEWEN", "rbd": "J9205004", "dgv_rbd": null, "estado": null, "direccion": null, "urbano_rural": "RURAL", "matricula": 13, "tipo": null, "cut_reg": "09", "cut_prov": "092", "cut_com": "09205", "region": "La Araucanía", "provincia": "Malleco", "comuna": "Lonquimay", "globalid": "cf675438-f7ae-4038-b5bc-74d930324c8f", "latitud": -38.776617, "longitud": -71.227583 }, "geometry": { "type": "Point", "coordinates": [ -71.22758, -38.77662 ] } },
{ "type": "Feature", "properties": { "objectid": 20930, "dependencia": "JUNJI", "nombre_establecimiento": "PICHI TROQUIN PEWEN - MARIMENUCO ALTO", "rbd": "J9205006", "dgv_rbd": null, "estado": null, "direccion": null, "urbano_rural": "RURAL", "matricula": 9, "tipo": null, "cut_reg": "09", "cut_prov": "092", "cut_com": "09205", "region": "La Araucanía", "provincia": "Malleco", "comuna": "Lonquimay", "globalid": "31c327db-6b6d-444c-ad8f-f43fd2557418", "latitud": -38.733452, "longitud": -71.16606 }, "geometry": { "type": "Point", "coordinates": [ -71.16606, -38.73345 ] } },
{ "type": "Feature", "properties": { "objectid": 20966, "dependencia": "JUNJI", "nombre_establecimiento": "PIRREN MAHUIDA", "rbd": "J9205017", "dgv_rbd": null, "estado": null, "direccion": null, "urbano_rural": "RURAL", "matricula": 11, "tipo": null, "cut_reg": "09", "cut_prov": "092", "cut_com": "09205", "region": "La Araucanía", "provincia": "Malleco", "comuna": "Lonquimay", "globalid": "85cd4ae6-05de-4457-9f94-63c6e264ff8f", "latitud": -38.728312, "longitud": -71.137279 }, "geometry": { "type": "Point", "coordinates": [ -71.13728, -38.72831 ] } },
{ "type": "Feature", "properties": { "objectid": 21061, "dependencia": "PARTICULAR SUBVENCIONADO", "nombre_establecimiento": "ESCUELA PARTICULAR GALLETUE", "rbd": "19999", "dgv_rbd": null, "estado": null, "direccion": null, "urbano_rural": "RURAL", "matricula": 11, "tipo": null, "cut_reg": "09", "cut_prov": "092", "cut_com": "09205", "region": "La Araucanía", "provincia": "Malleco", "comuna": "Lonquimay", "globalid": "73bd645f-74fb-45ad-9ae9-df8f99b20f8e", "latitud": -38.70126, "longitud": -71.29962 }, "geometry": { "type": "Point", "coordinates": [ -71.29962, -38.70126 ] } }
]
}
