{
"type": "FeatureCollection",
"name": "TIN",
"crs": { "type": "name", "properties": { "name": "urn:ogc:def:crs:OGC:1.3:CRS84" } },
"xy_coordinate_resolution": 1e-05,
"features": [
{ "type": "Feature", "properties": { "objectid": 22667, "dependencia": "MUNICIPAL", "nombre_establecimiento": "ESCUELA BASICA LUIS ESCOBAR LARA", "rbd": "2829", "dgv_rbd": null, "estado": null, "direccion": null, "urbano_rural": "RURAL", "matricula": 50, "tipo": null, "cut_reg": "07", "cut_prov": "073", "cut_com": "07306", "region": "Maule", "provincia": "Curicó", "comuna": "Romeral", "globalid": "a3b66da4-296d-49b9-8092-3cda7d36adc5", "latitud": -35.00017, "longitud": -70.81158 }, "geometry": { "type": "Point", "coordinates": [ -70.81158, -35.00017 ] } },
{ "type": "Feature", "properties": { "objectid": 22668, "dependencia": "INTEGRA", "nombre_establecimiento": "LOS PALOMOS", "rbd": "I70302", "dgv_rbd": null, "estado": null, "direccion": null, "urbano_rural": "RURAL", "matricula": 12, "tipo": null, "cut_reg": "07", "cut_prov": "073", "cut_com": "07306", "region": "Maule", "provincia": "Curicó", "comuna": "Romeral", "globalid": "9e1c7fe0-b661-471e-8525-1329314db8e2", "latitud": -34.999793, "longitud": -70.812163 }, "geometry": { "type": "Point", "coordinates": [ -70.81216, -34.99979 ] } },
{ "type": "Feature", "properties": { "objectid": 22976, "dependencia": "SLEP", "nombre_establecimiento": "ESCUELA CONCENTRAC. RURAL SERGIO VERDUGO HERRERA", "rbd": "2465", "dgv_rbd": null, "estado": null, "direccion": null, "urbano_rural": "RURAL", "matricula": 252, "tipo": null, "cut_reg": "06", "cut_prov": "063", "cut_com": "06301", "region": "Libertador General Bernardo O'Higgins", "provincia": "Colchagua", "comuna": "San Fernando", "globalid": "298de629-547e-4423-bb09-29139c491822", "latitud": -34.68643, "longitud": -70.87068 }, "geometry": { "type": "Point", "coordinates": [ -70.87068, -34.68643 ] } },
{ "type": "Feature", "properties": { "objectid": 22977, "dependencia": "JUNJI", "nombre_establecimiento": "COPITO DE NIEVE", "rbd": "J6301108", "dgv_rbd": null, "estado": null, "direccion": null, "urbano_rural": "RURAL", "matricula": 8, "tipo": null, "cut_reg": "06", "cut_prov": "063", "cut_com": "06301", "region": "Libertador General Bernardo O'Higgins", "provincia": "Colchagua", "comuna": "San Fernando", "globalid": "40cebe6c-0d08-4e51-8c34-f53e90f429b9", "latitud": -34.686385, "longitud": -70.870593 }, "geometry": { "type": "Point", "coordinates": [ -70.87059, -34.68639 ] } },
{ "type": "Feature", "properties": { "objectid": 22978, "dependencia": "JUNJI", "nombre_establecimiento": "RAYO DE LUZ", "rbd": "J6301104", "dgv_rbd": null, "estado": null, "direccion": null, "urbano_rural": "RURAL", "matricula": 20, "tipo": null, "cut_reg": "06", "cut_prov": "063", "cut_com": "06301", "region": "Libertador General Bernardo O'Higgins", "provincia": "Colchagua", "comuna": "San Fernando", "globalid": "d5892573-f163-4eb5-bd5b-4d561468cb83", "latitud": -34.68583056, "longitud": -70.870475 }, "geometry": { "type": "Point", "coordinates": [ -70.87047, -34.68583 ] } },
{ "type": "Feature", "properties": { "objectid": 23011, "dependencia": "JUNJI", "nombre_establecimiento": "MANITOS DE ANGEL", "rbd": "J6301103", "dgv_rbd": null, "estado": null, "direccion": null, "urbano_rural": "RURAL", "matricula": 18, "tipo": null, "cut_reg": "06", "cut_prov": "063", "cut_com": "06301", "region": "Libertador General Bernardo O'Higgins", "provincia": "Colchagua", "comuna": "San Fernando", "globalid": "62f68362-41c9-47d8-8b5e-cd5b1c15b0b5", "latitud": -34.65036111, "longitud": -70.85411389000001 }, "geometry": { "type": "Point", "coordinates": [ -70.85411, -34.65036 ] } },
{ "type": "Feature", "properties": { "objectid": 23015, "dependencia": "SLEP", "nombre_establecimiento": "ESCUELA ABRAHAM LINCOLN DE AGUA BUENA", "rbd": "2469", "dgv_rbd": null, "estado": null, "direccion": null, "urbano_rural": "RURAL", "matricula": 157, "tipo": null, "cut_reg": "06", "cut_prov": "063", "cut_com": "06301", "region": "Libertador General Bernardo O'Higgins", "provincia": "Colchagua", "comuna": "San Fernando", "globalid": "6cd0b1a8-d877-461f-aced-49a758e90088", "latitud": -34.65003, "longitud": -70.85335 }, "geometry": { "type": "Point", "coordinates": [ -70.85335, -34.65003 ] } },
{ "type": "Feature", "properties": { "objectid": 23021, "dependencia": "PARTICULAR SUBVENCIONADO", "nombre_establecimiento": "COLEGIO PARTICULAR GRANEROS", "rbd": "2218", "dgv_rbd": null, "estado": null, "direccion": null, "urbano_rural": "URBANO", "matricula": 949, "tipo": null, "cut_reg": "06", "cut_prov": "063", "cut_com": "06301", "region": "Libertador General Bernardo O'Higgins", "provincia": "Colchagua", "comuna": "San Fernando", "globalid": "dc7838ee-6693-4966-a480-ad3bca6f5e50", "latitud": -34.64756, "longitud": -70.72692 }, "geometry": { "type": "Point", "coordinates": [ -70.72692, -34.64756 ] } }
]
}
