{
"type": "FeatureCollection",
"name": "TRO",
"crs": { "type": "name", "properties": { "name": "urn:ogc:def:crs:OGC:1.3:CRS84" } },
"xy_coordinate_resolution": 1e-05,
"features": [
{ "type": "Feature", "properties": { "objectid": 18372, "dependencia": "MUNICIPAL", "nombre_establecimiento": "ESCUELA RURAL SOBERANIA CAPITAN DE BANDADA (A) MATIAS GONZALEZ COFRE DE PASO EL LEON", "rbd": "7755", "dgv_rbd": null, "estado": null, "direccion": null, "urbano_rural": "RURAL", "matricula": 2, "tipo": null, "cut_reg": "10", "cut_prov": "101", "cut_com": "10103", "region": "Los Lagos", "provincia": "Llanquihue", "comuna": "Cochamó", "globalid": "aa8ad9fd-e523-42a0-a483-90af50030221", "latitud": -41.50472, "longitud": -71.85657 }, "geometry": { "type": "Point", "coordinates": [ -71.85657, -41.50472 ] } },
{ "type": "Feature", "properties": { "objectid": 18552, "dependencia": "SLEP", "nombre_establecimiento": "ESCUELA RURAL LA PENINSULA", "rbd": "7765", "dgv_rbd": null, "estado": null, "direccion": null, "urbano_rural": "RURAL", "matricula": 5, "tipo": null, "cut_reg": "10", "cut_prov": "101", "cut_com": "10109", "region": "Los Lagos", "provincia": "Llanquihue", "comuna": "Puerto Varas", "globalid": "da34b1b6-4bd8-4cde-851a-5a708d79c490", "latitud": -41.44096, "longitud": -72.3301 }, "geometry": { "type": "Point", "coordinates": [ -72.3301, -41.44096 ] } },
{ "type": "Feature", "properties": { "objectid": 19104, "dependencia": "JUNJI", "nombre_establecimiento": "LOS PECESITOS", "rbd": "J10109016", "dgv_rbd": null, "estado": null, "direccion": null, "urbano_rural": "RURAL", "matricula": 5, "tipo": null, "cut_reg": "10", "cut_prov": "101", "cut_com": "10109", "region": "Los Lagos", "provincia": "Llanquihue", "comuna": "Puerto Varas", "globalid": "84dabf39-4a38-4b26-9990-0cf636f24dc6", "latitud": -41.38955816, "longitud": -72.32957122 }, "geometry": { "type": "Point", "coordinates": [ -72.32957, -41.38956 ] } },
{ "type": "Feature", "properties": { "objectid": 19105, "dependencia": "SLEP", "nombre_establecimiento": "ESCUELA RURAL CRISTO REY", "rbd": "7756", "dgv_rbd": null, "estado": null, "direccion": null, "urbano_rural": "RURAL", "matricula": 57, "tipo": null, "cut_reg": "10", "cut_prov": "101", "cut_com": "10109", "region": "Los Lagos", "provincia": "Llanquihue", "comuna": "Puerto Varas", "globalid": "1900843a-8f43-4041-8b41-0a92d0f6b78f", "latitud": -41.38881, "longitud": -72.32811 }, "geometry": { "type": "Point", "coordinates": [ -72.32811, -41.38881 ] } },
{ "type": "Feature", "properties": { "objectid": 19116, "dependencia": "SLEP", "nombre_establecimiento": "ESCUELA RURAL LAS CAMELIAS", "rbd": "7761", "dgv_rbd": null, "estado": null, "direccion": null, "urbano_rural": "RURAL", "matricula": 5, "tipo": null, "cut_reg": "10", "cut_prov": "101", "cut_com": "10109", "region": "Los Lagos", "provincia": "Llanquihue", "comuna": "Puerto Varas", "globalid": "37c4c672-d63f-41de-93fd-d970762ec8d3", "latitud": -41.3816, "longitud": -72.27862 }, "geometry": { "type": "Point", "coordinates": [ -72.27862, -41.3816 ] } },
{ "type": "Feature", "properties": { "objectid": 19216, "dependencia": "SLEP", "nombre_establecimiento": "ESCUELA RURAL RICARDO ROTH SCHUTZ", "rbd": "7741", "dgv_rbd": null, "estado": null, "direccion": null, "urbano_rural": "RURAL", "matricula": 16, "tipo": null, "cut_reg": "10", "cut_prov": "101", "cut_com": "10109", "region": "Los Lagos", "provincia": "Llanquihue", "comuna": "Puerto Varas", "globalid": "e52b9aa8-e462-4199-a9d0-2a93ce68ff35", "latitud": -41.13706, "longitud": -72.40318 }, "geometry": { "type": "Point", "coordinates": [ -72.40318, -41.13706 ] } },
{ "type": "Feature", "properties": { "objectid": 19296, "dependencia": "PARTICULAR SUBVENCIONADO", "nombre_establecimiento": "ESCUELA PARTICULAR N.181 LAS GAVIOTAS", "rbd": "7502", "dgv_rbd": null, "estado": null, "direccion": null, "urbano_rural": "RURAL", "matricula": 1, "tipo": null, "cut_reg": "10", "cut_prov": "103", "cut_com": "10302", "region": "Los Lagos", "provincia": "Osorno", "comuna": "Puerto Octay", "globalid": "03d1c18a-3c7a-4e09-87d7-6d0447a50c66", "latitud": -40.89282, "longitud": -72.17409 }, "geometry": { "type": "Point", "coordinates": [ -72.17409, -40.89282 ] } }
]
}
