{
"type": "FeatureCollection",
"name": "TSP",
"crs": { "type": "name", "properties": { "name": "urn:ogc:def:crs:OGC:1.3:CRS84" } },
"xy_coordinate_resolution": 1e-05,
"features": [
{ "type": "Feature", "properties": { "objectid": 23624, "dependencia": "MUNICIPAL", "nombre_establecimiento": "ESCUELA LOS HUALLES", "rbd": "3271", "dgv_rbd": null, "estado": null, "direccion": null, "urbano_rural": "RURAL", "matricula": 8, "tipo": null, "cut_reg": "07", "cut_prov": "074", "cut_com": "07401", "region": "Maule", "provincia": "Linares", "comuna": "Linares", "globalid": "0596cfc4-8230-4bb7-981a-20c79d577574", "latitud": -36.15518, "longitud": -71.31868 }, "geometry": { "type": "Point", "coordinates": [ -71.31868, -36.15518 ] } },
{ "type": "Feature", "properties": { "objectid": 24047, "dependencia": "MUNICIPAL", "nombre_establecimiento": "ESCUELA EL CULMEN", "rbd": "3282", "dgv_rbd": null, "estado": null, "direccion": null, "urbano_rural": "RURAL", "matricula": 4, "tipo": null, "cut_reg": "07", "cut_prov": "074", "cut_com": "07401", "region": "Maule", "provincia": "Linares", "comuna": "Linares", "globalid": "ca5d2e3c-6f99-4f79-bd93-459024022b21", "latitud": -35.98, "longitud": -71.3145 }, "geometry": { "type": "Point", "coordinates": [ -71.3145, -35.98 ] } },
{ "type": "Feature", "properties": { "objectid": 24396, "dependencia": "MUNICIPAL", "nombre_establecimiento": "ESCUELA CHUPALLAR", "rbd": "3272", "dgv_rbd": null, "estado": null, "direccion": null, "urbano_rural": "RURAL", "matricula": 8, "tipo": null, "cut_reg": "07", "cut_prov": "074", "cut_com": "07401", "region": "Maule", "provincia": "Linares", "comuna": "Linares", "globalid": "2c1d2457-51f2-4453-8aa8-c76f7bf54d7d", "latitud": -35.86221, "longitud": -71.21752 }, "geometry": { "type": "Point", "coordinates": [ -71.21752, -35.86221 ] } },
{ "type": "Feature", "properties": { "objectid": 24426, "dependencia": "MUNICIPAL", "nombre_establecimiento": "ESCUELA DE ROBLERIA", "rbd": "3289", "dgv_rbd": null, "estado": null, "direccion": null, "urbano_rural": "RURAL", "matricula": 4, "tipo": null, "cut_reg": "07", "cut_prov": "074", "cut_com": "07401", "region": "Maule", "provincia": "Linares", "comuna": "Linares", "globalid": "18747be4-561c-447c-b27d-e8e56fd4dabd", "latitud": -35.86041, "longitud": -71.26386 }, "geometry": { "type": "Point", "coordinates": [ -71.26386, -35.86041 ] } },
{ "type": "Feature", "properties": { "objectid": 24722, "dependencia": "MUNICIPAL", "nombre_establecimiento": "ESCUELA NACIONES UNIDAS", "rbd": "3092", "dgv_rbd": null, "estado": null, "direccion": null, "urbano_rural": "RURAL", "matricula": 3, "tipo": null, "cut_reg": "07", "cut_prov": "071", "cut_com": "07109", "region": "Maule", "provincia": "Talca", "comuna": "San Clemente", "globalid": "30dc82f6-780b-4422-8d26-90a8ccbf91e2", "latitud": -35.81569, "longitud": -70.81283 }, "geometry": { "type": "Point", "coordinates": [ -70.81283, -35.81569 ] } },
{ "type": "Feature", "properties": { "objectid": 24926, "dependencia": "MUNICIPAL", "nombre_establecimiento": "ESCUELA PASO NEVADO", "rbd": "3085", "dgv_rbd": null, "estado": null, "direccion": null, "urbano_rural": "RURAL", "matricula": 56, "tipo": null, "cut_reg": "07", "cut_prov": "071", "cut_com": "07109", "region": "Maule", "provincia": "Talca", "comuna": "San Clemente", "globalid": "198a9e1c-b63e-4b9e-b8c8-63b775dc73d6", "latitud": -35.71743, "longitud": -71.18967 }, "geometry": { "type": "Point", "coordinates": [ -71.18967, -35.71743 ] } }
]
}
