{
"type": "FeatureCollection",
"name": "TUP",
"crs": { "type": "name", "properties": { "name": "urn:ogc:def:crs:OGC:1.3:CRS84" } },
"xy_coordinate_resolution": 1e-05,
"features": [
{ "type": "Feature", "properties": { "objectid": 25768, "dependencia": "MUNICIPAL", "nombre_establecimiento": "ESCUELA BASICA G-NÂ°631 FRONTERIZA", "rbd": "10532", "dgv_rbd": null, "estado": null, "direccion": null, "urbano_rural": "RURAL", "matricula": 20, "tipo": null, "cut_reg": "13", "cut_prov": "132", "cut_com": "13203", "region": "Metropolitana de Santiago", "provincia": "Cordillera", "comuna": "San José de Maipo", "globalid": "5fe074e1-38f6-4ed2-8de0-afa5a7fcc87a", "latitud": -33.54803, "longitud": -70.28688 }, "geometry": { "type": "Point", "coordinates": [ -70.28688, -33.54803 ] } },
{ "type": "Feature", "properties": { "objectid": 27678, "dependencia": "SLEP", "nombre_establecimiento": "LICEO POLITECNICO ROSAURO SANTANA RIOS", "rbd": "4948", "dgv_rbd": null, "estado": null, "direccion": null, "urbano_rural": "URBANO", "matricula": 260, "tipo": null, "cut_reg": "13", "cut_prov": "132", "cut_com": "13203", "region": "Metropolitana de Santiago", "provincia": "Cordillera", "comuna": "San José de Maipo", "globalid": "6dc28da3-4b3d-4e47-820a-dc85c23b7f95", "latitud": -33.4444, "longitud": -70.15251 }, "geometry": { "type": "Point", "coordinates": [ -70.15251, -33.4444 ] } },
{ "type": "Feature", "properties": { "objectid": 28273, "dependencia": "PARTICULAR SUBVENCIONADO", "nombre_establecimiento": "ESCUELA ESPECIAL CENTRO EDUCACIONAL PUKARA", "rbd": "31181", "dgv_rbd": null, "estado": null, "direccion": null, "urbano_rural": "URBANO", "matricula": 24, "tipo": null, "cut_reg": "13", "cut_prov": "132", "cut_com": "13203", "region": "Metropolitana de Santiago", "provincia": "Cordillera", "comuna": "San José de Maipo", "globalid": "647f03c4-a4c1-42cc-b900-a4df2202f032", "latitud": -33.20292, "longitud": -70.20392 }, "geometry": { "type": "Point", "coordinates": [ -70.20392, -33.20292 ] } },
{ "type": "Feature", "properties": { "objectid": 30063, "dependencia": "PARTICULAR SUBVENCIONADO", "nombre_establecimiento": "CEIA INAPEWMA LA SERENA", "rbd": "41846", "dgv_rbd": null, "estado": null, "direccion": null, "urbano_rural": "URBANO", "matricula": 11, "tipo": null, "cut_reg": "13", "cut_prov": "132", "cut_com": "13203", "region": "Metropolitana de Santiago", "provincia": "Cordillera", "comuna": "San José de Maipo", "globalid": "4275f788-f8e3-4ba2-a62a-e1d21a27c6f6", "latitud": -33.45152, "longitud": -70.22626 }, "geometry": { "type": "Point", "coordinates": [ -70.22626, -33.45152 ] } }
]
}
