{
"type": "FeatureCollection",
"name": "YAT",
"crs": { "type": "name", "properties": { "name": "urn:ogc:def:crs:OGC:1.3:CRS84" } },
"xy_coordinate_resolution": 1e-05,
"features": [
{ "type": "Feature", "properties": { "objectid": 18134, "dependencia": "MUNICIPAL", "nombre_establecimiento": "ESCUELA RURAL QUIACA", "rbd": "8327", "dgv_rbd": null, "estado": null, "direccion": null, "urbano_rural": "RURAL", "matricula": 1, "tipo": null, "cut_reg": "10", "cut_prov": "104", "cut_com": "10403", "region": "Los Lagos", "provincia": "Palena", "comuna": "Hualaihué", "globalid": "e7f89f34-52b0-4692-a73f-8f1c0db395b5", "latitud": -42.1512, "longitud": -72.48385 }, "geometry": { "type": "Point", "coordinates": [ -72.48385, -42.1512 ] } },
{ "type": "Feature", "properties": { "objectid": 18147, "dependencia": "MUNICIPAL", "nombre_establecimiento": "ESCUELA RURAL CANDELARIA", "rbd": "8314", "dgv_rbd": null, "estado": null, "direccion": null, "urbano_rural": "RURAL", "matricula": 4, "tipo": null, "cut_reg": "10", "cut_prov": "104", "cut_com": "10403", "region": "Los Lagos", "provincia": "Palena", "comuna": "Hualaihué", "globalid": "e719e8f1-6ffd-409b-9446-b44f1c4aad57", "latitud": -42.05057, "longitud": -72.58758 }, "geometry": { "type": "Point", "coordinates": [ -72.58758, -42.05057 ] } },
{ "type": "Feature", "properties": { "objectid": 18149, "dependencia": "PARTICULAR SUBVENCIONADO", "nombre_establecimiento": "ESCUELA PARTICULAR LOS HALCONES", "rbd": "22092", "dgv_rbd": null, "estado": null, "direccion": null, "urbano_rural": "RURAL", "matricula": 6, "tipo": null, "cut_reg": "10", "cut_prov": "104", "cut_com": "10403", "region": "Los Lagos", "provincia": "Palena", "comuna": "Hualaihué", "globalid": "ffde28f6-cded-4c48-bd17-f9de34d93abb", "latitud": -42.0338, "longitud": -72.60188 }, "geometry": { "type": "Point", "coordinates": [ -72.60188, -42.0338 ] } },
{ "type": "Feature", "properties": { "objectid": 18151, "dependencia": "MUNICIPAL", "nombre_establecimiento": "ESCUELA RURAL CATARATAS DEL ALERCE", "rbd": "8313", "dgv_rbd": null, "estado": null, "direccion": null, "urbano_rural": "RURAL", "matricula": 64, "tipo": null, "cut_reg": "10", "cut_prov": "104", "cut_com": "10403", "region": "Los Lagos", "provincia": "Palena", "comuna": "Hualaihué", "globalid": "4d8ebc7f-44bb-499b-a933-d9c86aaa5800", "latitud": -42.02483, "longitud": -72.68754 }, "geometry": { "type": "Point", "coordinates": [ -72.68754, -42.02483 ] } },
{ "type": "Feature", "properties": { "objectid": 18153, "dependencia": "MUNICIPAL", "nombre_establecimiento": "ESCUELA RURAL CALETA EL MANZANO", "rbd": "8321", "dgv_rbd": null, "estado": null, "direccion": null, "urbano_rural": "RURAL", "matricula": 60, "tipo": null, "cut_reg": "10", "cut_prov": "104", "cut_com": "10403", "region": "Los Lagos", "provincia": "Palena", "comuna": "Hualaihué", "globalid": "b47d3d74-da85-4d9d-9443-2be6dacafdc5", "latitud": -42.01107, "longitud": -72.64532 }, "geometry": { "type": "Point", "coordinates": [ -72.64532, -42.01107 ] } },
{ "type": "Feature", "properties": { "objectid": 18154, "dependencia": "JUNJI", "nombre_establecimiento": "LAS GAVIOTITAS", "rbd": "J10403015", "dgv_rbd": null, "estado": null, "direccion": null, "urbano_rural": "RURAL", "matricula": 18, "tipo": null, "cut_reg": "10", "cut_prov": "104", "cut_com": "10403", "region": "Los Lagos", "provincia": "Palena", "comuna": "Hualaihué", "globalid": "005c6e2a-ab00-4e71-8021-54a5705c1674", "latitud": -42.01079984, "longitud": -72.64329144 }, "geometry": { "type": "Point", "coordinates": [ -72.64329, -42.0108 ] } },
{ "type": "Feature", "properties": { "objectid": 18156, "dependencia": "MUNICIPAL", "nombre_establecimiento": "ESCUELA RURAL VALLE HERMOSO", "rbd": "8319", "dgv_rbd": null, "estado": null, "direccion": null, "urbano_rural": "RURAL", "matricula": 1, "tipo": null, "cut_reg": "10", "cut_prov": "104", "cut_com": "10403", "region": "Los Lagos", "provincia": "Palena", "comuna": "Hualaihué", "globalid": "12be6341-90aa-4298-8dac-c458a0d6d2fb", "latitud": -42.0021, "longitud": -72.67808 }, "geometry": { "type": "Point", "coordinates": [ -72.67808, -42.0021 ] } },
{ "type": "Feature", "properties": { "objectid": 18157, "dependencia": "MUNICIPAL", "nombre_establecimiento": "ESCUELA RURAL PICHICOLO", "rbd": "8312", "dgv_rbd": null, "estado": null, "direccion": null, "urbano_rural": "RURAL", "matricula": 14, "tipo": null, "cut_reg": "10", "cut_prov": "104", "cut_com": "10403", "region": "Los Lagos", "provincia": "Palena", "comuna": "Hualaihué", "globalid": "c568976c-5ef5-4c21-b8d9-e8d8b78801a9", "latitud": -42.00134, "longitud": -72.58819 }, "geometry": { "type": "Point", "coordinates": [ -72.58819, -42.00134 ] } },
{ "type": "Feature", "properties": { "objectid": 18158, "dependencia": "JUNJI", "nombre_establecimiento": "PICHIKELOWILLI", "rbd": "J10403018", "dgv_rbd": null, "estado": null, "direccion": null, "urbano_rural": "RURAL", "matricula": 12, "tipo": null, "cut_reg": "10", "cut_prov": "104", "cut_com": "10403", "region": "Los Lagos", "provincia": "Palena", "comuna": "Hualaihué", "globalid": "e542fbda-b68b-406f-baf9-03584e541a60", "latitud": -41.99899483, "longitud": -72.63865431 }, "geometry": { "type": "Point", "coordinates": [ -72.63865, -41.99899 ] } },
{ "type": "Feature", "properties": { "objectid": 18159, "dependencia": "JUNJI - VTF", "nombre_establecimiento": "PASO A PASITO", "rbd": "J10403001", "dgv_rbd": null, "estado": null, "direccion": null, "urbano_rural": "RURAL", "matricula": 34, "tipo": null, "cut_reg": "10", "cut_prov": "104", "cut_com": "10403", "region": "Los Lagos", "provincia": "Palena", "comuna": "Hualaihué", "globalid": "179c3bd4-6d0e-42fb-ad99-b4faf7342d97", "latitud": -41.9965528, "longitud": -72.68543095 }, "geometry": { "type": "Point", "coordinates": [ -72.68543, -41.99655 ] } },
{ "type": "Feature", "properties": { "objectid": 18160, "dependencia": "MUNICIPAL", "nombre_establecimiento": "ESCUELA RURAL SAN FRANCISCO", "rbd": "8326", "dgv_rbd": null, "estado": null, "direccion": null, "urbano_rural": "RURAL", "matricula": 1, "tipo": null, "cut_reg": "10", "cut_prov": "104", "cut_com": "10403", "region": "Los Lagos", "provincia": "Palena", "comuna": "Hualaihué", "globalid": "d4c6534e-7371-41db-8bcf-1fa3a3908cf4", "latitud": -41.9843, "longitud": -72.75676 }, "geometry": { "type": "Point", "coordinates": [ -72.75676, -41.9843 ] } },
{ "type": "Feature", "properties": { "objectid": 18161, "dependencia": "MUNICIPAL", "nombre_establecimiento": "ESCUELA RURAL SAN PEDRO", "rbd": "8315", "dgv_rbd": null, "estado": null, "direccion": null, "urbano_rural": "RURAL", "matricula": 8, "tipo": null, "cut_reg": "10", "cut_prov": "104", "cut_com": "10403", "region": "Los Lagos", "provincia": "Palena", "comuna": "Hualaihué", "globalid": "4eaa15b0-06cd-48dc-9ec0-ebc771f28a32", "latitud": -41.97375, "longitud": -72.78968 }, "geometry": { "type": "Point", "coordinates": [ -72.78968, -41.97375 ] } },
{ "type": "Feature", "properties": { "objectid": 18162, "dependencia": "MUNICIPAL", "nombre_establecimiento": "ESCUELA RURAL EL VARAL", "rbd": "22100", "dgv_rbd": null, "estado": null, "direccion": null, "urbano_rural": "RURAL", "matricula": 3, "tipo": null, "cut_reg": "10", "cut_prov": "104", "cut_com": "10403", "region": "Los Lagos", "provincia": "Palena", "comuna": "Hualaihué", "globalid": "3d772493-45a0-448b-99fd-28fa850dd315", "latitud": -41.97271, "longitud": -72.66329 }, "geometry": { "type": "Point", "coordinates": [ -72.66329, -41.97271 ] } },
{ "type": "Feature", "properties": { "objectid": 18163, "dependencia": "INTEGRA", "nombre_establecimiento": "COPITO DE NIEVE", "rbd": "I104002", "dgv_rbd": null, "estado": null, "direccion": null, "urbano_rural": "RURAL", "matricula": 114, "tipo": null, "cut_reg": "10", "cut_prov": "104", "cut_com": "10403", "region": "Los Lagos", "provincia": "Palena", "comuna": "Hualaihué", "globalid": "8cc1be86-4422-490d-9b57-475098681628", "latitud": -41.968978, "longitud": -72.475267 }, "geometry": { "type": "Point", "coordinates": [ -72.47527, -41.96898 ] } },
{ "type": "Feature", "properties": { "objectid": 18164, "dependencia": "MUNICIPAL", "nombre_establecimiento": "ESCUELA ANTUPIREN", "rbd": "8325", "dgv_rbd": null, "estado": null, "direccion": null, "urbano_rural": "RURAL", "matricula": 311, "tipo": null, "cut_reg": "10", "cut_prov": "104", "cut_com": "10403", "region": "Los Lagos", "provincia": "Palena", "comuna": "Hualaihué", "globalid": "02e5a69d-415a-4fad-b028-b16504a9db28", "latitud": -41.9685, "longitud": -72.54239 }, "geometry": { "type": "Point", "coordinates": [ -72.54239, -41.9685 ] } },
{ "type": "Feature", "properties": { "objectid": 18165, "dependencia": "PARTICULAR SUBVENCIONADO", "nombre_establecimiento": "INSTITUTO APRENDER", "rbd": "22604", "dgv_rbd": null, "estado": null, "direccion": null, "urbano_rural": "RURAL", "matricula": 93, "tipo": null, "cut_reg": "10", "cut_prov": "104", "cut_com": "10403", "region": "Los Lagos", "provincia": "Palena", "comuna": "Hualaihué", "globalid": "67814f38-247e-4ca7-a020-13c454c0a429", "latitud": -41.96757, "longitud": -72.46924 }, "geometry": { "type": "Point", "coordinates": [ -72.46924, -41.96757 ] } },
{ "type": "Feature", "properties": { "objectid": 18166, "dependencia": "MUNICIPAL", "nombre_establecimiento": "LICEO HORNOPIREN", "rbd": "22027", "dgv_rbd": null, "estado": null, "direccion": null, "urbano_rural": "RURAL", "matricula": 340, "tipo": null, "cut_reg": "10", "cut_prov": "104", "cut_com": "10403", "region": "Los Lagos", "provincia": "Palena", "comuna": "Hualaihué", "globalid": "080760fc-ad46-4aca-bc33-37ca57e94a40", "latitud": -41.96755, "longitud": -72.46922 }, "geometry": { "type": "Point", "coordinates": [ -72.46922, -41.96755 ] } },
{ "type": "Feature", "properties": { "objectid": 18168, "dependencia": "PARTICULAR SUBVENCIONADO", "nombre_establecimiento": "COLEGIO SAGRADA FAMILIA", "rbd": "22641", "dgv_rbd": null, "estado": null, "direccion": null, "urbano_rural": "URBANO", "matricula": 418, "tipo": null, "cut_reg": "10", "cut_prov": "104", "cut_com": "10403", "region": "Los Lagos", "provincia": "Palena", "comuna": "Hualaihué", "globalid": "b237ffdf-396f-498c-aa0c-6b86d554750c", "latitud": -41.96388, "longitud": -72.47024 }, "geometry": { "type": "Point", "coordinates": [ -72.47024, -41.96388 ] } },
{ "type": "Feature", "properties": { "objectid": 18169, "dependencia": "MUNICIPAL", "nombre_establecimiento": "ESCUELA RURAL QUETEN", "rbd": "8324", "dgv_rbd": null, "estado": null, "direccion": null, "urbano_rural": "RURAL", "matricula": 1, "tipo": null, "cut_reg": "10", "cut_prov": "104", "cut_com": "10403", "region": "Los Lagos", "provincia": "Palena", "comuna": "Hualaihué", "globalid": "501e4986-f77a-4308-bef5-43a05dd5e947", "latitud": -41.94374, "longitud": -72.80058 }, "geometry": { "type": "Point", "coordinates": [ -72.80058, -41.94374 ] } },
{ "type": "Feature", "properties": { "objectid": 18171, "dependencia": "MUNICIPAL", "nombre_establecimiento": "ESCUELA RURAL CORDILLERA NEVADA", "rbd": "8329", "dgv_rbd": null, "estado": null, "direccion": null, "urbano_rural": "RURAL", "matricula": 40, "tipo": null, "cut_reg": "10", "cut_prov": "104", "cut_com": "10403", "region": "Los Lagos", "provincia": "Palena", "comuna": "Hualaihué", "globalid": "4d1c9be5-0aeb-4cd4-ac78-244a82e15ed9", "latitud": -41.92817, "longitud": -72.42147 }, "geometry": { "type": "Point", "coordinates": [ -72.42147, -41.92817 ] } },
{ "type": "Feature", "properties": { "objectid": 18174, "dependencia": "MUNICIPAL", "nombre_establecimiento": "ESCUELA RURAL N.745 SEMILLERO", "rbd": "8323", "dgv_rbd": null, "estado": null, "direccion": null, "urbano_rural": "RURAL", "matricula": 96, "tipo": null, "cut_reg": "10", "cut_prov": "104", "cut_com": "10403", "region": "Los Lagos", "provincia": "Palena", "comuna": "Hualaihué", "globalid": "7c3e9999-152c-4888-9696-856c754d6c5f", "latitud": -41.92039, "longitud": -72.84603 }, "geometry": { "type": "Point", "coordinates": [ -72.84603, -41.92039 ] } },
{ "type": "Feature", "properties": { "objectid": 18175, "dependencia": "MUNICIPAL", "nombre_establecimiento": "ESCUELA RURAL JUAN FRANCISCO MALDONADO BARRÍA", "rbd": "8328", "dgv_rbd": null, "estado": null, "direccion": null, "urbano_rural": "RURAL", "matricula": 2, "tipo": null, "cut_reg": "10", "cut_prov": "104", "cut_com": "10403", "region": "Los Lagos", "provincia": "Palena", "comuna": "Hualaihué", "globalid": "9007a502-6127-4134-b74b-fecb5c7a66c5", "latitud": -41.90639, "longitud": -72.46586 }, "geometry": { "type": "Point", "coordinates": [ -72.46586, -41.90639 ] } },
{ "type": "Feature", "properties": { "objectid": 18176, "dependencia": "JUNJI", "nombre_establecimiento": "CECI TENTELHUE", "rbd": "J10403074", "dgv_rbd": null, "estado": null, "direccion": null, "urbano_rural": "RURAL", "matricula": 10, "tipo": null, "cut_reg": "10", "cut_prov": "104", "cut_com": "10403", "region": "Los Lagos", "provincia": "Palena", "comuna": "Hualaihué", "globalid": "d2f8d997-99e5-4d3a-aca4-3f0efc09c92c", "latitud": -41.90348333, "longitud": -72.84568333 }, "geometry": { "type": "Point", "coordinates": [ -72.84568, -41.90348 ] } },
{ "type": "Feature", "properties": { "objectid": 18201, "dependencia": "MUNICIPAL", "nombre_establecimiento": "ESCUELA RURAL QUEULLIN", "rbd": "7782", "dgv_rbd": null, "estado": null, "direccion": null, "urbano_rural": "RURAL", "matricula": 7, "tipo": null, "cut_reg": "10", "cut_prov": "101", "cut_com": "10102", "region": "Los Lagos", "provincia": "Llanquihue", "comuna": "Calbuco", "globalid": "ce41fcc8-9154-4cdf-a541-1f6db6ecebfc", "latitud": -41.8734, "longitud": -72.90423 }, "geometry": { "type": "Point", "coordinates": [ -72.90423, -41.8734 ] } },
{ "type": "Feature", "properties": { "objectid": 18203, "dependencia": "JUNJI", "nombre_establecimiento": "CARACOLITOS", "rbd": "J10403017", "dgv_rbd": null, "estado": null, "direccion": null, "urbano_rural": "RURAL", "matricula": 15, "tipo": null, "cut_reg": "10", "cut_prov": "104", "cut_com": "10403", "region": "Los Lagos", "provincia": "Palena", "comuna": "Hualaihué", "globalid": "6d74f451-effa-468a-b6ff-b0ca711067f0", "latitud": -41.87303673, "longitud": -72.8096588 }, "geometry": { "type": "Point", "coordinates": [ -72.80966, -41.87304 ] } },
{ "type": "Feature", "properties": { "objectid": 18204, "dependencia": "MUNICIPAL", "nombre_establecimiento": "ESCUELA RURAL CAPITÃ€N DE BANDADA CARLOS RODRIGUEZ PARIS", "rbd": "7763", "dgv_rbd": null, "estado": null, "direccion": null, "urbano_rural": "RURAL", "matricula": 66, "tipo": null, "cut_reg": "10", "cut_prov": "101", "cut_com": "10103", "region": "Los Lagos", "provincia": "Llanquihue", "comuna": "Cochamó", "globalid": "ade6e304-7cfc-4ee1-a869-cced5da6f48a", "latitud": -41.87238, "longitud": -71.93723 }, "geometry": { "type": "Point", "coordinates": [ -71.93723, -41.87238 ] } },
{ "type": "Feature", "properties": { "objectid": 18205, "dependencia": "MUNICIPAL", "nombre_establecimiento": "ESCUELA RURAL AULEN", "rbd": "8311", "dgv_rbd": null, "estado": null, "direccion": null, "urbano_rural": "RURAL", "matricula": 61, "tipo": null, "cut_reg": "10", "cut_prov": "104", "cut_com": "10403", "region": "Los Lagos", "provincia": "Palena", "comuna": "Hualaihué", "globalid": "ffc54e30-d90b-4106-bc17-3c59c788906c", "latitud": -41.87235, "longitud": -72.80694 }, "geometry": { "type": "Point", "coordinates": [ -72.80694, -41.87235 ] } },
{ "type": "Feature", "properties": { "objectid": 18238, "dependencia": "MUNICIPAL", "nombre_establecimiento": "ESCUELA RURAL QUILDACO BAJO", "rbd": "8318", "dgv_rbd": null, "estado": null, "direccion": null, "urbano_rural": "RURAL", "matricula": 4, "tipo": null, "cut_reg": "10", "cut_prov": "104", "cut_com": "10403", "region": "Los Lagos", "provincia": "Palena", "comuna": "Hualaihué", "globalid": "a63f9537-d068-4dc2-8377-7ebabc065154", "latitud": -41.85399, "longitud": -72.79487 }, "geometry": { "type": "Point", "coordinates": [ -72.79487, -41.85399 ] } },
{ "type": "Feature", "properties": { "objectid": 18240, "dependencia": "MUNICIPAL", "nombre_establecimiento": "ESCUELA RURAL LA POZA CONTAO", "rbd": "8317", "dgv_rbd": null, "estado": null, "direccion": null, "urbano_rural": "RURAL", "matricula": 3, "tipo": null, "cut_reg": "10", "cut_prov": "104", "cut_com": "10403", "region": "Los Lagos", "provincia": "Palena", "comuna": "Hualaihué", "globalid": "d2dd10b5-a319-4539-924e-d81de9cf408a", "latitud": -41.8388, "longitud": -72.78502 }, "geometry": { "type": "Point", "coordinates": [ -72.78502, -41.8388 ] } },
{ "type": "Feature", "properties": { "objectid": 18253, "dependencia": "MUNICIPAL", "nombre_establecimiento": "COLEGIO MAURICIO HITCHCOCK", "rbd": "8310", "dgv_rbd": null, "estado": null, "direccion": null, "urbano_rural": "RURAL", "matricula": 338, "tipo": null, "cut_reg": "10", "cut_prov": "104", "cut_com": "10403", "region": "Los Lagos", "provincia": "Palena", "comuna": "Hualaihué", "globalid": "61d9d1c4-a468-4588-929f-12444bfe5d83", "latitud": -41.80054, "longitud": -72.71552 }, "geometry": { "type": "Point", "coordinates": [ -72.71552, -41.80054 ] } },
{ "type": "Feature", "properties": { "objectid": 18254, "dependencia": "INTEGRA", "nombre_establecimiento": "LOS PITUFOS", "rbd": "I104001", "dgv_rbd": null, "estado": null, "direccion": null, "urbano_rural": "RURAL", "matricula": 35, "tipo": null, "cut_reg": "10", "cut_prov": "104", "cut_com": "10403", "region": "Los Lagos", "provincia": "Palena", "comuna": "Hualaihué", "globalid": "6d91fabb-d58d-4ea6-976d-be9eac51a271", "latitud": -41.800511, "longitud": -72.716637 }, "geometry": { "type": "Point", "coordinates": [ -72.71664, -41.80051 ] } },
{ "type": "Feature", "properties": { "objectid": 18281, "dependencia": "MUNICIPAL", "nombre_establecimiento": "ESCUELA RURAL MANIHUEICO", "rbd": "8320", "dgv_rbd": null, "estado": null, "direccion": null, "urbano_rural": "RURAL", "matricula": 8, "tipo": null, "cut_reg": "10", "cut_prov": "104", "cut_com": "10403", "region": "Los Lagos", "provincia": "Palena", "comuna": "Hualaihué", "globalid": "7acaf280-ab7e-4079-bb6c-867ac3621b05", "latitud": -41.76523, "longitud": -72.67736 }, "geometry": { "type": "Point", "coordinates": [ -72.67736, -41.76523 ] } },
{ "type": "Feature", "properties": { "objectid": 18303, "dependencia": "MUNICIPAL", "nombre_establecimiento": "ESCUELA RURAL LITORAL DE LLAGUEPE", "rbd": "7769", "dgv_rbd": null, "estado": null, "direccion": null, "urbano_rural": "RURAL", "matricula": 6, "tipo": null, "cut_reg": "10", "cut_prov": "101", "cut_com": "10103", "region": "Los Lagos", "provincia": "Llanquihue", "comuna": "Cochamó", "globalid": "5d108048-20f0-4ceb-b5e1-6f340faeaaee", "latitud": -41.72225, "longitud": -72.48296 }, "geometry": { "type": "Point", "coordinates": [ -72.48296, -41.72225 ] } },
{ "type": "Feature", "properties": { "objectid": 18304, "dependencia": "MUNICIPAL", "nombre_establecimiento": "ESCUELA RURAL CHUCAGUA", "rbd": "7820", "dgv_rbd": null, "estado": null, "direccion": null, "urbano_rural": "RURAL", "matricula": 20, "tipo": null, "cut_reg": "10", "cut_prov": "101", "cut_com": "10102", "region": "Los Lagos", "provincia": "Llanquihue", "comuna": "Calbuco", "globalid": "1955b8c5-1fbc-4aaf-ae34-4a90d83e3532", "latitud": -41.71356, "longitud": -72.98148 }, "geometry": { "type": "Point", "coordinates": [ -72.98148, -41.71356 ] } },
{ "type": "Feature", "properties": { "objectid": 18306, "dependencia": "MUNICIPAL", "nombre_establecimiento": "ESCUELA RURAL PEDRO BARRIENTOS BARRIENTOS", "rbd": "7805", "dgv_rbd": null, "estado": null, "direccion": null, "urbano_rural": "RURAL", "matricula": 4, "tipo": null, "cut_reg": "10", "cut_prov": "101", "cut_com": "10102", "region": "Los Lagos", "provincia": "Llanquihue", "comuna": "Calbuco", "globalid": "4b70dd23-d77e-455e-8fbb-ca6542646b02", "latitud": -41.70798, "longitud": -72.92695 }, "geometry": { "type": "Point", "coordinates": [ -72.92695, -41.70798 ] } },
{ "type": "Feature", "properties": { "objectid": 18309, "dependencia": "MUNICIPAL", "nombre_establecimiento": "ESCUELA RURAL CALETA LA ARENA", "rbd": "7698", "dgv_rbd": null, "estado": null, "direccion": null, "urbano_rural": "RURAL", "matricula": 20, "tipo": null, "cut_reg": "10", "cut_prov": "101", "cut_com": "10101", "region": "Los Lagos", "provincia": "Llanquihue", "comuna": "Puerto Montt", "globalid": "ed546f72-719a-4050-8b77-74f2f04fb883", "latitud": -41.69317, "longitud": -72.64158 }, "geometry": { "type": "Point", "coordinates": [ -72.64158, -41.69317 ] } },
{ "type": "Feature", "properties": { "objectid": 18312, "dependencia": "MUNICIPAL", "nombre_establecimiento": "ESCUELA RURAL CLOTILDE ALMONACID OLAVARRIA", "rbd": "7759", "dgv_rbd": null, "estado": null, "direccion": null, "urbano_rural": "RURAL", "matricula": 2, "tipo": null, "cut_reg": "10", "cut_prov": "101", "cut_com": "10103", "region": "Los Lagos", "provincia": "Llanquihue", "comuna": "Cochamó", "globalid": "f19c18c2-f025-4e74-825b-9a113f6823ea", "latitud": -41.68588, "longitud": -72.38573 }, "geometry": { "type": "Point", "coordinates": [ -72.38573, -41.68588 ] } },
{ "type": "Feature", "properties": { "objectid": 18313, "dependencia": "MUNICIPAL", "nombre_establecimiento": "ESCUELA RURAL QUETROLAUQUEN", "rbd": "7785", "dgv_rbd": null, "estado": null, "direccion": null, "urbano_rural": "RURAL", "matricula": 40, "tipo": null, "cut_reg": "10", "cut_prov": "101", "cut_com": "10102", "region": "Los Lagos", "provincia": "Llanquihue", "comuna": "Calbuco", "globalid": "9445ea38-edaf-41f4-b9fa-b2613b3a48fa", "latitud": -41.67767, "longitud": -72.93874 }, "geometry": { "type": "Point", "coordinates": [ -72.93874, -41.67767 ] } },
{ "type": "Feature", "properties": { "objectid": 18316, "dependencia": "MUNICIPAL", "nombre_establecimiento": "ESCUELA RURAL JOHN KENNEDY", "rbd": "7754", "dgv_rbd": null, "estado": null, "direccion": null, "urbano_rural": "RURAL", "matricula": 8, "tipo": null, "cut_reg": "10", "cut_prov": "101", "cut_com": "10103", "region": "Los Lagos", "provincia": "Llanquihue", "comuna": "Cochamó", "globalid": "ab5946b3-f439-4125-ac07-5a94f2018d2c", "latitud": -41.67209, "longitud": -72.43005 }, "geometry": { "type": "Point", "coordinates": [ -72.43005, -41.67209 ] } },
{ "type": "Feature", "properties": { "objectid": 18319, "dependencia": "JUNJI - VTF", "nombre_establecimiento": "MIS PRIMEROS PASITOS", "rbd": "J10103001", "dgv_rbd": null, "estado": null, "direccion": null, "urbano_rural": "RURAL", "matricula": 39, "tipo": null, "cut_reg": "10", "cut_prov": "101", "cut_com": "10103", "region": "Los Lagos", "provincia": "Llanquihue", "comuna": "Cochamó", "globalid": "8a667964-b7e9-4f1e-bd5e-611231252104", "latitud": -41.66339301, "longitud": -72.29645952 }, "geometry": { "type": "Point", "coordinates": [ -72.29646, -41.66339 ] } },
{ "type": "Feature", "properties": { "objectid": 18320, "dependencia": "MUNICIPAL", "nombre_establecimiento": "ESCUELA RURAL RIO PUELO", "rbd": "7760", "dgv_rbd": null, "estado": null, "direccion": null, "urbano_rural": "RURAL", "matricula": 276, "tipo": null, "cut_reg": "10", "cut_prov": "101", "cut_com": "10103", "region": "Los Lagos", "provincia": "Llanquihue", "comuna": "Cochamó", "globalid": "f7baa73d-6346-4c2d-9523-0a0394ca1abe", "latitud": -41.66287, "longitud": -72.29468 }, "geometry": { "type": "Point", "coordinates": [ -72.29468, -41.66287 ] } },
{ "type": "Feature", "properties": { "objectid": 18322, "dependencia": "MUNICIPAL", "nombre_establecimiento": "ESCUELA RURAL SANTA AGUEDA", "rbd": "7757", "dgv_rbd": null, "estado": null, "direccion": null, "urbano_rural": "RURAL", "matricula": 6, "tipo": null, "cut_reg": "10", "cut_prov": "101", "cut_com": "10103", "region": "Los Lagos", "provincia": "Llanquihue", "comuna": "Cochamó", "globalid": "b77d2b8b-c564-496b-a66c-f04cf19f151b", "latitud": -41.64541, "longitud": -72.2692 }, "geometry": { "type": "Point", "coordinates": [ -72.2692, -41.64541 ] } },
{ "type": "Feature", "properties": { "objectid": 18326, "dependencia": "MUNICIPAL", "nombre_establecimiento": "ESCUELA RURAL CHAICAS", "rbd": "7672", "dgv_rbd": null, "estado": null, "direccion": null, "urbano_rural": "RURAL", "matricula": 123, "tipo": null, "cut_reg": "10", "cut_prov": "101", "cut_com": "10101", "region": "Los Lagos", "provincia": "Llanquihue", "comuna": "Puerto Montt", "globalid": "70f4aac0-256f-44a8-8f41-2f382f8d3100", "latitud": -41.62887, "longitud": -72.66494 }, "geometry": { "type": "Point", "coordinates": [ -72.66494, -41.62887 ] } },
{ "type": "Feature", "properties": { "objectid": 18327, "dependencia": "JUNJI - VTF", "nombre_establecimiento": "AYELEN", "rbd": "J10101057", "dgv_rbd": null, "estado": null, "direccion": null, "urbano_rural": "URBANO", "matricula": 34, "tipo": null, "cut_reg": "10", "cut_prov": "101", "cut_com": "10101", "region": "Los Lagos", "provincia": "Llanquihue", "comuna": "Puerto Montt", "globalid": "92271905-ba31-4748-8686-641383153dc7", "latitud": -41.628618, "longitud": -72.665437 }, "geometry": { "type": "Point", "coordinates": [ -72.66544, -41.62862 ] } },
{ "type": "Feature", "properties": { "objectid": 18341, "dependencia": "MUNICIPAL", "nombre_establecimiento": "ESCUELA RURAL LENCA", "rbd": "7654", "dgv_rbd": null, "estado": null, "direccion": null, "urbano_rural": "RURAL", "matricula": 193, "tipo": null, "cut_reg": "10", "cut_prov": "101", "cut_com": "10101", "region": "Los Lagos", "provincia": "Llanquihue", "comuna": "Puerto Montt", "globalid": "f51d80f2-5eae-483d-a7f6-322824288e69", "latitud": -41.60532, "longitud": -72.68984 }, "geometry": { "type": "Point", "coordinates": [ -72.68984, -41.60532 ] } },
{ "type": "Feature", "properties": { "objectid": 18345, "dependencia": "JUNJI", "nombre_establecimiento": "CECI METRI", "rbd": "J10101095", "dgv_rbd": null, "estado": null, "direccion": null, "urbano_rural": "URBANO", "matricula": 15, "tipo": null, "cut_reg": "10", "cut_prov": "101", "cut_com": "10101", "region": "Los Lagos", "provincia": "Llanquihue", "comuna": "Puerto Montt", "globalid": "7f103b8e-baee-4789-b5fc-971b08430bdc", "latitud": -41.58816861, "longitud": -72.70245435 }, "geometry": { "type": "Point", "coordinates": [ -72.70245, -41.58817 ] } },
{ "type": "Feature", "properties": { "objectid": 18346, "dependencia": "MUNICIPAL", "nombre_establecimiento": "ESCUELA RURAL METRI", "rbd": "7677", "dgv_rbd": null, "estado": null, "direccion": null, "urbano_rural": "RURAL", "matricula": 3, "tipo": null, "cut_reg": "10", "cut_prov": "101", "cut_com": "10101", "region": "Los Lagos", "provincia": "Llanquihue", "comuna": "Puerto Montt", "globalid": "5c000315-f348-48a5-9560-2812faa1ccd6", "latitud": -41.58804, "longitud": -72.70228 }, "geometry": { "type": "Point", "coordinates": [ -72.70228, -41.58804 ] } },
{ "type": "Feature", "properties": { "objectid": 18356, "dependencia": "MUNICIPAL", "nombre_establecimiento": "ESCUELA RURAL CARE - CHILE", "rbd": "7670", "dgv_rbd": null, "estado": null, "direccion": null, "urbano_rural": "RURAL", "matricula": 2, "tipo": null, "cut_reg": "10", "cut_prov": "101", "cut_com": "10101", "region": "Los Lagos", "provincia": "Llanquihue", "comuna": "Puerto Montt", "globalid": "4f4dd3d1-c992-4161-858f-2b6109448701", "latitud": -41.55459, "longitud": -72.7294 }, "geometry": { "type": "Point", "coordinates": [ -72.7294, -41.55459 ] } },
{ "type": "Feature", "properties": { "objectid": 18357, "dependencia": "MUNICIPAL", "nombre_establecimiento": "ESCUELA RURAL SANTA TERESITA DE LOS ANDES", "rbd": "7770", "dgv_rbd": null, "estado": null, "direccion": null, "urbano_rural": "RURAL", "matricula": 4, "tipo": null, "cut_reg": "10", "cut_prov": "101", "cut_com": "10103", "region": "Los Lagos", "provincia": "Llanquihue", "comuna": "Cochamó", "globalid": "09aa9e75-2b4f-48f0-84ae-ca7a7f16d553", "latitud": -41.55134, "longitud": -72.30668 }, "geometry": { "type": "Point", "coordinates": [ -72.30668, -41.55134 ] } },
{ "type": "Feature", "properties": { "objectid": 18363, "dependencia": "MUNICIPAL", "nombre_establecimiento": "ESCUELA RURAL PICHIQUILLAIPE", "rbd": "7689", "dgv_rbd": null, "estado": null, "direccion": null, "urbano_rural": "RURAL", "matricula": 29, "tipo": null, "cut_reg": "10", "cut_prov": "101", "cut_com": "10101", "region": "Los Lagos", "provincia": "Llanquihue", "comuna": "Puerto Montt", "globalid": "0272d08b-e04f-446e-8f86-1dc9960e9af4", "latitud": -41.52689, "longitud": -72.75139 }, "geometry": { "type": "Point", "coordinates": [ -72.75139, -41.52689 ] } },
{ "type": "Feature", "properties": { "objectid": 18368, "dependencia": "INTEGRA", "nombre_establecimiento": "LOBITO MARINERO", "rbd": "I102006", "dgv_rbd": null, "estado": null, "direccion": null, "urbano_rural": "RURAL", "matricula": 37, "tipo": null, "cut_reg": "10", "cut_prov": "101", "cut_com": "10101", "region": "Los Lagos", "provincia": "Llanquihue", "comuna": "Puerto Montt", "globalid": "6af31f7e-b9f7-4a16-a969-b9c4b740cd95", "latitud": -41.508764, "longitud": -72.787584 }, "geometry": { "type": "Point", "coordinates": [ -72.78758, -41.50876 ] } },
{ "type": "Feature", "properties": { "objectid": 18369, "dependencia": "MUNICIPAL", "nombre_establecimiento": "COLEGIO TECNICO PROFESIONAL PIEDRA AZUL", "rbd": "7651", "dgv_rbd": null, "estado": null, "direccion": null, "urbano_rural": "RURAL", "matricula": 289, "tipo": null, "cut_reg": "10", "cut_prov": "101", "cut_com": "10101", "region": "Los Lagos", "provincia": "Llanquihue", "comuna": "Puerto Montt", "globalid": "4cce2d0f-726a-424f-9f01-d9bab2167c90", "latitud": -41.50642, "longitud": -72.78607 }, "geometry": { "type": "Point", "coordinates": [ -72.78607, -41.50642 ] } },
{ "type": "Feature", "properties": { "objectid": 18377, "dependencia": "INTEGRA", "nombre_establecimiento": "SOL NACIENTE", "rbd": "I102202", "dgv_rbd": null, "estado": null, "direccion": null, "urbano_rural": "RURAL", "matricula": 15, "tipo": null, "cut_reg": "10", "cut_prov": "101", "cut_com": "10103", "region": "Los Lagos", "provincia": "Llanquihue", "comuna": "Cochamó", "globalid": "60b0c78f-f8e0-4401-af1a-e2fab1a18eb9", "latitud": -41.495854, "longitud": -72.333353 }, "geometry": { "type": "Point", "coordinates": [ -72.33335, -41.49585 ] } },
{ "type": "Feature", "properties": { "objectid": 18378, "dependencia": "MUNICIPAL", "nombre_establecimiento": "ESCUELA RURAL SAN ANTONIO", "rbd": "7758", "dgv_rbd": null, "estado": null, "direccion": null, "urbano_rural": "RURAL", "matricula": 31, "tipo": null, "cut_reg": "10", "cut_prov": "101", "cut_com": "10103", "region": "Los Lagos", "provincia": "Llanquihue", "comuna": "Cochamó", "globalid": "ac38478a-7948-4d92-bcf2-8d8ee43c73c8", "latitud": -41.49579, "longitud": -72.33305 }, "geometry": { "type": "Point", "coordinates": [ -72.33305, -41.49579 ] } },
{ "type": "Feature", "properties": { "objectid": 18379, "dependencia": "INTEGRA", "nombre_establecimiento": "LOS ALEVINES", "rbd": "I102201", "dgv_rbd": null, "estado": null, "direccion": null, "urbano_rural": "RURAL", "matricula": 15, "tipo": null, "cut_reg": "10", "cut_prov": "101", "cut_com": "10103", "region": "Los Lagos", "provincia": "Llanquihue", "comuna": "Cochamó", "globalid": "cc806826-fa65-490b-ab84-fc1d1593169a", "latitud": -41.493202, "longitud": -72.304219 }, "geometry": { "type": "Point", "coordinates": [ -72.30422, -41.4932 ] } },
{ "type": "Feature", "properties": { "objectid": 18380, "dependencia": "MUNICIPAL", "nombre_establecimiento": "ESCUELA BASICA FRONTERIZA JUAN SOLER MANFREDINI", "rbd": "7753", "dgv_rbd": null, "estado": null, "direccion": null, "urbano_rural": "RURAL", "matricula": 179, "tipo": null, "cut_reg": "10", "cut_prov": "101", "cut_com": "10103", "region": "Los Lagos", "provincia": "Llanquihue", "comuna": "Cochamó", "globalid": "eb66be12-ca86-438e-b747-85f39e34b817", "latitud": -41.49194, "longitud": -72.30523 }, "geometry": { "type": "Point", "coordinates": [ -72.30523, -41.49194 ] } },
{ "type": "Feature", "properties": { "objectid": 18381, "dependencia": "JUNJI - VTF", "nombre_establecimiento": "REIMU", "rbd": "J10101054", "dgv_rbd": null, "estado": null, "direccion": null, "urbano_rural": "RURAL", "matricula": 4, "tipo": null, "cut_reg": "10", "cut_prov": "101", "cut_com": "10101", "region": "Los Lagos", "provincia": "Llanquihue", "comuna": "Puerto Montt", "globalid": "95c251bb-96a6-4778-8790-ae07c90086c3", "latitud": -41.489395, "longitud": -72.851533 }, "geometry": { "type": "Point", "coordinates": [ -72.85153, -41.48939 ] } },
{ "type": "Feature", "properties": { "objectid": 18390, "dependencia": "MUNICIPAL", "nombre_establecimiento": "ESCUELA RURAL LA CHAMIZA", "rbd": "7665", "dgv_rbd": null, "estado": null, "direccion": null, "urbano_rural": "RURAL", "matricula": 330, "tipo": null, "cut_reg": "10", "cut_prov": "101", "cut_com": "10101", "region": "Los Lagos", "provincia": "Llanquihue", "comuna": "Puerto Montt", "globalid": "d4ff288b-3e99-451b-92a0-0254a52d3d5c", "latitud": -41.48318, "longitud": -72.85432 }, "geometry": { "type": "Point", "coordinates": [ -72.85432, -41.48318 ] } },
{ "type": "Feature", "properties": { "objectid": 18393, "dependencia": "JUNJI - VTF", "nombre_establecimiento": "PIMPOLLITO DE MAR", "rbd": "J10101055", "dgv_rbd": null, "estado": null, "direccion": null, "urbano_rural": "RURAL", "matricula": 47, "tipo": null, "cut_reg": "10", "cut_prov": "101", "cut_com": "10101", "region": "Los Lagos", "provincia": "Llanquihue", "comuna": "Puerto Montt", "globalid": "dca4f8e6-d753-4a6b-9ca4-6e17fd688798", "latitud": -41.482754, "longitud": -72.854372 }, "geometry": { "type": "Point", "coordinates": [ -72.85437, -41.48275 ] } },
{ "type": "Feature", "properties": { "objectid": 18528, "dependencia": "MUNICIPAL", "nombre_establecimiento": "ESCUELA RURAL RIO BLANCO", "rbd": "7690", "dgv_rbd": null, "estado": null, "direccion": null, "urbano_rural": "RURAL", "matricula": 12, "tipo": null, "cut_reg": "10", "cut_prov": "101", "cut_com": "10101", "region": "Los Lagos", "provincia": "Llanquihue", "comuna": "Puerto Montt", "globalid": "85e16d47-1175-4dec-b734-1d302632ae10", "latitud": -41.45578, "longitud": -72.63835 }, "geometry": { "type": "Point", "coordinates": [ -72.63835, -41.45578 ] } },
{ "type": "Feature", "properties": { "objectid": 18533, "dependencia": "INTEGRA", "nombre_establecimiento": "LOS PASTORCITOS", "rbd": "I102004", "dgv_rbd": null, "estado": null, "direccion": null, "urbano_rural": "RURAL", "matricula": 25, "tipo": null, "cut_reg": "10", "cut_prov": "101", "cut_com": "10101", "region": "Los Lagos", "provincia": "Llanquihue", "comuna": "Puerto Montt", "globalid": "0e0b3791-09cb-4e8c-a8b4-1ce8ab785a48", "latitud": -41.454197, "longitud": -72.659116 }, "geometry": { "type": "Point", "coordinates": [ -72.65912, -41.4542 ] } },
{ "type": "Feature", "properties": { "objectid": 18535, "dependencia": "MUNICIPAL", "nombre_establecimiento": "ESCUELA RURAL CORRENTOSO", "rbd": "7658", "dgv_rbd": null, "estado": null, "direccion": null, "urbano_rural": "RURAL", "matricula": 120, "tipo": null, "cut_reg": "10", "cut_prov": "101", "cut_com": "10101", "region": "Los Lagos", "provincia": "Llanquihue", "comuna": "Puerto Montt", "globalid": "715cf15e-3e73-4b2b-a718-d855dc6f7376", "latitud": -41.45325, "longitud": -72.65761 }, "geometry": { "type": "Point", "coordinates": [ -72.65761, -41.45325 ] } },
{ "type": "Feature", "properties": { "objectid": 18552, "dependencia": "SLEP", "nombre_establecimiento": "ESCUELA RURAL LA PENINSULA", "rbd": "7765", "dgv_rbd": null, "estado": null, "direccion": null, "urbano_rural": "RURAL", "matricula": 5, "tipo": null, "cut_reg": "10", "cut_prov": "101", "cut_com": "10109", "region": "Los Lagos", "provincia": "Llanquihue", "comuna": "Puerto Varas", "globalid": "da34b1b6-4bd8-4cde-851a-5a708d79c490", "latitud": -41.44096, "longitud": -72.3301 }, "geometry": { "type": "Point", "coordinates": [ -72.3301, -41.44096 ] } },
{ "type": "Feature", "properties": { "objectid": 19104, "dependencia": "JUNJI", "nombre_establecimiento": "LOS PECESITOS", "rbd": "J10109016", "dgv_rbd": null, "estado": null, "direccion": null, "urbano_rural": "RURAL", "matricula": 5, "tipo": null, "cut_reg": "10", "cut_prov": "101", "cut_com": "10109", "region": "Los Lagos", "provincia": "Llanquihue", "comuna": "Puerto Varas", "globalid": "84dabf39-4a38-4b26-9990-0cf636f24dc6", "latitud": -41.38955816, "longitud": -72.32957122 }, "geometry": { "type": "Point", "coordinates": [ -72.32957, -41.38956 ] } },
{ "type": "Feature", "properties": { "objectid": 19105, "dependencia": "SLEP", "nombre_establecimiento": "ESCUELA RURAL CRISTO REY", "rbd": "7756", "dgv_rbd": null, "estado": null, "direccion": null, "urbano_rural": "RURAL", "matricula": 57, "tipo": null, "cut_reg": "10", "cut_prov": "101", "cut_com": "10109", "region": "Los Lagos", "provincia": "Llanquihue", "comuna": "Puerto Varas", "globalid": "1900843a-8f43-4041-8b41-0a92d0f6b78f", "latitud": -41.38881, "longitud": -72.32811 }, "geometry": { "type": "Point", "coordinates": [ -72.32811, -41.38881 ] } },
{ "type": "Feature", "properties": { "objectid": 19116, "dependencia": "SLEP", "nombre_establecimiento": "ESCUELA RURAL LAS CAMELIAS", "rbd": "7761", "dgv_rbd": null, "estado": null, "direccion": null, "urbano_rural": "RURAL", "matricula": 5, "tipo": null, "cut_reg": "10", "cut_prov": "101", "cut_com": "10109", "region": "Los Lagos", "provincia": "Llanquihue", "comuna": "Puerto Varas", "globalid": "37c4c672-d63f-41de-93fd-d970762ec8d3", "latitud": -41.3816, "longitud": -72.27862 }, "geometry": { "type": "Point", "coordinates": [ -72.27862, -41.3816 ] } }
]
}
