{
"type": "FeatureCollection",
"name": "BAY",
"crs": { "type": "name", "properties": { "name": "urn:ogc:def:crs:OGC:1.3:CRS84" } },
"xy_coordinate_resolution": 1e-05,
"features": [
{ "type": "Feature", "properties": { "objectid": 1239, "peligro": "Alto", "volcan": null, "globalid_1": "aebd6297-8924-4afd-ac62-3ccda5e70f05", "Shape__Area": 0.0023217163842446098, "Shape__Length": 0.19850914861258942 }, "geometry": { "type": "Polygon", "coordinates": [ [ [ -68.52275, -25.11874 ], [ -68.52174, -25.11934 ], [ -68.52013, -25.12045 ], [ -68.51887, -25.12113 ], [ -68.51812, -25.12167 ], [ -68.51472, -25.12341 ], [ -68.51349, -25.12418 ], [ -68.51217, -25.12449 ], [ -68.51128, -25.1248 ], [ -68.51087, -25.12551 ], [ -68.50977, -25.12579 ], [ -68.50913, -25.12611 ], [ -68.50837, -25.12653 ], [ -68.50755, -25.12716 ], [ -68.50666, -25.12853 ], [ -68.50594, -25.12922 ], [ -68.50436, -25.13027 ], [ -68.50373, -25.13081 ], [ -68.50335, -25.13221 ], [ -68.50303, -25.13464 ], [ -68.50261, -25.13553 ], [ -68.50179, -25.13618 ], [ -68.49965, -25.13718 ], [ -68.49817, -25.13829 ], [ -68.49691, -25.13943 ], [ -68.49555, -25.14077 ], [ -68.49327, -25.14357 ], [ -68.49223, -25.14499 ], [ -68.4908, -25.14891 ], [ -68.49013, -25.15171 ], [ -68.48984, -25.15328 ], [ -68.48961, -25.15532 ], [ -68.49002, -25.15603 ], [ -68.49023, -25.15723 ], [ -68.49051, -25.15818 ], [ -68.49069, -25.15955 ], [ -68.49119, -25.16127 ], [ -68.49191, -25.16279 ], [ -68.49275, -25.164 ], [ -68.49319, -25.1648 ], [ -68.49444, -25.16655 ], [ -68.49459, -25.16761 ], [ -68.49597, -25.16902 ], [ -68.49888, -25.17094 ], [ -68.50058, -25.17152 ], [ -68.50177, -25.17173 ], [ -68.50366, -25.17173 ], [ -68.50442, -25.17159 ], [ -68.50654, -25.17097 ], [ -68.50736, -25.17091 ], [ -68.50883, -25.17169 ], [ -68.50974, -25.1723 ], [ -68.51028, -25.17287 ], [ -68.51159, -25.17368 ], [ -68.51301, -25.17428 ], [ -68.51599, -25.17506 ], [ -68.51945, -25.1751 ], [ -68.52386, -25.17386 ], [ -68.52669, -25.17255 ], [ -68.52931, -25.1703 ], [ -68.53054, -25.16939 ], [ -68.53131, -25.16859 ], [ -68.53201, -25.1677 ], [ -68.53283, -25.16696 ], [ -68.53343, -25.16596 ], [ -68.53409, -25.16511 ], [ -68.5352, -25.16259 ], [ -68.53581, -25.16088 ], [ -68.53625, -25.15916 ], [ -68.53636, -25.15713 ], [ -68.5363, -25.15621 ], [ -68.53658, -25.15536 ], [ -68.53681, -25.1539 ], [ -68.53731, -25.15338 ], [ -68.5381, -25.15284 ], [ -68.53861, -25.15276 ], [ -68.53936, -25.15293 ], [ -68.54077, -25.15425 ], [ -68.5413, -25.1552 ], [ -68.54187, -25.1552 ], [ -68.54259, -25.15466 ], [ -68.54335, -25.15432 ], [ -68.54417, -25.15381 ], [ -68.54518, -25.15264 ], [ -68.54632, -25.15078 ], [ -68.54751, -25.14972 ], [ -68.54815, -25.14809 ], [ -68.54815, -25.14729 ], [ -68.54878, -25.14672 ], [ -68.54938, -25.14567 ], [ -68.54992, -25.14507 ], [ -68.55036, -25.14435 ], [ -68.55093, -25.14372 ], [ -68.55091, -25.14347 ], [ -68.55184, -25.14286 ], [ -68.55283, -25.14186 ], [ -68.55314, -25.14096 ], [ -68.55265, -25.14028 ], [ -68.55011, -25.14016 ], [ -68.54814, -25.13925 ], [ -68.54746, -25.13919 ], [ -68.54641, -25.13874 ], [ -68.54567, -25.13806 ], [ -68.54499, -25.13761 ], [ -68.54475, -25.13666 ], [ -68.54476, -25.13547 ], [ -68.54488, -25.13474 ], [ -68.54434, -25.13198 ], [ -68.54416, -25.13063 ], [ -68.54429, -25.12889 ], [ -68.54418, -25.12778 ], [ -68.54423, -25.12768 ], [ -68.54392, -25.12716 ], [ -68.54376, -25.12668 ], [ -68.54405, -25.12605 ], [ -68.54499, -25.12599 ], [ -68.54518, -25.12556 ], [ -68.54515, -25.12471 ], [ -68.54472, -25.12416 ], [ -68.54396, -25.12367 ], [ -68.54324, -25.12353 ], [ -68.5423, -25.1243 ], [ -68.54097, -25.12449 ], [ -68.54038, -25.12406 ], [ -68.5391, -25.12248 ], [ -68.53882, -25.1218 ], [ -68.53797, -25.12113 ], [ -68.53605, -25.12044 ], [ -68.53599, -25.11973 ], [ -68.53534, -25.11927 ], [ -68.53336, -25.11857 ], [ -68.53267, -25.11846 ], [ -68.53157, -25.11868 ], [ -68.52863, -25.11867 ], [ -68.52803, -25.11861 ], [ -68.52715, -25.11832 ], [ -68.52624, -25.11875 ], [ -68.5253, -25.11875 ], [ -68.52464, -25.11823 ], [ -68.52366, -25.11863 ], [ -68.52275, -25.11874 ] ] ] } },
{ "type": "Feature", "properties": { "objectid": 1240, "peligro": "Bajo", "volcan": null, "globalid_1": "748e1519-7fc7-4421-b5dd-7441964ff5ce", "Shape__Area": 0.0036677338667914228, "Shape__Length": 0.68886670166237374 }, "geometry": { "type": "Polygon", "coordinates": [ [ [ -68.49282, -25.08455 ], [ -68.49269, -25.08457 ], [ -68.49174, -25.08372 ], [ -68.49119, -25.08299 ], [ -68.49075, -25.08217 ], [ -68.49005, -25.0802 ], [ -68.48977, -25.0807 ], [ -68.48858, -25.08165 ], [ -68.48812, -25.08237 ], [ -68.48799, -25.0832 ], [ -68.48798, -25.0841 ], [ -68.48739, -25.08541 ], [ -68.48693, -25.08601 ], [ -68.48587, -25.08654 ], [ -68.48508, -25.08714 ], [ -68.48429, -25.08881 ], [ -68.48416, -25.08976 ], [ -68.4833, -25.0906 ], [ -68.48288, -25.09147 ], [ -68.48224, -25.09237 ], [ -68.48184, -25.09452 ], [ -68.48174, -25.0946 ], [ -68.48155, -25.09539 ], [ -68.47985, -25.09778 ], [ -68.47943, -25.09914 ], [ -68.47935, -25.09983 ], [ -68.47901, -25.10075 ], [ -68.47827, -25.10129 ], [ -68.47818, -25.10217 ], [ -68.47843, -25.10309 ], [ -68.47918, -25.10407 ], [ -68.48031, -25.10493 ], [ -68.48201, -25.10574 ], [ -68.4844, -25.10713 ], [ -68.4854, -25.10822 ], [ -68.48678, -25.11035 ], [ -68.48771, -25.11242 ], [ -68.48834, -25.11448 ], [ -68.4887, -25.11838 ], [ -68.48865, -25.1188 ], [ -68.48888, -25.11945 ], [ -68.48865, -25.12017 ], [ -68.48688, -25.12163 ], [ -68.4859, -25.12265 ], [ -68.48503, -25.12333 ], [ -68.48345, -25.12531 ], [ -68.48243, -25.12586 ], [ -68.48198, -25.12644 ], [ -68.47799, -25.12899 ], [ -68.4763, -25.1303 ], [ -68.47526, -25.13091 ], [ -68.4748, -25.13178 ], [ -68.47387, -25.13306 ], [ -68.47325, -25.13367 ], [ -68.47262, -25.13405 ], [ -68.47228, -25.13467 ], [ -68.47169, -25.13541 ], [ -68.47155, -25.13607 ], [ -68.47061, -25.13748 ], [ -68.46998, -25.13881 ], [ -68.4695, -25.1394 ], [ -68.46933, -25.14025 ], [ -68.4693, -25.14084 ], [ -68.46833, -25.14437 ], [ -68.46826, -25.14563 ], [ -68.46772, -25.14837 ], [ -68.46735, -25.14906 ], [ -68.46692, -25.14942 ], [ -68.46692, -25.15037 ], [ -68.46761, -25.1538 ], [ -68.4673, -25.15462 ], [ -68.46696, -25.15498 ], [ -68.46689, -25.15634 ], [ -68.46745, -25.15816 ], [ -68.4677, -25.1587 ], [ -68.46781, -25.16019 ], [ -68.46803, -25.16086 ], [ -68.4678, -25.16155 ], [ -68.46774, -25.16304 ], [ -68.46782, -25.16455 ], [ -68.46824, -25.16537 ], [ -68.46837, -25.16637 ], [ -68.46935, -25.16868 ], [ -68.46975, -25.17002 ], [ -68.47067, -25.17225 ], [ -68.47118, -25.17289 ], [ -68.47171, -25.17384 ], [ -68.47207, -25.17472 ], [ -68.47383, -25.17703 ], [ -68.47476, -25.17847 ], [ -68.47526, -25.17901 ], [ -68.47565, -25.17973 ], [ -68.47627, -25.18012 ], [ -68.47655, -25.18076 ], [ -68.47818, -25.18256 ], [ -68.47978, -25.18403 ], [ -68.48062, -25.18459 ], [ -68.48174, -25.18573 ], [ -68.48236, -25.18604 ], [ -68.48482, -25.18771 ], [ -68.48777, -25.18957 ], [ -68.48946, -25.19014 ], [ -68.49044, -25.19068 ], [ -68.49174, -25.19112 ], [ -68.49439, -25.19169 ], [ -68.49554, -25.19185 ], [ -68.4974, -25.19252 ], [ -68.49861, -25.19273 ], [ -68.502, -25.19287 ], [ -68.50672, -25.1913 ], [ -68.50889, -25.19113 ], [ -68.50939, -25.19128 ], [ -68.50996, -25.19162 ], [ -68.51294, -25.1926 ], [ -68.51426, -25.19332 ], [ -68.51671, -25.19387 ], [ -68.5187, -25.1937 ], [ -68.52171, -25.19376 ], [ -68.52326, -25.19358 ], [ -68.52442, -25.19325 ], [ -68.52704, -25.19285 ], [ -68.52792, -25.19242 ], [ -68.52888, -25.19217 ], [ -68.52978, -25.19176 ], [ -68.53368, -25.19039 ], [ -68.53433, -25.1899 ], [ -68.53602, -25.18901 ], [ -68.53698, -25.18894 ], [ -68.53743, -25.18842 ], [ -68.53845, -25.18794 ], [ -68.54177, -25.18539 ], [ -68.54256, -25.18506 ], [ -68.54456, -25.18345 ], [ -68.5451, -25.18291 ], [ -68.54581, -25.18276 ], [ -68.54682, -25.1822 ], [ -68.54784, -25.18069 ], [ -68.54836, -25.17959 ], [ -68.54932, -25.17859 ], [ -68.54977, -25.17795 ], [ -68.55017, -25.17775 ], [ -68.55065, -25.17731 ], [ -68.55138, -25.17626 ], [ -68.55189, -25.17575 ], [ -68.55271, -25.17455 ], [ -68.5533, -25.17324 ], [ -68.55375, -25.17255 ], [ -68.55403, -25.17176 ], [ -68.55469, -25.17045 ], [ -68.55503, -25.16963 ], [ -68.55583, -25.16689 ], [ -68.55577, -25.16581 ], [ -68.55612, -25.16443 ], [ -68.55649, -25.16366 ], [ -68.55723, -25.16051 ], [ -68.55763, -25.15774 ], [ -68.55945, -25.15552 ], [ -68.56038, -25.15493 ], [ -68.56103, -25.15467 ], [ -68.56179, -25.15352 ], [ -68.5623, -25.15309 ], [ -68.5629, -25.15101 ], [ -68.56327, -25.15037 ], [ -68.5633, -25.14958 ], [ -68.56322, -25.14883 ], [ -68.56299, -25.14819 ], [ -68.56238, -25.14701 ], [ -68.56221, -25.14637 ], [ -68.56221, -25.14565 ], [ -68.5623, -25.14511 ], [ -68.56258, -25.14442 ], [ -68.56321, -25.1433 ], [ -68.56504, -25.14281 ], [ -68.56543, -25.14294 ], [ -68.56571, -25.14369 ], [ -68.56574, -25.14415 ], [ -68.56611, -25.14428 ], [ -68.56667, -25.1439 ], [ -68.56693, -25.14346 ], [ -68.5673, -25.14218 ], [ -68.56724, -25.14162 ], [ -68.56741, -25.14103 ], [ -68.56784, -25.1409 ], [ -68.56803, -25.14049 ], [ -68.56804, -25.14003 ], [ -68.56781, -25.13967 ], [ -68.56705, -25.13895 ], [ -68.56686, -25.13841 ], [ -68.56689, -25.13787 ], [ -68.56697, -25.13772 ], [ -68.56745, -25.13741 ], [ -68.56943, -25.13716 ], [ -68.57002, -25.13711 ], [ -68.57117, -25.13734 ], [ -68.57227, -25.13725 ], [ -68.5727, -25.13681 ], [ -68.57326, -25.13679 ], [ -68.57382, -25.13658 ], [ -68.57436, -25.1362 ], [ -68.57526, -25.13579 ], [ -68.57571, -25.13543 ], [ -68.57583, -25.13477 ], [ -68.57662, -25.1338 ], [ -68.57689, -25.13315 ], [ -68.57753, -25.13254 ], [ -68.57757, -25.13191 ], [ -68.57684, -25.13054 ], [ -68.57538, -25.12997 ], [ -68.57351, -25.12881 ], [ -68.57246, -25.12856 ], [ -68.56859, -25.12585 ], [ -68.56831, -25.12575 ], [ -68.56797, -25.12598 ], [ -68.56758, -25.12667 ], [ -68.56713, -25.12674 ], [ -68.56626, -25.12592 ], [ -68.56541, -25.12489 ], [ -68.56471, -25.12443 ], [ -68.56333, -25.1244 ], [ -68.5624, -25.12458 ], [ -68.56118, -25.12467 ], [ -68.56042, -25.12447 ], [ -68.55985, -25.124 ], [ -68.55884, -25.12346 ], [ -68.55819, -25.12351 ], [ -68.55763, -25.12343 ], [ -68.55642, -25.12299 ], [ -68.55575, -25.1215 ], [ -68.55513, -25.1206 ], [ -68.55491, -25.11996 ], [ -68.5543, -25.11868 ], [ -68.55396, -25.11888 ], [ -68.55354, -25.11898 ], [ -68.55311, -25.11896 ], [ -68.5528, -25.11849 ], [ -68.55258, -25.11796 ], [ -68.55244, -25.1167 ], [ -68.55186, -25.11624 ], [ -68.55143, -25.11575 ], [ -68.55138, -25.11516 ], [ -68.55189, -25.11475 ], [ -68.55254, -25.11378 ], [ -68.55266, -25.11255 ], [ -68.55308, -25.11211 ], [ -68.5532, -25.11155 ], [ -68.55306, -25.11078 ], [ -68.55272, -25.11019 ], [ -68.55149, -25.10929 ], [ -68.55109, -25.10877 ], [ -68.55096, -25.10818 ], [ -68.55048, -25.10805 ], [ -68.55011, -25.10736 ], [ -68.54981, -25.10577 ], [ -68.54947, -25.10505 ], [ -68.54889, -25.10433 ], [ -68.54807, -25.10381 ], [ -68.54751, -25.10304 ], [ -68.54712, -25.10181 ], [ -68.54659, -25.10091 ], [ -68.54578, -25.09978 ], [ -68.54491, -25.09905 ], [ -68.54382, -25.0983 ], [ -68.5436, -25.09785 ], [ -68.54113, -25.09678 ], [ -68.54068, -25.0961 ], [ -68.53896, -25.0949 ], [ -68.53761, -25.09479 ], [ -68.53689, -25.09453 ], [ -68.53656, -25.09451 ], [ -68.53563, -25.09394 ], [ -68.53336, -25.09282 ], [ -68.53196, -25.09193 ], [ -68.53051, -25.0917 ], [ -68.52919, -25.09108 ], [ -68.52704, -25.0898 ], [ -68.52664, -25.08944 ], [ -68.52645, -25.08966 ], [ -68.52599, -25.08958 ], [ -68.52441, -25.08955 ], [ -68.52372, -25.08902 ], [ -68.52324, -25.08964 ], [ -68.52132, -25.08974 ], [ -68.52069, -25.08973 ], [ -68.52045, -25.08964 ], [ -68.52024, -25.08941 ], [ -68.52023, -25.08911 ], [ -68.52044, -25.0887 ], [ -68.52046, -25.08847 ], [ -68.52032, -25.08826 ], [ -68.51996, -25.08799 ], [ -68.51975, -25.08728 ], [ -68.51957, -25.08708 ], [ -68.51894, -25.08695 ], [ -68.51881, -25.08678 ], [ -68.51826, -25.08712 ], [ -68.51809, -25.08741 ], [ -68.51785, -25.08718 ], [ -68.51761, -25.08714 ], [ -68.51721, -25.08725 ], [ -68.51623, -25.08727 ], [ -68.51599, -25.08713 ], [ -68.51575, -25.08684 ], [ -68.51562, -25.08688 ], [ -68.51553, -25.08705 ], [ -68.51527, -25.08716 ], [ -68.51488, -25.08709 ], [ -68.51555, -25.08506 ], [ -68.51563, -25.08462 ], [ -68.51553, -25.08417 ], [ -68.51534, -25.08378 ], [ -68.51461, -25.08315 ], [ -68.51208, -25.08184 ], [ -68.51162, -25.0817 ], [ -68.51062, -25.08176 ], [ -68.50915, -25.08206 ], [ -68.50738, -25.08305 ], [ -68.50691, -25.08318 ], [ -68.50599, -25.08398 ], [ -68.50243, -25.08615 ], [ -68.50213, -25.08665 ], [ -68.50188, -25.08812 ], [ -68.50162, -25.0889 ], [ -68.50146, -25.08975 ], [ -68.50138, -25.08989 ], [ -68.50072, -25.09019 ], [ -68.49967, -25.08993 ], [ -68.49944, -25.08994 ], [ -68.49905, -25.09011 ], [ -68.49872, -25.08995 ], [ -68.49803, -25.08949 ], [ -68.4972, -25.08877 ], [ -68.49647, -25.08794 ], [ -68.49444, -25.08547 ], [ -68.49337, -25.08385 ], [ -68.49297, -25.08304 ], [ -68.49231, -25.08125 ], [ -68.49218, -25.08014 ], [ -68.49206, -25.07975 ], [ -68.49183, -25.07958 ], [ -68.49168, -25.07966 ], [ -68.49155, -25.07999 ], [ -68.49166, -25.08074 ], [ -68.49185, -25.08152 ], [ -68.4929, -25.08399 ], [ -68.49299, -25.08429 ], [ -68.49282, -25.08455 ] ], [ [ -68.52721, -25.10753 ], [ -68.52851, -25.10739 ], [ -68.52915, -25.10665 ], [ -68.53016, -25.10672 ], [ -68.53068, -25.1072 ], [ -68.53138, -25.10767 ], [ -68.53306, -25.10771 ], [ -68.53392, -25.10751 ], [ -68.53471, -25.10748 ], [ -68.53586, -25.10816 ], [ -68.53623, -25.10861 ], [ -68.53724, -25.10875 ], [ -68.53783, -25.10895 ], [ -68.53914, -25.10896 ], [ -68.54037, -25.10913 ], [ -68.54208, -25.11012 ], [ -68.54256, -25.11053 ], [ -68.54256, -25.11087 ], [ -68.54241, -25.11111 ], [ -68.5426, -25.11172 ], [ -68.54286, -25.11199 ], [ -68.54355, -25.11233 ], [ -68.54507, -25.11414 ], [ -68.54574, -25.11482 ], [ -68.54653, -25.11475 ], [ -68.54649, -25.11411 ], [ -68.54716, -25.11394 ], [ -68.54772, -25.11448 ], [ -68.54742, -25.1154 ], [ -68.54701, -25.11628 ], [ -68.54711, -25.1172 ], [ -68.54786, -25.11795 ], [ -68.54853, -25.1188 ], [ -68.54893, -25.11951 ], [ -68.55072, -25.12044 ], [ -68.55221, -25.12221 ], [ -68.5525, -25.12296 ], [ -68.5531, -25.12377 ], [ -68.55548, -25.125 ], [ -68.55585, -25.12585 ], [ -68.55644, -25.12636 ], [ -68.55719, -25.12677 ], [ -68.55782, -25.12729 ], [ -68.55875, -25.1278 ], [ -68.55875, -25.1281 ], [ -68.55782, -25.1283 ], [ -68.55733, -25.1283 ], [ -68.55651, -25.12878 ], [ -68.55617, -25.12942 ], [ -68.55606, -25.13007 ], [ -68.55628, -25.13064 ], [ -68.55676, -25.13112 ], [ -68.55814, -25.13119 ], [ -68.55874, -25.1314 ], [ -68.55941, -25.13181 ], [ -68.55986, -25.13232 ], [ -68.56209, -25.13314 ], [ -68.5622, -25.13365 ], [ -68.56198, -25.13423 ], [ -68.56212, -25.13491 ], [ -68.56331, -25.13525 ], [ -68.56369, -25.136 ], [ -68.56324, -25.1363 ], [ -68.56406, -25.13685 ], [ -68.56428, -25.13766 ], [ -68.56412, -25.13831 ], [ -68.56353, -25.13834 ], [ -68.56323, -25.13871 ], [ -68.56308, -25.13922 ], [ -68.56229, -25.1397 ], [ -68.5611, -25.1399 ], [ -68.56057, -25.1404 ], [ -68.56023, -25.14095 ], [ -68.56005, -25.14183 ], [ -68.55963, -25.14251 ], [ -68.55948, -25.14332 ], [ -68.55858, -25.14502 ], [ -68.55839, -25.14559 ], [ -68.55828, -25.14621 ], [ -68.55854, -25.14655 ], [ -68.55876, -25.14712 ], [ -68.55861, -25.1478 ], [ -68.55831, -25.14838 ], [ -68.55793, -25.14841 ], [ -68.55737, -25.1478 ], [ -68.55704, -25.14705 ], [ -68.55622, -25.14647 ], [ -68.55529, -25.14643 ], [ -68.55469, -25.14674 ], [ -68.55327, -25.14796 ], [ -68.55181, -25.14962 ], [ -68.55113, -25.15114 ], [ -68.55083, -25.15206 ], [ -68.55019, -25.15243 ], [ -68.54967, -25.15328 ], [ -68.54899, -25.15382 ], [ -68.54836, -25.15385 ], [ -68.54791, -25.15361 ], [ -68.54754, -25.15371 ], [ -68.54735, -25.15439 ], [ -68.54708, -25.15802 ], [ -68.5467, -25.15897 ], [ -68.54643, -25.16006 ], [ -68.54594, -25.16094 ], [ -68.54503, -25.16488 ], [ -68.54458, -25.16576 ], [ -68.54424, -25.16695 ], [ -68.54191, -25.17102 ], [ -68.54049, -25.17373 ], [ -68.53959, -25.17447 ], [ -68.5382, -25.17624 ], [ -68.53738, -25.17691 ], [ -68.53655, -25.17776 ], [ -68.53562, -25.17837 ], [ -68.53492, -25.17898 ], [ -68.53253, -25.18053 ], [ -68.52722, -25.18354 ], [ -68.5255, -25.18401 ], [ -68.52382, -25.18458 ], [ -68.52165, -25.18484 ], [ -68.51691, -25.18432 ], [ -68.51538, -25.18397 ], [ -68.51139, -25.18372 ], [ -68.50874, -25.18266 ], [ -68.50796, -25.18242 ], [ -68.5074, -25.18259 ], [ -68.50602, -25.18282 ], [ -68.50455, -25.18268 ], [ -68.49943, -25.18253 ], [ -68.49567, -25.18146 ], [ -68.49235, -25.17992 ], [ -68.4909, -25.17907 ], [ -68.4877, -25.17661 ], [ -68.48595, -25.17498 ], [ -68.48432, -25.17317 ], [ -68.48356, -25.17205 ], [ -68.48244, -25.17072 ], [ -68.48081, -25.16793 ], [ -68.47974, -25.16568 ], [ -68.47968, -25.16201 ], [ -68.47991, -25.16134 ], [ -68.47999, -25.15967 ], [ -68.47966, -25.15879 ], [ -68.47929, -25.15675 ], [ -68.47933, -25.156 ], [ -68.4796, -25.15471 ], [ -68.47946, -25.15359 ], [ -68.47942, -25.1524 ], [ -68.47906, -25.15036 ], [ -68.47936, -25.14921 ], [ -68.48026, -25.14755 ], [ -68.48086, -25.14684 ], [ -68.48169, -25.14643 ], [ -68.48169, -25.14565 ], [ -68.48297, -25.14379 ], [ -68.48342, -25.1426 ], [ -68.48402, -25.14152 ], [ -68.48598, -25.13684 ], [ -68.48692, -25.13551 ], [ -68.48819, -25.13402 ], [ -68.48977, -25.13243 ], [ -68.4916, -25.13128 ], [ -68.49231, -25.13017 ], [ -68.49306, -25.12963 ], [ -68.49524, -25.12763 ], [ -68.49595, -25.12719 ], [ -68.49617, -25.12648 ], [ -68.49607, -25.12515 ], [ -68.49626, -25.12447 ], [ -68.49671, -25.12397 ], [ -68.49756, -25.12356 ], [ -68.49726, -25.12325 ], [ -68.49659, -25.12305 ], [ -68.4963, -25.1225 ], [ -68.49649, -25.12186 ], [ -68.49626, -25.12148 ], [ -68.49627, -25.12098 ], [ -68.49672, -25.12054 ], [ -68.49754, -25.1205 ], [ -68.49798, -25.12057 ], [ -68.49858, -25.12034 ], [ -68.49862, -25.12 ], [ -68.49818, -25.11942 ], [ -68.49818, -25.11908 ], [ -68.49902, -25.11851 ], [ -68.50033, -25.1182 ], [ -68.50085, -25.11739 ], [ -68.5013, -25.11698 ], [ -68.50193, -25.11682 ], [ -68.50298, -25.11682 ], [ -68.50406, -25.11635 ], [ -68.5047, -25.11598 ], [ -68.50578, -25.11581 ], [ -68.50668, -25.1149 ], [ -68.50799, -25.1147 ], [ -68.50892, -25.1147 ], [ -68.50941, -25.11436 ], [ -68.50963, -25.11392 ], [ -68.5103, -25.11406 ], [ -68.51127, -25.11406 ], [ -68.5121, -25.11301 ], [ -68.51236, -25.11247 ], [ -68.513, -25.1121 ], [ -68.51337, -25.11234 ], [ -68.51408, -25.11237 ], [ -68.51441, -25.11183 ], [ -68.51599, -25.11044 ], [ -68.51745, -25.10845 ], [ -68.51779, -25.1077 ], [ -68.51868, -25.10736 ], [ -68.51887, -25.10791 ], [ -68.51883, -25.10872 ], [ -68.51845, -25.10937 ], [ -68.51879, -25.10984 ], [ -68.51976, -25.10995 ], [ -68.52132, -25.10978 ], [ -68.52274, -25.10952 ], [ -68.52357, -25.10887 ], [ -68.52461, -25.10833 ], [ -68.52721, -25.10753 ] ] ] } },
{ "type": "Feature", "properties": { "objectid": 1261, "peligro": "Medio", "volcan": null, "globalid_1": "ad7ea450-6e6f-4bf2-bde6-5105723b649f", "Shape__Area": 0.0021660851074329912, "Shape__Length": 0.4776675626049679 }, "geometry": { "type": "Polygon", "coordinates": [ [ [ -68.52721, -25.10753 ], [ -68.52461, -25.10833 ], [ -68.52357, -25.10887 ], [ -68.52274, -25.10952 ], [ -68.52132, -25.10978 ], [ -68.51976, -25.10995 ], [ -68.51879, -25.10984 ], [ -68.51845, -25.10937 ], [ -68.51883, -25.10872 ], [ -68.51887, -25.10791 ], [ -68.51868, -25.10736 ], [ -68.51779, -25.1077 ], [ -68.51745, -25.10845 ], [ -68.51599, -25.11044 ], [ -68.51441, -25.11183 ], [ -68.51408, -25.11237 ], [ -68.51337, -25.11234 ], [ -68.513, -25.1121 ], [ -68.51236, -25.11247 ], [ -68.5121, -25.11301 ], [ -68.51127, -25.11406 ], [ -68.5103, -25.11406 ], [ -68.50963, -25.11392 ], [ -68.50941, -25.11436 ], [ -68.50892, -25.1147 ], [ -68.50799, -25.1147 ], [ -68.50668, -25.1149 ], [ -68.50578, -25.11581 ], [ -68.5047, -25.11598 ], [ -68.50406, -25.11635 ], [ -68.50298, -25.11682 ], [ -68.50193, -25.11682 ], [ -68.5013, -25.11698 ], [ -68.50085, -25.11739 ], [ -68.50033, -25.1182 ], [ -68.49902, -25.11851 ], [ -68.49818, -25.11908 ], [ -68.49818, -25.11942 ], [ -68.49862, -25.12 ], [ -68.49858, -25.12034 ], [ -68.49798, -25.12057 ], [ -68.49754, -25.1205 ], [ -68.49672, -25.12054 ], [ -68.49627, -25.12098 ], [ -68.49626, -25.12148 ], [ -68.49649, -25.12186 ], [ -68.4963, -25.1225 ], [ -68.49659, -25.12305 ], [ -68.49726, -25.12325 ], [ -68.49756, -25.12356 ], [ -68.49671, -25.12397 ], [ -68.49626, -25.12447 ], [ -68.49607, -25.12515 ], [ -68.49617, -25.12648 ], [ -68.49595, -25.12719 ], [ -68.49524, -25.12763 ], [ -68.49306, -25.12963 ], [ -68.49231, -25.13017 ], [ -68.4916, -25.13128 ], [ -68.48977, -25.13243 ], [ -68.48819, -25.13402 ], [ -68.48692, -25.13551 ], [ -68.48598, -25.13684 ], [ -68.48402, -25.14152 ], [ -68.48342, -25.1426 ], [ -68.48297, -25.14379 ], [ -68.48169, -25.14565 ], [ -68.48169, -25.14643 ], [ -68.48086, -25.14684 ], [ -68.48026, -25.14755 ], [ -68.47936, -25.14921 ], [ -68.47906, -25.15036 ], [ -68.47942, -25.1524 ], [ -68.47946, -25.15359 ], [ -68.4796, -25.15471 ], [ -68.47933, -25.156 ], [ -68.47929, -25.15675 ], [ -68.47966, -25.15879 ], [ -68.47999, -25.15967 ], [ -68.47991, -25.16134 ], [ -68.47968, -25.16201 ], [ -68.47974, -25.16568 ], [ -68.48081, -25.16793 ], [ -68.48244, -25.17072 ], [ -68.48356, -25.17205 ], [ -68.48432, -25.17317 ], [ -68.48595, -25.17498 ], [ -68.4877, -25.17661 ], [ -68.4909, -25.17907 ], [ -68.49235, -25.17992 ], [ -68.49567, -25.18146 ], [ -68.49943, -25.18253 ], [ -68.50455, -25.18268 ], [ -68.50602, -25.18282 ], [ -68.5074, -25.18259 ], [ -68.50796, -25.18242 ], [ -68.50874, -25.18266 ], [ -68.51139, -25.18372 ], [ -68.51538, -25.18397 ], [ -68.51691, -25.18432 ], [ -68.52165, -25.18484 ], [ -68.52382, -25.18458 ], [ -68.5255, -25.18401 ], [ -68.52722, -25.18354 ], [ -68.53253, -25.18053 ], [ -68.53492, -25.17898 ], [ -68.53562, -25.17837 ], [ -68.53655, -25.17776 ], [ -68.53738, -25.17691 ], [ -68.5382, -25.17624 ], [ -68.53959, -25.17447 ], [ -68.54049, -25.17373 ], [ -68.54191, -25.17102 ], [ -68.54424, -25.16695 ], [ -68.54458, -25.16576 ], [ -68.54503, -25.16488 ], [ -68.54594, -25.16094 ], [ -68.54643, -25.16006 ], [ -68.5467, -25.15897 ], [ -68.54708, -25.15802 ], [ -68.54735, -25.15439 ], [ -68.54754, -25.15371 ], [ -68.54791, -25.15361 ], [ -68.54836, -25.15385 ], [ -68.54899, -25.15382 ], [ -68.54967, -25.15328 ], [ -68.55019, -25.15243 ], [ -68.55083, -25.15206 ], [ -68.55113, -25.15114 ], [ -68.55181, -25.14962 ], [ -68.55327, -25.14796 ], [ -68.55469, -25.14674 ], [ -68.55529, -25.14643 ], [ -68.55622, -25.14647 ], [ -68.55704, -25.14705 ], [ -68.55737, -25.1478 ], [ -68.55793, -25.14841 ], [ -68.55831, -25.14838 ], [ -68.55861, -25.1478 ], [ -68.55876, -25.14712 ], [ -68.55854, -25.14655 ], [ -68.55828, -25.14621 ], [ -68.55839, -25.14559 ], [ -68.55858, -25.14502 ], [ -68.55948, -25.14332 ], [ -68.55963, -25.14251 ], [ -68.56005, -25.14183 ], [ -68.56023, -25.14095 ], [ -68.56057, -25.1404 ], [ -68.5611, -25.1399 ], [ -68.56229, -25.1397 ], [ -68.56308, -25.13922 ], [ -68.56323, -25.13871 ], [ -68.56353, -25.13834 ], [ -68.56412, -25.13831 ], [ -68.56428, -25.13766 ], [ -68.56406, -25.13685 ], [ -68.56324, -25.1363 ], [ -68.56369, -25.136 ], [ -68.56331, -25.13525 ], [ -68.56212, -25.13491 ], [ -68.56198, -25.13423 ], [ -68.5622, -25.13365 ], [ -68.56209, -25.13314 ], [ -68.55986, -25.13232 ], [ -68.55941, -25.13181 ], [ -68.55874, -25.1314 ], [ -68.55814, -25.13119 ], [ -68.55676, -25.13112 ], [ -68.55628, -25.13064 ], [ -68.55606, -25.13007 ], [ -68.55617, -25.12942 ], [ -68.55651, -25.12878 ], [ -68.55733, -25.1283 ], [ -68.55782, -25.1283 ], [ -68.55875, -25.1281 ], [ -68.55875, -25.1278 ], [ -68.55782, -25.12729 ], [ -68.55719, -25.12677 ], [ -68.55644, -25.12636 ], [ -68.55585, -25.12585 ], [ -68.55548, -25.125 ], [ -68.5531, -25.12377 ], [ -68.5525, -25.12296 ], [ -68.55221, -25.12221 ], [ -68.55072, -25.12044 ], [ -68.54893, -25.11951 ], [ -68.54853, -25.1188 ], [ -68.54786, -25.11795 ], [ -68.54711, -25.1172 ], [ -68.54701, -25.11628 ], [ -68.54742, -25.1154 ], [ -68.54772, -25.11448 ], [ -68.54716, -25.11394 ], [ -68.54649, -25.11411 ], [ -68.54653, -25.11475 ], [ -68.54574, -25.11482 ], [ -68.54507, -25.11414 ], [ -68.54355, -25.11233 ], [ -68.54286, -25.11199 ], [ -68.5426, -25.11172 ], [ -68.54241, -25.11111 ], [ -68.54256, -25.11087 ], [ -68.54256, -25.11053 ], [ -68.54208, -25.11012 ], [ -68.54037, -25.10913 ], [ -68.53914, -25.10896 ], [ -68.53783, -25.10895 ], [ -68.53724, -25.10875 ], [ -68.53623, -25.10861 ], [ -68.53586, -25.10816 ], [ -68.53471, -25.10748 ], [ -68.53392, -25.10751 ], [ -68.53306, -25.10771 ], [ -68.53138, -25.10767 ], [ -68.53068, -25.1072 ], [ -68.53016, -25.10672 ], [ -68.52915, -25.10665 ], [ -68.52851, -25.10739 ], [ -68.52721, -25.10753 ] ], [ [ -68.52275, -25.11874 ], [ -68.52366, -25.11863 ], [ -68.52464, -25.11823 ], [ -68.5253, -25.11875 ], [ -68.52624, -25.11875 ], [ -68.52715, -25.11832 ], [ -68.52803, -25.11861 ], [ -68.52863, -25.11867 ], [ -68.53157, -25.11868 ], [ -68.53267, -25.11846 ], [ -68.53336, -25.11857 ], [ -68.53534, -25.11927 ], [ -68.53599, -25.11973 ], [ -68.53605, -25.12044 ], [ -68.53797, -25.12113 ], [ -68.53882, -25.1218 ], [ -68.5391, -25.12248 ], [ -68.54038, -25.12406 ], [ -68.54097, -25.12449 ], [ -68.5423, -25.1243 ], [ -68.54324, -25.12353 ], [ -68.54396, -25.12367 ], [ -68.54472, -25.12416 ], [ -68.54515, -25.12471 ], [ -68.54518, -25.12556 ], [ -68.54499, -25.12599 ], [ -68.54405, -25.12605 ], [ -68.54376, -25.12668 ], [ -68.54392, -25.12716 ], [ -68.54423, -25.12768 ], [ -68.54418, -25.12778 ], [ -68.54429, -25.12889 ], [ -68.54416, -25.13063 ], [ -68.54434, -25.13198 ], [ -68.54488, -25.13474 ], [ -68.54476, -25.13547 ], [ -68.54475, -25.13666 ], [ -68.54499, -25.13761 ], [ -68.54567, -25.13806 ], [ -68.54641, -25.13874 ], [ -68.54746, -25.13919 ], [ -68.54814, -25.13925 ], [ -68.55011, -25.14016 ], [ -68.55265, -25.14028 ], [ -68.55314, -25.14096 ], [ -68.55283, -25.14186 ], [ -68.55184, -25.14286 ], [ -68.55091, -25.14347 ], [ -68.55093, -25.14372 ], [ -68.55036, -25.14435 ], [ -68.54992, -25.14507 ], [ -68.54938, -25.14567 ], [ -68.54878, -25.14672 ], [ -68.54815, -25.14729 ], [ -68.54815, -25.14809 ], [ -68.54751, -25.14972 ], [ -68.54632, -25.15078 ], [ -68.54518, -25.15264 ], [ -68.54417, -25.15381 ], [ -68.54335, -25.15432 ], [ -68.54259, -25.15466 ], [ -68.54187, -25.1552 ], [ -68.5413, -25.1552 ], [ -68.54077, -25.15425 ], [ -68.53936, -25.15293 ], [ -68.53861, -25.15276 ], [ -68.5381, -25.15284 ], [ -68.53731, -25.15338 ], [ -68.53681, -25.1539 ], [ -68.53658, -25.15536 ], [ -68.5363, -25.15621 ], [ -68.53636, -25.15713 ], [ -68.53625, -25.15916 ], [ -68.53581, -25.16088 ], [ -68.5352, -25.16259 ], [ -68.53409, -25.16511 ], [ -68.53343, -25.16596 ], [ -68.53283, -25.16696 ], [ -68.53201, -25.1677 ], [ -68.53131, -25.16859 ], [ -68.53054, -25.16939 ], [ -68.52931, -25.1703 ], [ -68.52669, -25.17255 ], [ -68.52386, -25.17386 ], [ -68.51945, -25.1751 ], [ -68.51599, -25.17506 ], [ -68.51301, -25.17428 ], [ -68.51159, -25.17368 ], [ -68.51028, -25.17287 ], [ -68.50974, -25.1723 ], [ -68.50883, -25.17169 ], [ -68.50736, -25.17091 ], [ -68.50654, -25.17097 ], [ -68.50442, -25.17159 ], [ -68.50366, -25.17173 ], [ -68.50177, -25.17173 ], [ -68.50058, -25.17152 ], [ -68.49888, -25.17094 ], [ -68.49597, -25.16902 ], [ -68.49459, -25.16761 ], [ -68.49444, -25.16655 ], [ -68.49319, -25.1648 ], [ -68.49275, -25.164 ], [ -68.49191, -25.16279 ], [ -68.49119, -25.16127 ], [ -68.49069, -25.15955 ], [ -68.49051, -25.15818 ], [ -68.49023, -25.15723 ], [ -68.49002, -25.15603 ], [ -68.48961, -25.15532 ], [ -68.48984, -25.15328 ], [ -68.49013, -25.15171 ], [ -68.4908, -25.14891 ], [ -68.49223, -25.14499 ], [ -68.49327, -25.14357 ], [ -68.49555, -25.14077 ], [ -68.49691, -25.13943 ], [ -68.49817, -25.13829 ], [ -68.49965, -25.13718 ], [ -68.50179, -25.13618 ], [ -68.50261, -25.13553 ], [ -68.50303, -25.13464 ], [ -68.50335, -25.13221 ], [ -68.50373, -25.13081 ], [ -68.50436, -25.13027 ], [ -68.50594, -25.12922 ], [ -68.50666, -25.12853 ], [ -68.50755, -25.12716 ], [ -68.50837, -25.12653 ], [ -68.50913, -25.12611 ], [ -68.50977, -25.12579 ], [ -68.51087, -25.12551 ], [ -68.51128, -25.1248 ], [ -68.51217, -25.12449 ], [ -68.51349, -25.12418 ], [ -68.51472, -25.12341 ], [ -68.51812, -25.12167 ], [ -68.51887, -25.12113 ], [ -68.52013, -25.12045 ], [ -68.52174, -25.11934 ], [ -68.52275, -25.11874 ] ] ] } }
]
}
