{
"type": "FeatureCollection",
"name": "LAS",
"crs": { "type": "name", "properties": { "name": "urn:ogc:def:crs:OGC:1.3:CRS84" } },
"xy_coordinate_resolution": 1e-05,
"features": [
{ "type": "Feature", "properties": { "objectid": 330, "peligro": "Bajo", "volcan": null, "globalid_1": "ba8a094d-91d3-49ad-86e6-40d55d092559", "Shape__Area": 0.011695096452513098, "Shape__Length": 1.1734176629997504 }, "geometry": { "type": "Polygon", "coordinates": [ [ [ -67.78237, -23.32156 ], [ -67.78546, -23.32238 ], [ -67.78603, -23.32265 ], [ -67.78723, -23.32266 ], [ -67.78906, -23.32326 ], [ -67.79022, -23.32308 ], [ -67.79085, -23.32307 ], [ -67.79311, -23.32352 ], [ -67.79548, -23.32374 ], [ -67.79587, -23.32374 ], [ -67.79786, -23.32341 ], [ -67.80083, -23.32321 ], [ -67.80168, -23.32322 ], [ -67.80178, -23.32329 ], [ -67.80318, -23.3235 ], [ -67.80464, -23.32339 ], [ -67.80492, -23.32343 ], [ -67.80513, -23.32356 ], [ -67.80586, -23.32417 ], [ -67.80789, -23.3246 ], [ -67.80843, -23.32452 ], [ -67.80915, -23.32416 ], [ -67.80971, -23.32399 ], [ -67.81016, -23.32391 ], [ -67.81096, -23.32393 ], [ -67.81242, -23.32444 ], [ -67.8137, -23.32479 ], [ -67.81479, -23.32532 ], [ -67.81542, -23.32541 ], [ -67.81965, -23.32514 ], [ -67.82087, -23.32493 ], [ -67.82195, -23.32449 ], [ -67.8226, -23.32436 ], [ -67.82514, -23.32434 ], [ -67.82685, -23.324 ], [ -67.82762, -23.32399 ], [ -67.83011, -23.32351 ], [ -67.83246, -23.32323 ], [ -67.83287, -23.32325 ], [ -67.83315, -23.32343 ], [ -67.83328, -23.32367 ], [ -67.83329, -23.32415 ], [ -67.83325, -23.32431 ], [ -67.83291, -23.32467 ], [ -67.83217, -23.32512 ], [ -67.82989, -23.32521 ], [ -67.82756, -23.32586 ], [ -67.82517, -23.32574 ], [ -67.82329, -23.32575 ], [ -67.82251, -23.32588 ], [ -67.82166, -23.32618 ], [ -67.82129, -23.32623 ], [ -67.81982, -23.32681 ], [ -67.81935, -23.3269 ], [ -67.81869, -23.32695 ], [ -67.81746, -23.32679 ], [ -67.81708, -23.32667 ], [ -67.81667, -23.32638 ], [ -67.81618, -23.32628 ], [ -67.81542, -23.32633 ], [ -67.81433, -23.3266 ], [ -67.81292, -23.32683 ], [ -67.81203, -23.32682 ], [ -67.80978, -23.32625 ], [ -67.80909, -23.32623 ], [ -67.8073, -23.32627 ], [ -67.80603, -23.32672 ], [ -67.80466, -23.32698 ], [ -67.80414, -23.32726 ], [ -67.80392, -23.32747 ], [ -67.80356, -23.32808 ], [ -67.80354, -23.32848 ], [ -67.80371, -23.32876 ], [ -67.80473, -23.32952 ], [ -67.80622, -23.32997 ], [ -67.80714, -23.33055 ], [ -67.80729, -23.33072 ], [ -67.80757, -23.33123 ], [ -67.80786, -23.33249 ], [ -67.80786, -23.33303 ], [ -67.80836, -23.33433 ], [ -67.80924, -23.33509 ], [ -67.80991, -23.33538 ], [ -67.8113, -23.3356 ], [ -67.81198, -23.33558 ], [ -67.81228, -23.33567 ], [ -67.81257, -23.33595 ], [ -67.81305, -23.33622 ], [ -67.81411, -23.33662 ], [ -67.81428, -23.33679 ], [ -67.81444, -23.33717 ], [ -67.81428, -23.33791 ], [ -67.81362, -23.33861 ], [ -67.81217, -23.33944 ], [ -67.81154, -23.33966 ], [ -67.81099, -23.34003 ], [ -67.81011, -23.34044 ], [ -67.80937, -23.34071 ], [ -67.80866, -23.34083 ], [ -67.80583, -23.34085 ], [ -67.80485, -23.3412 ], [ -67.80406, -23.34135 ], [ -67.80364, -23.34159 ], [ -67.80346, -23.34193 ], [ -67.80346, -23.34234 ], [ -67.80352, -23.34253 ], [ -67.80393, -23.343 ], [ -67.80458, -23.34323 ], [ -67.80631, -23.34333 ], [ -67.80676, -23.34342 ], [ -67.80682, -23.34367 ], [ -67.8067, -23.34416 ], [ -67.80615, -23.34443 ], [ -67.80398, -23.34461 ], [ -67.80342, -23.34458 ], [ -67.80219, -23.34426 ], [ -67.80051, -23.34401 ], [ -67.79928, -23.34415 ], [ -67.79806, -23.34457 ], [ -67.79691, -23.3453 ], [ -67.79557, -23.34599 ], [ -67.79498, -23.34644 ], [ -67.79319, -23.34721 ], [ -67.79182, -23.34751 ], [ -67.79097, -23.3476 ], [ -67.78862, -23.34771 ], [ -67.78594, -23.34769 ], [ -67.78513, -23.34793 ], [ -67.78425, -23.34805 ], [ -67.78315, -23.34845 ], [ -67.78032, -23.34906 ], [ -67.77896, -23.34948 ], [ -67.77713, -23.34992 ], [ -67.77449, -23.35076 ], [ -67.77301, -23.35136 ], [ -67.77206, -23.3516 ], [ -67.77078, -23.35238 ], [ -67.77033, -23.35288 ], [ -67.77015, -23.35331 ], [ -67.77017, -23.35386 ], [ -67.77029, -23.35408 ], [ -67.77054, -23.35424 ], [ -67.77103, -23.35438 ], [ -67.77174, -23.35436 ], [ -67.7738, -23.35366 ], [ -67.77505, -23.35344 ], [ -67.77716, -23.35283 ], [ -67.779, -23.35279 ], [ -67.78058, -23.35286 ], [ -67.78151, -23.35314 ], [ -67.78198, -23.35349 ], [ -67.78236, -23.35405 ], [ -67.78262, -23.35502 ], [ -67.78267, -23.35572 ], [ -67.78263, -23.35613 ], [ -67.78215, -23.35683 ], [ -67.78178, -23.35705 ], [ -67.77965, -23.35745 ], [ -67.77917, -23.35751 ], [ -67.77803, -23.35746 ], [ -67.77594, -23.35866 ], [ -67.77564, -23.35892 ], [ -67.77539, -23.35941 ], [ -67.77536, -23.35979 ], [ -67.77553, -23.36042 ], [ -67.7759, -23.36093 ], [ -67.77865, -23.36283 ], [ -67.77978, -23.36306 ], [ -67.781, -23.36313 ], [ -67.78181, -23.36328 ], [ -67.78548, -23.36339 ], [ -67.78755, -23.36336 ], [ -67.78835, -23.36367 ], [ -67.78924, -23.36417 ], [ -67.78996, -23.36498 ], [ -67.79103, -23.36565 ], [ -67.79178, -23.36597 ], [ -67.79331, -23.36625 ], [ -67.79657, -23.36735 ], [ -67.79987, -23.36763 ], [ -67.8017, -23.36804 ], [ -67.80333, -23.3687 ], [ -67.80372, -23.36896 ], [ -67.80394, -23.36927 ], [ -67.80399, -23.36951 ], [ -67.80394, -23.3699 ], [ -67.80329, -23.3707 ], [ -67.80165, -23.37172 ], [ -67.79893, -23.3721 ], [ -67.79817, -23.3723 ], [ -67.79753, -23.37218 ], [ -67.79693, -23.37183 ], [ -67.79567, -23.3718 ], [ -67.79475, -23.37221 ], [ -67.79334, -23.37233 ], [ -67.79179, -23.37233 ], [ -67.79092, -23.37267 ], [ -67.7907, -23.37298 ], [ -67.79069, -23.37336 ], [ -67.79139, -23.37383 ], [ -67.79259, -23.37392 ], [ -67.79365, -23.3738 ], [ -67.79389, -23.37391 ], [ -67.79417, -23.37441 ], [ -67.79416, -23.37483 ], [ -67.79397, -23.37509 ], [ -67.79339, -23.37533 ], [ -67.79123, -23.3756 ], [ -67.79037, -23.37562 ], [ -67.78891, -23.37498 ], [ -67.78804, -23.37469 ], [ -67.78678, -23.37447 ], [ -67.78623, -23.37428 ], [ -67.78494, -23.37402 ], [ -67.78268, -23.37391 ], [ -67.78157, -23.37371 ], [ -67.78023, -23.37394 ], [ -67.77904, -23.37384 ], [ -67.77864, -23.37396 ], [ -67.77833, -23.37424 ], [ -67.77814, -23.37483 ], [ -67.77819, -23.37666 ], [ -67.77836, -23.377 ], [ -67.77911, -23.37777 ], [ -67.77969, -23.37861 ], [ -67.77982, -23.37891 ], [ -67.77992, -23.37958 ], [ -67.77987, -23.37987 ], [ -67.77946, -23.38048 ], [ -67.77895, -23.38075 ], [ -67.77808, -23.38075 ], [ -67.77705, -23.38045 ], [ -67.77591, -23.37994 ], [ -67.77441, -23.3797 ], [ -67.77238, -23.37909 ], [ -67.7709, -23.37855 ], [ -67.7697, -23.37843 ], [ -67.76907, -23.37826 ], [ -67.76805, -23.37761 ], [ -67.76711, -23.3774 ], [ -67.76568, -23.37726 ], [ -67.76512, -23.37736 ], [ -67.76192, -23.37737 ], [ -67.7603, -23.37722 ], [ -67.7593, -23.37684 ], [ -67.75889, -23.3768 ], [ -67.75849, -23.3769 ], [ -67.75729, -23.37774 ], [ -67.75727, -23.37813 ], [ -67.75734, -23.37833 ], [ -67.75776, -23.37882 ], [ -67.75826, -23.37914 ], [ -67.7598, -23.38007 ], [ -67.76174, -23.3809 ], [ -67.76343, -23.38181 ], [ -67.76517, -23.38296 ], [ -67.76723, -23.38405 ], [ -67.76758, -23.38416 ], [ -67.76856, -23.38417 ], [ -67.76943, -23.38393 ], [ -67.77057, -23.38399 ], [ -67.77137, -23.38427 ], [ -67.77189, -23.3846 ], [ -67.77271, -23.38479 ], [ -67.77336, -23.38512 ], [ -67.77427, -23.38577 ], [ -67.77618, -23.38643 ], [ -67.77667, -23.38673 ], [ -67.77696, -23.38705 ], [ -67.77731, -23.38775 ], [ -67.77734, -23.38801 ], [ -67.77814, -23.38897 ], [ -67.77839, -23.38922 ], [ -67.77888, -23.38948 ], [ -67.7794, -23.38951 ], [ -67.78038, -23.38929 ], [ -67.78089, -23.38901 ], [ -67.78143, -23.38884 ], [ -67.783, -23.38876 ], [ -67.78475, -23.38879 ], [ -67.78584, -23.38864 ], [ -67.78686, -23.38871 ], [ -67.78783, -23.38915 ], [ -67.7886, -23.38979 ], [ -67.78886, -23.39015 ], [ -67.78901, -23.39062 ], [ -67.78899, -23.39127 ], [ -67.78822, -23.39238 ], [ -67.78784, -23.39275 ], [ -67.78623, -23.39365 ], [ -67.78529, -23.39392 ], [ -67.78509, -23.39409 ], [ -67.78505, -23.39434 ], [ -67.7852, -23.39492 ], [ -67.7857, -23.39514 ], [ -67.78689, -23.3952 ], [ -67.78803, -23.3951 ], [ -67.7885, -23.39534 ], [ -67.78867, -23.39569 ], [ -67.78868, -23.39611 ], [ -67.78843, -23.39659 ], [ -67.78824, -23.3968 ], [ -67.78755, -23.39708 ], [ -67.78682, -23.39779 ], [ -67.78564, -23.39819 ], [ -67.78352, -23.39863 ], [ -67.78277, -23.39867 ], [ -67.78124, -23.39859 ], [ -67.78033, -23.39883 ], [ -67.77924, -23.39995 ], [ -67.77866, -23.4004 ], [ -67.77808, -23.40074 ], [ -67.77618, -23.40146 ], [ -67.77513, -23.40195 ], [ -67.77477, -23.4023 ], [ -67.77367, -23.40284 ], [ -67.77235, -23.40327 ], [ -67.77186, -23.40336 ], [ -67.77154, -23.4033 ], [ -67.76843, -23.40167 ], [ -67.76793, -23.40164 ], [ -67.76699, -23.40182 ], [ -67.76638, -23.40183 ], [ -67.76574, -23.40171 ], [ -67.76451, -23.40167 ], [ -67.76394, -23.40153 ], [ -67.76257, -23.40074 ], [ -67.76203, -23.40058 ], [ -67.76073, -23.39996 ], [ -67.76044, -23.39961 ], [ -67.75987, -23.39928 ], [ -67.75919, -23.3983 ], [ -67.75844, -23.39757 ], [ -67.75756, -23.39714 ], [ -67.75681, -23.39705 ], [ -67.75539, -23.39704 ], [ -67.7537, -23.39728 ], [ -67.75193, -23.39724 ], [ -67.75116, -23.39712 ], [ -67.74954, -23.3962 ], [ -67.7489, -23.3955 ], [ -67.74817, -23.39499 ], [ -67.74648, -23.3929 ], [ -67.74567, -23.39141 ], [ -67.74513, -23.39071 ], [ -67.74494, -23.39032 ], [ -67.74378, -23.38937 ], [ -67.7436, -23.3891 ], [ -67.74205, -23.38772 ], [ -67.74133, -23.38673 ], [ -67.74126, -23.3864 ], [ -67.74129, -23.38597 ], [ -67.74153, -23.38494 ], [ -67.74167, -23.38467 ], [ -67.74186, -23.38447 ], [ -67.74332, -23.38364 ], [ -67.74433, -23.38253 ], [ -67.74454, -23.38172 ], [ -67.74456, -23.38103 ], [ -67.7447, -23.38067 ], [ -67.74474, -23.37981 ], [ -67.7444, -23.37885 ], [ -67.74352, -23.3778 ], [ -67.74242, -23.37699 ], [ -67.74198, -23.37686 ], [ -67.74141, -23.37684 ], [ -67.74108, -23.37698 ], [ -67.74083, -23.37721 ], [ -67.73945, -23.37898 ], [ -67.73856, -23.3807 ], [ -67.73726, -23.38263 ], [ -67.73662, -23.38405 ], [ -67.73628, -23.38552 ], [ -67.73621, -23.38658 ], [ -67.73636, -23.39003 ], [ -67.73644, -23.39042 ], [ -67.73674, -23.39085 ], [ -67.73673, -23.39145 ], [ -67.73656, -23.3921 ], [ -67.73618, -23.39252 ], [ -67.73536, -23.39271 ], [ -67.73362, -23.39329 ], [ -67.73339, -23.39346 ], [ -67.73319, -23.3938 ], [ -67.73401, -23.39378 ], [ -67.73616, -23.39411 ], [ -67.73736, -23.39492 ], [ -67.73888, -23.39685 ], [ -67.73974, -23.39815 ], [ -67.73997, -23.39868 ], [ -67.74039, -23.4014 ], [ -67.74076, -23.40213 ], [ -67.74124, -23.40272 ], [ -67.74161, -23.40304 ], [ -67.74324, -23.40379 ], [ -67.74384, -23.40428 ], [ -67.74434, -23.40438 ], [ -67.74561, -23.40444 ], [ -67.74651, -23.40441 ], [ -67.74758, -23.40398 ], [ -67.74808, -23.40357 ], [ -67.74894, -23.40322 ], [ -67.74952, -23.4028 ], [ -67.75033, -23.40241 ], [ -67.75128, -23.40218 ], [ -67.75357, -23.40183 ], [ -67.75497, -23.40212 ], [ -67.75557, -23.40241 ], [ -67.75677, -23.4027 ], [ -67.75834, -23.40353 ], [ -67.76041, -23.40425 ], [ -67.76242, -23.40514 ], [ -67.76259, -23.40513 ], [ -67.7641, -23.40565 ], [ -67.76556, -23.40627 ], [ -67.76648, -23.40652 ], [ -67.76761, -23.4066 ], [ -67.76825, -23.40653 ], [ -67.76904, -23.40632 ], [ -67.7746, -23.4041 ], [ -67.77495, -23.40418 ], [ -67.77561, -23.40471 ], [ -67.77645, -23.40518 ], [ -67.77678, -23.40546 ], [ -67.77834, -23.40628 ], [ -67.78006, -23.40669 ], [ -67.78056, -23.40671 ], [ -67.78121, -23.40658 ], [ -67.78172, -23.40635 ], [ -67.78264, -23.4056 ], [ -67.78347, -23.40524 ], [ -67.78397, -23.40486 ], [ -67.78456, -23.40384 ], [ -67.7847, -23.40374 ], [ -67.78556, -23.40186 ], [ -67.78593, -23.40125 ], [ -67.78651, -23.39981 ], [ -67.7877, -23.39829 ], [ -67.78807, -23.39805 ], [ -67.79032, -23.3971 ], [ -67.79093, -23.39693 ], [ -67.79254, -23.39614 ], [ -67.79349, -23.39588 ], [ -67.79479, -23.39565 ], [ -67.79544, -23.39562 ], [ -67.79784, -23.3958 ], [ -67.80075, -23.3957 ], [ -67.80195, -23.39549 ], [ -67.80296, -23.39513 ], [ -67.80449, -23.39484 ], [ -67.80493, -23.39469 ], [ -67.80551, -23.39438 ], [ -67.80649, -23.39368 ], [ -67.80742, -23.3932 ], [ -67.80842, -23.39252 ], [ -67.80925, -23.39214 ], [ -67.81026, -23.39148 ], [ -67.811, -23.39117 ], [ -67.81264, -23.38997 ], [ -67.81316, -23.3898 ], [ -67.81377, -23.38948 ], [ -67.81463, -23.38887 ], [ -67.81509, -23.38845 ], [ -67.81545, -23.38827 ], [ -67.81638, -23.38755 ], [ -67.81696, -23.38697 ], [ -67.81804, -23.38608 ], [ -67.81901, -23.38548 ], [ -67.81973, -23.38466 ], [ -67.82122, -23.38349 ], [ -67.82216, -23.38253 ], [ -67.82283, -23.38204 ], [ -67.82322, -23.38165 ], [ -67.82389, -23.38122 ], [ -67.8248, -23.38023 ], [ -67.82556, -23.37971 ], [ -67.82649, -23.3793 ], [ -67.82773, -23.37897 ], [ -67.83082, -23.37865 ], [ -67.83181, -23.37848 ], [ -67.83272, -23.37822 ], [ -67.83414, -23.37764 ], [ -67.83557, -23.37675 ], [ -67.83597, -23.3766 ], [ -67.83681, -23.37608 ], [ -67.83907, -23.37495 ], [ -67.83965, -23.37447 ], [ -67.84258, -23.37367 ], [ -67.84905, -23.37295 ], [ -67.85062, -23.37295 ], [ -67.85088, -23.37286 ], [ -67.85202, -23.37288 ], [ -67.85274, -23.3728 ], [ -67.85458, -23.37245 ], [ -67.8573, -23.37212 ], [ -67.8573, -23.37205 ], [ -67.85869, -23.37174 ], [ -67.86119, -23.37146 ], [ -67.86303, -23.37102 ], [ -67.86907, -23.36996 ], [ -67.86996, -23.36967 ], [ -67.871, -23.36956 ], [ -67.87253, -23.36927 ], [ -67.87528, -23.36913 ], [ -67.87624, -23.36901 ], [ -67.87925, -23.36916 ], [ -67.88022, -23.3694 ], [ -67.88194, -23.36964 ], [ -67.88332, -23.37009 ], [ -67.88341, -23.37 ], [ -67.8847, -23.3706 ], [ -67.88573, -23.37097 ], [ -67.88815, -23.37149 ], [ -67.88936, -23.37166 ], [ -67.88994, -23.37189 ], [ -67.89112, -23.37218 ], [ -67.89189, -23.37255 ], [ -67.89259, -23.37272 ], [ -67.89373, -23.37273 ], [ -67.89398, -23.3726 ], [ -67.89465, -23.37259 ], [ -67.8971, -23.37225 ], [ -67.89883, -23.37245 ], [ -67.9, -23.37295 ], [ -67.901, -23.37352 ], [ -67.90189, -23.37416 ], [ -67.90653, -23.37689 ], [ -67.90747, -23.37761 ], [ -67.90931, -23.37827 ], [ -67.91057, -23.37889 ], [ -67.91274, -23.37952 ], [ -67.91361, -23.37997 ], [ -67.91673, -23.38011 ], [ -67.91717, -23.38027 ], [ -67.91845, -23.38038 ], [ -67.92086, -23.38031 ], [ -67.92168, -23.38034 ], [ -67.92225, -23.38047 ], [ -67.92414, -23.38041 ], [ -67.92508, -23.38051 ], [ -67.92594, -23.38044 ], [ -67.92778, -23.38052 ], [ -67.92849, -23.38073 ], [ -67.92875, -23.38088 ], [ -67.92931, -23.38162 ], [ -67.92932, -23.38157 ], [ -67.92967, -23.38216 ], [ -67.931, -23.38341 ], [ -67.93155, -23.38373 ], [ -67.93191, -23.38368 ], [ -67.93228, -23.38346 ], [ -67.93251, -23.38294 ], [ -67.93253, -23.38154 ], [ -67.93232, -23.38111 ], [ -67.93193, -23.38074 ], [ -67.93179, -23.38022 ], [ -67.93176, -23.37976 ], [ -67.93187, -23.3797 ], [ -67.93225, -23.37861 ], [ -67.93287, -23.3778 ], [ -67.93324, -23.37737 ], [ -67.93419, -23.37679 ], [ -67.93476, -23.37597 ], [ -67.93501, -23.37504 ], [ -67.93557, -23.37411 ], [ -67.93577, -23.37358 ], [ -67.93571, -23.37229 ], [ -67.9361, -23.37156 ], [ -67.93549, -23.36798 ], [ -67.93557, -23.36713 ], [ -67.93553, -23.36575 ], [ -67.93564, -23.36523 ], [ -67.93565, -23.36453 ], [ -67.93576, -23.36423 ], [ -67.93612, -23.36383 ], [ -67.9366, -23.36374 ], [ -67.9379, -23.36321 ], [ -67.93905, -23.36239 ], [ -67.93948, -23.362 ], [ -67.94099, -23.36107 ], [ -67.94177, -23.36037 ], [ -67.94246, -23.35929 ], [ -67.94255, -23.35881 ], [ -67.94366, -23.35639 ], [ -67.94412, -23.35579 ], [ -67.94466, -23.35528 ], [ -67.9453, -23.3542 ], [ -67.94566, -23.3539 ], [ -67.94647, -23.35361 ], [ -67.94685, -23.35355 ], [ -67.9518, -23.35368 ], [ -67.95314, -23.35424 ], [ -67.95369, -23.35437 ], [ -67.95421, -23.35445 ], [ -67.9561, -23.35442 ], [ -67.95663, -23.35449 ], [ -67.9591, -23.35515 ], [ -67.96019, -23.35531 ], [ -67.96165, -23.35579 ], [ -67.96322, -23.35581 ], [ -67.96638, -23.35601 ], [ -67.96844, -23.35667 ], [ -67.96936, -23.3567 ], [ -67.96999, -23.35702 ], [ -67.97057, -23.35713 ], [ -67.97109, -23.35739 ], [ -67.97195, -23.35767 ], [ -67.97311, -23.35829 ], [ -67.97359, -23.3584 ], [ -67.97482, -23.35837 ], [ -67.97692, -23.35806 ], [ -67.97861, -23.35762 ], [ -67.9796, -23.35748 ], [ -67.98129, -23.35703 ], [ -67.98186, -23.35673 ], [ -67.98245, -23.35625 ], [ -67.98256, -23.35628 ], [ -67.98422, -23.35434 ], [ -67.98497, -23.35324 ], [ -67.98499, -23.3526 ], [ -67.98484, -23.35164 ], [ -67.98485, -23.35069 ], [ -67.98476, -23.35045 ], [ -67.9844, -23.34985 ], [ -67.98395, -23.34933 ], [ -67.98274, -23.3483 ], [ -67.98248, -23.34789 ], [ -67.98239, -23.34755 ], [ -67.98219, -23.34722 ], [ -67.98217, -23.34656 ], [ -67.98247, -23.34587 ], [ -67.98293, -23.34517 ], [ -67.98315, -23.34507 ], [ -67.98368, -23.34449 ], [ -67.98408, -23.34386 ], [ -67.98409, -23.34353 ], [ -67.984, -23.34306 ], [ -67.98371, -23.34262 ], [ -67.98322, -23.34222 ], [ -67.98258, -23.34185 ], [ -67.98187, -23.34123 ], [ -67.98165, -23.34051 ], [ -67.98173, -23.33967 ], [ -67.98184, -23.33936 ], [ -67.98216, -23.33898 ], [ -67.98269, -23.33859 ], [ -67.9834, -23.33828 ], [ -67.98393, -23.33784 ], [ -67.98513, -23.33759 ], [ -67.98624, -23.33703 ], [ -67.98663, -23.33676 ], [ -67.98722, -23.33615 ], [ -67.98802, -23.33562 ], [ -67.98831, -23.33516 ], [ -67.98893, -23.33472 ], [ -67.98976, -23.33362 ], [ -67.99107, -23.33256 ], [ -67.99208, -23.33125 ], [ -67.9925, -23.33084 ], [ -67.9928, -23.33072 ], [ -67.99331, -23.33014 ], [ -67.99408, -23.32953 ], [ -67.99486, -23.32862 ], [ -67.99548, -23.3274 ], [ -67.99597, -23.32627 ], [ -67.99604, -23.32593 ], [ -67.99604, -23.32544 ], [ -67.99581, -23.32466 ], [ -67.9957, -23.32393 ], [ -67.99523, -23.32267 ], [ -67.99488, -23.32218 ], [ -67.99446, -23.32182 ], [ -67.99405, -23.32159 ], [ -67.99328, -23.3213 ], [ -67.9918, -23.32096 ], [ -67.99102, -23.32063 ], [ -67.99051, -23.3203 ], [ -67.99016, -23.31995 ], [ -67.98993, -23.3196 ], [ -67.98979, -23.3187 ], [ -67.98932, -23.31767 ], [ -67.98814, -23.31665 ], [ -67.98698, -23.31621 ], [ -67.98577, -23.31625 ], [ -67.98465, -23.31675 ], [ -67.98374, -23.31741 ], [ -67.98218, -23.31896 ], [ -67.98173, -23.31976 ], [ -67.98151, -23.31999 ], [ -67.98066, -23.32187 ], [ -67.97968, -23.32326 ], [ -67.97935, -23.3235 ], [ -67.97831, -23.32395 ], [ -67.97758, -23.32417 ], [ -67.97673, -23.32429 ], [ -67.97594, -23.32462 ], [ -67.97508, -23.32513 ], [ -67.97344, -23.32574 ], [ -67.97165, -23.32573 ], [ -67.97036, -23.32543 ], [ -67.96885, -23.3252 ], [ -67.9675, -23.32519 ], [ -67.96599, -23.32546 ], [ -67.96407, -23.32601 ], [ -67.96016, -23.32656 ], [ -67.95929, -23.32653 ], [ -67.95766, -23.32625 ], [ -67.95618, -23.32574 ], [ -67.95481, -23.32494 ], [ -67.95312, -23.32337 ], [ -67.95185, -23.32265 ], [ -67.95048, -23.32166 ], [ -67.94995, -23.3211 ], [ -67.94883, -23.32042 ], [ -67.94777, -23.31993 ], [ -67.94618, -23.31951 ], [ -67.94457, -23.31928 ], [ -67.94325, -23.31925 ], [ -67.94218, -23.31905 ], [ -67.94222, -23.319 ], [ -67.94107, -23.31839 ], [ -67.94084, -23.31822 ], [ -67.9402, -23.31746 ], [ -67.93986, -23.3164 ], [ -67.93989, -23.31481 ], [ -67.94008, -23.31425 ], [ -67.94062, -23.31325 ], [ -67.94101, -23.31186 ], [ -67.94072, -23.31033 ], [ -67.94074, -23.30831 ], [ -67.94087, -23.30753 ], [ -67.94115, -23.30679 ], [ -67.94165, -23.30624 ], [ -67.94197, -23.30549 ], [ -67.94302, -23.30452 ], [ -67.94391, -23.30347 ], [ -67.94496, -23.30276 ], [ -67.94547, -23.30224 ], [ -67.94596, -23.30102 ], [ -67.94638, -23.30031 ], [ -67.94656, -23.29979 ], [ -67.94757, -23.29784 ], [ -67.94787, -23.29735 ], [ -67.94848, -23.29669 ], [ -67.9489, -23.29588 ], [ -67.94887, -23.29532 ], [ -67.94869, -23.29475 ], [ -67.94853, -23.29458 ], [ -67.94817, -23.29445 ], [ -67.94739, -23.2946 ], [ -67.94628, -23.29503 ], [ -67.94462, -23.29598 ], [ -67.94305, -23.29658 ], [ -67.94239, -23.29693 ], [ -67.94143, -23.29765 ], [ -67.94103, -23.29817 ], [ -67.94033, -23.29857 ], [ -67.93789, -23.30063 ], [ -67.93688, -23.30127 ], [ -67.93617, -23.30211 ], [ -67.93448, -23.30336 ], [ -67.93408, -23.30372 ], [ -67.93363, -23.30431 ], [ -67.93298, -23.30478 ], [ -67.9325, -23.30536 ], [ -67.93176, -23.30576 ], [ -67.9291, -23.30783 ], [ -67.92874, -23.30797 ], [ -67.92761, -23.30786 ], [ -67.92627, -23.30715 ], [ -67.92531, -23.30681 ], [ -67.92281, -23.30644 ], [ -67.92164, -23.30612 ], [ -67.92092, -23.30606 ], [ -67.92048, -23.30589 ], [ -67.92036, -23.30572 ], [ -67.9204, -23.30528 ], [ -67.92071, -23.305 ], [ -67.92265, -23.30425 ], [ -67.92365, -23.30405 ], [ -67.92459, -23.30355 ], [ -67.92493, -23.30331 ], [ -67.92575, -23.3024 ], [ -67.92634, -23.30193 ], [ -67.92671, -23.30174 ], [ -67.92784, -23.3009 ], [ -67.92882, -23.30035 ], [ -67.92906, -23.29993 ], [ -67.9291, -23.29956 ], [ -67.92884, -23.29924 ], [ -67.92858, -23.29918 ], [ -67.92802, -23.29929 ], [ -67.92739, -23.29959 ], [ -67.92484, -23.30114 ], [ -67.92277, -23.30207 ], [ -67.92243, -23.30231 ], [ -67.92144, -23.30274 ], [ -67.92087, -23.30311 ], [ -67.91918, -23.30387 ], [ -67.91861, -23.30427 ], [ -67.91763, -23.30479 ], [ -67.91625, -23.30525 ], [ -67.91483, -23.30607 ], [ -67.91141, -23.30718 ], [ -67.91006, -23.30779 ], [ -67.90934, -23.30802 ], [ -67.90873, -23.30812 ], [ -67.90818, -23.3082 ], [ -67.90737, -23.30815 ], [ -67.90431, -23.3077 ], [ -67.90032, -23.30697 ], [ -67.89977, -23.30693 ], [ -67.8996, -23.30684 ], [ -67.89783, -23.30658 ], [ -67.89666, -23.30657 ], [ -67.89557, -23.30638 ], [ -67.89447, -23.30639 ], [ -67.89279, -23.30671 ], [ -67.89126, -23.30677 ], [ -67.88835, -23.30741 ], [ -67.88624, -23.30802 ], [ -67.88414, -23.30896 ], [ -67.88267, -23.30942 ], [ -67.8805, -23.30949 ], [ -67.87963, -23.30961 ], [ -67.87871, -23.30964 ], [ -67.87583, -23.31009 ], [ -67.87318, -23.31094 ], [ -67.87276, -23.31113 ], [ -67.87211, -23.31161 ], [ -67.87131, -23.31181 ], [ -67.86956, -23.31208 ], [ -67.86814, -23.31215 ], [ -67.86685, -23.31248 ], [ -67.86332, -23.31292 ], [ -67.86115, -23.31332 ], [ -67.85962, -23.31337 ], [ -67.85733, -23.31379 ], [ -67.85411, -23.31384 ], [ -67.85222, -23.31435 ], [ -67.85156, -23.31435 ], [ -67.8504, -23.31449 ], [ -67.84916, -23.31488 ], [ -67.84744, -23.31565 ], [ -67.84701, -23.31593 ], [ -67.84472, -23.31679 ], [ -67.84331, -23.3171 ], [ -67.84286, -23.31729 ], [ -67.84249, -23.31732 ], [ -67.83822, -23.31858 ], [ -67.83768, -23.31882 ], [ -67.83647, -23.31917 ], [ -67.83131, -23.31917 ], [ -67.83007, -23.31931 ], [ -67.8292, -23.31932 ], [ -67.82815, -23.31952 ], [ -67.82692, -23.31951 ], [ -67.82449, -23.3191 ], [ -67.82315, -23.31861 ], [ -67.82239, -23.31849 ], [ -67.82177, -23.31827 ], [ -67.82039, -23.31818 ], [ -67.81897, -23.31842 ], [ -67.81769, -23.31841 ], [ -67.81702, -23.31821 ], [ -67.81541, -23.31824 ], [ -67.81481, -23.3184 ], [ -67.81444, -23.3186 ], [ -67.81349, -23.31956 ], [ -67.81056, -23.32063 ], [ -67.80932, -23.32059 ], [ -67.80858, -23.32043 ], [ -67.80814, -23.32043 ], [ -67.80703, -23.32059 ], [ -67.80448, -23.32059 ], [ -67.80394, -23.32068 ], [ -67.8035, -23.32059 ], [ -67.80303, -23.32034 ], [ -67.80216, -23.32034 ], [ -67.80067, -23.32052 ], [ -67.79948, -23.32056 ], [ -67.79893, -23.32077 ], [ -67.79804, -23.32132 ], [ -67.79703, -23.32157 ], [ -67.79437, -23.32147 ], [ -67.79279, -23.32114 ], [ -67.79204, -23.32112 ], [ -67.79115, -23.32145 ], [ -67.78835, -23.32178 ], [ -67.78646, -23.32171 ], [ -67.78597, -23.32155 ], [ -67.78416, -23.32125 ], [ -67.7834, -23.32125 ], [ -67.78284, -23.32136 ], [ -67.78237, -23.32156 ] ], [ [ -67.9119, -23.36349 ], [ -67.91159, -23.36383 ], [ -67.91133, -23.36391 ], [ -67.91064, -23.3645 ], [ -67.90963, -23.3651 ], [ -67.9092, -23.36526 ], [ -67.90802, -23.36549 ], [ -67.90567, -23.36622 ], [ -67.905, -23.36624 ], [ -67.90454, -23.36591 ], [ -67.90448, -23.36559 ], [ -67.90462, -23.36494 ], [ -67.90495, -23.3645 ], [ -67.90548, -23.36407 ], [ -67.90648, -23.36333 ], [ -67.90708, -23.36302 ], [ -67.90806, -23.36275 ], [ -67.90931, -23.36221 ], [ -67.91077, -23.36194 ], [ -67.91158, -23.36197 ], [ -67.91203, -23.36243 ], [ -67.91204, -23.36318 ], [ -67.9119, -23.36349 ] ], [ [ -67.90637, -23.34736 ], [ -67.90891, -23.34738 ], [ -67.90969, -23.3476 ], [ -67.91107, -23.34825 ], [ -67.91187, -23.34904 ], [ -67.91251, -23.34945 ], [ -67.9132, -23.34969 ], [ -67.91439, -23.35038 ], [ -67.91538, -23.35081 ], [ -67.91612, -23.35098 ], [ -67.91664, -23.35135 ], [ -67.91687, -23.35173 ], [ -67.91691, -23.35312 ], [ -67.9166, -23.35393 ], [ -67.9165, -23.35469 ], [ -67.91601, -23.35558 ], [ -67.91536, -23.35615 ], [ -67.91478, -23.35645 ], [ -67.91448, -23.35672 ], [ -67.91402, -23.35697 ], [ -67.91376, -23.35725 ], [ -67.91288, -23.35758 ], [ -67.91251, -23.35762 ], [ -67.91219, -23.35777 ], [ -67.91136, -23.35785 ], [ -67.91016, -23.35784 ], [ -67.9097, -23.35765 ], [ -67.90942, -23.35762 ], [ -67.90791, -23.35685 ], [ -67.90736, -23.35639 ], [ -67.90685, -23.35616 ], [ -67.90614, -23.35596 ], [ -67.90589, -23.35579 ], [ -67.9055, -23.355 ], [ -67.90555, -23.35393 ], [ -67.90544, -23.35351 ], [ -67.90506, -23.35274 ], [ -67.90457, -23.35248 ], [ -67.9031, -23.35211 ], [ -67.90145, -23.35141 ], [ -67.90076, -23.35098 ], [ -67.90021, -23.35019 ], [ -67.90017, -23.34972 ], [ -67.90047, -23.3496 ], [ -67.90073, -23.34937 ], [ -67.90126, -23.34922 ], [ -67.90163, -23.34901 ], [ -67.90217, -23.34829 ], [ -67.90252, -23.3474 ], [ -67.90284, -23.34708 ], [ -67.90418, -23.34705 ], [ -67.90637, -23.34736 ] ], [ [ -67.93308, -23.31111 ], [ -67.9303, -23.31077 ], [ -67.92866, -23.31076 ], [ -67.92754, -23.31095 ], [ -67.92489, -23.311 ], [ -67.92473, -23.31095 ], [ -67.92441, -23.31051 ], [ -67.92471, -23.31019 ], [ -67.92516, -23.30997 ], [ -67.92705, -23.30945 ], [ -67.92792, -23.30941 ], [ -67.92907, -23.30895 ], [ -67.92941, -23.3089 ], [ -67.93133, -23.30793 ], [ -67.93306, -23.30694 ], [ -67.93338, -23.30685 ], [ -67.93528, -23.30558 ], [ -67.93594, -23.3053 ], [ -67.93855, -23.30355 ], [ -67.93933, -23.30314 ], [ -67.94042, -23.30231 ], [ -67.94117, -23.30148 ], [ -67.94173, -23.30102 ], [ -67.9424, -23.30066 ], [ -67.94305, -23.30059 ], [ -67.94308, -23.30157 ], [ -67.94273, -23.30184 ], [ -67.9426, -23.30228 ], [ -67.94201, -23.30267 ], [ -67.94166, -23.30325 ], [ -67.94139, -23.30345 ], [ -67.94067, -23.30437 ], [ -67.9404, -23.30454 ], [ -67.93987, -23.3053 ], [ -67.93911, -23.30652 ], [ -67.93914, -23.30671 ], [ -67.93898, -23.30688 ], [ -67.93874, -23.30745 ], [ -67.93847, -23.30776 ], [ -67.93785, -23.30903 ], [ -67.93734, -23.30967 ], [ -67.93657, -23.31027 ], [ -67.93627, -23.31042 ], [ -67.93457, -23.3108 ], [ -67.93396, -23.31114 ], [ -67.93308, -23.31111 ] ] ] } },
{ "type": "Feature", "properties": { "objectid": 331, "peligro": "Bajo", "volcan": null, "globalid_1": "1ce66f1f-5781-4a12-bada-04d6fae87d8d", "Shape__Area": 0.0025176074456112474, "Shape__Length": 0.44847930505213091 }, "geometry": { "type": "Polygon", "coordinates": [ [ [ -67.72646, -23.39493 ], [ -67.72568, -23.39477 ], [ -67.72467, -23.39486 ], [ -67.72382, -23.39511 ], [ -67.72316, -23.3954 ], [ -67.7224, -23.39551 ], [ -67.72173, -23.39594 ], [ -67.72125, -23.39651 ], [ -67.72025, -23.39714 ], [ -67.71903, -23.39842 ], [ -67.71858, -23.39907 ], [ -67.71812, -23.40081 ], [ -67.71806, -23.40243 ], [ -67.71738, -23.40468 ], [ -67.71636, -23.40603 ], [ -67.71559, -23.40639 ], [ -67.71474, -23.4066 ], [ -67.7138, -23.40666 ], [ -67.71311, -23.40627 ], [ -67.71275, -23.40598 ], [ -67.71156, -23.40462 ], [ -67.71074, -23.40227 ], [ -67.71051, -23.40189 ], [ -67.71014, -23.40157 ], [ -67.70808, -23.40061 ], [ -67.70766, -23.40049 ], [ -67.70638, -23.40038 ], [ -67.70495, -23.39981 ], [ -67.7039, -23.39904 ], [ -67.70351, -23.39849 ], [ -67.70329, -23.39797 ], [ -67.70307, -23.39691 ], [ -67.70293, -23.39541 ], [ -67.70337, -23.39311 ], [ -67.7037, -23.39214 ], [ -67.70447, -23.39064 ], [ -67.70554, -23.38931 ], [ -67.70689, -23.38818 ], [ -67.70728, -23.38772 ], [ -67.70755, -23.38757 ], [ -67.70809, -23.38664 ], [ -67.70882, -23.38598 ], [ -67.70973, -23.38417 ], [ -67.70999, -23.38293 ], [ -67.71, -23.38245 ], [ -67.70958, -23.38068 ], [ -67.70943, -23.38032 ], [ -67.70913, -23.37977 ], [ -67.70814, -23.37845 ], [ -67.70797, -23.37812 ], [ -67.70809, -23.37745 ], [ -67.7083, -23.37697 ], [ -67.70922, -23.37592 ], [ -67.70937, -23.37563 ], [ -67.70948, -23.37518 ], [ -67.70942, -23.37478 ], [ -67.70916, -23.37441 ], [ -67.70862, -23.37412 ], [ -67.70804, -23.3741 ], [ -67.70707, -23.37424 ], [ -67.70643, -23.37416 ], [ -67.70599, -23.37383 ], [ -67.70555, -23.37289 ], [ -67.70565, -23.37089 ], [ -67.70577, -23.3703 ], [ -67.70659, -23.36853 ], [ -67.70672, -23.36784 ], [ -67.70674, -23.36557 ], [ -67.70666, -23.36494 ], [ -67.70642, -23.36431 ], [ -67.70634, -23.36373 ], [ -67.70581, -23.36283 ], [ -67.70529, -23.3615 ], [ -67.70477, -23.3605 ], [ -67.70388, -23.35932 ], [ -67.70365, -23.35883 ], [ -67.70328, -23.35753 ], [ -67.70307, -23.35716 ], [ -67.70271, -23.35609 ], [ -67.70197, -23.35355 ], [ -67.70193, -23.35244 ], [ -67.70141, -23.35133 ], [ -67.70107, -23.35022 ], [ -67.70096, -23.34823 ], [ -67.70114, -23.34411 ], [ -67.70056, -23.34317 ], [ -67.69995, -23.34118 ], [ -67.69959, -23.34063 ], [ -67.69934, -23.33896 ], [ -67.69934, -23.33853 ], [ -67.69947, -23.33806 ], [ -67.6997, -23.33764 ], [ -67.70004, -23.33722 ], [ -67.70026, -23.3371 ], [ -67.70082, -23.33694 ], [ -67.70332, -23.33697 ], [ -67.7038, -23.33712 ], [ -67.70486, -23.33768 ], [ -67.70568, -23.33797 ], [ -67.70657, -23.33857 ], [ -67.70816, -23.33919 ], [ -67.70903, -23.33995 ], [ -67.70982, -23.34108 ], [ -67.70985, -23.34083 ], [ -67.70961, -23.34041 ], [ -67.70777, -23.33789 ], [ -67.70716, -23.33727 ], [ -67.70593, -23.33632 ], [ -67.7054, -23.33573 ], [ -67.70278, -23.33438 ], [ -67.70148, -23.33293 ], [ -67.70072, -23.33231 ], [ -67.70004, -23.33123 ], [ -67.69977, -23.33016 ], [ -67.6995, -23.32955 ], [ -67.69919, -23.32905 ], [ -67.69838, -23.32813 ], [ -67.69842, -23.32808 ], [ -67.69806, -23.32777 ], [ -67.69731, -23.32718 ], [ -67.69636, -23.32658 ], [ -67.69182, -23.32444 ], [ -67.69091, -23.32441 ], [ -67.68979, -23.3246 ], [ -67.68787, -23.32459 ], [ -67.68703, -23.3245 ], [ -67.68516, -23.32405 ], [ -67.68372, -23.32385 ], [ -67.68186, -23.32329 ], [ -67.67913, -23.32185 ], [ -67.67868, -23.32179 ], [ -67.67775, -23.32106 ], [ -67.67736, -23.32105 ], [ -67.67603, -23.32121 ], [ -67.67474, -23.32182 ], [ -67.6735, -23.32266 ], [ -67.67311, -23.32306 ], [ -67.67148, -23.32397 ], [ -67.67057, -23.32436 ], [ -67.66948, -23.32508 ], [ -67.66805, -23.32583 ], [ -67.667, -23.32651 ], [ -67.66604, -23.32779 ], [ -67.66546, -23.32931 ], [ -67.66497, -23.33024 ], [ -67.66503, -23.33096 ], [ -67.66521, -23.33125 ], [ -67.66535, -23.33132 ], [ -67.66639, -23.33164 ], [ -67.66731, -23.33161 ], [ -67.66774, -23.3315 ], [ -67.66934, -23.33054 ], [ -67.67086, -23.32983 ], [ -67.67314, -23.3294 ], [ -67.67444, -23.32934 ], [ -67.6751, -23.32922 ], [ -67.67744, -23.32929 ], [ -67.67851, -23.32942 ], [ -67.6796, -23.32985 ], [ -67.68102, -23.33027 ], [ -67.68188, -23.33073 ], [ -67.68318, -23.33107 ], [ -67.6855, -23.33213 ], [ -67.68714, -23.33275 ], [ -67.68845, -23.33346 ], [ -67.6907, -23.33438 ], [ -67.6913, -23.3347 ], [ -67.69259, -23.33571 ], [ -67.69404, -23.33657 ], [ -67.69483, -23.33721 ], [ -67.69504, -23.33726 ], [ -67.69575, -23.33899 ], [ -67.69641, -23.33981 ], [ -67.69704, -23.34078 ], [ -67.69725, -23.34086 ], [ -67.69737, -23.34109 ], [ -67.69786, -23.3431 ], [ -67.69843, -23.34478 ], [ -67.69827, -23.34668 ], [ -67.699, -23.34875 ], [ -67.70003, -23.3526 ], [ -67.70021, -23.35364 ], [ -67.70107, -23.35527 ], [ -67.70132, -23.356 ], [ -67.70135, -23.35594 ], [ -67.702, -23.35736 ], [ -67.70241, -23.35864 ], [ -67.70291, -23.35951 ], [ -67.70324, -23.36033 ], [ -67.70324, -23.36221 ], [ -67.70351, -23.36276 ], [ -67.70387, -23.36398 ], [ -67.70393, -23.36544 ], [ -67.70407, -23.36577 ], [ -67.70406, -23.36612 ], [ -67.70366, -23.36805 ], [ -67.70371, -23.36819 ], [ -67.70354, -23.36965 ], [ -67.70333, -23.37037 ], [ -67.7031, -23.37183 ], [ -67.70286, -23.37251 ], [ -67.70268, -23.37339 ], [ -67.70271, -23.37484 ], [ -67.7024, -23.3779 ], [ -67.70238, -23.37932 ], [ -67.70248, -23.38035 ], [ -67.70247, -23.38128 ], [ -67.70237, -23.38193 ], [ -67.70238, -23.38311 ], [ -67.70209, -23.38463 ], [ -67.7013, -23.38681 ], [ -67.70005, -23.38918 ], [ -67.69957, -23.38986 ], [ -67.69872, -23.3915 ], [ -67.69859, -23.39189 ], [ -67.69817, -23.39249 ], [ -67.69797, -23.39295 ], [ -67.69723, -23.39365 ], [ -67.69696, -23.39406 ], [ -67.69591, -23.39525 ], [ -67.69529, -23.39567 ], [ -67.69475, -23.39634 ], [ -67.69431, -23.39676 ], [ -67.69388, -23.39743 ], [ -67.69325, -23.39783 ], [ -67.69292, -23.39817 ], [ -67.69055, -23.39991 ], [ -67.68929, -23.40061 ], [ -67.68845, -23.40147 ], [ -67.68738, -23.40235 ], [ -67.68647, -23.40408 ], [ -67.68572, -23.40467 ], [ -67.6834, -23.40786 ], [ -67.6823, -23.41006 ], [ -67.68191, -23.41064 ], [ -67.6817, -23.41138 ], [ -67.68106, -23.41255 ], [ -67.68102, -23.41284 ], [ -67.68064, -23.41367 ], [ -67.68037, -23.41462 ], [ -67.67971, -23.41577 ], [ -67.67899, -23.41764 ], [ -67.67855, -23.41843 ], [ -67.6784, -23.41856 ], [ -67.67818, -23.4199 ], [ -67.67799, -23.42047 ], [ -67.67757, -23.42125 ], [ -67.67721, -23.42312 ], [ -67.67698, -23.42374 ], [ -67.67694, -23.42412 ], [ -67.67661, -23.42479 ], [ -67.67653, -23.42533 ], [ -67.67618, -23.42644 ], [ -67.67615, -23.42695 ], [ -67.67575, -23.42817 ], [ -67.67583, -23.42905 ], [ -67.67575, -23.43045 ], [ -67.67588, -23.43093 ], [ -67.67589, -23.43261 ], [ -67.67606, -23.43365 ], [ -67.67596, -23.43478 ], [ -67.67602, -23.4356 ], [ -67.67617, -23.43688 ], [ -67.67657, -23.43763 ], [ -67.67646, -23.43817 ], [ -67.6766, -23.43889 ], [ -67.67688, -23.43947 ], [ -67.67699, -23.44 ], [ -67.6781, -23.4427 ], [ -67.67827, -23.4433 ], [ -67.67888, -23.44469 ], [ -67.67933, -23.44623 ], [ -67.67942, -23.4463 ], [ -67.67971, -23.44779 ], [ -67.68027, -23.449 ], [ -67.68072, -23.4506 ], [ -67.681, -23.45121 ], [ -67.68119, -23.4519 ], [ -67.68206, -23.45382 ], [ -67.68266, -23.45579 ], [ -67.6833, -23.45731 ], [ -67.68356, -23.45806 ], [ -67.68367, -23.45896 ], [ -67.68382, -23.45945 ], [ -67.68425, -23.46056 ], [ -67.68477, -23.46157 ], [ -67.68512, -23.46257 ], [ -67.68628, -23.46465 ], [ -67.68742, -23.46599 ], [ -67.68892, -23.46711 ], [ -67.68946, -23.46774 ], [ -67.69067, -23.46871 ], [ -67.69154, -23.46913 ], [ -67.69286, -23.47004 ], [ -67.6936, -23.47072 ], [ -67.69476, -23.47131 ], [ -67.69537, -23.47175 ], [ -67.6966, -23.47245 ], [ -67.69712, -23.47239 ], [ -67.6975, -23.47216 ], [ -67.69802, -23.47161 ], [ -67.6988, -23.47043 ], [ -67.69916, -23.46712 ], [ -67.6994, -23.46624 ], [ -67.69952, -23.46431 ], [ -67.69989, -23.46213 ], [ -67.69995, -23.46142 ], [ -67.69985, -23.46001 ], [ -67.70005, -23.45826 ], [ -67.70034, -23.45728 ], [ -67.70035, -23.45666 ], [ -67.70057, -23.45557 ], [ -67.70109, -23.45387 ], [ -67.70172, -23.45223 ], [ -67.70195, -23.45135 ], [ -67.70212, -23.44998 ], [ -67.70213, -23.44834 ], [ -67.70232, -23.44731 ], [ -67.70264, -23.44675 ], [ -67.70283, -23.44606 ], [ -67.70312, -23.44545 ], [ -67.70382, -23.4446 ], [ -67.70426, -23.44386 ], [ -67.70485, -23.44253 ], [ -67.70489, -23.4422 ], [ -67.70635, -23.44 ], [ -67.70655, -23.43941 ], [ -67.70678, -23.43925 ], [ -67.7081, -23.43671 ], [ -67.7083, -23.43651 ], [ -67.70887, -23.43546 ], [ -67.70977, -23.43335 ], [ -67.71006, -23.43295 ], [ -67.71042, -23.4321 ], [ -67.71073, -23.43158 ], [ -67.71119, -23.43037 ], [ -67.71189, -23.429 ], [ -67.71255, -23.42802 ], [ -67.71322, -23.42678 ], [ -67.714, -23.42442 ], [ -67.7142, -23.42402 ], [ -67.71452, -23.42363 ], [ -67.71483, -23.42281 ], [ -67.71526, -23.42198 ], [ -67.71555, -23.42106 ], [ -67.71608, -23.42003 ], [ -67.71726, -23.41823 ], [ -67.71784, -23.41705 ], [ -67.71774, -23.41587 ], [ -67.71845, -23.41237 ], [ -67.71843, -23.41146 ], [ -67.71864, -23.41056 ], [ -67.71866, -23.40946 ], [ -67.7188, -23.40892 ], [ -67.7189, -23.4079 ], [ -67.71939, -23.40626 ], [ -67.7198, -23.40539 ], [ -67.71972, -23.40499 ], [ -67.71977, -23.40475 ], [ -67.72013, -23.40387 ], [ -67.72023, -23.40285 ], [ -67.72052, -23.40205 ], [ -67.7205, -23.40172 ], [ -67.72072, -23.40061 ], [ -67.72103, -23.39923 ], [ -67.72137, -23.39834 ], [ -67.72189, -23.39733 ], [ -67.72218, -23.39696 ], [ -67.72349, -23.39626 ], [ -67.72489, -23.39579 ], [ -67.72646, -23.39493 ] ] ] } },
{ "type": "Feature", "properties": { "objectid": 361, "peligro": "Alto", "volcan": null, "globalid_1": "6ebb10e9-6aa1-4c25-8541-562f92a31ca3", "Shape__Area": 0.0021658545823584063, "Shape__Length": 0.36915464901406136 }, "geometry": { "type": "Polygon", "coordinates": [ [ [ -67.76929, -23.34936 ], [ -67.76928, -23.34877 ], [ -67.76899, -23.3484 ], [ -67.76845, -23.3484 ], [ -67.76621, -23.34949 ], [ -67.76519, -23.35011 ], [ -67.76495, -23.35014 ], [ -67.76411, -23.35049 ], [ -67.76225, -23.35071 ], [ -67.76168, -23.3505 ], [ -67.76145, -23.35022 ], [ -67.76147, -23.34954 ], [ -67.7619, -23.34881 ], [ -67.76251, -23.3482 ], [ -67.76339, -23.34753 ], [ -67.76484, -23.34674 ], [ -67.76535, -23.34627 ], [ -67.76589, -23.34559 ], [ -67.76618, -23.34491 ], [ -67.76617, -23.34442 ], [ -67.76599, -23.34416 ], [ -67.76549, -23.34383 ], [ -67.76452, -23.3439 ], [ -67.76404, -23.34404 ], [ -67.76246, -23.34478 ], [ -67.761, -23.34566 ], [ -67.76008, -23.34675 ], [ -67.75964, -23.34711 ], [ -67.75914, -23.34731 ], [ -67.75806, -23.34759 ], [ -67.75746, -23.3479 ], [ -67.75686, -23.34809 ], [ -67.75627, -23.34845 ], [ -67.75589, -23.34882 ], [ -67.75491, -23.3494 ], [ -67.75445, -23.34959 ], [ -67.75143, -23.34994 ], [ -67.75049, -23.34989 ], [ -67.74969, -23.3497 ], [ -67.74918, -23.34943 ], [ -67.74895, -23.34919 ], [ -67.74861, -23.34854 ], [ -67.74863, -23.3481 ], [ -67.74881, -23.34772 ], [ -67.74924, -23.34703 ], [ -67.74978, -23.34645 ], [ -67.75019, -23.34584 ], [ -67.75106, -23.34447 ], [ -67.75182, -23.34306 ], [ -67.75231, -23.34146 ], [ -67.75291, -23.3403 ], [ -67.75346, -23.33882 ], [ -67.75443, -23.33707 ], [ -67.75618, -23.33492 ], [ -67.75661, -23.33428 ], [ -67.75701, -23.33397 ], [ -67.75741, -23.33341 ], [ -67.75808, -23.33284 ], [ -67.7584, -23.33237 ], [ -67.75997, -23.33065 ], [ -67.76028, -23.33012 ], [ -67.76193, -23.3286 ], [ -67.7631, -23.32802 ], [ -67.76443, -23.32779 ], [ -67.76717, -23.32762 ], [ -67.76863, -23.32772 ], [ -67.76951, -23.3279 ], [ -67.77125, -23.32857 ], [ -67.77242, -23.32937 ], [ -67.77418, -23.33024 ], [ -67.77488, -23.33047 ], [ -67.77555, -23.33045 ], [ -67.77658, -23.33013 ], [ -67.77754, -23.3295 ], [ -67.77931, -23.3277 ], [ -67.78002, -23.32682 ], [ -67.78084, -23.32612 ], [ -67.78235, -23.32495 ], [ -67.78276, -23.32474 ], [ -67.78349, -23.32454 ], [ -67.78413, -23.32446 ], [ -67.78495, -23.32456 ], [ -67.78645, -23.325 ], [ -67.78849, -23.32575 ], [ -67.78891, -23.32584 ], [ -67.78979, -23.32588 ], [ -67.79092, -23.32569 ], [ -67.79256, -23.3253 ], [ -67.79373, -23.3249 ], [ -67.79442, -23.32481 ], [ -67.80004, -23.32482 ], [ -67.8022, -23.32464 ], [ -67.8033, -23.32436 ], [ -67.80355, -23.32411 ], [ -67.80356, -23.32376 ], [ -67.80295, -23.32344 ], [ -67.80178, -23.32329 ], [ -67.80168, -23.32322 ], [ -67.79956, -23.32326 ], [ -67.79786, -23.32341 ], [ -67.79587, -23.32374 ], [ -67.79311, -23.32352 ], [ -67.79085, -23.32307 ], [ -67.79022, -23.32308 ], [ -67.78906, -23.32326 ], [ -67.78723, -23.32266 ], [ -67.78603, -23.32265 ], [ -67.78546, -23.32238 ], [ -67.78224, -23.32153 ], [ -67.77813, -23.32097 ], [ -67.77751, -23.3208 ], [ -67.77642, -23.32029 ], [ -67.77501, -23.31982 ], [ -67.7732, -23.31888 ], [ -67.77171, -23.31841 ], [ -67.77025, -23.31783 ], [ -67.76899, -23.3172 ], [ -67.76827, -23.31696 ], [ -67.76608, -23.31542 ], [ -67.76548, -23.31485 ], [ -67.76478, -23.31449 ], [ -67.76438, -23.31436 ], [ -67.76295, -23.31445 ], [ -67.7616, -23.31497 ], [ -67.76081, -23.31548 ], [ -67.75989, -23.31632 ], [ -67.75969, -23.31662 ], [ -67.75902, -23.31713 ], [ -67.75902, -23.31725 ], [ -67.75868, -23.31768 ], [ -67.75845, -23.31817 ], [ -67.75821, -23.3196 ], [ -67.7577, -23.32089 ], [ -67.7572, -23.32176 ], [ -67.75663, -23.32253 ], [ -67.7553, -23.32336 ], [ -67.75517, -23.32353 ], [ -67.75392, -23.32392 ], [ -67.7523, -23.32476 ], [ -67.75102, -23.32578 ], [ -67.75009, -23.32686 ], [ -67.74984, -23.327 ], [ -67.74966, -23.32786 ], [ -67.74966, -23.32835 ], [ -67.74949, -23.32902 ], [ -67.74922, -23.32958 ], [ -67.74876, -23.33014 ], [ -67.74774, -23.33081 ], [ -67.74666, -23.33123 ], [ -67.74345, -23.33291 ], [ -67.74242, -23.33321 ], [ -67.74096, -23.33379 ], [ -67.73916, -23.33469 ], [ -67.73872, -23.33504 ], [ -67.73791, -23.33552 ], [ -67.73755, -23.33588 ], [ -67.7362, -23.33682 ], [ -67.73521, -23.33789 ], [ -67.73436, -23.33851 ], [ -67.7335, -23.33888 ], [ -67.73243, -23.33919 ], [ -67.73064, -23.33933 ], [ -67.73003, -23.33946 ], [ -67.72969, -23.33967 ], [ -67.7282, -23.34009 ], [ -67.72752, -23.34052 ], [ -67.72684, -23.34083 ], [ -67.72618, -23.34157 ], [ -67.72589, -23.34214 ], [ -67.72549, -23.34333 ], [ -67.72515, -23.3452 ], [ -67.72488, -23.3459 ], [ -67.72418, -23.34682 ], [ -67.72225, -23.3504 ], [ -67.7216, -23.35216 ], [ -67.72139, -23.35285 ], [ -67.7214, -23.35315 ], [ -67.72122, -23.35337 ], [ -67.72097, -23.35439 ], [ -67.7207, -23.35502 ], [ -67.72058, -23.35729 ], [ -67.72064, -23.35781 ], [ -67.72064, -23.35972 ], [ -67.72076, -23.3603 ], [ -67.72075, -23.36073 ], [ -67.72071, -23.3615 ], [ -67.72044, -23.36218 ], [ -67.72046, -23.36377 ], [ -67.72072, -23.36473 ], [ -67.72091, -23.36513 ], [ -67.72239, -23.36687 ], [ -67.7215, -23.36782 ], [ -67.72129, -23.3683 ], [ -67.72118, -23.36911 ], [ -67.72078, -23.37026 ], [ -67.72051, -23.37177 ], [ -67.72045, -23.37338 ], [ -67.72016, -23.3753 ], [ -67.72002, -23.37562 ], [ -67.71935, -23.37653 ], [ -67.71895, -23.37689 ], [ -67.71858, -23.37739 ], [ -67.71806, -23.37779 ], [ -67.71736, -23.37812 ], [ -67.71551, -23.37879 ], [ -67.71361, -23.3799 ], [ -67.71236, -23.38117 ], [ -67.71166, -23.38225 ], [ -67.71145, -23.38348 ], [ -67.71116, -23.38397 ], [ -67.71099, -23.38444 ], [ -67.7106, -23.38506 ], [ -67.7091, -23.38655 ], [ -67.70847, -23.38707 ], [ -67.70728, -23.38772 ], [ -67.7071, -23.38789 ], [ -67.70697, -23.38834 ], [ -67.70698, -23.38859 ], [ -67.70718, -23.38884 ], [ -67.70762, -23.38906 ], [ -67.70831, -23.38925 ], [ -67.70954, -23.38946 ], [ -67.70993, -23.38985 ], [ -67.7099, -23.39082 ], [ -67.70965, -23.39219 ], [ -67.70931, -23.39316 ], [ -67.70819, -23.39523 ], [ -67.70807, -23.39565 ], [ -67.70793, -23.39732 ], [ -67.70814, -23.39789 ], [ -67.70881, -23.39826 ], [ -67.70972, -23.39818 ], [ -67.71135, -23.39765 ], [ -67.71217, -23.39771 ], [ -67.71271, -23.39795 ], [ -67.71283, -23.39804 ], [ -67.71321, -23.39866 ], [ -67.71342, -23.39934 ], [ -67.71343, -23.39963 ], [ -67.71397, -23.40094 ], [ -67.7143, -23.40117 ], [ -67.71486, -23.40122 ], [ -67.71544, -23.40076 ], [ -67.71584, -23.40055 ], [ -67.71657, -23.39961 ], [ -67.7173, -23.3989 ], [ -67.71817, -23.39782 ], [ -67.7189, -23.39712 ], [ -67.72136, -23.39611 ], [ -67.72219, -23.39544 ], [ -67.72396, -23.3943 ], [ -67.7246, -23.39399 ], [ -67.72665, -23.39347 ], [ -67.72751, -23.39316 ], [ -67.72892, -23.39278 ], [ -67.72982, -23.39236 ], [ -67.73069, -23.39144 ], [ -67.73098, -23.39094 ], [ -67.73108, -23.39058 ], [ -67.73125, -23.3904 ], [ -67.73146, -23.38958 ], [ -67.73163, -23.38819 ], [ -67.73191, -23.38753 ], [ -67.73293, -23.38617 ], [ -67.73339, -23.38572 ], [ -67.73379, -23.38549 ], [ -67.7347, -23.38275 ], [ -67.73519, -23.38171 ], [ -67.73594, -23.37968 ], [ -67.73701, -23.37778 ], [ -67.73755, -23.37705 ], [ -67.7385, -23.37614 ], [ -67.73971, -23.37533 ], [ -67.74036, -23.3751 ], [ -67.7408, -23.37505 ], [ -67.74155, -23.3751 ], [ -67.74248, -23.37555 ], [ -67.74334, -23.37638 ], [ -67.74387, -23.37717 ], [ -67.74434, -23.37718 ], [ -67.74459, -23.37708 ], [ -67.74538, -23.37542 ], [ -67.74652, -23.37416 ], [ -67.74724, -23.37375 ], [ -67.74764, -23.37337 ], [ -67.74816, -23.37304 ], [ -67.74903, -23.37263 ], [ -67.74959, -23.37252 ], [ -67.75007, -23.37217 ], [ -67.75025, -23.37188 ], [ -67.75053, -23.37071 ], [ -67.74962, -23.36871 ], [ -67.74939, -23.3679 ], [ -67.74946, -23.36665 ], [ -67.74982, -23.36606 ], [ -67.75025, -23.36572 ], [ -67.75119, -23.36457 ], [ -67.75163, -23.36415 ], [ -67.75235, -23.36365 ], [ -67.753, -23.36305 ], [ -67.75345, -23.36282 ], [ -67.75431, -23.36261 ], [ -67.75552, -23.36185 ], [ -67.75645, -23.36101 ], [ -67.75758, -23.35948 ], [ -67.75851, -23.35879 ], [ -67.7586, -23.35859 ], [ -67.75891, -23.35839 ], [ -67.75948, -23.35778 ], [ -67.76056, -23.35725 ], [ -67.76103, -23.3569 ], [ -67.76168, -23.35668 ], [ -67.76296, -23.35593 ], [ -67.76453, -23.35522 ], [ -67.7648, -23.35499 ], [ -67.76572, -23.35464 ], [ -67.76773, -23.35298 ], [ -67.76823, -23.35234 ], [ -67.76871, -23.35189 ], [ -67.76928, -23.35073 ], [ -67.76942, -23.34963 ], [ -67.76929, -23.34936 ] ] ] } },
{ "type": "Feature", "properties": { "objectid": 426, "peligro": "Medio", "volcan": null, "globalid_1": "6d5dc359-f124-4e97-9eb5-6dc2eea4989d", "Shape__Area": 0.000746174362916463, "Shape__Length": 0.25704901594927865 }, "geometry": { "type": "Polygon", "coordinates": [ [ [ -67.70982, -23.34108 ], [ -67.70903, -23.33995 ], [ -67.70816, -23.33919 ], [ -67.70657, -23.33857 ], [ -67.70568, -23.33797 ], [ -67.70486, -23.33768 ], [ -67.7038, -23.33712 ], [ -67.70332, -23.33697 ], [ -67.70094, -23.33694 ], [ -67.70043, -23.33704 ], [ -67.70007, -23.33719 ], [ -67.69974, -23.33758 ], [ -67.69937, -23.33835 ], [ -67.69934, -23.33896 ], [ -67.69959, -23.34063 ], [ -67.69995, -23.34118 ], [ -67.70056, -23.34317 ], [ -67.70102, -23.34384 ], [ -67.70116, -23.34425 ], [ -67.70104, -23.34542 ], [ -67.70096, -23.34887 ], [ -67.70116, -23.35061 ], [ -67.70193, -23.35244 ], [ -67.70197, -23.35355 ], [ -67.70271, -23.35609 ], [ -67.70307, -23.35716 ], [ -67.70328, -23.35753 ], [ -67.70365, -23.35883 ], [ -67.70388, -23.35932 ], [ -67.70477, -23.3605 ], [ -67.70529, -23.3615 ], [ -67.70581, -23.36283 ], [ -67.70634, -23.36373 ], [ -67.70642, -23.36431 ], [ -67.70666, -23.36494 ], [ -67.70674, -23.36557 ], [ -67.70672, -23.36784 ], [ -67.70659, -23.36853 ], [ -67.70577, -23.3703 ], [ -67.70565, -23.37089 ], [ -67.70555, -23.37289 ], [ -67.70599, -23.37383 ], [ -67.70624, -23.37406 ], [ -67.70669, -23.37424 ], [ -67.70736, -23.37422 ], [ -67.70811, -23.37409 ], [ -67.70862, -23.37412 ], [ -67.70916, -23.37441 ], [ -67.70948, -23.37493 ], [ -67.70943, -23.37543 ], [ -67.70927, -23.37585 ], [ -67.7083, -23.37697 ], [ -67.70809, -23.37745 ], [ -67.70797, -23.37812 ], [ -67.70814, -23.37845 ], [ -67.70913, -23.37977 ], [ -67.70954, -23.38055 ], [ -67.71, -23.3824 ], [ -67.70999, -23.38293 ], [ -67.70973, -23.38417 ], [ -67.70939, -23.38492 ], [ -67.70878, -23.38604 ], [ -67.70809, -23.38664 ], [ -67.70755, -23.38757 ], [ -67.70847, -23.38707 ], [ -67.7091, -23.38655 ], [ -67.7106, -23.38506 ], [ -67.71099, -23.38444 ], [ -67.71116, -23.38397 ], [ -67.71145, -23.38348 ], [ -67.71166, -23.38225 ], [ -67.71236, -23.38117 ], [ -67.71361, -23.3799 ], [ -67.71551, -23.37879 ], [ -67.71736, -23.37812 ], [ -67.71806, -23.37779 ], [ -67.71858, -23.37739 ], [ -67.71895, -23.37689 ], [ -67.71935, -23.37653 ], [ -67.72002, -23.37562 ], [ -67.72016, -23.3753 ], [ -67.72045, -23.37338 ], [ -67.72051, -23.37177 ], [ -67.72078, -23.37026 ], [ -67.72118, -23.36911 ], [ -67.72129, -23.3683 ], [ -67.7215, -23.36782 ], [ -67.72239, -23.36687 ], [ -67.72091, -23.36513 ], [ -67.72072, -23.36473 ], [ -67.72046, -23.36377 ], [ -67.72044, -23.36218 ], [ -67.72071, -23.3615 ], [ -67.72075, -23.36073 ], [ -67.72076, -23.3603 ], [ -67.72064, -23.35972 ], [ -67.72064, -23.35781 ], [ -67.72058, -23.35729 ], [ -67.7207, -23.35502 ], [ -67.72097, -23.35439 ], [ -67.72122, -23.35337 ], [ -67.7214, -23.35315 ], [ -67.72139, -23.35285 ], [ -67.72165, -23.352 ], [ -67.72247, -23.34992 ], [ -67.72275, -23.34957 ], [ -67.72418, -23.34682 ], [ -67.72488, -23.3459 ], [ -67.72509, -23.34541 ], [ -67.72549, -23.34333 ], [ -67.72589, -23.34214 ], [ -67.72639, -23.34128 ], [ -67.72692, -23.34077 ], [ -67.72752, -23.34052 ], [ -67.7282, -23.34009 ], [ -67.72969, -23.33967 ], [ -67.73022, -23.3394 ], [ -67.73243, -23.33919 ], [ -67.7335, -23.33888 ], [ -67.73436, -23.33851 ], [ -67.73521, -23.33789 ], [ -67.7362, -23.33682 ], [ -67.73755, -23.33588 ], [ -67.73791, -23.33552 ], [ -67.73872, -23.33504 ], [ -67.73916, -23.33469 ], [ -67.74096, -23.33379 ], [ -67.74242, -23.33321 ], [ -67.74345, -23.33291 ], [ -67.74666, -23.33123 ], [ -67.74774, -23.33081 ], [ -67.74876, -23.33014 ], [ -67.74922, -23.32958 ], [ -67.74949, -23.32902 ], [ -67.74966, -23.32835 ], [ -67.74966, -23.32786 ], [ -67.74981, -23.32703 ], [ -67.75009, -23.32686 ], [ -67.75102, -23.32578 ], [ -67.75246, -23.32466 ], [ -67.75392, -23.32392 ], [ -67.75517, -23.32353 ], [ -67.75536, -23.32333 ], [ -67.7565, -23.32266 ], [ -67.75678, -23.32236 ], [ -67.7577, -23.32089 ], [ -67.75821, -23.3196 ], [ -67.75845, -23.31817 ], [ -67.75868, -23.31768 ], [ -67.75902, -23.31725 ], [ -67.75902, -23.31713 ], [ -67.75969, -23.31662 ], [ -67.75989, -23.31632 ], [ -67.76081, -23.31548 ], [ -67.7616, -23.31497 ], [ -67.76268, -23.31452 ], [ -67.76333, -23.31438 ], [ -67.76438, -23.31436 ], [ -67.76457, -23.31442 ], [ -67.76417, -23.31382 ], [ -67.76404, -23.31342 ], [ -67.76357, -23.31282 ], [ -67.76165, -23.3121 ], [ -67.7584, -23.31209 ], [ -67.75702, -23.31238 ], [ -67.75666, -23.31256 ], [ -67.75624, -23.31297 ], [ -67.75538, -23.31426 ], [ -67.75504, -23.31525 ], [ -67.75489, -23.31601 ], [ -67.75489, -23.31642 ], [ -67.75517, -23.31719 ], [ -67.7558, -23.31835 ], [ -67.75582, -23.31871 ], [ -67.75545, -23.31983 ], [ -67.75519, -23.32036 ], [ -67.7551, -23.32087 ], [ -67.75489, -23.32138 ], [ -67.75468, -23.32161 ], [ -67.75343, -23.3222 ], [ -67.75233, -23.32292 ], [ -67.75139, -23.32379 ], [ -67.75073, -23.32415 ], [ -67.75012, -23.32484 ], [ -67.74948, -23.32526 ], [ -67.74819, -23.32632 ], [ -67.74708, -23.32767 ], [ -67.74517, -23.32883 ], [ -67.74425, -23.32955 ], [ -67.74339, -23.33003 ], [ -67.74151, -23.33077 ], [ -67.74089, -23.33111 ], [ -67.73957, -23.33129 ], [ -67.73862, -23.33164 ], [ -67.73771, -23.33208 ], [ -67.73693, -23.33256 ], [ -67.73643, -23.33298 ], [ -67.73537, -23.33427 ], [ -67.73433, -23.33578 ], [ -67.73431, -23.33601 ], [ -67.73309, -23.33674 ], [ -67.73253, -23.3372 ], [ -67.73173, -23.33769 ], [ -67.73095, -23.33809 ], [ -67.72943, -23.33867 ], [ -67.7278, -23.33863 ], [ -67.72697, -23.3385 ], [ -67.72596, -23.33846 ], [ -67.72554, -23.33861 ], [ -67.72517, -23.339 ], [ -67.725, -23.33957 ], [ -67.72499, -23.34109 ], [ -67.7251, -23.3417 ], [ -67.72495, -23.34269 ], [ -67.72426, -23.34417 ], [ -67.7235, -23.34523 ], [ -67.72327, -23.34571 ], [ -67.72291, -23.34605 ], [ -67.72095, -23.3475 ], [ -67.72033, -23.34813 ], [ -67.71954, -23.34866 ], [ -67.71816, -23.34908 ], [ -67.71735, -23.34911 ], [ -67.71614, -23.34893 ], [ -67.71557, -23.34877 ], [ -67.71418, -23.34814 ], [ -67.71268, -23.34638 ], [ -67.7121, -23.34552 ], [ -67.71212, -23.34543 ], [ -67.71199, -23.34517 ], [ -67.71147, -23.34448 ], [ -67.71071, -23.34323 ], [ -67.71045, -23.34245 ], [ -67.71005, -23.3417 ], [ -67.70982, -23.34108 ] ] ] } },
{ "type": "Feature", "properties": { "objectid": 427, "peligro": "Medio", "volcan": null, "globalid_1": "1b28a8cb-9c58-4512-85c0-17555e78e822", "Shape__Area": 0.0029234297550146948, "Shape__Length": 0.67311364968275655 }, "geometry": { "type": "Polygon", "coordinates": [ [ [ -67.80307, -23.32349 ], [ -67.80356, -23.32376 ], [ -67.80358, -23.32401 ], [ -67.8035, -23.32419 ], [ -67.80321, -23.32441 ], [ -67.80241, -23.3246 ], [ -67.80004, -23.32482 ], [ -67.79442, -23.32481 ], [ -67.79373, -23.3249 ], [ -67.79256, -23.3253 ], [ -67.79092, -23.32569 ], [ -67.78979, -23.32588 ], [ -67.78891, -23.32584 ], [ -67.78849, -23.32575 ], [ -67.78645, -23.325 ], [ -67.78495, -23.32456 ], [ -67.78413, -23.32446 ], [ -67.78349, -23.32454 ], [ -67.78276, -23.32474 ], [ -67.78235, -23.32495 ], [ -67.78084, -23.32612 ], [ -67.78002, -23.32682 ], [ -67.77931, -23.3277 ], [ -67.77754, -23.3295 ], [ -67.77658, -23.33013 ], [ -67.77555, -23.33045 ], [ -67.77488, -23.33047 ], [ -67.77418, -23.33024 ], [ -67.77242, -23.32937 ], [ -67.77125, -23.32857 ], [ -67.76951, -23.3279 ], [ -67.76863, -23.32772 ], [ -67.76717, -23.32762 ], [ -67.76443, -23.32779 ], [ -67.7631, -23.32802 ], [ -67.76193, -23.3286 ], [ -67.76028, -23.33012 ], [ -67.75997, -23.33065 ], [ -67.7584, -23.33237 ], [ -67.75808, -23.33284 ], [ -67.75741, -23.33341 ], [ -67.75701, -23.33397 ], [ -67.75661, -23.33428 ], [ -67.75618, -23.33492 ], [ -67.75443, -23.33707 ], [ -67.75346, -23.33882 ], [ -67.75291, -23.3403 ], [ -67.75231, -23.34146 ], [ -67.75182, -23.34306 ], [ -67.75106, -23.34447 ], [ -67.75019, -23.34584 ], [ -67.74978, -23.34645 ], [ -67.74924, -23.34703 ], [ -67.74881, -23.34772 ], [ -67.74863, -23.3481 ], [ -67.74861, -23.34854 ], [ -67.74895, -23.34919 ], [ -67.74918, -23.34943 ], [ -67.74969, -23.3497 ], [ -67.75049, -23.34989 ], [ -67.75143, -23.34994 ], [ -67.75445, -23.34959 ], [ -67.75491, -23.3494 ], [ -67.75589, -23.34882 ], [ -67.75627, -23.34845 ], [ -67.75686, -23.34809 ], [ -67.75746, -23.3479 ], [ -67.75806, -23.34759 ], [ -67.75914, -23.34731 ], [ -67.75964, -23.34711 ], [ -67.76008, -23.34675 ], [ -67.761, -23.34566 ], [ -67.76246, -23.34478 ], [ -67.76404, -23.34404 ], [ -67.76452, -23.3439 ], [ -67.76549, -23.34383 ], [ -67.76599, -23.34416 ], [ -67.76617, -23.34442 ], [ -67.76618, -23.34491 ], [ -67.76589, -23.34559 ], [ -67.76535, -23.34627 ], [ -67.76484, -23.34674 ], [ -67.76339, -23.34753 ], [ -67.76251, -23.3482 ], [ -67.7619, -23.34881 ], [ -67.76147, -23.34954 ], [ -67.76144, -23.3502 ], [ -67.76168, -23.3505 ], [ -67.76225, -23.35071 ], [ -67.76392, -23.35053 ], [ -67.76519, -23.35011 ], [ -67.76784, -23.34864 ], [ -67.76845, -23.3484 ], [ -67.76897, -23.34839 ], [ -67.76918, -23.34859 ], [ -67.76932, -23.34886 ], [ -67.76929, -23.34936 ], [ -67.76942, -23.34963 ], [ -67.76928, -23.35073 ], [ -67.7687, -23.35191 ], [ -67.76823, -23.35234 ], [ -67.76773, -23.35298 ], [ -67.76583, -23.35457 ], [ -67.76536, -23.35483 ], [ -67.7648, -23.35499 ], [ -67.76453, -23.35522 ], [ -67.76296, -23.35593 ], [ -67.76168, -23.35668 ], [ -67.76103, -23.3569 ], [ -67.76056, -23.35725 ], [ -67.75948, -23.35778 ], [ -67.75891, -23.35839 ], [ -67.7586, -23.35859 ], [ -67.75851, -23.35879 ], [ -67.75758, -23.35948 ], [ -67.75645, -23.36101 ], [ -67.75552, -23.36185 ], [ -67.75431, -23.36261 ], [ -67.75351, -23.3628 ], [ -67.75307, -23.36301 ], [ -67.75119, -23.36457 ], [ -67.75069, -23.36526 ], [ -67.74962, -23.36632 ], [ -67.74948, -23.36658 ], [ -67.7494, -23.36712 ], [ -67.74939, -23.3679 ], [ -67.74958, -23.36862 ], [ -67.75053, -23.37071 ], [ -67.75021, -23.37197 ], [ -67.75003, -23.37221 ], [ -67.74957, -23.37253 ], [ -67.74903, -23.37263 ], [ -67.74816, -23.37304 ], [ -67.74764, -23.37337 ], [ -67.74724, -23.37375 ], [ -67.74652, -23.37416 ], [ -67.74538, -23.37542 ], [ -67.74459, -23.37708 ], [ -67.74431, -23.37718 ], [ -67.74384, -23.37716 ], [ -67.74334, -23.37638 ], [ -67.74253, -23.37559 ], [ -67.7417, -23.37515 ], [ -67.74115, -23.37506 ], [ -67.74038, -23.3751 ], [ -67.73974, -23.37531 ], [ -67.7385, -23.37614 ], [ -67.73768, -23.37691 ], [ -67.73701, -23.37778 ], [ -67.73594, -23.37968 ], [ -67.73519, -23.38171 ], [ -67.7347, -23.38275 ], [ -67.73379, -23.38549 ], [ -67.73339, -23.38572 ], [ -67.73293, -23.38617 ], [ -67.73191, -23.38753 ], [ -67.73163, -23.38819 ], [ -67.73146, -23.38958 ], [ -67.73125, -23.3904 ], [ -67.73108, -23.39058 ], [ -67.73098, -23.39094 ], [ -67.73069, -23.39144 ], [ -67.72982, -23.39236 ], [ -67.72892, -23.39278 ], [ -67.72751, -23.39316 ], [ -67.72665, -23.39347 ], [ -67.7246, -23.39399 ], [ -67.72396, -23.3943 ], [ -67.72219, -23.39544 ], [ -67.72136, -23.39611 ], [ -67.7189, -23.39712 ], [ -67.71817, -23.39782 ], [ -67.7173, -23.3989 ], [ -67.71657, -23.39961 ], [ -67.71584, -23.40055 ], [ -67.71544, -23.40076 ], [ -67.71486, -23.40122 ], [ -67.71451, -23.40123 ], [ -67.71418, -23.40112 ], [ -67.71397, -23.40094 ], [ -67.71343, -23.39963 ], [ -67.71342, -23.39934 ], [ -67.71321, -23.39866 ], [ -67.71283, -23.39804 ], [ -67.71271, -23.39795 ], [ -67.71217, -23.39771 ], [ -67.71135, -23.39765 ], [ -67.70972, -23.39818 ], [ -67.70881, -23.39826 ], [ -67.70814, -23.39789 ], [ -67.70793, -23.39732 ], [ -67.70807, -23.39565 ], [ -67.70819, -23.39523 ], [ -67.70931, -23.39316 ], [ -67.70965, -23.39219 ], [ -67.7099, -23.39082 ], [ -67.70993, -23.38985 ], [ -67.70954, -23.38946 ], [ -67.70831, -23.38925 ], [ -67.70734, -23.38895 ], [ -67.707, -23.38864 ], [ -67.70702, -23.38803 ], [ -67.70554, -23.38931 ], [ -67.70453, -23.39056 ], [ -67.70379, -23.39194 ], [ -67.70347, -23.39273 ], [ -67.70293, -23.39541 ], [ -67.70293, -23.39582 ], [ -67.70315, -23.39747 ], [ -67.70329, -23.39797 ], [ -67.70351, -23.39849 ], [ -67.7039, -23.39904 ], [ -67.70485, -23.39975 ], [ -67.70553, -23.4001 ], [ -67.70638, -23.40038 ], [ -67.70766, -23.40049 ], [ -67.70808, -23.40061 ], [ -67.71014, -23.40157 ], [ -67.71051, -23.40189 ], [ -67.71074, -23.40227 ], [ -67.71156, -23.40462 ], [ -67.71275, -23.40598 ], [ -67.7135, -23.40652 ], [ -67.7138, -23.40666 ], [ -67.71474, -23.4066 ], [ -67.71559, -23.40639 ], [ -67.71636, -23.40603 ], [ -67.71738, -23.40468 ], [ -67.71771, -23.40375 ], [ -67.7181, -23.40218 ], [ -67.71813, -23.40074 ], [ -67.71865, -23.39893 ], [ -67.71903, -23.39842 ], [ -67.72025, -23.39714 ], [ -67.72125, -23.39651 ], [ -67.72173, -23.39594 ], [ -67.7224, -23.39551 ], [ -67.72316, -23.3954 ], [ -67.72454, -23.39488 ], [ -67.72528, -23.39477 ], [ -67.72617, -23.39483 ], [ -67.72748, -23.3952 ], [ -67.729, -23.39531 ], [ -67.73012, -23.39521 ], [ -67.7316, -23.39496 ], [ -67.732, -23.39482 ], [ -67.73257, -23.39439 ], [ -67.73362, -23.39329 ], [ -67.73627, -23.39244 ], [ -67.73656, -23.3921 ], [ -67.73673, -23.39145 ], [ -67.73674, -23.39085 ], [ -67.73644, -23.39042 ], [ -67.73636, -23.39003 ], [ -67.73621, -23.38658 ], [ -67.73628, -23.38552 ], [ -67.73662, -23.38405 ], [ -67.73726, -23.38263 ], [ -67.73856, -23.3807 ], [ -67.73945, -23.37898 ], [ -67.74083, -23.37721 ], [ -67.74108, -23.37698 ], [ -67.74145, -23.37684 ], [ -67.74198, -23.37686 ], [ -67.74242, -23.37699 ], [ -67.74352, -23.3778 ], [ -67.7444, -23.37885 ], [ -67.74474, -23.37992 ], [ -67.7447, -23.38067 ], [ -67.74455, -23.38112 ], [ -67.74454, -23.38172 ], [ -67.74433, -23.38253 ], [ -67.74332, -23.38364 ], [ -67.74186, -23.38447 ], [ -67.74167, -23.38467 ], [ -67.74153, -23.38494 ], [ -67.74129, -23.38597 ], [ -67.74126, -23.3864 ], [ -67.74133, -23.38673 ], [ -67.74205, -23.38772 ], [ -67.7436, -23.3891 ], [ -67.74378, -23.38937 ], [ -67.74494, -23.39032 ], [ -67.74513, -23.39071 ], [ -67.74567, -23.39141 ], [ -67.74648, -23.3929 ], [ -67.74817, -23.39499 ], [ -67.7489, -23.3955 ], [ -67.74954, -23.3962 ], [ -67.75116, -23.39712 ], [ -67.75193, -23.39724 ], [ -67.7537, -23.39728 ], [ -67.75539, -23.39704 ], [ -67.75681, -23.39705 ], [ -67.75756, -23.39714 ], [ -67.75844, -23.39757 ], [ -67.75919, -23.3983 ], [ -67.75987, -23.39928 ], [ -67.76044, -23.39961 ], [ -67.76073, -23.39996 ], [ -67.76203, -23.40058 ], [ -67.76257, -23.40074 ], [ -67.76394, -23.40153 ], [ -67.76451, -23.40167 ], [ -67.76574, -23.40171 ], [ -67.76638, -23.40183 ], [ -67.76699, -23.40182 ], [ -67.76793, -23.40164 ], [ -67.76843, -23.40167 ], [ -67.77154, -23.4033 ], [ -67.77186, -23.40336 ], [ -67.77235, -23.40327 ], [ -67.77367, -23.40284 ], [ -67.77477, -23.4023 ], [ -67.77513, -23.40195 ], [ -67.77618, -23.40146 ], [ -67.77808, -23.40074 ], [ -67.77866, -23.4004 ], [ -67.77924, -23.39995 ], [ -67.78033, -23.39883 ], [ -67.78124, -23.39859 ], [ -67.78277, -23.39867 ], [ -67.78352, -23.39863 ], [ -67.78564, -23.39819 ], [ -67.78682, -23.39779 ], [ -67.78755, -23.39708 ], [ -67.78824, -23.3968 ], [ -67.78843, -23.39659 ], [ -67.78868, -23.39611 ], [ -67.78867, -23.39569 ], [ -67.7885, -23.39534 ], [ -67.78803, -23.3951 ], [ -67.78689, -23.3952 ], [ -67.7857, -23.39514 ], [ -67.7852, -23.39492 ], [ -67.78505, -23.39434 ], [ -67.78509, -23.39409 ], [ -67.78529, -23.39392 ], [ -67.78623, -23.39365 ], [ -67.78784, -23.39275 ], [ -67.78822, -23.39238 ], [ -67.78899, -23.39127 ], [ -67.78901, -23.39062 ], [ -67.78886, -23.39015 ], [ -67.7886, -23.38979 ], [ -67.78783, -23.38915 ], [ -67.78686, -23.38871 ], [ -67.78584, -23.38864 ], [ -67.78475, -23.38879 ], [ -67.783, -23.38876 ], [ -67.78143, -23.38884 ], [ -67.78089, -23.38901 ], [ -67.78038, -23.38929 ], [ -67.7794, -23.38951 ], [ -67.77888, -23.38948 ], [ -67.77839, -23.38922 ], [ -67.77814, -23.38897 ], [ -67.77734, -23.38801 ], [ -67.77731, -23.38775 ], [ -67.77696, -23.38705 ], [ -67.77667, -23.38673 ], [ -67.77618, -23.38643 ], [ -67.77427, -23.38577 ], [ -67.77336, -23.38512 ], [ -67.77271, -23.38479 ], [ -67.77189, -23.3846 ], [ -67.77137, -23.38427 ], [ -67.77057, -23.38399 ], [ -67.76943, -23.38393 ], [ -67.76856, -23.38417 ], [ -67.76758, -23.38416 ], [ -67.76723, -23.38405 ], [ -67.76517, -23.38296 ], [ -67.76343, -23.38181 ], [ -67.76174, -23.3809 ], [ -67.7598, -23.38007 ], [ -67.75826, -23.37914 ], [ -67.75776, -23.37882 ], [ -67.75734, -23.37833 ], [ -67.75727, -23.3778 ], [ -67.75744, -23.37758 ], [ -67.75829, -23.37702 ], [ -67.75858, -23.37685 ], [ -67.75889, -23.3768 ], [ -67.7593, -23.37684 ], [ -67.7603, -23.37722 ], [ -67.76192, -23.37737 ], [ -67.76512, -23.37736 ], [ -67.76568, -23.37726 ], [ -67.76711, -23.3774 ], [ -67.76805, -23.37761 ], [ -67.76907, -23.37826 ], [ -67.7697, -23.37843 ], [ -67.7709, -23.37855 ], [ -67.77238, -23.37909 ], [ -67.77441, -23.3797 ], [ -67.77591, -23.37994 ], [ -67.77705, -23.38045 ], [ -67.77808, -23.38075 ], [ -67.77895, -23.38075 ], [ -67.77946, -23.38048 ], [ -67.77987, -23.37987 ], [ -67.77992, -23.37958 ], [ -67.77982, -23.37891 ], [ -67.77969, -23.37861 ], [ -67.77911, -23.37777 ], [ -67.77836, -23.377 ], [ -67.77819, -23.37666 ], [ -67.77814, -23.37483 ], [ -67.77833, -23.37424 ], [ -67.77864, -23.37396 ], [ -67.77904, -23.37384 ], [ -67.78023, -23.37394 ], [ -67.78157, -23.37371 ], [ -67.78268, -23.37391 ], [ -67.78494, -23.37402 ], [ -67.78623, -23.37428 ], [ -67.78678, -23.37447 ], [ -67.78804, -23.37469 ], [ -67.78891, -23.37498 ], [ -67.79037, -23.37562 ], [ -67.79123, -23.3756 ], [ -67.79339, -23.37533 ], [ -67.79397, -23.37509 ], [ -67.79416, -23.37483 ], [ -67.79417, -23.37441 ], [ -67.79389, -23.37391 ], [ -67.79365, -23.3738 ], [ -67.79259, -23.37392 ], [ -67.79139, -23.37383 ], [ -67.79069, -23.37336 ], [ -67.7907, -23.37298 ], [ -67.79092, -23.37267 ], [ -67.79179, -23.37233 ], [ -67.79334, -23.37233 ], [ -67.79475, -23.37221 ], [ -67.79567, -23.3718 ], [ -67.79693, -23.37183 ], [ -67.79753, -23.37218 ], [ -67.79817, -23.3723 ], [ -67.79893, -23.3721 ], [ -67.80165, -23.37172 ], [ -67.80315, -23.37082 ], [ -67.80386, -23.37003 ], [ -67.80398, -23.36964 ], [ -67.80394, -23.36927 ], [ -67.80369, -23.36893 ], [ -67.80298, -23.36853 ], [ -67.8017, -23.36804 ], [ -67.80003, -23.36765 ], [ -67.79657, -23.36735 ], [ -67.79331, -23.36625 ], [ -67.79178, -23.36597 ], [ -67.79103, -23.36565 ], [ -67.78996, -23.36498 ], [ -67.78924, -23.36417 ], [ -67.78835, -23.36367 ], [ -67.78768, -23.3634 ], [ -67.78181, -23.36328 ], [ -67.781, -23.36313 ], [ -67.78004, -23.36309 ], [ -67.77907, -23.36296 ], [ -67.77847, -23.36272 ], [ -67.77759, -23.36206 ], [ -67.77609, -23.3611 ], [ -67.77555, -23.36046 ], [ -67.77536, -23.35979 ], [ -67.77547, -23.35921 ], [ -67.77567, -23.35889 ], [ -67.77594, -23.35866 ], [ -67.77803, -23.35746 ], [ -67.77917, -23.35751 ], [ -67.78125, -23.35717 ], [ -67.78184, -23.35703 ], [ -67.78231, -23.35666 ], [ -67.78267, -23.35598 ], [ -67.78262, -23.35502 ], [ -67.78233, -23.35399 ], [ -67.78198, -23.35349 ], [ -67.78151, -23.35314 ], [ -67.78072, -23.35288 ], [ -67.78007, -23.3528 ], [ -67.77716, -23.35283 ], [ -67.77505, -23.35344 ], [ -67.7738, -23.35366 ], [ -67.7716, -23.35438 ], [ -67.77069, -23.35431 ], [ -67.77029, -23.35408 ], [ -67.77013, -23.35369 ], [ -67.77017, -23.35325 ], [ -67.77053, -23.35259 ], [ -67.77198, -23.35164 ], [ -67.77301, -23.35136 ], [ -67.77449, -23.35076 ], [ -67.77672, -23.35004 ], [ -67.77896, -23.34948 ], [ -67.78004, -23.34913 ], [ -67.7827, -23.34856 ], [ -67.78425, -23.34805 ], [ -67.78513, -23.34793 ], [ -67.7858, -23.34771 ], [ -67.78935, -23.34769 ], [ -67.79097, -23.3476 ], [ -67.79182, -23.34751 ], [ -67.79317, -23.34722 ], [ -67.79498, -23.34644 ], [ -67.79557, -23.34599 ], [ -67.79691, -23.3453 ], [ -67.79806, -23.34457 ], [ -67.79935, -23.34413 ], [ -67.80051, -23.34401 ], [ -67.80219, -23.34426 ], [ -67.80342, -23.34458 ], [ -67.80398, -23.34461 ], [ -67.80615, -23.34443 ], [ -67.8067, -23.34416 ], [ -67.80682, -23.34367 ], [ -67.80676, -23.34342 ], [ -67.80631, -23.34333 ], [ -67.80458, -23.34323 ], [ -67.80393, -23.343 ], [ -67.80352, -23.34253 ], [ -67.80346, -23.34234 ], [ -67.80346, -23.34193 ], [ -67.80364, -23.34159 ], [ -67.80406, -23.34135 ], [ -67.80485, -23.3412 ], [ -67.80583, -23.34085 ], [ -67.80866, -23.34083 ], [ -67.80937, -23.34071 ], [ -67.81011, -23.34044 ], [ -67.81099, -23.34003 ], [ -67.81154, -23.33966 ], [ -67.81217, -23.33944 ], [ -67.81362, -23.33861 ], [ -67.81428, -23.33791 ], [ -67.81444, -23.33717 ], [ -67.81428, -23.33679 ], [ -67.81411, -23.33662 ], [ -67.81305, -23.33622 ], [ -67.81257, -23.33595 ], [ -67.81228, -23.33567 ], [ -67.81198, -23.33558 ], [ -67.8113, -23.3356 ], [ -67.80991, -23.33538 ], [ -67.80924, -23.33509 ], [ -67.80836, -23.33433 ], [ -67.80786, -23.33303 ], [ -67.80786, -23.33249 ], [ -67.80757, -23.33123 ], [ -67.80729, -23.33072 ], [ -67.80714, -23.33055 ], [ -67.80622, -23.32997 ], [ -67.80473, -23.32952 ], [ -67.80371, -23.32876 ], [ -67.80354, -23.32848 ], [ -67.80356, -23.32808 ], [ -67.80392, -23.32747 ], [ -67.80414, -23.32726 ], [ -67.80466, -23.32698 ], [ -67.80603, -23.32672 ], [ -67.8073, -23.32627 ], [ -67.80909, -23.32623 ], [ -67.80978, -23.32625 ], [ -67.81203, -23.32682 ], [ -67.81292, -23.32683 ], [ -67.81433, -23.3266 ], [ -67.81542, -23.32633 ], [ -67.81618, -23.32628 ], [ -67.81667, -23.32638 ], [ -67.81708, -23.32667 ], [ -67.81746, -23.32679 ], [ -67.81869, -23.32695 ], [ -67.81935, -23.3269 ], [ -67.81982, -23.32681 ], [ -67.82129, -23.32623 ], [ -67.82166, -23.32618 ], [ -67.82251, -23.32588 ], [ -67.82329, -23.32575 ], [ -67.82517, -23.32574 ], [ -67.82756, -23.32586 ], [ -67.82989, -23.32521 ], [ -67.83217, -23.32512 ], [ -67.83291, -23.32467 ], [ -67.83325, -23.32431 ], [ -67.83329, -23.32415 ], [ -67.83328, -23.32367 ], [ -67.83315, -23.32343 ], [ -67.83287, -23.32325 ], [ -67.83246, -23.32323 ], [ -67.83011, -23.32351 ], [ -67.82762, -23.32399 ], [ -67.82685, -23.324 ], [ -67.82514, -23.32434 ], [ -67.8226, -23.32436 ], [ -67.82195, -23.32449 ], [ -67.82087, -23.32493 ], [ -67.81965, -23.32514 ], [ -67.81542, -23.32541 ], [ -67.81479, -23.32532 ], [ -67.8137, -23.32479 ], [ -67.81242, -23.32444 ], [ -67.81096, -23.32393 ], [ -67.81016, -23.32391 ], [ -67.80971, -23.32399 ], [ -67.80915, -23.32416 ], [ -67.80843, -23.32452 ], [ -67.80789, -23.3246 ], [ -67.80586, -23.32417 ], [ -67.80492, -23.32343 ], [ -67.80461, -23.32339 ], [ -67.80374, -23.3235 ], [ -67.80307, -23.32349 ] ] ] } },
{ "type": "Feature", "properties": { "objectid": 428, "peligro": "Medio", "volcan": null, "globalid_1": "fa70011e-f11f-40e2-bfea-ff752ad7487f", "Shape__Area": 6.4915184339042753e-11, "Shape__Length": 3.7658219335172655e-05 }, "geometry": { "type": "Polygon", "coordinates": [ [ [ -67.76931, -23.34912 ], [ -67.7693, -23.34911 ], [ -67.7693, -23.34913 ], [ -67.76931, -23.34912 ] ] ] } },
{ "type": "Feature", "properties": { "objectid": 429, "peligro": "Medio", "volcan": null, "globalid_1": "d1247b12-714a-4bd0-90c5-9d5dff7cbee6", "Shape__Area": 2.7284841053187847e-12, "Shape__Length": 9.9420834861132564e-06 }, "geometry": { "type": "Polygon", "coordinates": [ ] } }
]
}
