{
"type": "FeatureCollection",
"name": "SDP",
"crs": { "type": "name", "properties": { "name": "urn:ogc:def:crs:OGC:1.3:CRS84" } },
"xy_coordinate_resolution": 1e-05,
"features": [
{ "type": "Feature", "properties": { "objectid": 431, "peligro": "Medio", "volcan": null, "globalid_1": "bd833945-11fa-491b-9e3b-09b4fbf6742c", "Shape__Area": 0.0059678401738665343, "Shape__Length": 1.4967309184087518 }, "geometry": { "type": "Polygon", "coordinates": [ [ [ -68.41578, -21.77752 ], [ -68.41395, -21.77829 ], [ -68.40897, -21.77819 ], [ -68.40831, -21.77842 ], [ -68.40723, -21.77842 ], [ -68.40623, -21.77911 ], [ -68.40424, -21.78011 ], [ -68.40158, -21.78018 ], [ -68.39925, -21.78126 ], [ -68.39734, -21.78133 ], [ -68.39617, -21.78272 ], [ -68.39434, -21.78364 ], [ -68.39268, -21.78371 ], [ -68.39078, -21.78363 ], [ -68.38978, -21.78378 ], [ -68.38878, -21.78401 ], [ -68.38712, -21.78509 ], [ -68.38587, -21.78524 ], [ -68.38397, -21.78484 ], [ -68.38314, -21.78476 ], [ -68.38256, -21.78445 ], [ -68.38248, -21.78422 ], [ -68.38132, -21.78383 ], [ -68.37617, -21.78474 ], [ -68.37442, -21.78551 ], [ -68.37367, -21.78566 ], [ -68.37234, -21.78651 ], [ -68.37051, -21.78743 ], [ -68.36943, -21.78758 ], [ -68.36694, -21.78881 ], [ -68.36461, -21.79012 ], [ -68.36319, -21.79066 ], [ -68.36178, -21.79181 ], [ -68.35912, -21.79297 ], [ -68.35795, -21.79381 ], [ -68.35645, -21.79598 ], [ -68.35528, -21.79628 ], [ -68.35395, -21.79721 ], [ -68.3537, -21.79821 ], [ -68.35295, -21.79875 ], [ -68.35187, -21.79937 ], [ -68.35178, -21.80007 ], [ -68.35045, -21.8006 ], [ -68.3492, -21.80223 ], [ -68.34812, -21.80292 ], [ -68.34737, -21.80354 ], [ -68.34736, -21.80439 ], [ -68.34719, -21.80532 ], [ -68.34736, -21.80602 ], [ -68.34611, -21.80617 ], [ -68.34537, -21.80539 ], [ -68.34487, -21.80539 ], [ -68.34462, -21.80609 ], [ -68.34437, -21.80647 ], [ -68.34345, -21.80732 ], [ -68.34228, -21.80817 ], [ -68.34128, -21.80902 ], [ -68.34053, -21.81033 ], [ -68.33886, -21.81164 ], [ -68.33861, -21.81234 ], [ -68.33752, -21.81443 ], [ -68.33744, -21.81536 ], [ -68.33826, -21.8166 ], [ -68.33809, -21.81792 ], [ -68.33584, -21.81961 ], [ -68.33558, -21.82147 ], [ -68.335, -21.8217 ], [ -68.33508, -21.82263 ], [ -68.33549, -21.82341 ], [ -68.33549, -21.82372 ], [ -68.3359, -21.82403 ], [ -68.33614, -21.82558 ], [ -68.33597, -21.8262 ], [ -68.33664, -21.82644 ], [ -68.33671, -21.82807 ], [ -68.33771, -21.8283 ], [ -68.33779, -21.82877 ], [ -68.33853, -21.82924 ], [ -68.3387, -21.82962 ], [ -68.3392, -21.82986 ], [ -68.33952, -21.8311 ], [ -68.34035, -21.83172 ], [ -68.34059, -21.83351 ], [ -68.3405, -21.83482 ], [ -68.34082, -21.83661 ], [ -68.34198, -21.83747 ], [ -68.34215, -21.83785 ], [ -68.34248, -21.83809 ], [ -68.34248, -21.83871 ], [ -68.34264, -21.8391 ], [ -68.34272, -21.84018 ], [ -68.34288, -21.84065 ], [ -68.34338, -21.84135 ], [ -68.34362, -21.84282 ], [ -68.34445, -21.84321 ], [ -68.34503, -21.8436 ], [ -68.34494, -21.8443 ], [ -68.34585, -21.84477 ], [ -68.34735, -21.84505 ], [ -68.34808, -21.84529 ], [ -68.34914, -21.84625 ], [ -68.34965, -21.84697 ], [ -68.35042, -21.84772 ], [ -68.35121, -21.84944 ], [ -68.35154, -21.85043 ], [ -68.3518, -21.85184 ], [ -68.35178, -21.85255 ], [ -68.35212, -21.85316 ], [ -68.35276, -21.8547 ], [ -68.35336, -21.85573 ], [ -68.35392, -21.85778 ], [ -68.35418, -21.85844 ], [ -68.35509, -21.85775 ], [ -68.35692, -21.85775 ], [ -68.35717, -21.8583 ], [ -68.35758, -21.85845 ], [ -68.35799, -21.859 ], [ -68.35853, -21.85948 ], [ -68.35915, -21.85989 ], [ -68.36126, -21.86096 ], [ -68.36152, -21.86123 ], [ -68.36196, -21.86195 ], [ -68.36404, -21.8625 ], [ -68.36726, -21.86299 ], [ -68.37051, -21.86509 ], [ -68.3712, -21.86632 ], [ -68.37225, -21.86752 ], [ -68.374, -21.86907 ], [ -68.37389, -21.87064 ], [ -68.37275, -21.87122 ], [ -68.36923, -21.87271 ], [ -68.36922, -21.87369 ], [ -68.36933, -21.87489 ], [ -68.36954, -21.8761 ], [ -68.36954, -21.87691 ], [ -68.36935, -21.8779 ], [ -68.36942, -21.87978 ], [ -68.37, -21.88152 ], [ -68.37039, -21.88317 ], [ -68.37017, -21.884 ], [ -68.36925, -21.88594 ], [ -68.3681, -21.88729 ], [ -68.36521, -21.88848 ], [ -68.36367, -21.88886 ], [ -68.36234, -21.89033 ], [ -68.36058, -21.89177 ], [ -68.35962, -21.89211 ], [ -68.35863, -21.89354 ], [ -68.35734, -21.89473 ], [ -68.35525, -21.89531 ], [ -68.35316, -21.89649 ], [ -68.35167, -21.89804 ], [ -68.3505, -21.89951 ], [ -68.34975, -21.90121 ], [ -68.3494, -21.90321 ], [ -68.34912, -21.90813 ], [ -68.34808, -21.90966 ], [ -68.34638, -21.91127 ], [ -68.34532, -21.91423 ], [ -68.34345, -21.91508 ], [ -68.34263, -21.91675 ], [ -68.34053, -21.91791 ], [ -68.34013, -21.91937 ], [ -68.33774, -21.92165 ], [ -68.33715, -21.92332 ], [ -68.33644, -21.92496 ], [ -68.33535, -21.92557 ], [ -68.33457, -21.92618 ], [ -68.33376, -21.92819 ], [ -68.333, -21.92982 ], [ -68.33396, -21.93202 ], [ -68.3334, -21.93335 ], [ -68.33175, -21.93461 ], [ -68.33155, -21.9372 ], [ -68.3318, -21.93912 ], [ -68.33179, -21.94025 ], [ -68.33109, -21.9425 ], [ -68.33112, -21.94359 ], [ -68.33096, -21.94537 ], [ -68.33022, -21.94711 ], [ -68.33015, -21.94789 ], [ -68.33028, -21.95138 ], [ -68.33133, -21.95378 ], [ -68.33143, -21.95603 ], [ -68.32992, -21.95814 ], [ -68.33123, -21.95839 ], [ -68.33356, -21.96233 ], [ -68.33499, -21.96267 ], [ -68.33784, -21.96354 ], [ -68.3382, -21.96395 ], [ -68.33937, -21.96607 ], [ -68.33998, -21.96697 ], [ -68.34263, -21.96884 ], [ -68.34358, -21.96935 ], [ -68.3435, -21.97004 ], [ -68.34385, -21.97023 ], [ -68.3442, -21.97063 ], [ -68.34503, -21.96999 ], [ -68.34603, -21.97031 ], [ -68.34685, -21.97322 ], [ -68.34757, -21.97386 ], [ -68.34801, -21.97414 ], [ -68.34892, -21.9751 ], [ -68.34994, -21.97579 ], [ -68.35206, -21.97638 ], [ -68.35272, -21.97736 ], [ -68.35399, -21.97773 ], [ -68.35492, -21.97885 ], [ -68.3566, -21.97786 ], [ -68.35796, -21.97722 ], [ -68.35885, -21.97689 ], [ -68.36033, -21.97614 ], [ -68.36205, -21.97558 ], [ -68.36372, -21.9743 ], [ -68.36518, -21.97347 ], [ -68.36795, -21.97222 ], [ -68.36868, -21.97177 ], [ -68.36935, -21.9715 ], [ -68.37025, -21.97158 ], [ -68.37118, -21.97131 ], [ -68.37369, -21.97018 ], [ -68.37518, -21.96901 ], [ -68.37558, -21.96853 ], [ -68.37593, -21.96776 ], [ -68.37612, -21.96693 ], [ -68.37641, -21.96701 ], [ -68.37717, -21.96704 ], [ -68.37828, -21.96664 ], [ -68.37879, -21.96671 ], [ -68.37917, -21.96667 ], [ -68.38098, -21.96608 ], [ -68.38226, -21.96596 ], [ -68.38718, -21.96489 ], [ -68.38904, -21.96434 ], [ -68.38956, -21.96412 ], [ -68.38994, -21.96418 ], [ -68.39165, -21.96407 ], [ -68.39395, -21.96432 ], [ -68.39558, -21.96404 ], [ -68.39684, -21.96407 ], [ -68.39742, -21.96439 ], [ -68.39789, -21.96435 ], [ -68.3988, -21.96448 ], [ -68.39989, -21.96478 ], [ -68.40208, -21.96498 ], [ -68.40349, -21.9649 ], [ -68.4041, -21.96507 ], [ -68.40483, -21.96509 ], [ -68.40534, -21.96529 ], [ -68.40603, -21.96531 ], [ -68.40641, -21.96527 ], [ -68.40695, -21.9648 ], [ -68.40822, -21.96447 ], [ -68.40876, -21.9644 ], [ -68.40922, -21.96446 ], [ -68.40945, -21.96471 ], [ -68.40956, -21.96453 ], [ -68.41082, -21.96451 ], [ -68.41102, -21.96456 ], [ -68.41157, -21.9652 ], [ -68.41234, -21.96541 ], [ -68.41308, -21.96601 ], [ -68.41349, -21.96624 ], [ -68.41434, -21.96643 ], [ -68.4147, -21.96631 ], [ -68.41497, -21.96612 ], [ -68.41528, -21.96575 ], [ -68.41565, -21.96563 ], [ -68.41603, -21.9657 ], [ -68.41627, -21.96584 ], [ -68.41695, -21.96589 ], [ -68.41716, -21.96578 ], [ -68.41822, -21.96579 ], [ -68.41855, -21.96586 ], [ -68.41938, -21.96572 ], [ -68.4196, -21.96588 ], [ -68.42006, -21.96582 ], [ -68.42061, -21.96544 ], [ -68.42101, -21.96546 ], [ -68.42132, -21.96586 ], [ -68.42308, -21.9663 ], [ -68.42373, -21.96632 ], [ -68.42459, -21.9661 ], [ -68.4258, -21.96566 ], [ -68.42698, -21.96573 ], [ -68.42729, -21.96543 ], [ -68.42849, -21.96551 ], [ -68.42915, -21.96515 ], [ -68.42972, -21.96504 ], [ -68.43024, -21.96465 ], [ -68.43073, -21.96398 ], [ -68.43095, -21.96386 ], [ -68.43106, -21.96406 ], [ -68.43165, -21.96439 ], [ -68.43217, -21.96443 ], [ -68.43317, -21.96479 ], [ -68.43383, -21.96494 ], [ -68.43415, -21.96495 ], [ -68.43452, -21.96484 ], [ -68.43495, -21.96452 ], [ -68.43569, -21.96461 ], [ -68.43721, -21.9643 ], [ -68.43775, -21.96411 ], [ -68.43856, -21.96355 ], [ -68.43888, -21.96351 ], [ -68.43902, -21.96335 ], [ -68.4404, -21.96337 ], [ -68.4408, -21.96326 ], [ -68.44137, -21.9628 ], [ -68.44201, -21.96198 ], [ -68.44213, -21.96193 ], [ -68.44287, -21.9622 ], [ -68.4447, -21.96256 ], [ -68.44498, -21.9627 ], [ -68.44602, -21.96296 ], [ -68.44735, -21.9631 ], [ -68.44821, -21.96291 ], [ -68.44904, -21.96233 ], [ -68.45038, -21.96307 ], [ -68.45117, -21.96323 ], [ -68.4513, -21.96344 ], [ -68.4522, -21.96347 ], [ -68.45299, -21.96317 ], [ -68.45353, -21.96349 ], [ -68.45369, -21.96378 ], [ -68.45389, -21.96395 ], [ -68.45424, -21.96408 ], [ -68.45475, -21.96387 ], [ -68.455, -21.96386 ], [ -68.45532, -21.96411 ], [ -68.45539, -21.96458 ], [ -68.45615, -21.96547 ], [ -68.45647, -21.96617 ], [ -68.45644, -21.96654 ], [ -68.45565, -21.968 ], [ -68.4552, -21.96818 ], [ -68.45446, -21.9683 ], [ -68.45279, -21.96876 ], [ -68.45268, -21.96903 ], [ -68.45235, -21.96937 ], [ -68.45269, -21.96949 ], [ -68.45295, -21.9698 ], [ -68.4544, -21.969 ], [ -68.45515, -21.96887 ], [ -68.45585, -21.96864 ], [ -68.45623, -21.96826 ], [ -68.45697, -21.96717 ], [ -68.45819, -21.96642 ], [ -68.45909, -21.9663 ], [ -68.45952, -21.96647 ], [ -68.45995, -21.96651 ], [ -68.46032, -21.96681 ], [ -68.46107, -21.96671 ], [ -68.46118, -21.96651 ], [ -68.46155, -21.96651 ], [ -68.46164, -21.96623 ], [ -68.46245, -21.96585 ], [ -68.46263, -21.9655 ], [ -68.46311, -21.96535 ], [ -68.46397, -21.96569 ], [ -68.46508, -21.9658 ], [ -68.46465, -21.96646 ], [ -68.46462, -21.96668 ], [ -68.46502, -21.9668 ], [ -68.46545, -21.96666 ], [ -68.46602, -21.96702 ], [ -68.46656, -21.96693 ], [ -68.46677, -21.96664 ], [ -68.46751, -21.96652 ], [ -68.46991, -21.96577 ], [ -68.47018, -21.96584 ], [ -68.47085, -21.96557 ], [ -68.47085, -21.96539 ], [ -68.47141, -21.96524 ], [ -68.47187, -21.96528 ], [ -68.47313, -21.96466 ], [ -68.47318, -21.96437 ], [ -68.47347, -21.9642 ], [ -68.47351, -21.96404 ], [ -68.47416, -21.96359 ], [ -68.47497, -21.96314 ], [ -68.47671, -21.9625 ], [ -68.47671, -21.96213 ], [ -68.47717, -21.96198 ], [ -68.47769, -21.96225 ], [ -68.47807, -21.96176 ], [ -68.47871, -21.96173 ], [ -68.47997, -21.96095 ], [ -68.48069, -21.96038 ], [ -68.48078, -21.95999 ], [ -68.4807, -21.95954 ], [ -68.48089, -21.95899 ], [ -68.4808, -21.95875 ], [ -68.48087, -21.95832 ], [ -68.48082, -21.95798 ], [ -68.48106, -21.95728 ], [ -68.48167, -21.95662 ], [ -68.48285, -21.95609 ], [ -68.48359, -21.95618 ], [ -68.48465, -21.95544 ], [ -68.48624, -21.9556 ], [ -68.48632, -21.95571 ], [ -68.48645, -21.95559 ], [ -68.48756, -21.95568 ], [ -68.4878, -21.9563 ], [ -68.48803, -21.95652 ], [ -68.48833, -21.9566 ], [ -68.48888, -21.95617 ], [ -68.49083, -21.95557 ], [ -68.49165, -21.95545 ], [ -68.49201, -21.95553 ], [ -68.49234, -21.95549 ], [ -68.49322, -21.9551 ], [ -68.49389, -21.95509 ], [ -68.49435, -21.95542 ], [ -68.49433, -21.95559 ], [ -68.49456, -21.95563 ], [ -68.49487, -21.95591 ], [ -68.49532, -21.95605 ], [ -68.49555, -21.95626 ], [ -68.49572, -21.95616 ], [ -68.49718, -21.9563 ], [ -68.49732, -21.95658 ], [ -68.49758, -21.95633 ], [ -68.49836, -21.95631 ], [ -68.49934, -21.95586 ], [ -68.50036, -21.95555 ], [ -68.50053, -21.95493 ], [ -68.50085, -21.95455 ], [ -68.50144, -21.95404 ], [ -68.50208, -21.95381 ], [ -68.50241, -21.95353 ], [ -68.50283, -21.95331 ], [ -68.50301, -21.95309 ], [ -68.50337, -21.95309 ], [ -68.50402, -21.95282 ], [ -68.50396, -21.95245 ], [ -68.50418, -21.95222 ], [ -68.50503, -21.95217 ], [ -68.50611, -21.9517 ], [ -68.50663, -21.95121 ], [ -68.50888, -21.95064 ], [ -68.5094, -21.9503 ], [ -68.50963, -21.94991 ], [ -68.51044, -21.95008 ], [ -68.51112, -21.94991 ], [ -68.51366, -21.94882 ], [ -68.51407, -21.94836 ], [ -68.51642, -21.94749 ], [ -68.51646, -21.94685 ], [ -68.51639, -21.94631 ], [ -68.51613, -21.94622 ], [ -68.51619, -21.94596 ], [ -68.51669, -21.94594 ], [ -68.51872, -21.94524 ], [ -68.51964, -21.94522 ], [ -68.52073, -21.94572 ], [ -68.52135, -21.94573 ], [ -68.52228, -21.94518 ], [ -68.52285, -21.94449 ], [ -68.52362, -21.94442 ], [ -68.5242, -21.94478 ], [ -68.52484, -21.94492 ], [ -68.52594, -21.94446 ], [ -68.52604, -21.94325 ], [ -68.52681, -21.94015 ], [ -68.52808, -21.93843 ], [ -68.52836, -21.93695 ], [ -68.53123, -21.93406 ], [ -68.5322, -21.93137 ], [ -68.5332, -21.92917 ], [ -68.53468, -21.92738 ], [ -68.53578, -21.92623 ], [ -68.53697, -21.92336 ], [ -68.53762, -21.92228 ], [ -68.53838, -21.9205 ], [ -68.53877, -21.91978 ], [ -68.53905, -21.91841 ], [ -68.53928, -21.91637 ], [ -68.54035, -21.91461 ], [ -68.53956, -21.91302 ], [ -68.53944, -21.90971 ], [ -68.53966, -21.90884 ], [ -68.54005, -21.90641 ], [ -68.54014, -21.90469 ], [ -68.54023, -21.90182 ], [ -68.5399, -21.90051 ], [ -68.53999, -21.89882 ], [ -68.542, -21.8968 ], [ -68.54277, -21.89617 ], [ -68.54305, -21.89558 ], [ -68.54352, -21.89337 ], [ -68.54379, -21.88866 ], [ -68.5433, -21.88711 ], [ -68.54284, -21.88514 ], [ -68.54309, -21.88274 ], [ -68.54164, -21.88173 ], [ -68.54077, -21.88014 ], [ -68.54058, -21.87868 ], [ -68.54042, -21.87811 ], [ -68.53995, -21.87706 ], [ -68.53949, -21.87637 ], [ -68.53943, -21.87578 ], [ -68.53958, -21.87432 ], [ -68.53873, -21.87286 ], [ -68.53895, -21.87158 ], [ -68.53806, -21.86865 ], [ -68.53781, -21.86714 ], [ -68.53779, -21.86499 ], [ -68.53698, -21.86283 ], [ -68.53559, -21.85998 ], [ -68.53543, -21.85832 ], [ -68.53491, -21.85688 ], [ -68.53489, -21.85565 ], [ -68.53472, -21.85504 ], [ -68.53421, -21.85396 ], [ -68.53328, -21.85298 ], [ -68.53394, -21.85057 ], [ -68.53312, -21.84983 ], [ -68.53271, -21.84916 ], [ -68.53222, -21.84778 ], [ -68.53102, -21.84657 ], [ -68.53047, -21.84569 ], [ -68.531, -21.84403 ], [ -68.53223, -21.84328 ], [ -68.53215, -21.84274 ], [ -68.53135, -21.84067 ], [ -68.52995, -21.8388 ], [ -68.52948, -21.83804 ], [ -68.52869, -21.83577 ], [ -68.52819, -21.83487 ], [ -68.52662, -21.8331 ], [ -68.52568, -21.83246 ], [ -68.52279, -21.82902 ], [ -68.52185, -21.82828 ], [ -68.52113, -21.8275 ], [ -68.52097, -21.82648 ], [ -68.5203, -21.82575 ], [ -68.52014, -21.82531 ], [ -68.51967, -21.82497 ], [ -68.51916, -21.82297 ], [ -68.51833, -21.82238 ], [ -68.51792, -21.82102 ], [ -68.51683, -21.8197 ], [ -68.51589, -21.81912 ], [ -68.51537, -21.81853 ], [ -68.51548, -21.81729 ], [ -68.51433, -21.81656 ], [ -68.51397, -21.81559 ], [ -68.51335, -21.815 ], [ -68.51226, -21.81456 ], [ -68.51169, -21.813 ], [ -68.51128, -21.8113 ], [ -68.5105, -21.81071 ], [ -68.50832, -21.80817 ], [ -68.50738, -21.80798 ], [ -68.50671, -21.8071 ], [ -68.50525, -21.80593 ], [ -68.50452, -21.80578 ], [ -68.50359, -21.80529 ], [ -68.5026, -21.80504 ], [ -68.50213, -21.8048 ], [ -68.49979, -21.80435 ], [ -68.49911, -21.80406 ], [ -68.49838, -21.80357 ], [ -68.49797, -21.80274 ], [ -68.49719, -21.8024 ], [ -68.49438, -21.80146 ], [ -68.49318, -21.79995 ], [ -68.49193, -21.7999 ], [ -68.49178, -21.79961 ], [ -68.49126, -21.79907 ], [ -68.49079, -21.79902 ], [ -68.49048, -21.79873 ], [ -68.48928, -21.79868 ], [ -68.48793, -21.79799 ], [ -68.4871, -21.79716 ], [ -68.48663, -21.79706 ], [ -68.48642, -21.79667 ], [ -68.4858, -21.79652 ], [ -68.48507, -21.79618 ], [ -68.48346, -21.79506 ], [ -68.4795, -21.79422 ], [ -68.47841, -21.79387 ], [ -68.47726, -21.79367 ], [ -68.47627, -21.79333 ], [ -68.47164, -21.79249 ], [ -68.47086, -21.79195 ], [ -68.46966, -21.79185 ], [ -68.46935, -21.7917 ], [ -68.46659, -21.79184 ], [ -68.46607, -21.79145 ], [ -68.4656, -21.7914 ], [ -68.46534, -21.79101 ], [ -68.4631, -21.79115 ], [ -68.46195, -21.79163 ], [ -68.46122, -21.79168 ], [ -68.45987, -21.79109 ], [ -68.45841, -21.79094 ], [ -68.45726, -21.7905 ], [ -68.45664, -21.78981 ], [ -68.4556, -21.78991 ], [ -68.45508, -21.79005 ], [ -68.45341, -21.78956 ], [ -68.45242, -21.78917 ], [ -68.45009, -21.78707 ], [ -68.44801, -21.7855 ], [ -68.44598, -21.78447 ], [ -68.44468, -21.78364 ], [ -68.44248, -21.78273 ], [ -68.4424, -21.78234 ], [ -68.44091, -21.78226 ], [ -68.44083, -21.78179 ], [ -68.43909, -21.78047 ], [ -68.43851, -21.78046 ], [ -68.43776, -21.78015 ], [ -68.43726, -21.77984 ], [ -68.43602, -21.77984 ], [ -68.43569, -21.77945 ], [ -68.43486, -21.77921 ], [ -68.43445, -21.77929 ], [ -68.43378, -21.77898 ], [ -68.43179, -21.77881 ], [ -68.4288, -21.77873 ], [ -68.42822, -21.77849 ], [ -68.42781, -21.77818 ], [ -68.42499, -21.77809 ], [ -68.42391, -21.77832 ], [ -68.42308, -21.77816 ], [ -68.42242, -21.77777 ], [ -68.42184, -21.77754 ], [ -68.42068, -21.77754 ], [ -68.41968, -21.77784 ], [ -68.41794, -21.77745 ], [ -68.41578, -21.77752 ] ], [ [ -68.41502, -21.78635 ], [ -68.41526, -21.78673 ], [ -68.41632, -21.78673 ], [ -68.4168, -21.78741 ], [ -68.41817, -21.78772 ], [ -68.42189, -21.78773 ], [ -68.42335, -21.78744 ], [ -68.42367, -21.78774 ], [ -68.42569, -21.78805 ], [ -68.42609, -21.78828 ], [ -68.42731, -21.78836 ], [ -68.42795, -21.78874 ], [ -68.42884, -21.78882 ], [ -68.42948, -21.78935 ], [ -68.43247, -21.78981 ], [ -68.43369, -21.79012 ], [ -68.4357, -21.79095 ], [ -68.43716, -21.79141 ], [ -68.43813, -21.79142 ], [ -68.43853, -21.79202 ], [ -68.44039, -21.79263 ], [ -68.44143, -21.79377 ], [ -68.44361, -21.79461 ], [ -68.44426, -21.79529 ], [ -68.44531, -21.79529 ], [ -68.4462, -21.79582 ], [ -68.44733, -21.7962 ], [ -68.44765, -21.79688 ], [ -68.44821, -21.79711 ], [ -68.44878, -21.79757 ], [ -68.45015, -21.79772 ], [ -68.45063, -21.79848 ], [ -68.45209, -21.79841 ], [ -68.45339, -21.79804 ], [ -68.45614, -21.79797 ], [ -68.45662, -21.79827 ], [ -68.45751, -21.79843 ], [ -68.45823, -21.79888 ], [ -68.45848, -21.79888 ], [ -68.45896, -21.79926 ], [ -68.46009, -21.79957 ], [ -68.46017, -21.7998 ], [ -68.46179, -21.79988 ], [ -68.46332, -21.80026 ], [ -68.46356, -21.80064 ], [ -68.46413, -21.80071 ], [ -68.46445, -21.80094 ], [ -68.46534, -21.80117 ], [ -68.46558, -21.8014 ], [ -68.46639, -21.80185 ], [ -68.46606, -21.80314 ], [ -68.46679, -21.80344 ], [ -68.46735, -21.80382 ], [ -68.46816, -21.80397 ], [ -68.46921, -21.80488 ], [ -68.46913, -21.80541 ], [ -68.4718, -21.80535 ], [ -68.47276, -21.80633 ], [ -68.47502, -21.80694 ], [ -68.47583, -21.80694 ], [ -68.47745, -21.8071 ], [ -68.47842, -21.80816 ], [ -68.4793, -21.80862 ], [ -68.48003, -21.80945 ], [ -68.48084, -21.81013 ], [ -68.48197, -21.81082 ], [ -68.48358, -21.81142 ], [ -68.48487, -21.8115 ], [ -68.48786, -21.81257 ], [ -68.48988, -21.81356 ], [ -68.49133, -21.81447 ], [ -68.49182, -21.81492 ], [ -68.49254, -21.81515 ], [ -68.4927, -21.81546 ], [ -68.49432, -21.81591 ], [ -68.49456, -21.81637 ], [ -68.49521, -21.81667 ], [ -68.49545, -21.81735 ], [ -68.49634, -21.81796 ], [ -68.49633, -21.81819 ], [ -68.49698, -21.81902 ], [ -68.49722, -21.81985 ], [ -68.49776, -21.81987 ], [ -68.4988, -21.82115 ], [ -68.49939, -21.82115 ], [ -68.49962, -21.82166 ], [ -68.49993, -21.82162 ], [ -68.49998, -21.82217 ], [ -68.50084, -21.82281 ], [ -68.50079, -21.82328 ], [ -68.50138, -21.82366 ], [ -68.50138, -21.82413 ], [ -68.50288, -21.82498 ], [ -68.50315, -21.82613 ], [ -68.50456, -21.82715 ], [ -68.50483, -21.82818 ], [ -68.50542, -21.8286 ], [ -68.50541, -21.82983 ], [ -68.50718, -21.83124 ], [ -68.5075, -21.83226 ], [ -68.50836, -21.8329 ], [ -68.50858, -21.83362 ], [ -68.50895, -21.83371 ], [ -68.50944, -21.8352 ], [ -68.50981, -21.83524 ], [ -68.51012, -21.8366 ], [ -68.51089, -21.83716 ], [ -68.51093, -21.83771 ], [ -68.51116, -21.83779 ], [ -68.51125, -21.83881 ], [ -68.51148, -21.83881 ], [ -68.51147, -21.83937 ], [ -68.51175, -21.83933 ], [ -68.51179, -21.83988 ], [ -68.51274, -21.84052 ], [ -68.51292, -21.84149 ], [ -68.51315, -21.8415 ], [ -68.51328, -21.84235 ], [ -68.51374, -21.84269 ], [ -68.51374, -21.84303 ], [ -68.51406, -21.84307 ], [ -68.51405, -21.84417 ], [ -68.5146, -21.84447 ], [ -68.51464, -21.84503 ], [ -68.51496, -21.84507 ], [ -68.51491, -21.84579 ], [ -68.51523, -21.84579 ], [ -68.51582, -21.84745 ], [ -68.51609, -21.84749 ], [ -68.51613, -21.84805 ], [ -68.51699, -21.84852 ], [ -68.51699, -21.84966 ], [ -68.51726, -21.84966 ], [ -68.51731, -21.85047 ], [ -68.51753, -21.85047 ], [ -68.51753, -21.85136 ], [ -68.51785, -21.85128 ], [ -68.51785, -21.8523 ], [ -68.51812, -21.8523 ], [ -68.51775, -21.8537 ], [ -68.51839, -21.854 ], [ -68.51839, -21.85451 ], [ -68.51957, -21.85485 ], [ -68.51983, -21.85647 ], [ -68.52011, -21.85647 ], [ -68.52042, -21.85753 ], [ -68.52074, -21.85753 ], [ -68.52069, -21.85889 ], [ -68.52106, -21.85894 ], [ -68.52105, -21.85996 ], [ -68.52132, -21.86001 ], [ -68.52128, -21.86124 ], [ -68.52159, -21.86137 ], [ -68.52159, -21.86222 ], [ -68.52182, -21.86222 ], [ -68.52181, -21.86319 ], [ -68.52209, -21.86315 ], [ -68.52245, -21.86404 ], [ -68.52277, -21.86413 ], [ -68.52299, -21.86566 ], [ -68.52326, -21.86566 ], [ -68.52335, -21.86783 ], [ -68.52312, -21.86863 ], [ -68.52334, -21.86864 ], [ -68.52329, -21.87161 ], [ -68.52361, -21.87161 ], [ -68.5236, -21.87242 ], [ -68.52388, -21.87246 ], [ -68.52428, -21.87357 ], [ -68.52456, -21.87357 ], [ -68.52451, -21.87522 ], [ -68.52478, -21.87522 ], [ -68.52468, -21.87595 ], [ -68.5245, -21.87637 ], [ -68.52444, -21.88087 ], [ -68.52417, -21.88121 ], [ -68.52434, -21.88261 ], [ -68.5243, -21.88363 ], [ -68.5247, -21.88512 ], [ -68.52506, -21.88512 ], [ -68.52506, -21.88563 ], [ -68.52529, -21.88563 ], [ -68.5256, -21.88852 ], [ -68.52651, -21.88891 ], [ -68.52655, -21.88929 ], [ -68.52723, -21.8895 ], [ -68.52723, -21.8904 ], [ -68.52467, -21.89311 ], [ -68.52434, -21.89684 ], [ -68.52471, -21.89689 ], [ -68.52466, -21.89795 ], [ -68.52447, -21.89816 ], [ -68.5241, -21.90011 ], [ -68.52419, -21.90126 ], [ -68.52396, -21.90156 ], [ -68.52327, -21.90308 ], [ -68.52318, -21.90444 ], [ -68.5235, -21.90444 ], [ -68.52372, -21.90614 ], [ -68.52458, -21.90657 ], [ -68.52458, -21.90721 ], [ -68.52412, -21.90801 ], [ -68.52321, -21.9092 ], [ -68.52311, -21.91039 ], [ -68.52256, -21.91175 ], [ -68.52251, -21.91311 ], [ -68.52242, -21.91353 ], [ -68.52164, -21.9148 ], [ -68.5215, -21.91608 ], [ -68.51935, -21.91994 ], [ -68.51866, -21.92223 ], [ -68.51678, -21.92443 ], [ -68.51582, -21.92694 ], [ -68.51427, -21.92812 ], [ -68.51377, -21.9288 ], [ -68.51385, -21.92927 ], [ -68.51271, -21.931 ], [ -68.51211, -21.93219 ], [ -68.5112, -21.93338 ], [ -68.51079, -21.93474 ], [ -68.5101, -21.9355 ], [ -68.50905, -21.93707 ], [ -68.50681, -21.9391 ], [ -68.50507, -21.94113 ], [ -68.50306, -21.94295 ], [ -68.50078, -21.94528 ], [ -68.49973, -21.94558 ], [ -68.49772, -21.94774 ], [ -68.49667, -21.9482 ], [ -68.49548, -21.95015 ], [ -68.49429, -21.95091 ], [ -68.49397, -21.95206 ], [ -68.49429, -21.95219 ], [ -68.49438, -21.95282 ], [ -68.49474, -21.95291 ], [ -68.49478, -21.95342 ], [ -68.49542, -21.95385 ], [ -68.49537, -21.9547 ], [ -68.49489, -21.95455 ], [ -68.4946, -21.95431 ], [ -68.49455, -21.95393 ], [ -68.49427, -21.95376 ], [ -68.49333, -21.95384 ], [ -68.49284, -21.95409 ], [ -68.49246, -21.95443 ], [ -68.49112, -21.9542 ], [ -68.49055, -21.9544 ], [ -68.48979, -21.95438 ], [ -68.48872, -21.95476 ], [ -68.48786, -21.95477 ], [ -68.48766, -21.95507 ], [ -68.48663, -21.95471 ], [ -68.48558, -21.95496 ], [ -68.48518, -21.95457 ], [ -68.48439, -21.95478 ], [ -68.48399, -21.9548 ], [ -68.48357, -21.95509 ], [ -68.48317, -21.95492 ], [ -68.48221, -21.95501 ], [ -68.48126, -21.95537 ], [ -68.48096, -21.95565 ], [ -68.48034, -21.95589 ], [ -68.48005, -21.95616 ], [ -68.48009, -21.95655 ], [ -68.47983, -21.95689 ], [ -68.47985, -21.95758 ], [ -68.47967, -21.95844 ], [ -68.4798, -21.9593 ], [ -68.47974, -21.95977 ], [ -68.47944, -21.96005 ], [ -68.47904, -21.96001 ], [ -68.47874, -21.96037 ], [ -68.47831, -21.96037 ], [ -68.47759, -21.96091 ], [ -68.47641, -21.96075 ], [ -68.47598, -21.961 ], [ -68.47542, -21.96155 ], [ -68.4751, -21.96207 ], [ -68.47465, -21.96231 ], [ -68.47387, -21.96244 ], [ -68.47355, -21.96311 ], [ -68.47295, -21.96326 ], [ -68.4725, -21.96348 ], [ -68.47218, -21.96393 ], [ -68.47178, -21.96406 ], [ -68.4714, -21.96395 ], [ -68.47078, -21.96395 ], [ -68.46913, -21.96471 ], [ -68.46861, -21.96484 ], [ -68.46794, -21.9648 ], [ -68.46744, -21.96487 ], [ -68.46708, -21.96465 ], [ -68.4656, -21.96487 ], [ -68.46439, -21.96494 ], [ -68.46393, -21.96464 ], [ -68.46383, -21.96434 ], [ -68.46339, -21.96415 ], [ -68.46309, -21.96383 ], [ -68.46249, -21.96401 ], [ -68.46174, -21.96551 ], [ -68.4611, -21.96569 ], [ -68.46082, -21.96545 ], [ -68.46056, -21.96556 ], [ -68.45963, -21.96546 ], [ -68.45907, -21.96496 ], [ -68.45736, -21.96484 ], [ -68.45638, -21.96447 ], [ -68.45561, -21.96341 ], [ -68.4547, -21.96309 ], [ -68.45436, -21.96283 ], [ -68.45389, -21.96272 ], [ -68.45378, -21.96234 ], [ -68.45341, -21.96236 ], [ -68.45323, -21.96262 ], [ -68.45245, -21.9625 ], [ -68.45163, -21.96218 ], [ -68.45153, -21.96166 ], [ -68.45121, -21.96162 ], [ -68.45109, -21.96145 ], [ -68.45037, -21.96139 ], [ -68.45017, -21.96109 ], [ -68.44981, -21.96109 ], [ -68.44937, -21.96088 ], [ -68.44874, -21.96092 ], [ -68.4484, -21.96144 ], [ -68.44778, -21.96157 ], [ -68.44621, -21.96151 ], [ -68.44503, -21.9613 ], [ -68.44305, -21.96112 ], [ -68.44236, -21.96116 ], [ -68.44128, -21.96151 ], [ -68.44044, -21.96134 ], [ -68.43981, -21.9616 ], [ -68.43985, -21.96186 ], [ -68.43776, -21.96266 ], [ -68.43752, -21.96292 ], [ -68.4369, -21.96318 ], [ -68.43583, -21.96325 ], [ -68.43479, -21.96349 ], [ -68.43364, -21.9636 ], [ -68.43203, -21.96333 ], [ -68.43106, -21.96305 ], [ -68.43028, -21.96325 ], [ -68.42981, -21.96394 ], [ -68.42901, -21.96437 ], [ -68.42812, -21.96461 ], [ -68.4267, -21.96462 ], [ -68.42369, -21.96529 ], [ -68.42214, -21.96504 ], [ -68.42146, -21.96474 ], [ -68.42068, -21.96471 ], [ -68.42016, -21.96503 ], [ -68.41957, -21.9652 ], [ -68.41747, -21.96515 ], [ -68.4167, -21.96526 ], [ -68.41598, -21.96503 ], [ -68.41506, -21.96512 ], [ -68.4147, -21.96553 ], [ -68.41399, -21.96548 ], [ -68.41355, -21.96527 ], [ -68.41301, -21.96521 ], [ -68.41175, -21.96478 ], [ -68.41149, -21.96433 ], [ -68.41087, -21.96408 ], [ -68.4103, -21.96402 ], [ -68.4098, -21.96419 ], [ -68.40907, -21.96371 ], [ -68.4083, -21.9637 ], [ -68.40737, -21.96418 ], [ -68.40699, -21.96418 ], [ -68.40657, -21.96449 ], [ -68.40573, -21.96468 ], [ -68.40511, -21.96413 ], [ -68.40384, -21.96403 ], [ -68.40346, -21.96373 ], [ -68.40202, -21.96373 ], [ -68.40116, -21.96365 ], [ -68.40073, -21.96354 ], [ -68.39997, -21.96352 ], [ -68.39853, -21.96312 ], [ -68.39811, -21.9633 ], [ -68.39744, -21.96341 ], [ -68.3971, -21.96313 ], [ -68.39532, -21.96311 ], [ -68.39464, -21.96305 ], [ -68.39444, -21.96293 ], [ -68.39381, -21.96301 ], [ -68.39351, -21.96273 ], [ -68.39319, -21.96259 ], [ -68.39279, -21.96282 ], [ -68.39173, -21.9627 ], [ -68.39135, -21.96231 ], [ -68.39077, -21.96242 ], [ -68.3904, -21.96275 ], [ -68.38958, -21.9628 ], [ -68.38908, -21.96263 ], [ -68.38838, -21.96276 ], [ -68.38526, -21.96371 ], [ -68.38478, -21.9637 ], [ -68.38442, -21.96404 ], [ -68.38291, -21.96456 ], [ -68.38261, -21.96454 ], [ -68.38185, -21.96472 ], [ -68.38038, -21.96474 ], [ -68.3789, -21.9652 ], [ -68.37803, -21.96525 ], [ -68.37627, -21.96577 ], [ -68.37522, -21.96565 ], [ -68.37504, -21.96593 ], [ -68.37512, -21.96672 ], [ -68.37437, -21.96812 ], [ -68.37393, -21.96819 ], [ -68.37308, -21.9689 ], [ -68.37189, -21.96927 ], [ -68.37089, -21.96981 ], [ -68.36972, -21.97022 ], [ -68.36916, -21.96993 ], [ -68.36838, -21.96993 ], [ -68.36687, -21.97103 ], [ -68.36558, -21.97164 ], [ -68.3652, -21.97166 ], [ -68.365, -21.97145 ], [ -68.36428, -21.97115 ], [ -68.36487, -21.96996 ], [ -68.36479, -21.96903 ], [ -68.36356, -21.96868 ], [ -68.36293, -21.96783 ], [ -68.36138, -21.96748 ], [ -68.36084, -21.96595 ], [ -68.3602, -21.96578 ], [ -68.36011, -21.96523 ], [ -68.35902, -21.96488 ], [ -68.35848, -21.9631 ], [ -68.35748, -21.9628 ], [ -68.35712, -21.9622 ], [ -68.35662, -21.9622 ], [ -68.35635, -21.96186 ], [ -68.3559, -21.96173 ], [ -68.35585, -21.96135 ], [ -68.3554, -21.96092 ], [ -68.35526, -21.96028 ], [ -68.3549, -21.96028 ], [ -68.35422, -21.95951 ], [ -68.3529, -21.95895 ], [ -68.35286, -21.95823 ], [ -68.352, -21.95789 ], [ -68.35209, -21.95768 ], [ -68.35191, -21.95755 ], [ -68.35191, -21.95674 ], [ -68.35164, -21.9567 ], [ -68.35128, -21.95564 ], [ -68.3511, -21.95559 ], [ -68.35105, -21.95487 ], [ -68.35069, -21.95483 ], [ -68.35033, -21.95419 ], [ -68.34978, -21.95414 ], [ -68.34974, -21.95372 ], [ -68.34947, -21.95367 ], [ -68.34952, -21.95176 ], [ -68.34779, -21.95171 ], [ -68.34666, -21.95022 ], [ -68.34524, -21.95107 ], [ -68.34461, -21.9506 ], [ -68.34461, -21.95017 ], [ -68.34429, -21.95013 ], [ -68.34434, -21.9497 ], [ -68.34407, -21.94962 ], [ -68.34434, -21.94911 ], [ -68.34431, -21.94575 ], [ -68.34368, -21.94397 ], [ -68.34341, -21.94371 ], [ -68.34341, -21.94303 ], [ -68.34282, -21.94282 ], [ -68.34365, -21.94074 ], [ -68.34352, -21.9401 ], [ -68.34293, -21.9395 ], [ -68.34289, -21.93763 ], [ -68.34326, -21.93734 ], [ -68.34322, -21.93492 ], [ -68.34359, -21.93437 ], [ -68.34355, -21.93369 ], [ -68.34423, -21.93275 ], [ -68.3441, -21.93148 ], [ -68.34383, -21.93118 ], [ -68.34366, -21.92897 ], [ -68.34407, -21.92822 ], [ -68.34365, -21.92709 ], [ -68.34476, -21.92494 ], [ -68.3447, -21.92324 ], [ -68.34452, -21.92279 ], [ -68.34568, -21.92194 ], [ -68.34641, -21.92076 ], [ -68.34648, -21.9194 ], [ -68.34703, -21.91855 ], [ -68.34722, -21.91753 ], [ -68.34819, -21.91652 ], [ -68.34826, -21.91555 ], [ -68.34924, -21.91386 ], [ -68.34924, -21.91273 ], [ -68.35089, -21.91047 ], [ -68.35096, -21.90877 ], [ -68.35072, -21.90831 ], [ -68.35096, -21.90797 ], [ -68.35119, -21.90294 ], [ -68.35234, -21.89947 ], [ -68.35477, -21.89789 ], [ -68.35607, -21.89722 ], [ -68.3572, -21.8973 ], [ -68.35972, -21.89527 ], [ -68.35997, -21.89421 ], [ -68.36191, -21.89286 ], [ -68.36241, -21.89165 ], [ -68.36371, -21.89022 ], [ -68.36533, -21.88978 ], [ -68.36678, -21.88963 ], [ -68.36816, -21.88873 ], [ -68.36881, -21.88805 ], [ -68.36987, -21.8873 ], [ -68.37133, -21.88648 ], [ -68.37262, -21.8861 ], [ -68.3732, -21.8852 ], [ -68.37515, -21.88309 ], [ -68.37572, -21.88158 ], [ -68.37573, -21.87977 ], [ -68.37459, -21.87962 ], [ -68.3733, -21.87863 ], [ -68.37306, -21.87818 ], [ -68.37201, -21.8781 ], [ -68.37105, -21.87643 ], [ -68.37154, -21.87515 ], [ -68.37251, -21.87455 ], [ -68.37341, -21.87357 ], [ -68.37503, -21.87146 ], [ -68.3748, -21.86935 ], [ -68.374, -21.86806 ], [ -68.37368, -21.86723 ], [ -68.37223, -21.86632 ], [ -68.37159, -21.86352 ], [ -68.37054, -21.86306 ], [ -68.36949, -21.86291 ], [ -68.36853, -21.86154 ], [ -68.36683, -21.86033 ], [ -68.36554, -21.86055 ], [ -68.36416, -21.86092 ], [ -68.3636, -21.86017 ], [ -68.36312, -21.85881 ], [ -68.36247, -21.85805 ], [ -68.36142, -21.85744 ], [ -68.36086, -21.8563 ], [ -68.36095, -21.85547 ], [ -68.36022, -21.85464 ], [ -68.35982, -21.85388 ], [ -68.35918, -21.85343 ], [ -68.35829, -21.8538 ], [ -68.3582, -21.85433 ], [ -68.3586, -21.85516 ], [ -68.3586, -21.85614 ], [ -68.35787, -21.85592 ], [ -68.35594, -21.85485 ], [ -68.35562, -21.85409 ], [ -68.35521, -21.85341 ], [ -68.35514, -21.85145 ], [ -68.35531, -21.85017 ], [ -68.35588, -21.84919 ], [ -68.35564, -21.84798 ], [ -68.35573, -21.84677 ], [ -68.35493, -21.84375 ], [ -68.35534, -21.84277 ], [ -68.35494, -21.84193 ], [ -68.35438, -21.8414 ], [ -68.35341, -21.8411 ], [ -68.35276, -21.84079 ], [ -68.35318, -21.83868 ], [ -68.35059, -21.83829 ], [ -68.3493, -21.83768 ], [ -68.34914, -21.8367 ], [ -68.34826, -21.83579 ], [ -68.34826, -21.83398 ], [ -68.34778, -21.83315 ], [ -68.34844, -21.83202 ], [ -68.34876, -21.83088 ], [ -68.34877, -21.82952 ], [ -68.34869, -21.82877 ], [ -68.34821, -21.82801 ], [ -68.34822, -21.82696 ], [ -68.3487, -21.82635 ], [ -68.34871, -21.82394 ], [ -68.34839, -21.82386 ], [ -68.34912, -21.82273 ], [ -68.35059, -21.82138 ], [ -68.35052, -21.81896 ], [ -68.35214, -21.81753 ], [ -68.35238, -21.81708 ], [ -68.35255, -21.81519 ], [ -68.35588, -21.81241 ], [ -68.35613, -21.8112 ], [ -68.35783, -21.81008 ], [ -68.35914, -21.80804 ], [ -68.36011, -21.80782 ], [ -68.3623, -21.80564 ], [ -68.36344, -21.80519 ], [ -68.36644, -21.80195 ], [ -68.36757, -21.80181 ], [ -68.36879, -21.80053 ], [ -68.36912, -21.80053 ], [ -68.3782, -21.7952 ], [ -68.38046, -21.79506 ], [ -68.38306, -21.79333 ], [ -68.38427, -21.79341 ], [ -68.38508, -21.79281 ], [ -68.38686, -21.79289 ], [ -68.38751, -21.79275 ], [ -68.39123, -21.79253 ], [ -68.39195, -21.79231 ], [ -68.39195, -21.79261 ], [ -68.39486, -21.7927 ], [ -68.39624, -21.79172 ], [ -68.39714, -21.79074 ], [ -68.39957, -21.78969 ], [ -68.40272, -21.78948 ], [ -68.40402, -21.78895 ], [ -68.40548, -21.78813 ], [ -68.40887, -21.78829 ], [ -68.40928, -21.78814 ], [ -68.41049, -21.78807 ], [ -68.41219, -21.7871 ], [ -68.41324, -21.78725 ], [ -68.41502, -21.78635 ] ] ] } },
{ "type": "Feature", "properties": { "objectid": 951, "peligro": "Bajo", "volcan": null, "globalid_1": "3e362331-bcd0-402b-8537-3d2682363222", "Shape__Area": 0.0096895514427615126, "Shape__Length": 1.7161850424656324 }, "geometry": { "type": "Polygon", "coordinates": [ [ [ -68.43053, -21.76503 ], [ -68.42969, -21.76555 ], [ -68.42552, -21.76545 ], [ -68.42505, -21.76527 ], [ -68.42357, -21.76544 ], [ -68.42227, -21.76587 ], [ -68.41977, -21.76577 ], [ -68.41717, -21.7668 ], [ -68.41392, -21.76679 ], [ -68.41207, -21.76609 ], [ -68.41105, -21.76583 ], [ -68.40854, -21.76686 ], [ -68.40668, -21.76685 ], [ -68.40622, -21.76659 ], [ -68.40362, -21.76667 ], [ -68.40288, -21.7671 ], [ -68.40056, -21.76787 ], [ -68.3987, -21.76795 ], [ -68.39592, -21.76924 ], [ -68.39489, -21.77002 ], [ -68.39313, -21.7707 ], [ -68.38988, -21.7713 ], [ -68.38821, -21.7712 ], [ -68.38719, -21.77085 ], [ -68.38636, -21.77085 ], [ -68.38506, -21.77128 ], [ -68.38385, -21.77153 ], [ -68.38199, -21.7717 ], [ -68.38004, -21.77213 ], [ -68.37828, -21.77238 ], [ -68.37689, -21.77237 ], [ -68.37615, -21.7722 ], [ -68.37392, -21.77271 ], [ -68.37114, -21.77313 ], [ -68.36993, -21.77373 ], [ -68.36631, -21.7745 ], [ -68.36389, -21.77553 ], [ -68.36129, -21.77613 ], [ -68.35804, -21.77707 ], [ -68.35646, -21.77775 ], [ -68.35497, -21.77827 ], [ -68.35367, -21.77887 ], [ -68.35246, -21.7793 ], [ -68.35135, -21.7799 ], [ -68.3494, -21.78076 ], [ -68.34819, -21.78162 ], [ -68.3467, -21.78291 ], [ -68.34484, -21.78377 ], [ -68.344, -21.7855 ], [ -68.34251, -21.78697 ], [ -68.3412, -21.7887 ], [ -68.3398, -21.78999 ], [ -68.33636, -21.79214 ], [ -68.33487, -21.79318 ], [ -68.33283, -21.79377 ], [ -68.33097, -21.79455 ], [ -68.33022, -21.79567 ], [ -68.32901, -21.79653 ], [ -68.32956, -21.79731 ], [ -68.32909, -21.79861 ], [ -68.32937, -21.79948 ], [ -68.3287, -21.80381 ], [ -68.32823, -21.80502 ], [ -68.32822, -21.80606 ], [ -68.32766, -21.80761 ], [ -68.3258, -21.8096 ], [ -68.32495, -21.81124 ], [ -68.32458, -21.81219 ], [ -68.32272, -21.8134 ], [ -68.3216, -21.81435 ], [ -68.32057, -21.81599 ], [ -68.32038, -21.81668 ], [ -68.32066, -21.81746 ], [ -68.31935, -21.81858 ], [ -68.31962, -21.82084 ], [ -68.3197, -21.82292 ], [ -68.31998, -21.82378 ], [ -68.31997, -21.82621 ], [ -68.32024, -21.82742 ], [ -68.318, -21.82915 ], [ -68.31808, -21.83166 ], [ -68.31864, -21.83227 ], [ -68.31919, -21.83366 ], [ -68.32029, -21.83557 ], [ -68.32122, -21.83583 ], [ -68.32196, -21.83705 ], [ -68.32325, -21.83722 ], [ -68.32483, -21.83706 ], [ -68.32566, -21.83749 ], [ -68.32807, -21.83846 ], [ -68.32872, -21.83889 ], [ -68.329, -21.83967 ], [ -68.32964, -21.83968 ], [ -68.33085, -21.84003 ], [ -68.33261, -21.84029 ], [ -68.33344, -21.84186 ], [ -68.33427, -21.84186 ], [ -68.33576, -21.84256 ], [ -68.33575, -21.84395 ], [ -68.33593, -21.84499 ], [ -68.33462, -21.84637 ], [ -68.33564, -21.8468 ], [ -68.33657, -21.84802 ], [ -68.33767, -21.84915 ], [ -68.33767, -21.85002 ], [ -68.33803, -21.85271 ], [ -68.3383, -21.85375 ], [ -68.33839, -21.85539 ], [ -68.33875, -21.85695 ], [ -68.33912, -21.85773 ], [ -68.34079, -21.85861 ], [ -68.3419, -21.85905 ], [ -68.34264, -21.85896 ], [ -68.34265, -21.85792 ], [ -68.34219, -21.85601 ], [ -68.3422, -21.85463 ], [ -68.34275, -21.8542 ], [ -68.34424, -21.85386 ], [ -68.346, -21.85386 ], [ -68.34804, -21.85422 ], [ -68.3486, -21.85439 ], [ -68.35017, -21.85579 ], [ -68.351, -21.85631 ], [ -68.35147, -21.85674 ], [ -68.35193, -21.85744 ], [ -68.35211, -21.85839 ], [ -68.35276, -21.85909 ], [ -68.35275, -21.86004 ], [ -68.35303, -21.86056 ], [ -68.35349, -21.86117 ], [ -68.35432, -21.86135 ], [ -68.35535, -21.86066 ], [ -68.35665, -21.86023 ], [ -68.35683, -21.86058 ], [ -68.35785, -21.86101 ], [ -68.35868, -21.86162 ], [ -68.3598, -21.8618 ], [ -68.36054, -21.86232 ], [ -68.36137, -21.86267 ], [ -68.36331, -21.86441 ], [ -68.36424, -21.86494 ], [ -68.36554, -21.86494 ], [ -68.3661, -21.86442 ], [ -68.3673, -21.86452 ], [ -68.36804, -21.86504 ], [ -68.36925, -21.86548 ], [ -68.37008, -21.86617 ], [ -68.37137, -21.86696 ], [ -68.37183, -21.86791 ], [ -68.37285, -21.86887 ], [ -68.37285, -21.86965 ], [ -68.37238, -21.87025 ], [ -68.37099, -21.87016 ], [ -68.36969, -21.87024 ], [ -68.3682, -21.87102 ], [ -68.36727, -21.87205 ], [ -68.36643, -21.87231 ], [ -68.36596, -21.87326 ], [ -68.36596, -21.87413 ], [ -68.36661, -21.875 ], [ -68.36743, -21.87725 ], [ -68.36705, -21.87942 ], [ -68.3663, -21.88037 ], [ -68.36639, -21.88115 ], [ -68.36592, -21.88218 ], [ -68.36592, -21.88314 ], [ -68.36647, -21.88392 ], [ -68.36721, -21.88427 ], [ -68.3673, -21.88565 ], [ -68.36693, -21.88687 ], [ -68.36553, -21.88755 ], [ -68.36432, -21.88764 ], [ -68.36256, -21.88841 ], [ -68.36153, -21.88918 ], [ -68.35827, -21.89212 ], [ -68.35808, -21.89272 ], [ -68.35733, -21.89341 ], [ -68.35659, -21.89376 ], [ -68.35603, -21.89367 ], [ -68.35334, -21.89435 ], [ -68.35241, -21.89547 ], [ -68.35129, -21.89642 ], [ -68.35017, -21.89754 ], [ -68.34858, -21.89953 ], [ -68.34792, -21.90109 ], [ -68.34755, -21.90264 ], [ -68.34791, -21.90377 ], [ -68.34809, -21.90602 ], [ -68.34753, -21.90689 ], [ -68.34743, -21.90793 ], [ -68.3465, -21.9087 ], [ -68.34417, -21.90999 ], [ -68.34342, -21.91155 ], [ -68.34277, -21.91233 ], [ -68.34174, -21.91284 ], [ -68.34081, -21.91371 ], [ -68.33988, -21.91414 ], [ -68.33904, -21.91465 ], [ -68.33848, -21.91534 ], [ -68.33792, -21.91629 ], [ -68.33643, -21.91663 ], [ -68.33597, -21.91715 ], [ -68.33504, -21.91767 ], [ -68.33401, -21.9181 ], [ -68.3329, -21.91887 ], [ -68.33187, -21.9193 ], [ -68.33094, -21.91999 ], [ -68.33038, -21.92051 ], [ -68.33019, -21.9212 ], [ -68.32926, -21.92189 ], [ -68.32758, -21.92353 ], [ -68.32656, -21.92396 ], [ -68.32516, -21.92525 ], [ -68.32423, -21.92568 ], [ -68.32339, -21.92568 ], [ -68.32265, -21.92619 ], [ -68.3219, -21.92836 ], [ -68.32189, -21.92992 ], [ -68.32198, -21.93087 ], [ -68.3216, -21.9326 ], [ -68.32066, -21.93346 ], [ -68.32084, -21.93442 ], [ -68.3212, -21.93806 ], [ -68.32101, -21.93884 ], [ -68.32231, -21.93919 ], [ -68.32259, -21.93876 ], [ -68.32352, -21.93893 ], [ -68.32472, -21.93928 ], [ -68.325, -21.94015 ], [ -68.32499, -21.94136 ], [ -68.32536, -21.94249 ], [ -68.32637, -21.94328 ], [ -68.32665, -21.94414 ], [ -68.32683, -21.94553 ], [ -68.32617, -21.94631 ], [ -68.3258, -21.94752 ], [ -68.3244, -21.9489 ], [ -68.32282, -21.94881 ], [ -68.32124, -21.94932 ], [ -68.31818, -21.94853 ], [ -68.31679, -21.94731 ], [ -68.31595, -21.9473 ], [ -68.31316, -21.94877 ], [ -68.3113, -21.94876 ], [ -68.31094, -21.94832 ], [ -68.31047, -21.94823 ], [ -68.30814, -21.9497 ], [ -68.30684, -21.95004 ], [ -68.30637, -21.95116 ], [ -68.30683, -21.95194 ], [ -68.30719, -21.95402 ], [ -68.30839, -21.9555 ], [ -68.30969, -21.95646 ], [ -68.31015, -21.9575 ], [ -68.31107, -21.95863 ], [ -68.31134, -21.96019 ], [ -68.31162, -21.96115 ], [ -68.31217, -21.96245 ], [ -68.31355, -21.96436 ], [ -68.31345, -21.96592 ], [ -68.3141, -21.96696 ], [ -68.31485, -21.96932 ], [ -68.31545, -21.97064 ], [ -68.31651, -21.97177 ], [ -68.31826, -21.97394 ], [ -68.32047, -21.97583 ], [ -68.32157, -21.9764 ], [ -68.32283, -21.97748 ], [ -68.32539, -21.97909 ], [ -68.32806, -21.98061 ], [ -68.33083, -21.98147 ], [ -68.33244, -21.98161 ], [ -68.3339, -21.98162 ], [ -68.33566, -21.98261 ], [ -68.3368, -21.98382 ], [ -68.33828, -21.98422 ], [ -68.33903, -21.98479 ], [ -68.34089, -21.98555 ], [ -68.34185, -21.98579 ], [ -68.34412, -21.98594 ], [ -68.34921, -21.98596 ], [ -68.35248, -21.98616 ], [ -68.35516, -21.98598 ], [ -68.35702, -21.98623 ], [ -68.35905, -21.98576 ], [ -68.35981, -21.98518 ], [ -68.36288, -21.98351 ], [ -68.36566, -21.98249 ], [ -68.36742, -21.98103 ], [ -68.36954, -21.98021 ], [ -68.37103, -21.97953 ], [ -68.37271, -21.979 ], [ -68.3741, -21.97837 ], [ -68.37541, -21.97792 ], [ -68.37833, -21.9761 ], [ -68.38105, -21.97552 ], [ -68.38181, -21.9755 ], [ -68.38244, -21.97528 ], [ -68.38406, -21.97495 ], [ -68.38521, -21.97456 ], [ -68.38611, -21.97444 ], [ -68.38705, -21.97405 ], [ -68.39022, -21.97355 ], [ -68.39213, -21.97312 ], [ -68.39543, -21.97264 ], [ -68.39732, -21.97204 ], [ -68.39865, -21.97175 ], [ -68.3998, -21.97171 ], [ -68.40072, -21.97149 ], [ -68.40436, -21.97124 ], [ -68.40601, -21.97124 ], [ -68.40794, -21.97169 ], [ -68.40896, -21.97184 ], [ -68.41119, -21.97197 ], [ -68.41427, -21.97188 ], [ -68.4159, -21.97157 ], [ -68.41713, -21.97177 ], [ -68.41985, -21.97173 ], [ -68.42322, -21.97189 ], [ -68.42472, -21.97175 ], [ -68.42566, -21.97156 ], [ -68.42666, -21.97124 ], [ -68.42833, -21.9711 ], [ -68.42982, -21.97072 ], [ -68.43134, -21.97058 ], [ -68.43517, -21.97 ], [ -68.43632, -21.96976 ], [ -68.43718, -21.96972 ], [ -68.44025, -21.96914 ], [ -68.4409, -21.96914 ], [ -68.44142, -21.96922 ], [ -68.44134, -21.96963 ], [ -68.44108, -21.97007 ], [ -68.44118, -21.97061 ], [ -68.44136, -21.971 ], [ -68.44183, -21.97115 ], [ -68.44246, -21.9712 ], [ -68.44311, -21.97174 ], [ -68.44442, -21.97235 ], [ -68.44612, -21.97299 ], [ -68.45109, -21.97387 ], [ -68.45601, -21.97439 ], [ -68.46074, -21.97453 ], [ -68.46333, -21.97427 ], [ -68.46818, -21.97341 ], [ -68.46975, -21.97324 ], [ -68.47098, -21.97286 ], [ -68.47239, -21.97262 ], [ -68.47402, -21.97209 ], [ -68.47777, -21.97109 ], [ -68.47945, -21.97031 ], [ -68.48185, -21.96896 ], [ -68.48265, -21.96809 ], [ -68.48312, -21.96739 ], [ -68.48481, -21.96434 ], [ -68.48538, -21.964 ], [ -68.48599, -21.96325 ], [ -68.49035, -21.96143 ], [ -68.49175, -21.96126 ], [ -68.49358, -21.96127 ], [ -68.49706, -21.9611 ], [ -68.49827, -21.9607 ], [ -68.50034, -21.95968 ], [ -68.50233, -21.95891 ], [ -68.50479, -21.95779 ], [ -68.50629, -21.95697 ], [ -68.50678, -21.95648 ], [ -68.50728, -21.95573 ], [ -68.5081, -21.95505 ], [ -68.5092, -21.95483 ], [ -68.51004, -21.95442 ], [ -68.51145, -21.95466 ], [ -68.51289, -21.9545 ], [ -68.5141, -21.954 ], [ -68.51549, -21.95357 ], [ -68.5208, -21.95139 ], [ -68.52288, -21.95078 ], [ -68.52499, -21.95003 ], [ -68.52802, -21.94856 ], [ -68.53266, -21.94756 ], [ -68.53445, -21.94704 ], [ -68.53603, -21.94646 ], [ -68.5393, -21.94633 ], [ -68.54236, -21.94643 ], [ -68.54472, -21.94718 ], [ -68.54736, -21.94766 ], [ -68.54743, -21.94645 ], [ -68.54883, -21.9455 ], [ -68.55003, -21.94352 ], [ -68.55126, -21.94226 ], [ -68.55246, -21.9396 ], [ -68.55409, -21.93849 ], [ -68.55485, -21.93741 ], [ -68.55566, -21.93494 ], [ -68.55683, -21.9335 ], [ -68.55662, -21.93305 ], [ -68.55662, -21.93201 ], [ -68.55725, -21.93123 ], [ -68.55753, -21.93051 ], [ -68.55831, -21.92824 ], [ -68.55845, -21.92727 ], [ -68.5588, -21.92629 ], [ -68.55873, -21.92577 ], [ -68.55839, -21.92519 ], [ -68.55762, -21.92467 ], [ -68.55721, -21.92389 ], [ -68.55728, -21.92174 ], [ -68.55757, -21.92005 ], [ -68.55729, -21.91882 ], [ -68.55736, -21.91784 ], [ -68.55799, -21.91674 ], [ -68.55793, -21.91609 ], [ -68.558, -21.91518 ], [ -68.55863, -21.91421 ], [ -68.55863, -21.91343 ], [ -68.55898, -21.91298 ], [ -68.55927, -21.91018 ], [ -68.55962, -21.9096 ], [ -68.56011, -21.90908 ], [ -68.56053, -21.90726 ], [ -68.56123, -21.90687 ], [ -68.56178, -21.90726 ], [ -68.56241, -21.90681 ], [ -68.5629, -21.90623 ], [ -68.56311, -21.90551 ], [ -68.56276, -21.90512 ], [ -68.56256, -21.9046 ], [ -68.56256, -21.90376 ], [ -68.56277, -21.90272 ], [ -68.56319, -21.90201 ], [ -68.56438, -21.90084 ], [ -68.56417, -21.8996 ], [ -68.56432, -21.89798 ], [ -68.56432, -21.89688 ], [ -68.56446, -21.89662 ], [ -68.56426, -21.89545 ], [ -68.56426, -21.89369 ], [ -68.56398, -21.89324 ], [ -68.5642, -21.89246 ], [ -68.56441, -21.89012 ], [ -68.56441, -21.88921 ], [ -68.56365, -21.88784 ], [ -68.56352, -21.88648 ], [ -68.56366, -21.88602 ], [ -68.56373, -21.88498 ], [ -68.56352, -21.88433 ], [ -68.56318, -21.88375 ], [ -68.56311, -21.88303 ], [ -68.56269, -21.88258 ], [ -68.56333, -21.87907 ], [ -68.5632, -21.87757 ], [ -68.56271, -21.87725 ], [ -68.56223, -21.87666 ], [ -68.56251, -21.87504 ], [ -68.56216, -21.87426 ], [ -68.56218, -21.87312 ], [ -68.5619, -21.87191 ], [ -68.56116, -21.87034 ], [ -68.56145, -21.86913 ], [ -68.56071, -21.86774 ], [ -68.56062, -21.86688 ], [ -68.56062, -21.86575 ], [ -68.56035, -21.8648 ], [ -68.56035, -21.86367 ], [ -68.56008, -21.8622 ], [ -68.5599, -21.8602 ], [ -68.55916, -21.8576 ], [ -68.55768, -21.85535 ], [ -68.55732, -21.85439 ], [ -68.55713, -21.85335 ], [ -68.55676, -21.85275 ], [ -68.55668, -21.85145 ], [ -68.55584, -21.84997 ], [ -68.55501, -21.84893 ], [ -68.55483, -21.84789 ], [ -68.55511, -21.84737 ], [ -68.55363, -21.84503 ], [ -68.55382, -21.84425 ], [ -68.55336, -21.84321 ], [ -68.55318, -21.84243 ], [ -68.55087, -21.838 ], [ -68.55087, -21.83688 ], [ -68.55041, -21.83566 ], [ -68.54986, -21.83523 ], [ -68.54894, -21.83306 ], [ -68.54838, -21.8321 ], [ -68.54764, -21.83141 ], [ -68.54672, -21.82941 ], [ -68.54617, -21.82855 ], [ -68.54608, -21.82759 ], [ -68.5446, -21.82586 ], [ -68.54349, -21.82481 ], [ -68.54294, -21.8236 ], [ -68.54164, -21.82178 ], [ -68.54072, -21.82091 ], [ -68.54026, -21.82013 ], [ -68.53924, -21.81735 ], [ -68.53841, -21.81613 ], [ -68.53805, -21.81509 ], [ -68.53527, -21.81179 ], [ -68.53509, -21.81127 ], [ -68.53417, -21.80989 ], [ -68.53306, -21.80902 ], [ -68.53204, -21.8078 ], [ -68.53074, -21.80667 ], [ -68.53065, -21.80624 ], [ -68.52963, -21.80563 ], [ -68.5288, -21.80502 ], [ -68.5276, -21.80363 ], [ -68.52714, -21.80285 ], [ -68.52649, -21.80241 ], [ -68.52612, -21.80181 ], [ -68.52381, -21.79937 ], [ -68.52344, -21.79868 ], [ -68.52242, -21.79772 ], [ -68.5215, -21.79668 ], [ -68.5203, -21.79607 ], [ -68.51974, -21.79538 ], [ -68.51854, -21.79477 ], [ -68.51678, -21.79398 ], [ -68.51557, -21.79372 ], [ -68.51483, -21.79302 ], [ -68.51456, -21.7925 ], [ -68.51335, -21.79181 ], [ -68.51243, -21.79085 ], [ -68.51215, -21.79068 ], [ -68.51132, -21.79024 ], [ -68.51048, -21.79032 ], [ -68.50965, -21.79015 ], [ -68.50928, -21.78954 ], [ -68.509, -21.78859 ], [ -68.50808, -21.78832 ], [ -68.50715, -21.78867 ], [ -68.50529, -21.7884 ], [ -68.5027, -21.78761 ], [ -68.50196, -21.78735 ], [ -68.50075, -21.78674 ], [ -68.50011, -21.78605 ], [ -68.4989, -21.78578 ], [ -68.49844, -21.78526 ], [ -68.49724, -21.78509 ], [ -68.49594, -21.78378 ], [ -68.49501, -21.78352 ], [ -68.49205, -21.78299 ], [ -68.49149, -21.78221 ], [ -68.49066, -21.78143 ], [ -68.49066, -21.78073 ], [ -68.48974, -21.77978 ], [ -68.48863, -21.77969 ], [ -68.48696, -21.77873 ], [ -68.48539, -21.77829 ], [ -68.48465, -21.77751 ], [ -68.48381, -21.77751 ], [ -68.48252, -21.77672 ], [ -68.48187, -21.77603 ], [ -68.48085, -21.77603 ], [ -68.48085, -21.77525 ], [ -68.48002, -21.77524 ], [ -68.47918, -21.77541 ], [ -68.47826, -21.77506 ], [ -68.47724, -21.7748 ], [ -68.47529, -21.77376 ], [ -68.4753, -21.77272 ], [ -68.47446, -21.77219 ], [ -68.47363, -21.7721 ], [ -68.47112, -21.77244 ], [ -68.46881, -21.77174 ], [ -68.46779, -21.77157 ], [ -68.46705, -21.77096 ], [ -68.46575, -21.77095 ], [ -68.46473, -21.77078 ], [ -68.46343, -21.77025 ], [ -68.46121, -21.76998 ], [ -68.46019, -21.76972 ], [ -68.45908, -21.7692 ], [ -68.45843, -21.76876 ], [ -68.45509, -21.76849 ], [ -68.45435, -21.76814 ], [ -68.45287, -21.76805 ], [ -68.45064, -21.76778 ], [ -68.44814, -21.76726 ], [ -68.44768, -21.76682 ], [ -68.44601, -21.76725 ], [ -68.44536, -21.7669 ], [ -68.44462, -21.76664 ], [ -68.44165, -21.76671 ], [ -68.441, -21.76715 ], [ -68.43942, -21.76723 ], [ -68.4384, -21.7667 ], [ -68.43599, -21.76626 ], [ -68.43581, -21.766 ], [ -68.43442, -21.76565 ], [ -68.43396, -21.76522 ], [ -68.43053, -21.76503 ] ], [ [ -68.41578, -21.77752 ], [ -68.41794, -21.77745 ], [ -68.41968, -21.77784 ], [ -68.42068, -21.77754 ], [ -68.42184, -21.77754 ], [ -68.42242, -21.77777 ], [ -68.42308, -21.77816 ], [ -68.42391, -21.77832 ], [ -68.42499, -21.77809 ], [ -68.42781, -21.77818 ], [ -68.42822, -21.77849 ], [ -68.4288, -21.77873 ], [ -68.43179, -21.77881 ], [ -68.43378, -21.77898 ], [ -68.43445, -21.77929 ], [ -68.43486, -21.77921 ], [ -68.43569, -21.77945 ], [ -68.43602, -21.77984 ], [ -68.43726, -21.77984 ], [ -68.43776, -21.78015 ], [ -68.43851, -21.78046 ], [ -68.43909, -21.78047 ], [ -68.44083, -21.78179 ], [ -68.44091, -21.78226 ], [ -68.4424, -21.78234 ], [ -68.44248, -21.78273 ], [ -68.44468, -21.78364 ], [ -68.44598, -21.78447 ], [ -68.44801, -21.7855 ], [ -68.45009, -21.78707 ], [ -68.45242, -21.78917 ], [ -68.45341, -21.78956 ], [ -68.45508, -21.79005 ], [ -68.4556, -21.78991 ], [ -68.45664, -21.78981 ], [ -68.45726, -21.7905 ], [ -68.45841, -21.79094 ], [ -68.45987, -21.79109 ], [ -68.46122, -21.79168 ], [ -68.46195, -21.79163 ], [ -68.4631, -21.79115 ], [ -68.46534, -21.79101 ], [ -68.4656, -21.7914 ], [ -68.46607, -21.79145 ], [ -68.46659, -21.79184 ], [ -68.46935, -21.7917 ], [ -68.46966, -21.79185 ], [ -68.47086, -21.79195 ], [ -68.47164, -21.79249 ], [ -68.47627, -21.79333 ], [ -68.47726, -21.79367 ], [ -68.47841, -21.79387 ], [ -68.4795, -21.79422 ], [ -68.48346, -21.79506 ], [ -68.48507, -21.79618 ], [ -68.4858, -21.79652 ], [ -68.48642, -21.79667 ], [ -68.48663, -21.79706 ], [ -68.4871, -21.79716 ], [ -68.48793, -21.79799 ], [ -68.48928, -21.79868 ], [ -68.49048, -21.79873 ], [ -68.49079, -21.79902 ], [ -68.49126, -21.79907 ], [ -68.49178, -21.79961 ], [ -68.49193, -21.7999 ], [ -68.49318, -21.79995 ], [ -68.49438, -21.80146 ], [ -68.49719, -21.8024 ], [ -68.49797, -21.80274 ], [ -68.49838, -21.80357 ], [ -68.49911, -21.80406 ], [ -68.49979, -21.80435 ], [ -68.50213, -21.8048 ], [ -68.5026, -21.80504 ], [ -68.50359, -21.80529 ], [ -68.50452, -21.80578 ], [ -68.50525, -21.80593 ], [ -68.50671, -21.8071 ], [ -68.50738, -21.80798 ], [ -68.50832, -21.80817 ], [ -68.5105, -21.81071 ], [ -68.51128, -21.8113 ], [ -68.51169, -21.813 ], [ -68.51226, -21.81456 ], [ -68.51335, -21.815 ], [ -68.51397, -21.81559 ], [ -68.51433, -21.81656 ], [ -68.51548, -21.81729 ], [ -68.51537, -21.81853 ], [ -68.51589, -21.81912 ], [ -68.51683, -21.8197 ], [ -68.51792, -21.82102 ], [ -68.51833, -21.82238 ], [ -68.51916, -21.82297 ], [ -68.51967, -21.82497 ], [ -68.52014, -21.82531 ], [ -68.5203, -21.82575 ], [ -68.52097, -21.82648 ], [ -68.52113, -21.8275 ], [ -68.52185, -21.82828 ], [ -68.52279, -21.82902 ], [ -68.52568, -21.83246 ], [ -68.52662, -21.8331 ], [ -68.52819, -21.83487 ], [ -68.52869, -21.83577 ], [ -68.52948, -21.83804 ], [ -68.52995, -21.8388 ], [ -68.53135, -21.84067 ], [ -68.53215, -21.84274 ], [ -68.53223, -21.84328 ], [ -68.531, -21.84403 ], [ -68.53047, -21.84569 ], [ -68.53102, -21.84657 ], [ -68.53222, -21.84778 ], [ -68.53271, -21.84916 ], [ -68.53312, -21.84983 ], [ -68.53394, -21.85057 ], [ -68.53328, -21.85298 ], [ -68.53421, -21.85396 ], [ -68.53472, -21.85504 ], [ -68.53489, -21.85565 ], [ -68.53491, -21.85688 ], [ -68.53543, -21.85832 ], [ -68.53559, -21.85998 ], [ -68.53698, -21.86283 ], [ -68.53779, -21.86499 ], [ -68.53781, -21.86714 ], [ -68.53806, -21.86865 ], [ -68.53895, -21.87158 ], [ -68.53873, -21.87286 ], [ -68.53958, -21.87432 ], [ -68.53943, -21.87578 ], [ -68.53949, -21.87637 ], [ -68.53995, -21.87706 ], [ -68.54042, -21.87811 ], [ -68.54058, -21.87868 ], [ -68.54077, -21.88014 ], [ -68.54164, -21.88173 ], [ -68.54309, -21.88274 ], [ -68.54284, -21.88514 ], [ -68.5433, -21.88711 ], [ -68.54379, -21.88866 ], [ -68.54352, -21.89337 ], [ -68.54305, -21.89558 ], [ -68.54277, -21.89617 ], [ -68.542, -21.8968 ], [ -68.53999, -21.89882 ], [ -68.5399, -21.90051 ], [ -68.54023, -21.90182 ], [ -68.54014, -21.90469 ], [ -68.54005, -21.90641 ], [ -68.53966, -21.90884 ], [ -68.53944, -21.90971 ], [ -68.53956, -21.91302 ], [ -68.54035, -21.91461 ], [ -68.53928, -21.91637 ], [ -68.53905, -21.91841 ], [ -68.53877, -21.91978 ], [ -68.53838, -21.9205 ], [ -68.53762, -21.92228 ], [ -68.53697, -21.92336 ], [ -68.53578, -21.92623 ], [ -68.53468, -21.92738 ], [ -68.5332, -21.92917 ], [ -68.5322, -21.93137 ], [ -68.53123, -21.93406 ], [ -68.52836, -21.93695 ], [ -68.52808, -21.93843 ], [ -68.52681, -21.94015 ], [ -68.52604, -21.94325 ], [ -68.52594, -21.94446 ], [ -68.52484, -21.94492 ], [ -68.5242, -21.94478 ], [ -68.52362, -21.94442 ], [ -68.52285, -21.94449 ], [ -68.52228, -21.94518 ], [ -68.52135, -21.94573 ], [ -68.52073, -21.94572 ], [ -68.51964, -21.94522 ], [ -68.51872, -21.94524 ], [ -68.51669, -21.94594 ], [ -68.51619, -21.94596 ], [ -68.51613, -21.94622 ], [ -68.51639, -21.94631 ], [ -68.51646, -21.94685 ], [ -68.51642, -21.94749 ], [ -68.51407, -21.94836 ], [ -68.51366, -21.94882 ], [ -68.51112, -21.94991 ], [ -68.51044, -21.95008 ], [ -68.50963, -21.94991 ], [ -68.5094, -21.9503 ], [ -68.50888, -21.95064 ], [ -68.50663, -21.95121 ], [ -68.50611, -21.9517 ], [ -68.50503, -21.95217 ], [ -68.50418, -21.95222 ], [ -68.50396, -21.95245 ], [ -68.50402, -21.95282 ], [ -68.50337, -21.95309 ], [ -68.50301, -21.95309 ], [ -68.50283, -21.95331 ], [ -68.50241, -21.95353 ], [ -68.50208, -21.95381 ], [ -68.50144, -21.95404 ], [ -68.50085, -21.95455 ], [ -68.50053, -21.95493 ], [ -68.50036, -21.95555 ], [ -68.49934, -21.95586 ], [ -68.49836, -21.95631 ], [ -68.49758, -21.95633 ], [ -68.49732, -21.95658 ], [ -68.49718, -21.9563 ], [ -68.49572, -21.95616 ], [ -68.49555, -21.95626 ], [ -68.49532, -21.95605 ], [ -68.49487, -21.95591 ], [ -68.49456, -21.95563 ], [ -68.49433, -21.95559 ], [ -68.49435, -21.95542 ], [ -68.49389, -21.95509 ], [ -68.49322, -21.9551 ], [ -68.49234, -21.95549 ], [ -68.49201, -21.95553 ], [ -68.49165, -21.95545 ], [ -68.49083, -21.95557 ], [ -68.48888, -21.95617 ], [ -68.48833, -21.9566 ], [ -68.48803, -21.95652 ], [ -68.4878, -21.9563 ], [ -68.48756, -21.95568 ], [ -68.48645, -21.95559 ], [ -68.48632, -21.95571 ], [ -68.48624, -21.9556 ], [ -68.48465, -21.95544 ], [ -68.48359, -21.95618 ], [ -68.48285, -21.95609 ], [ -68.48167, -21.95662 ], [ -68.48106, -21.95728 ], [ -68.48082, -21.95798 ], [ -68.48087, -21.95832 ], [ -68.4808, -21.95875 ], [ -68.48089, -21.95899 ], [ -68.4807, -21.95954 ], [ -68.48078, -21.95999 ], [ -68.48069, -21.96038 ], [ -68.47997, -21.96095 ], [ -68.47871, -21.96173 ], [ -68.47807, -21.96176 ], [ -68.47769, -21.96225 ], [ -68.47717, -21.96198 ], [ -68.47671, -21.96213 ], [ -68.47671, -21.9625 ], [ -68.47497, -21.96314 ], [ -68.47416, -21.96359 ], [ -68.47351, -21.96404 ], [ -68.47347, -21.9642 ], [ -68.47318, -21.96437 ], [ -68.47313, -21.96466 ], [ -68.47187, -21.96528 ], [ -68.47141, -21.96524 ], [ -68.47085, -21.96539 ], [ -68.47085, -21.96557 ], [ -68.47018, -21.96584 ], [ -68.46991, -21.96577 ], [ -68.46751, -21.96652 ], [ -68.46677, -21.96664 ], [ -68.46656, -21.96693 ], [ -68.46602, -21.96702 ], [ -68.46545, -21.96666 ], [ -68.46502, -21.9668 ], [ -68.46462, -21.96668 ], [ -68.46465, -21.96646 ], [ -68.46508, -21.9658 ], [ -68.46397, -21.96569 ], [ -68.46311, -21.96535 ], [ -68.46263, -21.9655 ], [ -68.46245, -21.96585 ], [ -68.46164, -21.96623 ], [ -68.46155, -21.96651 ], [ -68.46118, -21.96651 ], [ -68.46107, -21.96671 ], [ -68.46032, -21.96681 ], [ -68.45995, -21.96651 ], [ -68.45952, -21.96647 ], [ -68.45909, -21.9663 ], [ -68.45819, -21.96642 ], [ -68.45697, -21.96717 ], [ -68.45623, -21.96826 ], [ -68.45585, -21.96864 ], [ -68.45515, -21.96887 ], [ -68.4544, -21.969 ], [ -68.45295, -21.9698 ], [ -68.45269, -21.96949 ], [ -68.45235, -21.96937 ], [ -68.45268, -21.96903 ], [ -68.45279, -21.96876 ], [ -68.45446, -21.9683 ], [ -68.4552, -21.96818 ], [ -68.45565, -21.968 ], [ -68.45644, -21.96654 ], [ -68.45647, -21.96617 ], [ -68.45615, -21.96547 ], [ -68.45539, -21.96458 ], [ -68.45532, -21.96411 ], [ -68.455, -21.96386 ], [ -68.45475, -21.96387 ], [ -68.45424, -21.96408 ], [ -68.45389, -21.96395 ], [ -68.45369, -21.96378 ], [ -68.45353, -21.96349 ], [ -68.45299, -21.96317 ], [ -68.4522, -21.96347 ], [ -68.4513, -21.96344 ], [ -68.45117, -21.96323 ], [ -68.45038, -21.96307 ], [ -68.44904, -21.96233 ], [ -68.44821, -21.96291 ], [ -68.44735, -21.9631 ], [ -68.44602, -21.96296 ], [ -68.44498, -21.9627 ], [ -68.4447, -21.96256 ], [ -68.44287, -21.9622 ], [ -68.44213, -21.96193 ], [ -68.44201, -21.96198 ], [ -68.44137, -21.9628 ], [ -68.4408, -21.96326 ], [ -68.4404, -21.96337 ], [ -68.43902, -21.96335 ], [ -68.43888, -21.96351 ], [ -68.43856, -21.96355 ], [ -68.43775, -21.96411 ], [ -68.43721, -21.9643 ], [ -68.43569, -21.96461 ], [ -68.43495, -21.96452 ], [ -68.43452, -21.96484 ], [ -68.43415, -21.96495 ], [ -68.43383, -21.96494 ], [ -68.43317, -21.96479 ], [ -68.43217, -21.96443 ], [ -68.43165, -21.96439 ], [ -68.43106, -21.96406 ], [ -68.43095, -21.96386 ], [ -68.43073, -21.96398 ], [ -68.43024, -21.96465 ], [ -68.42972, -21.96504 ], [ -68.42915, -21.96515 ], [ -68.42849, -21.96551 ], [ -68.42729, -21.96543 ], [ -68.42698, -21.96573 ], [ -68.4258, -21.96566 ], [ -68.42459, -21.9661 ], [ -68.42373, -21.96632 ], [ -68.42308, -21.9663 ], [ -68.42132, -21.96586 ], [ -68.42101, -21.96546 ], [ -68.42061, -21.96544 ], [ -68.42006, -21.96582 ], [ -68.4196, -21.96588 ], [ -68.41938, -21.96572 ], [ -68.41855, -21.96586 ], [ -68.41822, -21.96579 ], [ -68.41716, -21.96578 ], [ -68.41695, -21.96589 ], [ -68.41627, -21.96584 ], [ -68.41603, -21.9657 ], [ -68.41565, -21.96563 ], [ -68.41528, -21.96575 ], [ -68.41497, -21.96612 ], [ -68.4147, -21.96631 ], [ -68.41434, -21.96643 ], [ -68.41349, -21.96624 ], [ -68.41308, -21.96601 ], [ -68.41234, -21.96541 ], [ -68.41157, -21.9652 ], [ -68.41102, -21.96456 ], [ -68.41082, -21.96451 ], [ -68.40956, -21.96453 ], [ -68.40945, -21.96471 ], [ -68.40922, -21.96446 ], [ -68.40876, -21.9644 ], [ -68.40822, -21.96447 ], [ -68.40695, -21.9648 ], [ -68.40641, -21.96527 ], [ -68.40603, -21.96531 ], [ -68.40534, -21.96529 ], [ -68.40483, -21.96509 ], [ -68.4041, -21.96507 ], [ -68.40349, -21.9649 ], [ -68.40208, -21.96498 ], [ -68.39989, -21.96478 ], [ -68.3988, -21.96448 ], [ -68.39789, -21.96435 ], [ -68.39742, -21.96439 ], [ -68.39684, -21.96407 ], [ -68.39558, -21.96404 ], [ -68.39395, -21.96432 ], [ -68.39165, -21.96407 ], [ -68.38994, -21.96418 ], [ -68.38956, -21.96412 ], [ -68.38904, -21.96434 ], [ -68.38718, -21.96489 ], [ -68.38226, -21.96596 ], [ -68.38098, -21.96608 ], [ -68.37917, -21.96667 ], [ -68.37879, -21.96671 ], [ -68.37828, -21.96664 ], [ -68.37717, -21.96704 ], [ -68.37641, -21.96701 ], [ -68.37612, -21.96693 ], [ -68.37593, -21.96776 ], [ -68.37558, -21.96853 ], [ -68.37518, -21.96901 ], [ -68.37369, -21.97018 ], [ -68.37118, -21.97131 ], [ -68.37025, -21.97158 ], [ -68.36935, -21.9715 ], [ -68.36868, -21.97177 ], [ -68.36795, -21.97222 ], [ -68.36518, -21.97347 ], [ -68.36372, -21.9743 ], [ -68.36205, -21.97558 ], [ -68.36033, -21.97614 ], [ -68.35885, -21.97689 ], [ -68.35796, -21.97722 ], [ -68.3566, -21.97786 ], [ -68.35492, -21.97885 ], [ -68.35399, -21.97773 ], [ -68.35272, -21.97736 ], [ -68.35206, -21.97638 ], [ -68.34994, -21.97579 ], [ -68.34892, -21.9751 ], [ -68.34801, -21.97414 ], [ -68.34757, -21.97386 ], [ -68.34685, -21.97322 ], [ -68.34603, -21.97031 ], [ -68.34503, -21.96999 ], [ -68.3442, -21.97063 ], [ -68.34385, -21.97023 ], [ -68.3435, -21.97004 ], [ -68.34358, -21.96935 ], [ -68.34263, -21.96884 ], [ -68.33998, -21.96697 ], [ -68.33937, -21.96607 ], [ -68.3382, -21.96395 ], [ -68.33784, -21.96354 ], [ -68.33499, -21.96267 ], [ -68.33356, -21.96233 ], [ -68.33123, -21.95839 ], [ -68.32992, -21.95814 ], [ -68.33143, -21.95603 ], [ -68.33133, -21.95378 ], [ -68.33028, -21.95138 ], [ -68.33015, -21.94789 ], [ -68.33022, -21.94711 ], [ -68.33096, -21.94537 ], [ -68.33112, -21.94359 ], [ -68.33109, -21.9425 ], [ -68.33179, -21.94025 ], [ -68.3318, -21.93912 ], [ -68.33155, -21.9372 ], [ -68.33175, -21.93461 ], [ -68.3334, -21.93335 ], [ -68.33396, -21.93202 ], [ -68.333, -21.92982 ], [ -68.33376, -21.92819 ], [ -68.33457, -21.92618 ], [ -68.33535, -21.92557 ], [ -68.33644, -21.92496 ], [ -68.33715, -21.92332 ], [ -68.33774, -21.92165 ], [ -68.34013, -21.91937 ], [ -68.34053, -21.91791 ], [ -68.34263, -21.91675 ], [ -68.34345, -21.91508 ], [ -68.34532, -21.91423 ], [ -68.34638, -21.91127 ], [ -68.34808, -21.90966 ], [ -68.34912, -21.90813 ], [ -68.3494, -21.90321 ], [ -68.34975, -21.90121 ], [ -68.3505, -21.89951 ], [ -68.35167, -21.89804 ], [ -68.35316, -21.89649 ], [ -68.35525, -21.89531 ], [ -68.35734, -21.89473 ], [ -68.35863, -21.89354 ], [ -68.35962, -21.89211 ], [ -68.36058, -21.89177 ], [ -68.36234, -21.89033 ], [ -68.36367, -21.88886 ], [ -68.36521, -21.88848 ], [ -68.3681, -21.88729 ], [ -68.36925, -21.88594 ], [ -68.37017, -21.884 ], [ -68.37039, -21.88317 ], [ -68.37, -21.88152 ], [ -68.36942, -21.87978 ], [ -68.36935, -21.8779 ], [ -68.36954, -21.87691 ], [ -68.36954, -21.8761 ], [ -68.36933, -21.87489 ], [ -68.36922, -21.87369 ], [ -68.36923, -21.87271 ], [ -68.37275, -21.87122 ], [ -68.37389, -21.87064 ], [ -68.374, -21.86907 ], [ -68.37225, -21.86752 ], [ -68.3712, -21.86632 ], [ -68.37051, -21.86509 ], [ -68.36726, -21.86299 ], [ -68.36404, -21.8625 ], [ -68.36196, -21.86195 ], [ -68.36152, -21.86123 ], [ -68.36126, -21.86096 ], [ -68.35915, -21.85989 ], [ -68.35853, -21.85948 ], [ -68.35799, -21.859 ], [ -68.35758, -21.85845 ], [ -68.35717, -21.8583 ], [ -68.35692, -21.85775 ], [ -68.35509, -21.85775 ], [ -68.35418, -21.85844 ], [ -68.35392, -21.85778 ], [ -68.35336, -21.85573 ], [ -68.35276, -21.8547 ], [ -68.35212, -21.85316 ], [ -68.35178, -21.85255 ], [ -68.3518, -21.85184 ], [ -68.35154, -21.85043 ], [ -68.35121, -21.84944 ], [ -68.35042, -21.84772 ], [ -68.34965, -21.84697 ], [ -68.34914, -21.84625 ], [ -68.34808, -21.84529 ], [ -68.34735, -21.84505 ], [ -68.34585, -21.84477 ], [ -68.34494, -21.8443 ], [ -68.34503, -21.8436 ], [ -68.34445, -21.84321 ], [ -68.34362, -21.84282 ], [ -68.34338, -21.84135 ], [ -68.34288, -21.84065 ], [ -68.34272, -21.84018 ], [ -68.34264, -21.8391 ], [ -68.34248, -21.83871 ], [ -68.34248, -21.83809 ], [ -68.34215, -21.83785 ], [ -68.34198, -21.83747 ], [ -68.34082, -21.83661 ], [ -68.3405, -21.83482 ], [ -68.34059, -21.83351 ], [ -68.34035, -21.83172 ], [ -68.33952, -21.8311 ], [ -68.3392, -21.82986 ], [ -68.3387, -21.82962 ], [ -68.33853, -21.82924 ], [ -68.33779, -21.82877 ], [ -68.33771, -21.8283 ], [ -68.33671, -21.82807 ], [ -68.33664, -21.82644 ], [ -68.33597, -21.8262 ], [ -68.33614, -21.82558 ], [ -68.3359, -21.82403 ], [ -68.33549, -21.82372 ], [ -68.33549, -21.82341 ], [ -68.33508, -21.82263 ], [ -68.335, -21.8217 ], [ -68.33558, -21.82147 ], [ -68.33584, -21.81961 ], [ -68.33809, -21.81792 ], [ -68.33826, -21.8166 ], [ -68.33744, -21.81536 ], [ -68.33752, -21.81443 ], [ -68.33861, -21.81234 ], [ -68.33886, -21.81164 ], [ -68.34053, -21.81033 ], [ -68.34128, -21.80902 ], [ -68.34228, -21.80817 ], [ -68.34345, -21.80732 ], [ -68.34437, -21.80647 ], [ -68.34462, -21.80609 ], [ -68.34487, -21.80539 ], [ -68.34537, -21.80539 ], [ -68.34611, -21.80617 ], [ -68.34736, -21.80602 ], [ -68.34719, -21.80532 ], [ -68.34736, -21.80439 ], [ -68.34737, -21.80354 ], [ -68.34812, -21.80292 ], [ -68.3492, -21.80223 ], [ -68.35045, -21.8006 ], [ -68.35178, -21.80007 ], [ -68.35187, -21.79937 ], [ -68.35295, -21.79875 ], [ -68.3537, -21.79821 ], [ -68.35395, -21.79721 ], [ -68.35528, -21.79628 ], [ -68.35645, -21.79598 ], [ -68.35795, -21.79381 ], [ -68.35912, -21.79297 ], [ -68.36178, -21.79181 ], [ -68.36319, -21.79066 ], [ -68.36461, -21.79012 ], [ -68.36694, -21.78881 ], [ -68.36943, -21.78758 ], [ -68.37051, -21.78743 ], [ -68.37234, -21.78651 ], [ -68.37367, -21.78566 ], [ -68.37442, -21.78551 ], [ -68.37617, -21.78474 ], [ -68.38132, -21.78383 ], [ -68.38248, -21.78422 ], [ -68.38256, -21.78445 ], [ -68.38314, -21.78476 ], [ -68.38397, -21.78484 ], [ -68.38587, -21.78524 ], [ -68.38712, -21.78509 ], [ -68.38878, -21.78401 ], [ -68.38978, -21.78378 ], [ -68.39078, -21.78363 ], [ -68.39268, -21.78371 ], [ -68.39434, -21.78364 ], [ -68.39617, -21.78272 ], [ -68.39734, -21.78133 ], [ -68.39925, -21.78126 ], [ -68.40158, -21.78018 ], [ -68.40424, -21.78011 ], [ -68.40623, -21.77911 ], [ -68.40723, -21.77842 ], [ -68.40831, -21.77842 ], [ -68.40897, -21.77819 ], [ -68.41395, -21.77829 ], [ -68.41578, -21.77752 ] ] ] } },
{ "type": "Feature", "properties": { "objectid": 1256, "peligro": "Alto", "volcan": null, "globalid_1": "01fe60f1-95dc-4080-a546-37068daf41a6", "Shape__Area": 0.02599527709207905, "Shape__Length": 0.70645215828839447 }, "geometry": { "type": "Polygon", "coordinates": [ [ [ -68.41502, -21.78635 ], [ -68.41324, -21.78725 ], [ -68.41219, -21.7871 ], [ -68.41049, -21.78807 ], [ -68.40928, -21.78814 ], [ -68.40887, -21.78829 ], [ -68.40548, -21.78813 ], [ -68.40402, -21.78895 ], [ -68.40272, -21.78948 ], [ -68.39957, -21.78969 ], [ -68.39714, -21.79074 ], [ -68.39624, -21.79172 ], [ -68.39486, -21.7927 ], [ -68.39195, -21.79261 ], [ -68.39195, -21.79231 ], [ -68.39123, -21.79253 ], [ -68.38751, -21.79275 ], [ -68.38686, -21.79289 ], [ -68.38508, -21.79281 ], [ -68.38427, -21.79341 ], [ -68.38306, -21.79333 ], [ -68.38046, -21.79506 ], [ -68.3782, -21.7952 ], [ -68.36912, -21.80053 ], [ -68.36879, -21.80053 ], [ -68.36757, -21.80181 ], [ -68.36644, -21.80195 ], [ -68.36344, -21.80519 ], [ -68.3623, -21.80564 ], [ -68.36011, -21.80782 ], [ -68.35914, -21.80804 ], [ -68.35783, -21.81008 ], [ -68.35613, -21.8112 ], [ -68.35588, -21.81241 ], [ -68.35255, -21.81519 ], [ -68.35238, -21.81708 ], [ -68.35214, -21.81753 ], [ -68.35052, -21.81896 ], [ -68.35059, -21.82138 ], [ -68.34912, -21.82273 ], [ -68.34839, -21.82386 ], [ -68.34871, -21.82394 ], [ -68.3487, -21.82635 ], [ -68.34822, -21.82696 ], [ -68.34821, -21.82801 ], [ -68.34869, -21.82877 ], [ -68.34877, -21.82952 ], [ -68.34876, -21.83088 ], [ -68.34844, -21.83202 ], [ -68.34778, -21.83315 ], [ -68.34826, -21.83398 ], [ -68.34826, -21.83579 ], [ -68.34914, -21.8367 ], [ -68.3493, -21.83768 ], [ -68.35059, -21.83829 ], [ -68.35318, -21.83868 ], [ -68.35276, -21.84079 ], [ -68.35341, -21.8411 ], [ -68.35438, -21.8414 ], [ -68.35494, -21.84193 ], [ -68.35534, -21.84277 ], [ -68.35493, -21.84375 ], [ -68.35573, -21.84677 ], [ -68.35564, -21.84798 ], [ -68.35588, -21.84919 ], [ -68.35531, -21.85017 ], [ -68.35514, -21.85145 ], [ -68.35521, -21.85341 ], [ -68.35562, -21.85409 ], [ -68.35594, -21.85485 ], [ -68.35787, -21.85592 ], [ -68.3586, -21.85614 ], [ -68.3586, -21.85516 ], [ -68.3582, -21.85433 ], [ -68.35829, -21.8538 ], [ -68.35918, -21.85343 ], [ -68.35982, -21.85388 ], [ -68.36022, -21.85464 ], [ -68.36095, -21.85547 ], [ -68.36086, -21.8563 ], [ -68.36142, -21.85744 ], [ -68.36247, -21.85805 ], [ -68.36312, -21.85881 ], [ -68.3636, -21.86017 ], [ -68.36416, -21.86092 ], [ -68.36554, -21.86055 ], [ -68.36683, -21.86033 ], [ -68.36853, -21.86154 ], [ -68.36949, -21.86291 ], [ -68.37054, -21.86306 ], [ -68.37159, -21.86352 ], [ -68.37223, -21.86632 ], [ -68.37368, -21.86723 ], [ -68.374, -21.86806 ], [ -68.3748, -21.86935 ], [ -68.37503, -21.87146 ], [ -68.37341, -21.87357 ], [ -68.37251, -21.87455 ], [ -68.37154, -21.87515 ], [ -68.37105, -21.87643 ], [ -68.37201, -21.8781 ], [ -68.37306, -21.87818 ], [ -68.3733, -21.87863 ], [ -68.37459, -21.87962 ], [ -68.37573, -21.87977 ], [ -68.37572, -21.88158 ], [ -68.37515, -21.88309 ], [ -68.3732, -21.8852 ], [ -68.37262, -21.8861 ], [ -68.37133, -21.88648 ], [ -68.36987, -21.8873 ], [ -68.36881, -21.88805 ], [ -68.36816, -21.88873 ], [ -68.36678, -21.88963 ], [ -68.36533, -21.88978 ], [ -68.36371, -21.89022 ], [ -68.36241, -21.89165 ], [ -68.36191, -21.89286 ], [ -68.35997, -21.89421 ], [ -68.35972, -21.89527 ], [ -68.3572, -21.8973 ], [ -68.35607, -21.89722 ], [ -68.35477, -21.89789 ], [ -68.35234, -21.89947 ], [ -68.35119, -21.90294 ], [ -68.35096, -21.90797 ], [ -68.35072, -21.90831 ], [ -68.35096, -21.90877 ], [ -68.35089, -21.91047 ], [ -68.34924, -21.91273 ], [ -68.34924, -21.91386 ], [ -68.34826, -21.91555 ], [ -68.34819, -21.91652 ], [ -68.34722, -21.91753 ], [ -68.34703, -21.91855 ], [ -68.34648, -21.9194 ], [ -68.34641, -21.92076 ], [ -68.34568, -21.92194 ], [ -68.34452, -21.92279 ], [ -68.3447, -21.92324 ], [ -68.34476, -21.92494 ], [ -68.34365, -21.92709 ], [ -68.34407, -21.92822 ], [ -68.34366, -21.92897 ], [ -68.34383, -21.93118 ], [ -68.3441, -21.93148 ], [ -68.34423, -21.93275 ], [ -68.34355, -21.93369 ], [ -68.34359, -21.93437 ], [ -68.34322, -21.93492 ], [ -68.34326, -21.93734 ], [ -68.34289, -21.93763 ], [ -68.34293, -21.9395 ], [ -68.34352, -21.9401 ], [ -68.34365, -21.94074 ], [ -68.34282, -21.94282 ], [ -68.34341, -21.94303 ], [ -68.34341, -21.94371 ], [ -68.34368, -21.94397 ], [ -68.34431, -21.94575 ], [ -68.34434, -21.94911 ], [ -68.34407, -21.94962 ], [ -68.34434, -21.9497 ], [ -68.34429, -21.95013 ], [ -68.34461, -21.95017 ], [ -68.34461, -21.9506 ], [ -68.34524, -21.95107 ], [ -68.34666, -21.95022 ], [ -68.34779, -21.95171 ], [ -68.34952, -21.95176 ], [ -68.34947, -21.95367 ], [ -68.34974, -21.95372 ], [ -68.34978, -21.95414 ], [ -68.35033, -21.95419 ], [ -68.35069, -21.95483 ], [ -68.35105, -21.95487 ], [ -68.3511, -21.95559 ], [ -68.35128, -21.95564 ], [ -68.35164, -21.9567 ], [ -68.35191, -21.95674 ], [ -68.35191, -21.95755 ], [ -68.35209, -21.95768 ], [ -68.352, -21.95789 ], [ -68.35286, -21.95823 ], [ -68.3529, -21.95895 ], [ -68.35422, -21.95951 ], [ -68.3549, -21.96028 ], [ -68.35526, -21.96028 ], [ -68.3554, -21.96092 ], [ -68.35585, -21.96135 ], [ -68.3559, -21.96173 ], [ -68.35635, -21.96186 ], [ -68.35662, -21.9622 ], [ -68.35712, -21.9622 ], [ -68.35748, -21.9628 ], [ -68.35848, -21.9631 ], [ -68.35902, -21.96488 ], [ -68.36011, -21.96523 ], [ -68.3602, -21.96578 ], [ -68.36084, -21.96595 ], [ -68.36138, -21.96748 ], [ -68.36293, -21.96783 ], [ -68.36356, -21.96868 ], [ -68.36479, -21.96903 ], [ -68.36487, -21.96996 ], [ -68.36428, -21.97115 ], [ -68.365, -21.97145 ], [ -68.3652, -21.97166 ], [ -68.36558, -21.97164 ], [ -68.36687, -21.97103 ], [ -68.36838, -21.96993 ], [ -68.36916, -21.96993 ], [ -68.36972, -21.97022 ], [ -68.37089, -21.96981 ], [ -68.37189, -21.96927 ], [ -68.37308, -21.9689 ], [ -68.37393, -21.96819 ], [ -68.37437, -21.96812 ], [ -68.37512, -21.96672 ], [ -68.37504, -21.96593 ], [ -68.37522, -21.96565 ], [ -68.37627, -21.96577 ], [ -68.37803, -21.96525 ], [ -68.3789, -21.9652 ], [ -68.38038, -21.96474 ], [ -68.38185, -21.96472 ], [ -68.38261, -21.96454 ], [ -68.38291, -21.96456 ], [ -68.38442, -21.96404 ], [ -68.38478, -21.9637 ], [ -68.38526, -21.96371 ], [ -68.38838, -21.96276 ], [ -68.38908, -21.96263 ], [ -68.38958, -21.9628 ], [ -68.3904, -21.96275 ], [ -68.39077, -21.96242 ], [ -68.39135, -21.96231 ], [ -68.39173, -21.9627 ], [ -68.39279, -21.96282 ], [ -68.39319, -21.96259 ], [ -68.39351, -21.96273 ], [ -68.39381, -21.96301 ], [ -68.39444, -21.96293 ], [ -68.39464, -21.96305 ], [ -68.39532, -21.96311 ], [ -68.3971, -21.96313 ], [ -68.39744, -21.96341 ], [ -68.39811, -21.9633 ], [ -68.39853, -21.96312 ], [ -68.39997, -21.96352 ], [ -68.40073, -21.96354 ], [ -68.40116, -21.96365 ], [ -68.40202, -21.96373 ], [ -68.40346, -21.96373 ], [ -68.40384, -21.96403 ], [ -68.40511, -21.96413 ], [ -68.40573, -21.96468 ], [ -68.40657, -21.96449 ], [ -68.40699, -21.96418 ], [ -68.40737, -21.96418 ], [ -68.4083, -21.9637 ], [ -68.40907, -21.96371 ], [ -68.4098, -21.96419 ], [ -68.4103, -21.96402 ], [ -68.41087, -21.96408 ], [ -68.41149, -21.96433 ], [ -68.41175, -21.96478 ], [ -68.41301, -21.96521 ], [ -68.41355, -21.96527 ], [ -68.41399, -21.96548 ], [ -68.4147, -21.96553 ], [ -68.41506, -21.96512 ], [ -68.41598, -21.96503 ], [ -68.4167, -21.96526 ], [ -68.41747, -21.96515 ], [ -68.41957, -21.9652 ], [ -68.42016, -21.96503 ], [ -68.42068, -21.96471 ], [ -68.42146, -21.96474 ], [ -68.42214, -21.96504 ], [ -68.42369, -21.96529 ], [ -68.4267, -21.96462 ], [ -68.42812, -21.96461 ], [ -68.42901, -21.96437 ], [ -68.42981, -21.96394 ], [ -68.43028, -21.96325 ], [ -68.43106, -21.96305 ], [ -68.43203, -21.96333 ], [ -68.43364, -21.9636 ], [ -68.43479, -21.96349 ], [ -68.43583, -21.96325 ], [ -68.4369, -21.96318 ], [ -68.43752, -21.96292 ], [ -68.43776, -21.96266 ], [ -68.43985, -21.96186 ], [ -68.43981, -21.9616 ], [ -68.44044, -21.96134 ], [ -68.44128, -21.96151 ], [ -68.44236, -21.96116 ], [ -68.44305, -21.96112 ], [ -68.44503, -21.9613 ], [ -68.44621, -21.96151 ], [ -68.44778, -21.96157 ], [ -68.4484, -21.96144 ], [ -68.44874, -21.96092 ], [ -68.44937, -21.96088 ], [ -68.44981, -21.96109 ], [ -68.45017, -21.96109 ], [ -68.45037, -21.96139 ], [ -68.45109, -21.96145 ], [ -68.45121, -21.96162 ], [ -68.45153, -21.96166 ], [ -68.45163, -21.96218 ], [ -68.45245, -21.9625 ], [ -68.45323, -21.96262 ], [ -68.45341, -21.96236 ], [ -68.45378, -21.96234 ], [ -68.45389, -21.96272 ], [ -68.45436, -21.96283 ], [ -68.4547, -21.96309 ], [ -68.45561, -21.96341 ], [ -68.45638, -21.96447 ], [ -68.45736, -21.96484 ], [ -68.45907, -21.96496 ], [ -68.45963, -21.96546 ], [ -68.46056, -21.96556 ], [ -68.46082, -21.96545 ], [ -68.4611, -21.96569 ], [ -68.46174, -21.96551 ], [ -68.46249, -21.96401 ], [ -68.46309, -21.96383 ], [ -68.46339, -21.96415 ], [ -68.46383, -21.96434 ], [ -68.46393, -21.96464 ], [ -68.46439, -21.96494 ], [ -68.4656, -21.96487 ], [ -68.46708, -21.96465 ], [ -68.46744, -21.96487 ], [ -68.46794, -21.9648 ], [ -68.46861, -21.96484 ], [ -68.46913, -21.96471 ], [ -68.47078, -21.96395 ], [ -68.4714, -21.96395 ], [ -68.47178, -21.96406 ], [ -68.47218, -21.96393 ], [ -68.4725, -21.96348 ], [ -68.47295, -21.96326 ], [ -68.47355, -21.96311 ], [ -68.47387, -21.96244 ], [ -68.47465, -21.96231 ], [ -68.4751, -21.96207 ], [ -68.47542, -21.96155 ], [ -68.47598, -21.961 ], [ -68.47641, -21.96075 ], [ -68.47759, -21.96091 ], [ -68.47831, -21.96037 ], [ -68.47874, -21.96037 ], [ -68.47904, -21.96001 ], [ -68.47944, -21.96005 ], [ -68.47974, -21.95977 ], [ -68.4798, -21.9593 ], [ -68.47967, -21.95844 ], [ -68.47985, -21.95758 ], [ -68.47983, -21.95689 ], [ -68.48009, -21.95655 ], [ -68.48005, -21.95616 ], [ -68.48034, -21.95589 ], [ -68.48096, -21.95565 ], [ -68.48126, -21.95537 ], [ -68.48221, -21.95501 ], [ -68.48317, -21.95492 ], [ -68.48357, -21.95509 ], [ -68.48399, -21.9548 ], [ -68.48439, -21.95478 ], [ -68.48518, -21.95457 ], [ -68.48558, -21.95496 ], [ -68.48663, -21.95471 ], [ -68.48766, -21.95507 ], [ -68.48786, -21.95477 ], [ -68.48872, -21.95476 ], [ -68.48979, -21.95438 ], [ -68.49055, -21.9544 ], [ -68.49112, -21.9542 ], [ -68.49246, -21.95443 ], [ -68.49284, -21.95409 ], [ -68.49333, -21.95384 ], [ -68.49427, -21.95376 ], [ -68.49455, -21.95393 ], [ -68.4946, -21.95431 ], [ -68.49489, -21.95455 ], [ -68.49537, -21.9547 ], [ -68.49542, -21.95385 ], [ -68.49478, -21.95342 ], [ -68.49474, -21.95291 ], [ -68.49438, -21.95282 ], [ -68.49429, -21.95219 ], [ -68.49397, -21.95206 ], [ -68.49429, -21.95091 ], [ -68.49548, -21.95015 ], [ -68.49667, -21.9482 ], [ -68.49772, -21.94774 ], [ -68.49973, -21.94558 ], [ -68.50078, -21.94528 ], [ -68.50306, -21.94295 ], [ -68.50507, -21.94113 ], [ -68.50681, -21.9391 ], [ -68.50905, -21.93707 ], [ -68.5101, -21.9355 ], [ -68.51079, -21.93474 ], [ -68.5112, -21.93338 ], [ -68.51211, -21.93219 ], [ -68.51271, -21.931 ], [ -68.51385, -21.92927 ], [ -68.51377, -21.9288 ], [ -68.51427, -21.92812 ], [ -68.51582, -21.92694 ], [ -68.51678, -21.92443 ], [ -68.51866, -21.92223 ], [ -68.51935, -21.91994 ], [ -68.5215, -21.91608 ], [ -68.52164, -21.9148 ], [ -68.52242, -21.91353 ], [ -68.52251, -21.91311 ], [ -68.52256, -21.91175 ], [ -68.52311, -21.91039 ], [ -68.52321, -21.9092 ], [ -68.52412, -21.90801 ], [ -68.52458, -21.90721 ], [ -68.52458, -21.90657 ], [ -68.52372, -21.90614 ], [ -68.5235, -21.90444 ], [ -68.52318, -21.90444 ], [ -68.52327, -21.90308 ], [ -68.52396, -21.90156 ], [ -68.52419, -21.90126 ], [ -68.5241, -21.90011 ], [ -68.52447, -21.89816 ], [ -68.52466, -21.89795 ], [ -68.52471, -21.89689 ], [ -68.52434, -21.89684 ], [ -68.52467, -21.89311 ], [ -68.52723, -21.8904 ], [ -68.52723, -21.8895 ], [ -68.52655, -21.88929 ], [ -68.52651, -21.88891 ], [ -68.5256, -21.88852 ], [ -68.52529, -21.88563 ], [ -68.52506, -21.88563 ], [ -68.52506, -21.88512 ], [ -68.5247, -21.88512 ], [ -68.5243, -21.88363 ], [ -68.52434, -21.88261 ], [ -68.52417, -21.88121 ], [ -68.52444, -21.88087 ], [ -68.5245, -21.87637 ], [ -68.52468, -21.87595 ], [ -68.52478, -21.87522 ], [ -68.52451, -21.87522 ], [ -68.52456, -21.87357 ], [ -68.52428, -21.87357 ], [ -68.52388, -21.87246 ], [ -68.5236, -21.87242 ], [ -68.52361, -21.87161 ], [ -68.52329, -21.87161 ], [ -68.52334, -21.86864 ], [ -68.52312, -21.86863 ], [ -68.52335, -21.86783 ], [ -68.52326, -21.86566 ], [ -68.52299, -21.86566 ], [ -68.52277, -21.86413 ], [ -68.52245, -21.86404 ], [ -68.52209, -21.86315 ], [ -68.52181, -21.86319 ], [ -68.52182, -21.86222 ], [ -68.52159, -21.86222 ], [ -68.52159, -21.86137 ], [ -68.52128, -21.86124 ], [ -68.52132, -21.86001 ], [ -68.52105, -21.85996 ], [ -68.52106, -21.85894 ], [ -68.52069, -21.85889 ], [ -68.52074, -21.85753 ], [ -68.52042, -21.85753 ], [ -68.52011, -21.85647 ], [ -68.51983, -21.85647 ], [ -68.51957, -21.85485 ], [ -68.51839, -21.85451 ], [ -68.51839, -21.854 ], [ -68.51775, -21.8537 ], [ -68.51812, -21.8523 ], [ -68.51785, -21.8523 ], [ -68.51785, -21.85128 ], [ -68.51753, -21.85136 ], [ -68.51753, -21.85047 ], [ -68.51731, -21.85047 ], [ -68.51726, -21.84966 ], [ -68.51699, -21.84966 ], [ -68.51699, -21.84852 ], [ -68.51613, -21.84805 ], [ -68.51609, -21.84749 ], [ -68.51582, -21.84745 ], [ -68.51523, -21.84579 ], [ -68.51491, -21.84579 ], [ -68.51496, -21.84507 ], [ -68.51464, -21.84503 ], [ -68.5146, -21.84447 ], [ -68.51405, -21.84417 ], [ -68.51406, -21.84307 ], [ -68.51374, -21.84303 ], [ -68.51374, -21.84269 ], [ -68.51328, -21.84235 ], [ -68.51315, -21.8415 ], [ -68.51292, -21.84149 ], [ -68.51274, -21.84052 ], [ -68.51179, -21.83988 ], [ -68.51175, -21.83933 ], [ -68.51147, -21.83937 ], [ -68.51148, -21.83881 ], [ -68.51125, -21.83881 ], [ -68.51116, -21.83779 ], [ -68.51093, -21.83771 ], [ -68.51089, -21.83716 ], [ -68.51012, -21.8366 ], [ -68.50981, -21.83524 ], [ -68.50944, -21.8352 ], [ -68.50895, -21.83371 ], [ -68.50858, -21.83362 ], [ -68.50836, -21.8329 ], [ -68.5075, -21.83226 ], [ -68.50718, -21.83124 ], [ -68.50541, -21.82983 ], [ -68.50542, -21.8286 ], [ -68.50483, -21.82818 ], [ -68.50456, -21.82715 ], [ -68.50315, -21.82613 ], [ -68.50288, -21.82498 ], [ -68.50138, -21.82413 ], [ -68.50138, -21.82366 ], [ -68.50079, -21.82328 ], [ -68.50084, -21.82281 ], [ -68.49998, -21.82217 ], [ -68.49993, -21.82162 ], [ -68.49962, -21.82166 ], [ -68.49939, -21.82115 ], [ -68.4988, -21.82115 ], [ -68.49776, -21.81987 ], [ -68.49722, -21.81985 ], [ -68.49698, -21.81902 ], [ -68.49633, -21.81819 ], [ -68.49634, -21.81796 ], [ -68.49545, -21.81735 ], [ -68.49521, -21.81667 ], [ -68.49456, -21.81637 ], [ -68.49432, -21.81591 ], [ -68.4927, -21.81546 ], [ -68.49254, -21.81515 ], [ -68.49182, -21.81492 ], [ -68.49133, -21.81447 ], [ -68.48988, -21.81356 ], [ -68.48786, -21.81257 ], [ -68.48487, -21.8115 ], [ -68.48358, -21.81142 ], [ -68.48197, -21.81082 ], [ -68.48084, -21.81013 ], [ -68.48003, -21.80945 ], [ -68.4793, -21.80862 ], [ -68.47842, -21.80816 ], [ -68.47745, -21.8071 ], [ -68.47583, -21.80694 ], [ -68.47502, -21.80694 ], [ -68.47276, -21.80633 ], [ -68.4718, -21.80535 ], [ -68.46913, -21.80541 ], [ -68.46921, -21.80488 ], [ -68.46816, -21.80397 ], [ -68.46735, -21.80382 ], [ -68.46679, -21.80344 ], [ -68.46606, -21.80314 ], [ -68.46639, -21.80185 ], [ -68.46558, -21.8014 ], [ -68.46534, -21.80117 ], [ -68.46445, -21.80094 ], [ -68.46413, -21.80071 ], [ -68.46356, -21.80064 ], [ -68.46332, -21.80026 ], [ -68.46179, -21.79988 ], [ -68.46017, -21.7998 ], [ -68.46009, -21.79957 ], [ -68.45896, -21.79926 ], [ -68.45848, -21.79888 ], [ -68.45823, -21.79888 ], [ -68.45751, -21.79843 ], [ -68.45662, -21.79827 ], [ -68.45614, -21.79797 ], [ -68.45339, -21.79804 ], [ -68.45209, -21.79841 ], [ -68.45063, -21.79848 ], [ -68.45015, -21.79772 ], [ -68.44878, -21.79757 ], [ -68.44821, -21.79711 ], [ -68.44765, -21.79688 ], [ -68.44733, -21.7962 ], [ -68.4462, -21.79582 ], [ -68.44531, -21.79529 ], [ -68.44426, -21.79529 ], [ -68.44361, -21.79461 ], [ -68.44143, -21.79377 ], [ -68.44039, -21.79263 ], [ -68.43853, -21.79202 ], [ -68.43813, -21.79142 ], [ -68.43716, -21.79141 ], [ -68.4357, -21.79095 ], [ -68.43369, -21.79012 ], [ -68.43247, -21.78981 ], [ -68.42948, -21.78935 ], [ -68.42884, -21.78882 ], [ -68.42795, -21.78874 ], [ -68.42731, -21.78836 ], [ -68.42609, -21.78828 ], [ -68.42569, -21.78805 ], [ -68.42367, -21.78774 ], [ -68.42335, -21.78744 ], [ -68.42189, -21.78773 ], [ -68.41817, -21.78772 ], [ -68.4168, -21.78741 ], [ -68.41632, -21.78673 ], [ -68.41526, -21.78673 ], [ -68.41502, -21.78635 ] ] ] } }
]
}
