{
"type": "FeatureCollection",
"name": "SOC",
"crs": { "type": "name", "properties": { "name": "urn:ogc:def:crs:OGC:1.3:CRS84" } },
"xy_coordinate_resolution": 1e-05,
"features": [
{ "type": "Feature", "properties": { "objectid": 592, "peligro": "Medio", "volcan": null, "globalid_1": "223cd1eb-f789-4756-a189-36599d30ed1e", "Shape__Area": 0.0050175936029290824, "Shape__Length": 1.0638267160466903 }, "geometry": { "type": "Polygon", "coordinates": [ [ [ -68.35901, -24.35379 ], [ -68.35896, -24.35281 ], [ -68.35915, -24.35229 ], [ -68.36044, -24.34979 ], [ -68.36084, -24.34761 ], [ -68.3614, -24.3463 ], [ -68.36229, -24.34458 ], [ -68.3624, -24.34382 ], [ -68.36243, -24.34272 ], [ -68.36315, -24.3406 ], [ -68.3635, -24.33835 ], [ -68.36335, -24.33556 ], [ -68.36325, -24.3351 ], [ -68.36201, -24.33285 ], [ -68.3611, -24.33211 ], [ -68.36019, -24.33179 ], [ -68.35954, -24.33179 ], [ -68.35836, -24.33198 ], [ -68.35703, -24.3324 ], [ -68.35604, -24.33285 ], [ -68.35447, -24.33392 ], [ -68.35384, -24.33415 ], [ -68.35285, -24.33422 ], [ -68.35228, -24.33408 ], [ -68.35176, -24.33376 ], [ -68.35113, -24.33314 ], [ -68.35088, -24.33247 ], [ -68.35072, -24.3318 ], [ -68.35073, -24.33118 ], [ -68.3505, -24.32958 ], [ -68.34986, -24.32687 ], [ -68.34901, -24.32505 ], [ -68.34786, -24.32354 ], [ -68.3475, -24.32297 ], [ -68.34732, -24.32251 ], [ -68.34722, -24.32196 ], [ -68.34714, -24.32048 ], [ -68.34702, -24.31986 ], [ -68.34676, -24.31919 ], [ -68.34562, -24.31718 ], [ -68.34482, -24.31643 ], [ -68.34414, -24.3161 ], [ -68.34383, -24.31605 ], [ -68.34325, -24.31623 ], [ -68.34304, -24.31674 ], [ -68.34301, -24.31762 ], [ -68.34316, -24.3187 ], [ -68.34334, -24.31929 ], [ -68.34399, -24.3204 ], [ -68.34456, -24.32171 ], [ -68.34476, -24.32305 ], [ -68.34507, -24.32408 ], [ -68.34511, -24.3253 ], [ -68.34505, -24.32635 ], [ -68.34481, -24.32742 ], [ -68.3441, -24.32866 ], [ -68.34368, -24.32914 ], [ -68.34195, -24.33066 ], [ -68.34167, -24.33102 ], [ -68.34074, -24.33274 ], [ -68.34053, -24.33362 ], [ -68.34007, -24.3362 ], [ -68.33992, -24.33672 ], [ -68.33989, -24.33722 ], [ -68.33973, -24.33773 ], [ -68.33948, -24.33964 ], [ -68.33957, -24.34277 ], [ -68.34009, -24.34406 ], [ -68.34047, -24.3455 ], [ -68.34054, -24.34607 ], [ -68.34059, -24.34662 ], [ -68.34023, -24.34738 ], [ -68.33991, -24.34767 ], [ -68.33894, -24.34797 ], [ -68.33821, -24.34795 ], [ -68.3373, -24.3478 ], [ -68.33417, -24.34776 ], [ -68.3336, -24.34757 ], [ -68.33232, -24.34737 ], [ -68.3313, -24.34739 ], [ -68.3307, -24.34748 ], [ -68.32974, -24.34781 ], [ -68.32869, -24.34833 ], [ -68.32702, -24.34952 ], [ -68.32667, -24.3499 ], [ -68.32577, -24.35124 ], [ -68.3249, -24.35295 ], [ -68.32437, -24.35355 ], [ -68.32314, -24.35464 ], [ -68.32202, -24.35528 ], [ -68.31995, -24.35609 ], [ -68.31705, -24.35691 ], [ -68.31473, -24.35709 ], [ -68.31183, -24.35705 ], [ -68.31058, -24.35688 ], [ -68.31011, -24.35669 ], [ -68.30967, -24.35621 ], [ -68.30827, -24.35524 ], [ -68.30744, -24.35424 ], [ -68.30693, -24.35278 ], [ -68.30683, -24.35223 ], [ -68.30641, -24.35156 ], [ -68.30499, -24.35007 ], [ -68.30377, -24.34911 ], [ -68.30316, -24.34841 ], [ -68.30295, -24.34769 ], [ -68.30293, -24.34655 ], [ -68.30268, -24.34511 ], [ -68.30242, -24.34435 ], [ -68.30178, -24.34312 ], [ -68.30139, -24.34183 ], [ -68.30104, -24.33884 ], [ -68.30076, -24.33812 ], [ -68.30009, -24.33693 ], [ -68.29931, -24.33597 ], [ -68.29802, -24.33469 ], [ -68.29658, -24.33395 ], [ -68.29583, -24.33368 ], [ -68.29453, -24.33368 ], [ -68.29406, -24.33384 ], [ -68.29374, -24.33405 ], [ -68.29345, -24.33451 ], [ -68.29303, -24.33579 ], [ -68.29245, -24.33651 ], [ -68.29193, -24.3367 ], [ -68.29148, -24.33674 ], [ -68.29107, -24.33672 ], [ -68.29055, -24.33648 ], [ -68.2901, -24.33624 ], [ -68.28969, -24.33585 ], [ -68.2879, -24.33403 ], [ -68.28661, -24.33309 ], [ -68.28537, -24.33194 ], [ -68.28431, -24.33081 ], [ -68.28373, -24.33042 ], [ -68.28243, -24.32982 ], [ -68.28105, -24.32933 ], [ -68.2791, -24.32849 ], [ -68.27819, -24.32796 ], [ -68.27734, -24.32721 ], [ -68.27708, -24.32681 ], [ -68.2763, -24.32604 ], [ -68.27552, -24.32541 ], [ -68.27469, -24.32438 ], [ -68.27147, -24.3225 ], [ -68.27025, -24.32133 ], [ -68.26939, -24.32065 ], [ -68.26739, -24.31983 ], [ -68.26638, -24.31918 ], [ -68.26544, -24.31839 ], [ -68.26456, -24.31826 ], [ -68.26432, -24.31838 ], [ -68.26417, -24.3186 ], [ -68.26411, -24.3191 ], [ -68.26411, -24.3196 ], [ -68.26428, -24.32091 ], [ -68.26423, -24.32139 ], [ -68.26409, -24.32192 ], [ -68.26357, -24.32289 ], [ -68.2623, -24.32485 ], [ -68.26199, -24.3252 ], [ -68.26123, -24.32585 ], [ -68.26029, -24.32644 ], [ -68.25989, -24.32682 ], [ -68.25955, -24.32732 ], [ -68.25913, -24.3283 ], [ -68.25865, -24.32913 ], [ -68.25829, -24.32956 ], [ -68.25702, -24.33029 ], [ -68.25584, -24.33074 ], [ -68.25485, -24.33079 ], [ -68.25378, -24.33052 ], [ -68.25321, -24.33047 ], [ -68.25264, -24.33044 ], [ -68.25219, -24.33051 ], [ -68.2519, -24.33068 ], [ -68.25148, -24.33127 ], [ -68.2513, -24.33175 ], [ -68.25116, -24.33268 ], [ -68.25082, -24.33349 ], [ -68.25045, -24.33377 ], [ -68.24938, -24.33415 ], [ -68.24784, -24.33491 ], [ -68.24718, -24.33567 ], [ -68.24612, -24.3382 ], [ -68.24536, -24.33929 ], [ -68.24502, -24.33998 ], [ -68.2447, -24.34123 ], [ -68.24466, -24.34249 ], [ -68.24453, -24.34302 ], [ -68.24408, -24.3439 ], [ -68.24376, -24.34583 ], [ -68.24349, -24.34621 ], [ -68.24294, -24.34664 ], [ -68.24242, -24.34692 ], [ -68.24192, -24.34707 ], [ -68.23858, -24.34767 ], [ -68.23486, -24.34873 ], [ -68.23358, -24.34879 ], [ -68.23152, -24.34914 ], [ -68.22895, -24.35004 ], [ -68.22644, -24.35105 ], [ -68.222, -24.35306 ], [ -68.21659, -24.35595 ], [ -68.21494, -24.35708 ], [ -68.21206, -24.35927 ], [ -68.20865, -24.36226 ], [ -68.20519, -24.36587 ], [ -68.20358, -24.3674 ], [ -68.20214, -24.36908 ], [ -68.2018, -24.3697 ], [ -68.20071, -24.37237 ], [ -68.20037, -24.37302 ], [ -68.19852, -24.37566 ], [ -68.1966, -24.37873 ], [ -68.19536, -24.3809 ], [ -68.1951, -24.38147 ], [ -68.19392, -24.38524 ], [ -68.19363, -24.38701 ], [ -68.19326, -24.39107 ], [ -68.19332, -24.39348 ], [ -68.19345, -24.3942 ], [ -68.19341, -24.39678 ], [ -68.19353, -24.39843 ], [ -68.19395, -24.40218 ], [ -68.19422, -24.40371 ], [ -68.19539, -24.40852 ], [ -68.19545, -24.41151 ], [ -68.19571, -24.41249 ], [ -68.19671, -24.4147 ], [ -68.19769, -24.41645 ], [ -68.19963, -24.41928 ], [ -68.2009, -24.42055 ], [ -68.20234, -24.42395 ], [ -68.20268, -24.42457 ], [ -68.20387, -24.42625 ], [ -68.20493, -24.42736 ], [ -68.20604, -24.42906 ], [ -68.2083, -24.43189 ], [ -68.20949, -24.43304 ], [ -68.21351, -24.43622 ], [ -68.21807, -24.43889 ], [ -68.21869, -24.43933 ], [ -68.22253, -24.44114 ], [ -68.22443, -24.44187 ], [ -68.2281, -24.44282 ], [ -68.23032, -24.44357 ], [ -68.23264, -24.44415 ], [ -68.23647, -24.44458 ], [ -68.23916, -24.44464 ], [ -68.24161, -24.44484 ], [ -68.24378, -24.44529 ], [ -68.24908, -24.44474 ], [ -68.25314, -24.44407 ], [ -68.25416, -24.44397 ], [ -68.26017, -24.44233 ], [ -68.2642, -24.44049 ], [ -68.26886, -24.43862 ], [ -68.27059, -24.43806 ], [ -68.27178, -24.43747 ], [ -68.27348, -24.43645 ], [ -68.27678, -24.43474 ], [ -68.27879, -24.43348 ], [ -68.27966, -24.43284 ], [ -68.28097, -24.43149 ], [ -68.28181, -24.43087 ], [ -68.28389, -24.42806 ], [ -68.28483, -24.42716 ], [ -68.28586, -24.42594 ], [ -68.28675, -24.42525 ], [ -68.2878, -24.42411 ], [ -68.28831, -24.42318 ], [ -68.28945, -24.42152 ], [ -68.29018, -24.42073 ], [ -68.29105, -24.41921 ], [ -68.29166, -24.41761 ], [ -68.29261, -24.41551 ], [ -68.29411, -24.4127 ], [ -68.29544, -24.40929 ], [ -68.29649, -24.40702 ], [ -68.29692, -24.40516 ], [ -68.29717, -24.4033 ], [ -68.29761, -24.39828 ], [ -68.29732, -24.39419 ], [ -68.29741, -24.39324 ], [ -68.29772, -24.39257 ], [ -68.29798, -24.39224 ], [ -68.30029, -24.39076 ], [ -68.30369, -24.38889 ], [ -68.30663, -24.38757 ], [ -68.30875, -24.38686 ], [ -68.31126, -24.38649 ], [ -68.31251, -24.38647 ], [ -68.31402, -24.38665 ], [ -68.3148, -24.38689 ], [ -68.31649, -24.38773 ], [ -68.318, -24.38865 ], [ -68.31941, -24.38923 ], [ -68.32019, -24.38937 ], [ -68.32324, -24.38951 ], [ -68.32625, -24.38911 ], [ -68.32852, -24.38867 ], [ -68.33061, -24.38772 ], [ -68.33228, -24.38725 ], [ -68.33394, -24.38716 ], [ -68.33966, -24.38633 ], [ -68.34188, -24.38629 ], [ -68.3436, -24.38639 ], [ -68.34587, -24.38628 ], [ -68.34649, -24.38612 ], [ -68.34804, -24.38546 ], [ -68.34877, -24.38539 ], [ -68.35075, -24.38537 ], [ -68.35529, -24.38568 ], [ -68.35615, -24.38564 ], [ -68.35691, -24.3853 ], [ -68.35762, -24.38481 ], [ -68.35911, -24.38323 ], [ -68.35926, -24.38292 ], [ -68.35983, -24.3824 ], [ -68.36054, -24.38214 ], [ -68.36117, -24.38171 ], [ -68.36151, -24.38136 ], [ -68.36211, -24.38038 ], [ -68.36256, -24.37945 ], [ -68.36272, -24.37845 ], [ -68.36265, -24.3779 ], [ -68.36221, -24.3768 ], [ -68.36213, -24.37637 ], [ -68.36232, -24.37462 ], [ -68.36262, -24.37312 ], [ -68.36312, -24.3714 ], [ -68.36321, -24.37035 ], [ -68.36316, -24.36925 ], [ -68.36272, -24.36817 ], [ -68.36265, -24.36762 ], [ -68.36268, -24.36626 ], [ -68.36316, -24.36495 ], [ -68.36478, -24.36254 ], [ -68.3655, -24.36109 ], [ -68.36568, -24.36011 ], [ -68.36569, -24.35968 ], [ -68.36545, -24.35889 ], [ -68.36527, -24.35855 ], [ -68.36478, -24.35812 ], [ -68.36439, -24.35781 ], [ -68.3627, -24.35682 ], [ -68.36187, -24.35612 ], [ -68.35943, -24.35451 ], [ -68.35919, -24.35423 ], [ -68.35901, -24.35379 ] ], [ [ -68.27615, -24.36021 ], [ -68.27731, -24.35778 ], [ -68.27857, -24.3564 ], [ -68.27959, -24.35485 ], [ -68.2797, -24.35442 ], [ -68.27958, -24.35337 ], [ -68.27893, -24.35188 ], [ -68.27886, -24.35148 ], [ -68.27905, -24.3487 ], [ -68.27898, -24.34729 ], [ -68.2776, -24.34378 ], [ -68.27734, -24.34229 ], [ -68.27703, -24.34169 ], [ -68.27662, -24.34105 ], [ -68.27506, -24.33941 ], [ -68.27273, -24.3363 ], [ -68.27196, -24.33488 ], [ -68.27114, -24.33309 ], [ -68.27062, -24.33158 ], [ -68.27011, -24.33052 ], [ -68.2698, -24.33012 ], [ -68.26769, -24.32872 ], [ -68.26723, -24.32822 ], [ -68.26642, -24.32711 ], [ -68.26612, -24.32632 ], [ -68.2662, -24.32568 ], [ -68.2663, -24.32542 ], [ -68.26688, -24.32513 ], [ -68.26805, -24.32514 ], [ -68.26948, -24.32579 ], [ -68.27005, -24.32625 ], [ -68.2708, -24.32749 ], [ -68.27175, -24.33065 ], [ -68.27239, -24.33187 ], [ -68.27294, -24.33269 ], [ -68.27348, -24.33331 ], [ -68.27619, -24.33481 ], [ -68.27681, -24.33553 ], [ -68.2772, -24.33617 ], [ -68.27771, -24.33682 ], [ -68.27844, -24.33742 ], [ -68.27899, -24.33776 ], [ -68.27956, -24.33798 ], [ -68.28024, -24.3381 ], [ -68.28281, -24.33919 ], [ -68.28427, -24.33951 ], [ -68.28534, -24.33961 ], [ -68.28698, -24.34024 ], [ -68.28776, -24.34076 ], [ -68.28942, -24.34221 ], [ -68.29171, -24.34344 ], [ -68.29333, -24.34457 ], [ -68.29442, -24.34555 ], [ -68.29559, -24.34642 ], [ -68.29702, -24.34695 ], [ -68.29929, -24.34744 ], [ -68.29991, -24.3477 ], [ -68.3002, -24.34801 ], [ -68.30043, -24.34845 ], [ -68.30082, -24.34952 ], [ -68.30135, -24.35122 ], [ -68.30168, -24.35278 ], [ -68.3034, -24.35572 ], [ -68.30392, -24.35635 ], [ -68.30439, -24.35673 ], [ -68.30639, -24.35796 ], [ -68.30743, -24.3584 ], [ -68.30824, -24.35864 ], [ -68.30959, -24.35891 ], [ -68.31058, -24.35894 ], [ -68.31296, -24.35871 ], [ -68.31575, -24.35803 ], [ -68.32061, -24.35745 ], [ -68.3238, -24.35665 ], [ -68.32466, -24.35632 ], [ -68.3255, -24.35585 ], [ -68.32686, -24.35471 ], [ -68.32825, -24.35299 ], [ -68.32867, -24.35266 ], [ -68.32939, -24.35168 ], [ -68.32989, -24.35126 ], [ -68.33169, -24.35028 ], [ -68.33425, -24.34955 ], [ -68.33532, -24.34944 ], [ -68.33856, -24.34945 ], [ -68.34002, -24.34958 ], [ -68.34044, -24.34956 ], [ -68.34078, -24.34944 ], [ -68.34119, -24.34918 ], [ -68.34156, -24.34863 ], [ -68.34175, -24.3482 ], [ -68.34185, -24.34768 ], [ -68.34186, -24.34703 ], [ -68.34166, -24.34574 ], [ -68.34172, -24.3433 ], [ -68.34209, -24.34213 ], [ -68.34264, -24.34123 ], [ -68.34338, -24.34027 ], [ -68.34416, -24.33975 ], [ -68.34469, -24.33952 ], [ -68.34576, -24.33931 ], [ -68.34638, -24.33938 ], [ -68.34709, -24.33957 ], [ -68.34815, -24.3403 ], [ -68.34862, -24.34094 ], [ -68.34901, -24.34161 ], [ -68.34921, -24.34219 ], [ -68.34949, -24.34343 ], [ -68.34988, -24.34441 ], [ -68.35047, -24.34516 ], [ -68.35143, -24.34602 ], [ -68.35177, -24.34679 ], [ -68.35179, -24.34724 ], [ -68.35176, -24.34774 ], [ -68.35161, -24.34822 ], [ -68.35095, -24.34944 ], [ -68.34859, -24.3517 ], [ -68.34531, -24.35431 ], [ -68.34492, -24.355 ], [ -68.34468, -24.35567 ], [ -68.3446, -24.35634 ], [ -68.3447, -24.35722 ], [ -68.34506, -24.35863 ], [ -68.34539, -24.35935 ], [ -68.34591, -24.36007 ], [ -68.34724, -24.36118 ], [ -68.34757, -24.36168 ], [ -68.34798, -24.36268 ], [ -68.34806, -24.36355 ], [ -68.34804, -24.36637 ], [ -68.34866, -24.36864 ], [ -68.34974, -24.37149 ], [ -68.34973, -24.37352 ], [ -68.34925, -24.37586 ], [ -68.34904, -24.37641 ], [ -68.34872, -24.37683 ], [ -68.34809, -24.37724 ], [ -68.34791, -24.3776 ], [ -68.34793, -24.37791 ], [ -68.34801, -24.37819 ], [ -68.34902, -24.37884 ], [ -68.3509, -24.3794 ], [ -68.35186, -24.37979 ], [ -68.35397, -24.38123 ], [ -68.35415, -24.38152 ], [ -68.35404, -24.3818 ], [ -68.35383, -24.38188 ], [ -68.35316, -24.38179 ], [ -68.35193, -24.38178 ], [ -68.35104, -24.38192 ], [ -68.34887, -24.38272 ], [ -68.34793, -24.38315 ], [ -68.34678, -24.38341 ], [ -68.34631, -24.38336 ], [ -68.34548, -24.38311 ], [ -68.34373, -24.38287 ], [ -68.3429, -24.38267 ], [ -68.34235, -24.38265 ], [ -68.34097, -24.38266 ], [ -68.33972, -24.38278 ], [ -68.33846, -24.38265 ], [ -68.33619, -24.38264 ], [ -68.33523, -24.38283 ], [ -68.33437, -24.38283 ], [ -68.33297, -24.38237 ], [ -68.33204, -24.38191 ], [ -68.32907, -24.38077 ], [ -68.32698, -24.38081 ], [ -68.32562, -24.38116 ], [ -68.3251, -24.38147 ], [ -68.32405, -24.38233 ], [ -68.32295, -24.38297 ], [ -68.31937, -24.38427 ], [ -68.31715, -24.3844 ], [ -68.31637, -24.38459 ], [ -68.31178, -24.38476 ], [ -68.30923, -24.38525 ], [ -68.3079, -24.38574 ], [ -68.30363, -24.38756 ], [ -68.30091, -24.38896 ], [ -68.29814, -24.39064 ], [ -68.29738, -24.39095 ], [ -68.29563, -24.39154 ], [ -68.29354, -24.39213 ], [ -68.28916, -24.39313 ], [ -68.28772, -24.39365 ], [ -68.2862, -24.39447 ], [ -68.28558, -24.39493 ], [ -68.28505, -24.39557 ], [ -68.2846, -24.39643 ], [ -68.28409, -24.39855 ], [ -68.28401, -24.39941 ], [ -68.28396, -24.40309 ], [ -68.28364, -24.40541 ], [ -68.28298, -24.40691 ], [ -68.28045, -24.41074 ], [ -68.28019, -24.41146 ], [ -68.28004, -24.4133 ], [ -68.27975, -24.41471 ], [ -68.27909, -24.41607 ], [ -68.27862, -24.41669 ], [ -68.27701, -24.41842 ], [ -68.27583, -24.41987 ], [ -68.27392, -24.4218 ], [ -68.27181, -24.42454 ], [ -68.27092, -24.42549 ], [ -68.26845, -24.42682 ], [ -68.26693, -24.42705 ], [ -68.26434, -24.42823 ], [ -68.2635, -24.42866 ], [ -68.26117, -24.43013 ], [ -68.2586, -24.4315 ], [ -68.25484, -24.43303 ], [ -68.25296, -24.4335 ], [ -68.25071, -24.4338 ], [ -68.24956, -24.43387 ], [ -68.24819, -24.43408 ], [ -68.24493, -24.4343 ], [ -68.24119, -24.43402 ], [ -68.23681, -24.43388 ], [ -68.23483, -24.43341 ], [ -68.23334, -24.43321 ], [ -68.23095, -24.43241 ], [ -68.22928, -24.43166 ], [ -68.2279, -24.43084 ], [ -68.22744, -24.43032 ], [ -68.22385, -24.42781 ], [ -68.22237, -24.42596 ], [ -68.2218, -24.42544 ], [ -68.22097, -24.42488 ], [ -68.2194, -24.42406 ], [ -68.21781, -24.4236 ], [ -68.21713, -24.42331 ], [ -68.21573, -24.42254 ], [ -68.2151, -24.4221 ], [ -68.21381, -24.42074 ], [ -68.21339, -24.42016 ], [ -68.21205, -24.41769 ], [ -68.21138, -24.41683 ], [ -68.21073, -24.41568 ], [ -68.20896, -24.4118 ], [ -68.20749, -24.40904 ], [ -68.20728, -24.40844 ], [ -68.20639, -24.40497 ], [ -68.20575, -24.40299 ], [ -68.2052, -24.39981 ], [ -68.20507, -24.39844 ], [ -68.20507, -24.39548 ], [ -68.20485, -24.39314 ], [ -68.2048, -24.39156 ], [ -68.20483, -24.3908 ], [ -68.20553, -24.38865 ], [ -68.20579, -24.38741 ], [ -68.20651, -24.38576 ], [ -68.20886, -24.38157 ], [ -68.21057, -24.37921 ], [ -68.21167, -24.3775 ], [ -68.21347, -24.37462 ], [ -68.21455, -24.37252 ], [ -68.21607, -24.37052 ], [ -68.21668, -24.37004 ], [ -68.2178, -24.36933 ], [ -68.21845, -24.36869 ], [ -68.21944, -24.36788 ], [ -68.22018, -24.36739 ], [ -68.22182, -24.36653 ], [ -68.22298, -24.36601 ], [ -68.22569, -24.36514 ], [ -68.22713, -24.36436 ], [ -68.22865, -24.36387 ], [ -68.23134, -24.36317 ], [ -68.2322, -24.36279 ], [ -68.23435, -24.36165 ], [ -68.23505, -24.36146 ], [ -68.23581, -24.3614 ], [ -68.23857, -24.36072 ], [ -68.23959, -24.36013 ], [ -68.24035, -24.35934 ], [ -68.2416, -24.35877 ], [ -68.24241, -24.35873 ], [ -68.24445, -24.35886 ], [ -68.24541, -24.35903 ], [ -68.24822, -24.35983 ], [ -68.25052, -24.35999 ], [ -68.25154, -24.35997 ], [ -68.25261, -24.35993 ], [ -68.25347, -24.35974 ], [ -68.25456, -24.3597 ], [ -68.25558, -24.35975 ], [ -68.25767, -24.36002 ], [ -68.26143, -24.36148 ], [ -68.26223, -24.36186 ], [ -68.26325, -24.36239 ], [ -68.26673, -24.36461 ], [ -68.26855, -24.36552 ], [ -68.27022, -24.36613 ], [ -68.27087, -24.3662 ], [ -68.27199, -24.36614 ], [ -68.27251, -24.366 ], [ -68.27309, -24.36564 ], [ -68.27372, -24.36455 ], [ -68.27415, -24.36273 ], [ -68.27457, -24.36183 ], [ -68.27483, -24.36144 ], [ -68.27615, -24.36021 ] ] ] } },
{ "type": "Feature", "properties": { "objectid": 593, "peligro": "Bajo", "volcan": null, "globalid_1": "1027e35c-9f2a-4c66-8e25-4222eed72a3c", "Shape__Area": 0.005258267329395494, "Shape__Length": 1.2884763278417886 }, "geometry": { "type": "Polygon", "coordinates": [ [ [ -68.33689, -24.31212 ], [ -68.33699, -24.31308 ], [ -68.33727, -24.31442 ], [ -68.3375, -24.31501 ], [ -68.33827, -24.31669 ], [ -68.33959, -24.31868 ], [ -68.34037, -24.32012 ], [ -68.34065, -24.32081 ], [ -68.3407, -24.32205 ], [ -68.34051, -24.32349 ], [ -68.34016, -24.3247 ], [ -68.33969, -24.32539 ], [ -68.33911, -24.32687 ], [ -68.33881, -24.32929 ], [ -68.33875, -24.33065 ], [ -68.33802, -24.33473 ], [ -68.33789, -24.33619 ], [ -68.3379, -24.33788 ], [ -68.33808, -24.33903 ], [ -68.33807, -24.33987 ], [ -68.3382, -24.34087 ], [ -68.33861, -24.34238 ], [ -68.33861, -24.34271 ], [ -68.33845, -24.34288 ], [ -68.33821, -24.34298 ], [ -68.33686, -24.34302 ], [ -68.33545, -24.34292 ], [ -68.33446, -24.34298 ], [ -68.33208, -24.34338 ], [ -68.33125, -24.34337 ], [ -68.3307, -24.34321 ], [ -68.33013, -24.34282 ], [ -68.32927, -24.34191 ], [ -68.32868, -24.34145 ], [ -68.32696, -24.34097 ], [ -68.32584, -24.34041 ], [ -68.32537, -24.34031 ], [ -68.32493, -24.34036 ], [ -68.32469, -24.34057 ], [ -68.32453, -24.34091 ], [ -68.3245, -24.34146 ], [ -68.32458, -24.34203 ], [ -68.32509, -24.34371 ], [ -68.32532, -24.34416 ], [ -68.32608, -24.34493 ], [ -68.32639, -24.34574 ], [ -68.32656, -24.34651 ], [ -68.32651, -24.3472 ], [ -68.3263, -24.34782 ], [ -68.32595, -24.34844 ], [ -68.32548, -24.34901 ], [ -68.32514, -24.34958 ], [ -68.32419, -24.35168 ], [ -68.32382, -24.35228 ], [ -68.32343, -24.3529 ], [ -68.32288, -24.35335 ], [ -68.32146, -24.35394 ], [ -68.3168, -24.35543 ], [ -68.31552, -24.3558 ], [ -68.31408, -24.35601 ], [ -68.31302, -24.35598 ], [ -68.31205, -24.35574 ], [ -68.31132, -24.35545 ], [ -68.30898, -24.35388 ], [ -68.30802, -24.35266 ], [ -68.30759, -24.35146 ], [ -68.30671, -24.34967 ], [ -68.30604, -24.34909 ], [ -68.30567, -24.34856 ], [ -68.30482, -24.34636 ], [ -68.30394, -24.34531 ], [ -68.30363, -24.3448 ], [ -68.30312, -24.3433 ], [ -68.30289, -24.34169 ], [ -68.30249, -24.34002 ], [ -68.30036, -24.33578 ], [ -68.29979, -24.33504 ], [ -68.29883, -24.33403 ], [ -68.29784, -24.33338 ], [ -68.29688, -24.33299 ], [ -68.29589, -24.33287 ], [ -68.29511, -24.33289 ], [ -68.29335, -24.3335 ], [ -68.29262, -24.33357 ], [ -68.29176, -24.3334 ], [ -68.29002, -24.33255 ], [ -68.2894, -24.33241 ], [ -68.28742, -24.33156 ], [ -68.28693, -24.33127 ], [ -68.28552, -24.33012 ], [ -68.28461, -24.32957 ], [ -68.28399, -24.3292 ], [ -68.28269, -24.3287 ], [ -68.28121, -24.32797 ], [ -68.27914, -24.32667 ], [ -68.27764, -24.32516 ], [ -68.2765, -24.32379 ], [ -68.27437, -24.32261 ], [ -68.27333, -24.32213 ], [ -68.27195, -24.32129 ], [ -68.2713, -24.32052 ], [ -68.2698, -24.3191 ], [ -68.26915, -24.31857 ], [ -68.26668, -24.31696 ], [ -68.26585, -24.31607 ], [ -68.26549, -24.31557 ], [ -68.26528, -24.31545 ], [ -68.26463, -24.31561 ], [ -68.26418, -24.31616 ], [ -68.26386, -24.3169 ], [ -68.2636, -24.31728 ], [ -68.26347, -24.31756 ], [ -68.2633, -24.31928 ], [ -68.26298, -24.32045 ], [ -68.26195, -24.32243 ], [ -68.26106, -24.32381 ], [ -68.25943, -24.32586 ], [ -68.25801, -24.32829 ], [ -68.25772, -24.32867 ], [ -68.25712, -24.3291 ], [ -68.25605, -24.32945 ], [ -68.25323, -24.32932 ], [ -68.25225, -24.32939 ], [ -68.25176, -24.3295 ], [ -68.25149, -24.32972 ], [ -68.25097, -24.33043 ], [ -68.24994, -24.33234 ], [ -68.24949, -24.33293 ], [ -68.24839, -24.33398 ], [ -68.24606, -24.33519 ], [ -68.2452, -24.33542 ], [ -68.24169, -24.33578 ], [ -68.23952, -24.33613 ], [ -68.23832, -24.33644 ], [ -68.23649, -24.33705 ], [ -68.2343, -24.3379 ], [ -68.23302, -24.33813 ], [ -68.229, -24.33842 ], [ -68.22547, -24.33948 ], [ -68.22147, -24.34094 ], [ -68.21922, -24.34191 ], [ -68.21504, -24.34416 ], [ -68.21349, -24.3452 ], [ -68.20957, -24.34819 ], [ -68.20842, -24.34897 ], [ -68.20358, -24.35148 ], [ -68.20057, -24.35366 ], [ -68.19973, -24.35438 ], [ -68.19798, -24.35537 ], [ -68.1974, -24.35589 ], [ -68.19637, -24.35691 ], [ -68.1953, -24.35834 ], [ -68.19416, -24.36049 ], [ -68.19212, -24.36475 ], [ -68.19084, -24.36656 ], [ -68.19033, -24.36747 ], [ -68.18875, -24.3698 ], [ -68.18587, -24.37454 ], [ -68.18521, -24.37547 ], [ -68.18457, -24.37678 ], [ -68.18391, -24.37902 ], [ -68.18299, -24.38344 ], [ -68.18283, -24.38501 ], [ -68.18206, -24.39012 ], [ -68.18174, -24.39127 ], [ -68.18147, -24.39265 ], [ -68.18087, -24.39776 ], [ -68.18099, -24.39925 ], [ -68.1821, -24.40472 ], [ -68.18383, -24.41164 ], [ -68.18472, -24.41439 ], [ -68.18536, -24.41671 ], [ -68.18634, -24.41935 ], [ -68.18721, -24.42133 ], [ -68.18814, -24.42339 ], [ -68.18935, -24.42548 ], [ -68.1932, -24.43143 ], [ -68.1964, -24.43543 ], [ -68.19808, -24.43781 ], [ -68.19896, -24.43882 ], [ -68.20298, -24.44245 ], [ -68.20615, -24.44495 ], [ -68.20923, -24.44664 ], [ -68.21126, -24.44765 ], [ -68.21452, -24.44903 ], [ -68.21548, -24.44958 ], [ -68.21889, -24.4508 ], [ -68.22168, -24.45208 ], [ -68.22272, -24.45244 ], [ -68.22402, -24.45276 ], [ -68.22723, -24.45387 ], [ -68.23127, -24.45507 ], [ -68.23299, -24.45539 ], [ -68.23602, -24.45581 ], [ -68.23762, -24.45589 ], [ -68.24341, -24.45606 ], [ -68.24949, -24.45592 ], [ -68.25135, -24.45581 ], [ -68.2543, -24.45525 ], [ -68.26137, -24.45354 ], [ -68.26263, -24.45305 ], [ -68.26368, -24.45246 ], [ -68.26608, -24.45137 ], [ -68.26752, -24.45054 ], [ -68.26923, -24.44978 ], [ -68.27004, -24.44955 ], [ -68.27116, -24.44955 ], [ -68.27278, -24.44939 ], [ -68.27558, -24.4484 ], [ -68.27914, -24.44605 ], [ -68.28126, -24.44496 ], [ -68.28262, -24.44416 ], [ -68.28677, -24.44143 ], [ -68.28913, -24.43998 ], [ -68.2911, -24.4377 ], [ -68.2926, -24.43627 ], [ -68.29646, -24.43192 ], [ -68.29769, -24.43073 ], [ -68.29869, -24.42959 ], [ -68.30003, -24.42768 ], [ -68.30056, -24.4267 ], [ -68.30168, -24.42508 ], [ -68.30244, -24.42432 ], [ -68.30449, -24.42154 ], [ -68.30504, -24.42044 ], [ -68.30584, -24.41848 ], [ -68.30711, -24.41452 ], [ -68.30815, -24.40996 ], [ -68.30829, -24.4087 ], [ -68.30831, -24.40595 ], [ -68.30829, -24.40471 ], [ -68.30814, -24.40361 ], [ -68.30768, -24.39703 ], [ -68.3071, -24.39261 ], [ -68.30734, -24.39104 ], [ -68.30763, -24.39046 ], [ -68.30847, -24.38946 ], [ -68.31012, -24.38873 ], [ -68.31112, -24.38842 ], [ -68.31239, -24.38829 ], [ -68.31323, -24.38829 ], [ -68.31401, -24.38844 ], [ -68.31479, -24.38873 ], [ -68.31612, -24.38947 ], [ -68.31724, -24.39032 ], [ -68.31776, -24.39084 ], [ -68.31833, -24.39128 ], [ -68.31971, -24.39217 ], [ -68.32145, -24.39289 ], [ -68.32317, -24.39304 ], [ -68.32395, -24.393 ], [ -68.32542, -24.3926 ], [ -68.32599, -24.39239 ], [ -68.32831, -24.39115 ], [ -68.32946, -24.39075 ], [ -68.33074, -24.3905 ], [ -68.33609, -24.38971 ], [ -68.33993, -24.3887 ], [ -68.34184, -24.38842 ], [ -68.34651, -24.38846 ], [ -68.34831, -24.38857 ], [ -68.34891, -24.3887 ], [ -68.35029, -24.38918 ], [ -68.35462, -24.39092 ], [ -68.35525, -24.39123 ], [ -68.35611, -24.39131 ], [ -68.36003, -24.39101 ], [ -68.36245, -24.39059 ], [ -68.36308, -24.39041 ], [ -68.36489, -24.38948 ], [ -68.36591, -24.38884 ], [ -68.36643, -24.38817 ], [ -68.36704, -24.38696 ], [ -68.36712, -24.3865 ], [ -68.36707, -24.38552 ], [ -68.36723, -24.38469 ], [ -68.3675, -24.38412 ], [ -68.36776, -24.38381 ], [ -68.36836, -24.3834 ], [ -68.37179, -24.38189 ], [ -68.37283, -24.38137 ], [ -68.37328, -24.38098 ], [ -68.3737, -24.38048 ], [ -68.37428, -24.3791 ], [ -68.3748, -24.37853 ], [ -68.37543, -24.37808 ], [ -68.37633, -24.37646 ], [ -68.37662, -24.37498 ], [ -68.37647, -24.37404 ], [ -68.37621, -24.37352 ], [ -68.37592, -24.37316 ], [ -68.3752, -24.37256 ], [ -68.37413, -24.37124 ], [ -68.37393, -24.37016 ], [ -68.37391, -24.36961 ], [ -68.37391, -24.36832 ], [ -68.3741, -24.36689 ], [ -68.37508, -24.36481 ], [ -68.3756, -24.36393 ], [ -68.37621, -24.36245 ], [ -68.37793, -24.36074 ], [ -68.38015, -24.3592 ], [ -68.38089, -24.3586 ], [ -68.38139, -24.35798 ], [ -68.38207, -24.35643 ], [ -68.3826, -24.35567 ], [ -68.38292, -24.35436 ], [ -68.38285, -24.35151 ], [ -68.38291, -24.34946 ], [ -68.38281, -24.34896 ], [ -68.38279, -24.34743 ], [ -68.38321, -24.34654 ], [ -68.38392, -24.34559 ], [ -68.38494, -24.34481 ], [ -68.3867, -24.344 ], [ -68.38696, -24.34369 ], [ -68.3873, -24.34288 ], [ -68.38746, -24.34164 ], [ -68.38742, -24.3403 ], [ -68.38747, -24.33939 ], [ -68.38804, -24.33521 ], [ -68.38847, -24.33376 ], [ -68.38902, -24.3324 ], [ -68.38984, -24.33073 ], [ -68.39015, -24.32984 ], [ -68.39045, -24.32851 ], [ -68.39054, -24.32643 ], [ -68.39008, -24.32463 ], [ -68.38982, -24.32408 ], [ -68.3894, -24.3237 ], [ -68.3861, -24.32216 ], [ -68.385, -24.32153 ], [ -68.38428, -24.32136 ], [ -68.38297, -24.32136 ], [ -68.38245, -24.32147 ], [ -68.38187, -24.32173 ], [ -68.38138, -24.32207 ], [ -68.38017, -24.32347 ], [ -68.37967, -24.32443 ], [ -68.3793, -24.32483 ], [ -68.37812, -24.3265 ], [ -68.37757, -24.32712 ], [ -68.37514, -24.32845 ], [ -68.37407, -24.32882 ], [ -68.37195, -24.32915 ], [ -68.36945, -24.32931 ], [ -68.36781, -24.32906 ], [ -68.36695, -24.32865 ], [ -68.36659, -24.32836 ], [ -68.36635, -24.32791 ], [ -68.36607, -24.32664 ], [ -68.36645, -24.32112 ], [ -68.36638, -24.32055 ], [ -68.36612, -24.32012 ], [ -68.36537, -24.3192 ], [ -68.36513, -24.31877 ], [ -68.3648, -24.31736 ], [ -68.36494, -24.31576 ], [ -68.36513, -24.31524 ], [ -68.36518, -24.31392 ], [ -68.36478, -24.3122 ], [ -68.36418, -24.31122 ], [ -68.36335, -24.31071 ], [ -68.3622, -24.31021 ], [ -68.36135, -24.30965 ], [ -68.36078, -24.30886 ], [ -68.35962, -24.30656 ], [ -68.35897, -24.30606 ], [ -68.35858, -24.30599 ], [ -68.35798, -24.30596 ], [ -68.35693, -24.30639 ], [ -68.35649, -24.30672 ], [ -68.35601, -24.30727 ], [ -68.35507, -24.30815 ], [ -68.35352, -24.30984 ], [ -68.35028, -24.31212 ], [ -68.34978, -24.31235 ], [ -68.34936, -24.31235 ], [ -68.34749, -24.31177 ], [ -68.3464, -24.31102 ], [ -68.34588, -24.31047 ], [ -68.34513, -24.30863 ], [ -68.34483, -24.3076 ], [ -68.34459, -24.30719 ], [ -68.34353, -24.30604 ], [ -68.34219, -24.30252 ], [ -68.34151, -24.30137 ], [ -68.34099, -24.30089 ], [ -68.33803, -24.29899 ], [ -68.33675, -24.29801 ], [ -68.33507, -24.2962 ], [ -68.33332, -24.29554 ], [ -68.3322, -24.2954 ], [ -68.33171, -24.29539 ], [ -68.33137, -24.29549 ], [ -68.3309, -24.29577 ], [ -68.33061, -24.29611 ], [ -68.3304, -24.29668 ], [ -68.33037, -24.29716 ], [ -68.3305, -24.29823 ], [ -68.33116, -24.29984 ], [ -68.3314, -24.30027 ], [ -68.33179, -24.3007 ], [ -68.33563, -24.30373 ], [ -68.33664, -24.30519 ], [ -68.33726, -24.30658 ], [ -68.33746, -24.30782 ], [ -68.33748, -24.30861 ], [ -68.33721, -24.31021 ], [ -68.33695, -24.31124 ], [ -68.33689, -24.31212 ] ], [ [ -68.36182, -24.34553 ], [ -68.36063, -24.34877 ], [ -68.36044, -24.34979 ], [ -68.35986, -24.35086 ], [ -68.35896, -24.35329 ], [ -68.35901, -24.35379 ], [ -68.35919, -24.35423 ], [ -68.35974, -24.35475 ], [ -68.36187, -24.35612 ], [ -68.36221, -24.35646 ], [ -68.36343, -24.3573 ], [ -68.36439, -24.35781 ], [ -68.36527, -24.35855 ], [ -68.36545, -24.35889 ], [ -68.36569, -24.35968 ], [ -68.36568, -24.36011 ], [ -68.3655, -24.36109 ], [ -68.36513, -24.36187 ], [ -68.36415, -24.36354 ], [ -68.36316, -24.36495 ], [ -68.36268, -24.36626 ], [ -68.36265, -24.36762 ], [ -68.36272, -24.36817 ], [ -68.36316, -24.36925 ], [ -68.36321, -24.37035 ], [ -68.36312, -24.3714 ], [ -68.36262, -24.37312 ], [ -68.36232, -24.37462 ], [ -68.36213, -24.37637 ], [ -68.36221, -24.3768 ], [ -68.36265, -24.3779 ], [ -68.36272, -24.37845 ], [ -68.36256, -24.37945 ], [ -68.36211, -24.38038 ], [ -68.36151, -24.38136 ], [ -68.36117, -24.38171 ], [ -68.36054, -24.38214 ], [ -68.35983, -24.3824 ], [ -68.35926, -24.38292 ], [ -68.35911, -24.38323 ], [ -68.35762, -24.38481 ], [ -68.35691, -24.3853 ], [ -68.35615, -24.38564 ], [ -68.35529, -24.38568 ], [ -68.35075, -24.38537 ], [ -68.34877, -24.38539 ], [ -68.34804, -24.38546 ], [ -68.34649, -24.38612 ], [ -68.34587, -24.38628 ], [ -68.3436, -24.38639 ], [ -68.34188, -24.38629 ], [ -68.33966, -24.38633 ], [ -68.33394, -24.38716 ], [ -68.33228, -24.38725 ], [ -68.33061, -24.38772 ], [ -68.32852, -24.38867 ], [ -68.32625, -24.38911 ], [ -68.32324, -24.38951 ], [ -68.32019, -24.38937 ], [ -68.31941, -24.38923 ], [ -68.318, -24.38865 ], [ -68.31649, -24.38773 ], [ -68.3148, -24.38689 ], [ -68.31402, -24.38665 ], [ -68.31251, -24.38647 ], [ -68.31126, -24.38649 ], [ -68.30875, -24.38686 ], [ -68.30663, -24.38757 ], [ -68.30369, -24.38889 ], [ -68.30029, -24.39076 ], [ -68.29798, -24.39224 ], [ -68.29772, -24.39257 ], [ -68.29741, -24.39324 ], [ -68.29732, -24.39419 ], [ -68.29761, -24.39828 ], [ -68.29717, -24.4033 ], [ -68.29692, -24.40516 ], [ -68.29649, -24.40702 ], [ -68.29544, -24.40929 ], [ -68.29411, -24.4127 ], [ -68.29261, -24.41551 ], [ -68.29166, -24.41761 ], [ -68.29105, -24.41921 ], [ -68.29018, -24.42073 ], [ -68.28945, -24.42152 ], [ -68.28831, -24.42318 ], [ -68.2878, -24.42411 ], [ -68.28675, -24.42525 ], [ -68.28586, -24.42594 ], [ -68.28483, -24.42716 ], [ -68.28389, -24.42806 ], [ -68.28181, -24.43087 ], [ -68.28097, -24.43149 ], [ -68.27966, -24.43284 ], [ -68.27879, -24.43348 ], [ -68.27678, -24.43474 ], [ -68.27348, -24.43645 ], [ -68.27178, -24.43747 ], [ -68.27059, -24.43806 ], [ -68.26886, -24.43862 ], [ -68.2642, -24.44049 ], [ -68.26017, -24.44233 ], [ -68.25416, -24.44397 ], [ -68.25314, -24.44407 ], [ -68.24908, -24.44474 ], [ -68.24378, -24.44529 ], [ -68.24161, -24.44484 ], [ -68.23916, -24.44464 ], [ -68.23647, -24.44458 ], [ -68.23264, -24.44415 ], [ -68.23032, -24.44357 ], [ -68.2281, -24.44282 ], [ -68.22443, -24.44187 ], [ -68.22253, -24.44114 ], [ -68.21869, -24.43933 ], [ -68.21807, -24.43889 ], [ -68.21351, -24.43622 ], [ -68.20949, -24.43304 ], [ -68.2083, -24.43189 ], [ -68.20604, -24.42906 ], [ -68.20493, -24.42736 ], [ -68.20387, -24.42625 ], [ -68.20268, -24.42457 ], [ -68.20234, -24.42395 ], [ -68.2009, -24.42055 ], [ -68.19963, -24.41928 ], [ -68.19769, -24.41645 ], [ -68.19671, -24.4147 ], [ -68.19571, -24.41249 ], [ -68.19545, -24.41151 ], [ -68.19539, -24.40852 ], [ -68.19422, -24.40371 ], [ -68.19395, -24.40218 ], [ -68.19353, -24.39843 ], [ -68.19341, -24.39678 ], [ -68.19345, -24.3942 ], [ -68.19332, -24.39348 ], [ -68.19326, -24.39107 ], [ -68.19363, -24.38701 ], [ -68.19392, -24.38524 ], [ -68.1951, -24.38147 ], [ -68.19536, -24.3809 ], [ -68.1966, -24.37873 ], [ -68.19852, -24.37566 ], [ -68.20037, -24.37302 ], [ -68.20071, -24.37237 ], [ -68.2018, -24.3697 ], [ -68.20214, -24.36908 ], [ -68.20358, -24.3674 ], [ -68.20519, -24.36587 ], [ -68.20865, -24.36226 ], [ -68.21206, -24.35927 ], [ -68.21494, -24.35708 ], [ -68.21659, -24.35595 ], [ -68.222, -24.35306 ], [ -68.22644, -24.35105 ], [ -68.22895, -24.35004 ], [ -68.23152, -24.34914 ], [ -68.23358, -24.34879 ], [ -68.23486, -24.34873 ], [ -68.23858, -24.34767 ], [ -68.24192, -24.34707 ], [ -68.24242, -24.34692 ], [ -68.24294, -24.34664 ], [ -68.24349, -24.34621 ], [ -68.24376, -24.34583 ], [ -68.24408, -24.3439 ], [ -68.24453, -24.34302 ], [ -68.24466, -24.34249 ], [ -68.2447, -24.34123 ], [ -68.24502, -24.33998 ], [ -68.24536, -24.33929 ], [ -68.24612, -24.3382 ], [ -68.24718, -24.33567 ], [ -68.24784, -24.33491 ], [ -68.24938, -24.33415 ], [ -68.25045, -24.33377 ], [ -68.25082, -24.33349 ], [ -68.25116, -24.33268 ], [ -68.2513, -24.33175 ], [ -68.25148, -24.33127 ], [ -68.2519, -24.33068 ], [ -68.25219, -24.33051 ], [ -68.25264, -24.33044 ], [ -68.25321, -24.33047 ], [ -68.25378, -24.33052 ], [ -68.25485, -24.33079 ], [ -68.25584, -24.33074 ], [ -68.25702, -24.33029 ], [ -68.25829, -24.32956 ], [ -68.25865, -24.32913 ], [ -68.25913, -24.3283 ], [ -68.25955, -24.32732 ], [ -68.25989, -24.32682 ], [ -68.26029, -24.32644 ], [ -68.26123, -24.32585 ], [ -68.26199, -24.3252 ], [ -68.2623, -24.32485 ], [ -68.26357, -24.32289 ], [ -68.26409, -24.32192 ], [ -68.26423, -24.32139 ], [ -68.26428, -24.32091 ], [ -68.26411, -24.3196 ], [ -68.26411, -24.3191 ], [ -68.26417, -24.3186 ], [ -68.26432, -24.31838 ], [ -68.26456, -24.31826 ], [ -68.26544, -24.31839 ], [ -68.26638, -24.31918 ], [ -68.26739, -24.31983 ], [ -68.26939, -24.32065 ], [ -68.27025, -24.32133 ], [ -68.27147, -24.3225 ], [ -68.27469, -24.32438 ], [ -68.27552, -24.32541 ], [ -68.2763, -24.32604 ], [ -68.27708, -24.32681 ], [ -68.27734, -24.32721 ], [ -68.27819, -24.32796 ], [ -68.2791, -24.32849 ], [ -68.28105, -24.32933 ], [ -68.28243, -24.32982 ], [ -68.28373, -24.33042 ], [ -68.28431, -24.33081 ], [ -68.28537, -24.33194 ], [ -68.28661, -24.33309 ], [ -68.2879, -24.33403 ], [ -68.28969, -24.33585 ], [ -68.2901, -24.33624 ], [ -68.29055, -24.33648 ], [ -68.29107, -24.33672 ], [ -68.29148, -24.33674 ], [ -68.29193, -24.3367 ], [ -68.29245, -24.33651 ], [ -68.29303, -24.33579 ], [ -68.29345, -24.33451 ], [ -68.29374, -24.33405 ], [ -68.29406, -24.33384 ], [ -68.29453, -24.33368 ], [ -68.29583, -24.33368 ], [ -68.29658, -24.33395 ], [ -68.29802, -24.33469 ], [ -68.29931, -24.33597 ], [ -68.30009, -24.33693 ], [ -68.30076, -24.33812 ], [ -68.30104, -24.33884 ], [ -68.30139, -24.34183 ], [ -68.30178, -24.34312 ], [ -68.30242, -24.34435 ], [ -68.30268, -24.34511 ], [ -68.30293, -24.34655 ], [ -68.30295, -24.34769 ], [ -68.30316, -24.34841 ], [ -68.30377, -24.34911 ], [ -68.30499, -24.35007 ], [ -68.30641, -24.35156 ], [ -68.30683, -24.35223 ], [ -68.30693, -24.35278 ], [ -68.30744, -24.35424 ], [ -68.30827, -24.35524 ], [ -68.30967, -24.35621 ], [ -68.31011, -24.35669 ], [ -68.31058, -24.35688 ], [ -68.3111, -24.357 ], [ -68.31366, -24.35711 ], [ -68.31705, -24.35691 ], [ -68.31995, -24.35609 ], [ -68.32202, -24.35528 ], [ -68.32314, -24.35464 ], [ -68.32437, -24.35355 ], [ -68.3249, -24.35295 ], [ -68.32577, -24.35124 ], [ -68.32667, -24.3499 ], [ -68.32702, -24.34952 ], [ -68.32869, -24.34833 ], [ -68.32974, -24.34781 ], [ -68.3307, -24.34748 ], [ -68.3313, -24.34739 ], [ -68.33232, -24.34737 ], [ -68.3336, -24.34757 ], [ -68.33417, -24.34776 ], [ -68.3373, -24.3478 ], [ -68.33821, -24.34795 ], [ -68.33894, -24.34797 ], [ -68.33991, -24.34767 ], [ -68.34023, -24.34738 ], [ -68.34059, -24.34662 ], [ -68.34054, -24.34607 ], [ -68.34047, -24.3455 ], [ -68.34009, -24.34406 ], [ -68.33957, -24.34277 ], [ -68.33948, -24.33964 ], [ -68.33973, -24.33773 ], [ -68.33989, -24.33722 ], [ -68.33992, -24.33672 ], [ -68.34007, -24.3362 ], [ -68.34053, -24.33362 ], [ -68.34074, -24.33274 ], [ -68.34167, -24.33102 ], [ -68.34195, -24.33066 ], [ -68.34368, -24.32914 ], [ -68.34437, -24.32824 ], [ -68.34481, -24.32742 ], [ -68.34511, -24.32583 ], [ -68.34507, -24.32408 ], [ -68.34476, -24.32305 ], [ -68.34456, -24.32171 ], [ -68.34399, -24.3204 ], [ -68.34334, -24.31929 ], [ -68.34316, -24.3187 ], [ -68.34301, -24.31762 ], [ -68.34304, -24.31674 ], [ -68.34325, -24.31623 ], [ -68.34346, -24.31612 ], [ -68.34383, -24.31605 ], [ -68.34414, -24.3161 ], [ -68.34482, -24.31643 ], [ -68.34526, -24.31679 ], [ -68.34562, -24.31718 ], [ -68.34676, -24.31919 ], [ -68.34702, -24.31986 ], [ -68.34714, -24.32048 ], [ -68.34722, -24.32196 ], [ -68.34732, -24.32251 ], [ -68.3475, -24.32297 ], [ -68.34786, -24.32354 ], [ -68.34901, -24.32505 ], [ -68.34986, -24.32687 ], [ -68.3505, -24.32958 ], [ -68.35073, -24.33118 ], [ -68.35072, -24.3318 ], [ -68.35088, -24.33247 ], [ -68.35113, -24.33314 ], [ -68.35176, -24.33376 ], [ -68.35228, -24.33408 ], [ -68.35285, -24.33422 ], [ -68.35384, -24.33415 ], [ -68.35447, -24.33392 ], [ -68.35604, -24.33285 ], [ -68.35651, -24.33261 ], [ -68.35836, -24.33198 ], [ -68.35954, -24.33179 ], [ -68.36019, -24.33179 ], [ -68.36071, -24.33194 ], [ -68.3611, -24.33211 ], [ -68.36201, -24.33285 ], [ -68.36325, -24.3351 ], [ -68.36335, -24.33556 ], [ -68.3635, -24.33835 ], [ -68.36315, -24.3406 ], [ -68.36243, -24.34272 ], [ -68.3624, -24.34382 ], [ -68.36229, -24.34458 ], [ -68.36182, -24.34553 ] ] ] } },
{ "type": "Feature", "properties": { "objectid": 1273, "peligro": "Alto", "volcan": null, "globalid_1": "64ef8960-c309-4a40-b2f7-d9ef5864cae4", "Shape__Area": 0.007323772287918473, "Shape__Length": 0.49375790230305905 }, "geometry": { "type": "Polygon", "coordinates": [ [ [ -68.27731, -24.35778 ], [ -68.27615, -24.36021 ], [ -68.27483, -24.36144 ], [ -68.27457, -24.36183 ], [ -68.27415, -24.36273 ], [ -68.27372, -24.36455 ], [ -68.27309, -24.36564 ], [ -68.27251, -24.366 ], [ -68.27199, -24.36614 ], [ -68.27087, -24.3662 ], [ -68.27022, -24.36613 ], [ -68.26855, -24.36552 ], [ -68.26673, -24.36461 ], [ -68.26325, -24.36239 ], [ -68.26223, -24.36186 ], [ -68.26143, -24.36148 ], [ -68.25767, -24.36002 ], [ -68.25558, -24.35975 ], [ -68.25456, -24.3597 ], [ -68.25347, -24.35974 ], [ -68.25261, -24.35993 ], [ -68.25154, -24.35997 ], [ -68.25052, -24.35999 ], [ -68.24822, -24.35983 ], [ -68.24541, -24.35903 ], [ -68.24445, -24.35886 ], [ -68.24241, -24.35873 ], [ -68.2416, -24.35877 ], [ -68.24035, -24.35934 ], [ -68.23959, -24.36013 ], [ -68.23857, -24.36072 ], [ -68.23581, -24.3614 ], [ -68.23505, -24.36146 ], [ -68.23435, -24.36165 ], [ -68.2322, -24.36279 ], [ -68.23134, -24.36317 ], [ -68.22865, -24.36387 ], [ -68.22713, -24.36436 ], [ -68.22569, -24.36514 ], [ -68.22298, -24.36601 ], [ -68.22182, -24.36653 ], [ -68.22018, -24.36739 ], [ -68.21944, -24.36788 ], [ -68.21845, -24.36869 ], [ -68.2178, -24.36933 ], [ -68.21668, -24.37004 ], [ -68.21607, -24.37052 ], [ -68.21455, -24.37252 ], [ -68.21347, -24.37462 ], [ -68.21167, -24.3775 ], [ -68.21057, -24.37921 ], [ -68.20886, -24.38157 ], [ -68.20651, -24.38576 ], [ -68.20579, -24.38741 ], [ -68.20553, -24.38865 ], [ -68.20483, -24.3908 ], [ -68.2048, -24.39156 ], [ -68.20485, -24.39314 ], [ -68.20507, -24.39548 ], [ -68.20507, -24.39844 ], [ -68.2052, -24.39981 ], [ -68.20575, -24.40299 ], [ -68.20639, -24.40497 ], [ -68.20728, -24.40844 ], [ -68.20749, -24.40904 ], [ -68.20896, -24.4118 ], [ -68.21073, -24.41568 ], [ -68.21138, -24.41683 ], [ -68.21205, -24.41769 ], [ -68.21339, -24.42016 ], [ -68.21381, -24.42074 ], [ -68.2151, -24.4221 ], [ -68.21573, -24.42254 ], [ -68.21713, -24.42331 ], [ -68.21781, -24.4236 ], [ -68.2194, -24.42406 ], [ -68.22097, -24.42488 ], [ -68.2218, -24.42544 ], [ -68.22237, -24.42596 ], [ -68.22385, -24.42781 ], [ -68.22744, -24.43032 ], [ -68.2279, -24.43084 ], [ -68.22928, -24.43166 ], [ -68.23095, -24.43241 ], [ -68.23334, -24.43321 ], [ -68.23483, -24.43341 ], [ -68.23681, -24.43388 ], [ -68.24119, -24.43402 ], [ -68.24493, -24.4343 ], [ -68.24819, -24.43408 ], [ -68.24956, -24.43387 ], [ -68.25071, -24.4338 ], [ -68.25296, -24.4335 ], [ -68.25484, -24.43303 ], [ -68.2586, -24.4315 ], [ -68.26117, -24.43013 ], [ -68.2635, -24.42866 ], [ -68.26434, -24.42823 ], [ -68.26693, -24.42705 ], [ -68.26845, -24.42682 ], [ -68.27092, -24.42549 ], [ -68.27181, -24.42454 ], [ -68.27392, -24.4218 ], [ -68.27583, -24.41987 ], [ -68.27701, -24.41842 ], [ -68.27862, -24.41669 ], [ -68.27909, -24.41607 ], [ -68.27975, -24.41471 ], [ -68.28004, -24.4133 ], [ -68.28019, -24.41146 ], [ -68.28045, -24.41074 ], [ -68.28298, -24.40691 ], [ -68.28364, -24.40541 ], [ -68.28396, -24.40309 ], [ -68.28401, -24.39941 ], [ -68.28409, -24.39855 ], [ -68.2846, -24.39643 ], [ -68.28505, -24.39557 ], [ -68.28558, -24.39493 ], [ -68.2862, -24.39447 ], [ -68.28772, -24.39365 ], [ -68.28916, -24.39313 ], [ -68.29354, -24.39213 ], [ -68.29563, -24.39154 ], [ -68.29738, -24.39095 ], [ -68.29814, -24.39064 ], [ -68.30091, -24.38896 ], [ -68.30363, -24.38756 ], [ -68.3079, -24.38574 ], [ -68.30923, -24.38525 ], [ -68.31178, -24.38476 ], [ -68.31637, -24.38459 ], [ -68.31715, -24.3844 ], [ -68.31937, -24.38427 ], [ -68.32295, -24.38297 ], [ -68.32405, -24.38233 ], [ -68.3251, -24.38147 ], [ -68.32562, -24.38116 ], [ -68.32698, -24.38081 ], [ -68.32907, -24.38077 ], [ -68.33204, -24.38191 ], [ -68.33297, -24.38237 ], [ -68.33437, -24.38283 ], [ -68.33523, -24.38283 ], [ -68.33619, -24.38264 ], [ -68.33846, -24.38265 ], [ -68.33972, -24.38278 ], [ -68.34097, -24.38266 ], [ -68.34235, -24.38265 ], [ -68.3429, -24.38267 ], [ -68.34373, -24.38287 ], [ -68.34548, -24.38311 ], [ -68.34631, -24.38336 ], [ -68.34678, -24.38341 ], [ -68.34793, -24.38315 ], [ -68.34887, -24.38272 ], [ -68.35104, -24.38192 ], [ -68.35193, -24.38178 ], [ -68.35316, -24.38179 ], [ -68.35383, -24.38188 ], [ -68.35404, -24.3818 ], [ -68.35415, -24.38152 ], [ -68.35397, -24.38123 ], [ -68.35186, -24.37979 ], [ -68.3509, -24.3794 ], [ -68.34902, -24.37884 ], [ -68.34801, -24.37819 ], [ -68.34793, -24.37791 ], [ -68.34791, -24.3776 ], [ -68.34809, -24.37724 ], [ -68.34872, -24.37683 ], [ -68.34904, -24.37641 ], [ -68.34925, -24.37586 ], [ -68.34973, -24.37352 ], [ -68.34974, -24.37149 ], [ -68.34866, -24.36864 ], [ -68.34804, -24.36637 ], [ -68.34806, -24.36355 ], [ -68.34798, -24.36268 ], [ -68.34757, -24.36168 ], [ -68.34724, -24.36118 ], [ -68.34591, -24.36007 ], [ -68.34539, -24.35935 ], [ -68.34506, -24.35863 ], [ -68.3447, -24.35722 ], [ -68.3446, -24.35634 ], [ -68.34468, -24.35567 ], [ -68.34492, -24.355 ], [ -68.34531, -24.35431 ], [ -68.34859, -24.3517 ], [ -68.35095, -24.34944 ], [ -68.35161, -24.34822 ], [ -68.35176, -24.34774 ], [ -68.35179, -24.34724 ], [ -68.35177, -24.34679 ], [ -68.35143, -24.34602 ], [ -68.35047, -24.34516 ], [ -68.34988, -24.34441 ], [ -68.34949, -24.34343 ], [ -68.34921, -24.34219 ], [ -68.34901, -24.34161 ], [ -68.34862, -24.34094 ], [ -68.34815, -24.3403 ], [ -68.34709, -24.33957 ], [ -68.34638, -24.33938 ], [ -68.34576, -24.33931 ], [ -68.34469, -24.33952 ], [ -68.34416, -24.33975 ], [ -68.34338, -24.34027 ], [ -68.34264, -24.34123 ], [ -68.34209, -24.34213 ], [ -68.34172, -24.3433 ], [ -68.34166, -24.34574 ], [ -68.34186, -24.34703 ], [ -68.34185, -24.34768 ], [ -68.34175, -24.3482 ], [ -68.34156, -24.34863 ], [ -68.34119, -24.34918 ], [ -68.34078, -24.34944 ], [ -68.34044, -24.34956 ], [ -68.34002, -24.34958 ], [ -68.33856, -24.34945 ], [ -68.33532, -24.34944 ], [ -68.33425, -24.34955 ], [ -68.33169, -24.35028 ], [ -68.32989, -24.35126 ], [ -68.32939, -24.35168 ], [ -68.32867, -24.35266 ], [ -68.32825, -24.35299 ], [ -68.32686, -24.35471 ], [ -68.3255, -24.35585 ], [ -68.32466, -24.35632 ], [ -68.3238, -24.35665 ], [ -68.32061, -24.35745 ], [ -68.31575, -24.35803 ], [ -68.31296, -24.35871 ], [ -68.31058, -24.35894 ], [ -68.30959, -24.35891 ], [ -68.30824, -24.35864 ], [ -68.30743, -24.3584 ], [ -68.30639, -24.35796 ], [ -68.30439, -24.35673 ], [ -68.30392, -24.35635 ], [ -68.3034, -24.35572 ], [ -68.30168, -24.35278 ], [ -68.30135, -24.35122 ], [ -68.30082, -24.34952 ], [ -68.30043, -24.34845 ], [ -68.3002, -24.34801 ], [ -68.29991, -24.3477 ], [ -68.29929, -24.34744 ], [ -68.29702, -24.34695 ], [ -68.29559, -24.34642 ], [ -68.29442, -24.34555 ], [ -68.29333, -24.34457 ], [ -68.29171, -24.34344 ], [ -68.28942, -24.34221 ], [ -68.28776, -24.34076 ], [ -68.28698, -24.34024 ], [ -68.28534, -24.33961 ], [ -68.28427, -24.33951 ], [ -68.28281, -24.33919 ], [ -68.28024, -24.3381 ], [ -68.27956, -24.33798 ], [ -68.27899, -24.33776 ], [ -68.27844, -24.33742 ], [ -68.27771, -24.33682 ], [ -68.2772, -24.33617 ], [ -68.27681, -24.33553 ], [ -68.27619, -24.33481 ], [ -68.27348, -24.33331 ], [ -68.27294, -24.33269 ], [ -68.27239, -24.33187 ], [ -68.27175, -24.33065 ], [ -68.2708, -24.32749 ], [ -68.27005, -24.32625 ], [ -68.26948, -24.32579 ], [ -68.26805, -24.32514 ], [ -68.26688, -24.32513 ], [ -68.2663, -24.32542 ], [ -68.2662, -24.32568 ], [ -68.26612, -24.32632 ], [ -68.26642, -24.32711 ], [ -68.26723, -24.32822 ], [ -68.26769, -24.32872 ], [ -68.2698, -24.33012 ], [ -68.27011, -24.33052 ], [ -68.27062, -24.33158 ], [ -68.27114, -24.33309 ], [ -68.27196, -24.33488 ], [ -68.27273, -24.3363 ], [ -68.27506, -24.33941 ], [ -68.27662, -24.34105 ], [ -68.27703, -24.34169 ], [ -68.27734, -24.34229 ], [ -68.2776, -24.34378 ], [ -68.27898, -24.34729 ], [ -68.27905, -24.3487 ], [ -68.27886, -24.35148 ], [ -68.27893, -24.35188 ], [ -68.27958, -24.35337 ], [ -68.2797, -24.35442 ], [ -68.27959, -24.35485 ], [ -68.27857, -24.3564 ], [ -68.27731, -24.35778 ] ] ] } },
{ "type": "Feature", "properties": { "objectid": 2923, "peligro": "Medio", "volcan": null, "globalid_1": "7b7cb228-9767-4e06-ba68-9b263c1b6eba", "Shape__Area": 4.4216426431376021e-07, "Shape__Length": 0.006950734109459341 }, "geometry": { "type": "Polygon", "coordinates": [ [ [ -68.36063, -24.34877 ], [ -68.36182, -24.34553 ], [ -68.3614, -24.3463 ], [ -68.36084, -24.34761 ], [ -68.36063, -24.34877 ] ] ] } },
{ "type": "Feature", "properties": { "objectid": 2924, "peligro": "Medio", "volcan": null, "globalid_1": "aa6e548b-5978-4cbc-bd68-16f41eefc097", "Shape__Area": 2.7632324872683967e-07, "Shape__Length": 0.0052309481855203838 }, "geometry": { "type": "Polygon", "coordinates": [ [ [ -68.35896, -24.35329 ], [ -68.35986, -24.35086 ], [ -68.35915, -24.35229 ], [ -68.35896, -24.35281 ], [ -68.35896, -24.35329 ] ] ] } }
]
}
