{
"type": "FeatureCollection",
"name": "TAT",
"crs": { "type": "name", "properties": { "name": "urn:ogc:def:crs:OGC:1.3:CRS84" } },
"xy_coordinate_resolution": 1e-05,
"features": [
{ "type": "Feature", "properties": { "objectid": 1237, "peligro": "Alto", "volcan": null, "globalid_1": "c0149f7f-0ffc-4550-a9b1-f2babbe9d38c", "Shape__Area": 0.0037630971717135253, "Shape__Length": 0.30914047296770369 }, "geometry": { "type": "Polygon", "coordinates": [ [ [ -68.82108, -19.1387 ], [ -68.81998, -19.13985 ], [ -68.81876, -19.14154 ], [ -68.81793, -19.14291 ], [ -68.81747, -19.14403 ], [ -68.81698, -19.14622 ], [ -68.8169, -19.14759 ], [ -68.81633, -19.14835 ], [ -68.81621, -19.14892 ], [ -68.81621, -19.14979 ], [ -68.81655, -19.15047 ], [ -68.8167, -19.15127 ], [ -68.81655, -19.15278 ], [ -68.81682, -19.15372 ], [ -68.81723, -19.15451 ], [ -68.81693, -19.15537 ], [ -68.81643, -19.15595 ], [ -68.8159, -19.15678 ], [ -68.81575, -19.1575 ], [ -68.81514, -19.15862 ], [ -68.81488, -19.15934 ], [ -68.81438, -19.16031 ], [ -68.81415, -19.16128 ], [ -68.81465, -19.16182 ], [ -68.81506, -19.16247 ], [ -68.81533, -19.16362 ], [ -68.81533, -19.16427 ], [ -68.81513, -19.16546 ], [ -68.81517, -19.16683 ], [ -68.81544, -19.16726 ], [ -68.81612, -19.16889 ], [ -68.81744, -19.17112 ], [ -68.81827, -19.17166 ], [ -68.81884, -19.17217 ], [ -68.82021, -19.17292 ], [ -68.82051, -19.1735 ], [ -68.82104, -19.17404 ], [ -68.82104, -19.17473 ], [ -68.82058, -19.17494 ], [ -68.82017, -19.17498 ], [ -68.81922, -19.17534 ], [ -68.8185, -19.17545 ], [ -68.81831, -19.17588 ], [ -68.8188, -19.17631 ], [ -68.81891, -19.17707 ], [ -68.81819, -19.17844 ], [ -68.81823, -19.18114 ], [ -68.81788, -19.18168 ], [ -68.81785, -19.18229 ], [ -68.81766, -19.1829 ], [ -68.81784, -19.18348 ], [ -68.81883, -19.18492 ], [ -68.81936, -19.18626 ], [ -68.81959, -19.18658 ], [ -68.81962, -19.18694 ], [ -68.81886, -19.18791 ], [ -68.8181, -19.18852 ], [ -68.81744, -19.1886 ], [ -68.81649, -19.18932 ], [ -68.81395, -19.19007 ], [ -68.81202, -19.19032 ], [ -68.81126, -19.19057 ], [ -68.81076, -19.19118 ], [ -68.81065, -19.19176 ], [ -68.80966, -19.19244 ], [ -68.80909, -19.19259 ], [ -68.80868, -19.19251 ], [ -68.80796, -19.1923 ], [ -68.8075, -19.19197 ], [ -68.80701, -19.19226 ], [ -68.80613, -19.19302 ], [ -68.80534, -19.19341 ], [ -68.80484, -19.19395 ], [ -68.80424, -19.19445 ], [ -68.80374, -19.19503 ], [ -68.80207, -19.19723 ], [ -68.80131, -19.19759 ], [ -68.80097, -19.19784 ], [ -68.80025, -19.19946 ], [ -68.8001, -19.20058 ], [ -68.80021, -19.20115 ], [ -68.80074, -19.20166 ], [ -68.80123, -19.20259 ], [ -68.80161, -19.2031 ], [ -68.80237, -19.20375 ], [ -68.80373, -19.20544 ], [ -68.80384, -19.20627 ], [ -68.80346, -19.20714 ], [ -68.80346, -19.20851 ], [ -68.80365, -19.20894 ], [ -68.80426, -19.20908 ], [ -68.80429, -19.20941 ], [ -68.80426, -19.2098 ], [ -68.80361, -19.21085 ], [ -68.80369, -19.21189 ], [ -68.80414, -19.21247 ], [ -68.80478, -19.21355 ], [ -68.80509, -19.21373 ], [ -68.80645, -19.21406 ], [ -68.80694, -19.21453 ], [ -68.80725, -19.21507 ], [ -68.80788, -19.2157 ], [ -68.80859, -19.21716 ], [ -68.80907, -19.21739 ], [ -68.8099, -19.2176 ], [ -68.81101, -19.21803 ], [ -68.8119, -19.21795 ], [ -68.81275, -19.21774 ], [ -68.81331, -19.21729 ], [ -68.81413, -19.21627 ], [ -68.81561, -19.21516 ], [ -68.81611, -19.21453 ], [ -68.81677, -19.21396 ], [ -68.81794, -19.21382 ], [ -68.81916, -19.21321 ], [ -68.81954, -19.21292 ], [ -68.82121, -19.21281 ], [ -68.82143, -19.21263 ], [ -68.82265, -19.21263 ], [ -68.82318, -19.21274 ], [ -68.82344, -19.21267 ], [ -68.8239, -19.21296 ], [ -68.82432, -19.21393 ], [ -68.82424, -19.2148 ], [ -68.82409, -19.21526 ], [ -68.82409, -19.21581 ], [ -68.82435, -19.21635 ], [ -68.82473, -19.21656 ], [ -68.82539, -19.21631 ], [ -68.826, -19.21577 ], [ -68.82604, -19.21539 ], [ -68.82662, -19.21519 ], [ -68.82692, -19.21547 ], [ -68.8276, -19.21568 ], [ -68.82828, -19.21564 ], [ -68.82896, -19.21535 ], [ -68.82981, -19.21523 ], [ -68.83231, -19.2152 ], [ -68.83312, -19.21483 ], [ -68.83406, -19.21455 ], [ -68.83589, -19.21346 ], [ -68.83674, -19.21254 ], [ -68.83726, -19.21254 ], [ -68.83805, -19.21203 ], [ -68.83842, -19.2116 ], [ -68.83979, -19.21136 ], [ -68.84041, -19.21087 ], [ -68.84087, -19.21087 ], [ -68.84124, -19.2113 ], [ -68.84129, -19.21268 ], [ -68.84144, -19.21301 ], [ -68.84124, -19.21328 ], [ -68.8401, -19.21376 ], [ -68.84016, -19.21414 ], [ -68.84041, -19.21473 ], [ -68.84035, -19.21563 ], [ -68.83998, -19.21606 ], [ -68.84015, -19.21646 ], [ -68.84041, -19.21671 ], [ -68.84217, -19.21665 ], [ -68.84413, -19.21747 ], [ -68.8449, -19.21763 ], [ -68.84533, -19.21763 ], [ -68.84596, -19.21739 ], [ -68.84724, -19.21579 ], [ -68.84732, -19.21496 ], [ -68.84775, -19.21458 ], [ -68.84836, -19.21434 ], [ -68.84885, -19.2145 ], [ -68.84947, -19.2145 ], [ -68.85027, -19.21399 ], [ -68.85106, -19.21388 ], [ -68.85132, -19.21391 ], [ -68.85146, -19.21418 ], [ -68.85146, -19.21453 ], [ -68.85172, -19.21515 ], [ -68.85203, -19.2152 ], [ -68.85249, -19.21501 ], [ -68.85291, -19.21472 ], [ -68.85328, -19.21434 ], [ -68.85365, -19.2138 ], [ -68.85448, -19.21137 ], [ -68.85448, -19.21099 ], [ -68.85474, -19.21042 ], [ -68.85505, -19.21018 ], [ -68.85551, -19.21029 ], [ -68.85641, -19.21118 ], [ -68.8565, -19.21221 ], [ -68.85667, -19.21248 ], [ -68.85713, -19.21223 ], [ -68.85903, -19.21053 ], [ -68.85937, -19.21005 ], [ -68.86006, -19.20956 ], [ -68.86043, -19.20918 ], [ -68.86077, -19.20813 ], [ -68.86182, -19.20743 ], [ -68.86205, -19.20718 ], [ -68.86325, -19.20705 ], [ -68.86347, -19.20683 ], [ -68.86458, -19.20632 ], [ -68.86488, -19.20575 ], [ -68.86488, -19.20508 ], [ -68.86588, -19.20381 ], [ -68.86616, -19.20362 ], [ -68.86682, -19.20341 ], [ -68.86733, -19.20289 ], [ -68.8675, -19.20219 ], [ -68.86836, -19.20073 ], [ -68.86833, -19.19962 ], [ -68.86859, -19.19903 ], [ -68.8687, -19.19741 ], [ -68.86822, -19.1967 ], [ -68.86819, -19.19616 ], [ -68.86833, -19.19541 ], [ -68.86867, -19.1946 ], [ -68.86867, -19.19381 ], [ -68.8685, -19.19335 ], [ -68.86828, -19.19219 ], [ -68.86757, -19.191 ], [ -68.86757, -19.19043 ], [ -68.86711, -19.18811 ], [ -68.86709, -19.18757 ], [ -68.86652, -19.18676 ], [ -68.86638, -19.18619 ], [ -68.86555, -19.18497 ], [ -68.86442, -19.18365 ], [ -68.86399, -19.18287 ], [ -68.86365, -19.18249 ], [ -68.86285, -19.18241 ], [ -68.86214, -19.18259 ], [ -68.86163, -19.18286 ], [ -68.86109, -19.18292 ], [ -68.86055, -19.18267 ], [ -68.86018, -19.18219 ], [ -68.85995, -19.18151 ], [ -68.86007, -19.181 ], [ -68.86007, -19.18043 ], [ -68.86001, -19.17927 ], [ -68.85986, -19.17866 ], [ -68.85921, -19.17811 ], [ -68.85883, -19.17736 ], [ -68.85883, -19.17653 ], [ -68.85902, -19.17581 ], [ -68.85785, -19.17509 ], [ -68.85777, -19.17386 ], [ -68.85785, -19.17375 ], [ -68.85876, -19.17354 ], [ -68.85929, -19.17303 ], [ -68.85963, -19.17253 ], [ -68.85971, -19.17221 ], [ -68.86017, -19.17149 ], [ -68.8607, -19.17087 ], [ -68.86104, -19.17019 ], [ -68.86146, -19.16922 ], [ -68.86142, -19.16738 ], [ -68.86093, -19.16633 ], [ -68.85919, -19.16482 ], [ -68.85843, -19.16431 ], [ -68.85756, -19.16392 ], [ -68.85684, -19.16384 ], [ -68.85627, -19.16356 ], [ -68.856, -19.16323 ], [ -68.85555, -19.16168 ], [ -68.85566, -19.1606 ], [ -68.856, -19.15966 ], [ -68.85654, -19.1566 ], [ -68.85654, -19.15383 ], [ -68.85677, -19.1526 ], [ -68.85677, -19.15156 ], [ -68.85719, -19.15077 ], [ -68.85904, -19.14889 ], [ -68.85968, -19.1477 ], [ -68.85972, -19.14705 ], [ -68.85961, -19.14655 ], [ -68.85961, -19.14568 ], [ -68.86022, -19.14309 ], [ -68.86045, -19.14262 ], [ -68.86022, -19.14269 ], [ -68.85969, -19.14316 ], [ -68.85923, -19.14331 ], [ -68.85866, -19.14302 ], [ -68.85844, -19.14262 ], [ -68.85753, -19.1419 ], [ -68.8573, -19.14107 ], [ -68.85704, -19.14057 ], [ -68.857, -19.13999 ], [ -68.85726, -19.13891 ], [ -68.85726, -19.13844 ], [ -68.85708, -19.13826 ], [ -68.85503, -19.13826 ], [ -68.85317, -19.13836 ], [ -68.85268, -19.1389 ], [ -68.85188, -19.13908 ], [ -68.85131, -19.13944 ], [ -68.84945, -19.13955 ], [ -68.8471, -19.13811 ], [ -68.84582, -19.13724 ], [ -68.84457, -19.13627 ], [ -68.84324, -19.1354 ], [ -68.84231, -19.13497 ], [ -68.83708, -19.13406 ], [ -68.8356, -19.13392 ], [ -68.83094, -19.13424 ], [ -68.82946, -19.13488 ], [ -68.82813, -19.13521 ], [ -68.82669, -19.13542 ], [ -68.8254, -19.13585 ], [ -68.824, -19.13668 ], [ -68.82256, -19.1374 ], [ -68.82108, -19.1387 ] ] ] } },
{ "type": "Feature", "properties": { "objectid": 1238, "peligro": "Bajo", "volcan": null, "globalid_1": "9944572d-c751-4901-9e49-a5578fcb70e2", "Shape__Area": 0.0049518250878008985, "Shape__Length": 0.88545907970170989 }, "geometry": { "type": "Polygon", "coordinates": [ [ [ -68.85119, -19.11239 ], [ -68.84771, -19.11239 ], [ -68.84638, -19.11284 ], [ -68.84595, -19.11311 ], [ -68.84529, -19.11429 ], [ -68.8441, -19.11474 ], [ -68.84291, -19.11478 ], [ -68.84153, -19.11455 ], [ -68.8401, -19.11446 ], [ -68.8328, -19.11495 ], [ -68.82957, -19.11536 ], [ -68.82676, -19.1159 ], [ -68.82419, -19.11693 ], [ -68.822, -19.11815 ], [ -68.82024, -19.11946 ], [ -68.81948, -19.12032 ], [ -68.81686, -19.12195 ], [ -68.81543, -19.1224 ], [ -68.81391, -19.12303 ], [ -68.81253, -19.12371 ], [ -68.8106, -19.12479 ], [ -68.80993, -19.12542 ], [ -68.80917, -19.12637 ], [ -68.80879, -19.12768 ], [ -68.80831, -19.12818 ], [ -68.80765, -19.12908 ], [ -68.8065, -19.13098 ], [ -68.80598, -19.13152 ], [ -68.80498, -19.13229 ], [ -68.80422, -19.13301 ], [ -68.8035, -19.13351 ], [ -68.80208, -19.13387 ], [ -68.7996, -19.13572 ], [ -68.79917, -19.13635 ], [ -68.79765, -19.13712 ], [ -68.79703, -19.13775 ], [ -68.79636, -19.13811 ], [ -68.79641, -19.13874 ], [ -68.79736, -19.1411 ], [ -68.79736, -19.14209 ], [ -68.79688, -19.14281 ], [ -68.79597, -19.14326 ], [ -68.79569, -19.14385 ], [ -68.79583, -19.14449 ], [ -68.79645, -19.14534 ], [ -68.79668, -19.14611 ], [ -68.79678, -19.1472 ], [ -68.79644, -19.14801 ], [ -68.79445, -19.14914 ], [ -68.79335, -19.15063 ], [ -68.79302, -19.15126 ], [ -68.79249, -19.15199 ], [ -68.7922, -19.15289 ], [ -68.79178, -19.15384 ], [ -68.7913, -19.15587 ], [ -68.79087, -19.15655 ], [ -68.79077, -19.15886 ], [ -68.7912, -19.15994 ], [ -68.79162, -19.16062 ], [ -68.79186, -19.16148 ], [ -68.79176, -19.16446 ], [ -68.79214, -19.1651 ], [ -68.7928, -19.16727 ], [ -68.7928, -19.16799 ], [ -68.79299, -19.16944 ], [ -68.79285, -19.17003 ], [ -68.79175, -19.17138 ], [ -68.79028, -19.17269 ], [ -68.78966, -19.17341 ], [ -68.78913, -19.17491 ], [ -68.78904, -19.17576 ], [ -68.7887, -19.17694 ], [ -68.78808, -19.17712 ], [ -68.78789, -19.17739 ], [ -68.78665, -19.17798 ], [ -68.78594, -19.17852 ], [ -68.78551, -19.17897 ], [ -68.78451, -19.17929 ], [ -68.78294, -19.17951 ], [ -68.78099, -19.18046 ], [ -68.77982, -19.18127 ], [ -68.77906, -19.18204 ], [ -68.77863, -19.18267 ], [ -68.77825, -19.18362 ], [ -68.77725, -19.1842 ], [ -68.77634, -19.18457 ], [ -68.7751, -19.18524 ], [ -68.77344, -19.18578 ], [ -68.77291, -19.18623 ], [ -68.77201, -19.18669 ], [ -68.77134, -19.18768 ], [ -68.77082, -19.18953 ], [ -68.77015, -19.19062 ], [ -68.76943, -19.19129 ], [ -68.76848, -19.19193 ], [ -68.76701, -19.1926 ], [ -68.76629, -19.19319 ], [ -68.76586, -19.19477 ], [ -68.76538, -19.19536 ], [ -68.76486, -19.19622 ], [ -68.76457, -19.19689 ], [ -68.76452, -19.19789 ], [ -68.76471, -19.19848 ], [ -68.76471, -19.19929 ], [ -68.76428, -19.20006 ], [ -68.76442, -19.2006 ], [ -68.76514, -19.20092 ], [ -68.76552, -19.20191 ], [ -68.76513, -19.20264 ], [ -68.76442, -19.20327 ], [ -68.76437, -19.20417 ], [ -68.76451, -19.20449 ], [ -68.76589, -19.20576 ], [ -68.76618, -19.20657 ], [ -68.76627, -19.20757 ], [ -68.7657, -19.20955 ], [ -68.76574, -19.21032 ], [ -68.7666, -19.21109 ], [ -68.76669, -19.21286 ], [ -68.7674, -19.21471 ], [ -68.76712, -19.21534 ], [ -68.76759, -19.21616 ], [ -68.76797, -19.21706 ], [ -68.76849, -19.21765 ], [ -68.76863, -19.2186 ], [ -68.7692, -19.21896 ], [ -68.76963, -19.21942 ], [ -68.76973, -19.21964 ], [ -68.76973, -19.22077 ], [ -68.77058, -19.22123 ], [ -68.77072, -19.22208 ], [ -68.77215, -19.22552 ], [ -68.77267, -19.22561 ], [ -68.77419, -19.22634 ], [ -68.77595, -19.22869 ], [ -68.77699, -19.23068 ], [ -68.77761, -19.23109 ], [ -68.77809, -19.23172 ], [ -68.78042, -19.23209 ], [ -68.78127, -19.23408 ], [ -68.78199, -19.23449 ], [ -68.78265, -19.23467 ], [ -68.78294, -19.23467 ], [ -68.7838, -19.23494 ], [ -68.78441, -19.23526 ], [ -68.78527, -19.23612 ], [ -68.78517, -19.23671 ], [ -68.7847, -19.23734 ], [ -68.78298, -19.23801 ], [ -68.7817, -19.23883 ], [ -68.78112, -19.23941 ], [ -68.78108, -19.23991 ], [ -68.78136, -19.24005 ], [ -68.78188, -19.24005 ], [ -68.78255, -19.23955 ], [ -68.78284, -19.23923 ], [ -68.7835, -19.23892 ], [ -68.7845, -19.23887 ], [ -68.78574, -19.23847 ], [ -68.78708, -19.23838 ], [ -68.78903, -19.23847 ], [ -68.79026, -19.23884 ], [ -68.79188, -19.24006 ], [ -68.79278, -19.24092 ], [ -68.79374, -19.24155 ], [ -68.79523, -19.24214 ], [ -68.79628, -19.24278 ], [ -68.79795, -19.24328 ], [ -68.79909, -19.24341 ], [ -68.80099, -19.24418 ], [ -68.8019, -19.24468 ], [ -68.80218, -19.24468 ], [ -68.80423, -19.24383 ], [ -68.80528, -19.24392 ], [ -68.8057, -19.2445 ], [ -68.80661, -19.24482 ], [ -68.80704, -19.24478 ], [ -68.8078, -19.24455 ], [ -68.80861, -19.24455 ], [ -68.80913, -19.24501 ], [ -68.81013, -19.24537 ], [ -68.8108, -19.24578 ], [ -68.81137, -19.24578 ], [ -68.81218, -19.24528 ], [ -68.81318, -19.24496 ], [ -68.81403, -19.24424 ], [ -68.81532, -19.24379 ], [ -68.81556, -19.24307 ], [ -68.81599, -19.24275 ], [ -68.81646, -19.24226 ], [ -68.81699, -19.24158 ], [ -68.81923, -19.24099 ], [ -68.81975, -19.24099 ], [ -68.82123, -19.23986 ], [ -68.82204, -19.2391 ], [ -68.82213, -19.2381 ], [ -68.8228, -19.23751 ], [ -68.8237, -19.23711 ], [ -68.82523, -19.23598 ], [ -68.82747, -19.23557 ], [ -68.83059, -19.23395 ], [ -68.83197, -19.23391 ], [ -68.83359, -19.23309 ], [ -68.83511, -19.233 ], [ -68.83639, -19.23341 ], [ -68.83687, -19.23373 ], [ -68.83901, -19.23414 ], [ -68.83992, -19.23455 ], [ -68.84134, -19.23572 ], [ -68.84229, -19.23618 ], [ -68.84267, -19.23667 ], [ -68.84424, -19.23776 ], [ -68.84553, -19.23835 ], [ -68.84781, -19.23844 ], [ -68.84915, -19.23799 ], [ -68.84965, -19.23831 ], [ -68.84965, -19.23876 ], [ -68.85041, -19.23982 ], [ -68.85073, -19.2405 ], [ -68.85073, -19.24125 ], [ -68.85039, -19.24265 ], [ -68.85039, -19.2433 ], [ -68.85061, -19.24394 ], [ -68.85124, -19.24497 ], [ -68.85174, -19.24556 ], [ -68.85305, -19.24605 ], [ -68.85412, -19.24605 ], [ -68.85571, -19.24546 ], [ -68.8569, -19.24529 ], [ -68.85894, -19.24422 ], [ -68.8603, -19.24406 ], [ -68.86149, -19.24358 ], [ -68.86263, -19.24277 ], [ -68.86337, -19.2418 ], [ -68.86348, -19.2411 ], [ -68.86416, -19.24046 ], [ -68.86478, -19.23954 ], [ -68.86541, -19.23884 ], [ -68.86609, -19.23825 ], [ -68.86717, -19.23782 ], [ -68.86824, -19.23771 ], [ -68.86887, -19.23728 ], [ -68.86977, -19.2361 ], [ -68.87057, -19.23529 ], [ -68.87153, -19.23449 ], [ -68.87196, -19.23389 ], [ -68.87235, -19.23367 ], [ -68.87323, -19.23336 ], [ -68.87692, -19.23363 ], [ -68.87867, -19.23406 ], [ -68.87958, -19.23379 ], [ -68.87969, -19.23325 ], [ -68.87941, -19.23288 ], [ -68.87771, -19.23201 ], [ -68.87663, -19.23164 ], [ -68.87558, -19.23094 ], [ -68.8755, -19.23073 ], [ -68.87497, -19.23041 ], [ -68.8745, -19.22992 ], [ -68.87402, -19.22928 ], [ -68.87407, -19.2282 ], [ -68.87417, -19.22779 ], [ -68.87445, -19.22729 ], [ -68.87536, -19.22743 ], [ -68.87636, -19.22716 ], [ -68.87721, -19.22648 ], [ -68.88002, -19.22526 ], [ -68.8806, -19.22427 ], [ -68.88107, -19.22364 ], [ -68.88131, -19.22278 ], [ -68.88179, -19.22187 ], [ -68.88219, -19.22083 ], [ -68.88243, -19.21997 ], [ -68.8831, -19.21844 ], [ -68.88372, -19.21726 ], [ -68.88429, -19.21695 ], [ -68.88529, -19.21586 ], [ -68.88539, -19.21555 ], [ -68.88605, -19.21491 ], [ -68.88634, -19.21446 ], [ -68.88658, -19.21378 ], [ -68.88677, -19.21283 ], [ -68.8872, -19.2122 ], [ -68.88748, -19.21157 ], [ -68.88805, -19.21112 ], [ -68.88858, -19.21089 ], [ -68.88962, -19.21026 ], [ -68.89015, -19.20972 ], [ -68.89077, -19.20886 ], [ -68.89096, -19.20832 ], [ -68.89143, -19.20804 ], [ -68.89201, -19.20791 ], [ -68.89434, -19.20791 ], [ -68.89505, -19.20805 ], [ -68.89767, -19.20809 ], [ -68.89872, -19.2076 ], [ -68.89972, -19.20724 ], [ -68.90029, -19.20674 ], [ -68.90076, -19.20597 ], [ -68.90105, -19.20534 ], [ -68.90105, -19.20443 ], [ -68.90124, -19.2038 ], [ -68.90157, -19.20326 ], [ -68.90238, -19.20249 ], [ -68.90286, -19.20217 ], [ -68.90272, -19.20122 ], [ -68.90238, -19.20095 ], [ -68.90215, -19.20041 ], [ -68.90205, -19.19955 ], [ -68.9021, -19.19905 ], [ -68.9011, -19.19779 ], [ -68.90101, -19.19738 ], [ -68.90101, -19.19666 ], [ -68.90115, -19.19598 ], [ -68.90091, -19.19539 ], [ -68.90058, -19.19485 ], [ -68.90015, -19.19417 ], [ -68.89963, -19.19367 ], [ -68.89944, -19.19322 ], [ -68.89944, -19.19186 ], [ -68.89854, -19.19046 ], [ -68.89778, -19.18983 ], [ -68.8974, -19.18933 ], [ -68.8974, -19.18879 ], [ -68.89716, -19.18834 ], [ -68.89673, -19.18788 ], [ -68.8964, -19.18784 ], [ -68.89549, -19.18743 ], [ -68.89492, -19.18743 ], [ -68.89435, -19.1872 ], [ -68.89364, -19.18621 ], [ -68.8935, -19.1849 ], [ -68.89259, -19.18435 ], [ -68.89255, -19.18313 ], [ -68.89212, -19.18277 ], [ -68.89207, -19.18209 ], [ -68.89221, -19.18141 ], [ -68.89193, -19.18087 ], [ -68.89036, -19.18087 ], [ -68.88907, -19.18015 ], [ -68.8876, -19.1801 ], [ -68.88631, -19.17965 ], [ -68.88589, -19.17897 ], [ -68.88565, -19.17793 ], [ -68.88498, -19.17612 ], [ -68.88437, -19.17526 ], [ -68.88349, -19.17433 ], [ -68.88251, -19.17354 ], [ -68.88153, -19.17297 ], [ -68.8801, -19.17117 ], [ -68.87866, -19.17089 ], [ -68.87723, -19.16988 ], [ -68.87587, -19.16816 ], [ -68.8758, -19.1673 ], [ -68.87556, -19.16638 ], [ -68.87576, -19.1654 ], [ -68.87567, -19.16436 ], [ -68.87605, -19.1607 ], [ -68.87629, -19.15921 ], [ -68.87658, -19.15817 ], [ -68.87662, -19.15658 ], [ -68.87691, -19.15577 ], [ -68.87648, -19.15211 ], [ -68.87615, -19.15003 ], [ -68.87639, -19.14867 ], [ -68.87597, -19.1475 ], [ -68.87563, -19.14578 ], [ -68.87326, -19.14166 ], [ -68.87293, -19.14071 ], [ -68.8725, -19.13985 ], [ -68.87174, -19.1356 ], [ -68.87093, -19.13302 ], [ -68.87041, -19.1318 ], [ -68.87003, -19.13027 ], [ -68.87027, -19.12837 ], [ -68.8707, -19.12787 ], [ -68.87132, -19.12742 ], [ -68.87184, -19.12724 ], [ -68.87275, -19.12724 ], [ -68.87474, -19.12688 ], [ -68.8756, -19.12625 ], [ -68.87579, -19.12512 ], [ -68.87613, -19.12439 ], [ -68.87632, -19.12344 ], [ -68.87632, -19.12254 ], [ -68.87594, -19.12159 ], [ -68.87546, -19.12127 ], [ -68.87499, -19.12127 ], [ -68.87442, -19.12082 ], [ -68.87404, -19.11933 ], [ -68.87342, -19.1191 ], [ -68.87166, -19.11901 ], [ -68.87094, -19.11833 ], [ -68.87042, -19.11733 ], [ -68.86971, -19.11625 ], [ -68.86904, -19.11584 ], [ -68.86769, -19.11543 ], [ -68.86693, -19.11485 ], [ -68.86669, -19.11421 ], [ -68.86579, -19.11362 ], [ -68.8655, -19.11313 ], [ -68.86484, -19.11308 ], [ -68.86355, -19.11322 ], [ -68.86279, -19.11308 ], [ -68.86232, -19.11281 ], [ -68.86113, -19.11276 ], [ -68.86075, -19.11213 ], [ -68.86022, -19.1119 ], [ -68.85965, -19.11217 ], [ -68.85937, -19.11267 ], [ -68.85827, -19.1129 ], [ -68.85766, -19.11267 ], [ -68.85718, -19.11231 ], [ -68.85661, -19.11068 ], [ -68.85575, -19.11023 ], [ -68.85485, -19.10928 ], [ -68.85485, -19.10882 ], [ -68.855, -19.1081 ], [ -68.85519, -19.1076 ], [ -68.85523, -19.10656 ], [ -68.85514, -19.10579 ], [ -68.85471, -19.10593 ], [ -68.85471, -19.10643 ], [ -68.85414, -19.1076 ], [ -68.85309, -19.10842 ], [ -68.85295, -19.10905 ], [ -68.85304, -19.10995 ], [ -68.85281, -19.11049 ], [ -68.85304, -19.11153 ], [ -68.85285, -19.11212 ], [ -68.85119, -19.11239 ] ], [ [ -68.84875, -19.1241 ], [ -68.84973, -19.12367 ], [ -68.85042, -19.12299 ], [ -68.8514, -19.1227 ], [ -68.85205, -19.12234 ], [ -68.85352, -19.12227 ], [ -68.85406, -19.12249 ], [ -68.85557, -19.12281 ], [ -68.85663, -19.12375 ], [ -68.85743, -19.12415 ], [ -68.85796, -19.12422 ], [ -68.85982, -19.12386 ], [ -68.86061, -19.1244 ], [ -68.86175, -19.12444 ], [ -68.86213, -19.12501 ], [ -68.86254, -19.12545 ], [ -68.86249, -19.12703 ], [ -68.86268, -19.12757 ], [ -68.86305, -19.12793 ], [ -68.86366, -19.12826 ], [ -68.86412, -19.12826 ], [ -68.86457, -19.12883 ], [ -68.8654, -19.12963 ], [ -68.86601, -19.12992 ], [ -68.8662, -19.13118 ], [ -68.86658, -19.1324 ], [ -68.86692, -19.13417 ], [ -68.86699, -19.13702 ], [ -68.86672, -19.13831 ], [ -68.86634, -19.13943 ], [ -68.86593, -19.14029 ], [ -68.86501, -19.14184 ], [ -68.86505, -19.14282 ], [ -68.8652, -19.14318 ], [ -68.86505, -19.14397 ], [ -68.86524, -19.14613 ], [ -68.86543, -19.14692 ], [ -68.86554, -19.14815 ], [ -68.86592, -19.14909 ], [ -68.86629, -19.15222 ], [ -68.86622, -19.1546 ], [ -68.8661, -19.15528 ], [ -68.8661, -19.15838 ], [ -68.86655, -19.16004 ], [ -68.86655, -19.16216 ], [ -68.86644, -19.16335 ], [ -68.86658, -19.16413 ], [ -68.86666, -19.1655 ], [ -68.86741, -19.16629 ], [ -68.86794, -19.16751 ], [ -68.86824, -19.16858 ], [ -68.86945, -19.16995 ], [ -68.87141, -19.17512 ], [ -68.87171, -19.1772 ], [ -68.87208, -19.18086 ], [ -68.8723, -19.18118 ], [ -68.8731, -19.18202 ], [ -68.87439, -19.18256 ], [ -68.87473, -19.18285 ], [ -68.87492, -19.18332 ], [ -68.8756, -19.18383 ], [ -68.8759, -19.18401 ], [ -68.87681, -19.1843 ], [ -68.87787, -19.18426 ], [ -68.87871, -19.18412 ], [ -68.87916, -19.18394 ], [ -68.8811, -19.18354 ], [ -68.88132, -19.18387 ], [ -68.88204, -19.1839 ], [ -68.88273, -19.18452 ], [ -68.88314, -19.18513 ], [ -68.88326, -19.18549 ], [ -68.88424, -19.18643 ], [ -68.88519, -19.18661 ], [ -68.88572, -19.18697 ], [ -68.88599, -19.18765 ], [ -68.8861, -19.18823 ], [ -68.88648, -19.18873 ], [ -68.88648, -19.18935 ], [ -68.88602, -19.18974 ], [ -68.88568, -19.19053 ], [ -68.88519, -19.19133 ], [ -68.88473, -19.1923 ], [ -68.88382, -19.19525 ], [ -68.88382, -19.19655 ], [ -68.88393, -19.19713 ], [ -68.88431, -19.19763 ], [ -68.88442, -19.19828 ], [ -68.88332, -19.19932 ], [ -68.88264, -19.20037 ], [ -68.88268, -19.20102 ], [ -68.88283, -19.20156 ], [ -68.88351, -19.20206 ], [ -68.884, -19.20228 ], [ -68.88442, -19.20286 ], [ -68.88469, -19.2035 ], [ -68.88506, -19.2039 ], [ -68.88541, -19.20419 ], [ -68.88613, -19.20437 ], [ -68.88666, -19.20462 ], [ -68.88681, -19.20498 ], [ -68.88681, -19.20542 ], [ -68.88628, -19.20599 ], [ -68.88468, -19.20722 ], [ -68.88438, -19.20761 ], [ -68.88381, -19.20804 ], [ -68.88278, -19.20912 ], [ -68.8821, -19.21103 ], [ -68.88127, -19.21154 ], [ -68.88085, -19.21193 ], [ -68.88024, -19.21276 ], [ -68.87952, -19.21341 ], [ -68.8761, -19.21615 ], [ -68.87516, -19.21679 ], [ -68.87436, -19.21755 ], [ -68.87368, -19.21777 ], [ -68.87311, -19.21769 ], [ -68.87246, -19.21748 ], [ -68.87186, -19.21751 ], [ -68.87136, -19.21784 ], [ -68.87049, -19.21802 ], [ -68.86962, -19.21881 ], [ -68.86946, -19.21938 ], [ -68.86903, -19.2196 ], [ -68.86842, -19.22007 ], [ -68.86721, -19.22028 ], [ -68.86656, -19.22064 ], [ -68.86531, -19.2219 ], [ -68.86417, -19.2228 ], [ -68.86311, -19.22345 ], [ -68.86265, -19.22345 ], [ -68.86178, -19.22323 ], [ -68.86072, -19.22367 ], [ -68.8603, -19.2241 ], [ -68.86, -19.22478 ], [ -68.85973, -19.22503 ], [ -68.85928, -19.22532 ], [ -68.85855, -19.2255 ], [ -68.85798, -19.22604 ], [ -68.85628, -19.22651 ], [ -68.85571, -19.22683 ], [ -68.85358, -19.22751 ], [ -68.85034, -19.22812 ], [ -68.8481, -19.22834 ], [ -68.84727, -19.22834 ], [ -68.84655, -19.22859 ], [ -68.84579, -19.22913 ], [ -68.84533, -19.22931 ], [ -68.84484, -19.22942 ], [ -68.84366, -19.22945 ], [ -68.84298, -19.2297 ], [ -68.84215, -19.2297 ], [ -68.84165, -19.22985 ], [ -68.83888, -19.22981 ], [ -68.83703, -19.22873 ], [ -68.83593, -19.22887 ], [ -68.83501, -19.22923 ], [ -68.83414, -19.2293 ], [ -68.83335, -19.22948 ], [ -68.83247, -19.2298 ], [ -68.8319, -19.22977 ], [ -68.8313, -19.22951 ], [ -68.83115, -19.22904 ], [ -68.83058, -19.22861 ], [ -68.83008, -19.22854 ], [ -68.82933, -19.22857 ], [ -68.82917, -19.22894 ], [ -68.82722, -19.23009 ], [ -68.8249, -19.23077 ], [ -68.82452, -19.23102 ], [ -68.82339, -19.23131 ], [ -68.82194, -19.23131 ], [ -68.8213, -19.23105 ], [ -68.81952, -19.23188 ], [ -68.81834, -19.2322 ], [ -68.81705, -19.23195 ], [ -68.81648, -19.23173 ], [ -68.81557, -19.23162 ], [ -68.815, -19.23162 ], [ -68.8144, -19.23184 ], [ -68.81337, -19.23187 ], [ -68.8122, -19.23148 ], [ -68.80411, -19.23103 ], [ -68.80341, -19.23061 ], [ -68.80222, -19.23053 ], [ -68.80121, -19.23004 ], [ -68.80055, -19.22923 ], [ -68.79933, -19.22663 ], [ -68.79827, -19.22598 ], [ -68.79736, -19.22302 ], [ -68.79722, -19.22206 ], [ -68.7973, -19.2219 ], [ -68.79726, -19.22173 ], [ -68.79783, -19.22134 ], [ -68.79817, -19.22098 ], [ -68.79878, -19.21997 ], [ -68.79905, -19.21932 ], [ -68.79897, -19.21849 ], [ -68.79909, -19.21806 ], [ -68.79943, -19.21748 ], [ -68.79936, -19.21626 ], [ -68.7989, -19.21575 ], [ -68.79849, -19.21438 ], [ -68.79811, -19.21395 ], [ -68.79708, -19.21363 ], [ -68.79686, -19.21323 ], [ -68.79682, -19.2129 ], [ -68.79727, -19.21251 ], [ -68.79765, -19.21233 ], [ -68.798, -19.21179 ], [ -68.79807, -19.2111 ], [ -68.79796, -19.2106 ], [ -68.79796, -19.20992 ], [ -68.79823, -19.20927 ], [ -68.79834, -19.20855 ], [ -68.79827, -19.20682 ], [ -68.79793, -19.2062 ], [ -68.79721, -19.2057 ], [ -68.79728, -19.20512 ], [ -68.79698, -19.20462 ], [ -68.79615, -19.20364 ], [ -68.79592, -19.20274 ], [ -68.79604, -19.20083 ], [ -68.79581, -19.20029 ], [ -68.79581, -19.19964 ], [ -68.79623, -19.19817 ], [ -68.79608, -19.19655 ], [ -68.79547, -19.19539 ], [ -68.79502, -19.195 ], [ -68.79403, -19.19474 ], [ -68.79347, -19.19445 ], [ -68.79362, -19.19384 ], [ -68.79461, -19.19251 ], [ -68.79601, -19.19168 ], [ -68.79685, -19.191 ], [ -68.79734, -19.19078 ], [ -68.7987, -19.19039 ], [ -68.80011, -19.19046 ], [ -68.80052, -19.19071 ], [ -68.80094, -19.19118 ], [ -68.80196, -19.19158 ], [ -68.8025, -19.19122 ], [ -68.80303, -19.19039 ], [ -68.80379, -19.18982 ], [ -68.80398, -19.1892 ], [ -68.80455, -19.18845 ], [ -68.80481, -19.18773 ], [ -68.80527, -19.18686 ], [ -68.80622, -19.18586 ], [ -68.80686, -19.18542 ], [ -68.8077, -19.18517 ], [ -68.80812, -19.18517 ], [ -68.80902, -19.18564 ], [ -68.80967, -19.18586 ], [ -68.81016, -19.18579 ], [ -68.81073, -19.18528 ], [ -68.81191, -19.18449 ], [ -68.81236, -19.18402 ], [ -68.81362, -19.18316 ], [ -68.81388, -19.18266 ], [ -68.81388, -19.18212 ], [ -68.81354, -19.1815 ], [ -68.81301, -19.18089 ], [ -68.81093, -19.17883 ], [ -68.80983, -19.17743 ], [ -68.80896, -19.17678 ], [ -68.80816, -19.17638 ], [ -68.80752, -19.17573 ], [ -68.80722, -19.17526 ], [ -68.80707, -19.17479 ], [ -68.80646, -19.17407 ], [ -68.80616, -19.17342 ], [ -68.80502, -19.17151 ], [ -68.80438, -19.17004 ], [ -68.80377, -19.16838 ], [ -68.80378, -19.16759 ], [ -68.80404, -19.16618 ], [ -68.80397, -19.16528 ], [ -68.8034, -19.16366 ], [ -68.80333, -19.16272 ], [ -68.80295, -19.162 ], [ -68.80295, -19.1607 ], [ -68.80325, -19.15926 ], [ -68.80333, -19.15851 ], [ -68.80375, -19.15739 ], [ -68.80417, -19.15667 ], [ -68.80417, -19.15613 ], [ -68.80375, -19.15533 ], [ -68.8033, -19.15393 ], [ -68.80356, -19.15335 ], [ -68.80459, -19.15 ], [ -68.80539, -19.14835 ], [ -68.80592, -19.14683 ], [ -68.80615, -19.14579 ], [ -68.80718, -19.14384 ], [ -68.80778, -19.14287 ], [ -68.8093, -19.14132 ], [ -68.81002, -19.14071 ], [ -68.81139, -19.13798 ], [ -68.81378, -19.13409 ], [ -68.81432, -19.13275 ], [ -68.81494, -19.13178 ], [ -68.81548, -19.13124 ], [ -68.81623, -19.13077 ], [ -68.81787, -19.12941 ], [ -68.81866, -19.1289 ], [ -68.82162, -19.12736 ], [ -68.82283, -19.12685 ], [ -68.82393, -19.12664 ], [ -68.82602, -19.12574 ], [ -68.82689, -19.12549 ], [ -68.82837, -19.1252 ], [ -68.83072, -19.12419 ], [ -68.83167, -19.12398 ], [ -68.8333, -19.12394 ], [ -68.83463, -19.12362 ], [ -68.8359, -19.12348 ], [ -68.83847, -19.12395 ], [ -68.84045, -19.12395 ], [ -68.84132, -19.12435 ], [ -68.84473, -19.12514 ], [ -68.84602, -19.12511 ], [ -68.84685, -19.125 ], [ -68.84742, -19.12453 ], [ -68.8481, -19.12425 ], [ -68.84875, -19.1241 ] ] ] } },
{ "type": "Feature", "properties": { "objectid": 1274, "peligro": "Medio", "volcan": null, "globalid_1": "8337ad4a-4c95-4167-ab56-f08d0e702737", "Shape__Area": 0.0033580482665911404, "Shape__Length": 0.68401920931733617 }, "geometry": { "type": "Polygon", "coordinates": [ [ [ -68.84875, -19.1241 ], [ -68.8481, -19.12425 ], [ -68.84742, -19.12453 ], [ -68.84685, -19.125 ], [ -68.84602, -19.12511 ], [ -68.84473, -19.12514 ], [ -68.84132, -19.12435 ], [ -68.84045, -19.12395 ], [ -68.83847, -19.12395 ], [ -68.8359, -19.12348 ], [ -68.83463, -19.12362 ], [ -68.8333, -19.12394 ], [ -68.83167, -19.12398 ], [ -68.83072, -19.12419 ], [ -68.82837, -19.1252 ], [ -68.82689, -19.12549 ], [ -68.82602, -19.12574 ], [ -68.82393, -19.12664 ], [ -68.82283, -19.12685 ], [ -68.82162, -19.12736 ], [ -68.81866, -19.1289 ], [ -68.81787, -19.12941 ], [ -68.81623, -19.13077 ], [ -68.81548, -19.13124 ], [ -68.81494, -19.13178 ], [ -68.81432, -19.13275 ], [ -68.81378, -19.13409 ], [ -68.81139, -19.13798 ], [ -68.81002, -19.14071 ], [ -68.8093, -19.14132 ], [ -68.80778, -19.14287 ], [ -68.80718, -19.14384 ], [ -68.80615, -19.14579 ], [ -68.80592, -19.14683 ], [ -68.80539, -19.14835 ], [ -68.80459, -19.15 ], [ -68.80356, -19.15335 ], [ -68.8033, -19.15393 ], [ -68.80375, -19.15533 ], [ -68.80417, -19.15613 ], [ -68.80417, -19.15667 ], [ -68.80375, -19.15739 ], [ -68.80333, -19.15851 ], [ -68.80325, -19.15926 ], [ -68.80295, -19.1607 ], [ -68.80295, -19.162 ], [ -68.80333, -19.16272 ], [ -68.8034, -19.16366 ], [ -68.80397, -19.16528 ], [ -68.80404, -19.16618 ], [ -68.80378, -19.16759 ], [ -68.80377, -19.16838 ], [ -68.80438, -19.17004 ], [ -68.80502, -19.17151 ], [ -68.80616, -19.17342 ], [ -68.80646, -19.17407 ], [ -68.80707, -19.17479 ], [ -68.80722, -19.17526 ], [ -68.80752, -19.17573 ], [ -68.80816, -19.17638 ], [ -68.80896, -19.17678 ], [ -68.80983, -19.17743 ], [ -68.81093, -19.17883 ], [ -68.81301, -19.18089 ], [ -68.81354, -19.1815 ], [ -68.81388, -19.18212 ], [ -68.81388, -19.18266 ], [ -68.81362, -19.18316 ], [ -68.81236, -19.18402 ], [ -68.81191, -19.18449 ], [ -68.81073, -19.18528 ], [ -68.81016, -19.18579 ], [ -68.80967, -19.18586 ], [ -68.80902, -19.18564 ], [ -68.80812, -19.18517 ], [ -68.8077, -19.18517 ], [ -68.80686, -19.18542 ], [ -68.80622, -19.18586 ], [ -68.80527, -19.18686 ], [ -68.80481, -19.18773 ], [ -68.80455, -19.18845 ], [ -68.80398, -19.1892 ], [ -68.80379, -19.18982 ], [ -68.80303, -19.19039 ], [ -68.8025, -19.19122 ], [ -68.80196, -19.19158 ], [ -68.80094, -19.19118 ], [ -68.80052, -19.19071 ], [ -68.80011, -19.19046 ], [ -68.7987, -19.19039 ], [ -68.79734, -19.19078 ], [ -68.79685, -19.191 ], [ -68.79601, -19.19168 ], [ -68.79461, -19.19251 ], [ -68.79362, -19.19384 ], [ -68.79347, -19.19445 ], [ -68.79403, -19.19474 ], [ -68.79502, -19.195 ], [ -68.79547, -19.19539 ], [ -68.79608, -19.19655 ], [ -68.79623, -19.19817 ], [ -68.79581, -19.19964 ], [ -68.79581, -19.20029 ], [ -68.79604, -19.20083 ], [ -68.79592, -19.20274 ], [ -68.79615, -19.20364 ], [ -68.79698, -19.20462 ], [ -68.79728, -19.20512 ], [ -68.79721, -19.2057 ], [ -68.79793, -19.2062 ], [ -68.79827, -19.20682 ], [ -68.79834, -19.20855 ], [ -68.79823, -19.20927 ], [ -68.79796, -19.20992 ], [ -68.79796, -19.2106 ], [ -68.79807, -19.2111 ], [ -68.798, -19.21179 ], [ -68.79765, -19.21233 ], [ -68.79727, -19.21251 ], [ -68.79682, -19.2129 ], [ -68.79686, -19.21323 ], [ -68.79708, -19.21363 ], [ -68.79811, -19.21395 ], [ -68.79849, -19.21438 ], [ -68.7989, -19.21575 ], [ -68.79936, -19.21626 ], [ -68.79943, -19.21748 ], [ -68.79909, -19.21806 ], [ -68.79897, -19.21849 ], [ -68.79905, -19.21932 ], [ -68.79878, -19.21997 ], [ -68.79817, -19.22098 ], [ -68.79783, -19.22134 ], [ -68.79726, -19.22173 ], [ -68.7973, -19.2219 ], [ -68.79722, -19.22206 ], [ -68.79736, -19.22302 ], [ -68.79827, -19.22598 ], [ -68.79933, -19.22663 ], [ -68.80055, -19.22923 ], [ -68.80121, -19.23004 ], [ -68.80222, -19.23053 ], [ -68.80341, -19.23061 ], [ -68.80411, -19.23103 ], [ -68.8122, -19.23148 ], [ -68.81337, -19.23187 ], [ -68.8144, -19.23184 ], [ -68.815, -19.23162 ], [ -68.81557, -19.23162 ], [ -68.81648, -19.23173 ], [ -68.81705, -19.23195 ], [ -68.81834, -19.2322 ], [ -68.81952, -19.23188 ], [ -68.8213, -19.23105 ], [ -68.82194, -19.23131 ], [ -68.82339, -19.23131 ], [ -68.82452, -19.23102 ], [ -68.8249, -19.23077 ], [ -68.82722, -19.23009 ], [ -68.82917, -19.22894 ], [ -68.82933, -19.22857 ], [ -68.83008, -19.22854 ], [ -68.83058, -19.22861 ], [ -68.83115, -19.22904 ], [ -68.8313, -19.22951 ], [ -68.8319, -19.22977 ], [ -68.83247, -19.2298 ], [ -68.83335, -19.22948 ], [ -68.83414, -19.2293 ], [ -68.83501, -19.22923 ], [ -68.83593, -19.22887 ], [ -68.83703, -19.22873 ], [ -68.83888, -19.22981 ], [ -68.84165, -19.22985 ], [ -68.84215, -19.2297 ], [ -68.84298, -19.2297 ], [ -68.84366, -19.22945 ], [ -68.84484, -19.22942 ], [ -68.84533, -19.22931 ], [ -68.84579, -19.22913 ], [ -68.84655, -19.22859 ], [ -68.84727, -19.22834 ], [ -68.8481, -19.22834 ], [ -68.85034, -19.22812 ], [ -68.85358, -19.22751 ], [ -68.85571, -19.22683 ], [ -68.85628, -19.22651 ], [ -68.85798, -19.22604 ], [ -68.85855, -19.2255 ], [ -68.85928, -19.22532 ], [ -68.85973, -19.22503 ], [ -68.86, -19.22478 ], [ -68.8603, -19.2241 ], [ -68.86072, -19.22367 ], [ -68.86178, -19.22323 ], [ -68.86265, -19.22345 ], [ -68.86311, -19.22345 ], [ -68.86417, -19.2228 ], [ -68.86531, -19.2219 ], [ -68.86656, -19.22064 ], [ -68.86721, -19.22028 ], [ -68.86842, -19.22007 ], [ -68.86903, -19.2196 ], [ -68.86946, -19.21938 ], [ -68.86962, -19.21881 ], [ -68.87049, -19.21802 ], [ -68.87136, -19.21784 ], [ -68.87186, -19.21751 ], [ -68.87246, -19.21748 ], [ -68.87311, -19.21769 ], [ -68.87368, -19.21777 ], [ -68.87436, -19.21755 ], [ -68.87516, -19.21679 ], [ -68.8761, -19.21615 ], [ -68.87952, -19.21341 ], [ -68.88024, -19.21276 ], [ -68.88085, -19.21193 ], [ -68.88127, -19.21154 ], [ -68.8821, -19.21103 ], [ -68.88278, -19.20912 ], [ -68.88381, -19.20804 ], [ -68.88438, -19.20761 ], [ -68.88468, -19.20722 ], [ -68.88628, -19.20599 ], [ -68.88681, -19.20542 ], [ -68.88681, -19.20498 ], [ -68.88666, -19.20462 ], [ -68.88613, -19.20437 ], [ -68.88541, -19.20419 ], [ -68.88506, -19.2039 ], [ -68.88469, -19.2035 ], [ -68.88442, -19.20286 ], [ -68.884, -19.20228 ], [ -68.88351, -19.20206 ], [ -68.88283, -19.20156 ], [ -68.88268, -19.20102 ], [ -68.88264, -19.20037 ], [ -68.88332, -19.19932 ], [ -68.88442, -19.19828 ], [ -68.88431, -19.19763 ], [ -68.88393, -19.19713 ], [ -68.88382, -19.19655 ], [ -68.88382, -19.19525 ], [ -68.88473, -19.1923 ], [ -68.88519, -19.19133 ], [ -68.88568, -19.19053 ], [ -68.88602, -19.18974 ], [ -68.88648, -19.18935 ], [ -68.88648, -19.18873 ], [ -68.8861, -19.18823 ], [ -68.88599, -19.18765 ], [ -68.88572, -19.18697 ], [ -68.88519, -19.18661 ], [ -68.88424, -19.18643 ], [ -68.88326, -19.18549 ], [ -68.88314, -19.18513 ], [ -68.88273, -19.18452 ], [ -68.88204, -19.1839 ], [ -68.88132, -19.18387 ], [ -68.8811, -19.18354 ], [ -68.87916, -19.18394 ], [ -68.87871, -19.18412 ], [ -68.87787, -19.18426 ], [ -68.87681, -19.1843 ], [ -68.8759, -19.18401 ], [ -68.8756, -19.18383 ], [ -68.87492, -19.18332 ], [ -68.87473, -19.18285 ], [ -68.87439, -19.18256 ], [ -68.8731, -19.18202 ], [ -68.8723, -19.18118 ], [ -68.87208, -19.18086 ], [ -68.87171, -19.1772 ], [ -68.87141, -19.17512 ], [ -68.86945, -19.16995 ], [ -68.86824, -19.16858 ], [ -68.86794, -19.16751 ], [ -68.86741, -19.16629 ], [ -68.86666, -19.1655 ], [ -68.86658, -19.16413 ], [ -68.86644, -19.16335 ], [ -68.86655, -19.16216 ], [ -68.86655, -19.16004 ], [ -68.8661, -19.15838 ], [ -68.8661, -19.15528 ], [ -68.86622, -19.1546 ], [ -68.86629, -19.15222 ], [ -68.86592, -19.14909 ], [ -68.86554, -19.14815 ], [ -68.86543, -19.14692 ], [ -68.86524, -19.14613 ], [ -68.86505, -19.14397 ], [ -68.8652, -19.14318 ], [ -68.86505, -19.14282 ], [ -68.86501, -19.14184 ], [ -68.86593, -19.14029 ], [ -68.86634, -19.13943 ], [ -68.86672, -19.13831 ], [ -68.86699, -19.13702 ], [ -68.86692, -19.13417 ], [ -68.86658, -19.1324 ], [ -68.8662, -19.13118 ], [ -68.86601, -19.12992 ], [ -68.8654, -19.12963 ], [ -68.86457, -19.12883 ], [ -68.86412, -19.12826 ], [ -68.86366, -19.12826 ], [ -68.86305, -19.12793 ], [ -68.86268, -19.12757 ], [ -68.86249, -19.12703 ], [ -68.86254, -19.12545 ], [ -68.86213, -19.12501 ], [ -68.86175, -19.12444 ], [ -68.86061, -19.1244 ], [ -68.85982, -19.12386 ], [ -68.85796, -19.12422 ], [ -68.85743, -19.12415 ], [ -68.85663, -19.12375 ], [ -68.85557, -19.12281 ], [ -68.85406, -19.12249 ], [ -68.85352, -19.12227 ], [ -68.85205, -19.12234 ], [ -68.8514, -19.1227 ], [ -68.85042, -19.12299 ], [ -68.84973, -19.12367 ], [ -68.84875, -19.1241 ] ], [ [ -68.82108, -19.1387 ], [ -68.82256, -19.1374 ], [ -68.824, -19.13668 ], [ -68.8254, -19.13585 ], [ -68.82669, -19.13542 ], [ -68.82813, -19.13521 ], [ -68.82946, -19.13488 ], [ -68.83094, -19.13424 ], [ -68.8356, -19.13392 ], [ -68.83708, -19.13406 ], [ -68.84231, -19.13497 ], [ -68.84324, -19.1354 ], [ -68.84457, -19.13627 ], [ -68.84582, -19.13724 ], [ -68.8471, -19.13811 ], [ -68.84945, -19.13955 ], [ -68.85131, -19.13944 ], [ -68.85188, -19.13908 ], [ -68.85268, -19.1389 ], [ -68.85317, -19.13836 ], [ -68.85503, -19.13826 ], [ -68.85708, -19.13826 ], [ -68.85726, -19.13844 ], [ -68.85726, -19.13891 ], [ -68.857, -19.13999 ], [ -68.85704, -19.14057 ], [ -68.8573, -19.14107 ], [ -68.85753, -19.1419 ], [ -68.85844, -19.14262 ], [ -68.85866, -19.14302 ], [ -68.85923, -19.14331 ], [ -68.85969, -19.14316 ], [ -68.86022, -19.14269 ], [ -68.86045, -19.14262 ], [ -68.86022, -19.14309 ], [ -68.85961, -19.14568 ], [ -68.85961, -19.14655 ], [ -68.85972, -19.14705 ], [ -68.85968, -19.1477 ], [ -68.85904, -19.14889 ], [ -68.85719, -19.15077 ], [ -68.85677, -19.15156 ], [ -68.85677, -19.1526 ], [ -68.85654, -19.15383 ], [ -68.85654, -19.1566 ], [ -68.856, -19.15966 ], [ -68.85566, -19.1606 ], [ -68.85555, -19.16168 ], [ -68.856, -19.16323 ], [ -68.85627, -19.16356 ], [ -68.85684, -19.16384 ], [ -68.85756, -19.16392 ], [ -68.85843, -19.16431 ], [ -68.85919, -19.16482 ], [ -68.86093, -19.16633 ], [ -68.86142, -19.16738 ], [ -68.86146, -19.16922 ], [ -68.86104, -19.17019 ], [ -68.8607, -19.17087 ], [ -68.86017, -19.17149 ], [ -68.85971, -19.17221 ], [ -68.85963, -19.17253 ], [ -68.85929, -19.17303 ], [ -68.85876, -19.17354 ], [ -68.85785, -19.17375 ], [ -68.85777, -19.17386 ], [ -68.85785, -19.17509 ], [ -68.85902, -19.17581 ], [ -68.85883, -19.17653 ], [ -68.85883, -19.17736 ], [ -68.85921, -19.17811 ], [ -68.85986, -19.17866 ], [ -68.86001, -19.17927 ], [ -68.86007, -19.18043 ], [ -68.86007, -19.181 ], [ -68.85995, -19.18151 ], [ -68.86018, -19.18219 ], [ -68.86055, -19.18267 ], [ -68.86109, -19.18292 ], [ -68.86163, -19.18286 ], [ -68.86214, -19.18259 ], [ -68.86285, -19.18241 ], [ -68.86365, -19.18249 ], [ -68.86399, -19.18287 ], [ -68.86442, -19.18365 ], [ -68.86555, -19.18497 ], [ -68.86638, -19.18619 ], [ -68.86652, -19.18676 ], [ -68.86709, -19.18757 ], [ -68.86711, -19.18811 ], [ -68.86757, -19.19043 ], [ -68.86757, -19.191 ], [ -68.86828, -19.19219 ], [ -68.8685, -19.19335 ], [ -68.86867, -19.19381 ], [ -68.86867, -19.1946 ], [ -68.86833, -19.19541 ], [ -68.86819, -19.19616 ], [ -68.86822, -19.1967 ], [ -68.8687, -19.19741 ], [ -68.86859, -19.19903 ], [ -68.86833, -19.19962 ], [ -68.86836, -19.20073 ], [ -68.8675, -19.20219 ], [ -68.86733, -19.20289 ], [ -68.86682, -19.20341 ], [ -68.86616, -19.20362 ], [ -68.86588, -19.20381 ], [ -68.86488, -19.20508 ], [ -68.86488, -19.20575 ], [ -68.86458, -19.20632 ], [ -68.86347, -19.20683 ], [ -68.86325, -19.20705 ], [ -68.86205, -19.20718 ], [ -68.86182, -19.20743 ], [ -68.86077, -19.20813 ], [ -68.86043, -19.20918 ], [ -68.86006, -19.20956 ], [ -68.85937, -19.21005 ], [ -68.85903, -19.21053 ], [ -68.85713, -19.21223 ], [ -68.85667, -19.21248 ], [ -68.8565, -19.21221 ], [ -68.85641, -19.21118 ], [ -68.85551, -19.21029 ], [ -68.85505, -19.21018 ], [ -68.85474, -19.21042 ], [ -68.85448, -19.21099 ], [ -68.85448, -19.21137 ], [ -68.85365, -19.2138 ], [ -68.85328, -19.21434 ], [ -68.85291, -19.21472 ], [ -68.85249, -19.21501 ], [ -68.85203, -19.2152 ], [ -68.85172, -19.21515 ], [ -68.85146, -19.21453 ], [ -68.85146, -19.21418 ], [ -68.85132, -19.21391 ], [ -68.85106, -19.21388 ], [ -68.85027, -19.21399 ], [ -68.84947, -19.2145 ], [ -68.84885, -19.2145 ], [ -68.84836, -19.21434 ], [ -68.84775, -19.21458 ], [ -68.84732, -19.21496 ], [ -68.84724, -19.21579 ], [ -68.84596, -19.21739 ], [ -68.84533, -19.21763 ], [ -68.8449, -19.21763 ], [ -68.84413, -19.21747 ], [ -68.84217, -19.21665 ], [ -68.84041, -19.21671 ], [ -68.84015, -19.21646 ], [ -68.83998, -19.21606 ], [ -68.84035, -19.21563 ], [ -68.84041, -19.21473 ], [ -68.84016, -19.21414 ], [ -68.8401, -19.21376 ], [ -68.84124, -19.21328 ], [ -68.84144, -19.21301 ], [ -68.84129, -19.21268 ], [ -68.84124, -19.2113 ], [ -68.84087, -19.21087 ], [ -68.84041, -19.21087 ], [ -68.83979, -19.21136 ], [ -68.83842, -19.2116 ], [ -68.83805, -19.21203 ], [ -68.83726, -19.21254 ], [ -68.83674, -19.21254 ], [ -68.83589, -19.21346 ], [ -68.83406, -19.21455 ], [ -68.83312, -19.21483 ], [ -68.83231, -19.2152 ], [ -68.82981, -19.21523 ], [ -68.82896, -19.21535 ], [ -68.82828, -19.21564 ], [ -68.8276, -19.21568 ], [ -68.82692, -19.21547 ], [ -68.82662, -19.21519 ], [ -68.82604, -19.21539 ], [ -68.826, -19.21577 ], [ -68.82539, -19.21631 ], [ -68.82473, -19.21656 ], [ -68.82435, -19.21635 ], [ -68.82409, -19.21581 ], [ -68.82409, -19.21526 ], [ -68.82424, -19.2148 ], [ -68.82432, -19.21393 ], [ -68.8239, -19.21296 ], [ -68.82344, -19.21267 ], [ -68.82318, -19.21274 ], [ -68.82265, -19.21263 ], [ -68.82143, -19.21263 ], [ -68.82121, -19.21281 ], [ -68.81954, -19.21292 ], [ -68.81916, -19.21321 ], [ -68.81794, -19.21382 ], [ -68.81677, -19.21396 ], [ -68.81611, -19.21453 ], [ -68.81561, -19.21516 ], [ -68.81413, -19.21627 ], [ -68.81331, -19.21729 ], [ -68.81275, -19.21774 ], [ -68.8119, -19.21795 ], [ -68.81101, -19.21803 ], [ -68.8099, -19.2176 ], [ -68.80907, -19.21739 ], [ -68.80859, -19.21716 ], [ -68.80788, -19.2157 ], [ -68.80725, -19.21507 ], [ -68.80694, -19.21453 ], [ -68.80645, -19.21406 ], [ -68.80509, -19.21373 ], [ -68.80478, -19.21355 ], [ -68.80414, -19.21247 ], [ -68.80369, -19.21189 ], [ -68.80361, -19.21085 ], [ -68.80426, -19.2098 ], [ -68.80429, -19.20941 ], [ -68.80426, -19.20908 ], [ -68.80365, -19.20894 ], [ -68.80346, -19.20851 ], [ -68.80346, -19.20714 ], [ -68.80384, -19.20627 ], [ -68.80373, -19.20544 ], [ -68.80237, -19.20375 ], [ -68.80161, -19.2031 ], [ -68.80123, -19.20259 ], [ -68.80074, -19.20166 ], [ -68.80021, -19.20115 ], [ -68.8001, -19.20058 ], [ -68.80025, -19.19946 ], [ -68.80097, -19.19784 ], [ -68.80131, -19.19759 ], [ -68.80207, -19.19723 ], [ -68.80374, -19.19503 ], [ -68.80424, -19.19445 ], [ -68.80484, -19.19395 ], [ -68.80534, -19.19341 ], [ -68.80613, -19.19302 ], [ -68.80701, -19.19226 ], [ -68.8075, -19.19197 ], [ -68.80796, -19.1923 ], [ -68.80868, -19.19251 ], [ -68.80909, -19.19259 ], [ -68.80966, -19.19244 ], [ -68.81065, -19.19176 ], [ -68.81076, -19.19118 ], [ -68.81126, -19.19057 ], [ -68.81202, -19.19032 ], [ -68.81395, -19.19007 ], [ -68.81649, -19.18932 ], [ -68.81744, -19.1886 ], [ -68.8181, -19.18852 ], [ -68.81886, -19.18791 ], [ -68.81962, -19.18694 ], [ -68.81959, -19.18658 ], [ -68.81936, -19.18626 ], [ -68.81883, -19.18492 ], [ -68.81784, -19.18348 ], [ -68.81766, -19.1829 ], [ -68.81785, -19.18229 ], [ -68.81788, -19.18168 ], [ -68.81823, -19.18114 ], [ -68.81819, -19.17844 ], [ -68.81891, -19.17707 ], [ -68.8188, -19.17631 ], [ -68.81831, -19.17588 ], [ -68.8185, -19.17545 ], [ -68.81922, -19.17534 ], [ -68.82017, -19.17498 ], [ -68.82058, -19.17494 ], [ -68.82104, -19.17473 ], [ -68.82104, -19.17404 ], [ -68.82051, -19.1735 ], [ -68.82021, -19.17292 ], [ -68.81884, -19.17217 ], [ -68.81827, -19.17166 ], [ -68.81744, -19.17112 ], [ -68.81612, -19.16889 ], [ -68.81544, -19.16726 ], [ -68.81517, -19.16683 ], [ -68.81513, -19.16546 ], [ -68.81533, -19.16427 ], [ -68.81533, -19.16362 ], [ -68.81506, -19.16247 ], [ -68.81465, -19.16182 ], [ -68.81415, -19.16128 ], [ -68.81438, -19.16031 ], [ -68.81488, -19.15934 ], [ -68.81514, -19.15862 ], [ -68.81575, -19.1575 ], [ -68.8159, -19.15678 ], [ -68.81643, -19.15595 ], [ -68.81693, -19.15537 ], [ -68.81723, -19.15451 ], [ -68.81682, -19.15372 ], [ -68.81655, -19.15278 ], [ -68.8167, -19.15127 ], [ -68.81655, -19.15047 ], [ -68.81621, -19.14979 ], [ -68.81621, -19.14892 ], [ -68.81633, -19.14835 ], [ -68.8169, -19.14759 ], [ -68.81698, -19.14622 ], [ -68.81747, -19.14403 ], [ -68.81793, -19.14291 ], [ -68.81876, -19.14154 ], [ -68.81998, -19.13985 ], [ -68.82108, -19.1387 ] ] ] } }
]
}
