{
"type": "FeatureCollection",
"name": "TIN",
"crs": { "type": "name", "properties": { "name": "urn:ogc:def:crs:OGC:1.3:CRS84" } },
"xy_coordinate_resolution": 1e-05,
"features": [
{ "type": "Feature", "properties": { "objectid": 329, "peligro": "Bajo", "volcan": null, "globalid_1": "503c6441-30aa-4866-9b12-5e28a648dffe", "Shape__Area": 0.0082577805435448681, "Shape__Length": 2.900664332914701 }, "geometry": { "type": "Polygon", "coordinates": [ [ [ -70.83765, -34.70054 ], [ -70.83358, -34.70055 ], [ -70.83227, -34.70109 ], [ -70.83092, -34.70254 ], [ -70.82985, -34.70456 ], [ -70.82756, -34.70763 ], [ -70.82634, -34.70902 ], [ -70.82547, -34.71041 ], [ -70.82584, -34.71149 ], [ -70.82596, -34.71355 ], [ -70.82594, -34.71572 ], [ -70.82549, -34.71728 ], [ -70.82415, -34.71953 ], [ -70.82251, -34.72093 ], [ -70.82095, -34.72221 ], [ -70.81866, -34.72353 ], [ -70.81636, -34.72424 ], [ -70.81327, -34.72616 ], [ -70.80786, -34.72882 ], [ -70.80627, -34.72999 ], [ -70.80575, -34.73026 ], [ -70.80416, -34.73156 ], [ -70.80211, -34.7328 ], [ -70.80113, -34.73323 ], [ -70.80096, -34.73341 ], [ -70.80003, -34.73397 ], [ -70.79898, -34.7344 ], [ -70.79602, -34.73591 ], [ -70.79486, -34.7362 ], [ -70.79408, -34.73608 ], [ -70.79331, -34.73563 ], [ -70.79106, -34.73513 ], [ -70.78896, -34.73408 ], [ -70.78792, -34.73378 ], [ -70.78593, -34.73372 ], [ -70.78405, -34.7338 ], [ -70.77969, -34.7353 ], [ -70.7783, -34.73568 ], [ -70.77755, -34.73609 ], [ -70.77628, -34.73661 ], [ -70.7749, -34.73695 ], [ -70.77273, -34.73666 ], [ -70.77091, -34.73678 ], [ -70.76691, -34.7367 ], [ -70.76564, -34.73681 ], [ -70.76482, -34.73712 ], [ -70.76101, -34.73746 ], [ -70.75893, -34.73732 ], [ -70.75678, -34.73729 ], [ -70.75513, -34.73783 ], [ -70.75367, -34.73785 ], [ -70.75165, -34.73743 ], [ -70.7499, -34.73682 ], [ -70.74612, -34.73487 ], [ -70.7445, -34.73381 ], [ -70.74358, -34.73279 ], [ -70.74146, -34.73116 ], [ -70.73971, -34.73044 ], [ -70.7393, -34.73034 ], [ -70.73947, -34.7303 ], [ -70.73654, -34.72867 ], [ -70.73258, -34.72777 ], [ -70.72951, -34.72898 ], [ -70.72726, -34.72907 ], [ -70.72533, -34.72956 ], [ -70.72416, -34.73047 ], [ -70.72362, -34.7314 ], [ -70.72364, -34.73231 ], [ -70.72388, -34.73313 ], [ -70.72362, -34.73401 ], [ -70.72269, -34.73475 ], [ -70.72171, -34.73541 ], [ -70.72106, -34.73615 ], [ -70.72113, -34.73688 ], [ -70.72142, -34.73775 ], [ -70.72111, -34.73858 ], [ -70.71942, -34.7402 ], [ -70.71883, -34.74099 ], [ -70.71763, -34.74211 ], [ -70.71693, -34.74294 ], [ -70.71602, -34.74451 ], [ -70.71531, -34.74548 ], [ -70.71396, -34.74688 ], [ -70.71299, -34.7484 ], [ -70.71262, -34.74951 ], [ -70.71055, -34.75141 ], [ -70.70709, -34.75325 ], [ -70.70555, -34.75391 ], [ -70.70485, -34.75465 ], [ -70.70381, -34.75522 ], [ -70.7016, -34.75584 ], [ -70.70077, -34.75599 ], [ -70.70013, -34.7559 ], [ -70.69527, -34.75659 ], [ -70.69474, -34.75708 ], [ -70.69288, -34.75835 ], [ -70.6908, -34.75957 ], [ -70.6887, -34.76037 ], [ -70.68668, -34.76169 ], [ -70.68437, -34.76286 ], [ -70.68377, -34.76333 ], [ -70.68195, -34.76372 ], [ -70.68064, -34.76493 ], [ -70.67959, -34.7654 ], [ -70.67822, -34.76615 ], [ -70.67701, -34.76654 ], [ -70.67513, -34.76693 ], [ -70.6727, -34.76788 ], [ -70.67066, -34.76855 ], [ -70.66945, -34.76884 ], [ -70.66747, -34.76974 ], [ -70.66678, -34.77126 ], [ -70.6658, -34.77223 ], [ -70.66283, -34.77383 ], [ -70.66168, -34.77421 ], [ -70.66019, -34.77497 ], [ -70.65899, -34.77576 ], [ -70.65711, -34.77652 ], [ -70.65579, -34.77681 ], [ -70.65425, -34.77747 ], [ -70.65276, -34.77791 ], [ -70.65155, -34.77861 ], [ -70.64956, -34.77932 ], [ -70.64531, -34.7803 ], [ -70.64366, -34.78092 ], [ -70.64228, -34.78158 ], [ -70.64085, -34.78201 ], [ -70.63963, -34.78221 ], [ -70.63858, -34.7825 ], [ -70.63764, -34.7826 ], [ -70.6358, -34.7823 ], [ -70.63465, -34.78282 ], [ -70.63159, -34.78254 ], [ -70.62916, -34.78345 ], [ -70.62678, -34.78394 ], [ -70.62535, -34.78437 ], [ -70.62384, -34.78421 ], [ -70.6202, -34.78504 ], [ -70.61764, -34.78722 ], [ -70.61333, -34.78859 ], [ -70.60828, -34.78914 ], [ -70.6051, -34.79127 ], [ -70.60135, -34.79447 ], [ -70.59833, -34.79765 ], [ -70.59486, -34.79987 ], [ -70.58977, -34.80224 ], [ -70.58673, -34.80385 ], [ -70.58426, -34.80545 ], [ -70.57947, -34.80769 ], [ -70.57277, -34.80983 ], [ -70.56911, -34.81024 ], [ -70.56605, -34.81113 ], [ -70.56272, -34.81371 ], [ -70.55996, -34.81472 ], [ -70.55765, -34.81692 ], [ -70.55491, -34.81913 ], [ -70.55421, -34.81999 ], [ -70.55353, -34.82057 ], [ -70.55227, -34.82131 ], [ -70.55025, -34.82147 ], [ -70.5474, -34.82099 ], [ -70.54321, -34.81937 ], [ -70.54051, -34.81754 ], [ -70.53186, -34.81274 ], [ -70.52793, -34.80997 ], [ -70.52243, -34.80656 ], [ -70.52096, -34.80495 ], [ -70.5188, -34.80422 ], [ -70.51791, -34.80261 ], [ -70.51598, -34.80158 ], [ -70.51395, -34.80113 ], [ -70.51133, -34.80035 ], [ -70.50917, -34.79918 ], [ -70.50724, -34.79797 ], [ -70.50624, -34.79746 ], [ -70.50066, -34.79581 ], [ -70.49681, -34.79423 ], [ -70.49009, -34.79026 ], [ -70.48845, -34.78913 ], [ -70.48682, -34.7882 ], [ -70.48437, -34.78708 ], [ -70.48262, -34.78615 ], [ -70.48127, -34.78517 ], [ -70.47963, -34.78442 ], [ -70.47807, -34.78396 ], [ -70.47632, -34.78332 ], [ -70.473, -34.78226 ], [ -70.46883, -34.78155 ], [ -70.46709, -34.78157 ], [ -70.46565, -34.78163 ], [ -70.46168, -34.78264 ], [ -70.46007, -34.78337 ], [ -70.45898, -34.78405 ], [ -70.45785, -34.78531 ], [ -70.45638, -34.78728 ], [ -70.4556, -34.78859 ], [ -70.45432, -34.78937 ], [ -70.45266, -34.78946 ], [ -70.45044, -34.78972 ], [ -70.44692, -34.78945 ], [ -70.44349, -34.78896 ], [ -70.43329, -34.78794 ], [ -70.4306, -34.78743 ], [ -70.42755, -34.7877 ], [ -70.42543, -34.78826 ], [ -70.41861, -34.78948 ], [ -70.41695, -34.78996 ], [ -70.41372, -34.79053 ], [ -70.41076, -34.7908 ], [ -70.40855, -34.79113 ], [ -70.4067, -34.79161 ], [ -70.40468, -34.79232 ], [ -70.40292, -34.79234 ], [ -70.39941, -34.79268 ], [ -70.39701, -34.79301 ], [ -70.39432, -34.79282 ], [ -70.39236, -34.79185 ], [ -70.39013, -34.79088 ], [ -70.38843, -34.78899 ], [ -70.38561, -34.7865 ], [ -70.38393, -34.7853 ], [ -70.37857, -34.77916 ], [ -70.37721, -34.77563 ], [ -70.37587, -34.77259 ], [ -70.37341, -34.76987 ], [ -70.37006, -34.76853 ], [ -70.36545, -34.76965 ], [ -70.36347, -34.77288 ], [ -70.36259, -34.77344 ], [ -70.35883, -34.77435 ], [ -70.3555, -34.77439 ], [ -70.35391, -34.77518 ], [ -70.35065, -34.77636 ], [ -70.34893, -34.77643 ], [ -70.34621, -34.77614 ], [ -70.3442, -34.77575 ], [ -70.3423, -34.77513 ], [ -70.34074, -34.77432 ], [ -70.33873, -34.77356 ], [ -70.33633, -34.77309 ], [ -70.33211, -34.77194 ], [ -70.32606, -34.77296 ], [ -70.3193, -34.77318 ], [ -70.31571, -34.77136 ], [ -70.31341, -34.7707 ], [ -70.30995, -34.77108 ], [ -70.30739, -34.77191 ], [ -70.30505, -34.77297 ], [ -70.30023, -34.77692 ], [ -70.29932, -34.78442 ], [ -70.29819, -34.78686 ], [ -70.29751, -34.79061 ], [ -70.29728, -34.79473 ], [ -70.2985, -34.79685 ], [ -70.2991, -34.79865 ], [ -70.29939, -34.80056 ], [ -70.29865, -34.80229 ], [ -70.29756, -34.80344 ], [ -70.29653, -34.8042 ], [ -70.2944, -34.80548 ], [ -70.29226, -34.80659 ], [ -70.29074, -34.80706 ], [ -70.28879, -34.80829 ], [ -70.28766, -34.80871 ], [ -70.28602, -34.80965 ], [ -70.28498, -34.81158 ], [ -70.28513, -34.81373 ], [ -70.28596, -34.81743 ], [ -70.28528, -34.824 ], [ -70.28579, -34.83751 ], [ -70.28721, -34.8409 ], [ -70.28962, -34.84707 ], [ -70.29387, -34.85943 ], [ -70.29489, -34.8692 ], [ -70.29469, -34.87469 ], [ -70.29743, -34.88325 ], [ -70.30406, -34.88778 ], [ -70.30995, -34.8907 ], [ -70.31274, -34.8917 ], [ -70.32209, -34.89664 ], [ -70.33313, -34.90365 ], [ -70.34022, -34.90934 ], [ -70.34313, -34.91122 ], [ -70.34857, -34.91535 ], [ -70.35123, -34.91674 ], [ -70.35737, -34.92106 ], [ -70.36025, -34.92374 ], [ -70.3637, -34.92797 ], [ -70.36532, -34.93044 ], [ -70.36834, -34.93333 ], [ -70.37621, -34.93726 ], [ -70.38087, -34.93864 ], [ -70.38437, -34.94168 ], [ -70.38892, -34.94332 ], [ -70.391, -34.94543 ], [ -70.39321, -34.95021 ], [ -70.39501, -34.95264 ], [ -70.39654, -34.95521 ], [ -70.39973, -34.96315 ], [ -70.4033, -34.96565 ], [ -70.41081, -34.96665 ], [ -70.41933, -34.96667 ], [ -70.4268, -34.96549 ], [ -70.43645, -34.9626 ], [ -70.44053, -34.96074 ], [ -70.44536, -34.96007 ], [ -70.45003, -34.95845 ], [ -70.45676, -34.95679 ], [ -70.4604, -34.9547 ], [ -70.46463, -34.95331 ], [ -70.47083, -34.94683 ], [ -70.47373, -34.94462 ], [ -70.47835, -34.9432 ], [ -70.47964, -34.94233 ], [ -70.48087, -34.94122 ], [ -70.48225, -34.94058 ], [ -70.4848, -34.93957 ], [ -70.48619, -34.93938 ], [ -70.48728, -34.93913 ], [ -70.48889, -34.93839 ], [ -70.4925, -34.93496 ], [ -70.49729, -34.93224 ], [ -70.50164, -34.92892 ], [ -70.50478, -34.92429 ], [ -70.50984, -34.91987 ], [ -70.51412, -34.9169 ], [ -70.51455, -34.91624 ], [ -70.51838, -34.91311 ], [ -70.51947, -34.91183 ], [ -70.5207, -34.91061 ], [ -70.52551, -34.90741 ], [ -70.52728, -34.90589 ], [ -70.52845, -34.90502 ], [ -70.5292, -34.90421 ], [ -70.52974, -34.90352 ], [ -70.53041, -34.90219 ], [ -70.5323, -34.89913 ], [ -70.53256, -34.89821 ], [ -70.53448, -34.89292 ], [ -70.53495, -34.89211 ], [ -70.53597, -34.89061 ], [ -70.53671, -34.88974 ], [ -70.54027, -34.88672 ], [ -70.54121, -34.88522 ], [ -70.5421, -34.88429 ], [ -70.54264, -34.88314 ], [ -70.54268, -34.88205 ], [ -70.543, -34.88016 ], [ -70.54394, -34.87877 ], [ -70.54397, -34.87631 ], [ -70.54416, -34.87539 ], [ -70.54482, -34.87372 ], [ -70.54577, -34.87234 ], [ -70.54638, -34.8717 ], [ -70.5474, -34.87026 ], [ -70.54773, -34.86945 ], [ -70.54831, -34.86704 ], [ -70.54905, -34.86577 ], [ -70.54966, -34.8649 ], [ -70.55041, -34.86403 ], [ -70.55074, -34.86346 ], [ -70.55094, -34.86283 ], [ -70.55121, -34.86231 ], [ -70.55182, -34.86161 ], [ -70.55257, -34.86114 ], [ -70.5529, -34.86017 ], [ -70.55432, -34.85774 ], [ -70.55449, -34.85614 ], [ -70.55508, -34.85413 ], [ -70.55524, -34.85132 ], [ -70.55543, -34.85046 ], [ -70.55583, -34.84937 ], [ -70.55653, -34.84604 ], [ -70.55637, -34.84495 ], [ -70.55607, -34.84381 ], [ -70.55564, -34.84307 ], [ -70.55507, -34.84233 ], [ -70.55477, -34.84125 ], [ -70.5551, -34.84016 ], [ -70.55613, -34.83951 ], [ -70.55728, -34.8383 ], [ -70.55956, -34.83724 ], [ -70.56127, -34.83601 ], [ -70.56219, -34.83314 ], [ -70.56422, -34.83076 ], [ -70.56571, -34.82868 ], [ -70.567, -34.82712 ], [ -70.56761, -34.82597 ], [ -70.57189, -34.82139 ], [ -70.57368, -34.82034 ], [ -70.57526, -34.81951 ], [ -70.57733, -34.81869 ], [ -70.58007, -34.81693 ], [ -70.58557, -34.8144 ], [ -70.59148, -34.81089 ], [ -70.59265, -34.81036 ], [ -70.59423, -34.80942 ], [ -70.59615, -34.80842 ], [ -70.60027, -34.80602 ], [ -70.60137, -34.80532 ], [ -70.60253, -34.80444 ], [ -70.60532, -34.80177 ], [ -70.60704, -34.80078 ], [ -70.61182, -34.79659 ], [ -70.61346, -34.79525 ], [ -70.61489, -34.7942 ], [ -70.61654, -34.79338 ], [ -70.6204, -34.79167 ], [ -70.62307, -34.7902 ], [ -70.62411, -34.78973 ], [ -70.62921, -34.78794 ], [ -70.63128, -34.78746 ], [ -70.63259, -34.78727 ], [ -70.63369, -34.7868 ], [ -70.63529, -34.78672 ], [ -70.63654, -34.78681 ], [ -70.63793, -34.7868 ], [ -70.64001, -34.78665 ], [ -70.64215, -34.78622 ], [ -70.64436, -34.78592 ], [ -70.64509, -34.78558 ], [ -70.64979, -34.78482 ], [ -70.65296, -34.78352 ], [ -70.65633, -34.78227 ], [ -70.65799, -34.78179 ], [ -70.66059, -34.77987 ], [ -70.66203, -34.77922 ], [ -70.6641, -34.77845 ], [ -70.66719, -34.77686 ], [ -70.66836, -34.77616 ], [ -70.66965, -34.77522 ], [ -70.67018, -34.77384 ], [ -70.67085, -34.77269 ], [ -70.67326, -34.77174 ], [ -70.67575, -34.77136 ], [ -70.67864, -34.77029 ], [ -70.68002, -34.76987 ], [ -70.68175, -34.76962 ], [ -70.68511, -34.76774 ], [ -70.68711, -34.76702 ], [ -70.68876, -34.76608 ], [ -70.69047, -34.76497 ], [ -70.69171, -34.76438 ], [ -70.69348, -34.76293 ], [ -70.69486, -34.76233 ], [ -70.69746, -34.76052 ], [ -70.6989, -34.7597 ], [ -70.70097, -34.7595 ], [ -70.70263, -34.75908 ], [ -70.70641, -34.75725 ], [ -70.70771, -34.75649 ], [ -70.70908, -34.75589 ], [ -70.71334, -34.7536 ], [ -70.71512, -34.75243 ], [ -70.71588, -34.75204 ], [ -70.71672, -34.75104 ], [ -70.71701, -34.75017 ], [ -70.71761, -34.74902 ], [ -70.71842, -34.74786 ], [ -70.71958, -34.74693 ], [ -70.72053, -34.746 ], [ -70.72155, -34.74484 ], [ -70.72253, -34.74434 ], [ -70.72327, -34.7435 ], [ -70.72393, -34.74246 ], [ -70.72477, -34.74139 ], [ -70.72578, -34.73919 ], [ -70.72571, -34.7382 ], [ -70.72597, -34.73716 ], [ -70.72706, -34.73606 ], [ -70.72739, -34.73591 ], [ -70.72865, -34.73368 ], [ -70.72872, -34.73266 ], [ -70.72953, -34.73173 ], [ -70.73028, -34.73126 ], [ -70.73196, -34.73065 ], [ -70.73395, -34.73075 ], [ -70.73555, -34.73119 ], [ -70.73601, -34.73158 ], [ -70.73704, -34.73197 ], [ -70.73865, -34.73292 ], [ -70.74197, -34.7355 ], [ -70.74507, -34.73775 ], [ -70.74689, -34.73875 ], [ -70.75113, -34.74089 ], [ -70.7523, -34.74126 ], [ -70.75353, -34.74148 ], [ -70.75585, -34.74126 ], [ -70.75701, -34.74101 ], [ -70.762, -34.7408 ], [ -70.765, -34.7409 ], [ -70.76606, -34.74107 ], [ -70.7674, -34.74146 ], [ -70.76857, -34.74153 ], [ -70.77045, -34.74132 ], [ -70.77243, -34.74079 ], [ -70.77393, -34.74054 ], [ -70.77848, -34.74084 ], [ -70.78334, -34.73967 ], [ -70.78593, -34.73867 ], [ -70.78748, -34.73856 ], [ -70.78898, -34.73872 ], [ -70.7915, -34.73973 ], [ -70.79267, -34.73999 ], [ -70.79512, -34.74037 ], [ -70.79694, -34.74002 ], [ -70.79936, -34.73911 ], [ -70.80375, -34.7368 ], [ -70.80463, -34.73629 ], [ -70.80599, -34.7353 ], [ -70.8083, -34.73413 ], [ -70.80939, -34.73333 ], [ -70.81031, -34.7324 ], [ -70.8118, -34.73169 ], [ -70.81323, -34.73112 ], [ -70.8146, -34.73073 ], [ -70.81817, -34.72903 ], [ -70.82101, -34.72679 ], [ -70.82325, -34.72529 ], [ -70.82501, -34.72462 ], [ -70.82677, -34.72364 ], [ -70.82856, -34.7221 ], [ -70.82924, -34.72035 ], [ -70.83052, -34.7152 ], [ -70.83073, -34.7147 ], [ -70.83068, -34.71461 ], [ -70.83105, -34.7117 ], [ -70.83151, -34.71066 ], [ -70.83285, -34.70869 ], [ -70.83448, -34.70678 ], [ -70.83638, -34.70492 ], [ -70.83928, -34.70279 ], [ -70.83945, -34.70194 ], [ -70.83913, -34.70124 ], [ -70.83765, -34.70054 ] ], [ [ -70.32369, -34.77564 ], [ -70.32641, -34.77539 ], [ -70.32881, -34.7749 ], [ -70.33098, -34.77457 ], [ -70.33302, -34.77482 ], [ -70.33529, -34.77533 ], [ -70.33935, -34.77704 ], [ -70.34374, -34.77962 ], [ -70.34611, -34.78059 ], [ -70.34821, -34.78133 ], [ -70.35038, -34.7815 ], [ -70.35224, -34.78174 ], [ -70.35438, -34.78237 ], [ -70.35651, -34.78288 ], [ -70.36021, -34.78269 ], [ -70.36257, -34.78243 ], [ -70.36523, -34.78193 ], [ -70.36744, -34.78094 ], [ -70.37064, -34.78022 ], [ -70.37253, -34.77992 ], [ -70.37453, -34.78022 ], [ -70.37643, -34.78125 ], [ -70.37819, -34.78334 ], [ -70.38439, -34.78935 ], [ -70.38746, -34.79307 ], [ -70.39056, -34.79595 ], [ -70.39329, -34.79735 ], [ -70.39545, -34.79807 ], [ -70.39719, -34.79817 ], [ -70.39995, -34.79745 ], [ -70.40292, -34.79644 ], [ -70.40541, -34.79584 ], [ -70.4092, -34.79442 ], [ -70.41114, -34.79405 ], [ -70.41309, -34.79415 ], [ -70.41476, -34.79436 ], [ -70.4167, -34.79439 ], [ -70.41829, -34.79431 ], [ -70.42092, -34.79383 ], [ -70.42258, -34.79335 ], [ -70.4241, -34.79264 ], [ -70.42521, -34.79263 ], [ -70.42749, -34.79215 ], [ -70.42963, -34.79138 ], [ -70.43122, -34.79113 ], [ -70.43483, -34.79114 ], [ -70.44067, -34.79199 ], [ -70.44567, -34.79193 ], [ -70.44782, -34.79173 ], [ -70.44969, -34.79171 ], [ -70.4515, -34.79198 ], [ -70.45324, -34.79213 ], [ -70.45434, -34.79194 ], [ -70.45594, -34.79192 ], [ -70.45725, -34.79122 ], [ -70.45854, -34.79 ], [ -70.45985, -34.78724 ], [ -70.46104, -34.78579 ], [ -70.46195, -34.78497 ], [ -70.46454, -34.78432 ], [ -70.46552, -34.78416 ], [ -70.46737, -34.78409 ], [ -70.46911, -34.78422 ], [ -70.4705, -34.78444 ], [ -70.47585, -34.78609 ], [ -70.4783, -34.78768 ], [ -70.47982, -34.78852 ], [ -70.48193, -34.78983 ], [ -70.48668, -34.7934 ], [ -70.48792, -34.79482 ], [ -70.49131, -34.79683 ], [ -70.49358, -34.7978 ], [ -70.49567, -34.79835 ], [ -70.49882, -34.79936 ], [ -70.50085, -34.80015 ], [ -70.50442, -34.80239 ], [ -70.50652, -34.80337 ], [ -70.5085, -34.80377 ], [ -70.51479, -34.80603 ], [ -70.517, -34.80701 ], [ -70.5187, -34.80794 ], [ -70.52292, -34.81123 ], [ -70.52381, -34.81217 ], [ -70.5254, -34.81358 ], [ -70.52809, -34.81531 ], [ -70.52996, -34.81644 ], [ -70.53444, -34.81781 ], [ -70.53601, -34.81841 ], [ -70.53877, -34.82024 ], [ -70.53948, -34.82099 ], [ -70.54123, -34.82216 ], [ -70.54618, -34.82367 ], [ -70.54876, -34.82438 ], [ -70.55063, -34.82528 ], [ -70.55267, -34.82563 ], [ -70.55489, -34.8253 ], [ -70.55645, -34.82451 ], [ -70.55734, -34.82282 ], [ -70.5589, -34.82219 ], [ -70.55915, -34.82212 ], [ -70.56012, -34.82229 ], [ -70.56179, -34.82212 ], [ -70.56316, -34.82077 ], [ -70.56462, -34.81836 ], [ -70.56534, -34.81688 ], [ -70.56635, -34.81543 ], [ -70.56767, -34.81475 ], [ -70.57056, -34.81461 ], [ -70.57362, -34.81395 ], [ -70.57868, -34.8127 ], [ -70.58184, -34.8116 ], [ -70.58424, -34.81 ], [ -70.58647, -34.80863 ], [ -70.58854, -34.80765 ], [ -70.58968, -34.80697 ], [ -70.59076, -34.80591 ], [ -70.59161, -34.80523 ], [ -70.59305, -34.80468 ], [ -70.59378, -34.80377 ], [ -70.5947, -34.80328 ], [ -70.59551, -34.80341 ], [ -70.59672, -34.80325 ], [ -70.59946, -34.80126 ], [ -70.60066, -34.80024 ], [ -70.60191, -34.79932 ], [ -70.60259, -34.79864 ], [ -70.6031, -34.79689 ], [ -70.60606, -34.79473 ], [ -70.61378, -34.7901 ], [ -70.61837, -34.78922 ], [ -70.61947, -34.7894 ], [ -70.62019, -34.79049 ], [ -70.61917, -34.79155 ], [ -70.61634, -34.79164 ], [ -70.61478, -34.79194 ], [ -70.60904, -34.79693 ], [ -70.60727, -34.79805 ], [ -70.60613, -34.79907 ], [ -70.60512, -34.80014 ], [ -70.59844, -34.80506 ], [ -70.59752, -34.80544 ], [ -70.5962, -34.80617 ], [ -70.59294, -34.80817 ], [ -70.59146, -34.80924 ], [ -70.58545, -34.81285 ], [ -70.58432, -34.81381 ], [ -70.58098, -34.81491 ], [ -70.57862, -34.81556 ], [ -70.57678, -34.81596 ], [ -70.57517, -34.8167 ], [ -70.57287, -34.8174 ], [ -70.57061, -34.81937 ], [ -70.56878, -34.82141 ], [ -70.56823, -34.82266 ], [ -70.56721, -34.82382 ], [ -70.56482, -34.8259 ], [ -70.56364, -34.82806 ], [ -70.56326, -34.82931 ], [ -70.5627, -34.83022 ], [ -70.56156, -34.83119 ], [ -70.55915, -34.83237 ], [ -70.55836, -34.83314 ], [ -70.55798, -34.83421 ], [ -70.55784, -34.83434 ], [ -70.55609, -34.83475 ], [ -70.55551, -34.83376 ], [ -70.55495, -34.83324 ], [ -70.55215, -34.83228 ], [ -70.54999, -34.83078 ], [ -70.54664, -34.8296 ], [ -70.54301, -34.82866 ], [ -70.5351, -34.82624 ], [ -70.53213, -34.82582 ], [ -70.52972, -34.82562 ], [ -70.52709, -34.82389 ], [ -70.52464, -34.82156 ], [ -70.51831, -34.81935 ], [ -70.51561, -34.81877 ], [ -70.51299, -34.81735 ], [ -70.50901, -34.81702 ], [ -70.50072, -34.81437 ], [ -70.49478, -34.81338 ], [ -70.49263, -34.81249 ], [ -70.48902, -34.81208 ], [ -70.48707, -34.8121 ], [ -70.48228, -34.81315 ], [ -70.47979, -34.81394 ], [ -70.477, -34.81329 ], [ -70.47063, -34.81375 ], [ -70.46795, -34.81416 ], [ -70.46567, -34.8161 ], [ -70.46172, -34.81798 ], [ -70.45526, -34.82025 ], [ -70.45067, -34.82269 ], [ -70.44524, -34.82609 ], [ -70.43866, -34.83047 ], [ -70.43341, -34.83294 ], [ -70.43201, -34.83412 ], [ -70.4301, -34.83675 ], [ -70.42842, -34.84088 ], [ -70.42746, -34.84387 ], [ -70.42678, -34.84627 ], [ -70.42668, -34.84877 ], [ -70.42585, -34.85117 ], [ -70.42359, -34.85454 ], [ -70.42089, -34.85695 ], [ -70.41923, -34.86139 ], [ -70.41884, -34.86437 ], [ -70.41783, -34.86678 ], [ -70.41362, -34.86853 ], [ -70.41199, -34.86947 ], [ -70.41045, -34.871 ], [ -70.40926, -34.87244 ], [ -70.40816, -34.87431 ], [ -70.40732, -34.87604 ], [ -70.40596, -34.87763 ], [ -70.40424, -34.87851 ], [ -70.40226, -34.87925 ], [ -70.3987, -34.87958 ], [ -70.39638, -34.87942 ], [ -70.39333, -34.87898 ], [ -70.39009, -34.88046 ], [ -70.38907, -34.88191 ], [ -70.38759, -34.88326 ], [ -70.38655, -34.88375 ], [ -70.38319, -34.8834 ], [ -70.38028, -34.88267 ], [ -70.37636, -34.88339 ], [ -70.37428, -34.88408 ], [ -70.37233, -34.88496 ], [ -70.37155, -34.88668 ], [ -70.37111, -34.88812 ], [ -70.37211, -34.88937 ], [ -70.37323, -34.89029 ], [ -70.37432, -34.89314 ], [ -70.37539, -34.89494 ], [ -70.37589, -34.89704 ], [ -70.37592, -34.89885 ], [ -70.37502, -34.90039 ], [ -70.37424, -34.90221 ], [ -70.37265, -34.90414 ], [ -70.3702, -34.90757 ], [ -70.36929, -34.90861 ], [ -70.36668, -34.91213 ], [ -70.36583, -34.91314 ], [ -70.36551, -34.91524 ], [ -70.36633, -34.91942 ], [ -70.36864, -34.92444 ], [ -70.36904, -34.92581 ], [ -70.37009, -34.92778 ], [ -70.37291, -34.92996 ], [ -70.37496, -34.93078 ], [ -70.37682, -34.93121 ], [ -70.37888, -34.93218 ], [ -70.37964, -34.9337 ], [ -70.38116, -34.93552 ], [ -70.38401, -34.93685 ], [ -70.3852, -34.9378 ], [ -70.38795, -34.93955 ], [ -70.38908, -34.94036 ], [ -70.38882, -34.94128 ], [ -70.38782, -34.94166 ], [ -70.38636, -34.94062 ], [ -70.38479, -34.94 ], [ -70.38255, -34.93925 ], [ -70.37986, -34.93763 ], [ -70.37838, -34.93577 ], [ -70.37775, -34.93486 ], [ -70.37685, -34.93395 ], [ -70.376, -34.93346 ], [ -70.37339, -34.93372 ], [ -70.37277, -34.93322 ], [ -70.37277, -34.93272 ], [ -70.37187, -34.93241 ], [ -70.37007, -34.93114 ], [ -70.36899, -34.92969 ], [ -70.36791, -34.92842 ], [ -70.36722, -34.92692 ], [ -70.36647, -34.92555 ], [ -70.36444, -34.92365 ], [ -70.36242, -34.9223 ], [ -70.36134, -34.92112 ], [ -70.36026, -34.91953 ], [ -70.35936, -34.91795 ], [ -70.35373, -34.91372 ], [ -70.34636, -34.90922 ], [ -70.33856, -34.90414 ], [ -70.32617, -34.8976 ], [ -70.32066, -34.89423 ], [ -70.31623, -34.89213 ], [ -70.31142, -34.89003 ], [ -70.30514, -34.8867 ], [ -70.30344, -34.88503 ], [ -70.30208, -34.88298 ], [ -70.2993, -34.87939 ], [ -70.2986, -34.87761 ], [ -70.29835, -34.87569 ], [ -70.29842, -34.87299 ], [ -70.29951, -34.86485 ], [ -70.29962, -34.86211 ], [ -70.29869, -34.85878 ], [ -70.29865, -34.85616 ], [ -70.29745, -34.85354 ], [ -70.29505, -34.84761 ], [ -70.29399, -34.84475 ], [ -70.29176, -34.84108 ], [ -70.29172, -34.83822 ], [ -70.29075, -34.83214 ], [ -70.29071, -34.82928 ], [ -70.29093, -34.82463 ], [ -70.28957, -34.8213 ], [ -70.28975, -34.81725 ], [ -70.28968, -34.81438 ], [ -70.28999, -34.81318 ], [ -70.29042, -34.81213 ], [ -70.29189, -34.81023 ], [ -70.29315, -34.80912 ], [ -70.29848, -34.80558 ], [ -70.29974, -34.80442 ], [ -70.30083, -34.80281 ], [ -70.30118, -34.8007 ], [ -70.3011, -34.79932 ], [ -70.30092, -34.79813 ], [ -70.3004, -34.7969 ], [ -70.30014, -34.79467 ], [ -70.30111, -34.78979 ], [ -70.30346, -34.78461 ], [ -70.30721, -34.78028 ], [ -70.30994, -34.77767 ], [ -70.31112, -34.77693 ], [ -70.3132, -34.77637 ], [ -70.31693, -34.77572 ], [ -70.31994, -34.7758 ], [ -70.32369, -34.77564 ] ], [ [ -70.43048, -34.88557 ], [ -70.43466, -34.88305 ], [ -70.43654, -34.88101 ], [ -70.44305, -34.87578 ], [ -70.44643, -34.87087 ], [ -70.45189, -34.86536 ], [ -70.45227, -34.86163 ], [ -70.45214, -34.85842 ], [ -70.4512, -34.85631 ], [ -70.45025, -34.85329 ], [ -70.44926, -34.84867 ], [ -70.44947, -34.84577 ], [ -70.45034, -34.84251 ], [ -70.4507, -34.83979 ], [ -70.45068, -34.8385 ], [ -70.45106, -34.83697 ], [ -70.45015, -34.83502 ], [ -70.44903, -34.83389 ], [ -70.44802, -34.83204 ], [ -70.44851, -34.83056 ], [ -70.44992, -34.82858 ], [ -70.45508, -34.82533 ], [ -70.45828, -34.8243 ], [ -70.46288, -34.82165 ], [ -70.46883, -34.81781 ], [ -70.4717, -34.81673 ], [ -70.47516, -34.81616 ], [ -70.48089, -34.816 ], [ -70.48398, -34.81567 ], [ -70.49058, -34.81635 ], [ -70.5002, -34.81719 ], [ -70.50613, -34.81845 ], [ -70.51135, -34.81924 ], [ -70.51414, -34.81978 ], [ -70.51646, -34.82061 ], [ -70.51707, -34.82194 ], [ -70.51963, -34.82286 ], [ -70.52183, -34.82283 ], [ -70.52451, -34.82404 ], [ -70.52697, -34.82573 ], [ -70.52952, -34.82709 ], [ -70.53036, -34.82842 ], [ -70.53314, -34.82895 ], [ -70.53582, -34.82959 ], [ -70.53825, -34.82984 ], [ -70.54535, -34.83265 ], [ -70.54749, -34.83549 ], [ -70.54833, -34.83773 ], [ -70.54888, -34.83806 ], [ -70.54984, -34.8412 ], [ -70.55155, -34.84352 ], [ -70.55192, -34.84495 ], [ -70.55246, -34.84781 ], [ -70.55201, -34.84964 ], [ -70.5517, -34.85142 ], [ -70.5522, -34.85222 ], [ -70.55229, -34.85336 ], [ -70.55204, -34.85491 ], [ -70.55124, -34.85675 ], [ -70.55015, -34.85791 ], [ -70.54907, -34.85941 ], [ -70.54819, -34.8608 ], [ -70.54746, -34.86258 ], [ -70.54606, -34.86541 ], [ -70.54532, -34.86713 ], [ -70.5448, -34.86897 ], [ -70.54323, -34.8706 ], [ -70.54226, -34.87197 ], [ -70.54073, -34.87514 ], [ -70.54057, -34.87566 ], [ -70.54036, -34.87995 ], [ -70.53867, -34.88372 ], [ -70.53729, -34.88485 ], [ -70.53596, -34.88649 ], [ -70.53336, -34.8887 ], [ -70.53214, -34.8902 ], [ -70.53092, -34.89211 ], [ -70.5302, -34.89287 ], [ -70.52921, -34.89638 ], [ -70.52789, -34.89707 ], [ -70.52501, -34.89934 ], [ -70.52454, -34.90015 ], [ -70.52434, -34.90089 ], [ -70.52401, -34.90158 ], [ -70.52377, -34.90393 ], [ -70.52367, -34.90429 ], [ -70.52102, -34.90579 ], [ -70.52055, -34.90632 ], [ -70.51966, -34.90696 ], [ -70.51839, -34.9073 ], [ -70.51349, -34.91063 ], [ -70.50905, -34.9122 ], [ -70.50809, -34.91289 ], [ -70.50651, -34.91371 ], [ -70.50548, -34.91447 ], [ -70.5039, -34.9154 ], [ -70.5026, -34.91651 ], [ -70.49984, -34.91792 ], [ -70.49833, -34.91897 ], [ -70.49738, -34.91989 ], [ -70.49649, -34.92105 ], [ -70.49492, -34.92267 ], [ -70.49382, -34.92343 ], [ -70.49322, -34.92435 ], [ -70.49296, -34.92539 ], [ -70.49256, -34.9276 ], [ -70.49217, -34.92797 ], [ -70.49058, -34.92845 ], [ -70.48989, -34.92857 ], [ -70.4892, -34.92915 ], [ -70.48866, -34.92979 ], [ -70.48839, -34.93048 ], [ -70.488, -34.93215 ], [ -70.4876, -34.93289 ], [ -70.48505, -34.93413 ], [ -70.48416, -34.93471 ], [ -70.48327, -34.93552 ], [ -70.48293, -34.93627 ], [ -70.48239, -34.93708 ], [ -70.48109, -34.93819 ], [ -70.47943, -34.93866 ], [ -70.47811, -34.93891 ], [ -70.477, -34.93886 ], [ -70.47436, -34.93913 ], [ -70.47277, -34.93949 ], [ -70.47174, -34.94002 ], [ -70.46859, -34.94263 ], [ -70.46729, -34.94391 ], [ -70.46647, -34.94489 ], [ -70.46551, -34.94576 ], [ -70.46476, -34.94657 ], [ -70.46402, -34.94784 ], [ -70.46196, -34.94924 ], [ -70.46058, -34.95 ], [ -70.45727, -34.9513 ], [ -70.45582, -34.95212 ], [ -70.45507, -34.95293 ], [ -70.45362, -34.95335 ], [ -70.45188, -34.9536 ], [ -70.44967, -34.95425 ], [ -70.4478, -34.95462 ], [ -70.44447, -34.95546 ], [ -70.44012, -34.95711 ], [ -70.43652, -34.9579 ], [ -70.43624, -34.9579 ], [ -70.43456, -34.95741 ], [ -70.43289, -34.95714 ], [ -70.43226, -34.95692 ], [ -70.43143, -34.95699 ], [ -70.43013, -34.95838 ], [ -70.4293, -34.9589 ], [ -70.42827, -34.95943 ], [ -70.42636, -34.96028 ], [ -70.42535, -34.96046 ], [ -70.42362, -34.96095 ], [ -70.42253, -34.96156 ], [ -70.4197, -34.96228 ], [ -70.41797, -34.96316 ], [ -70.41346, -34.96338 ], [ -70.41108, -34.96278 ], [ -70.4083, -34.9627 ], [ -70.40629, -34.96301 ], [ -70.40433, -34.96257 ], [ -70.40284, -34.96104 ], [ -70.40213, -34.95973 ], [ -70.4006, -34.95597 ], [ -70.39947, -34.95473 ], [ -70.39808, -34.95073 ], [ -70.39736, -34.94914 ], [ -70.39635, -34.94732 ], [ -70.39604, -34.94616 ], [ -70.39411, -34.94303 ], [ -70.39248, -34.94015 ], [ -70.39135, -34.93886 ], [ -70.39068, -34.93772 ], [ -70.39, -34.93613 ], [ -70.3897, -34.93453 ], [ -70.3906, -34.93284 ], [ -70.39197, -34.93153 ], [ -70.39306, -34.93096 ], [ -70.39405, -34.93013 ], [ -70.39846, -34.92802 ], [ -70.40074, -34.92578 ], [ -70.40245, -34.92278 ], [ -70.40211, -34.9195 ], [ -70.40246, -34.91774 ], [ -70.40158, -34.91561 ], [ -70.40298, -34.91056 ], [ -70.40275, -34.90804 ], [ -70.4027, -34.90514 ], [ -70.4022, -34.90263 ], [ -70.40185, -34.89868 ], [ -70.40262, -34.89799 ], [ -70.40484, -34.89768 ], [ -70.406, -34.89735 ], [ -70.4077, -34.896 ], [ -70.40939, -34.89429 ], [ -70.41042, -34.89267 ], [ -70.4114, -34.89152 ], [ -70.4131, -34.89008 ], [ -70.41509, -34.889 ], [ -70.41896, -34.88831 ], [ -70.42554, -34.88772 ], [ -70.42789, -34.88684 ], [ -70.43048, -34.88557 ] ] ] } },
{ "type": "Feature", "properties": { "objectid": 521, "peligro": "Alto", "volcan": null, "globalid_1": "75345aab-96d4-4217-b152-b6db277c3d89", "Shape__Area": 0.0087655676684335049, "Shape__Length": 1.1756957471921052 }, "geometry": { "type": "Polygon", "coordinates": [ [ [ -70.66159, -35.20525 ], [ -70.6597, -35.206 ], [ -70.65735, -35.20675 ], [ -70.65595, -35.20716 ], [ -70.65492, -35.20736 ], [ -70.65077, -35.20904 ], [ -70.64593, -35.21059 ], [ -70.64072, -35.21249 ], [ -70.6354, -35.21465 ], [ -70.63274, -35.21563 ], [ -70.62845, -35.21745 ], [ -70.62442, -35.21892 ], [ -70.62257, -35.21972 ], [ -70.6196, -35.22131 ], [ -70.61803, -35.22224 ], [ -70.61536, -35.22363 ], [ -70.61214, -35.2258 ], [ -70.60894, -35.22822 ], [ -70.60677, -35.23016 ], [ -70.60531, -35.23171 ], [ -70.60081, -35.23586 ], [ -70.59778, -35.23821 ], [ -70.59708, -35.23867 ], [ -70.59531, -35.2396 ], [ -70.59357, -35.24028 ], [ -70.59002, -35.24137 ], [ -70.58811, -35.24173 ], [ -70.58263, -35.24238 ], [ -70.58249, -35.24247 ], [ -70.58151, -35.24267 ], [ -70.57918, -35.24339 ], [ -70.57781, -35.24373 ], [ -70.57541, -35.24413 ], [ -70.57137, -35.24501 ], [ -70.56989, -35.24521 ], [ -70.56877, -35.24525 ], [ -70.56777, -35.24502 ], [ -70.56685, -35.24458 ], [ -70.56626, -35.24417 ], [ -70.5659, -35.24361 ], [ -70.56594, -35.24293 ], [ -70.56608, -35.24218 ], [ -70.566, -35.24185 ], [ -70.56564, -35.2411 ], [ -70.56489, -35.23986 ], [ -70.5649, -35.23887 ], [ -70.56578, -35.23627 ], [ -70.56632, -35.2351 ], [ -70.56644, -35.23499 ], [ -70.56698, -35.23331 ], [ -70.56726, -35.23277 ], [ -70.56845, -35.23096 ], [ -70.56924, -35.22995 ], [ -70.5705, -35.22886 ], [ -70.57137, -35.22829 ], [ -70.5723, -35.22792 ], [ -70.57308, -35.22784 ], [ -70.57344, -35.22773 ], [ -70.57498, -35.22766 ], [ -70.57685, -35.22771 ], [ -70.57775, -35.22795 ], [ -70.57931, -35.22875 ], [ -70.57959, -35.22877 ], [ -70.57986, -35.22899 ], [ -70.58048, -35.2292 ], [ -70.58249, -35.22952 ], [ -70.58363, -35.22955 ], [ -70.58895, -35.22852 ], [ -70.59211, -35.22779 ], [ -70.59505, -35.22691 ], [ -70.59755, -35.22598 ], [ -70.60113, -35.2248 ], [ -70.6055, -35.2231 ], [ -70.60968, -35.22114 ], [ -70.61662, -35.21878 ], [ -70.62057, -35.21781 ], [ -70.62222, -35.21731 ], [ -70.62558, -35.21608 ], [ -70.62766, -35.21481 ], [ -70.63102, -35.21313 ], [ -70.63699, -35.21063 ], [ -70.64015, -35.20913 ], [ -70.64385, -35.20767 ], [ -70.6464, -35.20679 ], [ -70.64967, -35.20597 ], [ -70.65224, -35.20522 ], [ -70.65269, -35.20516 ], [ -70.6546, -35.20459 ], [ -70.65708, -35.20404 ], [ -70.66075, -35.20254 ], [ -70.66109, -35.20255 ], [ -70.66283, -35.20093 ], [ -70.66361, -35.20031 ], [ -70.66418, -35.19972 ], [ -70.66454, -35.19946 ], [ -70.66516, -35.19878 ], [ -70.66536, -35.19837 ], [ -70.6639, -35.19864 ], [ -70.66049, -35.19881 ], [ -70.65703, -35.19875 ], [ -70.64863, -35.19784 ], [ -70.64307, -35.19741 ], [ -70.64056, -35.19701 ], [ -70.63913, -35.19691 ], [ -70.63759, -35.1967 ], [ -70.63427, -35.19651 ], [ -70.62759, -35.19656 ], [ -70.62326, -35.19679 ], [ -70.62111, -35.19701 ], [ -70.61675, -35.19771 ], [ -70.61549, -35.1981 ], [ -70.61395, -35.19871 ], [ -70.61078, -35.20028 ], [ -70.60971, -35.201 ], [ -70.6084, -35.20201 ], [ -70.60575, -35.20441 ], [ -70.60494, -35.20495 ], [ -70.60126, -35.20794 ], [ -70.59972, -35.20933 ], [ -70.59882, -35.21002 ], [ -70.59719, -35.21159 ], [ -70.59595, -35.21265 ], [ -70.59264, -35.21497 ], [ -70.58821, -35.21727 ], [ -70.58364, -35.2191 ], [ -70.57883, -35.22055 ], [ -70.57706, -35.22089 ], [ -70.57368, -35.2217 ], [ -70.57124, -35.22247 ], [ -70.56984, -35.22306 ], [ -70.56759, -35.22449 ], [ -70.56588, -35.22581 ], [ -70.56478, -35.22712 ], [ -70.56435, -35.22816 ], [ -70.5641, -35.22853 ], [ -70.56013, -35.22873 ], [ -70.55711, -35.2287 ], [ -70.55418, -35.22854 ], [ -70.55097, -35.22822 ], [ -70.54642, -35.22755 ], [ -70.53974, -35.22709 ], [ -70.53672, -35.22667 ], [ -70.53455, -35.22645 ], [ -70.52871, -35.22558 ], [ -70.52734, -35.22525 ], [ -70.52564, -35.22462 ], [ -70.5243, -35.22425 ], [ -70.5233, -35.22407 ], [ -70.52149, -35.22353 ], [ -70.517, -35.22203 ], [ -70.51399, -35.22091 ], [ -70.50975, -35.21973 ], [ -70.5076, -35.21901 ], [ -70.50634, -35.21882 ], [ -70.50503, -35.21889 ], [ -70.50438, -35.21908 ], [ -70.50396, -35.21933 ], [ -70.50301, -35.22014 ], [ -70.50273, -35.22052 ], [ -70.5023, -35.2219 ], [ -70.50165, -35.2229 ], [ -70.50077, -35.22361 ], [ -70.50018, -35.22397 ], [ -70.49814, -35.22458 ], [ -70.49504, -35.22489 ], [ -70.4928, -35.22522 ], [ -70.49182, -35.22524 ], [ -70.48944, -35.22564 ], [ -70.48714, -35.2262 ], [ -70.48622, -35.22659 ], [ -70.48568, -35.22691 ], [ -70.48509, -35.22741 ], [ -70.48422, -35.22887 ], [ -70.48362, -35.22958 ], [ -70.48079, -35.23129 ], [ -70.47992, -35.23199 ], [ -70.47932, -35.23272 ], [ -70.47855, -35.23476 ], [ -70.47835, -35.23643 ], [ -70.4783, -35.23854 ], [ -70.47801, -35.23991 ], [ -70.47795, -35.24057 ], [ -70.47775, -35.24117 ], [ -70.47733, -35.24188 ], [ -70.47614, -35.24311 ], [ -70.47513, -35.24432 ], [ -70.47431, -35.24491 ], [ -70.47249, -35.24581 ], [ -70.47099, -35.24711 ], [ -70.47035, -35.24787 ], [ -70.47012, -35.2483 ], [ -70.46983, -35.2492 ], [ -70.46941, -35.2497 ], [ -70.46874, -35.25001 ], [ -70.46787, -35.2502 ], [ -70.46697, -35.25028 ], [ -70.46616, -35.25024 ], [ -70.46513, -35.24989 ], [ -70.46249, -35.24829 ], [ -70.45999, -35.2462 ], [ -70.45805, -35.24394 ], [ -70.45586, -35.24121 ], [ -70.4531, -35.23718 ], [ -70.45205, -35.23539 ], [ -70.45147, -35.23468 ], [ -70.45014, -35.23277 ], [ -70.44912, -35.2316 ], [ -70.44809, -35.23091 ], [ -70.44745, -35.23072 ], [ -70.44549, -35.23052 ], [ -70.44432, -35.23068 ], [ -70.44356, -35.23116 ], [ -70.44325, -35.23157 ], [ -70.44296, -35.23226 ], [ -70.44285, -35.23274 ], [ -70.44284, -35.23315 ], [ -70.44298, -35.23347 ], [ -70.44308, -35.23457 ], [ -70.44332, -35.2356 ], [ -70.44498, -35.2385 ], [ -70.44643, -35.24293 ], [ -70.44694, -35.24544 ], [ -70.44701, -35.24687 ], [ -70.4473, -35.2492 ], [ -70.44781, -35.25134 ], [ -70.44822, -35.2523 ], [ -70.44861, -35.25283 ], [ -70.45024, -35.25563 ], [ -70.45068, -35.25618 ], [ -70.45259, -35.25819 ], [ -70.45426, -35.25968 ], [ -70.4557, -35.26081 ], [ -70.45735, -35.26195 ], [ -70.46343, -35.2666 ], [ -70.46672, -35.26879 ], [ -70.46917, -35.2702 ], [ -70.47218, -35.27175 ], [ -70.47312, -35.27241 ], [ -70.47406, -35.2734 ], [ -70.47448, -35.27418 ], [ -70.47456, -35.27471 ], [ -70.47464, -35.27796 ], [ -70.47444, -35.27908 ], [ -70.47443, -35.2809 ], [ -70.47448, -35.28131 ], [ -70.47489, -35.28205 ], [ -70.47534, -35.28257 ], [ -70.47662, -35.28327 ], [ -70.48016, -35.28454 ], [ -70.48125, -35.28502 ], [ -70.48183, -35.28549 ], [ -70.48216, -35.28601 ], [ -70.4823, -35.28691 ], [ -70.48229, -35.28833 ], [ -70.48254, -35.29133 ], [ -70.48282, -35.29227 ], [ -70.48372, -35.29468 ], [ -70.4839, -35.29624 ], [ -70.4839, -35.29729 ], [ -70.48378, -35.29784 ], [ -70.48321, -35.2988 ], [ -70.48212, -35.29944 ], [ -70.48133, -35.29978 ], [ -70.47954, -35.30026 ], [ -70.47917, -35.30046 ], [ -70.47343, -35.30178 ], [ -70.46755, -35.30244 ], [ -70.46399, -35.30268 ], [ -70.45702, -35.30351 ], [ -70.454, -35.3035 ], [ -70.44112, -35.3017 ], [ -70.43924, -35.30173 ], [ -70.43571, -35.30248 ], [ -70.43414, -35.30252 ], [ -70.43353, -35.30242 ], [ -70.43308, -35.30235 ], [ -70.43241, -35.30209 ], [ -70.43082, -35.30106 ], [ -70.42944, -35.29999 ], [ -70.42805, -35.29864 ], [ -70.42763, -35.29804 ], [ -70.4273, -35.2973 ], [ -70.42684, -35.29597 ], [ -70.42555, -35.29318 ], [ -70.42544, -35.29274 ], [ -70.42442, -35.29104 ], [ -70.4232, -35.28977 ], [ -70.42247, -35.28928 ], [ -70.42189, -35.28915 ], [ -70.42102, -35.28925 ], [ -70.41956, -35.28998 ], [ -70.41838, -35.29092 ], [ -70.41677, -35.29192 ], [ -70.41548, -35.2925 ], [ -70.41458, -35.29273 ], [ -70.41335, -35.29291 ], [ -70.41184, -35.29294 ], [ -70.40974, -35.29279 ], [ -70.40871, -35.29286 ], [ -70.407, -35.29336 ], [ -70.40273, -35.29482 ], [ -70.40125, -35.29541 ], [ -70.39956, -35.2962 ], [ -70.39605, -35.29758 ], [ -70.39161, -35.30008 ], [ -70.39021, -35.30067 ], [ -70.38631, -35.30132 ], [ -70.38421, -35.30147 ], [ -70.38276, -35.30145 ], [ -70.38013, -35.30121 ], [ -70.37714, -35.30055 ], [ -70.37558, -35.30029 ], [ -70.3746, -35.30029 ], [ -70.37415, -35.30038 ], [ -70.37334, -35.30065 ], [ -70.37092, -35.30173 ], [ -70.36774, -35.30335 ], [ -70.36463, -35.30473 ], [ -70.36047, -35.3069 ], [ -70.35898, -35.30777 ], [ -70.35687, -35.30881 ], [ -70.35507, -35.30959 ], [ -70.35249, -35.31052 ], [ -70.35022, -35.31106 ], [ -70.34758, -35.3113 ], [ -70.34018, -35.31254 ], [ -70.33968, -35.31265 ], [ -70.33934, -35.31288 ], [ -70.33915, -35.31292 ], [ -70.33803, -35.31296 ], [ -70.33654, -35.31323 ], [ -70.3359, -35.31322 ], [ -70.33253, -35.31378 ], [ -70.33284, -35.32282 ], [ -70.33332, -35.32274 ], [ -70.33495, -35.32215 ], [ -70.33765, -35.32082 ], [ -70.33911, -35.32035 ], [ -70.34059, -35.32003 ], [ -70.3449, -35.31957 ], [ -70.34852, -35.31941 ], [ -70.35207, -35.31941 ], [ -70.35369, -35.31933 ], [ -70.35448, -35.31921 ], [ -70.35686, -35.31914 ], [ -70.35767, -35.31901 ], [ -70.35905, -35.31851 ], [ -70.36009, -35.31799 ], [ -70.36203, -35.31644 ], [ -70.36299, -35.3152 ], [ -70.36402, -35.31331 ], [ -70.36495, -35.3119 ], [ -70.36549, -35.31119 ], [ -70.36606, -35.31064 ], [ -70.36752, -35.30944 ], [ -70.36851, -35.3088 ], [ -70.37022, -35.30792 ], [ -70.37137, -35.30763 ], [ -70.37252, -35.30747 ], [ -70.37521, -35.30748 ], [ -70.37817, -35.30771 ], [ -70.38214, -35.3078 ], [ -70.38502, -35.30802 ], [ -70.38715, -35.30805 ], [ -70.38832, -35.30817 ], [ -70.3905, -35.30823 ], [ -70.39285, -35.30843 ], [ -70.39783, -35.30922 ], [ -70.39964, -35.30942 ], [ -70.40057, -35.30938 ], [ -70.40161, -35.30875 ], [ -70.40293, -35.30758 ], [ -70.40367, -35.30662 ], [ -70.40486, -35.30441 ], [ -70.40557, -35.30356 ], [ -70.40678, -35.30258 ], [ -70.4081, -35.30179 ], [ -70.40956, -35.30111 ], [ -70.41119, -35.30057 ], [ -70.41245, -35.30033 ], [ -70.41332, -35.30031 ], [ -70.41508, -35.30057 ], [ -70.41795, -35.30156 ], [ -70.4187, -35.30191 ], [ -70.42196, -35.3037 ], [ -70.42349, -35.30471 ], [ -70.42594, -35.30655 ], [ -70.42685, -35.30761 ], [ -70.4273, -35.30796 ], [ -70.42886, -35.30874 ], [ -70.43025, -35.30919 ], [ -70.4314, -35.30924 ], [ -70.43244, -35.30901 ], [ -70.43508, -35.30792 ], [ -70.43707, -35.30731 ], [ -70.4383, -35.30716 ], [ -70.44017, -35.30717 ], [ -70.44149, -35.30736 ], [ -70.44286, -35.30767 ], [ -70.44958, -35.30982 ], [ -70.45109, -35.31016 ], [ -70.4521, -35.31048 ], [ -70.45436, -35.31152 ], [ -70.45581, -35.31194 ], [ -70.45807, -35.31229 ], [ -70.46302, -35.31229 ], [ -70.46876, -35.31195 ], [ -70.47557, -35.31091 ], [ -70.48173, -35.31018 ], [ -70.48529, -35.30964 ], [ -70.48868, -35.30877 ], [ -70.49017, -35.30788 ], [ -70.49267, -35.30572 ], [ -70.49391, -35.30444 ], [ -70.4969, -35.30164 ], [ -70.49851, -35.29983 ], [ -70.49876, -35.29968 ], [ -70.49896, -35.29939 ], [ -70.50051, -35.29796 ], [ -70.50313, -35.29531 ], [ -70.50487, -35.29414 ], [ -70.50799, -35.2924 ], [ -70.50844, -35.29208 ], [ -70.50892, -35.29152 ], [ -70.50904, -35.29097 ], [ -70.50904, -35.2903 ], [ -70.50883, -35.28895 ], [ -70.50863, -35.28865 ], [ -70.50855, -35.2883 ], [ -70.50736, -35.28629 ], [ -70.50609, -35.28486 ], [ -70.50548, -35.28399 ], [ -70.50468, -35.28231 ], [ -70.50413, -35.28087 ], [ -70.50383, -35.27922 ], [ -70.50373, -35.27807 ], [ -70.50387, -35.27479 ], [ -70.50398, -35.27443 ], [ -70.50407, -35.27326 ], [ -70.50437, -35.27149 ], [ -70.50457, -35.27065 ], [ -70.50479, -35.27015 ], [ -70.5048, -35.26969 ], [ -70.50497, -35.26894 ], [ -70.5052, -35.2685 ], [ -70.50566, -35.26715 ], [ -70.50696, -35.26447 ], [ -70.50745, -35.26308 ], [ -70.50801, -35.26201 ], [ -70.50866, -35.26114 ], [ -70.5094, -35.26036 ], [ -70.51106, -35.25897 ], [ -70.51215, -35.25843 ], [ -70.51358, -35.25802 ], [ -70.51621, -35.25746 ], [ -70.51798, -35.2572 ], [ -70.51948, -35.25722 ], [ -70.52164, -35.25753 ], [ -70.52426, -35.25777 ], [ -70.52563, -35.25803 ], [ -70.527, -35.25844 ], [ -70.52895, -35.25932 ], [ -70.53109, -35.26057 ], [ -70.53354, -35.26266 ], [ -70.53423, -35.2631 ], [ -70.53504, -35.26349 ], [ -70.53624, -35.26389 ], [ -70.5387, -35.26454 ], [ -70.54001, -35.26464 ], [ -70.54108, -35.26451 ], [ -70.54228, -35.264 ], [ -70.54282, -35.26364 ], [ -70.54428, -35.26227 ], [ -70.54532, -35.26102 ], [ -70.54614, -35.26028 ], [ -70.54892, -35.25839 ], [ -70.55181, -35.25616 ], [ -70.55277, -35.25531 ], [ -70.55316, -35.25511 ], [ -70.55648, -35.2527 ], [ -70.55816, -35.25172 ], [ -70.56052, -35.25077 ], [ -70.56234, -35.2502 ], [ -70.56393, -35.24981 ], [ -70.56508, -35.24966 ], [ -70.56645, -35.24937 ], [ -70.56788, -35.24891 ], [ -70.5692, -35.24862 ], [ -70.57012, -35.24867 ], [ -70.5711, -35.24885 ], [ -70.57199, -35.24928 ], [ -70.57274, -35.24994 ], [ -70.57321, -35.25054 ], [ -70.57434, -35.25304 ], [ -70.57456, -35.25332 ], [ -70.57501, -35.25371 ], [ -70.57612, -35.25417 ], [ -70.57699, -35.25436 ], [ -70.57822, -35.25447 ], [ -70.58135, -35.25453 ], [ -70.587, -35.25494 ], [ -70.58934, -35.2555 ], [ -70.59355, -35.25673 ], [ -70.59481, -35.25701 ], [ -70.5985, -35.25737 ], [ -70.59993, -35.25741 ], [ -70.60703, -35.25734 ], [ -70.61217, -35.25738 ], [ -70.61407, -35.25723 ], [ -70.61642, -35.2568 ], [ -70.619, -35.25665 ], [ -70.61984, -35.25652 ], [ -70.62084, -35.2565 ], [ -70.62269, -35.2563 ], [ -70.62496, -35.25621 ], [ -70.62725, -35.25588 ], [ -70.62837, -35.25534 ], [ -70.62902, -35.25472 ], [ -70.62939, -35.25414 ], [ -70.62984, -35.25307 ], [ -70.63044, -35.2505 ], [ -70.63059, -35.24941 ], [ -70.63069, -35.24629 ], [ -70.63077, -35.24597 ], [ -70.63084, -35.24456 ], [ -70.63074, -35.24187 ], [ -70.63053, -35.24004 ], [ -70.63053, -35.23951 ], [ -70.63007, -35.23725 ], [ -70.62944, -35.23587 ], [ -70.62883, -35.23484 ], [ -70.6278, -35.23345 ], [ -70.62711, -35.23228 ], [ -70.62647, -35.23059 ], [ -70.62648, -35.22919 ], [ -70.62663, -35.22786 ], [ -70.62675, -35.22734 ], [ -70.62748, -35.22564 ], [ -70.62832, -35.22485 ], [ -70.629, -35.22441 ], [ -70.6297, -35.22412 ], [ -70.63244, -35.22321 ], [ -70.63566, -35.22238 ], [ -70.63678, -35.22192 ], [ -70.63804, -35.22107 ], [ -70.63914, -35.22009 ], [ -70.63993, -35.21927 ], [ -70.64049, -35.21854 ], [ -70.64268, -35.21623 ], [ -70.64409, -35.21502 ], [ -70.64468, -35.21441 ], [ -70.64779, -35.21185 ], [ -70.64905, -35.21105 ], [ -70.65074, -35.21023 ], [ -70.65205, -35.20989 ], [ -70.65446, -35.20901 ], [ -70.65675, -35.20835 ], [ -70.65919, -35.20735 ], [ -70.66009, -35.20678 ], [ -70.66121, -35.20584 ], [ -70.66143, -35.2056 ], [ -70.66159, -35.20525 ] ] ] } },
{ "type": "Feature", "properties": { "objectid": 601, "peligro": "Alto", "volcan": null, "globalid_1": "86285133-f224-427b-9d55-f9c04fa59d32", "Shape__Area": 0.00075746812740362657, "Shape__Length": 0.58053020948251699 }, "geometry": { "type": "Polygon", "coordinates": [ [ [ -70.70139, -35.15406 ], [ -70.7017, -35.15433 ], [ -70.70186, -35.15479 ], [ -70.70192, -35.15528 ], [ -70.70172, -35.15573 ], [ -70.70309, -35.1544 ], [ -70.70505, -35.15324 ], [ -70.70794, -35.15176 ], [ -70.71004, -35.15087 ], [ -70.71076, -35.15046 ], [ -70.71172, -35.15007 ], [ -70.7144, -35.14921 ], [ -70.71765, -35.14773 ], [ -70.72215, -35.14605 ], [ -70.72693, -35.14398 ], [ -70.72981, -35.14302 ], [ -70.73185, -35.14255 ], [ -70.73451, -35.14216 ], [ -70.74035, -35.14107 ], [ -70.74398, -35.14079 ], [ -70.7466, -35.14041 ], [ -70.75152, -35.13948 ], [ -70.75454, -35.139 ], [ -70.75736, -35.13841 ], [ -70.75934, -35.1378 ], [ -70.76164, -35.13689 ], [ -70.76491, -35.13541 ], [ -70.76709, -35.13463 ], [ -70.77098, -35.13356 ], [ -70.7731, -35.13265 ], [ -70.77514, -35.13146 ], [ -70.77612, -35.13065 ], [ -70.77727, -35.12952 ], [ -70.77929, -35.12801 ], [ -70.78007, -35.12756 ], [ -70.7827, -35.12617 ], [ -70.7848, -35.12518 ], [ -70.78938, -35.12332 ], [ -70.79061, -35.1227 ], [ -70.79109, -35.12236 ], [ -70.79151, -35.12183 ], [ -70.79319, -35.1201 ], [ -70.79386, -35.11927 ], [ -70.79488, -35.11751 ], [ -70.7964, -35.11398 ], [ -70.7973, -35.11273 ], [ -70.80091, -35.10877 ], [ -70.80237, -35.10754 ], [ -70.80382, -35.10607 ], [ -70.80478, -35.10491 ], [ -70.80587, -35.1039 ], [ -70.80758, -35.10198 ], [ -70.80906, -35.10011 ], [ -70.81007, -35.09864 ], [ -70.81111, -35.09674 ], [ -70.8115, -35.0959 ], [ -70.81182, -35.09459 ], [ -70.81213, -35.09411 ], [ -70.81252, -35.09317 ], [ -70.81269, -35.0909 ], [ -70.81276, -35.08857 ], [ -70.81268, -35.08646 ], [ -70.81249, -35.08478 ], [ -70.81205, -35.08286 ], [ -70.81181, -35.08064 ], [ -70.81126, -35.07764 ], [ -70.81116, -35.07645 ], [ -70.81096, -35.07548 ], [ -70.81091, -35.07397 ], [ -70.81095, -35.07145 ], [ -70.8111, -35.06962 ], [ -70.81135, -35.06832 ], [ -70.81147, -35.06717 ], [ -70.81223, -35.06426 ], [ -70.81277, -35.06147 ], [ -70.81277, -35.06118 ], [ -70.81269, -35.06069 ], [ -70.81225, -35.05962 ], [ -70.81203, -35.05934 ], [ -70.81164, -35.05853 ], [ -70.81125, -35.05744 ], [ -70.81062, -35.05602 ], [ -70.80968, -35.0542 ], [ -70.80829, -35.05221 ], [ -70.80801, -35.05131 ], [ -70.80738, -35.04987 ], [ -70.80733, -35.04813 ], [ -70.80739, -35.0474 ], [ -70.80753, -35.04716 ], [ -70.80764, -35.04634 ], [ -70.80775, -35.04611 ], [ -70.80795, -35.04513 ], [ -70.80801, -35.04358 ], [ -70.80793, -35.04343 ], [ -70.80758, -35.03974 ], [ -70.80744, -35.03915 ], [ -70.80731, -35.03773 ], [ -70.80701, -35.0362 ], [ -70.80696, -35.03533 ], [ -70.80697, -35.03157 ], [ -70.807, -35.03024 ], [ -70.80709, -35.03001 ], [ -70.80713, -35.02522 ], [ -70.80705, -35.0187 ], [ -70.80691, -35.01748 ], [ -70.80695, -35.01457 ], [ -70.80703, -35.01437 ], [ -70.80704, -35.0137 ], [ -70.80715, -35.01293 ], [ -70.80743, -35.01155 ], [ -70.80749, -35.01054 ], [ -70.80809, -35.00828 ], [ -70.80809, -35.00804 ], [ -70.80885, -35.0056 ], [ -70.80964, -35.00395 ], [ -70.80981, -35.00327 ], [ -70.81014, -35.00249 ], [ -70.81143, -35.00086 ], [ -70.81224, -35.0002 ], [ -70.81302, -34.99969 ], [ -70.81448, -34.99908 ], [ -70.81542, -34.99878 ], [ -70.81707, -34.99852 ], [ -70.81813, -34.99849 ], [ -70.81924, -34.99883 ], [ -70.82122, -34.99971 ], [ -70.8223, -35.00054 ], [ -70.82402, -35.00256 ], [ -70.82522, -35.00357 ], [ -70.82661, -35.0043 ], [ -70.82811, -35.0049 ], [ -70.82992, -35.00541 ], [ -70.83207, -35.00576 ], [ -70.83452, -35.00583 ], [ -70.83555, -35.00578 ], [ -70.83636, -35.00562 ], [ -70.83728, -35.00558 ], [ -70.83862, -35.00505 ], [ -70.84091, -35.00373 ], [ -70.84239, -35.00268 ], [ -70.84756, -34.99932 ], [ -70.84856, -34.99854 ], [ -70.84895, -34.99809 ], [ -70.85007, -34.99726 ], [ -70.85086, -34.99644 ], [ -70.85174, -34.99585 ], [ -70.85232, -34.99526 ], [ -70.85449, -34.99411 ], [ -70.85596, -34.99374 ], [ -70.85819, -34.99303 ], [ -70.86064, -34.992 ], [ -70.8615, -34.99189 ], [ -70.86257, -34.99128 ], [ -70.86249, -34.98736 ], [ -70.86185, -34.98753 ], [ -70.86097, -34.98791 ], [ -70.85939, -34.98899 ], [ -70.85859, -34.98963 ], [ -70.85793, -34.98999 ], [ -70.85675, -34.99037 ], [ -70.85602, -34.99075 ], [ -70.8527, -34.99153 ], [ -70.85022, -34.99224 ], [ -70.84894, -34.99286 ], [ -70.84788, -34.99357 ], [ -70.84693, -34.99441 ], [ -70.84618, -34.99494 ], [ -70.84593, -34.99499 ], [ -70.84375, -34.99631 ], [ -70.83987, -34.99818 ], [ -70.83817, -34.99871 ], [ -70.83593, -34.9991 ], [ -70.83265, -34.99918 ], [ -70.82922, -34.99878 ], [ -70.82841, -34.99855 ], [ -70.82755, -34.99814 ], [ -70.82482, -34.99637 ], [ -70.82307, -34.99552 ], [ -70.82146, -34.99501 ], [ -70.81839, -34.99448 ], [ -70.81566, -34.99443 ], [ -70.81268, -34.99466 ], [ -70.81112, -34.99512 ], [ -70.81067, -34.99546 ], [ -70.81039, -34.99579 ], [ -70.81025, -34.99694 ], [ -70.8103, -34.9977 ], [ -70.8101, -34.99836 ], [ -70.80979, -34.99912 ], [ -70.8087, -35.00061 ], [ -70.80772, -35.0023 ], [ -70.80718, -35.00358 ], [ -70.80685, -35.00488 ], [ -70.80625, -35.00665 ], [ -70.80585, -35.00907 ], [ -70.80574, -35.01106 ], [ -70.80529, -35.01228 ], [ -70.80509, -35.01308 ], [ -70.80503, -35.01365 ], [ -70.80483, -35.01436 ], [ -70.80454, -35.01679 ], [ -70.80456, -35.01894 ], [ -70.80481, -35.02075 ], [ -70.80491, -35.02295 ], [ -70.8049, -35.02492 ], [ -70.80465, -35.02703 ], [ -70.80464, -35.0279 ], [ -70.80458, -35.0284 ], [ -70.80382, -35.03049 ], [ -70.8036, -35.03144 ], [ -70.80359, -35.03244 ], [ -70.80367, -35.03298 ], [ -70.80467, -35.0361 ], [ -70.8053, -35.03885 ], [ -70.80535, -35.04004 ], [ -70.80531, -35.04359 ], [ -70.80522, -35.04377 ], [ -70.80505, -35.04531 ], [ -70.80454, -35.04831 ], [ -70.80439, -35.04993 ], [ -70.80442, -35.0509 ], [ -70.80569, -35.05301 ], [ -70.80577, -35.05326 ], [ -70.80619, -35.05374 ], [ -70.80722, -35.05527 ], [ -70.80924, -35.05782 ], [ -70.80974, -35.05897 ], [ -70.80993, -35.06009 ], [ -70.81001, -35.06171 ], [ -70.80994, -35.06529 ], [ -70.80988, -35.06634 ], [ -70.80951, -35.06843 ], [ -70.80951, -35.06895 ], [ -70.80934, -35.06989 ], [ -70.80925, -35.07099 ], [ -70.80925, -35.0723 ], [ -70.8091, -35.07321 ], [ -70.80906, -35.07681 ], [ -70.80917, -35.07812 ], [ -70.80991, -35.08107 ], [ -70.81005, -35.08196 ], [ -70.8102, -35.08522 ], [ -70.8102, -35.08659 ], [ -70.81005, -35.08863 ], [ -70.80991, -35.08946 ], [ -70.80887, -35.09277 ], [ -70.80813, -35.09435 ], [ -70.80788, -35.09506 ], [ -70.80779, -35.09555 ], [ -70.80687, -35.09797 ], [ -70.80588, -35.10019 ], [ -70.80524, -35.10134 ], [ -70.8047, -35.10211 ], [ -70.80313, -35.10406 ], [ -70.80251, -35.10499 ], [ -70.80072, -35.10675 ], [ -70.79672, -35.11041 ], [ -70.79534, -35.11208 ], [ -70.79372, -35.11457 ], [ -70.79313, -35.11565 ], [ -70.79222, -35.11778 ], [ -70.79093, -35.11977 ], [ -70.79015, -35.12046 ], [ -70.78956, -35.1208 ], [ -70.78914, -35.12089 ], [ -70.78638, -35.12194 ], [ -70.78363, -35.12319 ], [ -70.7828, -35.12371 ], [ -70.78106, -35.1252 ], [ -70.77935, -35.1263 ], [ -70.77653, -35.1278 ], [ -70.77485, -35.12903 ], [ -70.77261, -35.13036 ], [ -70.77149, -35.13088 ], [ -70.77012, -35.13138 ], [ -70.76964, -35.13148 ], [ -70.76472, -35.13348 ], [ -70.76109, -35.1348 ], [ -70.75634, -35.13614 ], [ -70.75379, -35.13712 ], [ -70.74709, -35.13871 ], [ -70.74614, -35.13889 ], [ -70.74468, -35.13903 ], [ -70.74295, -35.13907 ], [ -70.74094, -35.13929 ], [ -70.73471, -35.14044 ], [ -70.72957, -35.14167 ], [ -70.72694, -35.14209 ], [ -70.72596, -35.14232 ], [ -70.72314, -35.14337 ], [ -70.71847, -35.14482 ], [ -70.7159, -35.14589 ], [ -70.71408, -35.14689 ], [ -70.71197, -35.14827 ], [ -70.71018, -35.14922 ], [ -70.70862, -35.15022 ], [ -70.70542, -35.15176 ], [ -70.70388, -35.15266 ], [ -70.70282, -35.15312 ], [ -70.70162, -35.15383 ], [ -70.70139, -35.15406 ] ] ] } },
{ "type": "Feature", "properties": { "objectid": 1231, "peligro": "Alto", "volcan": null, "globalid_1": "925e06f6-59e4-4843-9f6d-04d29a062410", "Shape__Area": 0.0001190716043311113, "Shape__Length": 0.13451808979348431 }, "geometry": { "type": "Polygon", "coordinates": [ [ [ -70.66578, -35.19773 ], [ -70.66516, -35.19878 ], [ -70.66454, -35.19946 ], [ -70.66418, -35.19972 ], [ -70.66361, -35.20031 ], [ -70.66283, -35.20093 ], [ -70.66109, -35.20255 ], [ -70.66162, -35.20268 ], [ -70.6622, -35.2031 ], [ -70.66237, -35.20338 ], [ -70.66242, -35.20406 ], [ -70.66236, -35.20436 ], [ -70.66159, -35.20525 ], [ -70.66219, -35.20496 ], [ -70.66253, -35.20455 ], [ -70.66475, -35.20269 ], [ -70.6657, -35.20176 ], [ -70.66781, -35.19906 ], [ -70.66807, -35.19858 ], [ -70.66956, -35.1965 ], [ -70.67023, -35.19568 ], [ -70.67124, -35.19467 ], [ -70.67197, -35.19422 ], [ -70.67449, -35.19313 ], [ -70.67581, -35.1924 ], [ -70.67716, -35.19151 ], [ -70.67819, -35.19045 ], [ -70.67904, -35.18932 ], [ -70.67986, -35.18794 ], [ -70.68039, -35.18692 ], [ -70.68039, -35.18677 ], [ -70.68127, -35.18535 ], [ -70.68338, -35.18142 ], [ -70.68439, -35.18031 ], [ -70.68791, -35.17589 ], [ -70.69238, -35.16924 ], [ -70.6932, -35.16826 ], [ -70.69463, -35.16682 ], [ -70.69494, -35.16631 ], [ -70.69522, -35.16604 ], [ -70.69603, -35.1649 ], [ -70.69741, -35.1625 ], [ -70.69764, -35.16181 ], [ -70.69775, -35.16169 ], [ -70.69787, -35.16128 ], [ -70.69832, -35.16035 ], [ -70.69933, -35.15877 ], [ -70.70099, -35.15682 ], [ -70.70172, -35.15573 ], [ -70.70192, -35.15528 ], [ -70.70186, -35.15479 ], [ -70.70159, -35.15417 ], [ -70.70139, -35.15406 ], [ -70.70058, -35.1546 ], [ -70.69909, -35.15608 ], [ -70.69828, -35.15707 ], [ -70.69622, -35.16075 ], [ -70.69566, -35.16224 ], [ -70.69515, -35.16323 ], [ -70.694, -35.16476 ], [ -70.69256, -35.16698 ], [ -70.69189, -35.16784 ], [ -70.68981, -35.17017 ], [ -70.68817, -35.17248 ], [ -70.68618, -35.17509 ], [ -70.68379, -35.17794 ], [ -70.68055, -35.18263 ], [ -70.67949, -35.18384 ], [ -70.6769, -35.18782 ], [ -70.67605, -35.18894 ], [ -70.67518, -35.18987 ], [ -70.67473, -35.19024 ], [ -70.67378, -35.19132 ], [ -70.67291, -35.19211 ], [ -70.67206, -35.19285 ], [ -70.67018, -35.19424 ], [ -70.66724, -35.19677 ], [ -70.66578, -35.19773 ] ] ] } },
{ "type": "Feature", "properties": { "objectid": 1259, "peligro": "Alto", "volcan": null, "globalid_1": "0d77ccfa-066e-4b02-aee7-3a836bdaf548", "Shape__Area": 0.012310629103239989, "Shape__Length": 0.92852069851301533 }, "geometry": { "type": "Polygon", "coordinates": [ [ [ -70.31064, -34.78342 ], [ -70.30859, -34.7852 ], [ -70.30658, -34.78678 ], [ -70.30372, -34.7901 ], [ -70.30268, -34.7919 ], [ -70.30202, -34.79405 ], [ -70.30214, -34.79569 ], [ -70.30305, -34.80144 ], [ -70.3023, -34.80291 ], [ -70.30144, -34.80512 ], [ -70.29821, -34.80781 ], [ -70.29623, -34.80916 ], [ -70.29446, -34.80968 ], [ -70.29293, -34.81135 ], [ -70.29229, -34.813 ], [ -70.29132, -34.81489 ], [ -70.29118, -34.81677 ], [ -70.29121, -34.81879 ], [ -70.2914, -34.82021 ], [ -70.29193, -34.82162 ], [ -70.29256, -34.82299 ], [ -70.29242, -34.82491 ], [ -70.29212, -34.82675 ], [ -70.29215, -34.82858 ], [ -70.2918, -34.83115 ], [ -70.29229, -34.83398 ], [ -70.29333, -34.83667 ], [ -70.29405, -34.84029 ], [ -70.29464, -34.84216 ], [ -70.29589, -34.8443 ], [ -70.29639, -34.84745 ], [ -70.29707, -34.84891 ], [ -70.29734, -34.85156 ], [ -70.29898, -34.85333 ], [ -70.29984, -34.85543 ], [ -70.30065, -34.85744 ], [ -70.30118, -34.85917 ], [ -70.30104, -34.86082 ], [ -70.3019, -34.86274 ], [ -70.3016, -34.86444 ], [ -70.30151, -34.86622 ], [ -70.30071, -34.87136 ], [ -70.30018, -34.87352 ], [ -70.30022, -34.87549 ], [ -70.30046, -34.87668 ], [ -70.30115, -34.87823 ], [ -70.3024, -34.88 ], [ -70.30336, -34.88127 ], [ -70.30534, -34.88331 ], [ -70.30703, -34.88444 ], [ -70.30889, -34.88602 ], [ -70.31287, -34.88854 ], [ -70.3151, -34.89019 ], [ -70.32, -34.89266 ], [ -70.3221, -34.89359 ], [ -70.32679, -34.89679 ], [ -70.32871, -34.89743 ], [ -70.33174, -34.89878 ], [ -70.33384, -34.89986 ], [ -70.33531, -34.90094 ], [ -70.33782, -34.9023 ], [ -70.3397, -34.9038 ], [ -70.34285, -34.90589 ], [ -70.35434, -34.91185 ], [ -70.35777, -34.91432 ], [ -70.35904, -34.91587 ], [ -70.3604, -34.91677 ], [ -70.36134, -34.91663 ], [ -70.36237, -34.91611 ], [ -70.36192, -34.91344 ], [ -70.36132, -34.91211 ], [ -70.3592, -34.90994 ], [ -70.35773, -34.90872 ], [ -70.35657, -34.90713 ], [ -70.35666, -34.90432 ], [ -70.35759, -34.90185 ], [ -70.35883, -34.90075 ], [ -70.36308, -34.89726 ], [ -70.36423, -34.89559 ], [ -70.36516, -34.893 ], [ -70.36515, -34.89203 ], [ -70.36492, -34.891 ], [ -70.36518, -34.88968 ], [ -70.36635, -34.88726 ], [ -70.36921, -34.88544 ], [ -70.37234, -34.88218 ], [ -70.37443, -34.88084 ], [ -70.37752, -34.87913 ], [ -70.37909, -34.87864 ], [ -70.38284, -34.87813 ], [ -70.38646, -34.87777 ], [ -70.38886, -34.87731 ], [ -70.39052, -34.87614 ], [ -70.39131, -34.87403 ], [ -70.39197, -34.86991 ], [ -70.39255, -34.86915 ], [ -70.39358, -34.86845 ], [ -70.3954, -34.86743 ], [ -70.39681, -34.86717 ], [ -70.39824, -34.86744 ], [ -70.40058, -34.86751 ], [ -70.40115, -34.86744 ], [ -70.40636, -34.86533 ], [ -70.40858, -34.86375 ], [ -70.40898, -34.86329 ], [ -70.40966, -34.86225 ], [ -70.41041, -34.86144 ], [ -70.41101, -34.86035 ], [ -70.41127, -34.85914 ], [ -70.41174, -34.85823 ], [ -70.41327, -34.85676 ], [ -70.41601, -34.85444 ], [ -70.41738, -34.85347 ], [ -70.41841, -34.85231 ], [ -70.41989, -34.85096 ], [ -70.42126, -34.84989 ], [ -70.42296, -34.84777 ], [ -70.42387, -34.84691 ], [ -70.42502, -34.84446 ], [ -70.42521, -34.84337 ], [ -70.42538, -34.84021 ], [ -70.42535, -34.83897 ], [ -70.426, -34.83695 ], [ -70.42861, -34.83382 ], [ -70.43362, -34.83083 ], [ -70.44083, -34.82616 ], [ -70.4431, -34.82482 ], [ -70.44707, -34.82164 ], [ -70.45256, -34.81813 ], [ -70.45838, -34.81496 ], [ -70.46023, -34.81448 ], [ -70.46254, -34.81422 ], [ -70.46404, -34.8142 ], [ -70.46692, -34.81275 ], [ -70.46784, -34.81157 ], [ -70.46871, -34.81102 ], [ -70.46963, -34.81063 ], [ -70.47042, -34.81058 ], [ -70.47132, -34.81081 ], [ -70.47353, -34.81066 ], [ -70.47384, -34.81035 ], [ -70.47443, -34.81004 ], [ -70.47545, -34.80984 ], [ -70.47749, -34.81027 ], [ -70.4799, -34.81051 ], [ -70.48178, -34.81061 ], [ -70.48302, -34.81025 ], [ -70.48405, -34.80978 ], [ -70.48703, -34.80928 ], [ -70.48939, -34.8092 ], [ -70.49071, -34.80969 ], [ -70.49239, -34.81013 ], [ -70.49538, -34.81032 ], [ -70.49749, -34.81106 ], [ -70.50599, -34.81162 ], [ -70.50824, -34.81228 ], [ -70.51896, -34.81387 ], [ -70.52061, -34.81282 ], [ -70.51862, -34.81055 ], [ -70.51724, -34.81019 ], [ -70.51616, -34.81032 ], [ -70.51274, -34.80988 ], [ -70.51116, -34.80914 ], [ -70.50603, -34.80725 ], [ -70.50255, -34.80643 ], [ -70.49819, -34.8051 ], [ -70.49534, -34.80447 ], [ -70.49302, -34.80411 ], [ -70.49033, -34.80272 ], [ -70.48968, -34.80172 ], [ -70.48833, -34.80064 ], [ -70.48705, -34.80004 ], [ -70.48558, -34.79872 ], [ -70.48493, -34.79787 ], [ -70.48397, -34.7963 ], [ -70.48309, -34.79541 ], [ -70.48168, -34.79428 ], [ -70.47982, -34.79232 ], [ -70.47812, -34.79141 ], [ -70.47776, -34.79092 ], [ -70.47628, -34.78973 ], [ -70.47058, -34.78787 ], [ -70.46746, -34.78713 ], [ -70.46556, -34.78656 ], [ -70.46342, -34.78679 ], [ -70.46172, -34.789 ], [ -70.46191, -34.79054 ], [ -70.46215, -34.79177 ], [ -70.46223, -34.7931 ], [ -70.46141, -34.79398 ], [ -70.45804, -34.79469 ], [ -70.45422, -34.79474 ], [ -70.44855, -34.79421 ], [ -70.44617, -34.79465 ], [ -70.44422, -34.79468 ], [ -70.44155, -34.79411 ], [ -70.43704, -34.79366 ], [ -70.43371, -34.79379 ], [ -70.43161, -34.79418 ], [ -70.42616, -34.7969 ], [ -70.42185, -34.79787 ], [ -70.42007, -34.79789 ], [ -70.4183, -34.79814 ], [ -70.4177, -34.79883 ], [ -70.41649, -34.79958 ], [ -70.41472, -34.79979 ], [ -70.4121, -34.79936 ], [ -70.40765, -34.79918 ], [ -70.40511, -34.79962 ], [ -70.40323, -34.80056 ], [ -70.40086, -34.80146 ], [ -70.39798, -34.8019 ], [ -70.39525, -34.80152 ], [ -70.39308, -34.80091 ], [ -70.39117, -34.79978 ], [ -70.38746, -34.79694 ], [ -70.38577, -34.79586 ], [ -70.38408, -34.79459 ], [ -70.38219, -34.79194 ], [ -70.37446, -34.78576 ], [ -70.37321, -34.78449 ], [ -70.37175, -34.78337 ], [ -70.3693, -34.78298 ], [ -70.36609, -34.7838 ], [ -70.36345, -34.78474 ], [ -70.3594, -34.78497 ], [ -70.35356, -34.78449 ], [ -70.35149, -34.78382 ], [ -70.34921, -34.78325 ], [ -70.34715, -34.78286 ], [ -70.34509, -34.78284 ], [ -70.34132, -34.77967 ], [ -70.33841, -34.77792 ], [ -70.33545, -34.77671 ], [ -70.33266, -34.77597 ], [ -70.32803, -34.77572 ], [ -70.32622, -34.77606 ], [ -70.32172, -34.77668 ], [ -70.31712, -34.7771 ], [ -70.31481, -34.77791 ], [ -70.31331, -34.77942 ], [ -70.31064, -34.78342 ] ], [ [ -70.40006, -34.82833 ], [ -70.39803, -34.82788 ], [ -70.39542, -34.82779 ], [ -70.39309, -34.8271 ], [ -70.39048, -34.82666 ], [ -70.38759, -34.82645 ], [ -70.3864, -34.82467 ], [ -70.38882, -34.82238 ], [ -70.39213, -34.82151 ], [ -70.40397, -34.81632 ], [ -70.41053, -34.81412 ], [ -70.4173, -34.81227 ], [ -70.42289, -34.81009 ], [ -70.42688, -34.80815 ], [ -70.4321, -34.80517 ], [ -70.43741, -34.80293 ], [ -70.44273, -34.80132 ], [ -70.44862, -34.80074 ], [ -70.45419, -34.80164 ], [ -70.45634, -34.80179 ], [ -70.45802, -34.80257 ], [ -70.45686, -34.80407 ], [ -70.4543, -34.808 ], [ -70.45142, -34.81004 ], [ -70.44901, -34.81115 ], [ -70.44571, -34.81308 ], [ -70.44226, -34.81423 ], [ -70.43937, -34.81798 ], [ -70.4378, -34.81943 ], [ -70.43638, -34.82099 ], [ -70.43283, -34.82437 ], [ -70.42795, -34.8267 ], [ -70.42377, -34.8277 ], [ -70.42234, -34.82843 ], [ -70.42032, -34.82917 ], [ -70.41787, -34.82956 ], [ -70.41454, -34.82936 ], [ -70.41251, -34.82903 ], [ -70.40975, -34.82834 ], [ -70.40499, -34.82899 ], [ -70.40006, -34.82833 ] ], [ [ -70.32445, -34.88832 ], [ -70.32163, -34.88614 ], [ -70.31751, -34.88328 ], [ -70.31479, -34.8811 ], [ -70.31179, -34.87884 ], [ -70.30736, -34.87446 ], [ -70.30677, -34.8721 ], [ -70.30775, -34.8698 ], [ -70.309, -34.86627 ], [ -70.30902, -34.8623 ], [ -70.30878, -34.85864 ], [ -70.30883, -34.85566 ], [ -70.30823, -34.853 ], [ -70.30741, -34.8482 ], [ -70.30825, -34.84277 ], [ -70.30971, -34.84099 ], [ -70.31077, -34.84009 ], [ -70.31245, -34.83898 ], [ -70.31439, -34.8385 ], [ -70.31661, -34.83817 ], [ -70.31839, -34.83953 ], [ -70.31925, -34.84158 ], [ -70.32132, -34.84324 ], [ -70.32283, -34.84505 ], [ -70.32387, -34.85068 ], [ -70.32749, -34.8598 ], [ -70.32759, -34.8661 ], [ -70.3295, -34.87639 ], [ -70.32958, -34.88182 ], [ -70.32975, -34.88383 ], [ -70.33071, -34.88581 ], [ -70.3313, -34.88802 ], [ -70.33021, -34.88956 ], [ -70.32743, -34.88974 ], [ -70.32445, -34.88832 ] ] ] } },
{ "type": "Feature", "properties": { "objectid": 1559, "peligro": "Medio", "volcan": null, "globalid_1": "683981ff-d85b-400e-a3ea-5e7ff4235ddd", "Shape__Area": 0.0028623104476537264, "Shape__Length": 1.5942059664897485 }, "geometry": { "type": "Polygon", "coordinates": [ [ [ -70.32369, -34.77564 ], [ -70.31994, -34.7758 ], [ -70.31693, -34.77572 ], [ -70.3132, -34.77637 ], [ -70.31112, -34.77693 ], [ -70.30994, -34.77767 ], [ -70.30721, -34.78028 ], [ -70.30346, -34.78461 ], [ -70.30111, -34.78979 ], [ -70.30014, -34.79467 ], [ -70.3004, -34.7969 ], [ -70.30092, -34.79813 ], [ -70.3011, -34.79932 ], [ -70.30118, -34.8007 ], [ -70.30083, -34.80281 ], [ -70.29974, -34.80442 ], [ -70.29848, -34.80558 ], [ -70.29315, -34.80912 ], [ -70.29189, -34.81023 ], [ -70.29042, -34.81213 ], [ -70.28999, -34.81318 ], [ -70.28968, -34.81438 ], [ -70.28975, -34.81725 ], [ -70.28957, -34.8213 ], [ -70.29093, -34.82463 ], [ -70.29071, -34.82928 ], [ -70.29075, -34.83214 ], [ -70.29172, -34.83822 ], [ -70.29176, -34.84108 ], [ -70.29399, -34.84475 ], [ -70.29505, -34.84761 ], [ -70.29745, -34.85354 ], [ -70.29865, -34.85616 ], [ -70.29869, -34.85878 ], [ -70.29962, -34.86211 ], [ -70.29951, -34.86485 ], [ -70.29842, -34.87299 ], [ -70.29835, -34.87569 ], [ -70.2986, -34.87761 ], [ -70.2993, -34.87939 ], [ -70.30208, -34.88298 ], [ -70.30344, -34.88503 ], [ -70.30514, -34.8867 ], [ -70.31142, -34.89003 ], [ -70.31623, -34.89213 ], [ -70.32066, -34.89423 ], [ -70.32617, -34.8976 ], [ -70.33856, -34.90414 ], [ -70.34636, -34.90922 ], [ -70.35373, -34.91372 ], [ -70.35936, -34.91795 ], [ -70.36026, -34.91953 ], [ -70.36134, -34.92112 ], [ -70.36242, -34.9223 ], [ -70.36444, -34.92365 ], [ -70.36647, -34.92555 ], [ -70.36722, -34.92692 ], [ -70.36791, -34.92842 ], [ -70.36899, -34.92969 ], [ -70.37007, -34.93114 ], [ -70.37187, -34.93241 ], [ -70.37277, -34.93272 ], [ -70.37277, -34.93322 ], [ -70.37339, -34.93372 ], [ -70.376, -34.93346 ], [ -70.37685, -34.93395 ], [ -70.37775, -34.93486 ], [ -70.37838, -34.93577 ], [ -70.37986, -34.93763 ], [ -70.38255, -34.93925 ], [ -70.38479, -34.94 ], [ -70.38636, -34.94062 ], [ -70.38782, -34.94166 ], [ -70.38882, -34.94128 ], [ -70.38908, -34.94036 ], [ -70.38795, -34.93955 ], [ -70.3852, -34.9378 ], [ -70.38401, -34.93685 ], [ -70.38116, -34.93552 ], [ -70.37964, -34.9337 ], [ -70.37888, -34.93218 ], [ -70.37682, -34.93121 ], [ -70.37496, -34.93078 ], [ -70.37291, -34.92996 ], [ -70.37009, -34.92778 ], [ -70.36904, -34.92581 ], [ -70.36864, -34.92444 ], [ -70.36633, -34.91942 ], [ -70.36551, -34.91524 ], [ -70.36583, -34.91314 ], [ -70.36668, -34.91213 ], [ -70.36929, -34.90861 ], [ -70.3702, -34.90757 ], [ -70.37265, -34.90414 ], [ -70.37424, -34.90221 ], [ -70.37502, -34.90039 ], [ -70.37592, -34.89885 ], [ -70.37589, -34.89704 ], [ -70.37539, -34.89494 ], [ -70.37432, -34.89314 ], [ -70.37323, -34.89029 ], [ -70.37211, -34.88937 ], [ -70.37111, -34.88812 ], [ -70.37155, -34.88668 ], [ -70.37233, -34.88496 ], [ -70.37428, -34.88408 ], [ -70.37636, -34.88339 ], [ -70.38028, -34.88267 ], [ -70.38319, -34.8834 ], [ -70.38655, -34.88375 ], [ -70.38759, -34.88326 ], [ -70.38907, -34.88191 ], [ -70.39009, -34.88046 ], [ -70.39333, -34.87898 ], [ -70.39638, -34.87942 ], [ -70.3987, -34.87958 ], [ -70.40226, -34.87925 ], [ -70.40424, -34.87851 ], [ -70.40596, -34.87763 ], [ -70.40732, -34.87604 ], [ -70.40816, -34.87431 ], [ -70.40926, -34.87244 ], [ -70.41045, -34.871 ], [ -70.41199, -34.86947 ], [ -70.41362, -34.86853 ], [ -70.41783, -34.86678 ], [ -70.41884, -34.86437 ], [ -70.41923, -34.86139 ], [ -70.42089, -34.85695 ], [ -70.42359, -34.85454 ], [ -70.42585, -34.85117 ], [ -70.42668, -34.84877 ], [ -70.42678, -34.84627 ], [ -70.42746, -34.84387 ], [ -70.42842, -34.84088 ], [ -70.4301, -34.83675 ], [ -70.43201, -34.83412 ], [ -70.43341, -34.83294 ], [ -70.43866, -34.83047 ], [ -70.44524, -34.82609 ], [ -70.45067, -34.82269 ], [ -70.45526, -34.82025 ], [ -70.46172, -34.81798 ], [ -70.46567, -34.8161 ], [ -70.46795, -34.81416 ], [ -70.47063, -34.81375 ], [ -70.477, -34.81329 ], [ -70.47979, -34.81394 ], [ -70.48228, -34.81315 ], [ -70.48707, -34.8121 ], [ -70.48902, -34.81208 ], [ -70.49263, -34.81249 ], [ -70.49478, -34.81338 ], [ -70.50072, -34.81437 ], [ -70.50901, -34.81702 ], [ -70.51299, -34.81735 ], [ -70.51561, -34.81877 ], [ -70.51831, -34.81935 ], [ -70.52464, -34.82156 ], [ -70.52709, -34.82389 ], [ -70.52972, -34.82562 ], [ -70.53213, -34.82582 ], [ -70.5351, -34.82624 ], [ -70.54301, -34.82866 ], [ -70.54664, -34.8296 ], [ -70.54999, -34.83078 ], [ -70.55215, -34.83228 ], [ -70.55495, -34.83324 ], [ -70.55551, -34.83376 ], [ -70.55609, -34.83475 ], [ -70.55784, -34.83434 ], [ -70.55798, -34.83421 ], [ -70.55836, -34.83314 ], [ -70.55915, -34.83237 ], [ -70.56156, -34.83119 ], [ -70.5627, -34.83022 ], [ -70.56326, -34.82931 ], [ -70.56364, -34.82806 ], [ -70.56482, -34.8259 ], [ -70.56721, -34.82382 ], [ -70.56823, -34.82266 ], [ -70.56878, -34.82141 ], [ -70.57061, -34.81937 ], [ -70.57287, -34.8174 ], [ -70.57517, -34.8167 ], [ -70.57678, -34.81596 ], [ -70.57862, -34.81556 ], [ -70.58098, -34.81491 ], [ -70.58432, -34.81381 ], [ -70.58545, -34.81285 ], [ -70.59146, -34.80924 ], [ -70.59294, -34.80817 ], [ -70.5962, -34.80617 ], [ -70.59752, -34.80544 ], [ -70.59844, -34.80506 ], [ -70.60512, -34.80014 ], [ -70.60613, -34.79907 ], [ -70.60727, -34.79805 ], [ -70.60904, -34.79693 ], [ -70.61478, -34.79194 ], [ -70.61634, -34.79164 ], [ -70.61917, -34.79155 ], [ -70.62019, -34.79049 ], [ -70.61947, -34.7894 ], [ -70.61837, -34.78922 ], [ -70.61378, -34.7901 ], [ -70.60606, -34.79473 ], [ -70.6031, -34.79689 ], [ -70.60259, -34.79864 ], [ -70.60191, -34.79932 ], [ -70.60066, -34.80024 ], [ -70.59946, -34.80126 ], [ -70.59672, -34.80325 ], [ -70.59551, -34.80341 ], [ -70.5947, -34.80328 ], [ -70.59378, -34.80377 ], [ -70.59305, -34.80468 ], [ -70.59161, -34.80523 ], [ -70.59076, -34.80591 ], [ -70.58968, -34.80697 ], [ -70.58854, -34.80765 ], [ -70.58647, -34.80863 ], [ -70.58424, -34.81 ], [ -70.58184, -34.8116 ], [ -70.57868, -34.8127 ], [ -70.57362, -34.81395 ], [ -70.57056, -34.81461 ], [ -70.56767, -34.81475 ], [ -70.56635, -34.81543 ], [ -70.56534, -34.81688 ], [ -70.56462, -34.81836 ], [ -70.56316, -34.82077 ], [ -70.56179, -34.82212 ], [ -70.56012, -34.82229 ], [ -70.55915, -34.82212 ], [ -70.5589, -34.82219 ], [ -70.55734, -34.82282 ], [ -70.55645, -34.82451 ], [ -70.55489, -34.8253 ], [ -70.55267, -34.82563 ], [ -70.55063, -34.82528 ], [ -70.54876, -34.82438 ], [ -70.54618, -34.82367 ], [ -70.54123, -34.82216 ], [ -70.53948, -34.82099 ], [ -70.53877, -34.82024 ], [ -70.53601, -34.81841 ], [ -70.53444, -34.81781 ], [ -70.52996, -34.81644 ], [ -70.52809, -34.81531 ], [ -70.5254, -34.81358 ], [ -70.52381, -34.81217 ], [ -70.52292, -34.81123 ], [ -70.5187, -34.80794 ], [ -70.517, -34.80701 ], [ -70.51479, -34.80603 ], [ -70.5085, -34.80377 ], [ -70.50652, -34.80337 ], [ -70.50442, -34.80239 ], [ -70.50085, -34.80015 ], [ -70.49882, -34.79936 ], [ -70.49567, -34.79835 ], [ -70.49358, -34.7978 ], [ -70.49131, -34.79683 ], [ -70.48792, -34.79482 ], [ -70.48668, -34.7934 ], [ -70.48193, -34.78983 ], [ -70.47982, -34.78852 ], [ -70.4783, -34.78768 ], [ -70.47585, -34.78609 ], [ -70.4705, -34.78444 ], [ -70.46911, -34.78422 ], [ -70.46737, -34.78409 ], [ -70.46552, -34.78416 ], [ -70.46454, -34.78432 ], [ -70.46195, -34.78497 ], [ -70.46104, -34.78579 ], [ -70.45985, -34.78724 ], [ -70.45854, -34.79 ], [ -70.45725, -34.79122 ], [ -70.45594, -34.79192 ], [ -70.45434, -34.79194 ], [ -70.45324, -34.79213 ], [ -70.4515, -34.79198 ], [ -70.44969, -34.79171 ], [ -70.44782, -34.79173 ], [ -70.44567, -34.79193 ], [ -70.44067, -34.79199 ], [ -70.43483, -34.79114 ], [ -70.43122, -34.79113 ], [ -70.42963, -34.79138 ], [ -70.42749, -34.79215 ], [ -70.42521, -34.79263 ], [ -70.4241, -34.79264 ], [ -70.42258, -34.79335 ], [ -70.42092, -34.79383 ], [ -70.41829, -34.79431 ], [ -70.4167, -34.79439 ], [ -70.41476, -34.79436 ], [ -70.41309, -34.79415 ], [ -70.41114, -34.79405 ], [ -70.4092, -34.79442 ], [ -70.40541, -34.79584 ], [ -70.40292, -34.79644 ], [ -70.39995, -34.79745 ], [ -70.39719, -34.79817 ], [ -70.39545, -34.79807 ], [ -70.39329, -34.79735 ], [ -70.39056, -34.79595 ], [ -70.38746, -34.79307 ], [ -70.38439, -34.78935 ], [ -70.37819, -34.78334 ], [ -70.37643, -34.78125 ], [ -70.37453, -34.78022 ], [ -70.37253, -34.77992 ], [ -70.37064, -34.78022 ], [ -70.36744, -34.78094 ], [ -70.36523, -34.78193 ], [ -70.36257, -34.78243 ], [ -70.36021, -34.78269 ], [ -70.35651, -34.78288 ], [ -70.35438, -34.78237 ], [ -70.35224, -34.78174 ], [ -70.35038, -34.7815 ], [ -70.34821, -34.78133 ], [ -70.34611, -34.78059 ], [ -70.34374, -34.77962 ], [ -70.33935, -34.77704 ], [ -70.33529, -34.77533 ], [ -70.33302, -34.77482 ], [ -70.33098, -34.77457 ], [ -70.32881, -34.7749 ], [ -70.32641, -34.77539 ], [ -70.32369, -34.77564 ] ], [ [ -70.31064, -34.78342 ], [ -70.31331, -34.77942 ], [ -70.31481, -34.77791 ], [ -70.31712, -34.7771 ], [ -70.32172, -34.77668 ], [ -70.32622, -34.77606 ], [ -70.32803, -34.77572 ], [ -70.33266, -34.77597 ], [ -70.33545, -34.77671 ], [ -70.33841, -34.77792 ], [ -70.34132, -34.77967 ], [ -70.34509, -34.78284 ], [ -70.34715, -34.78286 ], [ -70.34921, -34.78325 ], [ -70.35149, -34.78382 ], [ -70.35356, -34.78449 ], [ -70.3594, -34.78497 ], [ -70.36345, -34.78474 ], [ -70.36609, -34.7838 ], [ -70.3693, -34.78298 ], [ -70.37175, -34.78337 ], [ -70.37321, -34.78449 ], [ -70.37446, -34.78576 ], [ -70.38219, -34.79194 ], [ -70.38408, -34.79459 ], [ -70.38577, -34.79586 ], [ -70.38746, -34.79694 ], [ -70.39117, -34.79978 ], [ -70.39308, -34.80091 ], [ -70.39525, -34.80152 ], [ -70.39798, -34.8019 ], [ -70.40086, -34.80146 ], [ -70.40323, -34.80056 ], [ -70.40511, -34.79962 ], [ -70.40765, -34.79918 ], [ -70.4121, -34.79936 ], [ -70.41472, -34.79979 ], [ -70.41649, -34.79958 ], [ -70.4177, -34.79883 ], [ -70.4183, -34.79814 ], [ -70.42007, -34.79789 ], [ -70.42185, -34.79787 ], [ -70.42616, -34.7969 ], [ -70.43161, -34.79418 ], [ -70.43371, -34.79379 ], [ -70.43704, -34.79366 ], [ -70.44155, -34.79411 ], [ -70.44422, -34.79468 ], [ -70.44617, -34.79465 ], [ -70.44855, -34.79421 ], [ -70.45422, -34.79474 ], [ -70.45804, -34.79469 ], [ -70.46141, -34.79398 ], [ -70.46223, -34.7931 ], [ -70.46215, -34.79177 ], [ -70.46191, -34.79054 ], [ -70.46172, -34.789 ], [ -70.46342, -34.78679 ], [ -70.46556, -34.78656 ], [ -70.46746, -34.78713 ], [ -70.47058, -34.78787 ], [ -70.47628, -34.78973 ], [ -70.47776, -34.79092 ], [ -70.47812, -34.79141 ], [ -70.47982, -34.79232 ], [ -70.48168, -34.79428 ], [ -70.48309, -34.79541 ], [ -70.48397, -34.7963 ], [ -70.48493, -34.79787 ], [ -70.48558, -34.79872 ], [ -70.48705, -34.80004 ], [ -70.48833, -34.80064 ], [ -70.48968, -34.80172 ], [ -70.49033, -34.80272 ], [ -70.49302, -34.80411 ], [ -70.49534, -34.80447 ], [ -70.49819, -34.8051 ], [ -70.50255, -34.80643 ], [ -70.50603, -34.80725 ], [ -70.51116, -34.80914 ], [ -70.51274, -34.80988 ], [ -70.51616, -34.81032 ], [ -70.51724, -34.81019 ], [ -70.51862, -34.81055 ], [ -70.52061, -34.81282 ], [ -70.51896, -34.81387 ], [ -70.50824, -34.81228 ], [ -70.50599, -34.81162 ], [ -70.49749, -34.81106 ], [ -70.49538, -34.81032 ], [ -70.49239, -34.81013 ], [ -70.49071, -34.80969 ], [ -70.48939, -34.8092 ], [ -70.48703, -34.80928 ], [ -70.48405, -34.80978 ], [ -70.48302, -34.81025 ], [ -70.48178, -34.81061 ], [ -70.4799, -34.81051 ], [ -70.47749, -34.81027 ], [ -70.47545, -34.80984 ], [ -70.47443, -34.81004 ], [ -70.47384, -34.81035 ], [ -70.47353, -34.81066 ], [ -70.47132, -34.81081 ], [ -70.47042, -34.81058 ], [ -70.46963, -34.81063 ], [ -70.46871, -34.81102 ], [ -70.46784, -34.81157 ], [ -70.46692, -34.81275 ], [ -70.46404, -34.8142 ], [ -70.46254, -34.81422 ], [ -70.46023, -34.81448 ], [ -70.45838, -34.81496 ], [ -70.45256, -34.81813 ], [ -70.44707, -34.82164 ], [ -70.4431, -34.82482 ], [ -70.44083, -34.82616 ], [ -70.43362, -34.83083 ], [ -70.42861, -34.83382 ], [ -70.426, -34.83695 ], [ -70.42535, -34.83897 ], [ -70.42538, -34.84021 ], [ -70.42521, -34.84337 ], [ -70.42502, -34.84446 ], [ -70.42387, -34.84691 ], [ -70.42296, -34.84777 ], [ -70.42126, -34.84989 ], [ -70.41989, -34.85096 ], [ -70.41841, -34.85231 ], [ -70.41738, -34.85347 ], [ -70.41601, -34.85444 ], [ -70.41327, -34.85676 ], [ -70.41174, -34.85823 ], [ -70.41127, -34.85914 ], [ -70.41101, -34.86035 ], [ -70.41041, -34.86144 ], [ -70.40966, -34.86225 ], [ -70.40898, -34.86329 ], [ -70.40858, -34.86375 ], [ -70.40636, -34.86533 ], [ -70.40115, -34.86744 ], [ -70.40058, -34.86751 ], [ -70.39824, -34.86744 ], [ -70.39681, -34.86717 ], [ -70.3954, -34.86743 ], [ -70.39358, -34.86845 ], [ -70.39255, -34.86915 ], [ -70.39197, -34.86991 ], [ -70.39131, -34.87403 ], [ -70.39052, -34.87614 ], [ -70.38886, -34.87731 ], [ -70.38646, -34.87777 ], [ -70.38284, -34.87813 ], [ -70.37909, -34.87864 ], [ -70.37752, -34.87913 ], [ -70.37443, -34.88084 ], [ -70.37234, -34.88218 ], [ -70.36921, -34.88544 ], [ -70.36635, -34.88726 ], [ -70.36518, -34.88968 ], [ -70.36492, -34.891 ], [ -70.36515, -34.89203 ], [ -70.36516, -34.893 ], [ -70.36423, -34.89559 ], [ -70.36308, -34.89726 ], [ -70.35883, -34.90075 ], [ -70.35759, -34.90185 ], [ -70.35666, -34.90432 ], [ -70.35657, -34.90713 ], [ -70.35773, -34.90872 ], [ -70.3592, -34.90994 ], [ -70.36132, -34.91211 ], [ -70.36192, -34.91344 ], [ -70.36237, -34.91611 ], [ -70.36134, -34.91663 ], [ -70.3604, -34.91677 ], [ -70.35904, -34.91587 ], [ -70.35777, -34.91432 ], [ -70.35434, -34.91185 ], [ -70.34285, -34.90589 ], [ -70.3397, -34.9038 ], [ -70.33782, -34.9023 ], [ -70.33531, -34.90094 ], [ -70.33384, -34.89986 ], [ -70.33174, -34.89878 ], [ -70.32871, -34.89743 ], [ -70.32679, -34.89679 ], [ -70.3221, -34.89359 ], [ -70.32, -34.89266 ], [ -70.3151, -34.89019 ], [ -70.31287, -34.88854 ], [ -70.30889, -34.88602 ], [ -70.30703, -34.88444 ], [ -70.30534, -34.88331 ], [ -70.30336, -34.88127 ], [ -70.3024, -34.88 ], [ -70.30115, -34.87823 ], [ -70.30046, -34.87668 ], [ -70.30022, -34.87549 ], [ -70.30018, -34.87352 ], [ -70.30071, -34.87136 ], [ -70.30151, -34.86622 ], [ -70.3016, -34.86444 ], [ -70.3019, -34.86274 ], [ -70.30104, -34.86082 ], [ -70.30118, -34.85917 ], [ -70.30065, -34.85744 ], [ -70.29984, -34.85543 ], [ -70.29898, -34.85333 ], [ -70.29734, -34.85156 ], [ -70.29707, -34.84891 ], [ -70.29639, -34.84745 ], [ -70.29589, -34.8443 ], [ -70.29464, -34.84216 ], [ -70.29405, -34.84029 ], [ -70.29333, -34.83667 ], [ -70.29229, -34.83398 ], [ -70.2918, -34.83115 ], [ -70.29215, -34.82858 ], [ -70.29212, -34.82675 ], [ -70.29242, -34.82491 ], [ -70.29256, -34.82299 ], [ -70.29193, -34.82162 ], [ -70.2914, -34.82021 ], [ -70.29121, -34.81879 ], [ -70.29118, -34.81677 ], [ -70.29132, -34.81489 ], [ -70.29229, -34.813 ], [ -70.29293, -34.81135 ], [ -70.29446, -34.80968 ], [ -70.29623, -34.80916 ], [ -70.29821, -34.80781 ], [ -70.30144, -34.80512 ], [ -70.3023, -34.80291 ], [ -70.30305, -34.80144 ], [ -70.30214, -34.79569 ], [ -70.30202, -34.79405 ], [ -70.30268, -34.7919 ], [ -70.30372, -34.7901 ], [ -70.30658, -34.78678 ], [ -70.30859, -34.7852 ], [ -70.31064, -34.78342 ] ] ] } },
{ "type": "Feature", "properties": { "objectid": 1560, "peligro": "Medio", "volcan": null, "globalid_1": "19e71944-d9bc-415b-a6a2-d08e8b30ee74", "Shape__Area": 0.00090813602400885429, "Shape__Length": 0.15984028038393247 }, "geometry": { "type": "Polygon", "coordinates": [ [ [ -70.40006, -34.82833 ], [ -70.40499, -34.82899 ], [ -70.40975, -34.82834 ], [ -70.41251, -34.82903 ], [ -70.41454, -34.82936 ], [ -70.41787, -34.82956 ], [ -70.42032, -34.82917 ], [ -70.42234, -34.82843 ], [ -70.42377, -34.8277 ], [ -70.42795, -34.8267 ], [ -70.43283, -34.82437 ], [ -70.43638, -34.82099 ], [ -70.4378, -34.81943 ], [ -70.43937, -34.81798 ], [ -70.44226, -34.81423 ], [ -70.44571, -34.81308 ], [ -70.44901, -34.81115 ], [ -70.45142, -34.81004 ], [ -70.4543, -34.808 ], [ -70.45686, -34.80407 ], [ -70.45802, -34.80257 ], [ -70.45634, -34.80179 ], [ -70.45419, -34.80164 ], [ -70.44862, -34.80074 ], [ -70.44273, -34.80132 ], [ -70.43741, -34.80293 ], [ -70.4321, -34.80517 ], [ -70.42688, -34.80815 ], [ -70.42289, -34.81009 ], [ -70.4173, -34.81227 ], [ -70.41053, -34.81412 ], [ -70.40397, -34.81632 ], [ -70.39213, -34.82151 ], [ -70.38882, -34.82238 ], [ -70.3864, -34.82467 ], [ -70.38759, -34.82645 ], [ -70.39048, -34.82666 ], [ -70.39309, -34.8271 ], [ -70.39542, -34.82779 ], [ -70.39803, -34.82788 ], [ -70.40006, -34.82833 ] ] ] } },
{ "type": "Feature", "properties": { "objectid": 1561, "peligro": "Medio", "volcan": null, "globalid_1": "1378565d-0410-47c1-a913-fbe6e0a9c65e", "Shape__Area": 0.00080969651253326447, "Shape__Length": 0.12605356537948811 }, "geometry": { "type": "Polygon", "coordinates": [ [ [ -70.32445, -34.88832 ], [ -70.32743, -34.88974 ], [ -70.33021, -34.88956 ], [ -70.3313, -34.88802 ], [ -70.33071, -34.88581 ], [ -70.32975, -34.88383 ], [ -70.32958, -34.88182 ], [ -70.3295, -34.87639 ], [ -70.32759, -34.8661 ], [ -70.32749, -34.8598 ], [ -70.32387, -34.85068 ], [ -70.32283, -34.84505 ], [ -70.32132, -34.84324 ], [ -70.31925, -34.84158 ], [ -70.31839, -34.83953 ], [ -70.31661, -34.83817 ], [ -70.31439, -34.8385 ], [ -70.31245, -34.83898 ], [ -70.31077, -34.84009 ], [ -70.30971, -34.84099 ], [ -70.30825, -34.84277 ], [ -70.30741, -34.8482 ], [ -70.30823, -34.853 ], [ -70.30883, -34.85566 ], [ -70.30878, -34.85864 ], [ -70.30902, -34.8623 ], [ -70.309, -34.86627 ], [ -70.30775, -34.8698 ], [ -70.30677, -34.8721 ], [ -70.30736, -34.87446 ], [ -70.31179, -34.87884 ], [ -70.31479, -34.8811 ], [ -70.31751, -34.88328 ], [ -70.32163, -34.88614 ], [ -70.32445, -34.88832 ] ] ] } }
]
}
