{
"type": "FeatureCollection",
"name": "CHA",
"crs": { "type": "name", "properties": { "name": "urn:ogc:def:crs:OGC:1.3:CRS84" } },
"xy_coordinate_resolution": 1e-05,
"features": [
{ "type": "Feature", "properties": { "tipo": "trunk", "nombre": "Carretera Austral", "ref": "7", "color": "#f4a261" }, "geometry": { "type": "LineString", "coordinates": [ [ -72.45075, -42.51027 ], [ -72.47454, -42.51906 ], [ -72.48682, -42.5255 ] ] } },
{ "type": "Feature", "properties": { "tipo": "trunk", "nombre": "Carretera Austral", "ref": "7", "color": "#f4a261" }, "geometry": { "type": "LineString", "coordinates": [ [ -72.60443, -42.5591 ], [ -72.59678, -42.57267 ] ] } },
{ "type": "Feature", "properties": { "tipo": "trunk", "nombre": "Carretera Austral", "ref": "7", "color": "#f4a261" }, "geometry": { "type": "LineString", "coordinates": [ [ -72.47466, -43.01775 ], [ -72.47958, -43.00957 ] ] } },
{ "type": "Feature", "properties": { "tipo": "trunk", "nombre": "Carretera Austral", "ref": "7", "color": "#f4a261" }, "geometry": { "type": "LineString", "coordinates": [ [ -72.44043, -43.17608 ], [ -72.45895, -43.18794 ], [ -72.45217, -43.20945 ] ] } },
{ "type": "Feature", "properties": { "tipo": "trunk", "nombre": "Carretera Austral", "ref": "7", "color": "#f4a261" }, "geometry": { "type": "LineString", "coordinates": [ [ -72.43782, -43.17483 ], [ -72.44043, -43.17608 ] ] } },
{ "type": "Feature", "properties": { "tipo": "trunk", "nombre": "Carretera Austral", "ref": "7", "color": "#f4a261" }, "geometry": { "type": "LineString", "coordinates": [ [ -72.43076, -43.2307 ], [ -72.43068, -43.23097 ] ] } },
{ "type": "Feature", "properties": { "tipo": "trunk", "nombre": "Carretera Austral", "ref": "7", "color": "#f4a261" }, "geometry": { "type": "LineString", "coordinates": [ [ -72.43097, -43.17094 ], [ -72.43782, -43.17483 ] ] } },
{ "type": "Feature", "properties": { "tipo": "trunk", "nombre": "Carretera Austral", "ref": "7", "color": "#f4a261" }, "geometry": { "type": "LineString", "coordinates": [ [ -72.43079, -43.17065 ], [ -72.43097, -43.17094 ] ] } },
{ "type": "Feature", "properties": { "tipo": "trunk", "nombre": "Carretera Austral", "ref": "7", "color": "#f4a261" }, "geometry": { "type": "LineString", "coordinates": [ [ -72.48134, -43.00971 ], [ -72.48062, -43.00955 ] ] } },
{ "type": "Feature", "properties": { "tipo": "trunk", "nombre": "Carretera Austral", "ref": "7", "color": "#f4a261" }, "geometry": { "type": "LineString", "coordinates": [ [ -72.45413, -43.10689 ], [ -72.45419, -43.10836 ] ] } },
{ "type": "Feature", "properties": { "tipo": "trunk", "nombre": "Carretera Austral", "ref": "7", "color": "#f4a261" }, "geometry": { "type": "LineString", "coordinates": [ [ -72.45419, -43.10836 ], [ -72.45294, -43.12858 ], [ -72.43928, -43.14465 ], [ -72.42963, -43.16864 ], [ -72.43079, -43.17065 ] ] } },
{ "type": "Feature", "properties": { "tipo": "trunk", "nombre": "Carretera Austral", "ref": "7", "color": "#f4a261" }, "geometry": { "type": "LineString", "coordinates": [ [ -72.70264, -42.91914 ], [ -72.68461, -42.93303 ], [ -72.66814, -42.9493 ] ] } },
{ "type": "Feature", "properties": { "tipo": "trunk", "nombre": "Carretera Austral", "ref": "7", "color": "#f4a261" }, "geometry": { "type": "LineString", "coordinates": [ [ -72.70411, -42.91875 ], [ -72.70324, -42.91882 ] ] } },
{ "type": "Feature", "properties": { "tipo": "trunk", "nombre": "Ignacio Carrera Pinto", "ref": "7", "color": "#f4a261" }, "geometry": { "type": "LineString", "coordinates": [ [ -72.71279, -42.91796 ], [ -72.70491, -42.91871 ] ] } },
{ "type": "Feature", "properties": { "tipo": "trunk", "nombre": "Carretera Austral", "ref": "7", "color": "#f4a261" }, "geometry": { "type": "LineString", "coordinates": [ [ -72.6463, -42.95382 ], [ -72.62187, -42.9605 ], [ -72.60363, -42.98028 ], [ -72.58246, -42.98739 ], [ -72.55571, -42.99076 ], [ -72.52989, -43.0024 ], [ -72.50786, -43.0076 ], [ -72.48532, -43.01048 ] ] } },
{ "type": "Feature", "properties": { "tipo": "trunk", "nombre": "Carretera Austral", "ref": "7", "color": "#f4a261" }, "geometry": { "type": "LineString", "coordinates": [ [ -72.64686, -42.95397 ], [ -72.6463, -42.95382 ] ] } },
{ "type": "Feature", "properties": { "tipo": "trunk", "nombre": "Avenida Corcovado", "ref": "7", "color": "#f4a261" }, "geometry": { "type": "LineString", "coordinates": [ [ -72.71235, -42.91554 ], [ -72.71279, -42.91796 ] ] } },
{ "type": "Feature", "properties": { "tipo": "trunk", "nombre": "Ignacio Carrera Pinto", "ref": "7", "color": "#f4a261" }, "geometry": { "type": "LineString", "coordinates": [ [ -72.70411, -42.91875 ], [ -72.70457, -42.91871 ] ] } },
{ "type": "Feature", "properties": { "tipo": "trunk", "nombre": "Ignacio Carrera Pinto", "ref": "7", "color": "#f4a261" }, "geometry": { "type": "LineString", "coordinates": [ [ -72.7049, -42.91864 ], [ -72.71265, -42.91786 ] ] } },
{ "type": "Feature", "properties": { "tipo": "trunk", "nombre": "Carretera Austral", "ref": "7", "color": "#f4a261" }, "geometry": { "type": "LineString", "coordinates": [ [ -72.61969, -42.77551 ], [ -72.62022, -42.77578 ] ] } },
{ "type": "Feature", "properties": { "tipo": "trunk", "nombre": "Carretera Austral", "ref": "7", "color": "#f4a261" }, "geometry": { "type": "LineString", "coordinates": [ [ -72.62022, -42.77578 ], [ -72.6363, -42.79687 ] ] } },
{ "type": "Feature", "properties": { "tipo": "trunk", "nombre": "Carretera Austral", "ref": "7", "color": "#f4a261" }, "geometry": { "type": "LineString", "coordinates": [ [ -72.79513, -42.84919 ], [ -72.79514, -42.84995 ] ] } },
{ "type": "Feature", "properties": { "tipo": "trunk", "nombre": "Carretera Austral", "ref": "7", "color": "#f4a261" }, "geometry": { "type": "LineString", "coordinates": [ [ -72.48346, -43.01012 ], [ -72.48134, -43.00971 ] ] } },
{ "type": "Feature", "properties": { "tipo": "trunk", "nombre": "Carretera Austral", "ref": "7", "color": "#f4a261" }, "geometry": { "type": "LineString", "coordinates": [ [ -72.66658, -42.80805 ], [ -72.67345, -42.80974 ] ] } },
{ "type": "Feature", "properties": { "tipo": "trunk", "nombre": "Carretera Austral", "ref": "7", "color": "#f4a261" }, "geometry": { "type": "LineString", "coordinates": [ [ -72.66616, -42.80794 ], [ -72.66658, -42.80805 ] ] } },
{ "type": "Feature", "properties": { "tipo": "trunk", "nombre": "Carretera Austral", "ref": "7", "color": "#f4a261" }, "geometry": { "type": "LineString", "coordinates": [ [ -72.6363, -42.79687 ], [ -72.63684, -42.79758 ] ] } },
{ "type": "Feature", "properties": { "tipo": "trunk", "nombre": "Carretera Austral", "ref": "7", "color": "#f4a261" }, "geometry": { "type": "LineString", "coordinates": [ [ -72.63684, -42.79758 ], [ -72.65236, -42.80334 ] ] } },
{ "type": "Feature", "properties": { "tipo": "trunk", "nombre": "Avenida Corcovado", "ref": "7", "color": "#f4a261" }, "geometry": { "type": "LineString", "coordinates": [ [ -72.71265, -42.91786 ], [ -72.71205, -42.9145 ] ] } },
{ "type": "Feature", "properties": { "tipo": "trunk", "nombre": "Carretera Austral", "ref": "7", "color": "#f4a261" }, "geometry": { "type": "LineString", "coordinates": [ [ -72.71567, -42.91172 ], [ -72.71318, -42.91284 ] ] } },
{ "type": "Feature", "properties": { "tipo": "trunk", "nombre": "Carretera Austral", "ref": "7", "color": "#f4a261" }, "geometry": { "type": "LineString", "coordinates": [ [ -72.48062, -43.00955 ], [ -72.47986, -43.0094 ] ] } },
{ "type": "Feature", "properties": { "tipo": "trunk", "nombre": "Carretera Austral", "ref": "7", "color": "#f4a261" }, "geometry": { "type": "LineString", "coordinates": [ [ -72.43068, -43.23097 ], [ -72.42478, -43.24884 ] ] } },
{ "type": "Feature", "properties": { "tipo": "trunk", "nombre": "Carretera Austral", "ref": "7", "color": "#f4a261" }, "geometry": { "type": "LineString", "coordinates": [ [ -72.67345, -42.80974 ], [ -72.67389, -42.80985 ] ] } },
{ "type": "Feature", "properties": { "tipo": "trunk", "nombre": "Carretera Austral", "ref": "7", "color": "#f4a261" }, "geometry": { "type": "LineString", "coordinates": [ [ -72.67389, -42.80985 ], [ -72.69142, -42.81407 ] ] } },
{ "type": "Feature", "properties": { "tipo": "trunk", "nombre": "Carretera Austral", "ref": "7", "color": "#f4a261" }, "geometry": { "type": "LineString", "coordinates": [ [ -72.73962, -42.88999 ], [ -72.72216, -42.90161 ], [ -72.71886, -42.90636 ] ] } },
{ "type": "Feature", "properties": { "tipo": "trunk", "nombre": "Carretera Austral", "ref": "7", "color": "#f4a261" }, "geometry": { "type": "LineString", "coordinates": [ [ -72.45217, -43.20945 ], [ -72.44828, -43.21269 ] ] } },
{ "type": "Feature", "properties": { "tipo": "trunk", "nombre": "Carretera Austral", "ref": "7", "color": "#f4a261" }, "geometry": { "type": "LineString", "coordinates": [ [ -72.43972, -43.21938 ], [ -72.43696, -43.22183 ] ] } },
{ "type": "Feature", "properties": { "tipo": "trunk", "nombre": "Carretera Austral", "ref": "7", "color": "#f4a261" }, "geometry": { "type": "LineString", "coordinates": [ [ -72.47466, -43.01775 ], [ -72.47479, -43.01801 ] ] } },
{ "type": "Feature", "properties": { "tipo": "trunk", "nombre": "Carretera Austral", "ref": "7", "color": "#f4a261" }, "geometry": { "type": "LineString", "coordinates": [ [ -72.47479, -43.01801 ], [ -72.47478, -43.04278 ], [ -72.46886, -43.0699 ], [ -72.4599, -43.09411 ], [ -72.45409, -43.10604 ] ] } },
{ "type": "Feature", "properties": { "tipo": "trunk", "nombre": "Carretera Austral", "ref": "7", "color": "#f4a261" }, "geometry": { "type": "LineString", "coordinates": [ [ -72.58047, -42.71153 ], [ -72.59082, -42.72091 ] ] } },
{ "type": "Feature", "properties": { "tipo": "trunk", "nombre": "Carretera Austral", "ref": "7", "color": "#f4a261" }, "geometry": { "type": "LineString", "coordinates": [ [ -72.58041, -42.71133 ], [ -72.58047, -42.71153 ] ] } },
{ "type": "Feature", "properties": { "tipo": "trunk", "nombre": "Carretera Austral", "ref": "7", "color": "#f4a261" }, "geometry": { "type": "LineString", "coordinates": [ [ -72.57359, -42.69913 ], [ -72.58041, -42.71133 ] ] } },
{ "type": "Feature", "properties": { "tipo": "trunk", "nombre": "Carretera Austral", "ref": "7", "color": "#f4a261" }, "geometry": { "type": "LineString", "coordinates": [ [ -72.57359, -42.69869 ], [ -72.57359, -42.69913 ] ] } },
{ "type": "Feature", "properties": { "tipo": "trunk", "nombre": "Carretera Austral", "ref": "7", "color": "#f4a261" }, "geometry": { "type": "LineString", "coordinates": [ [ -72.5787, -42.67472 ], [ -72.5749, -42.69625 ], [ -72.57359, -42.69869 ] ] } },
{ "type": "Feature", "properties": { "tipo": "trunk", "nombre": "Carretera Austral", "ref": "7", "color": "#f4a261" }, "geometry": { "type": "LineString", "coordinates": [ [ -72.57906, -42.67466 ], [ -72.5787, -42.67472 ] ] } },
{ "type": "Feature", "properties": { "tipo": "trunk", "nombre": "Carretera Austral", "ref": "7", "color": "#f4a261" }, "geometry": { "type": "LineString", "coordinates": [ [ -72.58642, -42.63126 ], [ -72.58603, -42.63184 ] ] } },
{ "type": "Feature", "properties": { "tipo": "trunk", "nombre": "Carretera Austral", "ref": "7", "color": "#f4a261" }, "geometry": { "type": "LineString", "coordinates": [ [ -72.58845, -42.62012 ], [ -72.5889, -42.62692 ] ] } },
{ "type": "Feature", "properties": { "tipo": "trunk", "nombre": "Carretera Austral", "ref": "7", "color": "#f4a261" }, "geometry": { "type": "LineString", "coordinates": [ [ -72.58832, -42.61992 ], [ -72.58845, -42.62012 ] ] } },
{ "type": "Feature", "properties": { "tipo": "trunk", "nombre": "Carretera Austral", "ref": "7", "color": "#f4a261" }, "geometry": { "type": "LineString", "coordinates": [ [ -72.59507, -42.57537 ], [ -72.59496, -42.57574 ] ] } },
{ "type": "Feature", "properties": { "tipo": "trunk", "nombre": "Carretera Austral", "ref": "7", "color": "#f4a261" }, "geometry": { "type": "LineString", "coordinates": [ [ -72.59496, -42.57574 ], [ -72.59017, -42.59511 ] ] } },
{ "type": "Feature", "properties": { "tipo": "trunk", "nombre": "Carretera Austral", "ref": "7", "color": "#f4a261" }, "geometry": { "type": "LineString", "coordinates": [ [ -72.59655, -42.57291 ], [ -72.59507, -42.57537 ] ] } },
{ "type": "Feature", "properties": { "tipo": "trunk", "nombre": "Carretera Austral", "ref": "7", "color": "#f4a261" }, "geometry": { "type": "LineString", "coordinates": [ [ -72.59678, -42.57267 ], [ -72.59655, -42.57291 ] ] } },
{ "type": "Feature", "properties": { "tipo": "trunk", "nombre": "Carretera Austral", "ref": "7", "color": "#f4a261" }, "geometry": { "type": "LineString", "coordinates": [ [ -72.60443, -42.5591 ], [ -72.60396, -42.55871 ] ] } },
{ "type": "Feature", "properties": { "tipo": "trunk", "nombre": "Carretera Austral", "ref": "7", "color": "#f4a261" }, "geometry": { "type": "LineString", "coordinates": [ [ -72.4367, -43.22208 ], [ -72.43076, -43.2307 ] ] } },
{ "type": "Feature", "properties": { "tipo": "trunk", "nombre": "Carretera Austral", "ref": "7", "color": "#f4a261" }, "geometry": { "type": "LineString", "coordinates": [ [ -72.43696, -43.22183 ], [ -72.4367, -43.22208 ] ] } },
{ "type": "Feature", "properties": { "tipo": "trunk", "nombre": "Carretera Austral", "ref": "7", "color": "#f4a261" }, "geometry": { "type": "LineString", "coordinates": [ [ -72.44828, -43.21269 ], [ -72.44496, -43.21458 ] ] } },
{ "type": "Feature", "properties": { "tipo": "trunk", "nombre": "Carretera Austral", "ref": "7", "color": "#f4a261" }, "geometry": { "type": "LineString", "coordinates": [ [ -72.44496, -43.21458 ], [ -72.43972, -43.21938 ] ] } },
{ "type": "Feature", "properties": { "tipo": "trunk", "nombre": "Carretera Austral", "ref": "7", "color": "#f4a261" }, "geometry": { "type": "LineString", "coordinates": [ [ -72.74404, -42.82484 ], [ -72.76914, -42.82263 ], [ -72.79131, -42.84041 ], [ -72.79445, -42.84751 ] ] } },
{ "type": "Feature", "properties": { "tipo": "trunk", "nombre": "Carretera Austral", "ref": "7", "color": "#f4a261" }, "geometry": { "type": "LineString", "coordinates": [ [ -72.65236, -42.80334 ], [ -72.65266, -42.80346 ] ] } },
{ "type": "Feature", "properties": { "tipo": "trunk", "nombre": "Carretera Austral", "ref": "7", "color": "#f4a261" }, "geometry": { "type": "LineString", "coordinates": [ [ -72.7185, -42.91118 ], [ -72.71906, -42.90989 ] ] } },
{ "type": "Feature", "properties": { "tipo": "trunk", "nombre": "Carretera Austral", "ref": "7", "color": "#f4a261" }, "geometry": { "type": "LineString", "coordinates": [ [ -72.72728, -42.8233 ], [ -72.72754, -42.82333 ] ] } },
{ "type": "Feature", "properties": { "tipo": "trunk", "nombre": "Carretera Austral", "ref": "7", "color": "#f4a261" }, "geometry": { "type": "LineString", "coordinates": [ [ -72.74349, -42.82484 ], [ -72.74404, -42.82484 ] ] } },
{ "type": "Feature", "properties": { "tipo": "trunk", "nombre": "Carretera Austral", "ref": "7", "color": "#f4a261" }, "geometry": { "type": "LineString", "coordinates": [ [ -72.69142, -42.81407 ], [ -72.69182, -42.81416 ] ] } },
{ "type": "Feature", "properties": { "tipo": "trunk", "nombre": "Carretera Austral", "ref": "7", "color": "#f4a261" }, "geometry": { "type": "LineString", "coordinates": [ [ -72.72754, -42.82333 ], [ -72.74349, -42.82484 ] ] } },
{ "type": "Feature", "properties": { "tipo": "trunk", "nombre": "Carretera Austral", "ref": "7", "color": "#f4a261" }, "geometry": { "type": "LineString", "coordinates": [ [ -72.69182, -42.81416 ], [ -72.72728, -42.8233 ] ] } },
{ "type": "Feature", "properties": { "tipo": "trunk", "nombre": "Carretera Austral", "ref": "7", "color": "#f4a261" }, "geometry": { "type": "LineString", "coordinates": [ [ -72.65266, -42.80346 ], [ -72.66616, -42.80794 ] ] } },
{ "type": "Feature", "properties": { "tipo": "trunk", "nombre": "Carretera Austral", "ref": "7", "color": "#f4a261" }, "geometry": { "type": "LineString", "coordinates": [ [ -72.59114, -42.72106 ], [ -72.60053, -42.74719 ], [ -72.61245, -42.76593 ], [ -72.61969, -42.77551 ] ] } },
{ "type": "Feature", "properties": { "tipo": "trunk", "nombre": "Carretera Austral", "ref": "7", "color": "#f4a261" }, "geometry": { "type": "LineString", "coordinates": [ [ -72.58536, -42.63284 ], [ -72.58019, -42.65504 ] ] } },
{ "type": "Feature", "properties": { "tipo": "trunk", "nombre": "Carretera Austral", "ref": "7", "color": "#f4a261" }, "geometry": { "type": "LineString", "coordinates": [ [ -72.58019, -42.65504 ], [ -72.58018, -42.65524 ] ] } },
{ "type": "Feature", "properties": { "tipo": "trunk", "nombre": "Carretera Austral", "ref": "7", "color": "#f4a261" }, "geometry": { "type": "LineString", "coordinates": [ [ -72.5889, -42.62692 ], [ -72.58885, -42.62705 ] ] } },
{ "type": "Feature", "properties": { "tipo": "trunk", "nombre": "Carretera Austral", "ref": "7", "color": "#f4a261" }, "geometry": { "type": "LineString", "coordinates": [ [ -72.59082, -42.72091 ], [ -72.59114, -42.72106 ] ] } },
{ "type": "Feature", "properties": { "tipo": "trunk", "nombre": "Carretera Austral", "ref": "7", "color": "#f4a261" }, "geometry": { "type": "LineString", "coordinates": [ [ -72.58018, -42.65524 ], [ -72.57906, -42.67466 ] ] } },
{ "type": "Feature", "properties": { "tipo": "trunk", "nombre": "Carretera Austral", "ref": "7", "color": "#f4a261" }, "geometry": { "type": "LineString", "coordinates": [ [ -72.59017, -42.59511 ], [ -72.59005, -42.59547 ] ] } },
{ "type": "Feature", "properties": { "tipo": "trunk", "nombre": "Carretera Austral", "ref": "7", "color": "#f4a261" }, "geometry": { "type": "LineString", "coordinates": [ [ -72.58885, -42.62705 ], [ -72.58695, -42.63037 ] ] } },
{ "type": "Feature", "properties": { "tipo": "trunk", "nombre": "Carretera Austral", "ref": "7", "color": "#f4a261" }, "geometry": { "type": "LineString", "coordinates": [ [ -72.59005, -42.59547 ], [ -72.58832, -42.61992 ] ] } },
{ "type": "Feature", "properties": { "tipo": "trunk", "nombre": "Carretera Austral", "ref": "7", "color": "#f4a261" }, "geometry": { "type": "LineString", "coordinates": [ [ -72.48532, -43.01048 ], [ -72.48346, -43.01012 ] ] } },
{ "type": "Feature", "properties": { "tipo": "trunk", "nombre": "Carretera Austral", "ref": "7", "color": "#f4a261" }, "geometry": { "type": "LineString", "coordinates": [ [ -72.47958, -43.00957 ], [ -72.47986, -43.0094 ] ] } },
{ "type": "Feature", "properties": { "tipo": "trunk", "nombre": "Carretera Austral", "ref": "7", "color": "#f4a261" }, "geometry": { "type": "LineString", "coordinates": [ [ -72.7185, -42.91118 ], [ -72.71625, -42.9116 ] ] } },
{ "type": "Feature", "properties": { "tipo": "trunk", "nombre": "Carretera Austral", "ref": "7", "color": "#f4a261" }, "geometry": { "type": "LineString", "coordinates": [ [ -72.71625, -42.9116 ], [ -72.71567, -42.91172 ] ] } },
{ "type": "Feature", "properties": { "tipo": "trunk", "nombre": "Carretera Austral", "ref": "7", "color": "#f4a261" }, "geometry": { "type": "LineString", "coordinates": [ [ -72.71213, -42.91441 ], [ -72.71234, -42.91397 ] ] } },
{ "type": "Feature", "properties": { "tipo": "trunk", "nombre": "Avenida Corcovado", "ref": "7", "color": "#f4a261" }, "geometry": { "type": "LineString", "coordinates": [ [ -72.71213, -42.91441 ], [ -72.71235, -42.91554 ] ] } },
{ "type": "Feature", "properties": { "tipo": "trunk", "nombre": "Carretera Austral", "ref": "7", "color": "#f4a261" }, "geometry": { "type": "LineString", "coordinates": [ [ -72.79491, -42.85169 ], [ -72.79488, -42.85193 ] ] } },
{ "type": "Feature", "properties": { "tipo": "trunk", "nombre": "Carretera Austral", "ref": "7", "color": "#f4a261" }, "geometry": { "type": "LineString", "coordinates": [ [ -72.79514, -42.84995 ], [ -72.79491, -42.85169 ] ] } },
{ "type": "Feature", "properties": { "tipo": "trunk", "nombre": "Carretera Austral", "ref": "7", "color": "#f4a261" }, "geometry": { "type": "LineString", "coordinates": [ [ -72.79445, -42.84751 ], [ -72.79513, -42.84919 ] ] } },
{ "type": "Feature", "properties": { "tipo": "trunk", "nombre": "Carretera Austral", "ref": "7", "color": "#f4a261" }, "geometry": { "type": "LineString", "coordinates": [ [ -72.71318, -42.91284 ], [ -72.71248, -42.91345 ] ] } },
{ "type": "Feature", "properties": { "tipo": "trunk", "nombre": "Carretera Austral", "ref": "7", "color": "#f4a261" }, "geometry": { "type": "LineString", "coordinates": [ [ -72.71248, -42.91345 ], [ -72.71234, -42.91397 ] ] } },
{ "type": "Feature", "properties": { "tipo": "trunk", "nombre": "Carretera Austral", "ref": "7", "color": "#f4a261" }, "geometry": { "type": "LineString", "coordinates": [ [ -72.66793, -42.9495 ], [ -72.64753, -42.95415 ], [ -72.64686, -42.95397 ] ] } },
{ "type": "Feature", "properties": { "tipo": "trunk", "nombre": "Carretera Austral", "ref": "7", "color": "#f4a261" }, "geometry": { "type": "LineString", "coordinates": [ [ -72.66814, -42.9493 ], [ -72.66793, -42.9495 ] ] } },
{ "type": "Feature", "properties": { "tipo": "trunk", "nombre": "Carretera Austral", "ref": "7", "color": "#f4a261" }, "geometry": { "type": "LineString", "coordinates": [ [ -72.73987, -42.88986 ], [ -72.73962, -42.88999 ] ] } },
{ "type": "Feature", "properties": { "tipo": "trunk", "nombre": "Carretera Austral", "ref": "7", "color": "#f4a261" }, "geometry": { "type": "LineString", "coordinates": [ [ -72.74935, -42.88441 ], [ -72.73987, -42.88986 ] ] } },
{ "type": "Feature", "properties": { "tipo": "trunk", "nombre": "Carretera Austral", "ref": "7", "color": "#f4a261" }, "geometry": { "type": "LineString", "coordinates": [ [ -72.74948, -42.88431 ], [ -72.74935, -42.88441 ] ] } },
{ "type": "Feature", "properties": { "tipo": "trunk", "nombre": "Carretera Austral", "ref": "7", "color": "#f4a261" }, "geometry": { "type": "LineString", "coordinates": [ [ -72.75104, -42.8831 ], [ -72.74948, -42.88431 ] ] } },
{ "type": "Feature", "properties": { "tipo": "trunk", "nombre": "Carretera Austral", "ref": "7", "color": "#f4a261" }, "geometry": { "type": "LineString", "coordinates": [ [ -72.75147, -42.88278 ], [ -72.75104, -42.8831 ] ] } },
{ "type": "Feature", "properties": { "tipo": "trunk", "nombre": "Carretera Austral", "ref": "7", "color": "#f4a261" }, "geometry": { "type": "LineString", "coordinates": [ [ -72.79413, -42.85568 ], [ -72.7756, -42.86975 ], [ -72.75443, -42.88062 ], [ -72.75147, -42.88278 ] ] } },
{ "type": "Feature", "properties": { "tipo": "trunk", "nombre": "Carretera Austral", "ref": "7", "color": "#f4a261" }, "geometry": { "type": "LineString", "coordinates": [ [ -72.71907, -42.90953 ], [ -72.7185, -42.91118 ] ] } },
{ "type": "Feature", "properties": { "tipo": "trunk", "nombre": "Carretera Austral", "ref": "7", "color": "#f4a261" }, "geometry": { "type": "LineString", "coordinates": [ [ -72.7942, -42.85536 ], [ -72.79413, -42.85568 ] ] } },
{ "type": "Feature", "properties": { "tipo": "trunk", "nombre": "Carretera Austral", "ref": "7", "color": "#f4a261" }, "geometry": { "type": "LineString", "coordinates": [ [ -72.79488, -42.85193 ], [ -72.7942, -42.85536 ] ] } },
{ "type": "Feature", "properties": { "tipo": "trunk", "nombre": "Ignacio Carrera Pinto", "ref": "7", "color": "#f4a261" }, "geometry": { "type": "LineString", "coordinates": [ [ -72.70457, -42.91871 ], [ -72.7049, -42.91864 ] ] } },
{ "type": "Feature", "properties": { "tipo": "trunk", "nombre": "Ignacio Carrera Pinto", "ref": "7", "color": "#f4a261" }, "geometry": { "type": "LineString", "coordinates": [ [ -72.70491, -42.91871 ], [ -72.70457, -42.91871 ] ] } },
{ "type": "Feature", "properties": { "tipo": "trunk", "nombre": "Carretera Austral", "ref": "7", "color": "#f4a261" }, "geometry": { "type": "LineString", "coordinates": [ [ -72.71906, -42.90989 ], [ -72.719, -42.90955 ] ] } },
{ "type": "Feature", "properties": { "tipo": "trunk", "nombre": "Carretera Austral", "ref": "7", "color": "#f4a261" }, "geometry": { "type": "LineString", "coordinates": [ [ -72.70324, -42.91882 ], [ -72.70313, -42.91884 ] ] } },
{ "type": "Feature", "properties": { "tipo": "trunk", "nombre": "Carretera Austral", "ref": "7", "color": "#f4a261" }, "geometry": { "type": "LineString", "coordinates": [ [ -72.70313, -42.91884 ], [ -72.70264, -42.91914 ] ] } },
{ "type": "Feature", "properties": { "tipo": "trunk", "nombre": "Carretera Austral", "ref": "7", "color": "#f4a261" }, "geometry": { "type": "LineString", "coordinates": [ [ -72.58603, -42.63184 ], [ -72.58536, -42.63284 ] ] } },
{ "type": "Feature", "properties": { "tipo": "trunk", "nombre": "Carretera Austral", "ref": "7", "color": "#f4a261" }, "geometry": { "type": "LineString", "coordinates": [ [ -72.58695, -42.63037 ], [ -72.58642, -42.63126 ] ] } },
{ "type": "Feature", "properties": { "tipo": "trunk", "nombre": "Carretera Austral", "ref": "7", "color": "#f4a261" }, "geometry": { "type": "LineString", "coordinates": [ [ -72.43646, -42.48855 ], [ -72.43649, -42.4888 ] ] } },
{ "type": "Feature", "properties": { "tipo": "trunk", "nombre": "Carretera Austral", "ref": "7", "color": "#f4a261" }, "geometry": { "type": "LineString", "coordinates": [ [ -72.43649, -42.4888 ], [ -72.43705, -42.48967 ] ] } },
{ "type": "Feature", "properties": { "tipo": "trunk", "nombre": "Carretera Austral", "ref": "7", "color": "#f4a261" }, "geometry": { "type": "LineString", "coordinates": [ [ -72.45006, -42.50958 ], [ -72.45075, -42.51027 ] ] } },
{ "type": "Feature", "properties": { "tipo": "trunk", "nombre": "Carretera Austral", "ref": "7", "color": "#f4a261" }, "geometry": { "type": "LineString", "coordinates": [ [ -72.43705, -42.48967 ], [ -72.45006, -42.50958 ] ] } },
{ "type": "Feature", "properties": { "tipo": "trunk", "nombre": "Carretera Austral", "ref": "7", "color": "#f4a261" }, "geometry": { "type": "LineString", "coordinates": [ [ -72.48714, -42.52566 ], [ -72.50624, -42.53818 ], [ -72.52335, -42.54552 ] ] } },
{ "type": "Feature", "properties": { "tipo": "trunk", "nombre": "Carretera Austral", "ref": "7", "color": "#f4a261" }, "geometry": { "type": "LineString", "coordinates": [ [ -72.48682, -42.5255 ], [ -72.48714, -42.52566 ] ] } },
{ "type": "Feature", "properties": { "tipo": "trunk", "nombre": "Avenida Corcovado", "ref": "7", "color": "#f4a261" }, "geometry": { "type": "LineString", "coordinates": [ [ -72.71205, -42.9145 ], [ -72.71213, -42.91441 ] ] } },
{ "type": "Feature", "properties": { "tipo": "trunk", "nombre": "Carretera Austral", "ref": "7", "color": "#f4a261" }, "geometry": { "type": "LineString", "coordinates": [ [ -72.71892, -42.90861 ], [ -72.71907, -42.90953 ] ] } },
{ "type": "Feature", "properties": { "tipo": "trunk", "nombre": "Carretera Austral", "ref": "7", "color": "#f4a261" }, "geometry": { "type": "LineString", "coordinates": [ [ -72.7189, -42.90744 ], [ -72.71892, -42.90861 ] ] } },
{ "type": "Feature", "properties": { "tipo": "trunk", "nombre": "Carretera Austral", "ref": "7", "color": "#f4a261" }, "geometry": { "type": "LineString", "coordinates": [ [ -72.71886, -42.90636 ], [ -72.7189, -42.90744 ] ] } },
{ "type": "Feature", "properties": { "tipo": "trunk", "nombre": "Carretera Austral", "ref": "7", "color": "#f4a261" }, "geometry": { "type": "LineString", "coordinates": [ [ -72.719, -42.90955 ], [ -72.7189, -42.90744 ] ] } },
{ "type": "Feature", "properties": { "tipo": "trunk", "nombre": "Carretera Austral", "ref": "7", "color": "#f4a261" }, "geometry": { "type": "LineString", "coordinates": [ [ -72.45409, -43.10604 ], [ -72.45411, -43.10652 ] ] } },
{ "type": "Feature", "properties": { "tipo": "trunk", "nombre": "Carretera Austral", "ref": "7", "color": "#f4a261" }, "geometry": { "type": "LineString", "coordinates": [ [ -72.45411, -43.10652 ], [ -72.45413, -43.10689 ] ] } }
]
}
