{
"type": "FeatureCollection",
"name": "COR",
"crs": { "type": "name", "properties": { "name": "urn:ogc:def:crs:OGC:1.3:CRS84" } },
"xy_coordinate_resolution": 1e-05,
"features": [
{ "type": "Feature", "properties": { "tipo": "trunk", "nombre": "Ruta 235 CH", "ref": "235", "color": "#f4a261" }, "geometry": { "type": "LineString", "coordinates": [ [ -72.36184, -43.41279 ], [ -72.34064, -43.40196 ], [ -72.32625, -43.39669 ] ] } },
{ "type": "Feature", "properties": { "tipo": "trunk", "nombre": "Carretera Austral", "ref": "7", "color": "#f4a261" }, "geometry": { "type": "LineString", "coordinates": [ [ -72.47466, -43.01775 ], [ -72.47958, -43.00957 ] ] } },
{ "type": "Feature", "properties": { "tipo": "trunk", "nombre": "Carretera Austral", "ref": "7", "color": "#f4a261" }, "geometry": { "type": "LineString", "coordinates": [ [ -72.41532, -43.31695 ], [ -72.40457, -43.33502 ] ] } },
{ "type": "Feature", "properties": { "tipo": "trunk", "nombre": "Carretera Austral", "ref": "7", "color": "#f4a261" }, "geometry": { "type": "LineString", "coordinates": [ [ -72.44043, -43.17608 ], [ -72.45895, -43.18794 ], [ -72.45217, -43.20945 ] ] } },
{ "type": "Feature", "properties": { "tipo": "trunk", "nombre": "Carretera Austral", "ref": "7", "color": "#f4a261" }, "geometry": { "type": "LineString", "coordinates": [ [ -72.43782, -43.17483 ], [ -72.44043, -43.17608 ] ] } },
{ "type": "Feature", "properties": { "tipo": "trunk", "nombre": "Carretera Austral", "ref": "7", "color": "#f4a261" }, "geometry": { "type": "LineString", "coordinates": [ [ -72.42026, -43.27668 ], [ -72.42022, -43.27712 ] ] } },
{ "type": "Feature", "properties": { "tipo": "trunk", "nombre": "Carretera Austral", "ref": "7", "color": "#f4a261" }, "geometry": { "type": "LineString", "coordinates": [ [ -72.42022, -43.27712 ], [ -72.42013, -43.27907 ] ] } },
{ "type": "Feature", "properties": { "tipo": "trunk", "nombre": "Carretera Austral", "ref": "7", "color": "#f4a261" }, "geometry": { "type": "LineString", "coordinates": [ [ -72.43076, -43.2307 ], [ -72.43068, -43.23097 ] ] } },
{ "type": "Feature", "properties": { "tipo": "trunk", "nombre": "Carretera Austral", "ref": "7", "color": "#f4a261" }, "geometry": { "type": "LineString", "coordinates": [ [ -72.42471, -43.24904 ], [ -72.42129, -43.26953 ], [ -72.42026, -43.27668 ] ] } },
{ "type": "Feature", "properties": { "tipo": "trunk", "nombre": "Carretera Austral", "ref": "7", "color": "#f4a261" }, "geometry": { "type": "LineString", "coordinates": [ [ -72.43097, -43.17094 ], [ -72.43782, -43.17483 ] ] } },
{ "type": "Feature", "properties": { "tipo": "trunk", "nombre": "Carretera Austral", "ref": "7", "color": "#f4a261" }, "geometry": { "type": "LineString", "coordinates": [ [ -72.41965, -43.28236 ], [ -72.41868, -43.30505 ], [ -72.41829, -43.30779 ] ] } },
{ "type": "Feature", "properties": { "tipo": "trunk", "nombre": "Carretera Austral", "ref": "7", "color": "#f4a261" }, "geometry": { "type": "LineString", "coordinates": [ [ -72.42013, -43.27907 ], [ -72.42012, -43.27939 ] ] } },
{ "type": "Feature", "properties": { "tipo": "trunk", "nombre": "Carretera Austral", "ref": "7", "color": "#f4a261" }, "geometry": { "type": "LineString", "coordinates": [ [ -72.41829, -43.30779 ], [ -72.41834, -43.30802 ] ] } },
{ "type": "Feature", "properties": { "tipo": "trunk", "nombre": "Carretera Austral", "ref": "7", "color": "#f4a261" }, "geometry": { "type": "LineString", "coordinates": [ [ -72.43079, -43.17065 ], [ -72.43097, -43.17094 ] ] } },
{ "type": "Feature", "properties": { "tipo": "trunk", "nombre": "Carretera Austral", "ref": "7", "color": "#f4a261" }, "geometry": { "type": "LineString", "coordinates": [ [ -72.48134, -43.00971 ], [ -72.48062, -43.00955 ] ] } },
{ "type": "Feature", "properties": { "tipo": "trunk", "nombre": "Carretera Austral", "ref": "7", "color": "#f4a261" }, "geometry": { "type": "LineString", "coordinates": [ [ -72.45413, -43.10689 ], [ -72.45419, -43.10836 ] ] } },
{ "type": "Feature", "properties": { "tipo": "trunk", "nombre": "Carretera Austral", "ref": "7", "color": "#f4a261" }, "geometry": { "type": "LineString", "coordinates": [ [ -72.45419, -43.10836 ], [ -72.45294, -43.12858 ], [ -72.43928, -43.14465 ], [ -72.42963, -43.16864 ], [ -72.43079, -43.17065 ] ] } },
{ "type": "Feature", "properties": { "tipo": "trunk", "nombre": "Carretera Austral", "ref": "7", "color": "#f4a261" }, "geometry": { "type": "LineString", "coordinates": [ [ -72.35002, -43.47957 ], [ -72.35004, -43.47977 ] ] } },
{ "type": "Feature", "properties": { "tipo": "trunk", "nombre": "Carretera Austral", "ref": "7", "color": "#f4a261" }, "geometry": { "type": "LineString", "coordinates": [ [ -72.35004, -43.47977 ], [ -72.34626, -43.50024 ], [ -72.34521, -43.50406 ] ] } },
{ "type": "Feature", "properties": { "tipo": "trunk", "nombre": "Carretera Austral", "ref": "7", "color": "#f4a261" }, "geometry": { "type": "LineString", "coordinates": [ [ -72.70264, -42.91914 ], [ -72.68461, -42.93303 ], [ -72.66814, -42.9493 ] ] } },
{ "type": "Feature", "properties": { "tipo": "trunk", "nombre": "Carretera Austral", "ref": "7", "color": "#f4a261" }, "geometry": { "type": "LineString", "coordinates": [ [ -72.70411, -42.91875 ], [ -72.70324, -42.91882 ] ] } },
{ "type": "Feature", "properties": { "tipo": "trunk", "nombre": "Carretera Austral", "ref": "7", "color": "#f4a261" }, "geometry": { "type": "LineString", "coordinates": [ [ -72.4029, -43.34918 ], [ -72.38706, -43.36506 ], [ -72.38556, -43.36735 ] ] } },
{ "type": "Feature", "properties": { "tipo": "trunk", "nombre": "Carretera Austral", "ref": "7", "color": "#f4a261" }, "geometry": { "type": "LineString", "coordinates": [ [ -72.40455, -43.34397 ], [ -72.40447, -43.34432 ] ] } },
{ "type": "Feature", "properties": { "tipo": "trunk", "nombre": "Ruta 235 CH", "ref": "235", "color": "#f4a261" }, "geometry": { "type": "LineString", "coordinates": [ [ -72.27134, -43.39172 ], [ -72.25404, -43.40501 ], [ -72.23759, -43.41848 ] ] } },
{ "type": "Feature", "properties": { "tipo": "trunk", "nombre": "Ruta 235 CH", "ref": "235", "color": "#f4a261" }, "geometry": { "type": "LineString", "coordinates": [ [ -72.27168, -43.39136 ], [ -72.27134, -43.39172 ] ] } },
{ "type": "Feature", "properties": { "tipo": "trunk", "nombre": "Ignacio Carrera Pinto", "ref": "7", "color": "#f4a261" }, "geometry": { "type": "LineString", "coordinates": [ [ -72.71279, -42.91796 ], [ -72.70491, -42.91871 ] ] } },
{ "type": "Feature", "properties": { "tipo": "trunk", "nombre": "Carretera Austral", "ref": "7", "color": "#f4a261" }, "geometry": { "type": "LineString", "coordinates": [ [ -72.6463, -42.95382 ], [ -72.62187, -42.9605 ], [ -72.60363, -42.98028 ], [ -72.58246, -42.98739 ], [ -72.55571, -42.99076 ], [ -72.52989, -43.0024 ], [ -72.50786, -43.0076 ], [ -72.48532, -43.01048 ] ] } },
{ "type": "Feature", "properties": { "tipo": "trunk", "nombre": "Carretera Austral", "ref": "7", "color": "#f4a261" }, "geometry": { "type": "LineString", "coordinates": [ [ -72.64686, -42.95397 ], [ -72.6463, -42.95382 ] ] } },
{ "type": "Feature", "properties": { "tipo": "trunk", "nombre": "Avenida Corcovado", "ref": "7", "color": "#f4a261" }, "geometry": { "type": "LineString", "coordinates": [ [ -72.71235, -42.91554 ], [ -72.71279, -42.91796 ] ] } },
{ "type": "Feature", "properties": { "tipo": "trunk", "nombre": "Ignacio Carrera Pinto", "ref": "7", "color": "#f4a261" }, "geometry": { "type": "LineString", "coordinates": [ [ -72.70411, -42.91875 ], [ -72.70457, -42.91871 ] ] } },
{ "type": "Feature", "properties": { "tipo": "trunk", "nombre": "Ignacio Carrera Pinto", "ref": "7", "color": "#f4a261" }, "geometry": { "type": "LineString", "coordinates": [ [ -72.7049, -42.91864 ], [ -72.71265, -42.91786 ] ] } },
{ "type": "Feature", "properties": { "tipo": "trunk", "nombre": "Carretera Austral", "ref": "7", "color": "#f4a261" }, "geometry": { "type": "LineString", "coordinates": [ [ -72.61969, -42.77551 ], [ -72.62022, -42.77578 ] ] } },
{ "type": "Feature", "properties": { "tipo": "trunk", "nombre": "Carretera Austral", "ref": "7", "color": "#f4a261" }, "geometry": { "type": "LineString", "coordinates": [ [ -72.62022, -42.77578 ], [ -72.6363, -42.79687 ] ] } },
{ "type": "Feature", "properties": { "tipo": "trunk", "nombre": "Carretera Austral", "ref": "7", "color": "#f4a261" }, "geometry": { "type": "LineString", "coordinates": [ [ -72.79513, -42.84919 ], [ -72.79514, -42.84995 ] ] } },
{ "type": "Feature", "properties": { "tipo": "trunk", "nombre": "Carretera Austral", "ref": "7", "color": "#f4a261" }, "geometry": { "type": "LineString", "coordinates": [ [ -72.48346, -43.01012 ], [ -72.48134, -43.00971 ] ] } },
{ "type": "Feature", "properties": { "tipo": "trunk", "nombre": "Carretera Austral", "ref": "7", "color": "#f4a261" }, "geometry": { "type": "LineString", "coordinates": [ [ -72.36787, -43.40991 ], [ -72.36784, -43.41237 ] ] } },
{ "type": "Feature", "properties": { "tipo": "trunk", "nombre": "Carretera Austral", "ref": "7", "color": "#f4a261" }, "geometry": { "type": "LineString", "coordinates": [ [ -72.66658, -42.80805 ], [ -72.67345, -42.80974 ] ] } },
{ "type": "Feature", "properties": { "tipo": "trunk", "nombre": "Carretera Austral", "ref": "7", "color": "#f4a261" }, "geometry": { "type": "LineString", "coordinates": [ [ -72.66616, -42.80794 ], [ -72.66658, -42.80805 ] ] } },
{ "type": "Feature", "properties": { "tipo": "trunk", "nombre": "Carretera Austral", "ref": "7", "color": "#f4a261" }, "geometry": { "type": "LineString", "coordinates": [ [ -72.6363, -42.79687 ], [ -72.63684, -42.79758 ] ] } },
{ "type": "Feature", "properties": { "tipo": "trunk", "nombre": "Carretera Austral", "ref": "7", "color": "#f4a261" }, "geometry": { "type": "LineString", "coordinates": [ [ -72.63684, -42.79758 ], [ -72.65236, -42.80334 ] ] } },
{ "type": "Feature", "properties": { "tipo": "trunk", "nombre": "Avenida Corcovado", "ref": "7", "color": "#f4a261" }, "geometry": { "type": "LineString", "coordinates": [ [ -72.71265, -42.91786 ], [ -72.71205, -42.9145 ] ] } },
{ "type": "Feature", "properties": { "tipo": "trunk", "nombre": "Carretera Austral", "ref": "7", "color": "#f4a261" }, "geometry": { "type": "LineString", "coordinates": [ [ -72.71567, -42.91172 ], [ -72.71318, -42.91284 ] ] } },
{ "type": "Feature", "properties": { "tipo": "trunk", "nombre": "Carretera Austral", "ref": "7", "color": "#f4a261" }, "geometry": { "type": "LineString", "coordinates": [ [ -72.35141, -43.46972 ], [ -72.35002, -43.47957 ] ] } },
{ "type": "Feature", "properties": { "tipo": "trunk", "nombre": "Carretera Austral", "ref": "7", "color": "#f4a261" }, "geometry": { "type": "LineString", "coordinates": [ [ -72.35155, -43.46946 ], [ -72.35141, -43.46972 ] ] } },
{ "type": "Feature", "properties": { "tipo": "trunk", "nombre": "Carretera Austral", "ref": "7", "color": "#f4a261" }, "geometry": { "type": "LineString", "coordinates": [ [ -72.48062, -43.00955 ], [ -72.47986, -43.0094 ] ] } },
{ "type": "Feature", "properties": { "tipo": "trunk", "nombre": "Carretera Austral", "ref": "7", "color": "#f4a261" }, "geometry": { "type": "LineString", "coordinates": [ [ -72.42478, -43.24884 ], [ -72.42471, -43.24904 ] ] } },
{ "type": "Feature", "properties": { "tipo": "trunk", "nombre": "Carretera Austral", "ref": "7", "color": "#f4a261" }, "geometry": { "type": "LineString", "coordinates": [ [ -72.43068, -43.23097 ], [ -72.42478, -43.24884 ] ] } },
{ "type": "Feature", "properties": { "tipo": "trunk", "nombre": "Carretera Austral", "ref": "7", "color": "#f4a261" }, "geometry": { "type": "LineString", "coordinates": [ [ -72.41977, -43.28207 ], [ -72.41965, -43.28236 ] ] } },
{ "type": "Feature", "properties": { "tipo": "trunk", "nombre": "Carretera Austral", "ref": "7", "color": "#f4a261" }, "geometry": { "type": "LineString", "coordinates": [ [ -72.42012, -43.27939 ], [ -72.41977, -43.28207 ] ] } },
{ "type": "Feature", "properties": { "tipo": "trunk", "nombre": "Carretera Austral", "ref": "7", "color": "#f4a261" }, "geometry": { "type": "LineString", "coordinates": [ [ -72.41544, -43.31677 ], [ -72.41532, -43.31695 ] ] } },
{ "type": "Feature", "properties": { "tipo": "trunk", "nombre": "Carretera Austral", "ref": "7", "color": "#f4a261" }, "geometry": { "type": "LineString", "coordinates": [ [ -72.41834, -43.30802 ], [ -72.41544, -43.31677 ] ] } },
{ "type": "Feature", "properties": { "tipo": "trunk", "nombre": "Carretera Austral", "ref": "7", "color": "#f4a261" }, "geometry": { "type": "LineString", "coordinates": [ [ -72.40636, -43.34939 ], [ -72.40618, -43.34948 ] ] } },
{ "type": "Feature", "properties": { "tipo": "trunk", "nombre": "Carretera Austral", "ref": "7", "color": "#f4a261" }, "geometry": { "type": "LineString", "coordinates": [ [ -72.40428, -43.34515 ], [ -72.40636, -43.34939 ] ] } },
{ "type": "Feature", "properties": { "tipo": "trunk", "nombre": "Carretera Austral", "ref": "7", "color": "#f4a261" }, "geometry": { "type": "LineString", "coordinates": [ [ -72.67345, -42.80974 ], [ -72.67389, -42.80985 ] ] } },
{ "type": "Feature", "properties": { "tipo": "trunk", "nombre": "Carretera Austral", "ref": "7", "color": "#f4a261" }, "geometry": { "type": "LineString", "coordinates": [ [ -72.67389, -42.80985 ], [ -72.69142, -42.81407 ] ] } },
{ "type": "Feature", "properties": { "tipo": "trunk", "nombre": "Carretera Austral", "ref": "7", "color": "#f4a261" }, "geometry": { "type": "LineString", "coordinates": [ [ -72.73962, -42.88999 ], [ -72.72216, -42.90161 ], [ -72.71886, -42.90636 ] ] } },
{ "type": "Feature", "properties": { "tipo": "trunk", "nombre": "Carretera Austral", "ref": "7", "color": "#f4a261" }, "geometry": { "type": "LineString", "coordinates": [ [ -72.45217, -43.20945 ], [ -72.44828, -43.21269 ] ] } },
{ "type": "Feature", "properties": { "tipo": "trunk", "nombre": "Carretera Austral", "ref": "7", "color": "#f4a261" }, "geometry": { "type": "LineString", "coordinates": [ [ -72.43972, -43.21938 ], [ -72.43696, -43.22183 ] ] } },
{ "type": "Feature", "properties": { "tipo": "trunk", "nombre": "Carretera Austral", "ref": "7", "color": "#f4a261" }, "geometry": { "type": "LineString", "coordinates": [ [ -72.47466, -43.01775 ], [ -72.47479, -43.01801 ] ] } },
{ "type": "Feature", "properties": { "tipo": "trunk", "nombre": "Carretera Austral", "ref": "7", "color": "#f4a261" }, "geometry": { "type": "LineString", "coordinates": [ [ -72.47479, -43.01801 ], [ -72.47478, -43.04278 ], [ -72.46886, -43.0699 ], [ -72.4599, -43.09411 ], [ -72.45409, -43.10604 ] ] } },
{ "type": "Feature", "properties": { "tipo": "trunk", "nombre": "Ruta 235 CH", "ref": "235", "color": "#f4a261" }, "geometry": { "type": "LineString", "coordinates": [ [ -72.29876, -43.38629 ], [ -72.27495, -43.38873 ], [ -72.27168, -43.39136 ] ] } },
{ "type": "Feature", "properties": { "tipo": "trunk", "nombre": "Ruta 235 CH", "ref": "235", "color": "#f4a261" }, "geometry": { "type": "LineString", "coordinates": [ [ -72.32625, -43.39669 ], [ -72.32601, -43.39671 ] ] } },
{ "type": "Feature", "properties": { "tipo": "trunk", "nombre": "Ruta 235 CH", "ref": "235", "color": "#f4a261" }, "geometry": { "type": "LineString", "coordinates": [ [ -72.29889, -43.38646 ], [ -72.29876, -43.38629 ] ] } },
{ "type": "Feature", "properties": { "tipo": "trunk", "nombre": "Ruta 235 CH", "ref": "235", "color": "#f4a261" }, "geometry": { "type": "LineString", "coordinates": [ [ -72.32601, -43.39671 ], [ -72.29889, -43.38646 ] ] } },
{ "type": "Feature", "properties": { "tipo": "trunk", "nombre": "Carretera Austral", "ref": "7", "color": "#f4a261" }, "geometry": { "type": "LineString", "coordinates": [ [ -72.36779, -43.42263 ], [ -72.35662, -43.44624 ], [ -72.35495, -43.45157 ] ] } },
{ "type": "Feature", "properties": { "tipo": "trunk", "nombre": "Carretera Austral", "ref": "7", "color": "#f4a261" }, "geometry": { "type": "LineString", "coordinates": [ [ -72.37431, -43.37901 ], [ -72.37185, -43.39985 ], [ -72.36819, -43.4054 ] ] } },
{ "type": "Feature", "properties": { "tipo": "trunk", "nombre": "Carretera Austral", "ref": "7", "color": "#f4a261" }, "geometry": { "type": "LineString", "coordinates": [ [ -72.36819, -43.4054 ], [ -72.36787, -43.40991 ] ] } },
{ "type": "Feature", "properties": { "tipo": "trunk", "nombre": "Carretera Austral", "ref": "7", "color": "#f4a261" }, "geometry": { "type": "LineString", "coordinates": [ [ -72.37818, -43.37387 ], [ -72.37431, -43.37901 ] ] } },
{ "type": "Feature", "properties": { "tipo": "trunk", "nombre": "Carretera Austral", "ref": "7", "color": "#f4a261" }, "geometry": { "type": "LineString", "coordinates": [ [ -72.4367, -43.22208 ], [ -72.43076, -43.2307 ] ] } },
{ "type": "Feature", "properties": { "tipo": "trunk", "nombre": "Carretera Austral", "ref": "7", "color": "#f4a261" }, "geometry": { "type": "LineString", "coordinates": [ [ -72.40457, -43.33502 ], [ -72.40455, -43.34397 ] ] } },
{ "type": "Feature", "properties": { "tipo": "trunk", "nombre": "Carretera Austral", "ref": "7", "color": "#f4a261" }, "geometry": { "type": "LineString", "coordinates": [ [ -72.43696, -43.22183 ], [ -72.4367, -43.22208 ] ] } },
{ "type": "Feature", "properties": { "tipo": "trunk", "nombre": "Carretera Austral", "ref": "7", "color": "#f4a261" }, "geometry": { "type": "LineString", "coordinates": [ [ -72.38556, -43.36735 ], [ -72.37818, -43.37387 ] ] } },
{ "type": "Feature", "properties": { "tipo": "trunk", "nombre": "Carretera Austral", "ref": "7", "color": "#f4a261" }, "geometry": { "type": "LineString", "coordinates": [ [ -72.44828, -43.21269 ], [ -72.44496, -43.21458 ] ] } },
{ "type": "Feature", "properties": { "tipo": "trunk", "nombre": "Carretera Austral", "ref": "7", "color": "#f4a261" }, "geometry": { "type": "LineString", "coordinates": [ [ -72.44496, -43.21458 ], [ -72.43972, -43.21938 ] ] } },
{ "type": "Feature", "properties": { "tipo": "trunk", "nombre": "Carretera Austral", "ref": "7", "color": "#f4a261" }, "geometry": { "type": "LineString", "coordinates": [ [ -72.74404, -42.82484 ], [ -72.76914, -42.82263 ], [ -72.79131, -42.84041 ], [ -72.79445, -42.84751 ] ] } },
{ "type": "Feature", "properties": { "tipo": "trunk", "nombre": "Carretera Austral", "ref": "7", "color": "#f4a261" }, "geometry": { "type": "LineString", "coordinates": [ [ -72.65236, -42.80334 ], [ -72.65266, -42.80346 ] ] } },
{ "type": "Feature", "properties": { "tipo": "trunk", "nombre": "Carretera Austral", "ref": "7", "color": "#f4a261" }, "geometry": { "type": "LineString", "coordinates": [ [ -72.7185, -42.91118 ], [ -72.71906, -42.90989 ] ] } },
{ "type": "Feature", "properties": { "tipo": "trunk", "nombre": "Carretera Austral", "ref": "7", "color": "#f4a261" }, "geometry": { "type": "LineString", "coordinates": [ [ -72.72728, -42.8233 ], [ -72.72754, -42.82333 ] ] } },
{ "type": "Feature", "properties": { "tipo": "trunk", "nombre": "Carretera Austral", "ref": "7", "color": "#f4a261" }, "geometry": { "type": "LineString", "coordinates": [ [ -72.74349, -42.82484 ], [ -72.74404, -42.82484 ] ] } },
{ "type": "Feature", "properties": { "tipo": "trunk", "nombre": "Carretera Austral", "ref": "7", "color": "#f4a261" }, "geometry": { "type": "LineString", "coordinates": [ [ -72.69142, -42.81407 ], [ -72.69182, -42.81416 ] ] } },
{ "type": "Feature", "properties": { "tipo": "trunk", "nombre": "Carretera Austral", "ref": "7", "color": "#f4a261" }, "geometry": { "type": "LineString", "coordinates": [ [ -72.72754, -42.82333 ], [ -72.74349, -42.82484 ] ] } },
{ "type": "Feature", "properties": { "tipo": "trunk", "nombre": "Carretera Austral", "ref": "7", "color": "#f4a261" }, "geometry": { "type": "LineString", "coordinates": [ [ -72.69182, -42.81416 ], [ -72.72728, -42.8233 ] ] } },
{ "type": "Feature", "properties": { "tipo": "trunk", "nombre": "Carretera Austral", "ref": "7", "color": "#f4a261" }, "geometry": { "type": "LineString", "coordinates": [ [ -72.65266, -42.80346 ], [ -72.66616, -42.80794 ] ] } },
{ "type": "Feature", "properties": { "tipo": "trunk", "nombre": "Carretera Austral", "ref": "7", "color": "#f4a261" }, "geometry": { "type": "LineString", "coordinates": [ [ -72.59114, -42.72106 ], [ -72.60053, -42.74719 ], [ -72.61245, -42.76593 ], [ -72.61969, -42.77551 ] ] } },
{ "type": "Feature", "properties": { "tipo": "trunk", "nombre": "Ruta 235 CH", "ref": "235", "color": "#f4a261" }, "geometry": { "type": "LineString", "coordinates": [ [ -72.36787, -43.40991 ], [ -72.36184, -43.41279 ] ] } },
{ "type": "Feature", "properties": { "tipo": "trunk", "nombre": "Carretera Austral", "ref": "7", "color": "#f4a261" }, "geometry": { "type": "LineString", "coordinates": [ [ -72.48532, -43.01048 ], [ -72.48346, -43.01012 ] ] } },
{ "type": "Feature", "properties": { "tipo": "trunk", "nombre": "Carretera Austral", "ref": "7", "color": "#f4a261" }, "geometry": { "type": "LineString", "coordinates": [ [ -72.47958, -43.00957 ], [ -72.47986, -43.0094 ] ] } },
{ "type": "Feature", "properties": { "tipo": "trunk", "nombre": "Carretera Austral", "ref": "7", "color": "#f4a261" }, "geometry": { "type": "LineString", "coordinates": [ [ -72.7185, -42.91118 ], [ -72.71625, -42.9116 ] ] } },
{ "type": "Feature", "properties": { "tipo": "trunk", "nombre": "Carretera Austral", "ref": "7", "color": "#f4a261" }, "geometry": { "type": "LineString", "coordinates": [ [ -72.71625, -42.9116 ], [ -72.71567, -42.91172 ] ] } },
{ "type": "Feature", "properties": { "tipo": "trunk", "nombre": "Carretera Austral", "ref": "7", "color": "#f4a261" }, "geometry": { "type": "LineString", "coordinates": [ [ -72.71213, -42.91441 ], [ -72.71234, -42.91397 ] ] } },
{ "type": "Feature", "properties": { "tipo": "trunk", "nombre": "Avenida Corcovado", "ref": "7", "color": "#f4a261" }, "geometry": { "type": "LineString", "coordinates": [ [ -72.71213, -42.91441 ], [ -72.71235, -42.91554 ] ] } },
{ "type": "Feature", "properties": { "tipo": "trunk", "nombre": "Carretera Austral", "ref": "7", "color": "#f4a261" }, "geometry": { "type": "LineString", "coordinates": [ [ -72.79491, -42.85169 ], [ -72.79488, -42.85193 ] ] } },
{ "type": "Feature", "properties": { "tipo": "trunk", "nombre": "Carretera Austral", "ref": "7", "color": "#f4a261" }, "geometry": { "type": "LineString", "coordinates": [ [ -72.79514, -42.84995 ], [ -72.79491, -42.85169 ] ] } },
{ "type": "Feature", "properties": { "tipo": "trunk", "nombre": "Carretera Austral", "ref": "7", "color": "#f4a261" }, "geometry": { "type": "LineString", "coordinates": [ [ -72.79445, -42.84751 ], [ -72.79513, -42.84919 ] ] } },
{ "type": "Feature", "properties": { "tipo": "trunk", "nombre": "Carretera Austral", "ref": "7", "color": "#f4a261" }, "geometry": { "type": "LineString", "coordinates": [ [ -72.36782, -43.41718 ], [ -72.36779, -43.42263 ] ] } },
{ "type": "Feature", "properties": { "tipo": "trunk", "nombre": "Carretera Austral", "ref": "7", "color": "#f4a261" }, "geometry": { "type": "LineString", "coordinates": [ [ -72.36784, -43.41237 ], [ -72.36782, -43.41718 ] ] } },
{ "type": "Feature", "properties": { "tipo": "trunk", "nombre": "Carretera Austral", "ref": "7", "color": "#f4a261" }, "geometry": { "type": "LineString", "coordinates": [ [ -72.35495, -43.45157 ], [ -72.35155, -43.46946 ] ] } },
{ "type": "Feature", "properties": { "tipo": "trunk", "nombre": "Carretera Austral", "ref": "7", "color": "#f4a261" }, "geometry": { "type": "LineString", "coordinates": [ [ -72.71318, -42.91284 ], [ -72.71248, -42.91345 ] ] } },
{ "type": "Feature", "properties": { "tipo": "trunk", "nombre": "Carretera Austral", "ref": "7", "color": "#f4a261" }, "geometry": { "type": "LineString", "coordinates": [ [ -72.71248, -42.91345 ], [ -72.71234, -42.91397 ] ] } },
{ "type": "Feature", "properties": { "tipo": "trunk", "nombre": "Carretera Austral", "ref": "7", "color": "#f4a261" }, "geometry": { "type": "LineString", "coordinates": [ [ -72.66793, -42.9495 ], [ -72.64753, -42.95415 ], [ -72.64686, -42.95397 ] ] } },
{ "type": "Feature", "properties": { "tipo": "trunk", "nombre": "Carretera Austral", "ref": "7", "color": "#f4a261" }, "geometry": { "type": "LineString", "coordinates": [ [ -72.66814, -42.9493 ], [ -72.66793, -42.9495 ] ] } },
{ "type": "Feature", "properties": { "tipo": "trunk", "nombre": "Carretera Austral", "ref": "7", "color": "#f4a261" }, "geometry": { "type": "LineString", "coordinates": [ [ -72.73987, -42.88986 ], [ -72.73962, -42.88999 ] ] } },
{ "type": "Feature", "properties": { "tipo": "trunk", "nombre": "Carretera Austral", "ref": "7", "color": "#f4a261" }, "geometry": { "type": "LineString", "coordinates": [ [ -72.74935, -42.88441 ], [ -72.73987, -42.88986 ] ] } },
{ "type": "Feature", "properties": { "tipo": "trunk", "nombre": "Carretera Austral", "ref": "7", "color": "#f4a261" }, "geometry": { "type": "LineString", "coordinates": [ [ -72.74948, -42.88431 ], [ -72.74935, -42.88441 ] ] } },
{ "type": "Feature", "properties": { "tipo": "trunk", "nombre": "Carretera Austral", "ref": "7", "color": "#f4a261" }, "geometry": { "type": "LineString", "coordinates": [ [ -72.75104, -42.8831 ], [ -72.74948, -42.88431 ] ] } },
{ "type": "Feature", "properties": { "tipo": "trunk", "nombre": "Carretera Austral", "ref": "7", "color": "#f4a261" }, "geometry": { "type": "LineString", "coordinates": [ [ -72.75147, -42.88278 ], [ -72.75104, -42.8831 ] ] } },
{ "type": "Feature", "properties": { "tipo": "trunk", "nombre": "Carretera Austral", "ref": "7", "color": "#f4a261" }, "geometry": { "type": "LineString", "coordinates": [ [ -72.79413, -42.85568 ], [ -72.7756, -42.86975 ], [ -72.75443, -42.88062 ], [ -72.75147, -42.88278 ] ] } },
{ "type": "Feature", "properties": { "tipo": "trunk", "nombre": "Carretera Austral", "ref": "7", "color": "#f4a261" }, "geometry": { "type": "LineString", "coordinates": [ [ -72.71907, -42.90953 ], [ -72.7185, -42.91118 ] ] } },
{ "type": "Feature", "properties": { "tipo": "trunk", "nombre": "Carretera Austral", "ref": "7", "color": "#f4a261" }, "geometry": { "type": "LineString", "coordinates": [ [ -72.7942, -42.85536 ], [ -72.79413, -42.85568 ] ] } },
{ "type": "Feature", "properties": { "tipo": "trunk", "nombre": "Carretera Austral", "ref": "7", "color": "#f4a261" }, "geometry": { "type": "LineString", "coordinates": [ [ -72.79488, -42.85193 ], [ -72.7942, -42.85536 ] ] } },
{ "type": "Feature", "properties": { "tipo": "trunk", "nombre": "Ignacio Carrera Pinto", "ref": "7", "color": "#f4a261" }, "geometry": { "type": "LineString", "coordinates": [ [ -72.70457, -42.91871 ], [ -72.7049, -42.91864 ] ] } },
{ "type": "Feature", "properties": { "tipo": "trunk", "nombre": "Ignacio Carrera Pinto", "ref": "7", "color": "#f4a261" }, "geometry": { "type": "LineString", "coordinates": [ [ -72.70491, -42.91871 ], [ -72.70457, -42.91871 ] ] } },
{ "type": "Feature", "properties": { "tipo": "trunk", "nombre": "Carretera Austral", "ref": "7", "color": "#f4a261" }, "geometry": { "type": "LineString", "coordinates": [ [ -72.71906, -42.90989 ], [ -72.719, -42.90955 ] ] } },
{ "type": "Feature", "properties": { "tipo": "trunk", "nombre": "Carretera Austral", "ref": "7", "color": "#f4a261" }, "geometry": { "type": "LineString", "coordinates": [ [ -72.70324, -42.91882 ], [ -72.70313, -42.91884 ] ] } },
{ "type": "Feature", "properties": { "tipo": "trunk", "nombre": "Carretera Austral", "ref": "7", "color": "#f4a261" }, "geometry": { "type": "LineString", "coordinates": [ [ -72.70313, -42.91884 ], [ -72.70264, -42.91914 ] ] } },
{ "type": "Feature", "properties": { "tipo": "trunk", "nombre": "Avenida Corcovado", "ref": "7", "color": "#f4a261" }, "geometry": { "type": "LineString", "coordinates": [ [ -72.71205, -42.9145 ], [ -72.71213, -42.91441 ] ] } },
{ "type": "Feature", "properties": { "tipo": "trunk", "nombre": "Carretera Austral", "ref": "7", "color": "#f4a261" }, "geometry": { "type": "LineString", "coordinates": [ [ -72.71892, -42.90861 ], [ -72.71907, -42.90953 ] ] } },
{ "type": "Feature", "properties": { "tipo": "trunk", "nombre": "Carretera Austral", "ref": "7", "color": "#f4a261" }, "geometry": { "type": "LineString", "coordinates": [ [ -72.7189, -42.90744 ], [ -72.71892, -42.90861 ] ] } },
{ "type": "Feature", "properties": { "tipo": "trunk", "nombre": "Carretera Austral", "ref": "7", "color": "#f4a261" }, "geometry": { "type": "LineString", "coordinates": [ [ -72.71886, -42.90636 ], [ -72.7189, -42.90744 ] ] } },
{ "type": "Feature", "properties": { "tipo": "trunk", "nombre": "Carretera Austral", "ref": "7", "color": "#f4a261" }, "geometry": { "type": "LineString", "coordinates": [ [ -72.719, -42.90955 ], [ -72.7189, -42.90744 ] ] } },
{ "type": "Feature", "properties": { "tipo": "trunk", "nombre": "Carretera Austral", "ref": "7", "color": "#f4a261" }, "geometry": { "type": "LineString", "coordinates": [ [ -72.45409, -43.10604 ], [ -72.45411, -43.10652 ] ] } },
{ "type": "Feature", "properties": { "tipo": "trunk", "nombre": "Carretera Austral", "ref": "7", "color": "#f4a261" }, "geometry": { "type": "LineString", "coordinates": [ [ -72.45411, -43.10652 ], [ -72.45413, -43.10689 ] ] } },
{ "type": "Feature", "properties": { "tipo": "trunk", "nombre": "Carretera Austral", "ref": "7", "color": "#f4a261" }, "geometry": { "type": "LineString", "coordinates": [ [ -72.40447, -43.34432 ], [ -72.40428, -43.34515 ] ] } },
{ "type": "Feature", "properties": { "tipo": "trunk", "nombre": "Carretera Austral", "ref": "7", "color": "#f4a261" }, "geometry": { "type": "LineString", "coordinates": [ [ -72.40618, -43.34948 ], [ -72.4029, -43.34918 ] ] } }
]
}
