{
"type": "FeatureCollection",
"name": "DGR",
"crs": { "type": "name", "properties": { "name": "urn:ogc:def:crs:OGC:1.3:CRS84" } },
"xy_coordinate_resolution": 1e-05,
"features": [
{ "type": "Feature", "properties": { "tipo": "trunk", "nombre": "Ruta 115 CH", "ref": "115", "color": "#f4a261" }, "geometry": { "type": "LineString", "coordinates": [ [ -70.82638, -35.81886 ], [ -70.81028, -35.82247 ] ] } },
{ "type": "Feature", "properties": { "tipo": "trunk", "nombre": "Ruta 115 CH", "ref": "115", "color": "#f4a261" }, "geometry": { "type": "LineString", "coordinates": [ [ -70.76088, -35.8246 ], [ -70.74097, -35.82982 ], [ -70.73958, -35.83071 ] ] } },
{ "type": "Feature", "properties": { "tipo": "trunk", "nombre": "Ruta 115 CH", "ref": "115", "color": "#f4a261" }, "geometry": { "type": "LineString", "coordinates": [ [ -70.72931, -35.83098 ], [ -70.71016, -35.83815 ], [ -70.70501, -35.84544 ] ] } },
{ "type": "Feature", "properties": { "tipo": "trunk", "nombre": "Ruta 115 CH", "ref": "115", "color": "#f4a261" }, "geometry": { "type": "LineString", "coordinates": [ [ -71.07839, -35.70979 ], [ -71.10066, -35.70737 ], [ -71.11685, -35.71605 ] ] } },
{ "type": "Feature", "properties": { "tipo": "trunk", "nombre": "Ruta 115 CH", "ref": "115", "color": "#f4a261" }, "geometry": { "type": "LineString", "coordinates": [ [ -71.07486, -35.71 ], [ -71.07839, -35.70979 ] ] } },
{ "type": "Feature", "properties": { "tipo": "trunk", "nombre": "Ruta 115 CH", "ref": "115", "color": "#f4a261" }, "geometry": { "type": "LineString", "coordinates": [ [ -70.56892, -35.96965 ], [ -70.55964, -35.99088 ], [ -70.55952, -35.99887 ] ] } },
{ "type": "Feature", "properties": { "tipo": "trunk", "nombre": "Ruta 115 CH", "ref": "115", "color": "#f4a261" }, "geometry": { "type": "LineString", "coordinates": [ [ -70.57277, -35.96288 ], [ -70.57267, -35.96298 ] ] } },
{ "type": "Feature", "properties": { "tipo": "trunk", "nombre": "Ruta 115 CH", "ref": "115", "color": "#f4a261" }, "geometry": { "type": "LineString", "coordinates": [ [ -71.00245, -35.75743 ], [ -71.00261, -35.75712 ] ] } },
{ "type": "Feature", "properties": { "tipo": "trunk", "nombre": "Ruta 115 CH", "ref": "115", "color": "#f4a261" }, "geometry": { "type": "LineString", "coordinates": [ [ -71.02468, -35.72469 ], [ -71.04942, -35.71398 ], [ -71.07486, -35.71 ] ] } },
{ "type": "Feature", "properties": { "tipo": "trunk", "nombre": "Ruta 115 CH", "ref": "115", "color": "#f4a261" }, "geometry": { "type": "LineString", "coordinates": [ [ -70.70501, -35.84544 ], [ -70.70373, -35.84615 ] ] } },
{ "type": "Feature", "properties": { "tipo": "trunk", "nombre": "Ruta 115 CH", "ref": "115", "color": "#f4a261" }, "geometry": { "type": "LineString", "coordinates": [ [ -70.93159, -35.80384 ], [ -70.93068, -35.80431 ] ] } },
{ "type": "Feature", "properties": { "tipo": "trunk", "nombre": "Ruta 115 CH", "ref": "115", "color": "#f4a261" }, "geometry": { "type": "LineString", "coordinates": [ [ -70.84441, -35.81562 ], [ -70.84409, -35.81572 ] ] } },
{ "type": "Feature", "properties": { "tipo": "trunk", "nombre": "Ruta 115 CH", "ref": "115", "color": "#f4a261" }, "geometry": { "type": "LineString", "coordinates": [ [ -70.946, -35.80746 ], [ -70.93306, -35.8039 ] ] } },
{ "type": "Feature", "properties": { "tipo": "trunk", "nombre": "Ruta 115 CH", "ref": "115", "color": "#f4a261" }, "geometry": { "type": "LineString", "coordinates": [ [ -70.92526, -35.8035 ], [ -70.90008, -35.80146 ], [ -70.88006, -35.80866 ], [ -70.87226, -35.81229 ] ] } },
{ "type": "Feature", "properties": { "tipo": "trunk", "nombre": "Ruta 115 CH", "ref": "115", "color": "#f4a261" }, "geometry": { "type": "LineString", "coordinates": [ [ -70.97848, -35.79728 ], [ -70.95812, -35.8065 ], [ -70.95407, -35.80656 ] ] } },
{ "type": "Feature", "properties": { "tipo": "trunk", "nombre": "Ruta 115 CH", "ref": "115", "color": "#f4a261" }, "geometry": { "type": "LineString", "coordinates": [ [ -70.94649, -35.80716 ], [ -70.946, -35.80746 ] ] } },
{ "type": "Feature", "properties": { "tipo": "trunk", "nombre": "Ruta 115 CH", "ref": "115", "color": "#f4a261" }, "geometry": { "type": "LineString", "coordinates": [ [ -70.98631, -35.79336 ], [ -70.98567, -35.79376 ] ] } },
{ "type": "Feature", "properties": { "tipo": "trunk", "nombre": "Ruta 115 CH", "ref": "115", "color": "#f4a261" }, "geometry": { "type": "LineString", "coordinates": [ [ -70.95281, -35.80667 ], [ -70.94649, -35.80716 ] ] } },
{ "type": "Feature", "properties": { "tipo": "trunk", "nombre": "Ruta 115 CH", "ref": "115", "color": "#f4a261" }, "geometry": { "type": "LineString", "coordinates": [ [ -70.9535, -35.80661 ], [ -70.95281, -35.80667 ] ] } },
{ "type": "Feature", "properties": { "tipo": "trunk", "nombre": "Ruta 115 CH", "ref": "115", "color": "#f4a261" }, "geometry": { "type": "LineString", "coordinates": [ [ -70.99291, -35.7783 ], [ -70.99118, -35.78728 ] ] } },
{ "type": "Feature", "properties": { "tipo": "trunk", "nombre": "Ruta 115 CH", "ref": "115", "color": "#f4a261" }, "geometry": { "type": "LineString", "coordinates": [ [ -71.12368, -35.71315 ], [ -71.12228, -35.71424 ] ] } },
{ "type": "Feature", "properties": { "tipo": "trunk", "nombre": "Ruta 115 CH", "ref": "115", "color": "#f4a261" }, "geometry": { "type": "LineString", "coordinates": [ [ -71.12382, -35.71305 ], [ -71.12368, -35.71315 ] ] } },
{ "type": "Feature", "properties": { "tipo": "trunk", "nombre": "Ruta 115 CH", "ref": "115", "color": "#f4a261" }, "geometry": { "type": "LineString", "coordinates": [ [ -71.14213, -35.71794 ], [ -71.12525, -35.7136 ] ] } },
{ "type": "Feature", "properties": { "tipo": "trunk", "nombre": "Ruta 115 CH", "ref": "115", "color": "#f4a261" }, "geometry": { "type": "LineString", "coordinates": [ [ -71.1423, -35.71806 ], [ -71.14213, -35.71794 ] ] } },
{ "type": "Feature", "properties": { "tipo": "trunk", "nombre": "Ruta 115 CH", "ref": "115", "color": "#f4a261" }, "geometry": { "type": "LineString", "coordinates": [ [ -71.12395, -35.713 ], [ -71.12382, -35.71305 ] ] } },
{ "type": "Feature", "properties": { "tipo": "trunk", "nombre": "Ruta 115 CH", "ref": "115", "color": "#f4a261" }, "geometry": { "type": "LineString", "coordinates": [ [ -71.19136, -35.72146 ], [ -71.16978, -35.72248 ], [ -71.14321, -35.7185 ], [ -71.1423, -35.71806 ] ] } },
{ "type": "Feature", "properties": { "tipo": "trunk", "nombre": "Ruta 115 CH", "ref": "115", "color": "#f4a261" }, "geometry": { "type": "LineString", "coordinates": [ [ -71.22131, -35.68732 ], [ -71.21356, -35.70926 ], [ -71.19868, -35.71995 ] ] } },
{ "type": "Feature", "properties": { "tipo": "trunk", "nombre": "Ruta 115 CH", "ref": "115", "color": "#f4a261" }, "geometry": { "type": "LineString", "coordinates": [ [ -71.19292, -35.72088 ], [ -71.19263, -35.72099 ] ] } },
{ "type": "Feature", "properties": { "tipo": "trunk", "nombre": "Ruta 115 CH", "ref": "115", "color": "#f4a261" }, "geometry": { "type": "LineString", "coordinates": [ [ -71.22019, -35.67602 ], [ -71.22001, -35.67622 ] ] } },
{ "type": "Feature", "properties": { "tipo": "trunk", "nombre": "Ruta 115 CH", "ref": "115", "color": "#f4a261" }, "geometry": { "type": "LineString", "coordinates": [ [ -71.25955, -35.64446 ], [ -71.24324, -35.66087 ], [ -71.2234, -35.67261 ], [ -71.22019, -35.67602 ] ] } },
{ "type": "Feature", "properties": { "tipo": "trunk", "nombre": "Ruta 115 CH", "ref": "115", "color": "#f4a261" }, "geometry": { "type": "LineString", "coordinates": [ [ -71.22001, -35.67622 ], [ -71.21999, -35.68318 ] ] } },
{ "type": "Feature", "properties": { "tipo": "trunk", "nombre": "Ruta 115 CH", "ref": "115", "color": "#f4a261" }, "geometry": { "type": "LineString", "coordinates": [ [ -71.22001, -35.68337 ], [ -71.2213, -35.68715 ] ] } },
{ "type": "Feature", "properties": { "tipo": "trunk", "nombre": "Ruta 115 CH", "ref": "115", "color": "#f4a261" }, "geometry": { "type": "LineString", "coordinates": [ [ -71.2213, -35.68715 ], [ -71.22131, -35.68732 ] ] } },
{ "type": "Feature", "properties": { "tipo": "trunk", "nombre": "Ruta 115 CH", "ref": "115", "color": "#f4a261" }, "geometry": { "type": "LineString", "coordinates": [ [ -71.21999, -35.68318 ], [ -71.22001, -35.68337 ] ] } },
{ "type": "Feature", "properties": { "tipo": "trunk", "nombre": "Ruta 115 CH", "ref": "115", "color": "#f4a261" }, "geometry": { "type": "LineString", "coordinates": [ [ -71.27471, -35.62677 ], [ -71.27455, -35.62692 ] ] } },
{ "type": "Feature", "properties": { "tipo": "trunk", "nombre": "Ruta 115 CH", "ref": "115", "color": "#f4a261" }, "geometry": { "type": "LineString", "coordinates": [ [ -70.93068, -35.80431 ], [ -70.92725, -35.80405 ] ] } },
{ "type": "Feature", "properties": { "tipo": "trunk", "nombre": "Ruta 115 CH", "ref": "115", "color": "#f4a261" }, "geometry": { "type": "LineString", "coordinates": [ [ -70.83649, -35.81709 ], [ -70.83202, -35.81646 ] ] } },
{ "type": "Feature", "properties": { "tipo": "trunk", "nombre": "Ruta 115 CH", "ref": "115", "color": "#f4a261" }, "geometry": { "type": "LineString", "coordinates": [ [ -70.70373, -35.84615 ], [ -70.68497, -35.85588 ], [ -70.67618, -35.87616 ] ] } },
{ "type": "Feature", "properties": { "tipo": "trunk", "nombre": "Ruta 115 CH", "ref": "115", "color": "#f4a261" }, "geometry": { "type": "LineString", "coordinates": [ [ -70.76377, -35.82413 ], [ -70.77227, -35.82202 ] ] } },
{ "type": "Feature", "properties": { "tipo": "trunk", "nombre": "Ruta 115 CH", "ref": "115", "color": "#f4a261" }, "geometry": { "type": "LineString", "coordinates": [ [ -70.6746, -35.87662 ], [ -70.65669, -35.88617 ], [ -70.64742, -35.89274 ] ] } },
{ "type": "Feature", "properties": { "tipo": "trunk", "nombre": "Ruta 115 CH", "ref": "115", "color": "#f4a261" }, "geometry": { "type": "LineString", "coordinates": [ [ -70.73555, -35.83148 ], [ -70.73507, -35.83164 ] ] } },
{ "type": "Feature", "properties": { "tipo": "trunk", "nombre": "Ruta 115 CH", "ref": "115", "color": "#f4a261" }, "geometry": { "type": "LineString", "coordinates": [ [ -70.59077, -35.95397 ], [ -70.57277, -35.96288 ] ] } },
{ "type": "Feature", "properties": { "tipo": "trunk", "nombre": "Ruta 115 CH", "ref": "115", "color": "#f4a261" }, "geometry": { "type": "LineString", "coordinates": [ [ -70.60033, -35.94862 ], [ -70.60028, -35.94876 ] ] } },
{ "type": "Feature", "properties": { "tipo": "trunk", "nombre": "Ruta 115 CH", "ref": "115", "color": "#f4a261" }, "geometry": { "type": "LineString", "coordinates": [ [ -70.67542, -35.87644 ], [ -70.6746, -35.87662 ] ] } },
{ "type": "Feature", "properties": { "tipo": "trunk", "nombre": "Ruta 115 CH", "ref": "115", "color": "#f4a261" }, "geometry": { "type": "LineString", "coordinates": [ [ -70.67618, -35.87616 ], [ -70.67542, -35.87644 ] ] } },
{ "type": "Feature", "properties": { "tipo": "trunk", "nombre": "Ruta 115 CH", "ref": "115", "color": "#f4a261" }, "geometry": { "type": "LineString", "coordinates": [ [ -70.8011, -35.8246 ], [ -70.79594, -35.82447 ] ] } },
{ "type": "Feature", "properties": { "tipo": "trunk", "nombre": "Ruta 115 CH", "ref": "115", "color": "#f4a261" }, "geometry": { "type": "LineString", "coordinates": [ [ -70.80131, -35.82457 ], [ -70.8011, -35.8246 ] ] } },
{ "type": "Feature", "properties": { "tipo": "trunk", "nombre": "Ruta 115 CH", "ref": "115", "color": "#f4a261" }, "geometry": { "type": "LineString", "coordinates": [ [ -70.79594, -35.82447 ], [ -70.79542, -35.82425 ] ] } },
{ "type": "Feature", "properties": { "tipo": "trunk", "nombre": "Ruta 115 CH", "ref": "115", "color": "#f4a261" }, "geometry": { "type": "LineString", "coordinates": [ [ -70.79542, -35.82425 ], [ -70.78543, -35.82115 ] ] } },
{ "type": "Feature", "properties": { "tipo": "trunk", "nombre": "Ruta 115 CH", "ref": "115", "color": "#f4a261" }, "geometry": { "type": "LineString", "coordinates": [ [ -70.84179, -35.8164 ], [ -70.84147, -35.81649 ] ] } },
{ "type": "Feature", "properties": { "tipo": "trunk", "nombre": "Ruta 115 CH", "ref": "115", "color": "#f4a261" }, "geometry": { "type": "LineString", "coordinates": [ [ -70.84409, -35.81572 ], [ -70.84179, -35.8164 ] ] } },
{ "type": "Feature", "properties": { "tipo": "trunk", "nombre": "Ruta 115 CH", "ref": "115", "color": "#f4a261" }, "geometry": { "type": "LineString", "coordinates": [ [ -70.82685, -35.81889 ], [ -70.82638, -35.81886 ] ] } },
{ "type": "Feature", "properties": { "tipo": "trunk", "nombre": "Ruta 115 CH", "ref": "115", "color": "#f4a261" }, "geometry": { "type": "LineString", "coordinates": [ [ -70.83202, -35.81646 ], [ -70.8285, -35.81821 ] ] } },
{ "type": "Feature", "properties": { "tipo": "trunk", "nombre": "Ruta 115 CH", "ref": "115", "color": "#f4a261" }, "geometry": { "type": "LineString", "coordinates": [ [ -70.87226, -35.81229 ], [ -70.87192, -35.8123 ] ] } },
{ "type": "Feature", "properties": { "tipo": "trunk", "nombre": "Ruta 115 CH", "ref": "115", "color": "#f4a261" }, "geometry": { "type": "LineString", "coordinates": [ [ -70.87192, -35.8123 ], [ -70.87169, -35.81232 ] ] } },
{ "type": "Feature", "properties": { "tipo": "trunk", "nombre": "Ruta 115 CH", "ref": "115", "color": "#f4a261" }, "geometry": { "type": "LineString", "coordinates": [ [ -70.87169, -35.81232 ], [ -70.8714, -35.81233 ] ] } },
{ "type": "Feature", "properties": { "tipo": "trunk", "nombre": "Ruta 115 CH", "ref": "115", "color": "#f4a261" }, "geometry": { "type": "LineString", "coordinates": [ [ -70.8714, -35.81233 ], [ -70.84953, -35.81418 ], [ -70.84441, -35.81562 ] ] } },
{ "type": "Feature", "properties": { "tipo": "trunk", "nombre": "Ruta 115 CH", "ref": "115", "color": "#f4a261" }, "geometry": { "type": "LineString", "coordinates": [ [ -70.77271, -35.82193 ], [ -70.78543, -35.82115 ] ] } },
{ "type": "Feature", "properties": { "tipo": "trunk", "nombre": "Ruta 115 CH", "ref": "115", "color": "#f4a261" }, "geometry": { "type": "LineString", "coordinates": [ [ -70.77227, -35.82202 ], [ -70.77271, -35.82193 ] ] } },
{ "type": "Feature", "properties": { "tipo": "trunk", "nombre": "Ruta 115 CH", "ref": "115", "color": "#f4a261" }, "geometry": { "type": "LineString", "coordinates": [ [ -70.61411, -35.9329 ], [ -70.60033, -35.94862 ] ] } },
{ "type": "Feature", "properties": { "tipo": "trunk", "nombre": "Ruta 115 CH", "ref": "115", "color": "#f4a261" }, "geometry": { "type": "LineString", "coordinates": [ [ -70.6241, -35.92108 ], [ -70.62353, -35.92179 ] ] } },
{ "type": "Feature", "properties": { "tipo": "trunk", "nombre": "Ruta 115 CH", "ref": "115", "color": "#f4a261" }, "geometry": { "type": "LineString", "coordinates": [ [ -70.63261, -35.91511 ], [ -70.6294, -35.91643 ] ] } },
{ "type": "Feature", "properties": { "tipo": "trunk", "nombre": "Ruta 115 CH", "ref": "115", "color": "#f4a261" }, "geometry": { "type": "LineString", "coordinates": [ [ -70.6294, -35.91643 ], [ -70.6241, -35.92108 ] ] } },
{ "type": "Feature", "properties": { "tipo": "trunk", "nombre": "Ruta 115 CH", "ref": "115", "color": "#f4a261" }, "geometry": { "type": "LineString", "coordinates": [ [ -70.98125, -35.7958 ], [ -70.9804, -35.79625 ] ] } },
{ "type": "Feature", "properties": { "tipo": "trunk", "nombre": "Ruta 115 CH", "ref": "115", "color": "#f4a261" }, "geometry": { "type": "LineString", "coordinates": [ [ -70.98567, -35.79376 ], [ -70.98125, -35.7958 ] ] } },
{ "type": "Feature", "properties": { "tipo": "trunk", "nombre": "Ruta 115 CH", "ref": "115", "color": "#f4a261" }, "geometry": { "type": "LineString", "coordinates": [ [ -70.92725, -35.80405 ], [ -70.92685, -35.80393 ] ] } },
{ "type": "Feature", "properties": { "tipo": "trunk", "nombre": "Ruta 115 CH", "ref": "115", "color": "#f4a261" }, "geometry": { "type": "LineString", "coordinates": [ [ -70.61494, -35.93167 ], [ -70.61411, -35.9329 ] ] } },
{ "type": "Feature", "properties": { "tipo": "trunk", "nombre": "Ruta 115 CH", "ref": "115", "color": "#f4a261" }, "geometry": { "type": "LineString", "coordinates": [ [ -70.61799, -35.92721 ], [ -70.61494, -35.93167 ] ] } },
{ "type": "Feature", "properties": { "tipo": "trunk", "nombre": "Ruta 115 CH", "ref": "115", "color": "#f4a261" }, "geometry": { "type": "LineString", "coordinates": [ [ -71.27164, -35.62966 ], [ -71.26518, -35.63506 ] ] } },
{ "type": "Feature", "properties": { "tipo": "trunk", "nombre": "Ruta 115 CH", "ref": "115", "color": "#f4a261" }, "geometry": { "type": "LineString", "coordinates": [ [ -71.26331, -35.63834 ], [ -71.26289, -35.63954 ] ] } },
{ "type": "Feature", "properties": { "tipo": "trunk", "nombre": "Ruta 115 CH", "ref": "115", "color": "#f4a261" }, "geometry": { "type": "LineString", "coordinates": [ [ -71.26343, -35.63796 ], [ -71.26331, -35.63834 ] ] } },
{ "type": "Feature", "properties": { "tipo": "trunk", "nombre": "Ruta 115 CH", "ref": "115", "color": "#f4a261" }, "geometry": { "type": "LineString", "coordinates": [ [ -71.30046, -35.60211 ], [ -71.30012, -35.60244 ] ] } },
{ "type": "Feature", "properties": { "tipo": "trunk", "nombre": "Ruta 115 CH", "ref": "115", "color": "#f4a261" }, "geometry": { "type": "LineString", "coordinates": [ [ -71.2991, -35.60346 ], [ -71.29843, -35.60411 ] ] } },
{ "type": "Feature", "properties": { "tipo": "trunk", "nombre": "Ruta 115 CH", "ref": "115", "color": "#f4a261" }, "geometry": { "type": "LineString", "coordinates": [ [ -71.29779, -35.60472 ], [ -71.27471, -35.62677 ] ] } },
{ "type": "Feature", "properties": { "tipo": "trunk", "nombre": "Ruta 115 CH", "ref": "115", "color": "#f4a261" }, "geometry": { "type": "LineString", "coordinates": [ [ -70.64742, -35.89274 ], [ -70.63958, -35.91214 ], [ -70.63261, -35.91511 ] ] } },
{ "type": "Feature", "properties": { "tipo": "trunk", "nombre": "Ruta 115 CH", "ref": "115", "color": "#f4a261" }, "geometry": { "type": "LineString", "coordinates": [ [ -70.62353, -35.92179 ], [ -70.61799, -35.92721 ] ] } },
{ "type": "Feature", "properties": { "tipo": "trunk", "nombre": "Ruta 115 CH", "ref": "115", "color": "#f4a261" }, "geometry": { "type": "LineString", "coordinates": [ [ -70.60028, -35.94876 ], [ -70.59077, -35.95397 ] ] } },
{ "type": "Feature", "properties": { "tipo": "trunk", "nombre": "Ruta 115 CH", "ref": "115", "color": "#f4a261" }, "geometry": { "type": "LineString", "coordinates": [ [ -70.57267, -35.96298 ], [ -70.56892, -35.96965 ] ] } },
{ "type": "Feature", "properties": { "tipo": "trunk", "nombre": "Ruta 115 CH", "ref": "115", "color": "#f4a261" }, "geometry": { "type": "LineString", "coordinates": [ [ -71.30083, -35.60174 ], [ -71.30046, -35.60211 ] ] } },
{ "type": "Feature", "properties": { "tipo": "trunk", "nombre": "Ruta 115 CH", "ref": "115", "color": "#f4a261" }, "geometry": { "type": "LineString", "coordinates": [ [ -71.19263, -35.72099 ], [ -71.19136, -35.72146 ] ] } },
{ "type": "Feature", "properties": { "tipo": "trunk", "nombre": "Ruta 115 CH", "ref": "115", "color": "#f4a261" }, "geometry": { "type": "LineString", "coordinates": [ [ -71.00212, -35.7581 ], [ -71.00108, -35.7603 ] ] } },
{ "type": "Feature", "properties": { "tipo": "trunk", "nombre": "Ruta 115 CH", "ref": "115", "color": "#f4a261" }, "geometry": { "type": "LineString", "coordinates": [ [ -71.00261, -35.75712 ], [ -71.00349, -35.75538 ] ] } },
{ "type": "Feature", "properties": { "tipo": "trunk", "nombre": "Ruta 115 CH", "ref": "115", "color": "#f4a261" }, "geometry": { "type": "LineString", "coordinates": [ [ -71.00013, -35.7623 ], [ -70.99291, -35.7783 ] ] } },
{ "type": "Feature", "properties": { "tipo": "trunk", "nombre": "Ruta 115 CH", "ref": "115", "color": "#f4a261" }, "geometry": { "type": "LineString", "coordinates": [ [ -70.98887, -35.79068 ], [ -70.98631, -35.79336 ] ] } },
{ "type": "Feature", "properties": { "tipo": "trunk", "nombre": "Ruta 115 CH", "ref": "115", "color": "#f4a261" }, "geometry": { "type": "LineString", "coordinates": [ [ -70.73771, -35.83101 ], [ -70.73555, -35.83148 ] ] } },
{ "type": "Feature", "properties": { "tipo": "trunk", "nombre": "Ruta 115 CH", "ref": "115", "color": "#f4a261" }, "geometry": { "type": "LineString", "coordinates": [ [ -70.73507, -35.83164 ], [ -70.72931, -35.83098 ] ] } },
{ "type": "Feature", "properties": { "tipo": "trunk", "nombre": "Ruta 115 CH", "ref": "115", "color": "#f4a261" }, "geometry": { "type": "LineString", "coordinates": [ [ -70.7626, -35.82381 ], [ -70.76208, -35.824 ] ] } },
{ "type": "Feature", "properties": { "tipo": "trunk", "nombre": "Ruta 115 CH", "ref": "115", "color": "#f4a261" }, "geometry": { "type": "LineString", "coordinates": [ [ -70.7626, -35.82381 ], [ -70.76377, -35.82413 ] ] } },
{ "type": "Feature", "properties": { "tipo": "trunk", "nombre": "Ruta 115 CH", "ref": "115", "color": "#f4a261" }, "geometry": { "type": "LineString", "coordinates": [ [ -70.8285, -35.81821 ], [ -70.82685, -35.81889 ] ] } },
{ "type": "Feature", "properties": { "tipo": "trunk", "nombre": "Ruta 115 CH", "ref": "115", "color": "#f4a261" }, "geometry": { "type": "LineString", "coordinates": [ [ -70.81028, -35.82247 ], [ -70.80131, -35.82457 ] ] } },
{ "type": "Feature", "properties": { "tipo": "trunk", "nombre": "Ruta 115 CH", "ref": "115", "color": "#f4a261" }, "geometry": { "type": "LineString", "coordinates": [ [ -70.84147, -35.81649 ], [ -70.83649, -35.81709 ] ] } },
{ "type": "Feature", "properties": { "tipo": "trunk", "nombre": "Ruta 115 CH", "ref": "115", "color": "#f4a261" }, "geometry": { "type": "LineString", "coordinates": [ [ -70.92685, -35.80393 ], [ -70.92526, -35.8035 ] ] } },
{ "type": "Feature", "properties": { "tipo": "trunk", "nombre": "Ruta 115 CH", "ref": "115", "color": "#f4a261" }, "geometry": { "type": "LineString", "coordinates": [ [ -71.19868, -35.71995 ], [ -71.19762, -35.72026 ] ] } },
{ "type": "Feature", "properties": { "tipo": "trunk", "nombre": "Ruta 115 CH", "ref": "115", "color": "#f4a261" }, "geometry": { "type": "LineString", "coordinates": [ [ -71.19592, -35.72037 ], [ -71.19292, -35.72088 ] ] } },
{ "type": "Feature", "properties": { "tipo": "trunk", "nombre": "Ruta 115 CH", "ref": "115", "color": "#f4a261" }, "geometry": { "type": "LineString", "coordinates": [ [ -70.55952, -35.99887 ], [ -70.55796, -36.00277 ] ] } },
{ "type": "Feature", "properties": { "tipo": "trunk", "nombre": "Ruta 115 CH", "ref": "115", "color": "#f4a261" }, "geometry": { "type": "LineString", "coordinates": [ [ -71.26256, -35.64172 ], [ -71.25955, -35.64446 ] ] } },
{ "type": "Feature", "properties": { "tipo": "trunk", "nombre": "Ruta 115 CH", "ref": "115", "color": "#f4a261" }, "geometry": { "type": "LineString", "coordinates": [ [ -71.26378, -35.63701 ], [ -71.26354, -35.63764 ] ] } },
{ "type": "Feature", "properties": { "tipo": "trunk", "nombre": "Ruta 115 CH", "ref": "115", "color": "#f4a261" }, "geometry": { "type": "LineString", "coordinates": [ [ -71.26518, -35.63506 ], [ -71.26378, -35.63701 ] ] } },
{ "type": "Feature", "properties": { "tipo": "trunk", "nombre": "Ruta 115 CH", "ref": "115", "color": "#f4a261" }, "geometry": { "type": "LineString", "coordinates": [ [ -71.26354, -35.63764 ], [ -71.26343, -35.63796 ] ] } },
{ "type": "Feature", "properties": { "tipo": "trunk", "nombre": "Ruta 115 CH", "ref": "115", "color": "#f4a261" }, "geometry": { "type": "LineString", "coordinates": [ [ -71.27373, -35.62771 ], [ -71.27164, -35.62966 ] ] } },
{ "type": "Feature", "properties": { "tipo": "trunk", "nombre": "Ruta 115 CH", "ref": "115", "color": "#f4a261" }, "geometry": { "type": "LineString", "coordinates": [ [ -71.27455, -35.62692 ], [ -71.27373, -35.62771 ] ] } },
{ "type": "Feature", "properties": { "tipo": "trunk", "nombre": "Ruta 115 CH", "ref": "115", "color": "#f4a261" }, "geometry": { "type": "LineString", "coordinates": [ [ -70.73828, -35.83096 ], [ -70.73771, -35.83101 ] ] } },
{ "type": "Feature", "properties": { "tipo": "trunk", "nombre": "Ruta 115 CH", "ref": "115", "color": "#f4a261" }, "geometry": { "type": "LineString", "coordinates": [ [ -70.73958, -35.83071 ], [ -70.73828, -35.83096 ] ] } },
{ "type": "Feature", "properties": { "tipo": "trunk", "nombre": "Ruta 115 CH", "ref": "115", "color": "#f4a261" }, "geometry": { "type": "LineString", "coordinates": [ [ -70.9804, -35.79625 ], [ -70.97848, -35.79728 ] ] } },
{ "type": "Feature", "properties": { "tipo": "trunk", "nombre": "Ruta 115 CH", "ref": "115", "color": "#f4a261" }, "geometry": { "type": "LineString", "coordinates": [ [ -71.12404, -35.71299 ], [ -71.12395, -35.713 ] ] } },
{ "type": "Feature", "properties": { "tipo": "trunk", "nombre": "Ruta 115 CH", "ref": "115", "color": "#f4a261" }, "geometry": { "type": "LineString", "coordinates": [ [ -71.12525, -35.7136 ], [ -71.12404, -35.71299 ] ] } },
{ "type": "Feature", "properties": { "tipo": "trunk", "nombre": "Ruta 115 CH", "ref": "115", "color": "#f4a261" }, "geometry": { "type": "LineString", "coordinates": [ [ -71.29843, -35.60411 ], [ -71.29779, -35.60472 ] ] } },
{ "type": "Feature", "properties": { "tipo": "trunk", "nombre": "Ruta 115 CH", "ref": "115", "color": "#f4a261" }, "geometry": { "type": "LineString", "coordinates": [ [ -71.29928, -35.60328 ], [ -71.2991, -35.60346 ] ] } },
{ "type": "Feature", "properties": { "tipo": "trunk", "nombre": "Ruta 115 CH", "ref": "115", "color": "#f4a261" }, "geometry": { "type": "LineString", "coordinates": [ [ -71.29951, -35.60304 ], [ -71.29928, -35.60328 ] ] } },
{ "type": "Feature", "properties": { "tipo": "trunk", "nombre": "Ruta 115 CH", "ref": "115", "color": "#f4a261" }, "geometry": { "type": "LineString", "coordinates": [ [ -71.29976, -35.6028 ], [ -71.29957, -35.60299 ] ] } },
{ "type": "Feature", "properties": { "tipo": "trunk", "nombre": "Ruta 115 CH", "ref": "115", "color": "#f4a261" }, "geometry": { "type": "LineString", "coordinates": [ [ -71.29957, -35.60299 ], [ -71.29951, -35.60304 ] ] } },
{ "type": "Feature", "properties": { "tipo": "trunk", "nombre": "Ruta 115 CH", "ref": "115", "color": "#f4a261" }, "geometry": { "type": "LineString", "coordinates": [ [ -71.30012, -35.60244 ], [ -71.29976, -35.6028 ] ] } },
{ "type": "Feature", "properties": { "tipo": "trunk", "nombre": "Ruta 115 CH", "ref": "115", "color": "#f4a261" }, "geometry": { "type": "LineString", "coordinates": [ [ -71.26254, -35.6414 ], [ -71.26256, -35.64172 ] ] } },
{ "type": "Feature", "properties": { "tipo": "trunk", "nombre": "Ruta 115 CH", "ref": "115", "color": "#f4a261" }, "geometry": { "type": "LineString", "coordinates": [ [ -71.26254, -35.64131 ], [ -71.26254, -35.6414 ] ] } },
{ "type": "Feature", "properties": { "tipo": "trunk", "nombre": "Ruta 115 CH", "ref": "115", "color": "#f4a261" }, "geometry": { "type": "LineString", "coordinates": [ [ -71.26255, -35.64101 ], [ -71.26254, -35.64131 ] ] } },
{ "type": "Feature", "properties": { "tipo": "trunk", "nombre": "Ruta 115 CH", "ref": "115", "color": "#f4a261" }, "geometry": { "type": "LineString", "coordinates": [ [ -71.26289, -35.63954 ], [ -71.26255, -35.64101 ] ] } },
{ "type": "Feature", "properties": { "tipo": "trunk", "nombre": "Ruta 115 CH", "ref": "115", "color": "#f4a261" }, "geometry": { "type": "LineString", "coordinates": [ [ -71.11785, -35.71645 ], [ -71.11767, -35.71642 ] ] } },
{ "type": "Feature", "properties": { "tipo": "trunk", "nombre": "Ruta 115 CH", "ref": "115", "color": "#f4a261" }, "geometry": { "type": "LineString", "coordinates": [ [ -71.118, -35.71645 ], [ -71.11785, -35.71645 ] ] } },
{ "type": "Feature", "properties": { "tipo": "trunk", "nombre": "Ruta 115 CH", "ref": "115", "color": "#f4a261" }, "geometry": { "type": "LineString", "coordinates": [ [ -71.11685, -35.71605 ], [ -71.11726, -35.71622 ] ] } },
{ "type": "Feature", "properties": { "tipo": "trunk", "nombre": "Ruta 115 CH", "ref": "115", "color": "#f4a261" }, "geometry": { "type": "LineString", "coordinates": [ [ -71.11862, -35.71629 ], [ -71.11905, -35.71616 ] ] } },
{ "type": "Feature", "properties": { "tipo": "trunk", "nombre": "Ruta 115 CH", "ref": "115", "color": "#f4a261" }, "geometry": { "type": "LineString", "coordinates": [ [ -71.11726, -35.71622 ], [ -71.11787, -35.71634 ] ] } },
{ "type": "Feature", "properties": { "tipo": "trunk", "nombre": "Ruta 115 CH", "ref": "115", "color": "#f4a261" }, "geometry": { "type": "LineString", "coordinates": [ [ -71.11714, -35.71625 ], [ -71.11685, -35.71605 ] ] } },
{ "type": "Feature", "properties": { "tipo": "trunk", "nombre": "Ruta 115 CH", "ref": "115", "color": "#f4a261" }, "geometry": { "type": "LineString", "coordinates": [ [ -71.11767, -35.71642 ], [ -71.11714, -35.71625 ] ] } },
{ "type": "Feature", "properties": { "tipo": "trunk", "nombre": "Ruta 115 CH", "ref": "115", "color": "#f4a261" }, "geometry": { "type": "LineString", "coordinates": [ [ -71.11864, -35.71636 ], [ -71.118, -35.71645 ] ] } },
{ "type": "Feature", "properties": { "tipo": "trunk", "nombre": "Ruta 115 CH", "ref": "115", "color": "#f4a261" }, "geometry": { "type": "LineString", "coordinates": [ [ -71.11905, -35.71616 ], [ -71.11864, -35.71636 ] ] } },
{ "type": "Feature", "properties": { "tipo": "trunk", "nombre": "Ruta 115 CH", "ref": "115", "color": "#f4a261" }, "geometry": { "type": "LineString", "coordinates": [ [ -71.11787, -35.71634 ], [ -71.11862, -35.71629 ] ] } },
{ "type": "Feature", "properties": { "tipo": "trunk", "nombre": "Ruta 115 CH", "ref": "115", "color": "#f4a261" }, "geometry": { "type": "LineString", "coordinates": [ [ -71.12228, -35.71424 ], [ -71.11905, -35.71616 ] ] } },
{ "type": "Feature", "properties": { "tipo": "trunk", "nombre": "Ruta 115 CH", "ref": "115", "color": "#f4a261" }, "geometry": { "type": "LineString", "coordinates": [ [ -71.02149, -35.72609 ], [ -71.02468, -35.72469 ] ] } },
{ "type": "Feature", "properties": { "tipo": "trunk", "nombre": "Ruta 115 CH", "ref": "115", "color": "#f4a261" }, "geometry": { "type": "LineString", "coordinates": [ [ -71.02084, -35.72637 ], [ -71.02149, -35.72609 ] ] } },
{ "type": "Feature", "properties": { "tipo": "trunk", "nombre": "Ruta 115 CH", "ref": "115", "color": "#f4a261" }, "geometry": { "type": "LineString", "coordinates": [ [ -71.00349, -35.75538 ], [ -71.01229, -35.73378 ], [ -71.02084, -35.72637 ] ] } },
{ "type": "Feature", "properties": { "tipo": "trunk", "nombre": "Ruta 115 CH", "ref": "115", "color": "#f4a261" }, "geometry": { "type": "LineString", "coordinates": [ [ -70.95407, -35.80656 ], [ -70.9535, -35.80661 ] ] } },
{ "type": "Feature", "properties": { "tipo": "trunk", "nombre": "Ruta 115 CH", "ref": "115", "color": "#f4a261" }, "geometry": { "type": "LineString", "coordinates": [ [ -70.98913, -35.7903 ], [ -70.98887, -35.79068 ] ] } },
{ "type": "Feature", "properties": { "tipo": "trunk", "nombre": "Ruta 115 CH", "ref": "115", "color": "#f4a261" }, "geometry": { "type": "LineString", "coordinates": [ [ -70.99118, -35.78728 ], [ -70.98913, -35.7903 ] ] } },
{ "type": "Feature", "properties": { "tipo": "trunk", "nombre": "Ruta 115 CH", "ref": "115", "color": "#f4a261" }, "geometry": { "type": "LineString", "coordinates": [ [ -71.00031, -35.76196 ], [ -71.00013, -35.7623 ] ] } },
{ "type": "Feature", "properties": { "tipo": "trunk", "nombre": "Ruta 115 CH", "ref": "115", "color": "#f4a261" }, "geometry": { "type": "LineString", "coordinates": [ [ -71.00108, -35.7603 ], [ -71.00031, -35.76196 ] ] } },
{ "type": "Feature", "properties": { "tipo": "trunk", "nombre": "Ruta 115 CH", "ref": "115", "color": "#f4a261" }, "geometry": { "type": "LineString", "coordinates": [ [ -71.00245, -35.75743 ], [ -71.00212, -35.7581 ] ] } },
{ "type": "Feature", "properties": { "tipo": "trunk", "nombre": "Ruta 115 CH", "ref": "115", "color": "#f4a261" }, "geometry": { "type": "LineString", "coordinates": [ [ -71.19656, -35.72035 ], [ -71.19592, -35.72037 ] ] } },
{ "type": "Feature", "properties": { "tipo": "trunk", "nombre": "Ruta 115 CH", "ref": "115", "color": "#f4a261" }, "geometry": { "type": "LineString", "coordinates": [ [ -71.19685, -35.72035 ], [ -71.19656, -35.72035 ] ] } },
{ "type": "Feature", "properties": { "tipo": "trunk", "nombre": "Ruta 115 CH", "ref": "115", "color": "#f4a261" }, "geometry": { "type": "LineString", "coordinates": [ [ -71.19762, -35.72026 ], [ -71.19723, -35.72032 ] ] } },
{ "type": "Feature", "properties": { "tipo": "trunk", "nombre": "Ruta 115 CH", "ref": "115", "color": "#f4a261" }, "geometry": { "type": "LineString", "coordinates": [ [ -71.19723, -35.72032 ], [ -71.19685, -35.72035 ] ] } },
{ "type": "Feature", "properties": { "tipo": "trunk", "nombre": "Ruta 115 CH", "ref": "115", "color": "#f4a261" }, "geometry": { "type": "LineString", "coordinates": [ [ -70.76208, -35.824 ], [ -70.76088, -35.8246 ] ] } },
{ "type": "Feature", "properties": { "tipo": "trunk", "nombre": "Ruta 115 CH", "ref": "115", "color": "#f4a261" }, "geometry": { "type": "LineString", "coordinates": [ [ -70.93306, -35.8039 ], [ -70.93218, -35.8037 ] ] } },
{ "type": "Feature", "properties": { "tipo": "trunk", "nombre": "Ruta 115 CH", "ref": "115", "color": "#f4a261" }, "geometry": { "type": "LineString", "coordinates": [ [ -70.93218, -35.8037 ], [ -70.93159, -35.80384 ] ] } }
]
}
