{
"type": "FeatureCollection",
"name": "GUA",
"crs": { "type": "name", "properties": { "name": "urn:ogc:def:crs:OGC:1.3:CRS84" } },
"xy_coordinate_resolution": 1e-05,
"features": [
{ "type": "Feature", "properties": { "tipo": "trunk", "nombre": "RN4: Frontera Chile-Tambo Quemado", "ref": "F4", "color": "#f4a261" }, "geometry": { "type": "LineString", "coordinates": [ [ -69.06639, -18.28573 ], [ -69.03991, -18.28297 ], [ -69.01225, -18.27801 ], [ -69.00828, -18.27887 ] ] } },
{ "type": "Feature", "properties": { "tipo": "trunk", "nombre": "Ruta 11 CH", "ref": "11", "color": "#f4a261" }, "geometry": { "type": "LineString", "coordinates": [ [ -69.51667, -18.18022 ], [ -69.49483, -18.1702 ], [ -69.47756, -18.15894 ], [ -69.45479, -18.16563 ], [ -69.42729, -18.17184 ], [ -69.40566, -18.17554 ], [ -69.38551, -18.18048 ], [ -69.36655, -18.19304 ], [ -69.33938, -18.2065 ], [ -69.32331, -18.21562 ] ] } },
{ "type": "Feature", "properties": { "tipo": "trunk", "nombre": "RN4: Tambo Quemado-Curahuara de Carangas", "ref": "F4", "color": "#f4a261" }, "geometry": { "type": "LineString", "coordinates": [ [ -68.94754, -18.22364 ], [ -68.94686, -18.22308 ] ] } },
{ "type": "Feature", "properties": { "tipo": "trunk", "nombre": "RN4: Tambo Quemado-Curahuara de Carangas", "ref": "F4", "color": "#f4a261" }, "geometry": { "type": "LineString", "coordinates": [ [ -68.94686, -18.22308 ], [ -68.9177, -18.21517 ], [ -68.87741, -18.1972 ], [ -68.85101, -18.19023 ], [ -68.83158, -18.18231 ], [ -68.80758, -18.16482 ], [ -68.78416, -18.14741 ], [ -68.76053, -18.11804 ], [ -68.74443, -18.0977 ], [ -68.73489, -18.09183 ] ] } },
{ "type": "Feature", "properties": { "tipo": "trunk", "nombre": "RN4: Tambo Quemado", "ref": "F4", "color": "#f4a261" }, "geometry": { "type": "LineString", "coordinates": [ [ -69.00348, -18.27736 ], [ -69.00624, -18.27844 ] ] } },
{ "type": "Feature", "properties": { "tipo": "trunk", "nombre": "RN4: Rotonda Tambo Quemado", "ref": "F4", "color": "#f4a261" }, "geometry": { "type": "LineString", "coordinates": [ [ -69.0062, -18.27877 ], [ -69.0062, -18.27877 ] ] } },
{ "type": "Feature", "properties": { "tipo": "trunk", "nombre": "RN4: Tambo Quemado-Curahuara de Carangas", "ref": "F4", "color": "#f4a261" }, "geometry": { "type": "LineString", "coordinates": [ [ -69.00348, -18.27736 ], [ -68.98354, -18.26024 ], [ -68.96519, -18.24352 ], [ -68.94754, -18.22364 ] ] } },
{ "type": "Feature", "properties": { "tipo": "trunk", "nombre": "RN4: Tambo Quemado", "ref": "F4", "color": "#f4a261" }, "geometry": { "type": "LineString", "coordinates": [ [ -69.0063, -18.27845 ], [ -69.00828, -18.27887 ] ] } },
{ "type": "Feature", "properties": { "tipo": "trunk", "nombre": "RN4: Tambo Quemado", "ref": "F4", "color": "#f4a261" }, "geometry": { "type": "LineString", "coordinates": [ [ -69.00606, -18.27861 ], [ -69.00348, -18.27736 ] ] } },
{ "type": "Feature", "properties": { "tipo": "trunk", "nombre": "RN27: Cosapa-Turco", "ref": "F27", "color": "#f4a261" }, "geometry": { "type": "LineString", "coordinates": [ [ -68.64615, -18.2783 ], [ -68.62405, -18.30263 ], [ -68.60893, -18.32231 ], [ -68.59373, -18.338 ], [ -68.55272, -18.33858 ], [ -68.53255, -18.33804 ] ] } },
{ "type": "Feature", "properties": { "tipo": "trunk", "nombre": "RN27: Juchus Huaylla-Cosapa", "ref": "F27", "color": "#f4a261" }, "geometry": { "type": "LineString", "coordinates": [ [ -68.77994, -18.14252 ], [ -68.73367, -18.16255 ], [ -68.7132, -18.1775 ] ] } },
{ "type": "Feature", "properties": { "tipo": "trunk", "nombre": "Ruta 11 CH", "ref": "11", "color": "#f4a261" }, "geometry": { "type": "LineString", "coordinates": [ [ -69.13736, -18.2822 ], [ -69.11387, -18.28011 ], [ -69.09073, -18.28138 ], [ -69.07738, -18.28455 ] ] } },
{ "type": "Feature", "properties": { "tipo": "trunk", "nombre": "Ruta 11 CH", "ref": "11", "color": "#f4a261" }, "geometry": { "type": "LineString", "coordinates": [ [ -69.26553, -18.22759 ], [ -69.2377, -18.21926 ], [ -69.21341, -18.22049 ], [ -69.19267, -18.22964 ], [ -69.17837, -18.2467 ], [ -69.16746, -18.2637 ], [ -69.14633, -18.27096 ], [ -69.13736, -18.2822 ] ] } },
{ "type": "Feature", "properties": { "tipo": "trunk", "nombre": "Ruta 11 CH", "ref": "11", "color": "#f4a261" }, "geometry": { "type": "LineString", "coordinates": [ [ -69.32331, -18.21562 ], [ -69.30222, -18.21677 ], [ -69.28089, -18.22702 ], [ -69.26553, -18.22759 ] ] } },
{ "type": "Feature", "properties": { "tipo": "trunk", "nombre": "Ruta 11 CH", "ref": "11", "color": "#f4a261" }, "geometry": { "type": "LineString", "coordinates": [ [ -69.0764, -18.28388 ], [ -69.07667, -18.28387 ] ] } },
{ "type": "Feature", "properties": { "tipo": "trunk", "nombre": "Ruta 11 CH", "ref": "11", "color": "#f4a261" }, "geometry": { "type": "LineString", "coordinates": [ [ -69.07554, -18.28392 ], [ -69.0764, -18.28388 ] ] } },
{ "type": "Feature", "properties": { "tipo": "trunk", "nombre": "Ruta 11 CH", "ref": "11", "color": "#f4a261" }, "geometry": { "type": "LineString", "coordinates": [ [ -69.07643, -18.28432 ], [ -69.07701, -18.28434 ] ] } },
{ "type": "Feature", "properties": { "tipo": "trunk", "nombre": "Ruta 11 CH", "ref": "11", "color": "#f4a261" }, "geometry": { "type": "LineString", "coordinates": [ [ -69.07556, -18.28436 ], [ -69.07643, -18.28432 ] ] } },
{ "type": "Feature", "properties": { "tipo": "trunk", "nombre": "Ruta 11 CH", "ref": "11", "color": "#f4a261" }, "geometry": { "type": "LineString", "coordinates": [ [ -69.07701, -18.28434 ], [ -69.07738, -18.28455 ] ] } },
{ "type": "Feature", "properties": { "tipo": "trunk", "nombre": "Ruta 11 CH", "ref": "11", "color": "#f4a261" }, "geometry": { "type": "LineString", "coordinates": [ [ -69.07444, -18.28466 ], [ -69.07476, -18.28446 ] ] } },
{ "type": "Feature", "properties": { "tipo": "trunk", "nombre": "Ruta 11 CH", "ref": "11", "color": "#f4a261" }, "geometry": { "type": "LineString", "coordinates": [ [ -69.07738, -18.28455 ], [ -69.07654, -18.28461 ] ] } },
{ "type": "Feature", "properties": { "tipo": "trunk", "nombre": "Ruta 11 CH", "ref": "11", "color": "#f4a261" }, "geometry": { "type": "LineString", "coordinates": [ [ -69.07444, -18.28466 ], [ -69.07416, -18.28467 ] ] } },
{ "type": "Feature", "properties": { "tipo": "trunk", "nombre": "Ruta 11 CH", "ref": "11", "color": "#f4a261" }, "geometry": { "type": "LineString", "coordinates": [ [ -69.07515, -18.28394 ], [ -69.07554, -18.28392 ] ] } },
{ "type": "Feature", "properties": { "tipo": "trunk", "nombre": "Ruta 11 CH", "ref": "11", "color": "#f4a261" }, "geometry": { "type": "LineString", "coordinates": [ [ -69.07476, -18.28446 ], [ -69.07556, -18.28436 ] ] } },
{ "type": "Feature", "properties": { "tipo": "trunk", "nombre": "Ruta 11 CH", "ref": "11", "color": "#f4a261" }, "geometry": { "type": "LineString", "coordinates": [ [ -69.07515, -18.28394 ], [ -69.07667, -18.28387 ] ] } },
{ "type": "Feature", "properties": { "tipo": "trunk", "nombre": "RN4: Tambo Quemado", "ref": "F4", "color": "#f4a261" }, "geometry": { "type": "LineString", "coordinates": [ [ -69.00805, -18.27885 ], [ -69.00644, -18.2787 ] ] } },
{ "type": "Feature", "properties": { "tipo": "trunk", "nombre": "RN4: Tambo Quemado", "ref": "F4", "color": "#f4a261" }, "geometry": { "type": "LineString", "coordinates": [ [ -69.00828, -18.27887 ], [ -69.00634, -18.27873 ] ] } },
{ "type": "Feature", "properties": { "tipo": "trunk", "nombre": "RN27: Cosapa-Turco", "ref": "F27", "color": "#f4a261" }, "geometry": { "type": "LineString", "coordinates": [ [ -68.7132, -18.1775 ], [ -68.70028, -18.19861 ], [ -68.6806, -18.23991 ], [ -68.67414, -18.25276 ] ] } },
{ "type": "Feature", "properties": { "tipo": "trunk", "nombre": "RN27: Cosapa-Turco", "ref": "F27", "color": "#f4a261" }, "geometry": { "type": "LineString", "coordinates": [ [ -68.67414, -18.25276 ], [ -68.67156, -18.25429 ] ] } },
{ "type": "Feature", "properties": { "tipo": "trunk", "nombre": "RN27: Cosapa-Turco", "ref": "F27", "color": "#f4a261" }, "geometry": { "type": "LineString", "coordinates": [ [ -68.67156, -18.25429 ], [ -68.66978, -18.25479 ] ] } },
{ "type": "Feature", "properties": { "tipo": "trunk", "nombre": "Ruta 11 CH", "ref": "11", "color": "#f4a261" }, "geometry": { "type": "LineString", "coordinates": [ [ -69.07654, -18.28461 ], [ -69.0751, -18.28464 ] ] } },
{ "type": "Feature", "properties": { "tipo": "trunk", "nombre": "Ruta 11 CH", "ref": "11", "color": "#f4a261" }, "geometry": { "type": "LineString", "coordinates": [ [ -69.0751, -18.28464 ], [ -69.07444, -18.28466 ] ] } },
{ "type": "Feature", "properties": { "tipo": "trunk", "nombre": "Ruta 11 CH", "ref": "11", "color": "#f4a261" }, "geometry": { "type": "LineString", "coordinates": [ [ -69.07667, -18.28387 ], [ -69.07701, -18.28434 ] ] } },
{ "type": "Feature", "properties": { "tipo": "trunk", "nombre": "Ruta 11 CH", "ref": "11", "color": "#f4a261" }, "geometry": { "type": "LineString", "coordinates": [ [ -69.07476, -18.28446 ], [ -69.07515, -18.28394 ] ] } },
{ "type": "Feature", "properties": { "tipo": "trunk", "nombre": "RN4: Frontera Chile-Tambo Quemado", "ref": "F4", "color": "#f4a261" }, "geometry": { "type": "LineString", "coordinates": [ [ -69.07157, -18.2853 ], [ -69.06916, -18.2858 ] ] } },
{ "type": "Feature", "properties": { "tipo": "trunk", "nombre": "RN4: Frontera Chile-Tambo Quemado", "ref": "F4", "color": "#f4a261" }, "geometry": { "type": "LineString", "coordinates": [ [ -69.06954, -18.28431 ], [ -69.07094, -18.28365 ] ] } },
{ "type": "Feature", "properties": { "tipo": "trunk", "nombre": "RN4: Frontera Chile-Tambo Quemado", "ref": "F4", "color": "#f4a261" }, "geometry": { "type": "LineString", "coordinates": [ [ -69.06911, -18.28472 ], [ -69.07107, -18.28425 ] ] } },
{ "type": "Feature", "properties": { "tipo": "trunk", "nombre": "RN4: Frontera Chile-Tambo Quemado", "ref": "F4", "color": "#f4a261" }, "geometry": { "type": "LineString", "coordinates": [ [ -69.07168, -18.28586 ], [ -69.07007, -18.28602 ] ] } },
{ "type": "Feature", "properties": { "tipo": "trunk", "nombre": "RN27: Cosapa-Turco", "ref": "F27", "color": "#f4a261" }, "geometry": { "type": "LineString", "coordinates": [ [ -68.64623, -18.27821 ], [ -68.64615, -18.2783 ] ] } },
{ "type": "Feature", "properties": { "tipo": "trunk", "nombre": "RN27: Cosapa-Turco", "ref": "F27", "color": "#f4a261" }, "geometry": { "type": "LineString", "coordinates": [ [ -68.66978, -18.25479 ], [ -68.6519, -18.27194 ], [ -68.64623, -18.27821 ] ] } },
{ "type": "Feature", "properties": { "tipo": "trunk", "nombre": "RN4: Frontera Chile-Tambo Quemado", "ref": "F4", "color": "#f4a261" }, "geometry": { "type": "LineString", "coordinates": [ [ -69.07318, -18.28467 ], [ -69.07285, -18.28499 ] ] } },
{ "type": "Feature", "properties": { "tipo": "trunk", "nombre": "RN4: Frontera Chile-Tambo Quemado", "ref": "F4", "color": "#f4a261" }, "geometry": { "type": "LineString", "coordinates": [ [ -69.07164, -18.2857 ], [ -69.07007, -18.28602 ] ] } },
{ "type": "Feature", "properties": { "tipo": "trunk", "nombre": "RN4: Frontera Chile-Tambo Quemado", "ref": "F4", "color": "#f4a261" }, "geometry": { "type": "LineString", "coordinates": [ [ -69.06906, -18.28578 ], [ -69.0691, -18.28537 ] ] } },
{ "type": "Feature", "properties": { "tipo": "trunk", "nombre": "RN4: Frontera Chile-Tambo Quemado", "ref": "F4", "color": "#f4a261" }, "geometry": { "type": "LineString", "coordinates": [ [ -69.07318, -18.28467 ], [ -69.06807, -18.28565 ] ] } },
{ "type": "Feature", "properties": { "tipo": "trunk", "nombre": "RN4: Frontera Chile-Tambo Quemado", "ref": "F4", "color": "#f4a261" }, "geometry": { "type": "LineString", "coordinates": [ [ -69.06807, -18.28565 ], [ -69.06639, -18.28573 ] ] } },
{ "type": "Feature", "properties": { "tipo": "trunk", "nombre": "RN4: Frontera Chile-Tambo Quemado", "ref": "F4", "color": "#f4a261" }, "geometry": { "type": "LineString", "coordinates": [ [ -69.06954, -18.28431 ], [ -69.071, -18.28398 ] ] } },
{ "type": "Feature", "properties": { "tipo": "trunk", "nombre": "RN4: Frontera Chile-Tambo Quemado", "ref": "F4", "color": "#f4a261" }, "geometry": { "type": "LineString", "coordinates": [ [ -69.07285, -18.28437 ], [ -69.07279, -18.28469 ] ] } },
{ "type": "Feature", "properties": { "tipo": "trunk", "nombre": "RN4: Frontera Chile-Tambo Quemado", "ref": "F4", "color": "#f4a261" }, "geometry": { "type": "LineString", "coordinates": [ [ -69.07285, -18.28499 ], [ -69.07268, -18.28544 ] ] } },
{ "type": "Feature", "properties": { "tipo": "trunk", "nombre": "RN4: Frontera Chile-Tambo Quemado", "ref": "F4", "color": "#f4a261" }, "geometry": { "type": "LineString", "coordinates": [ [ -69.07007, -18.28602 ], [ -69.06807, -18.28565 ] ] } },
{ "type": "Feature", "properties": { "tipo": "trunk", "nombre": "RN4: Frontera Chile-Tambo Quemado", "ref": "F4", "color": "#f4a261" }, "geometry": { "type": "LineString", "coordinates": [ [ -69.07416, -18.28467 ], [ -69.07386, -18.28466 ] ] } },
{ "type": "Feature", "properties": { "tipo": "trunk", "nombre": "RN4: Frontera Chile-Tambo Quemado", "ref": "F4", "color": "#f4a261" }, "geometry": { "type": "LineString", "coordinates": [ [ -69.07386, -18.28466 ], [ -69.07318, -18.28467 ] ] } },
{ "type": "Feature", "properties": { "tipo": "trunk", "nombre": "RN4: Frontera Chile-Tambo Quemado", "ref": "F4", "color": "#f4a261" }, "geometry": { "type": "LineString", "coordinates": [ [ -69.06807, -18.28565 ], [ -69.06911, -18.28472 ] ] } },
{ "type": "Feature", "properties": { "tipo": "trunk", "nombre": "RN4: Frontera Chile-Tambo Quemado", "ref": "F4", "color": "#f4a261" }, "geometry": { "type": "LineString", "coordinates": [ [ -69.07251, -18.28405 ], [ -69.07318, -18.28467 ] ] } },
{ "type": "Feature", "properties": { "tipo": "trunk", "nombre": "RN4: Frontera Chile-Tambo Quemado", "ref": "F4", "color": "#f4a261" }, "geometry": { "type": "LineString", "coordinates": [ [ -69.06911, -18.28472 ], [ -69.06954, -18.28431 ] ] } },
{ "type": "Feature", "properties": { "tipo": "trunk", "nombre": "RN4: Frontera Chile-Tambo Quemado", "ref": "F4", "color": "#f4a261" }, "geometry": { "type": "LineString", "coordinates": [ [ -69.07225, -18.2838 ], [ -69.07251, -18.28405 ] ] } },
{ "type": "Feature", "properties": { "tipo": "trunk", "nombre": "RN4: Frontera Chile-Tambo Quemado", "ref": "F4", "color": "#f4a261" }, "geometry": { "type": "LineString", "coordinates": [ [ -69.07178, -18.28352 ], [ -69.07225, -18.2838 ] ] } },
{ "type": "Feature", "properties": { "tipo": "trunk", "nombre": "RN4: Frontera Chile-Tambo Quemado", "ref": "F4", "color": "#f4a261" }, "geometry": { "type": "LineString", "coordinates": [ [ -69.07107, -18.28425 ], [ -69.07251, -18.28405 ] ] } },
{ "type": "Feature", "properties": { "tipo": "trunk", "nombre": "RN4: Frontera Chile-Tambo Quemado", "ref": "F4", "color": "#f4a261" }, "geometry": { "type": "LineString", "coordinates": [ [ -69.071, -18.28398 ], [ -69.07225, -18.2838 ] ] } },
{ "type": "Feature", "properties": { "tipo": "trunk", "nombre": "RN4: Frontera Chile-Tambo Quemado", "ref": "F4", "color": "#f4a261" }, "geometry": { "type": "LineString", "coordinates": [ [ -69.07094, -18.28365 ], [ -69.07178, -18.28352 ] ] } },
{ "type": "Feature", "properties": { "tipo": "trunk", "nombre": "RN4: Frontera Chile-Tambo Quemado", "ref": "F4", "color": "#f4a261" }, "geometry": { "type": "LineString", "coordinates": [ [ -69.07285, -18.28499 ], [ -69.07157, -18.2853 ] ] } },
{ "type": "Feature", "properties": { "tipo": "trunk", "nombre": "RN4: Frontera Chile-Tambo Quemado", "ref": "F4", "color": "#f4a261" }, "geometry": { "type": "LineString", "coordinates": [ [ -69.07268, -18.28544 ], [ -69.07164, -18.2857 ] ] } },
{ "type": "Feature", "properties": { "tipo": "trunk", "nombre": "RN4: Frontera Chile-Tambo Quemado", "ref": "F4", "color": "#f4a261" }, "geometry": { "type": "LineString", "coordinates": [ [ -69.07258, -18.28562 ], [ -69.07168, -18.28586 ] ] } },
{ "type": "Feature", "properties": { "tipo": "trunk", "nombre": "RN4: Frontera Chile-Tambo Quemado", "ref": "F4", "color": "#f4a261" }, "geometry": { "type": "LineString", "coordinates": [ [ -69.07268, -18.28544 ], [ -69.07258, -18.28562 ] ] } }
]
}
