{
"type": "FeatureCollection",
"name": "INC",
"crs": { "type": "name", "properties": { "name": "urn:ogc:def:crs:OGC:1.3:CRS84" } },
"xy_coordinate_resolution": 1e-05,
"features": [
{ "type": "Feature", "properties": { "tipo": "trunk", "nombre": "Ruta Nacional 60", "ref": "RN60", "color": "#f4a261" }, "geometry": { "type": "LineString", "coordinates": [ [ -68.1452, -27.55978 ], [ -68.13349, -27.53689 ], [ -68.12691, -27.51407 ], [ -68.11669, -27.48972 ], [ -68.10728, -27.45529 ], [ -68.12187, -27.42763 ], [ -68.13804, -27.40656 ], [ -68.141, -27.37746 ], [ -68.13617, -27.3472 ], [ -68.12761, -27.32742 ], [ -68.12557, -27.29714 ], [ -68.11664, -27.26597 ], [ -68.11563, -27.24244 ], [ -68.10831, -27.22287 ], [ -68.09356, -27.1365 ], [ -68.08152, -27.09799 ], [ -68.08174, -27.07402 ], [ -68.0718, -27.03795 ], [ -68.06859, -27.0136 ], [ -68.0601, -26.98282 ], [ -68.04993, -26.95362 ], [ -68.07055, -26.93112 ], [ -68.09422, -26.91757 ], [ -68.11886, -26.91269 ], [ -68.14111, -26.91256 ], [ -68.16028, -26.90022 ], [ -68.18009, -26.89133 ], [ -68.20143, -26.87847 ], [ -68.22686, -26.87432 ], [ -68.24906, -26.86681 ], [ -68.27197, -26.87054 ], [ -68.29601, -26.8723 ], [ -68.29911, -26.87367 ] ] } },
{ "type": "Feature", "properties": { "tipo": "trunk", "nombre": "Ruta 31 CH", "ref": "31", "color": "#f4a261" }, "geometry": { "type": "LineString", "coordinates": [ [ -68.83872, -26.9683 ], [ -68.80793, -26.95879 ], [ -68.78013, -26.95045 ], [ -68.75626, -26.9426 ] ] } },
{ "type": "Feature", "properties": { "tipo": "trunk", "nombre": "Ruta 31 CH", "ref": "31", "color": "#f4a261" }, "geometry": { "type": "LineString", "coordinates": [ [ -68.72225, -26.92573 ], [ -68.70289, -26.91655 ], [ -68.67848, -26.90871 ], [ -68.65349, -26.90756 ], [ -68.62635, -26.91088 ], [ -68.59032, -26.91406 ], [ -68.57029, -26.91626 ], [ -68.54933, -26.91157 ], [ -68.53067, -26.89825 ], [ -68.50833, -26.89019 ], [ -68.49452, -26.8895 ] ] } },
{ "type": "Feature", "properties": { "tipo": "trunk", "nombre": "Ruta 31 CH", "ref": "31", "color": "#f4a261" }, "geometry": { "type": "LineString", "coordinates": [ [ -68.47892, -26.88945 ], [ -68.46496, -26.89727 ] ] } },
{ "type": "Feature", "properties": { "tipo": "trunk", "nombre": "Ruta 31 CH", "ref": "31", "color": "#f4a261" }, "geometry": { "type": "LineString", "coordinates": [ [ -68.48604, -26.89182 ], [ -68.47892, -26.88945 ] ] } },
{ "type": "Feature", "properties": { "tipo": "trunk", "nombre": "Ruta 31 CH", "ref": "31", "color": "#f4a261" }, "geometry": { "type": "LineString", "coordinates": [ [ -68.49452, -26.8895 ], [ -68.48604, -26.89182 ] ] } },
{ "type": "Feature", "properties": { "tipo": "trunk", "nombre": "Ruta 31 CH", "ref": "31", "color": "#f4a261" }, "geometry": { "type": "LineString", "coordinates": [ [ -68.46496, -26.89727 ], [ -68.44487, -26.90276 ], [ -68.43358, -26.90089 ] ] } },
{ "type": "Feature", "properties": { "tipo": "trunk", "nombre": "Ruta 31 CH", "ref": "31", "color": "#f4a261" }, "geometry": { "type": "LineString", "coordinates": [ [ -68.34949, -26.89422 ], [ -68.33504, -26.87948 ] ] } },
{ "type": "Feature", "properties": { "tipo": "trunk", "nombre": "Ruta 31 CH", "ref": "31", "color": "#f4a261" }, "geometry": { "type": "LineString", "coordinates": [ [ -68.43358, -26.90089 ], [ -68.41167, -26.90575 ], [ -68.3906, -26.90874 ], [ -68.36743, -26.90596 ], [ -68.34949, -26.89422 ] ] } },
{ "type": "Feature", "properties": { "tipo": "trunk", "nombre": "Ruta 31 CH", "ref": "31", "color": "#f4a261" }, "geometry": { "type": "LineString", "coordinates": [ [ -68.33504, -26.87948 ], [ -68.33207, -26.87855 ] ] } },
{ "type": "Feature", "properties": { "tipo": "trunk", "nombre": "Ruta 31 CH", "ref": "31", "color": "#f4a261" }, "geometry": { "type": "LineString", "coordinates": [ [ -68.32554, -26.87941 ], [ -68.30793, -26.87617 ] ] } },
{ "type": "Feature", "properties": { "tipo": "trunk", "nombre": "Ruta 31 CH", "ref": "31", "color": "#f4a261" }, "geometry": { "type": "LineString", "coordinates": [ [ -68.30793, -26.87617 ], [ -68.29911, -26.87367 ] ] } },
{ "type": "Feature", "properties": { "tipo": "trunk", "nombre": "Ruta 31 CH", "ref": "31", "color": "#f4a261" }, "geometry": { "type": "LineString", "coordinates": [ [ -68.32898, -26.87933 ], [ -68.32554, -26.87941 ] ] } },
{ "type": "Feature", "properties": { "tipo": "trunk", "nombre": "Ruta 31 CH", "ref": "31", "color": "#f4a261" }, "geometry": { "type": "LineString", "coordinates": [ [ -68.33207, -26.87855 ], [ -68.32898, -26.87933 ] ] } },
{ "type": "Feature", "properties": { "tipo": "trunk", "nombre": "Ruta 31 CH", "ref": "31", "color": "#f4a261" }, "geometry": { "type": "LineString", "coordinates": [ [ -68.72577, -26.92877 ], [ -68.72225, -26.92573 ] ] } },
{ "type": "Feature", "properties": { "tipo": "trunk", "nombre": "Ruta 31 CH", "ref": "31", "color": "#f4a261" }, "geometry": { "type": "LineString", "coordinates": [ [ -68.7272, -26.92995 ], [ -68.72577, -26.92877 ] ] } },
{ "type": "Feature", "properties": { "tipo": "trunk", "nombre": "Ruta 31 CH", "ref": "31", "color": "#f4a261" }, "geometry": { "type": "LineString", "coordinates": [ [ -68.75268, -26.94123 ], [ -68.7293, -26.93124 ], [ -68.7272, -26.92995 ] ] } },
{ "type": "Feature", "properties": { "tipo": "trunk", "nombre": "Ruta 31 CH", "ref": "31", "color": "#f4a261" }, "geometry": { "type": "LineString", "coordinates": [ [ -68.75626, -26.9426 ], [ -68.75268, -26.94123 ] ] } }
]
}
