{
"type": "FeatureCollection",
"name": "LON",
"crs": { "type": "name", "properties": { "name": "urn:ogc:def:crs:OGC:1.3:CRS84" } },
"xy_coordinate_resolution": 1e-05,
"features": [
{ "type": "Feature", "properties": { "tipo": "trunk", "nombre": "Carrera", "ref": "S-11-R", "color": "#f4a261" }, "geometry": { "type": "LineString", "coordinates": [ [ -71.88179, -38.44595 ], [ -71.89408, -38.44504 ] ] } },
{ "type": "Feature", "properties": { "tipo": "trunk", "nombre": "Avenida Pérez Canto", "ref": "S-11-R", "color": "#f4a261" }, "geometry": { "type": "LineString", "coordinates": [ [ -71.88152, -38.44571 ], [ -71.88103, -38.44167 ] ] } },
{ "type": "Feature", "properties": { "tipo": "trunk", "nombre": "Ruta S-11-R", "ref": "S-11-R", "color": "#f4a261" }, "geometry": { "type": "LineString", "coordinates": [ [ -72.24523, -38.49216 ], [ -72.22386, -38.49205 ], [ -72.20066, -38.49104 ], [ -72.17266, -38.49017 ], [ -72.14571, -38.48492 ], [ -72.12052, -38.48771 ], [ -72.09543, -38.48659 ], [ -72.07175, -38.48211 ], [ -72.04605, -38.47285 ], [ -72.01927, -38.47353 ], [ -71.99501, -38.47696 ], [ -71.96023, -38.47225 ], [ -71.93414, -38.47384 ], [ -71.93273, -38.47345 ] ] } },
{ "type": "Feature", "properties": { "tipo": "trunk", "nombre": "Ruta 181 CH", "ref": "181", "color": "#f4a261" }, "geometry": { "type": "LineString", "coordinates": [ [ -71.51681, -38.51678 ], [ -71.51757, -38.51565 ] ] } },
{ "type": "Feature", "properties": { "tipo": "trunk", "nombre": "Ruta 181 CH", "ref": "181", "color": "#f4a261" }, "geometry": { "type": "LineString", "coordinates": [ [ -71.5167, -38.51713 ], [ -71.51633, -38.5179 ] ] } },
{ "type": "Feature", "properties": { "tipo": "trunk", "nombre": "Ruta 181 CH", "ref": "181", "color": "#f4a261" }, "geometry": { "type": "LineString", "coordinates": [ [ -71.49278, -38.56611 ], [ -71.49267, -38.56648 ] ] } },
{ "type": "Feature", "properties": { "tipo": "trunk", "nombre": "Ruta 181 CH", "ref": "181", "color": "#f4a261" }, "geometry": { "type": "LineString", "coordinates": [ [ -71.49771, -38.55838 ], [ -71.49631, -38.55976 ] ] } },
{ "type": "Feature", "properties": { "tipo": "trunk", "nombre": "Ruta 181 CH", "ref": "181", "color": "#f4a261" }, "geometry": { "type": "LineString", "coordinates": [ [ -71.49679, -38.55932 ], [ -71.49764, -38.55835 ] ] } },
{ "type": "Feature", "properties": { "tipo": "trunk", "nombre": "Ruta 181 CH", "ref": "181", "color": "#f4a261" }, "geometry": { "type": "LineString", "coordinates": [ [ -71.51757, -38.51565 ], [ -71.51688, -38.51679 ] ] } },
{ "type": "Feature", "properties": { "tipo": "trunk", "nombre": "Ruta 181 CH", "ref": "181", "color": "#f4a261" }, "geometry": { "type": "LineString", "coordinates": [ [ -71.49631, -38.55976 ], [ -71.49278, -38.56611 ] ] } },
{ "type": "Feature", "properties": { "tipo": "trunk", "nombre": "Avenida Pérez Canto", "ref": "S-11-R", "color": "#f4a261" }, "geometry": { "type": "LineString", "coordinates": [ [ -71.88126, -38.44164 ], [ -71.88179, -38.44595 ] ] } },
{ "type": "Feature", "properties": { "tipo": "trunk", "nombre": "Ruta 181 CH", "ref": "181", "color": "#f4a261" }, "geometry": { "type": "LineString", "coordinates": [ [ -71.51836, -38.51419 ], [ -71.51849, -38.51431 ] ] } },
{ "type": "Feature", "properties": { "tipo": "trunk", "nombre": "Ruta 181 CH", "ref": "181", "color": "#f4a261" }, "geometry": { "type": "LineString", "coordinates": [ [ -71.51849, -38.51431 ], [ -71.51773, -38.51546 ] ] } },
{ "type": "Feature", "properties": { "tipo": "trunk", "nombre": "Ruta 181 CH", "ref": "181", "color": "#f4a261" }, "geometry": { "type": "LineString", "coordinates": [ [ -71.82396, -38.45099 ], [ -71.82335, -38.45119 ] ] } },
{ "type": "Feature", "properties": { "tipo": "trunk", "nombre": "Ruta S-11-R", "ref": "S-11-R", "color": "#f4a261" }, "geometry": { "type": "LineString", "coordinates": [ [ -71.89617, -38.44633 ], [ -71.89605, -38.446 ] ] } },
{ "type": "Feature", "properties": { "tipo": "trunk", "nombre": "Ruta S-11-R", "ref": "S-11-R", "color": "#f4a261" }, "geometry": { "type": "LineString", "coordinates": [ [ -71.89605, -38.446 ], [ -71.89568, -38.44511 ] ] } },
{ "type": "Feature", "properties": { "tipo": "trunk", "nombre": "Ruta 181 CH", "ref": "181", "color": "#f4a261" }, "geometry": { "type": "LineString", "coordinates": [ [ -71.94312, -38.42293 ], [ -71.93002, -38.42912 ] ] } },
{ "type": "Feature", "properties": { "tipo": "trunk", "nombre": "Ruta 181 CH", "ref": "181", "color": "#f4a261" }, "geometry": { "type": "LineString", "coordinates": [ [ -71.94334, -38.42278 ], [ -71.94312, -38.42293 ] ] } },
{ "type": "Feature", "properties": { "tipo": "trunk", "nombre": "Ruta 181 CH", "ref": "181", "color": "#f4a261" }, "geometry": { "type": "LineString", "coordinates": [ [ -71.93002, -38.42912 ], [ -71.9297, -38.42911 ] ] } },
{ "type": "Feature", "properties": { "tipo": "trunk", "nombre": "Ruta 181 CH", "ref": "181", "color": "#f4a261" }, "geometry": { "type": "LineString", "coordinates": [ [ -71.9297, -38.42911 ], [ -71.91376, -38.43216 ] ] } },
{ "type": "Feature", "properties": { "tipo": "trunk", "nombre": "Ruta S-11-R", "ref": "S-11-R", "color": "#f4a261" }, "geometry": { "type": "LineString", "coordinates": [ [ -71.93351, -38.46736 ], [ -71.93376, -38.46674 ] ] } },
{ "type": "Feature", "properties": { "tipo": "trunk", "nombre": "Ruta S-11-R", "ref": "S-11-R", "color": "#f4a261" }, "geometry": { "type": "LineString", "coordinates": [ [ -71.93376, -38.46674 ], [ -71.91943, -38.44493 ], [ -71.89617, -38.44633 ] ] } },
{ "type": "Feature", "properties": { "tipo": "trunk", "nombre": "Ruta 181 CH", "ref": "181", "color": "#f4a261" }, "geometry": { "type": "LineString", "coordinates": [ [ -71.8461, -38.44323 ], [ -71.83516, -38.44897 ] ] } },
{ "type": "Feature", "properties": { "tipo": "trunk", "nombre": "Avenida Manuel Rodríguez", "ref": "181", "color": "#f4a261" }, "geometry": { "type": "LineString", "coordinates": [ [ -71.89715, -38.43591 ], [ -71.88209, -38.43707 ] ] } },
{ "type": "Feature", "properties": { "tipo": "trunk", "nombre": "Ruta 181 CH", "ref": "181", "color": "#f4a261" }, "geometry": { "type": "LineString", "coordinates": [ [ -71.47059, -38.56168 ], [ -71.44781, -38.55655 ], [ -71.4386, -38.55138 ] ] } },
{ "type": "Feature", "properties": { "tipo": "trunk", "nombre": "Ruta 181 CH", "ref": "181", "color": "#f4a261" }, "geometry": { "type": "LineString", "coordinates": [ [ -71.97333, -38.33174 ], [ -71.95586, -38.34401 ], [ -71.95449, -38.35168 ] ] } },
{ "type": "Feature", "properties": { "tipo": "trunk", "nombre": "Ruta 181 CH", "ref": "181", "color": "#f4a261" }, "geometry": { "type": "LineString", "coordinates": [ [ -71.65968, -38.46753 ], [ -71.63911, -38.46684 ], [ -71.63317, -38.46281 ] ] } },
{ "type": "Feature", "properties": { "tipo": "trunk", "nombre": "Camino Internacional", "ref": "181", "color": "#f4a261" }, "geometry": { "type": "LineString", "coordinates": [ [ -71.70186, -38.46667 ], [ -71.69864, -38.46826 ] ] } },
{ "type": "Feature", "properties": { "tipo": "trunk", "nombre": "Ruta 181 CH", "ref": "181", "color": "#f4a261" }, "geometry": { "type": "LineString", "coordinates": [ [ -71.11528, -38.6241 ], [ -71.11506, -38.62429 ] ] } },
{ "type": "Feature", "properties": { "tipo": "trunk", "nombre": "Ruta 181 CH", "ref": "181", "color": "#f4a261" }, "geometry": { "type": "LineString", "coordinates": [ [ -71.13622, -38.59478 ], [ -71.12273, -38.61011 ], [ -71.11528, -38.6241 ] ] } },
{ "type": "Feature", "properties": { "tipo": "trunk", "nombre": "Ruta 181 CH", "ref": "181", "color": "#f4a261" }, "geometry": { "type": "LineString", "coordinates": [ [ -71.14113, -38.59173 ], [ -71.14037, -38.59245 ] ] } },
{ "type": "Feature", "properties": { "tipo": "trunk", "nombre": "Ruta 181 CH", "ref": "181", "color": "#f4a261" }, "geometry": { "type": "LineString", "coordinates": [ [ -71.18314, -38.56471 ], [ -71.16593, -38.57558 ], [ -71.14539, -38.58284 ], [ -71.14228, -38.5893 ] ] } },
{ "type": "Feature", "properties": { "tipo": "trunk", "nombre": "Ruta 181 CH", "ref": "181", "color": "#f4a261" }, "geometry": { "type": "LineString", "coordinates": [ [ -71.18331, -38.56461 ], [ -71.18314, -38.56471 ] ] } },
{ "type": "Feature", "properties": { "tipo": "trunk", "nombre": "Ruta 181 CH", "ref": "181", "color": "#f4a261" }, "geometry": { "type": "LineString", "coordinates": [ [ -71.19849, -38.54821 ], [ -71.19848, -38.54834 ] ] } },
{ "type": "Feature", "properties": { "tipo": "trunk", "nombre": "Ruta 181 CH", "ref": "181", "color": "#f4a261" }, "geometry": { "type": "LineString", "coordinates": [ [ -71.19848, -38.54834 ], [ -71.18331, -38.56461 ] ] } },
{ "type": "Feature", "properties": { "tipo": "trunk", "nombre": "Ruta 181 CH", "ref": "181", "color": "#f4a261" }, "geometry": { "type": "LineString", "coordinates": [ [ -71.20223, -38.5303 ], [ -71.20217, -38.5305 ] ] } },
{ "type": "Feature", "properties": { "tipo": "trunk", "nombre": "Ruta 181 CH", "ref": "181", "color": "#f4a261" }, "geometry": { "type": "LineString", "coordinates": [ [ -71.20217, -38.5305 ], [ -71.19849, -38.54821 ] ] } },
{ "type": "Feature", "properties": { "tipo": "trunk", "nombre": "Ruta 181 CH", "ref": "181", "color": "#f4a261" }, "geometry": { "type": "LineString", "coordinates": [ [ -71.22862, -38.49456 ], [ -71.21118, -38.5109 ], [ -71.20223, -38.5303 ] ] } },
{ "type": "Feature", "properties": { "tipo": "trunk", "nombre": "Ruta 181 CH", "ref": "181", "color": "#f4a261" }, "geometry": { "type": "LineString", "coordinates": [ [ -71.22874, -38.49445 ], [ -71.22862, -38.49456 ] ] } },
{ "type": "Feature", "properties": { "tipo": "trunk", "nombre": "Ruta 181 CH", "ref": "181", "color": "#f4a261" }, "geometry": { "type": "LineString", "coordinates": [ [ -71.23802, -38.47484 ], [ -71.22874, -38.49445 ] ] } },
{ "type": "Feature", "properties": { "tipo": "trunk", "nombre": "Ruta 181 CH", "ref": "181", "color": "#f4a261" }, "geometry": { "type": "LineString", "coordinates": [ [ -71.23799, -38.47469 ], [ -71.23802, -38.47484 ] ] } },
{ "type": "Feature", "properties": { "tipo": "trunk", "nombre": "Ruta 181 CH", "ref": "181", "color": "#f4a261" }, "geometry": { "type": "LineString", "coordinates": [ [ -71.41945, -38.54986 ], [ -71.40246, -38.53079 ], [ -71.38597, -38.51405 ], [ -71.37668, -38.49594 ], [ -71.3721, -38.48839 ] ] } },
{ "type": "Feature", "properties": { "tipo": "trunk", "nombre": "Ruta 181 CH", "ref": "181", "color": "#f4a261" }, "geometry": { "type": "LineString", "coordinates": [ [ -71.43367, -38.55329 ], [ -71.43318, -38.55337 ] ] } },
{ "type": "Feature", "properties": { "tipo": "trunk", "nombre": "Ruta 181 CH", "ref": "181", "color": "#f4a261" }, "geometry": { "type": "LineString", "coordinates": [ [ -71.43662, -38.54948 ], [ -71.43459, -38.55245 ] ] } },
{ "type": "Feature", "properties": { "tipo": "trunk", "nombre": "Ruta 181 CH", "ref": "181", "color": "#f4a261" }, "geometry": { "type": "LineString", "coordinates": [ [ -71.4989, -38.55646 ], [ -71.49834, -38.5577 ] ] } },
{ "type": "Feature", "properties": { "tipo": "trunk", "nombre": "Ruta 181 CH", "ref": "181", "color": "#f4a261" }, "geometry": { "type": "LineString", "coordinates": [ [ -71.51633, -38.5179 ], [ -71.4989, -38.55646 ] ] } },
{ "type": "Feature", "properties": { "tipo": "trunk", "nombre": "Ruta 181 CH", "ref": "181", "color": "#f4a261" }, "geometry": { "type": "LineString", "coordinates": [ [ -71.5364, -38.48077 ], [ -71.53637, -38.48106 ] ] } },
{ "type": "Feature", "properties": { "tipo": "trunk", "nombre": "Ruta 181 CH", "ref": "181", "color": "#f4a261" }, "geometry": { "type": "LineString", "coordinates": [ [ -71.51975, -38.4996 ], [ -71.51836, -38.51419 ] ] } },
{ "type": "Feature", "properties": { "tipo": "trunk", "nombre": "Ruta 181 CH", "ref": "181", "color": "#f4a261" }, "geometry": { "type": "LineString", "coordinates": [ [ -71.54944, -38.47538 ], [ -71.53875, -38.47789 ] ] } },
{ "type": "Feature", "properties": { "tipo": "trunk", "nombre": "Ruta 181 CH", "ref": "181", "color": "#f4a261" }, "geometry": { "type": "LineString", "coordinates": [ [ -71.5569, -38.47364 ], [ -71.55682, -38.47366 ] ] } },
{ "type": "Feature", "properties": { "tipo": "trunk", "nombre": "Carrera", "ref": "S-11-R", "color": "#f4a261" }, "geometry": { "type": "LineString", "coordinates": [ [ -71.89568, -38.44511 ], [ -71.8941, -38.44517 ] ] } },
{ "type": "Feature", "properties": { "tipo": "trunk", "nombre": "Carrera", "ref": "S-11-R", "color": "#f4a261" }, "geometry": { "type": "LineString", "coordinates": [ [ -71.8886, -38.44559 ], [ -71.8818, -38.44611 ] ] } },
{ "type": "Feature", "properties": { "tipo": "trunk", "nombre": "Carrera", "ref": "S-11-R", "color": "#f4a261" }, "geometry": { "type": "LineString", "coordinates": [ [ -71.88924, -38.44554 ], [ -71.8886, -38.44559 ] ] } },
{ "type": "Feature", "properties": { "tipo": "trunk", "nombre": "Ruta 181 CH", "ref": "181", "color": "#f4a261" }, "geometry": { "type": "LineString", "coordinates": [ [ -71.93426, -38.36134 ], [ -71.93354, -38.38512 ], [ -71.94484, -38.40595 ], [ -71.94543, -38.42015 ] ] } },
{ "type": "Feature", "properties": { "tipo": "trunk", "nombre": "Ruta 181 CH", "ref": "181", "color": "#f4a261" }, "geometry": { "type": "LineString", "coordinates": [ [ -71.93375, -38.3555 ], [ -71.93355, -38.35563 ] ] } },
{ "type": "Feature", "properties": { "tipo": "trunk", "nombre": "Ruta 181 CH", "ref": "181", "color": "#f4a261" }, "geometry": { "type": "LineString", "coordinates": [ [ -71.5369, -38.47836 ], [ -71.53653, -38.47888 ] ] } },
{ "type": "Feature", "properties": { "tipo": "trunk", "nombre": "Ruta 181 CH", "ref": "181", "color": "#f4a261" }, "geometry": { "type": "LineString", "coordinates": [ [ -71.97363, -38.33178 ], [ -71.97333, -38.33174 ] ] } },
{ "type": "Feature", "properties": { "tipo": "trunk", "nombre": "Ruta 181 CH", "ref": "181", "color": "#f4a261" }, "geometry": { "type": "LineString", "coordinates": [ [ -72.074, -38.30175 ], [ -72.04338, -38.30885 ], [ -72.02625, -38.3198 ], [ -72.01873, -38.32059 ] ] } },
{ "type": "Feature", "properties": { "tipo": "trunk", "nombre": "Ruta 181 CH", "ref": "181", "color": "#f4a261" }, "geometry": { "type": "LineString", "coordinates": [ [ -71.95426, -38.35161 ], [ -71.935, -38.35526 ] ] } },
{ "type": "Feature", "properties": { "tipo": "trunk", "nombre": "Ruta 181 CH", "ref": "181", "color": "#f4a261" }, "geometry": { "type": "LineString", "coordinates": [ [ -71.95449, -38.35168 ], [ -71.95426, -38.35161 ] ] } },
{ "type": "Feature", "properties": { "tipo": "trunk", "nombre": "Ruta 181 CH", "ref": "181", "color": "#f4a261" }, "geometry": { "type": "LineString", "coordinates": [ [ -71.28899, -38.45667 ], [ -71.26893, -38.44869 ], [ -71.24168, -38.44868 ], [ -71.23564, -38.45899 ] ] } },
{ "type": "Feature", "properties": { "tipo": "trunk", "nombre": "Ruta 181 CH", "ref": "181", "color": "#f4a261" }, "geometry": { "type": "LineString", "coordinates": [ [ -71.11506, -38.62429 ], [ -71.09126, -38.64254 ], [ -71.08987, -38.64525 ] ] } },
{ "type": "Feature", "properties": { "tipo": "trunk", "nombre": "Carrera", "ref": "S-11-R", "color": "#f4a261" }, "geometry": { "type": "LineString", "coordinates": [ [ -71.89513, -38.44495 ], [ -71.89546, -38.44492 ] ] } },
{ "type": "Feature", "properties": { "tipo": "trunk", "nombre": "Ruta S-11-R", "ref": "S-11-R", "color": "#f4a261" }, "geometry": { "type": "LineString", "coordinates": [ [ -71.89564, -38.44491 ], [ -71.89568, -38.44511 ] ] } },
{ "type": "Feature", "properties": { "tipo": "trunk", "nombre": "Carrera", "ref": "S-11-R", "color": "#f4a261" }, "geometry": { "type": "LineString", "coordinates": [ [ -71.89408, -38.44504 ], [ -71.89513, -38.44495 ] ] } },
{ "type": "Feature", "properties": { "tipo": "trunk", "nombre": "Carrera", "ref": "S-11-R", "color": "#f4a261" }, "geometry": { "type": "LineString", "coordinates": [ [ -71.89546, -38.44492 ], [ -71.89564, -38.44491 ] ] } },
{ "type": "Feature", "properties": { "tipo": "trunk", "nombre": "Avenida Manuel Rodríguez", "ref": "181", "color": "#f4a261" }, "geometry": { "type": "LineString", "coordinates": [ [ -71.87648, -38.43795 ], [ -71.87115, -38.43899 ] ] } },
{ "type": "Feature", "properties": { "tipo": "trunk", "nombre": "Avenida Manuel Rodríguez", "ref": "181", "color": "#f4a261" }, "geometry": { "type": "LineString", "coordinates": [ [ -71.9058, -38.43386 ], [ -71.89715, -38.43591 ] ] } },
{ "type": "Feature", "properties": { "tipo": "trunk", "nombre": "Ruta 181 CH", "ref": "181", "color": "#f4a261" }, "geometry": { "type": "LineString", "coordinates": [ [ -71.49631, -38.55976 ], [ -71.49679, -38.55932 ] ] } },
{ "type": "Feature", "properties": { "tipo": "trunk", "nombre": "Ruta 181 CH", "ref": "181", "color": "#f4a261" }, "geometry": { "type": "LineString", "coordinates": [ [ -71.5167, -38.51713 ], [ -71.51681, -38.51678 ] ] } },
{ "type": "Feature", "properties": { "tipo": "trunk", "nombre": "Ruta 181 CH", "ref": "181", "color": "#f4a261" }, "geometry": { "type": "LineString", "coordinates": [ [ -71.51688, -38.51679 ], [ -71.5167, -38.51713 ] ] } },
{ "type": "Feature", "properties": { "tipo": "trunk", "nombre": "Carrera", "ref": "S-11-R", "color": "#f4a261" }, "geometry": { "type": "LineString", "coordinates": [ [ -71.8941, -38.44517 ], [ -71.88924, -38.44554 ] ] } },
{ "type": "Feature", "properties": { "tipo": "trunk", "nombre": "Avenida Pérez Canto", "ref": "S-11-R", "color": "#f4a261" }, "geometry": { "type": "LineString", "coordinates": [ [ -71.88103, -38.44167 ], [ -71.88089, -38.4406 ] ] } },
{ "type": "Feature", "properties": { "tipo": "trunk", "nombre": "Avenida Pérez Canto", "ref": "S-11-R", "color": "#f4a261" }, "geometry": { "type": "LineString", "coordinates": [ [ -71.88114, -38.44058 ], [ -71.88126, -38.44164 ] ] } },
{ "type": "Feature", "properties": { "tipo": "trunk", "nombre": "Avenida Pérez Canto", "ref": "S-11-R", "color": "#f4a261" }, "geometry": { "type": "LineString", "coordinates": [ [ -71.88089, -38.4406 ], [ -71.88077, -38.43952 ] ] } },
{ "type": "Feature", "properties": { "tipo": "trunk", "nombre": "Avenida Pérez Canto", "ref": "S-11-R", "color": "#f4a261" }, "geometry": { "type": "LineString", "coordinates": [ [ -71.8807, -38.43717 ], [ -71.88072, -38.43735 ] ] } },
{ "type": "Feature", "properties": { "tipo": "trunk", "nombre": "Avenida Pérez Canto", "ref": "S-11-R", "color": "#f4a261" }, "geometry": { "type": "LineString", "coordinates": [ [ -71.88049, -38.43738 ], [ -71.88046, -38.43719 ] ] } },
{ "type": "Feature", "properties": { "tipo": "trunk", "nombre": "Avenida Pérez Canto", "ref": "S-11-R", "color": "#f4a261" }, "geometry": { "type": "LineString", "coordinates": [ [ -71.88063, -38.43843 ], [ -71.88049, -38.43738 ] ] } },
{ "type": "Feature", "properties": { "tipo": "trunk", "nombre": "Avenida Pérez Canto", "ref": "S-11-R", "color": "#f4a261" }, "geometry": { "type": "LineString", "coordinates": [ [ -71.88086, -38.43842 ], [ -71.881, -38.4395 ] ] } },
{ "type": "Feature", "properties": { "tipo": "trunk", "nombre": "Avenida Pérez Canto", "ref": "S-11-R", "color": "#f4a261" }, "geometry": { "type": "LineString", "coordinates": [ [ -71.88072, -38.43735 ], [ -71.88086, -38.43842 ] ] } },
{ "type": "Feature", "properties": { "tipo": "trunk", "nombre": "Avenida Pérez Canto", "ref": "S-11-R", "color": "#f4a261" }, "geometry": { "type": "LineString", "coordinates": [ [ -71.88077, -38.43952 ], [ -71.88063, -38.43843 ] ] } },
{ "type": "Feature", "properties": { "tipo": "trunk", "nombre": "Avenida Pérez Canto", "ref": "S-11-R", "color": "#f4a261" }, "geometry": { "type": "LineString", "coordinates": [ [ -71.881, -38.4395 ], [ -71.88114, -38.44058 ] ] } },
{ "type": "Feature", "properties": { "tipo": "trunk", "nombre": "Avenida Manuel Rodríguez", "ref": "181", "color": "#f4a261" }, "geometry": { "type": "LineString", "coordinates": [ [ -71.88046, -38.43719 ], [ -71.8792, -38.43743 ] ] } },
{ "type": "Feature", "properties": { "tipo": "trunk", "nombre": "Avenida Manuel Rodríguez", "ref": "181", "color": "#f4a261" }, "geometry": { "type": "LineString", "coordinates": [ [ -71.8807, -38.43717 ], [ -71.88046, -38.43719 ] ] } },
{ "type": "Feature", "properties": { "tipo": "trunk", "nombre": "Avenida Manuel Rodríguez", "ref": "181", "color": "#f4a261" }, "geometry": { "type": "LineString", "coordinates": [ [ -71.88209, -38.43707 ], [ -71.8807, -38.43717 ] ] } },
{ "type": "Feature", "properties": { "tipo": "trunk", "nombre": "Ruta 181 CH", "ref": "181", "color": "#f4a261" }, "geometry": { "type": "LineString", "coordinates": [ [ -71.85375, -38.4421 ], [ -71.8461, -38.44323 ] ] } },
{ "type": "Feature", "properties": { "tipo": "trunk", "nombre": "Ruta 181 CH", "ref": "181", "color": "#f4a261" }, "geometry": { "type": "LineString", "coordinates": [ [ -71.87115, -38.43899 ], [ -71.85375, -38.4421 ] ] } },
{ "type": "Feature", "properties": { "tipo": "trunk", "nombre": "Camino Internacional", "ref": "181", "color": "#f4a261" }, "geometry": { "type": "LineString", "coordinates": [ [ -71.69808, -38.46853 ], [ -71.69752, -38.46881 ] ] } },
{ "type": "Feature", "properties": { "tipo": "trunk", "nombre": "Camino Internacional", "ref": "181", "color": "#f4a261" }, "geometry": { "type": "LineString", "coordinates": [ [ -71.69752, -38.46881 ], [ -71.69742, -38.46885 ] ] } },
{ "type": "Feature", "properties": { "tipo": "trunk", "nombre": "Ruta 181 CH", "ref": "181", "color": "#f4a261" }, "geometry": { "type": "LineString", "coordinates": [ [ -71.76331, -38.46366 ], [ -71.76307, -38.46355 ] ] } },
{ "type": "Feature", "properties": { "tipo": "trunk", "nombre": "Ruta 181 CH", "ref": "181", "color": "#f4a261" }, "geometry": { "type": "LineString", "coordinates": [ [ -71.76868, -38.46453 ], [ -71.76364, -38.4638 ] ] } },
{ "type": "Feature", "properties": { "tipo": "trunk", "nombre": "Ruta 181 CH", "ref": "181", "color": "#f4a261" }, "geometry": { "type": "LineString", "coordinates": [ [ -71.82335, -38.45119 ], [ -71.80189, -38.45958 ], [ -71.77987, -38.4646 ], [ -71.76868, -38.46453 ] ] } },
{ "type": "Feature", "properties": { "tipo": "trunk", "nombre": "Ruta 181 CH", "ref": "181", "color": "#f4a261" }, "geometry": { "type": "LineString", "coordinates": [ [ -72.00689, -38.32526 ], [ -71.98377, -38.3301 ] ] } },
{ "type": "Feature", "properties": { "tipo": "trunk", "nombre": "Ruta 181 CH", "ref": "181", "color": "#f4a261" }, "geometry": { "type": "LineString", "coordinates": [ [ -71.98377, -38.3301 ], [ -71.97363, -38.33178 ] ] } },
{ "type": "Feature", "properties": { "tipo": "trunk", "nombre": "Ruta 181 CH", "ref": "181", "color": "#f4a261" }, "geometry": { "type": "LineString", "coordinates": [ [ -72.01043, -38.32452 ], [ -72.00689, -38.32526 ] ] } },
{ "type": "Feature", "properties": { "tipo": "trunk", "nombre": "Ruta 181 CH", "ref": "181", "color": "#f4a261" }, "geometry": { "type": "LineString", "coordinates": [ [ -72.08033, -38.30027 ], [ -72.07715, -38.30101 ] ] } },
{ "type": "Feature", "properties": { "tipo": "trunk", "nombre": "Ruta 181 CH", "ref": "181", "color": "#f4a261" }, "geometry": { "type": "LineString", "coordinates": [ [ -72.14559, -38.29704 ], [ -72.12118, -38.29168 ], [ -72.09852, -38.29597 ], [ -72.08316, -38.29961 ] ] } },
{ "type": "Feature", "properties": { "tipo": "trunk", "nombre": "Ruta 181 CH", "ref": "181", "color": "#f4a261" }, "geometry": { "type": "LineString", "coordinates": [ [ -72.08316, -38.29961 ], [ -72.08033, -38.30027 ] ] } },
{ "type": "Feature", "properties": { "tipo": "trunk", "nombre": "Ruta 181 CH", "ref": "181", "color": "#f4a261" }, "geometry": { "type": "LineString", "coordinates": [ [ -72.07715, -38.30101 ], [ -72.07459, -38.30161 ] ] } },
{ "type": "Feature", "properties": { "tipo": "trunk", "nombre": "Ruta 181 CH", "ref": "181", "color": "#f4a261" }, "geometry": { "type": "LineString", "coordinates": [ [ -71.93414, -38.35652 ], [ -71.93463, -38.35999 ] ] } },
{ "type": "Feature", "properties": { "tipo": "trunk", "nombre": "Ruta 181 CH", "ref": "181", "color": "#f4a261" }, "geometry": { "type": "LineString", "coordinates": [ [ -71.93355, -38.35563 ], [ -71.93414, -38.35652 ] ] } },
{ "type": "Feature", "properties": { "tipo": "trunk", "nombre": "Ruta 181 CH", "ref": "181", "color": "#f4a261" }, "geometry": { "type": "LineString", "coordinates": [ [ -71.93463, -38.35999 ], [ -71.93426, -38.36134 ] ] } },
{ "type": "Feature", "properties": { "tipo": "trunk", "nombre": "Ruta 181 CH", "ref": "181", "color": "#f4a261" }, "geometry": { "type": "LineString", "coordinates": [ [ -72.07459, -38.30161 ], [ -72.074, -38.30175 ] ] } },
{ "type": "Feature", "properties": { "tipo": "trunk", "nombre": "Ruta 181 CH", "ref": "181", "color": "#f4a261" }, "geometry": { "type": "LineString", "coordinates": [ [ -71.57988, -38.47071 ], [ -71.57799, -38.47106 ] ] } },
{ "type": "Feature", "properties": { "tipo": "trunk", "nombre": "Ruta 181 CH", "ref": "181", "color": "#f4a261" }, "geometry": { "type": "LineString", "coordinates": [ [ -71.56913, -38.47181 ], [ -71.5569, -38.47364 ] ] } },
{ "type": "Feature", "properties": { "tipo": "trunk", "nombre": "Ruta 181 CH", "ref": "181", "color": "#f4a261" }, "geometry": { "type": "LineString", "coordinates": [ [ -71.57799, -38.47106 ], [ -71.57756, -38.4711 ] ] } },
{ "type": "Feature", "properties": { "tipo": "trunk", "nombre": "Ruta 181 CH", "ref": "181", "color": "#f4a261" }, "geometry": { "type": "LineString", "coordinates": [ [ -71.57419, -38.47137 ], [ -71.56913, -38.47181 ] ] } },
{ "type": "Feature", "properties": { "tipo": "trunk", "nombre": "Ruta 181 CH", "ref": "181", "color": "#f4a261" }, "geometry": { "type": "LineString", "coordinates": [ [ -71.63317, -38.46281 ], [ -71.60667, -38.46518 ], [ -71.58449, -38.46964 ] ] } },
{ "type": "Feature", "properties": { "tipo": "trunk", "nombre": "Ruta 181 CH", "ref": "181", "color": "#f4a261" }, "geometry": { "type": "LineString", "coordinates": [ [ -71.51773, -38.51546 ], [ -71.51757, -38.51565 ] ] } },
{ "type": "Feature", "properties": { "tipo": "trunk", "nombre": "Ruta 181 CH", "ref": "181", "color": "#f4a261" }, "geometry": { "type": "LineString", "coordinates": [ [ -71.68703, -38.47363 ], [ -71.66571, -38.46804 ], [ -71.65968, -38.46753 ] ] } },
{ "type": "Feature", "properties": { "tipo": "trunk", "nombre": "Ruta 181 CH", "ref": "181", "color": "#f4a261" }, "geometry": { "type": "LineString", "coordinates": [ [ -71.69742, -38.46885 ], [ -71.68703, -38.47363 ] ] } },
{ "type": "Feature", "properties": { "tipo": "trunk", "nombre": "Avenida Pérez Canto", "ref": "S-11-R", "color": "#f4a261" }, "geometry": { "type": "LineString", "coordinates": [ [ -71.88157, -38.44613 ], [ -71.88155, -38.44596 ] ] } },
{ "type": "Feature", "properties": { "tipo": "trunk", "nombre": "Avenida Manuel Rodríguez", "ref": "181", "color": "#f4a261" }, "geometry": { "type": "LineString", "coordinates": [ [ -71.8792, -38.43743 ], [ -71.87648, -38.43795 ] ] } },
{ "type": "Feature", "properties": { "tipo": "trunk", "nombre": "Avenida Manuel Rodríguez", "ref": "181", "color": "#f4a261" }, "geometry": { "type": "LineString", "coordinates": [ [ -71.91376, -38.43216 ], [ -71.9058, -38.43386 ] ] } },
{ "type": "Feature", "properties": { "tipo": "trunk", "nombre": "Ruta 181 CH", "ref": "181", "color": "#f4a261" }, "geometry": { "type": "LineString", "coordinates": [ [ -71.935, -38.35526 ], [ -71.93375, -38.3555 ] ] } },
{ "type": "Feature", "properties": { "tipo": "trunk", "nombre": "Ruta 181 CH", "ref": "181", "color": "#f4a261" }, "geometry": { "type": "LineString", "coordinates": [ [ -72.0185, -38.32062 ], [ -72.01043, -38.32452 ] ] } },
{ "type": "Feature", "properties": { "tipo": "trunk", "nombre": "Ruta 181 CH", "ref": "181", "color": "#f4a261" }, "geometry": { "type": "LineString", "coordinates": [ [ -72.01873, -38.32059 ], [ -72.0185, -38.32062 ] ] } },
{ "type": "Feature", "properties": { "tipo": "trunk", "nombre": "Ruta 181 CH", "ref": "181", "color": "#f4a261" }, "geometry": { "type": "LineString", "coordinates": [ [ -71.76364, -38.4638 ], [ -71.76331, -38.46366 ] ] } },
{ "type": "Feature", "properties": { "tipo": "trunk", "nombre": "Ruta 181 CH", "ref": "181", "color": "#f4a261" }, "geometry": { "type": "LineString", "coordinates": [ [ -71.76307, -38.46355 ], [ -71.75861, -38.46168 ] ] } },
{ "type": "Feature", "properties": { "tipo": "trunk", "nombre": "Ruta 181 CH", "ref": "181", "color": "#f4a261" }, "geometry": { "type": "LineString", "coordinates": [ [ -71.72651, -38.46009 ], [ -71.71179, -38.46054 ] ] } },
{ "type": "Feature", "properties": { "tipo": "trunk", "nombre": "Ruta S-11-R", "ref": "S-11-R", "color": "#f4a261" }, "geometry": { "type": "LineString", "coordinates": [ [ -71.93171, -38.47224 ], [ -71.93351, -38.46736 ] ] } },
{ "type": "Feature", "properties": { "tipo": "trunk", "nombre": "Ruta S-11-R", "ref": "S-11-R", "color": "#f4a261" }, "geometry": { "type": "LineString", "coordinates": [ [ -71.93273, -38.47345 ], [ -71.93171, -38.47224 ] ] } },
{ "type": "Feature", "properties": { "tipo": "trunk", "nombre": "Ruta 181 CH", "ref": "181", "color": "#f4a261" }, "geometry": { "type": "LineString", "coordinates": [ [ -71.94543, -38.42015 ], [ -71.94411, -38.42229 ] ] } },
{ "type": "Feature", "properties": { "tipo": "trunk", "nombre": "Ruta 181 CH", "ref": "181", "color": "#f4a261" }, "geometry": { "type": "LineString", "coordinates": [ [ -71.94411, -38.42229 ], [ -71.94334, -38.42278 ] ] } },
{ "type": "Feature", "properties": { "tipo": "trunk", "nombre": "Ruta 181 CH", "ref": "181", "color": "#f4a261" }, "geometry": { "type": "LineString", "coordinates": [ [ -71.1371, -38.59424 ], [ -71.13622, -38.59478 ] ] } },
{ "type": "Feature", "properties": { "tipo": "trunk", "nombre": "Ruta 181 CH", "ref": "181", "color": "#f4a261" }, "geometry": { "type": "LineString", "coordinates": [ [ -71.14037, -38.59245 ], [ -71.1371, -38.59424 ] ] } },
{ "type": "Feature", "properties": { "tipo": "trunk", "nombre": "Ruta 181 CH", "ref": "181", "color": "#f4a261" }, "geometry": { "type": "LineString", "coordinates": [ [ -71.74058, -38.46063 ], [ -71.7403, -38.46065 ] ] } },
{ "type": "Feature", "properties": { "tipo": "trunk", "nombre": "Ruta 181 CH", "ref": "181", "color": "#f4a261" }, "geometry": { "type": "LineString", "coordinates": [ [ -71.75861, -38.46168 ], [ -71.74058, -38.46063 ] ] } },
{ "type": "Feature", "properties": { "tipo": "trunk", "nombre": "Ruta 181 CH", "ref": "181", "color": "#f4a261" }, "geometry": { "type": "LineString", "coordinates": [ [ -71.70446, -38.46254 ], [ -71.70317, -38.46469 ] ] } },
{ "type": "Feature", "properties": { "tipo": "trunk", "nombre": "Ruta 181 CH", "ref": "181", "color": "#f4a261" }, "geometry": { "type": "LineString", "coordinates": [ [ -71.70509, -38.46198 ], [ -71.70489, -38.46216 ] ] } },
{ "type": "Feature", "properties": { "tipo": "trunk", "nombre": "Ruta 181 CH", "ref": "181", "color": "#f4a261" }, "geometry": { "type": "LineString", "coordinates": [ [ -71.41995, -38.55013 ], [ -71.41945, -38.54986 ] ] } },
{ "type": "Feature", "properties": { "tipo": "trunk", "nombre": "Ruta 181 CH", "ref": "181", "color": "#f4a261" }, "geometry": { "type": "LineString", "coordinates": [ [ -71.43318, -38.55337 ], [ -71.41995, -38.55013 ] ] } },
{ "type": "Feature", "properties": { "tipo": "trunk", "nombre": "Ruta 181 CH", "ref": "181", "color": "#f4a261" }, "geometry": { "type": "LineString", "coordinates": [ [ -71.7403, -38.46065 ], [ -71.72651, -38.46009 ] ] } },
{ "type": "Feature", "properties": { "tipo": "trunk", "nombre": "Ruta 181 CH", "ref": "181", "color": "#f4a261" }, "geometry": { "type": "LineString", "coordinates": [ [ -71.70317, -38.46469 ], [ -71.7028, -38.46573 ] ] } },
{ "type": "Feature", "properties": { "tipo": "trunk", "nombre": "Ruta 181 CH", "ref": "181", "color": "#f4a261" }, "geometry": { "type": "LineString", "coordinates": [ [ -71.7028, -38.46573 ], [ -71.70186, -38.46667 ] ] } },
{ "type": "Feature", "properties": { "tipo": "trunk", "nombre": "Ruta 181 CH", "ref": "181", "color": "#f4a261" }, "geometry": { "type": "LineString", "coordinates": [ [ -71.71179, -38.46054 ], [ -71.71121, -38.46044 ] ] } },
{ "type": "Feature", "properties": { "tipo": "trunk", "nombre": "Ruta 181 CH", "ref": "181", "color": "#f4a261" }, "geometry": { "type": "LineString", "coordinates": [ [ -71.71121, -38.46044 ], [ -71.70844, -38.46016 ] ] } },
{ "type": "Feature", "properties": { "tipo": "trunk", "nombre": "Ruta 181 CH", "ref": "181", "color": "#f4a261" }, "geometry": { "type": "LineString", "coordinates": [ [ -71.70844, -38.46016 ], [ -71.70803, -38.46021 ] ] } },
{ "type": "Feature", "properties": { "tipo": "trunk", "nombre": "Ruta 181 CH", "ref": "181", "color": "#f4a261" }, "geometry": { "type": "LineString", "coordinates": [ [ -71.70803, -38.46021 ], [ -71.70509, -38.46198 ] ] } },
{ "type": "Feature", "properties": { "tipo": "trunk", "nombre": "Ruta 181 CH", "ref": "181", "color": "#f4a261" }, "geometry": { "type": "LineString", "coordinates": [ [ -71.70465, -38.46236 ], [ -71.70446, -38.46254 ] ] } },
{ "type": "Feature", "properties": { "tipo": "trunk", "nombre": "Ruta 181 CH", "ref": "181", "color": "#f4a261" }, "geometry": { "type": "LineString", "coordinates": [ [ -71.70489, -38.46216 ], [ -71.70465, -38.46236 ] ] } },
{ "type": "Feature", "properties": { "tipo": "trunk", "nombre": "Ruta 181 CH", "ref": "181", "color": "#f4a261" }, "geometry": { "type": "LineString", "coordinates": [ [ -71.37172, -38.48818 ], [ -71.35801, -38.46792 ] ] } },
{ "type": "Feature", "properties": { "tipo": "trunk", "nombre": "Ruta 181 CH", "ref": "181", "color": "#f4a261" }, "geometry": { "type": "LineString", "coordinates": [ [ -71.3721, -38.48839 ], [ -71.37172, -38.48818 ] ] } },
{ "type": "Feature", "properties": { "tipo": "trunk", "nombre": "Ruta 181 CH", "ref": "181", "color": "#f4a261" }, "geometry": { "type": "LineString", "coordinates": [ [ -71.43459, -38.55245 ], [ -71.43367, -38.55329 ] ] } },
{ "type": "Feature", "properties": { "tipo": "trunk", "nombre": "Ruta 181 CH", "ref": "181", "color": "#f4a261" }, "geometry": { "type": "LineString", "coordinates": [ [ -71.4386, -38.55138 ], [ -71.43662, -38.54948 ] ] } },
{ "type": "Feature", "properties": { "tipo": "trunk", "nombre": "Ruta 181 CH", "ref": "181", "color": "#f4a261" }, "geometry": { "type": "LineString", "coordinates": [ [ -71.47262, -38.56223 ], [ -71.47059, -38.56168 ] ] } },
{ "type": "Feature", "properties": { "tipo": "trunk", "nombre": "Ruta 181 CH", "ref": "181", "color": "#f4a261" }, "geometry": { "type": "LineString", "coordinates": [ [ -71.47674, -38.56335 ], [ -71.47262, -38.56223 ] ] } },
{ "type": "Feature", "properties": { "tipo": "trunk", "nombre": "Ruta 181 CH", "ref": "181", "color": "#f4a261" }, "geometry": { "type": "LineString", "coordinates": [ [ -71.47982, -38.56421 ], [ -71.47873, -38.56391 ] ] } },
{ "type": "Feature", "properties": { "tipo": "trunk", "nombre": "Ruta 181 CH", "ref": "181", "color": "#f4a261" }, "geometry": { "type": "LineString", "coordinates": [ [ -71.53198, -38.4844 ], [ -71.52271, -38.49235 ] ] } },
{ "type": "Feature", "properties": { "tipo": "trunk", "nombre": "Ruta 181 CH", "ref": "181", "color": "#f4a261" }, "geometry": { "type": "LineString", "coordinates": [ [ -71.49267, -38.56648 ], [ -71.47982, -38.56421 ] ] } },
{ "type": "Feature", "properties": { "tipo": "trunk", "nombre": "Ruta 181 CH", "ref": "181", "color": "#f4a261" }, "geometry": { "type": "LineString", "coordinates": [ [ -71.53875, -38.47789 ], [ -71.5369, -38.47836 ] ] } },
{ "type": "Feature", "properties": { "tipo": "trunk", "nombre": "Avenida Pérez Canto", "ref": "S-11-R", "color": "#f4a261" }, "geometry": { "type": "LineString", "coordinates": [ [ -71.88155, -38.44596 ], [ -71.88152, -38.44571 ] ] } },
{ "type": "Feature", "properties": { "tipo": "trunk", "nombre": "Carrera", "ref": "S-11-R", "color": "#f4a261" }, "geometry": { "type": "LineString", "coordinates": [ [ -71.8818, -38.44611 ], [ -71.88157, -38.44613 ] ] } },
{ "type": "Feature", "properties": { "tipo": "trunk", "nombre": "Ruta 181 CH", "ref": "181", "color": "#f4a261" }, "geometry": { "type": "LineString", "coordinates": [ [ -71.5761, -38.47122 ], [ -71.57573, -38.47125 ] ] } },
{ "type": "Feature", "properties": { "tipo": "trunk", "nombre": "Ruta 181 CH", "ref": "181", "color": "#f4a261" }, "geometry": { "type": "LineString", "coordinates": [ [ -71.57573, -38.47125 ], [ -71.57419, -38.47137 ] ] } },
{ "type": "Feature", "properties": { "tipo": "trunk", "nombre": "Ruta 181 CH", "ref": "181", "color": "#f4a261" }, "geometry": { "type": "LineString", "coordinates": [ [ -71.5763, -38.4712 ], [ -71.5761, -38.47122 ] ] } },
{ "type": "Feature", "properties": { "tipo": "trunk", "nombre": "Ruta 181 CH", "ref": "181", "color": "#f4a261" }, "geometry": { "type": "LineString", "coordinates": [ [ -71.57724, -38.47112 ], [ -71.57676, -38.47116 ] ] } },
{ "type": "Feature", "properties": { "tipo": "trunk", "nombre": "Ruta 181 CH", "ref": "181", "color": "#f4a261" }, "geometry": { "type": "LineString", "coordinates": [ [ -71.57756, -38.4711 ], [ -71.57724, -38.47112 ] ] } },
{ "type": "Feature", "properties": { "tipo": "trunk", "nombre": "Ruta 181 CH", "ref": "181", "color": "#f4a261" }, "geometry": { "type": "LineString", "coordinates": [ [ -71.57676, -38.47116 ], [ -71.5763, -38.4712 ] ] } },
{ "type": "Feature", "properties": { "tipo": "trunk", "nombre": "Ruta 181 CH", "ref": "181", "color": "#f4a261" }, "geometry": { "type": "LineString", "coordinates": [ [ -71.5826, -38.47009 ], [ -71.57988, -38.47071 ] ] } },
{ "type": "Feature", "properties": { "tipo": "trunk", "nombre": "Ruta 181 CH", "ref": "181", "color": "#f4a261" }, "geometry": { "type": "LineString", "coordinates": [ [ -71.58449, -38.46964 ], [ -71.5826, -38.47009 ] ] } },
{ "type": "Feature", "properties": { "tipo": "trunk", "nombre": "Ruta 181 CH", "ref": "181", "color": "#f4a261" }, "geometry": { "type": "LineString", "coordinates": [ [ -71.55107, -38.475 ], [ -71.54944, -38.47538 ] ] } },
{ "type": "Feature", "properties": { "tipo": "trunk", "nombre": "Ruta 181 CH", "ref": "181", "color": "#f4a261" }, "geometry": { "type": "LineString", "coordinates": [ [ -71.55682, -38.47366 ], [ -71.55107, -38.475 ] ] } },
{ "type": "Feature", "properties": { "tipo": "trunk", "nombre": "Ruta 181 CH", "ref": "181", "color": "#f4a261" }, "geometry": { "type": "LineString", "coordinates": [ [ -71.53637, -38.48106 ], [ -71.53198, -38.4844 ] ] } },
{ "type": "Feature", "properties": { "tipo": "trunk", "nombre": "Ruta 181 CH", "ref": "181", "color": "#f4a261" }, "geometry": { "type": "LineString", "coordinates": [ [ -71.53653, -38.47888 ], [ -71.5364, -38.48077 ] ] } },
{ "type": "Feature", "properties": { "tipo": "trunk", "nombre": "Ruta 181 CH", "ref": "181", "color": "#f4a261" }, "geometry": { "type": "LineString", "coordinates": [ [ -71.52271, -38.49235 ], [ -71.51975, -38.4996 ] ] } },
{ "type": "Feature", "properties": { "tipo": "trunk", "nombre": "Ruta 181 CH", "ref": "181", "color": "#f4a261" }, "geometry": { "type": "LineString", "coordinates": [ [ -71.23665, -38.47263 ], [ -71.23726, -38.47343 ] ] } },
{ "type": "Feature", "properties": { "tipo": "trunk", "nombre": "Ruta 181 CH", "ref": "181", "color": "#f4a261" }, "geometry": { "type": "LineString", "coordinates": [ [ -71.23609, -38.47164 ], [ -71.23665, -38.47263 ] ] } },
{ "type": "Feature", "properties": { "tipo": "trunk", "nombre": "Ruta 181 CH", "ref": "181", "color": "#f4a261" }, "geometry": { "type": "LineString", "coordinates": [ [ -71.23548, -38.4698 ], [ -71.23609, -38.47164 ] ] } },
{ "type": "Feature", "properties": { "tipo": "trunk", "nombre": "Ruta 181 CH", "ref": "181", "color": "#f4a261" }, "geometry": { "type": "LineString", "coordinates": [ [ -71.23564, -38.45899 ], [ -71.23445, -38.46198 ] ] } },
{ "type": "Feature", "properties": { "tipo": "trunk", "nombre": "Ruta 181 CH", "ref": "181", "color": "#f4a261" }, "geometry": { "type": "LineString", "coordinates": [ [ -71.23507, -38.46771 ], [ -71.23548, -38.4698 ] ] } },
{ "type": "Feature", "properties": { "tipo": "trunk", "nombre": "Ruta 181 CH", "ref": "181", "color": "#f4a261" }, "geometry": { "type": "LineString", "coordinates": [ [ -71.23434, -38.46353 ], [ -71.23441, -38.46392 ] ] } },
{ "type": "Feature", "properties": { "tipo": "trunk", "nombre": "Ruta 181 CH", "ref": "181", "color": "#f4a261" }, "geometry": { "type": "LineString", "coordinates": [ [ -71.23448, -38.46431 ], [ -71.23507, -38.46771 ] ] } },
{ "type": "Feature", "properties": { "tipo": "trunk", "nombre": "Ruta 181 CH", "ref": "181", "color": "#f4a261" }, "geometry": { "type": "LineString", "coordinates": [ [ -71.23441, -38.46392 ], [ -71.23448, -38.46431 ] ] } },
{ "type": "Feature", "properties": { "tipo": "trunk", "nombre": "Ruta 181 CH", "ref": "181", "color": "#f4a261" }, "geometry": { "type": "LineString", "coordinates": [ [ -71.23445, -38.46198 ], [ -71.23434, -38.46353 ] ] } },
{ "type": "Feature", "properties": { "tipo": "trunk", "nombre": "Ruta 181 CH", "ref": "181", "color": "#f4a261" }, "geometry": { "type": "LineString", "coordinates": [ [ -71.23726, -38.47343 ], [ -71.23799, -38.47469 ] ] } },
{ "type": "Feature", "properties": { "tipo": "trunk", "nombre": "Ruta 181 CH", "ref": "181", "color": "#f4a261" }, "geometry": { "type": "LineString", "coordinates": [ [ -71.31915, -38.45622 ], [ -71.29486, -38.45634 ], [ -71.28899, -38.45667 ] ] } },
{ "type": "Feature", "properties": { "tipo": "trunk", "nombre": "Ruta 181 CH", "ref": "181", "color": "#f4a261" }, "geometry": { "type": "LineString", "coordinates": [ [ -71.35439, -38.46592 ], [ -71.33389, -38.45844 ], [ -71.31915, -38.45622 ] ] } },
{ "type": "Feature", "properties": { "tipo": "trunk", "nombre": "Ruta 181 CH", "ref": "181", "color": "#f4a261" }, "geometry": { "type": "LineString", "coordinates": [ [ -71.35801, -38.46792 ], [ -71.35439, -38.46592 ] ] } },
{ "type": "Feature", "properties": { "tipo": "trunk", "nombre": "Ruta 181 CH", "ref": "181", "color": "#f4a261" }, "geometry": { "type": "LineString", "coordinates": [ [ -71.49785, -38.55827 ], [ -71.49771, -38.55838 ] ] } },
{ "type": "Feature", "properties": { "tipo": "trunk", "nombre": "Ruta 181 CH", "ref": "181", "color": "#f4a261" }, "geometry": { "type": "LineString", "coordinates": [ [ -71.49834, -38.5577 ], [ -71.49785, -38.55827 ] ] } },
{ "type": "Feature", "properties": { "tipo": "trunk", "nombre": "Ruta 181 CH", "ref": "181", "color": "#f4a261" }, "geometry": { "type": "LineString", "coordinates": [ [ -71.49777, -38.55823 ], [ -71.49834, -38.5577 ] ] } },
{ "type": "Feature", "properties": { "tipo": "trunk", "nombre": "Ruta 181 CH", "ref": "181", "color": "#f4a261" }, "geometry": { "type": "LineString", "coordinates": [ [ -71.49764, -38.55835 ], [ -71.49777, -38.55823 ] ] } },
{ "type": "Feature", "properties": { "tipo": "trunk", "nombre": "Ruta 181 CH", "ref": "181", "color": "#f4a261" }, "geometry": { "type": "LineString", "coordinates": [ [ -71.47873, -38.56391 ], [ -71.47674, -38.56335 ] ] } },
{ "type": "Feature", "properties": { "tipo": "trunk", "nombre": "Camino Internacional", "ref": "181", "color": "#f4a261" }, "geometry": { "type": "LineString", "coordinates": [ [ -71.69864, -38.46826 ], [ -71.69808, -38.46853 ] ] } },
{ "type": "Feature", "properties": { "tipo": "trunk", "nombre": "Ruta 181 CH", "ref": "181", "color": "#f4a261" }, "geometry": { "type": "LineString", "coordinates": [ [ -71.835, -38.44905 ], [ -71.82396, -38.45099 ] ] } },
{ "type": "Feature", "properties": { "tipo": "trunk", "nombre": "Ruta 181 CH", "ref": "181", "color": "#f4a261" }, "geometry": { "type": "LineString", "coordinates": [ [ -71.83516, -38.44897 ], [ -71.835, -38.44905 ] ] } },
{ "type": "Feature", "properties": { "tipo": "trunk", "nombre": "Ruta 181 CH", "ref": "181", "color": "#f4a261" }, "geometry": { "type": "LineString", "coordinates": [ [ -71.14228, -38.5893 ], [ -71.14232, -38.5903 ] ] } },
{ "type": "Feature", "properties": { "tipo": "trunk", "nombre": "Ruta 181 CH", "ref": "181", "color": "#f4a261" }, "geometry": { "type": "LineString", "coordinates": [ [ -71.14232, -38.5903 ], [ -71.14113, -38.59173 ] ] } }
]
}
