{
"type": "FeatureCollection",
"name": "MEL",
"crs": { "type": "name", "properties": { "name": "urn:ogc:def:crs:OGC:1.3:CRS84" } },
"xy_coordinate_resolution": 1e-05,
"features": [
{ "type": "Feature", "properties": { "tipo": "trunk", "nombre": "Carretera Austral", "ref": "7", "color": "#f4a261" }, "geometry": { "type": "LineString", "coordinates": [ [ -72.49691, -44.19767 ], [ -72.50201, -44.21781 ], [ -72.50356, -44.22227 ] ] } },
{ "type": "Feature", "properties": { "tipo": "trunk", "nombre": "Carretera Austral", "ref": "7", "color": "#f4a261" }, "geometry": { "type": "LineString", "coordinates": [ [ -72.39787, -43.9644 ], [ -72.39821, -43.96517 ] ] } },
{ "type": "Feature", "properties": { "tipo": "trunk", "nombre": "Carretera Austral", "ref": "7", "color": "#f4a261" }, "geometry": { "type": "LineString", "coordinates": [ [ -72.3964, -43.96087 ], [ -72.397, -43.96235 ] ] } },
{ "type": "Feature", "properties": { "tipo": "trunk", "nombre": "Carretera Austral", "ref": "7", "color": "#f4a261" }, "geometry": { "type": "LineString", "coordinates": [ [ -72.45918, -44.13503 ], [ -72.45931, -44.13525 ] ] } },
{ "type": "Feature", "properties": { "tipo": "trunk", "nombre": "Carretera Austral", "ref": "7", "color": "#f4a261" }, "geometry": { "type": "LineString", "coordinates": [ [ -72.45931, -44.13525 ], [ -72.46721, -44.15227 ] ] } },
{ "type": "Feature", "properties": { "tipo": "trunk", "nombre": "Carretera Austral", "ref": "7", "color": "#f4a261" }, "geometry": { "type": "LineString", "coordinates": [ [ -72.39968, -43.96862 ], [ -72.39963, -43.96832 ] ] } },
{ "type": "Feature", "properties": { "tipo": "trunk", "nombre": "Carretera Austral", "ref": "7", "color": "#f4a261" }, "geometry": { "type": "LineString", "coordinates": [ [ -72.55518, -44.3287 ], [ -72.56747, -44.34501 ], [ -72.5643, -44.35721 ] ] } },
{ "type": "Feature", "properties": { "tipo": "trunk", "nombre": "Carretera Austral", "ref": "7", "color": "#f4a261" }, "geometry": { "type": "LineString", "coordinates": [ [ -72.55064, -44.30063 ], [ -72.55637, -44.30978 ] ] } },
{ "type": "Feature", "properties": { "tipo": "trunk", "nombre": "Carretera Austral", "ref": "7", "color": "#f4a261" }, "geometry": { "type": "LineString", "coordinates": [ [ -72.54476, -44.29655 ], [ -72.55043, -44.30054 ] ] } },
{ "type": "Feature", "properties": { "tipo": "trunk", "nombre": "Carretera Austral", "ref": "7", "color": "#f4a261" }, "geometry": { "type": "LineString", "coordinates": [ [ -72.5447, -44.29638 ], [ -72.54476, -44.29655 ] ] } },
{ "type": "Feature", "properties": { "tipo": "trunk", "nombre": "Carretera Austral", "ref": "7", "color": "#f4a261" }, "geometry": { "type": "LineString", "coordinates": [ [ -72.55043, -44.30054 ], [ -72.55064, -44.30063 ] ] } },
{ "type": "Feature", "properties": { "tipo": "trunk", "nombre": "Carretera Austral", "ref": "7", "color": "#f4a261" }, "geometry": { "type": "LineString", "coordinates": [ [ -72.55327, -44.31953 ], [ -72.55347, -44.31929 ] ] } },
{ "type": "Feature", "properties": { "tipo": "trunk", "nombre": "Carretera Austral", "ref": "7", "color": "#f4a261" }, "geometry": { "type": "LineString", "coordinates": [ [ -72.56148, -44.4607 ], [ -72.56666, -44.47061 ] ] } },
{ "type": "Feature", "properties": { "tipo": "trunk", "nombre": "Carretera Austral", "ref": "7", "color": "#f4a261" }, "geometry": { "type": "LineString", "coordinates": [ [ -72.56194, -44.46042 ], [ -72.56148, -44.4607 ] ] } },
{ "type": "Feature", "properties": { "tipo": "trunk", "nombre": "Carretera Austral", "ref": "7", "color": "#f4a261" }, "geometry": { "type": "LineString", "coordinates": [ [ -72.53244, -44.28213 ], [ -72.53256, -44.28242 ] ] } },
{ "type": "Feature", "properties": { "tipo": "trunk", "nombre": "Carretera Austral", "ref": "7", "color": "#f4a261" }, "geometry": { "type": "LineString", "coordinates": [ [ -72.51632, -44.24869 ], [ -72.51648, -44.2489 ] ] } },
{ "type": "Feature", "properties": { "tipo": "trunk", "nombre": "Carretera Austral", "ref": "7", "color": "#f4a261" }, "geometry": { "type": "LineString", "coordinates": [ [ -72.52732, -44.26874 ], [ -72.53244, -44.28213 ] ] } },
{ "type": "Feature", "properties": { "tipo": "trunk", "nombre": "Carretera Austral", "ref": "7", "color": "#f4a261" }, "geometry": { "type": "LineString", "coordinates": [ [ -72.50794, -44.23469 ], [ -72.51632, -44.24869 ] ] } },
{ "type": "Feature", "properties": { "tipo": "trunk", "nombre": "Carretera Austral", "ref": "7", "color": "#f4a261" }, "geometry": { "type": "LineString", "coordinates": [ [ -72.52718, -44.26858 ], [ -72.52732, -44.26874 ] ] } },
{ "type": "Feature", "properties": { "tipo": "trunk", "nombre": "Carretera Austral", "ref": "7", "color": "#f4a261" }, "geometry": { "type": "LineString", "coordinates": [ [ -72.53256, -44.28242 ], [ -72.5447, -44.29638 ] ] } },
{ "type": "Feature", "properties": { "tipo": "trunk", "nombre": "Carretera Austral", "ref": "7", "color": "#f4a261" }, "geometry": { "type": "LineString", "coordinates": [ [ -72.50786, -44.23457 ], [ -72.50794, -44.23469 ] ] } },
{ "type": "Feature", "properties": { "tipo": "trunk", "nombre": "Carretera Austral", "ref": "7", "color": "#f4a261" }, "geometry": { "type": "LineString", "coordinates": [ [ -72.51648, -44.2489 ], [ -72.5263, -44.26667 ], [ -72.52666, -44.26794 ] ] } },
{ "type": "Feature", "properties": { "tipo": "trunk", "nombre": "Carretera Austral", "ref": "7", "color": "#f4a261" }, "geometry": { "type": "LineString", "coordinates": [ [ -72.45054, -44.09866 ], [ -72.45055, -44.09894 ] ] } },
{ "type": "Feature", "properties": { "tipo": "trunk", "nombre": "Carretera Austral", "ref": "7", "color": "#f4a261" }, "geometry": { "type": "LineString", "coordinates": [ [ -72.4673, -44.15189 ], [ -72.48678, -44.16835 ] ] } },
{ "type": "Feature", "properties": { "tipo": "trunk", "nombre": "Carretera Austral", "ref": "7", "color": "#f4a261" }, "geometry": { "type": "LineString", "coordinates": [ [ -72.45049, -44.1011 ], [ -72.45453, -44.12218 ], [ -72.45918, -44.13503 ] ] } },
{ "type": "Feature", "properties": { "tipo": "trunk", "nombre": "Carretera Austral", "ref": "7", "color": "#f4a261" }, "geometry": { "type": "LineString", "coordinates": [ [ -72.4059, -43.98174 ], [ -72.406, -43.98187 ] ] } },
{ "type": "Feature", "properties": { "tipo": "trunk", "nombre": "Carretera Austral", "ref": "7", "color": "#f4a261" }, "geometry": { "type": "LineString", "coordinates": [ [ -72.45055, -44.09894 ], [ -72.4505, -44.10085 ] ] } },
{ "type": "Feature", "properties": { "tipo": "trunk", "nombre": "Carretera Austral", "ref": "7", "color": "#f4a261" }, "geometry": { "type": "LineString", "coordinates": [ [ -72.4505, -44.10085 ], [ -72.45049, -44.1011 ] ] } },
{ "type": "Feature", "properties": { "tipo": "trunk", "nombre": "Carretera Austral", "ref": "7", "color": "#f4a261" }, "geometry": { "type": "LineString", "coordinates": [ [ -72.48713, -44.16857 ], [ -72.49616, -44.18666 ], [ -72.49681, -44.19465 ] ] } },
{ "type": "Feature", "properties": { "tipo": "trunk", "nombre": "Carretera Austral", "ref": "7", "color": "#f4a261" }, "geometry": { "type": "LineString", "coordinates": [ [ -72.46721, -44.15227 ], [ -72.4673, -44.15189 ] ] } },
{ "type": "Feature", "properties": { "tipo": "trunk", "nombre": "Carretera Austral", "ref": "7", "color": "#f4a261" }, "geometry": { "type": "LineString", "coordinates": [ [ -72.49695, -44.19487 ], [ -72.49712, -44.19623 ] ] } },
{ "type": "Feature", "properties": { "tipo": "trunk", "nombre": "Carretera Austral", "ref": "7", "color": "#f4a261" }, "geometry": { "type": "LineString", "coordinates": [ [ -72.41412, -43.99547 ], [ -72.42605, -44.01255 ], [ -72.42517, -44.02326 ] ] } },
{ "type": "Feature", "properties": { "tipo": "trunk", "nombre": "Carretera Austral", "ref": "7", "color": "#f4a261" }, "geometry": { "type": "LineString", "coordinates": [ [ -72.49694, -44.19747 ], [ -72.49691, -44.19767 ] ] } },
{ "type": "Feature", "properties": { "tipo": "trunk", "nombre": "Carretera Austral", "ref": "7", "color": "#f4a261" }, "geometry": { "type": "LineString", "coordinates": [ [ -72.48678, -44.16835 ], [ -72.48713, -44.16857 ] ] } },
{ "type": "Feature", "properties": { "tipo": "trunk", "nombre": "Carretera Austral", "ref": "7", "color": "#f4a261" }, "geometry": { "type": "LineString", "coordinates": [ [ -72.49681, -44.19465 ], [ -72.49695, -44.19487 ] ] } },
{ "type": "Feature", "properties": { "tipo": "trunk", "nombre": "Carretera Austral", "ref": "7", "color": "#f4a261" }, "geometry": { "type": "LineString", "coordinates": [ [ -72.43861, -44.06207 ], [ -72.4438, -44.07477 ] ] } },
{ "type": "Feature", "properties": { "tipo": "trunk", "nombre": "Carretera Austral", "ref": "7", "color": "#f4a261" }, "geometry": { "type": "LineString", "coordinates": [ [ -72.4438, -44.07477 ], [ -72.45054, -44.09866 ] ] } },
{ "type": "Feature", "properties": { "tipo": "trunk", "nombre": "Carretera Austral", "ref": "7", "color": "#f4a261" }, "geometry": { "type": "LineString", "coordinates": [ [ -72.40386, -43.97802 ], [ -72.40378, -43.9777 ] ] } },
{ "type": "Feature", "properties": { "tipo": "trunk", "nombre": "Carretera Austral", "ref": "7", "color": "#f4a261" }, "geometry": { "type": "LineString", "coordinates": [ [ -72.35399, -43.83833 ], [ -72.36636, -43.85437 ] ] } },
{ "type": "Feature", "properties": { "tipo": "trunk", "nombre": "Carretera Austral", "ref": "7", "color": "#f4a261" }, "geometry": { "type": "LineString", "coordinates": [ [ -72.37897, -43.94378 ], [ -72.38843, -43.94513 ] ] } },
{ "type": "Feature", "properties": { "tipo": "trunk", "nombre": "Carretera Austral", "ref": "7", "color": "#f4a261" }, "geometry": { "type": "LineString", "coordinates": [ [ -72.38843, -43.94513 ], [ -72.39613, -43.96005 ] ] } },
{ "type": "Feature", "properties": { "tipo": "trunk", "nombre": "Carretera Austral", "ref": "7", "color": "#f4a261" }, "geometry": { "type": "LineString", "coordinates": [ [ -72.57843, -44.38393 ], [ -72.57952, -44.38561 ] ] } },
{ "type": "Feature", "properties": { "tipo": "trunk", "nombre": "Carretera Austral", "ref": "7", "color": "#f4a261" }, "geometry": { "type": "LineString", "coordinates": [ [ -72.57867, -44.38378 ], [ -72.57843, -44.38393 ] ] } },
{ "type": "Feature", "properties": { "tipo": "trunk", "nombre": "Carretera Austral", "ref": "7", "color": "#f4a261" }, "geometry": { "type": "LineString", "coordinates": [ [ -72.40387, -43.978 ], [ -72.40387, -43.978 ] ] } },
{ "type": "Feature", "properties": { "tipo": "trunk", "nombre": "Carretera Austral", "ref": "7", "color": "#f4a261" }, "geometry": { "type": "LineString", "coordinates": [ [ -72.5643, -44.35721 ], [ -72.56418, -44.35732 ] ] } },
{ "type": "Feature", "properties": { "tipo": "trunk", "nombre": "Carretera Austral", "ref": "7", "color": "#f4a261" }, "geometry": { "type": "LineString", "coordinates": [ [ -72.56418, -44.35732 ], [ -72.57899, -44.37673 ], [ -72.57867, -44.38378 ] ] } },
{ "type": "Feature", "properties": { "tipo": "trunk", "nombre": "Carretera Austral", "ref": "7", "color": "#f4a261" }, "geometry": { "type": "LineString", "coordinates": [ [ -72.36636, -43.85437 ], [ -72.36822, -43.87637 ] ] } },
{ "type": "Feature", "properties": { "tipo": "trunk", "nombre": "Carretera Austral", "ref": "7", "color": "#f4a261" }, "geometry": { "type": "LineString", "coordinates": [ [ -72.42517, -44.02326 ], [ -72.4252, -44.02341 ] ] } },
{ "type": "Feature", "properties": { "tipo": "trunk", "nombre": "Carretera Austral", "ref": "7", "color": "#f4a261" }, "geometry": { "type": "LineString", "coordinates": [ [ -72.42561, -44.02567 ], [ -72.43484, -44.03627 ] ] } },
{ "type": "Feature", "properties": { "tipo": "trunk", "nombre": "Carretera Austral", "ref": "7", "color": "#f4a261" }, "geometry": { "type": "LineString", "coordinates": [ [ -72.5811, -44.39247 ], [ -72.58768, -44.41139 ], [ -72.59108, -44.42191 ] ] } },
{ "type": "Feature", "properties": { "tipo": "trunk", "nombre": "Carretera Austral", "ref": "7", "color": "#f4a261" }, "geometry": { "type": "LineString", "coordinates": [ [ -72.37109, -43.88749 ], [ -72.37534, -43.90835 ], [ -72.37756, -43.9415 ], [ -72.37897, -43.94378 ] ] } },
{ "type": "Feature", "properties": { "tipo": "trunk", "nombre": "Carretera Austral", "ref": "7", "color": "#f4a261" }, "geometry": { "type": "LineString", "coordinates": [ [ -72.37107, -43.88699 ], [ -72.37109, -43.88749 ] ] } },
{ "type": "Feature", "properties": { "tipo": "trunk", "nombre": "Carretera Austral", "ref": "7", "color": "#f4a261" }, "geometry": { "type": "LineString", "coordinates": [ [ -72.5941, -44.44136 ], [ -72.57928, -44.46088 ], [ -72.56194, -44.46042 ] ] } },
{ "type": "Feature", "properties": { "tipo": "trunk", "nombre": "Carretera Austral", "ref": "7", "color": "#f4a261" }, "geometry": { "type": "LineString", "coordinates": [ [ -72.59108, -44.42191 ], [ -72.5911, -44.42211 ] ] } },
{ "type": "Feature", "properties": { "tipo": "trunk", "nombre": "Carretera Austral", "ref": "7", "color": "#f4a261" }, "geometry": { "type": "LineString", "coordinates": [ [ -72.5559, -44.31347 ], [ -72.55347, -44.31929 ] ] } },
{ "type": "Feature", "properties": { "tipo": "trunk", "nombre": "Carretera Austral", "ref": "7", "color": "#f4a261" }, "geometry": { "type": "LineString", "coordinates": [ [ -72.49712, -44.19623 ], [ -72.49694, -44.19747 ] ] } },
{ "type": "Feature", "properties": { "tipo": "trunk", "nombre": "Carretera Austral", "ref": "7", "color": "#f4a261" }, "geometry": { "type": "LineString", "coordinates": [ [ -72.39968, -43.96862 ], [ -72.39968, -43.96862 ] ] } },
{ "type": "Feature", "properties": { "tipo": "trunk", "nombre": "Carretera Austral", "ref": "7", "color": "#f4a261" }, "geometry": { "type": "LineString", "coordinates": [ [ -72.39989, -43.96872 ], [ -72.39995, -43.96906 ] ] } },
{ "type": "Feature", "properties": { "tipo": "trunk", "nombre": "Carretera Austral", "ref": "7", "color": "#f4a261" }, "geometry": { "type": "LineString", "coordinates": [ [ -72.40107, -43.9716 ], [ -72.4014, -43.97219 ] ] } },
{ "type": "Feature", "properties": { "tipo": "trunk", "nombre": "Carretera Austral", "ref": "7", "color": "#f4a261" }, "geometry": { "type": "LineString", "coordinates": [ [ -72.4014, -43.97219 ], [ -72.40328, -43.97657 ] ] } },
{ "type": "Feature", "properties": { "tipo": "trunk", "nombre": "Carretera Austral", "ref": "7", "color": "#f4a261" }, "geometry": { "type": "LineString", "coordinates": [ [ -72.40234, -43.97454 ], [ -72.40169, -43.97312 ] ] } },
{ "type": "Feature", "properties": { "tipo": "trunk", "nombre": "Carretera Austral", "ref": "7", "color": "#f4a261" }, "geometry": { "type": "LineString", "coordinates": [ [ -72.40404, -43.97808 ], [ -72.4041, -43.97838 ] ] } },
{ "type": "Feature", "properties": { "tipo": "trunk", "nombre": "Carretera Austral", "ref": "7", "color": "#f4a261" }, "geometry": { "type": "LineString", "coordinates": [ [ -72.4013, -43.97221 ], [ -72.40107, -43.9716 ] ] } },
{ "type": "Feature", "properties": { "tipo": "trunk", "nombre": "Carretera Austral", "ref": "7", "color": "#f4a261" }, "geometry": { "type": "LineString", "coordinates": [ [ -72.40107, -43.9716 ], [ -72.39995, -43.96906 ] ] } },
{ "type": "Feature", "properties": { "tipo": "trunk", "nombre": "Carretera Austral", "ref": "7", "color": "#f4a261" }, "geometry": { "type": "LineString", "coordinates": [ [ -72.40169, -43.97312 ], [ -72.4013, -43.97221 ] ] } },
{ "type": "Feature", "properties": { "tipo": "trunk", "nombre": "Carretera Austral", "ref": "7", "color": "#f4a261" }, "geometry": { "type": "LineString", "coordinates": [ [ -72.4041, -43.97838 ], [ -72.4059, -43.98174 ] ] } },
{ "type": "Feature", "properties": { "tipo": "trunk", "nombre": "Carretera Austral", "ref": "7", "color": "#f4a261" }, "geometry": { "type": "LineString", "coordinates": [ [ -72.40378, -43.9777 ], [ -72.40328, -43.97657 ] ] } },
{ "type": "Feature", "properties": { "tipo": "trunk", "nombre": "Carretera Austral", "ref": "7", "color": "#f4a261" }, "geometry": { "type": "LineString", "coordinates": [ [ -72.40269, -43.97537 ], [ -72.40234, -43.97454 ] ] } },
{ "type": "Feature", "properties": { "tipo": "trunk", "nombre": "Carretera Austral", "ref": "7", "color": "#f4a261" }, "geometry": { "type": "LineString", "coordinates": [ [ -72.40328, -43.97657 ], [ -72.40269, -43.97537 ] ] } },
{ "type": "Feature", "properties": { "tipo": "trunk", "nombre": "Carretera Austral", "ref": "7", "color": "#f4a261" }, "geometry": { "type": "LineString", "coordinates": [ [ -72.4386, -44.06184 ], [ -72.43861, -44.06207 ] ] } },
{ "type": "Feature", "properties": { "tipo": "trunk", "nombre": "Carretera Austral", "ref": "7", "color": "#f4a261" }, "geometry": { "type": "LineString", "coordinates": [ [ -72.43399, -44.05055 ], [ -72.4386, -44.06184 ] ] } },
{ "type": "Feature", "properties": { "tipo": "trunk", "nombre": "Carretera Austral", "ref": "7", "color": "#f4a261" }, "geometry": { "type": "LineString", "coordinates": [ [ -72.43397, -44.05031 ], [ -72.43399, -44.05055 ] ] } },
{ "type": "Feature", "properties": { "tipo": "trunk", "nombre": "Carretera Austral", "ref": "7", "color": "#f4a261" }, "geometry": { "type": "LineString", "coordinates": [ [ -72.43484, -44.03627 ], [ -72.43397, -44.05031 ] ] } },
{ "type": "Feature", "properties": { "tipo": "trunk", "nombre": "Carretera Austral", "ref": "7", "color": "#f4a261" }, "geometry": { "type": "LineString", "coordinates": [ [ -72.42557, -44.02546 ], [ -72.42561, -44.02567 ] ] } },
{ "type": "Feature", "properties": { "tipo": "trunk", "nombre": "Carretera Austral", "ref": "7", "color": "#f4a261" }, "geometry": { "type": "LineString", "coordinates": [ [ -72.4252, -44.02341 ], [ -72.42557, -44.02546 ] ] } },
{ "type": "Feature", "properties": { "tipo": "trunk", "nombre": "Carretera Austral", "ref": "7", "color": "#f4a261" }, "geometry": { "type": "LineString", "coordinates": [ [ -72.41406, -43.99536 ], [ -72.41412, -43.99547 ] ] } },
{ "type": "Feature", "properties": { "tipo": "trunk", "nombre": "Carretera Austral", "ref": "7", "color": "#f4a261" }, "geometry": { "type": "LineString", "coordinates": [ [ -72.406, -43.98187 ], [ -72.41406, -43.99536 ] ] } },
{ "type": "Feature", "properties": { "tipo": "trunk", "nombre": "Carretera Austral", "ref": "7", "color": "#f4a261" }, "geometry": { "type": "LineString", "coordinates": [ [ -72.57952, -44.38561 ], [ -72.5811, -44.39247 ] ] } },
{ "type": "Feature", "properties": { "tipo": "trunk", "nombre": "Carretera Austral", "ref": "7", "color": "#f4a261" }, "geometry": { "type": "LineString", "coordinates": [ [ -72.55327, -44.31953 ], [ -72.55518, -44.3287 ] ] } },
{ "type": "Feature", "properties": { "tipo": "trunk", "nombre": "Carretera Austral", "ref": "7", "color": "#f4a261" }, "geometry": { "type": "LineString", "coordinates": [ [ -72.55637, -44.30978 ], [ -72.55603, -44.31248 ] ] } },
{ "type": "Feature", "properties": { "tipo": "trunk", "nombre": "Carretera Austral", "ref": "7", "color": "#f4a261" }, "geometry": { "type": "LineString", "coordinates": [ [ -72.39963, -43.96832 ], [ -72.3998, -43.96858 ] ] } },
{ "type": "Feature", "properties": { "tipo": "trunk", "nombre": "Carretera Austral", "ref": "7", "color": "#f4a261" }, "geometry": { "type": "LineString", "coordinates": [ [ -72.39995, -43.96906 ], [ -72.39975, -43.96876 ] ] } },
{ "type": "Feature", "properties": { "tipo": "trunk", "nombre": "Carretera Austral", "ref": "7", "color": "#f4a261" }, "geometry": { "type": "LineString", "coordinates": [ [ -72.59478, -44.43556 ], [ -72.5941, -44.43779 ] ] } },
{ "type": "Feature", "properties": { "tipo": "trunk", "nombre": "Carretera Austral", "ref": "7", "color": "#f4a261" }, "geometry": { "type": "LineString", "coordinates": [ [ -72.5941, -44.43779 ], [ -72.5934, -44.43963 ] ] } },
{ "type": "Feature", "properties": { "tipo": "trunk", "nombre": "Carretera Austral", "ref": "7", "color": "#f4a261" }, "geometry": { "type": "LineString", "coordinates": [ [ -72.59042, -44.4242 ], [ -72.59331, -44.43213 ] ] } },
{ "type": "Feature", "properties": { "tipo": "trunk", "nombre": "Carretera Austral", "ref": "7", "color": "#f4a261" }, "geometry": { "type": "LineString", "coordinates": [ [ -72.59111, -44.42217 ], [ -72.59042, -44.4242 ] ] } },
{ "type": "Feature", "properties": { "tipo": "trunk", "nombre": "Carretera Austral", "ref": "7", "color": "#f4a261" }, "geometry": { "type": "LineString", "coordinates": [ [ -72.5911, -44.42211 ], [ -72.59111, -44.42217 ] ] } },
{ "type": "Feature", "properties": { "tipo": "trunk", "nombre": "Carretera Austral", "ref": "7", "color": "#f4a261" }, "geometry": { "type": "LineString", "coordinates": [ [ -72.39613, -43.96005 ], [ -72.3964, -43.96087 ] ] } },
{ "type": "Feature", "properties": { "tipo": "trunk", "nombre": "Carretera Austral", "ref": "7", "color": "#f4a261" }, "geometry": { "type": "LineString", "coordinates": [ [ -72.5941, -44.44079 ], [ -72.5941, -44.44136 ] ] } },
{ "type": "Feature", "properties": { "tipo": "trunk", "nombre": "Carretera Austral", "ref": "7", "color": "#f4a261" }, "geometry": { "type": "LineString", "coordinates": [ [ -72.5934, -44.43963 ], [ -72.5941, -44.44079 ] ] } },
{ "type": "Feature", "properties": { "tipo": "trunk", "nombre": "Carretera Austral", "ref": "7", "color": "#f4a261" }, "geometry": { "type": "LineString", "coordinates": [ [ -72.40378, -43.9777 ], [ -72.40398, -43.97797 ] ] } },
{ "type": "Feature", "properties": { "tipo": "trunk", "nombre": "Carretera Austral", "ref": "7", "color": "#f4a261" }, "geometry": { "type": "LineString", "coordinates": [ [ -72.4041, -43.97838 ], [ -72.4039, -43.9781 ] ] } },
{ "type": "Feature", "properties": { "tipo": "trunk", "nombre": "Carretera Austral", "ref": "7", "color": "#f4a261" }, "geometry": { "type": "LineString", "coordinates": [ [ -72.36822, -43.87637 ], [ -72.37107, -43.88699 ] ] } },
{ "type": "Feature", "properties": { "tipo": "trunk", "nombre": "Carretera Austral", "ref": "7", "color": "#f4a261" }, "geometry": { "type": "LineString", "coordinates": [ [ -72.59331, -44.43213 ], [ -72.59478, -44.43556 ] ] } },
{ "type": "Feature", "properties": { "tipo": "trunk", "nombre": "Carretera Austral", "ref": "7", "color": "#f4a261" }, "geometry": { "type": "LineString", "coordinates": [ [ -72.55603, -44.31248 ], [ -72.5559, -44.31347 ] ] } },
{ "type": "Feature", "properties": { "tipo": "trunk", "nombre": "Carretera Austral", "ref": "7", "color": "#f4a261" }, "geometry": { "type": "LineString", "coordinates": [ [ -72.52681, -44.26812 ], [ -72.52718, -44.26858 ] ] } },
{ "type": "Feature", "properties": { "tipo": "trunk", "nombre": "Carretera Austral", "ref": "7", "color": "#f4a261" }, "geometry": { "type": "LineString", "coordinates": [ [ -72.52666, -44.26794 ], [ -72.52681, -44.26812 ] ] } },
{ "type": "Feature", "properties": { "tipo": "trunk", "nombre": "Carretera Austral", "ref": "7", "color": "#f4a261" }, "geometry": { "type": "LineString", "coordinates": [ [ -72.50364, -44.22236 ], [ -72.50371, -44.22243 ] ] } },
{ "type": "Feature", "properties": { "tipo": "trunk", "nombre": "Carretera Austral", "ref": "7", "color": "#f4a261" }, "geometry": { "type": "LineString", "coordinates": [ [ -72.50356, -44.22227 ], [ -72.50364, -44.22236 ] ] } },
{ "type": "Feature", "properties": { "tipo": "trunk", "nombre": "Carretera Austral", "ref": "7", "color": "#f4a261" }, "geometry": { "type": "LineString", "coordinates": [ [ -72.50385, -44.22258 ], [ -72.50786, -44.23457 ] ] } },
{ "type": "Feature", "properties": { "tipo": "trunk", "nombre": "Carretera Austral", "ref": "7", "color": "#f4a261" }, "geometry": { "type": "LineString", "coordinates": [ [ -72.50371, -44.22243 ], [ -72.50385, -44.22258 ] ] } },
{ "type": "Feature", "properties": { "tipo": "trunk", "nombre": "Carretera Austral", "ref": "7", "color": "#f4a261" }, "geometry": { "type": "LineString", "coordinates": [ [ -72.39821, -43.96517 ], [ -72.3984, -43.96559 ] ] } },
{ "type": "Feature", "properties": { "tipo": "trunk", "nombre": "Carretera Austral", "ref": "7", "color": "#f4a261" }, "geometry": { "type": "LineString", "coordinates": [ [ -72.3984, -43.96559 ], [ -72.39963, -43.96832 ] ] } },
{ "type": "Feature", "properties": { "tipo": "trunk", "nombre": "Carretera Austral", "ref": "7", "color": "#f4a261" }, "geometry": { "type": "LineString", "coordinates": [ [ -72.3977, -43.96402 ], [ -72.39787, -43.9644 ] ] } },
{ "type": "Feature", "properties": { "tipo": "trunk", "nombre": "Carretera Austral", "ref": "7", "color": "#f4a261" }, "geometry": { "type": "LineString", "coordinates": [ [ -72.397, -43.96235 ], [ -72.3977, -43.96402 ] ] } }
]
}
