{
"type": "FeatureCollection",
"name": "MEN",
"crs": { "type": "name", "properties": { "name": "urn:ogc:def:crs:OGC:1.3:CRS84" } },
"xy_coordinate_resolution": 1e-05,
"features": [
{ "type": "Feature", "properties": { "tipo": "trunk", "nombre": "Carretera Austral", "ref": "7", "color": "#f4a261" }, "geometry": { "type": "LineString", "coordinates": [ [ -72.57945, -44.48158 ], [ -72.57649, -44.49445 ] ] } },
{ "type": "Feature", "properties": { "tipo": "trunk", "nombre": "Carretera Austral", "ref": "7", "color": "#f4a261" }, "geometry": { "type": "LineString", "coordinates": [ [ -72.56148, -44.4607 ], [ -72.56666, -44.47061 ] ] } },
{ "type": "Feature", "properties": { "tipo": "trunk", "nombre": "Carretera Austral", "ref": "7", "color": "#f4a261" }, "geometry": { "type": "LineString", "coordinates": [ [ -72.56194, -44.46042 ], [ -72.56148, -44.4607 ] ] } },
{ "type": "Feature", "properties": { "tipo": "trunk", "nombre": "Carretera Austral", "ref": "7", "color": "#f4a261" }, "geometry": { "type": "LineString", "coordinates": [ [ -72.56666, -44.47061 ], [ -72.56676, -44.47073 ] ] } },
{ "type": "Feature", "properties": { "tipo": "trunk", "nombre": "Carretera Austral", "ref": "7", "color": "#f4a261" }, "geometry": { "type": "LineString", "coordinates": [ [ -72.57952, -44.48141 ], [ -72.57945, -44.48158 ] ] } },
{ "type": "Feature", "properties": { "tipo": "trunk", "nombre": "Carretera Austral", "ref": "7", "color": "#f4a261" }, "geometry": { "type": "LineString", "coordinates": [ [ -72.56676, -44.47073 ], [ -72.57952, -44.48141 ] ] } },
{ "type": "Feature", "properties": { "tipo": "trunk", "nombre": "Carretera Austral", "ref": "7", "color": "#f4a261" }, "geometry": { "type": "LineString", "coordinates": [ [ -72.54229, -44.52052 ], [ -72.52047, -44.53151 ] ] } },
{ "type": "Feature", "properties": { "tipo": "trunk", "nombre": "Carretera Austral", "ref": "7", "color": "#f4a261" }, "geometry": { "type": "LineString", "coordinates": [ [ -72.54243, -44.52047 ], [ -72.54229, -44.52052 ] ] } },
{ "type": "Feature", "properties": { "tipo": "trunk", "nombre": "Carretera Austral", "ref": "7", "color": "#f4a261" }, "geometry": { "type": "LineString", "coordinates": [ [ -72.54321, -44.52014 ], [ -72.54243, -44.52047 ] ] } },
{ "type": "Feature", "properties": { "tipo": "trunk", "nombre": "Carretera Austral", "ref": "7", "color": "#f4a261" }, "geometry": { "type": "LineString", "coordinates": [ [ -72.54336, -44.52008 ], [ -72.54321, -44.52014 ] ] } },
{ "type": "Feature", "properties": { "tipo": "trunk", "nombre": "Carretera Austral", "ref": "7", "color": "#f4a261" }, "geometry": { "type": "LineString", "coordinates": [ [ -72.54394, -44.51983 ], [ -72.54336, -44.52008 ] ] } },
{ "type": "Feature", "properties": { "tipo": "trunk", "nombre": "Carretera Austral", "ref": "7", "color": "#f4a261" }, "geometry": { "type": "LineString", "coordinates": [ [ -72.54406, -44.51978 ], [ -72.54394, -44.51983 ] ] } },
{ "type": "Feature", "properties": { "tipo": "trunk", "nombre": "Carretera Austral", "ref": "7", "color": "#f4a261" }, "geometry": { "type": "LineString", "coordinates": [ [ -72.56877, -44.50126 ], [ -72.55286, -44.51384 ], [ -72.54406, -44.51978 ] ] } },
{ "type": "Feature", "properties": { "tipo": "trunk", "nombre": "Carretera Austral", "ref": "7", "color": "#f4a261" }, "geometry": { "type": "LineString", "coordinates": [ [ -72.56896, -44.50127 ], [ -72.56877, -44.50126 ] ] } },
{ "type": "Feature", "properties": { "tipo": "trunk", "nombre": "Carretera Austral", "ref": "7", "color": "#f4a261" }, "geometry": { "type": "LineString", "coordinates": [ [ -72.5811, -44.39247 ], [ -72.58768, -44.41139 ], [ -72.59108, -44.42191 ] ] } },
{ "type": "Feature", "properties": { "tipo": "trunk", "nombre": "Carretera Austral", "ref": "7", "color": "#f4a261" }, "geometry": { "type": "LineString", "coordinates": [ [ -72.5941, -44.44136 ], [ -72.57928, -44.46088 ], [ -72.56194, -44.46042 ] ] } },
{ "type": "Feature", "properties": { "tipo": "trunk", "nombre": "Carretera Austral", "ref": "7", "color": "#f4a261" }, "geometry": { "type": "LineString", "coordinates": [ [ -72.57649, -44.49445 ], [ -72.56896, -44.50127 ] ] } },
{ "type": "Feature", "properties": { "tipo": "trunk", "nombre": "Carretera Austral", "ref": "7", "color": "#f4a261" }, "geometry": { "type": "LineString", "coordinates": [ [ -72.59108, -44.42191 ], [ -72.5911, -44.42211 ] ] } },
{ "type": "Feature", "properties": { "tipo": "trunk", "nombre": "Carretera Austral", "ref": "7", "color": "#f4a261" }, "geometry": { "type": "LineString", "coordinates": [ [ -72.59478, -44.43556 ], [ -72.5941, -44.43779 ] ] } },
{ "type": "Feature", "properties": { "tipo": "trunk", "nombre": "Carretera Austral", "ref": "7", "color": "#f4a261" }, "geometry": { "type": "LineString", "coordinates": [ [ -72.5941, -44.43779 ], [ -72.5934, -44.43963 ] ] } },
{ "type": "Feature", "properties": { "tipo": "trunk", "nombre": "Carretera Austral", "ref": "7", "color": "#f4a261" }, "geometry": { "type": "LineString", "coordinates": [ [ -72.59042, -44.4242 ], [ -72.59331, -44.43213 ] ] } },
{ "type": "Feature", "properties": { "tipo": "trunk", "nombre": "Carretera Austral", "ref": "7", "color": "#f4a261" }, "geometry": { "type": "LineString", "coordinates": [ [ -72.59111, -44.42217 ], [ -72.59042, -44.4242 ] ] } },
{ "type": "Feature", "properties": { "tipo": "trunk", "nombre": "Carretera Austral", "ref": "7", "color": "#f4a261" }, "geometry": { "type": "LineString", "coordinates": [ [ -72.5911, -44.42211 ], [ -72.59111, -44.42217 ] ] } },
{ "type": "Feature", "properties": { "tipo": "trunk", "nombre": "Carretera Austral", "ref": "7", "color": "#f4a261" }, "geometry": { "type": "LineString", "coordinates": [ [ -72.5941, -44.44079 ], [ -72.5941, -44.44136 ] ] } },
{ "type": "Feature", "properties": { "tipo": "trunk", "nombre": "Carretera Austral", "ref": "7", "color": "#f4a261" }, "geometry": { "type": "LineString", "coordinates": [ [ -72.5934, -44.43963 ], [ -72.5941, -44.44079 ] ] } },
{ "type": "Feature", "properties": { "tipo": "trunk", "nombre": "Carretera Austral", "ref": "7", "color": "#f4a261" }, "geometry": { "type": "LineString", "coordinates": [ [ -72.59331, -44.43213 ], [ -72.59478, -44.43556 ] ] } },
{ "type": "Feature", "properties": { "tipo": "trunk", "nombre": "Carretera Austral", "ref": "7", "color": "#f4a261" }, "geometry": { "type": "LineString", "coordinates": [ [ -72.48803, -44.5487 ], [ -72.4715, -44.55718 ] ] } },
{ "type": "Feature", "properties": { "tipo": "trunk", "nombre": "Carretera Austral", "ref": "7", "color": "#f4a261" }, "geometry": { "type": "LineString", "coordinates": [ [ -72.49865, -44.54103 ], [ -72.49841, -44.54113 ] ] } },
{ "type": "Feature", "properties": { "tipo": "trunk", "nombre": "Carretera Austral", "ref": "7", "color": "#f4a261" }, "geometry": { "type": "LineString", "coordinates": [ [ -72.49449, -44.54421 ], [ -72.49348, -44.54528 ] ] } },
{ "type": "Feature", "properties": { "tipo": "trunk", "nombre": "Carretera Austral", "ref": "7", "color": "#f4a261" }, "geometry": { "type": "LineString", "coordinates": [ [ -72.49348, -44.54528 ], [ -72.48946, -44.54811 ] ] } },
{ "type": "Feature", "properties": { "tipo": "trunk", "nombre": "Carretera Austral", "ref": "7", "color": "#f4a261" }, "geometry": { "type": "LineString", "coordinates": [ [ -72.48946, -44.54811 ], [ -72.48803, -44.5487 ] ] } },
{ "type": "Feature", "properties": { "tipo": "trunk", "nombre": "Carretera Austral", "ref": "7", "color": "#f4a261" }, "geometry": { "type": "LineString", "coordinates": [ [ -72.49768, -44.54146 ], [ -72.49449, -44.54421 ] ] } },
{ "type": "Feature", "properties": { "tipo": "trunk", "nombre": "Carretera Austral", "ref": "7", "color": "#f4a261" }, "geometry": { "type": "LineString", "coordinates": [ [ -72.49841, -44.54113 ], [ -72.49768, -44.54146 ] ] } },
{ "type": "Feature", "properties": { "tipo": "trunk", "nombre": "Carretera Austral", "ref": "7", "color": "#f4a261" }, "geometry": { "type": "LineString", "coordinates": [ [ -72.50075, -44.54008 ], [ -72.49865, -44.54103 ] ] } },
{ "type": "Feature", "properties": { "tipo": "trunk", "nombre": "Carretera Austral", "ref": "7", "color": "#f4a261" }, "geometry": { "type": "LineString", "coordinates": [ [ -72.51553, -44.53444 ], [ -72.51185, -44.53663 ] ] } },
{ "type": "Feature", "properties": { "tipo": "trunk", "nombre": "Carretera Austral", "ref": "7", "color": "#f4a261" }, "geometry": { "type": "LineString", "coordinates": [ [ -72.52047, -44.53151 ], [ -72.51553, -44.53444 ] ] } },
{ "type": "Feature", "properties": { "tipo": "trunk", "nombre": "Carretera Austral", "ref": "7", "color": "#f4a261" }, "geometry": { "type": "LineString", "coordinates": [ [ -72.51185, -44.53663 ], [ -72.50075, -44.54008 ] ] } }
]
}
