{
"type": "FeatureCollection",
"name": "NLO",
"crs": { "type": "name", "properties": { "name": "urn:ogc:def:crs:OGC:1.3:CRS84" } },
"xy_coordinate_resolution": 1e-05,
"features": [
{ "type": "Feature", "properties": { "tipo": "trunk", "nombre": "Ruta 115 CH", "ref": "115", "color": "#f4a261" }, "geometry": { "type": "LineString", "coordinates": [ [ -70.93159, -35.80384 ], [ -70.93068, -35.80431 ] ] } },
{ "type": "Feature", "properties": { "tipo": "trunk", "nombre": "Ruta 115 CH", "ref": "115", "color": "#f4a261" }, "geometry": { "type": "LineString", "coordinates": [ [ -70.946, -35.80746 ], [ -70.93306, -35.8039 ] ] } },
{ "type": "Feature", "properties": { "tipo": "trunk", "nombre": "Ruta 115 CH", "ref": "115", "color": "#f4a261" }, "geometry": { "type": "LineString", "coordinates": [ [ -70.92526, -35.8035 ], [ -70.90008, -35.80146 ], [ -70.88006, -35.80866 ], [ -70.87226, -35.81229 ] ] } },
{ "type": "Feature", "properties": { "tipo": "trunk", "nombre": "Ruta 115 CH", "ref": "115", "color": "#f4a261" }, "geometry": { "type": "LineString", "coordinates": [ [ -70.97848, -35.79728 ], [ -70.95812, -35.8065 ], [ -70.95407, -35.80656 ] ] } },
{ "type": "Feature", "properties": { "tipo": "trunk", "nombre": "Ruta 115 CH", "ref": "115", "color": "#f4a261" }, "geometry": { "type": "LineString", "coordinates": [ [ -70.94649, -35.80716 ], [ -70.946, -35.80746 ] ] } },
{ "type": "Feature", "properties": { "tipo": "trunk", "nombre": "Ruta 115 CH", "ref": "115", "color": "#f4a261" }, "geometry": { "type": "LineString", "coordinates": [ [ -70.98631, -35.79336 ], [ -70.98567, -35.79376 ] ] } },
{ "type": "Feature", "properties": { "tipo": "trunk", "nombre": "Ruta 115 CH", "ref": "115", "color": "#f4a261" }, "geometry": { "type": "LineString", "coordinates": [ [ -70.95281, -35.80667 ], [ -70.94649, -35.80716 ] ] } },
{ "type": "Feature", "properties": { "tipo": "trunk", "nombre": "Ruta 115 CH", "ref": "115", "color": "#f4a261" }, "geometry": { "type": "LineString", "coordinates": [ [ -70.9535, -35.80661 ], [ -70.95281, -35.80667 ] ] } },
{ "type": "Feature", "properties": { "tipo": "trunk", "nombre": "Ruta 115 CH", "ref": "115", "color": "#f4a261" }, "geometry": { "type": "LineString", "coordinates": [ [ -70.99291, -35.7783 ], [ -70.99118, -35.78728 ] ] } },
{ "type": "Feature", "properties": { "tipo": "trunk", "nombre": "Ruta 115 CH", "ref": "115", "color": "#f4a261" }, "geometry": { "type": "LineString", "coordinates": [ [ -70.93068, -35.80431 ], [ -70.92725, -35.80405 ] ] } },
{ "type": "Feature", "properties": { "tipo": "trunk", "nombre": "Ruta 115 CH", "ref": "115", "color": "#f4a261" }, "geometry": { "type": "LineString", "coordinates": [ [ -70.87226, -35.81229 ], [ -70.87192, -35.8123 ] ] } },
{ "type": "Feature", "properties": { "tipo": "trunk", "nombre": "Ruta 115 CH", "ref": "115", "color": "#f4a261" }, "geometry": { "type": "LineString", "coordinates": [ [ -70.87192, -35.8123 ], [ -70.87169, -35.81232 ] ] } },
{ "type": "Feature", "properties": { "tipo": "trunk", "nombre": "Ruta 115 CH", "ref": "115", "color": "#f4a261" }, "geometry": { "type": "LineString", "coordinates": [ [ -70.87169, -35.81232 ], [ -70.8714, -35.81233 ] ] } },
{ "type": "Feature", "properties": { "tipo": "trunk", "nombre": "Ruta 115 CH", "ref": "115", "color": "#f4a261" }, "geometry": { "type": "LineString", "coordinates": [ [ -70.8714, -35.81233 ], [ -70.84953, -35.81418 ], [ -70.84441, -35.81562 ] ] } },
{ "type": "Feature", "properties": { "tipo": "trunk", "nombre": "Ruta 115 CH", "ref": "115", "color": "#f4a261" }, "geometry": { "type": "LineString", "coordinates": [ [ -70.98125, -35.7958 ], [ -70.9804, -35.79625 ] ] } },
{ "type": "Feature", "properties": { "tipo": "trunk", "nombre": "Ruta 115 CH", "ref": "115", "color": "#f4a261" }, "geometry": { "type": "LineString", "coordinates": [ [ -70.98567, -35.79376 ], [ -70.98125, -35.7958 ] ] } },
{ "type": "Feature", "properties": { "tipo": "trunk", "nombre": "Ruta 115 CH", "ref": "115", "color": "#f4a261" }, "geometry": { "type": "LineString", "coordinates": [ [ -70.92725, -35.80405 ], [ -70.92685, -35.80393 ] ] } },
{ "type": "Feature", "properties": { "tipo": "trunk", "nombre": "Ruta 115 CH", "ref": "115", "color": "#f4a261" }, "geometry": { "type": "LineString", "coordinates": [ [ -71.00212, -35.7581 ], [ -71.00108, -35.7603 ] ] } },
{ "type": "Feature", "properties": { "tipo": "trunk", "nombre": "Ruta 115 CH", "ref": "115", "color": "#f4a261" }, "geometry": { "type": "LineString", "coordinates": [ [ -71.00013, -35.7623 ], [ -70.99291, -35.7783 ] ] } },
{ "type": "Feature", "properties": { "tipo": "trunk", "nombre": "Ruta 115 CH", "ref": "115", "color": "#f4a261" }, "geometry": { "type": "LineString", "coordinates": [ [ -70.98887, -35.79068 ], [ -70.98631, -35.79336 ] ] } },
{ "type": "Feature", "properties": { "tipo": "trunk", "nombre": "Ruta 115 CH", "ref": "115", "color": "#f4a261" }, "geometry": { "type": "LineString", "coordinates": [ [ -70.92685, -35.80393 ], [ -70.92526, -35.8035 ] ] } },
{ "type": "Feature", "properties": { "tipo": "trunk", "nombre": "Ruta 115 CH", "ref": "115", "color": "#f4a261" }, "geometry": { "type": "LineString", "coordinates": [ [ -70.9804, -35.79625 ], [ -70.97848, -35.79728 ] ] } },
{ "type": "Feature", "properties": { "tipo": "trunk", "nombre": "Ruta 115 CH", "ref": "115", "color": "#f4a261" }, "geometry": { "type": "LineString", "coordinates": [ [ -70.95407, -35.80656 ], [ -70.9535, -35.80661 ] ] } },
{ "type": "Feature", "properties": { "tipo": "trunk", "nombre": "Ruta 115 CH", "ref": "115", "color": "#f4a261" }, "geometry": { "type": "LineString", "coordinates": [ [ -70.98913, -35.7903 ], [ -70.98887, -35.79068 ] ] } },
{ "type": "Feature", "properties": { "tipo": "trunk", "nombre": "Ruta 115 CH", "ref": "115", "color": "#f4a261" }, "geometry": { "type": "LineString", "coordinates": [ [ -70.99118, -35.78728 ], [ -70.98913, -35.7903 ] ] } },
{ "type": "Feature", "properties": { "tipo": "trunk", "nombre": "Ruta 115 CH", "ref": "115", "color": "#f4a261" }, "geometry": { "type": "LineString", "coordinates": [ [ -71.00031, -35.76196 ], [ -71.00013, -35.7623 ] ] } },
{ "type": "Feature", "properties": { "tipo": "trunk", "nombre": "Ruta 115 CH", "ref": "115", "color": "#f4a261" }, "geometry": { "type": "LineString", "coordinates": [ [ -71.00108, -35.7603 ], [ -71.00031, -35.76196 ] ] } },
{ "type": "Feature", "properties": { "tipo": "trunk", "nombre": "Ruta 115 CH", "ref": "115", "color": "#f4a261" }, "geometry": { "type": "LineString", "coordinates": [ [ -70.93306, -35.8039 ], [ -70.93218, -35.8037 ] ] } },
{ "type": "Feature", "properties": { "tipo": "trunk", "nombre": "Ruta 115 CH", "ref": "115", "color": "#f4a261" }, "geometry": { "type": "LineString", "coordinates": [ [ -70.93218, -35.8037 ], [ -70.93159, -35.80384 ] ] } }
]
}
