{
"type": "FeatureCollection",
"name": "NTC",
"crs": { "type": "name", "properties": { "name": "urn:ogc:def:crs:OGC:1.3:CRS84" } },
"xy_coordinate_resolution": 1e-05,
"features": [
{ "type": "Feature", "properties": { "tipo": "trunk", "nombre": "Ruta 31 CH", "ref": "31", "color": "#f4a261" }, "geometry": { "type": "LineString", "coordinates": [ [ -68.83872, -26.9683 ], [ -68.80793, -26.95879 ], [ -68.78013, -26.95045 ], [ -68.75626, -26.9426 ] ] } },
{ "type": "Feature", "properties": { "tipo": "trunk", "nombre": "Ruta 31 CH", "ref": "31", "color": "#f4a261" }, "geometry": { "type": "LineString", "coordinates": [ [ -68.93815, -27.07603 ], [ -68.91985, -27.06562 ], [ -68.89822, -27.05225 ], [ -68.88473, -27.03128 ], [ -68.87907, -27.007 ], [ -68.86231, -26.98666 ], [ -68.84262, -26.97183 ], [ -68.83872, -26.9683 ] ] } },
{ "type": "Feature", "properties": { "tipo": "trunk", "nombre": "Ruta 31 CH", "ref": "31", "color": "#f4a261" }, "geometry": { "type": "LineString", "coordinates": [ [ -69.2213, -26.8644 ], [ -69.22301, -26.84001 ], [ -69.20699, -26.8243 ], [ -69.19859, -26.81588 ] ] } },
{ "type": "Feature", "properties": { "tipo": "trunk", "nombre": "Ruta 31 CH", "ref": "31", "color": "#f4a261" }, "geometry": { "type": "LineString", "coordinates": [ [ -68.72225, -26.92573 ], [ -68.70289, -26.91655 ], [ -68.67848, -26.90871 ], [ -68.65349, -26.90756 ], [ -68.62635, -26.91088 ], [ -68.59032, -26.91406 ], [ -68.57029, -26.91626 ], [ -68.54933, -26.91157 ], [ -68.53067, -26.89825 ], [ -68.50833, -26.89019 ], [ -68.49452, -26.8895 ] ] } },
{ "type": "Feature", "properties": { "tipo": "trunk", "nombre": "Ruta 31 CH", "ref": "31", "color": "#f4a261" }, "geometry": { "type": "LineString", "coordinates": [ [ -69.04584, -26.84088 ], [ -69.04492, -26.84164 ] ] } },
{ "type": "Feature", "properties": { "tipo": "trunk", "nombre": "Ruta 31 CH", "ref": "31", "color": "#f4a261" }, "geometry": { "type": "LineString", "coordinates": [ [ -69.04599, -26.84068 ], [ -69.04584, -26.84088 ] ] } },
{ "type": "Feature", "properties": { "tipo": "trunk", "nombre": "", "ref": "", "color": "#f4a261" }, "geometry": { "type": "LineString", "coordinates": [ [ -69.04563, -26.84075 ], [ -69.04578, -26.84055 ] ] } },
{ "type": "Feature", "properties": { "tipo": "trunk", "nombre": "", "ref": "", "color": "#f4a261" }, "geometry": { "type": "LineString", "coordinates": [ [ -69.04531, -26.84113 ], [ -69.04563, -26.84075 ] ] } },
{ "type": "Feature", "properties": { "tipo": "trunk", "nombre": "Ruta 31 CH", "ref": "31", "color": "#f4a261" }, "geometry": { "type": "LineString", "coordinates": [ [ -69.04681, -26.83927 ], [ -69.04713, -26.83893 ] ] } },
{ "type": "Feature", "properties": { "tipo": "trunk", "nombre": "", "ref": "", "color": "#f4a261" }, "geometry": { "type": "LineString", "coordinates": [ [ -69.04578, -26.84055 ], [ -69.04681, -26.83927 ] ] } },
{ "type": "Feature", "properties": { "tipo": "trunk", "nombre": "Ruta 31 CH", "ref": "31", "color": "#f4a261" }, "geometry": { "type": "LineString", "coordinates": [ [ -69.04492, -26.84164 ], [ -69.04531, -26.84113 ] ] } },
{ "type": "Feature", "properties": { "tipo": "trunk", "nombre": "Ruta 31 CH", "ref": "31", "color": "#f4a261" }, "geometry": { "type": "LineString", "coordinates": [ [ -69.04713, -26.83893 ], [ -69.04599, -26.84068 ] ] } },
{ "type": "Feature", "properties": { "tipo": "trunk", "nombre": "Ruta 31 CH", "ref": "31", "color": "#f4a261" }, "geometry": { "type": "LineString", "coordinates": [ [ -69.05036, -26.83634 ], [ -69.04713, -26.83893 ] ] } },
{ "type": "Feature", "properties": { "tipo": "trunk", "nombre": "Ruta 31 CH", "ref": "31", "color": "#f4a261" }, "geometry": { "type": "LineString", "coordinates": [ [ -69.01985, -26.93092 ], [ -69.01962, -26.93182 ] ] } },
{ "type": "Feature", "properties": { "tipo": "trunk", "nombre": "Ruta 31 CH", "ref": "31", "color": "#f4a261" }, "geometry": { "type": "LineString", "coordinates": [ [ -69.01994, -26.93053 ], [ -69.01985, -26.93092 ] ] } },
{ "type": "Feature", "properties": { "tipo": "trunk", "nombre": "Ruta 31 CH", "ref": "31", "color": "#f4a261" }, "geometry": { "type": "LineString", "coordinates": [ [ -69.02007, -26.93 ], [ -69.01994, -26.93053 ] ] } },
{ "type": "Feature", "properties": { "tipo": "trunk", "nombre": "Ruta 31 CH", "ref": "31", "color": "#f4a261" }, "geometry": { "type": "LineString", "coordinates": [ [ -68.47892, -26.88945 ], [ -68.46496, -26.89727 ] ] } },
{ "type": "Feature", "properties": { "tipo": "trunk", "nombre": "Ruta 31 CH", "ref": "31", "color": "#f4a261" }, "geometry": { "type": "LineString", "coordinates": [ [ -68.48604, -26.89182 ], [ -68.47892, -26.88945 ] ] } },
{ "type": "Feature", "properties": { "tipo": "trunk", "nombre": "Ruta 31 CH", "ref": "31", "color": "#f4a261" }, "geometry": { "type": "LineString", "coordinates": [ [ -68.49452, -26.8895 ], [ -68.48604, -26.89182 ] ] } },
{ "type": "Feature", "properties": { "tipo": "trunk", "nombre": "Ruta 31 CH", "ref": "31", "color": "#f4a261" }, "geometry": { "type": "LineString", "coordinates": [ [ -68.46496, -26.89727 ], [ -68.44487, -26.90276 ], [ -68.43358, -26.90089 ] ] } },
{ "type": "Feature", "properties": { "tipo": "trunk", "nombre": "Ruta 31 CH", "ref": "31", "color": "#f4a261" }, "geometry": { "type": "LineString", "coordinates": [ [ -68.34949, -26.89422 ], [ -68.33504, -26.87948 ] ] } },
{ "type": "Feature", "properties": { "tipo": "trunk", "nombre": "Ruta 31 CH", "ref": "31", "color": "#f4a261" }, "geometry": { "type": "LineString", "coordinates": [ [ -68.43358, -26.90089 ], [ -68.41167, -26.90575 ], [ -68.3906, -26.90874 ], [ -68.36743, -26.90596 ], [ -68.34949, -26.89422 ] ] } },
{ "type": "Feature", "properties": { "tipo": "trunk", "nombre": "Ruta 31 CH", "ref": "31", "color": "#f4a261" }, "geometry": { "type": "LineString", "coordinates": [ [ -68.33504, -26.87948 ], [ -68.33207, -26.87855 ] ] } },
{ "type": "Feature", "properties": { "tipo": "trunk", "nombre": "Ruta 31 CH", "ref": "31", "color": "#f4a261" }, "geometry": { "type": "LineString", "coordinates": [ [ -69.05253, -26.83563 ], [ -69.05036, -26.83634 ] ] } },
{ "type": "Feature", "properties": { "tipo": "trunk", "nombre": "Ruta 31 CH", "ref": "31", "color": "#f4a261" }, "geometry": { "type": "LineString", "coordinates": [ [ -68.94229, -27.07701 ], [ -68.93815, -27.07603 ] ] } },
{ "type": "Feature", "properties": { "tipo": "trunk", "nombre": "Ruta 31 CH", "ref": "31", "color": "#f4a261" }, "geometry": { "type": "LineString", "coordinates": [ [ -68.96415, -27.07682 ], [ -68.94229, -27.07701 ] ] } },
{ "type": "Feature", "properties": { "tipo": "trunk", "nombre": "Ruta 31 CH", "ref": "31", "color": "#f4a261" }, "geometry": { "type": "LineString", "coordinates": [ [ -69.01962, -26.93182 ], [ -69.00486, -26.99173 ], [ -69.00222, -27.0144 ], [ -68.99315, -27.04164 ], [ -68.98046, -27.06398 ], [ -68.96415, -27.07682 ] ] } },
{ "type": "Feature", "properties": { "tipo": "trunk", "nombre": "Ruta 31 CH", "ref": "31", "color": "#f4a261" }, "geometry": { "type": "LineString", "coordinates": [ [ -69.04492, -26.84164 ], [ -69.03705, -26.86161 ], [ -69.02007, -26.93 ] ] } },
{ "type": "Feature", "properties": { "tipo": "trunk", "nombre": "Ruta 31 CH", "ref": "31", "color": "#f4a261" }, "geometry": { "type": "LineString", "coordinates": [ [ -68.33207, -26.87855 ], [ -68.32898, -26.87933 ] ] } },
{ "type": "Feature", "properties": { "tipo": "trunk", "nombre": "Ruta 31 CH", "ref": "31", "color": "#f4a261" }, "geometry": { "type": "LineString", "coordinates": [ [ -68.72577, -26.92877 ], [ -68.72225, -26.92573 ] ] } },
{ "type": "Feature", "properties": { "tipo": "trunk", "nombre": "Ruta 31 CH", "ref": "31", "color": "#f4a261" }, "geometry": { "type": "LineString", "coordinates": [ [ -68.7272, -26.92995 ], [ -68.72577, -26.92877 ] ] } },
{ "type": "Feature", "properties": { "tipo": "trunk", "nombre": "Ruta 31 CH", "ref": "31", "color": "#f4a261" }, "geometry": { "type": "LineString", "coordinates": [ [ -68.75268, -26.94123 ], [ -68.7293, -26.93124 ], [ -68.7272, -26.92995 ] ] } },
{ "type": "Feature", "properties": { "tipo": "trunk", "nombre": "Ruta 31 CH", "ref": "31", "color": "#f4a261" }, "geometry": { "type": "LineString", "coordinates": [ [ -68.75626, -26.9426 ], [ -68.75268, -26.94123 ] ] } },
{ "type": "Feature", "properties": { "tipo": "trunk", "nombre": "Ruta 31 CH", "ref": "31", "color": "#f4a261" }, "geometry": { "type": "LineString", "coordinates": [ [ -69.19859, -26.81588 ], [ -69.17554, -26.82456 ], [ -69.15582, -26.83999 ], [ -69.13772, -26.8502 ], [ -69.11296, -26.84752 ], [ -69.05253, -26.83563 ] ] } },
{ "type": "Feature", "properties": { "tipo": "trunk", "nombre": "Ruta 31 CH", "ref": "31", "color": "#f4a261" }, "geometry": { "type": "LineString", "coordinates": [ [ -69.33148, -26.87397 ], [ -69.31358, -26.88434 ], [ -69.29127, -26.8888 ], [ -69.27069, -26.89219 ], [ -69.24751, -26.88788 ], [ -69.22843, -26.88075 ], [ -69.2213, -26.8644 ] ] } }
]
}
