{
"type": "FeatureCollection",
"name": "OLC",
"crs": { "type": "name", "properties": { "name": "urn:ogc:def:crs:OGC:1.3:CRS84" } },
"xy_coordinate_resolution": 1e-05,
"features": [
{ "type": "Feature", "properties": { "tipo": "trunk", "nombre": "Ruta 21 CH", "ref": "21", "color": "#f4a261" }, "geometry": { "type": "LineString", "coordinates": [ [ -68.25568, -21.23156 ], [ -68.2499, -21.22421 ] ] } },
{ "type": "Feature", "properties": { "tipo": "trunk", "nombre": "Ruta 21 CH", "ref": "21", "color": "#f4a261" }, "geometry": { "type": "LineString", "coordinates": [ [ -68.36228, -21.41645 ], [ -68.3445, -21.40024 ], [ -68.32323, -21.40214 ], [ -68.30362, -21.39534 ], [ -68.29988, -21.37079 ], [ -68.28673, -21.35253 ], [ -68.27861, -21.33346 ], [ -68.27078, -21.31361 ], [ -68.26962, -21.29311 ], [ -68.26645, -21.2702 ], [ -68.25995, -21.24783 ], [ -68.25568, -21.23156 ] ] } },
{ "type": "Feature", "properties": { "tipo": "trunk", "nombre": "Camino Avaroa-Alota", "ref": "", "color": "#f4a261" }, "geometry": { "type": "LineString", "coordinates": [ [ -67.8653, -21.44682 ], [ -67.89073, -21.43726 ], [ -67.91996, -21.42608 ], [ -67.94494, -21.41561 ], [ -67.96663, -21.4129 ], [ -67.98531, -21.40149 ], [ -68.00319, -21.38806 ], [ -68.01829, -21.36376 ], [ -68.03451, -21.34835 ], [ -68.0446, -21.32272 ], [ -68.06293, -21.30501 ], [ -68.08189, -21.29388 ], [ -68.10016, -21.28149 ], [ -68.12415, -21.26335 ], [ -68.1414, -21.2487 ], [ -68.16189, -21.23265 ], [ -68.18569, -21.22085 ], [ -68.21009, -21.20779 ], [ -68.21368, -21.20491 ] ] } },
{ "type": "Feature", "properties": { "tipo": "trunk", "nombre": "Carretera Avaroa-Alota", "ref": "", "color": "#f4a261" }, "geometry": { "type": "LineString", "coordinates": [ [ -68.21368, -21.20491 ], [ -68.21431, -21.20478 ] ] } },
{ "type": "Feature", "properties": { "tipo": "trunk", "nombre": "Avaroa-Ollague", "ref": "", "color": "#f4a261" }, "geometry": { "type": "LineString", "coordinates": [ [ -68.21431, -21.20478 ], [ -68.22969, -21.21285 ] ] } },
{ "type": "Feature", "properties": { "tipo": "trunk", "nombre": "Ruta 21 CH", "ref": "21", "color": "#f4a261" }, "geometry": { "type": "LineString", "coordinates": [ [ -68.2499, -21.22421 ], [ -68.2502, -21.22374 ] ] } },
{ "type": "Feature", "properties": { "tipo": "trunk", "nombre": "Ruta 21 CH", "ref": "21", "color": "#f4a261" }, "geometry": { "type": "LineString", "coordinates": [ [ -68.2502, -21.22374 ], [ -68.25023, -21.22344 ] ] } },
{ "type": "Feature", "properties": { "tipo": "trunk", "nombre": "Ruta 21 CH", "ref": "21", "color": "#f4a261" }, "geometry": { "type": "LineString", "coordinates": [ [ -68.25023, -21.22344 ], [ -68.22969, -21.21285 ] ] } }
]
}
