{
"type": "FeatureCollection",
"name": "OLL",
"crs": { "type": "name", "properties": { "name": "urn:ogc:def:crs:OGC:1.3:CRS84" } },
"xy_coordinate_resolution": 1e-05,
"features": [
{ "type": "Feature", "properties": { "tipo": "trunk", "nombre": "Ruta 21 CH", "ref": "21", "color": "#f4a261" }, "geometry": { "type": "LineString", "coordinates": [ [ -68.25029, -21.69592 ], [ -68.25693, -21.67309 ], [ -68.27264, -21.65718 ], [ -68.28335, -21.6342 ], [ -68.3004, -21.61903 ], [ -68.31467, -21.59785 ], [ -68.3134, -21.5717 ], [ -68.32701, -21.54599 ], [ -68.34346, -21.53418 ] ] } },
{ "type": "Feature", "properties": { "tipo": "trunk", "nombre": "Ruta 21 CH", "ref": "21", "color": "#f4a261" }, "geometry": { "type": "LineString", "coordinates": [ [ -68.34346, -21.53418 ], [ -68.36234, -21.5263 ], [ -68.38024, -21.51214 ], [ -68.39646, -21.49852 ], [ -68.39604, -21.47824 ], [ -68.3884, -21.45729 ], [ -68.38383, -21.43739 ], [ -68.36333, -21.42265 ], [ -68.36228, -21.41645 ] ] } },
{ "type": "Feature", "properties": { "tipo": "trunk", "nombre": "Ruta 21 CH", "ref": "21", "color": "#f4a261" }, "geometry": { "type": "LineString", "coordinates": [ [ -68.25568, -21.23156 ], [ -68.2499, -21.22421 ] ] } },
{ "type": "Feature", "properties": { "tipo": "trunk", "nombre": "Ruta 21 CH", "ref": "21", "color": "#f4a261" }, "geometry": { "type": "LineString", "coordinates": [ [ -68.36228, -21.41645 ], [ -68.3445, -21.40024 ], [ -68.32323, -21.40214 ], [ -68.30362, -21.39534 ], [ -68.29988, -21.37079 ], [ -68.28673, -21.35253 ], [ -68.27861, -21.33346 ], [ -68.27078, -21.31361 ], [ -68.26962, -21.29311 ], [ -68.26645, -21.2702 ], [ -68.25995, -21.24783 ], [ -68.25568, -21.23156 ] ] } },
{ "type": "Feature", "properties": { "tipo": "trunk", "nombre": "Camino Avaroa-Alota", "ref": "", "color": "#f4a261" }, "geometry": { "type": "LineString", "coordinates": [ [ -67.86499, -21.4467 ], [ -67.8653, -21.44682 ] ] } },
{ "type": "Feature", "properties": { "tipo": "trunk", "nombre": "Camino Avaroa-Alota", "ref": "", "color": "#f4a261" }, "geometry": { "type": "LineString", "coordinates": [ [ -67.8653, -21.44682 ], [ -67.89073, -21.43726 ], [ -67.91996, -21.42608 ], [ -67.94494, -21.41561 ], [ -67.96663, -21.4129 ], [ -67.98531, -21.40149 ], [ -68.00319, -21.38806 ], [ -68.01829, -21.36376 ], [ -68.03451, -21.34835 ], [ -68.0446, -21.32272 ], [ -68.06293, -21.30501 ], [ -68.08189, -21.29388 ], [ -68.10016, -21.28149 ], [ -68.12415, -21.26335 ], [ -68.1414, -21.2487 ], [ -68.16189, -21.23265 ], [ -68.18569, -21.22085 ], [ -68.21009, -21.20779 ], [ -68.21368, -21.20491 ] ] } },
{ "type": "Feature", "properties": { "tipo": "trunk", "nombre": "Carretera Avaroa-Alota", "ref": "", "color": "#f4a261" }, "geometry": { "type": "LineString", "coordinates": [ [ -68.21368, -21.20491 ], [ -68.21431, -21.20478 ] ] } },
{ "type": "Feature", "properties": { "tipo": "trunk", "nombre": "Camino Avaroa-Alota", "ref": "", "color": "#f4a261" }, "geometry": { "type": "LineString", "coordinates": [ [ -67.6164, -21.39939 ], [ -67.6433, -21.39742 ], [ -67.66537, -21.3998 ], [ -67.69333, -21.38984 ], [ -67.71604, -21.39285 ], [ -67.73836, -21.39777 ], [ -67.7597, -21.40237 ], [ -67.7833, -21.41215 ], [ -67.81404, -21.42018 ], [ -67.82289, -21.42515 ] ] } },
{ "type": "Feature", "properties": { "tipo": "trunk", "nombre": "Avaroa-Ollague", "ref": "", "color": "#f4a261" }, "geometry": { "type": "LineString", "coordinates": [ [ -68.21431, -21.20478 ], [ -68.22969, -21.21285 ] ] } },
{ "type": "Feature", "properties": { "tipo": "trunk", "nombre": "Ruta 21 CH", "ref": "21", "color": "#f4a261" }, "geometry": { "type": "LineString", "coordinates": [ [ -68.50099, -21.87249 ], [ -68.50704, -21.85088 ], [ -68.48963, -21.82799 ], [ -68.46874, -21.81724 ], [ -68.44815, -21.81032 ], [ -68.4267, -21.80003 ], [ -68.40147, -21.79739 ], [ -68.3733, -21.78032 ], [ -68.35477, -21.76651 ], [ -68.33093, -21.75544 ], [ -68.30376, -21.74706 ], [ -68.28534, -21.73737 ], [ -68.27188, -21.72161 ], [ -68.25776, -21.70546 ], [ -68.25029, -21.69592 ] ] } },
{ "type": "Feature", "properties": { "tipo": "trunk", "nombre": "Ruta 21 CH", "ref": "21", "color": "#f4a261" }, "geometry": { "type": "LineString", "coordinates": [ [ -68.2499, -21.22421 ], [ -68.2502, -21.22374 ] ] } },
{ "type": "Feature", "properties": { "tipo": "trunk", "nombre": "Ruta 21 CH", "ref": "21", "color": "#f4a261" }, "geometry": { "type": "LineString", "coordinates": [ [ -68.2502, -21.22374 ], [ -68.25023, -21.22344 ] ] } },
{ "type": "Feature", "properties": { "tipo": "trunk", "nombre": "Ruta 21 CH", "ref": "21", "color": "#f4a261" }, "geometry": { "type": "LineString", "coordinates": [ [ -68.25023, -21.22344 ], [ -68.22969, -21.21285 ] ] } },
{ "type": "Feature", "properties": { "tipo": "trunk", "nombre": "Camino Avaroa-Alota", "ref": "", "color": "#f4a261" }, "geometry": { "type": "LineString", "coordinates": [ [ -67.83155, -21.43439 ], [ -67.8474, -21.44721 ], [ -67.86499, -21.4467 ] ] } },
{ "type": "Feature", "properties": { "tipo": "trunk", "nombre": "Camino Avaroa-Alota", "ref": "", "color": "#f4a261" }, "geometry": { "type": "LineString", "coordinates": [ [ -67.82602, -21.42898 ], [ -67.83155, -21.43439 ] ] } },
{ "type": "Feature", "properties": { "tipo": "trunk", "nombre": "Camino Avaroa-Alota", "ref": "", "color": "#f4a261" }, "geometry": { "type": "LineString", "coordinates": [ [ -67.82289, -21.42515 ], [ -67.82602, -21.42898 ] ] } }
]
}
