{
"type": "FeatureCollection",
"name": "OSO",
"crs": { "type": "name", "properties": { "name": "urn:ogc:def:crs:OGC:1.3:CRS84" } },
"xy_coordinate_resolution": 1e-05,
"features": [
{ "type": "Feature", "properties": { "tipo": "motorway", "nombre": "Ruta 5 Sur", "ref": "5", "color": "#e63946" }, "geometry": { "type": "LineString", "coordinates": [ [ -72.98834, -41.33946 ], [ -72.98807, -41.34003 ] ] } },
{ "type": "Feature", "properties": { "tipo": "motorway", "nombre": "Ruta 5 Sur", "ref": "5", "color": "#e63946" }, "geometry": { "type": "LineString", "coordinates": [ [ -73.05398, -41.21727 ], [ -73.05428, -41.21679 ] ] } },
{ "type": "Feature", "properties": { "tipo": "motorway", "nombre": "Ruta 5 Sur", "ref": "5", "color": "#e63946" }, "geometry": { "type": "LineString", "coordinates": [ [ -73.067, -41.15659 ], [ -73.06319, -41.13118 ], [ -73.06297, -41.12795 ] ] } },
{ "type": "Feature", "properties": { "tipo": "motorway", "nombre": "Ruta 5 Sur", "ref": "5", "color": "#e63946" }, "geometry": { "type": "LineString", "coordinates": [ [ -73.05442, -41.21684 ], [ -73.05412, -41.21732 ] ] } },
{ "type": "Feature", "properties": { "tipo": "trunk", "nombre": "Ruta 215 CH", "ref": "", "color": "#f4a261" }, "geometry": { "type": "LineString", "coordinates": [ [ -72.60341, -40.68726 ], [ -72.60213, -40.68706 ] ] } },
{ "type": "Feature", "properties": { "tipo": "trunk", "nombre": "Ruta 215 CH", "ref": "215", "color": "#f4a261" }, "geometry": { "type": "LineString", "coordinates": [ [ -72.30866, -40.69466 ], [ -72.29871, -40.67656 ], [ -72.27555, -40.67162 ], [ -72.25223, -40.66246 ] ] } },
{ "type": "Feature", "properties": { "tipo": "trunk", "nombre": "Ruta 215 CH", "ref": "215", "color": "#f4a261" }, "geometry": { "type": "LineString", "coordinates": [ [ -72.33386, -40.70086 ], [ -72.33338, -40.70161 ] ] } },
{ "type": "Feature", "properties": { "tipo": "motorway", "nombre": "Ruta 5 Sur", "ref": "5", "color": "#e63946" }, "geometry": { "type": "LineString", "coordinates": [ [ -73.00814, -41.26736 ], [ -73.00907, -41.26568 ] ] } },
{ "type": "Feature", "properties": { "tipo": "motorway", "nombre": "Ruta 5 Sur", "ref": "5", "color": "#e63946" }, "geometry": { "type": "LineString", "coordinates": [ [ -73.00776, -41.26809 ], [ -73.00814, -41.26736 ] ] } },
{ "type": "Feature", "properties": { "tipo": "motorway", "nombre": "Ruta 5 Sur", "ref": "5", "color": "#e63946" }, "geometry": { "type": "LineString", "coordinates": [ [ -73.00722, -41.27138 ], [ -73.00747, -41.27421 ] ] } },
{ "type": "Feature", "properties": { "tipo": "motorway", "nombre": "Ruta 5 Sur", "ref": "5", "color": "#e63946" }, "geometry": { "type": "LineString", "coordinates": [ [ -73.00832, -41.2674 ], [ -73.00792, -41.26814 ] ] } },
{ "type": "Feature", "properties": { "tipo": "motorway", "nombre": "Ruta 5 Sur", "ref": "5", "color": "#e63946" }, "geometry": { "type": "LineString", "coordinates": [ [ -72.98883, -41.33801 ], [ -72.99187, -41.33444 ] ] } },
{ "type": "Feature", "properties": { "tipo": "motorway", "nombre": "Ruta 5 Sur", "ref": "5", "color": "#e63946" }, "geometry": { "type": "LineString", "coordinates": [ [ -73.02396, -41.254 ], [ -73.01944, -41.25743 ] ] } },
{ "type": "Feature", "properties": { "tipo": "motorway", "nombre": "Ruta 5 Sur", "ref": "5", "color": "#e63946" }, "geometry": { "type": "LineString", "coordinates": [ [ -73.0474, -41.22802 ], [ -73.04892, -41.2255 ] ] } },
{ "type": "Feature", "properties": { "tipo": "motorway", "nombre": "Ruta 5 Sur", "ref": "5", "color": "#e63946" }, "geometry": { "type": "LineString", "coordinates": [ [ -73.00705, -41.26994 ], [ -73.00776, -41.26809 ] ] } },
{ "type": "Feature", "properties": { "tipo": "motorway", "nombre": "Ruta 5 Sur", "ref": "5", "color": "#e63946" }, "geometry": { "type": "LineString", "coordinates": [ [ -73.01063, -41.31478 ], [ -73.00781, -41.32 ] ] } },
{ "type": "Feature", "properties": { "tipo": "motorway", "nombre": "Ruta 5 Sur", "ref": "5", "color": "#e63946" }, "geometry": { "type": "LineString", "coordinates": [ [ -73.032, -41.24772 ], [ -73.03873, -41.24206 ] ] } },
{ "type": "Feature", "properties": { "tipo": "motorway", "nombre": "Ruta 5 Sur", "ref": "5", "color": "#e63946" }, "geometry": { "type": "LineString", "coordinates": [ [ -73.01168, -41.26337 ], [ -73.00832, -41.2674 ] ] } },
{ "type": "Feature", "properties": { "tipo": "motorway", "nombre": "Ruta 5 Sur", "ref": "5", "color": "#e63946" }, "geometry": { "type": "LineString", "coordinates": [ [ -73.01155, -41.26325 ], [ -73.01182, -41.26306 ] ] } },
{ "type": "Feature", "properties": { "tipo": "motorway", "nombre": "Ruta 5 Sur", "ref": "5", "color": "#e63946" }, "geometry": { "type": "LineString", "coordinates": [ [ -73.01197, -41.26315 ], [ -73.01168, -41.26337 ] ] } },
{ "type": "Feature", "properties": { "tipo": "motorway", "nombre": "Ruta 5 Sur", "ref": "5", "color": "#e63946" }, "geometry": { "type": "LineString", "coordinates": [ [ -73.0415, -41.23796 ], [ -73.03598, -41.24488 ] ] } },
{ "type": "Feature", "properties": { "tipo": "trunk", "nombre": "Ruta 215 CH", "ref": "215", "color": "#f4a261" }, "geometry": { "type": "LineString", "coordinates": [ [ -72.60213, -40.68706 ], [ -72.58987, -40.68551 ] ] } },
{ "type": "Feature", "properties": { "tipo": "motorway", "nombre": "Ruta 5 Sur", "ref": "5", "color": "#e63946" }, "geometry": { "type": "LineString", "coordinates": [ [ -72.98845, -41.3388 ], [ -72.98883, -41.33801 ] ] } },
{ "type": "Feature", "properties": { "tipo": "motorway", "nombre": "Ruta 5 Sur", "ref": "5", "color": "#e63946" }, "geometry": { "type": "LineString", "coordinates": [ [ -73.00718, -41.32034 ], [ -73.01046, -41.31439 ] ] } },
{ "type": "Feature", "properties": { "tipo": "motorway", "nombre": "Ruta 5 Sur", "ref": "5", "color": "#e63946" }, "geometry": { "type": "LineString", "coordinates": [ [ -72.99158, -41.3349 ], [ -72.98972, -41.33685 ] ] } },
{ "type": "Feature", "properties": { "tipo": "motorway", "nombre": "Ruta 5 Sur", "ref": "5", "color": "#e63946" }, "geometry": { "type": "LineString", "coordinates": [ [ -73.07061, -41.17561 ], [ -73.07028, -41.19068 ] ] } },
{ "type": "Feature", "properties": { "tipo": "trunk", "nombre": "Ruta 215 CH", "ref": "", "color": "#f4a261" }, "geometry": { "type": "LineString", "coordinates": [ [ -72.60466, -40.68636 ], [ -72.60341, -40.68726 ] ] } },
{ "type": "Feature", "properties": { "tipo": "trunk", "nombre": "Ruta 215 CH", "ref": "215", "color": "#f4a261" }, "geometry": { "type": "LineString", "coordinates": [ [ -72.33884, -40.69231 ], [ -72.33386, -40.70086 ] ] } },
{ "type": "Feature", "properties": { "tipo": "trunk", "nombre": "Ruta 215 CH", "ref": "215", "color": "#f4a261" }, "geometry": { "type": "LineString", "coordinates": [ [ -72.58022, -40.68233 ], [ -72.5538, -40.6896 ], [ -72.52421, -40.70275 ], [ -72.5058, -40.71365 ], [ -72.48503, -40.72477 ], [ -72.4594, -40.73026 ], [ -72.43359, -40.72401 ] ] } },
{ "type": "Feature", "properties": { "tipo": "trunk", "nombre": "Ruta 215 CH", "ref": "215", "color": "#f4a261" }, "geometry": { "type": "LineString", "coordinates": [ [ -72.30893, -40.69491 ], [ -72.30866, -40.69466 ] ] } },
{ "type": "Feature", "properties": { "tipo": "trunk", "nombre": "Ruta 215 CH", "ref": "215", "color": "#f4a261" }, "geometry": { "type": "LineString", "coordinates": [ [ -72.31561, -40.70422 ], [ -72.30893, -40.69491 ] ] } },
{ "type": "Feature", "properties": { "tipo": "trunk", "nombre": "Ruta 215 CH", "ref": "215", "color": "#f4a261" }, "geometry": { "type": "LineString", "coordinates": [ [ -72.31614, -40.70436 ], [ -72.31561, -40.70422 ] ] } },
{ "type": "Feature", "properties": { "tipo": "trunk", "nombre": "Ruta 215 CH", "ref": "215", "color": "#f4a261" }, "geometry": { "type": "LineString", "coordinates": [ [ -72.33338, -40.70161 ], [ -72.32813, -40.70744 ] ] } },
{ "type": "Feature", "properties": { "tipo": "trunk", "nombre": "Ruta 215 CH", "ref": "215", "color": "#f4a261" }, "geometry": { "type": "LineString", "coordinates": [ [ -72.67453, -40.64427 ], [ -72.62905, -40.67146 ] ] } },
{ "type": "Feature", "properties": { "tipo": "motorway", "nombre": "Ruta 5 Sur", "ref": "5", "color": "#e63946" }, "geometry": { "type": "LineString", "coordinates": [ [ -73.00907, -41.26568 ], [ -73.01155, -41.26325 ] ] } },
{ "type": "Feature", "properties": { "tipo": "motorway", "nombre": "Ruta 5 Sur", "ref": "5", "color": "#e63946" }, "geometry": { "type": "LineString", "coordinates": [ [ -73.07094, -41.10239 ], [ -73.09201, -41.06483 ] ] } },
{ "type": "Feature", "properties": { "tipo": "motorway", "nombre": "Ruta 5 Sur", "ref": "5", "color": "#e63946" }, "geometry": { "type": "LineString", "coordinates": [ [ -73.00967, -41.30236 ], [ -73.01055, -41.31359 ] ] } },
{ "type": "Feature", "properties": { "tipo": "motorway", "nombre": "Ruta 5 Sur", "ref": "5", "color": "#e63946" }, "geometry": { "type": "LineString", "coordinates": [ [ -73.00781, -41.32 ], [ -73.00515, -41.32242 ] ] } },
{ "type": "Feature", "properties": { "tipo": "motorway", "nombre": "Ruta 5 Sur", "ref": "5", "color": "#e63946" }, "geometry": { "type": "LineString", "coordinates": [ [ -73.01027, -41.31183 ], [ -73.00935, -41.30048 ] ] } },
{ "type": "Feature", "properties": { "tipo": "motorway", "nombre": "Ruta 5 Sur", "ref": "5", "color": "#e63946" }, "geometry": { "type": "LineString", "coordinates": [ [ -72.99846, -41.3284 ], [ -73.00388, -41.32342 ] ] } },
{ "type": "Feature", "properties": { "tipo": "motorway", "nombre": "Ruta 5 Sur", "ref": "5", "color": "#e63946" }, "geometry": { "type": "LineString", "coordinates": [ [ -72.99335, -41.33326 ], [ -72.99158, -41.3349 ] ] } },
{ "type": "Feature", "properties": { "tipo": "motorway", "nombre": "Ruta 5 Sur", "ref": "5", "color": "#e63946" }, "geometry": { "type": "LineString", "coordinates": [ [ -72.99479, -41.33196 ], [ -72.99335, -41.33326 ] ] } },
{ "type": "Feature", "properties": { "tipo": "motorway", "nombre": "Ruta 5 Sur", "ref": "5", "color": "#e63946" }, "geometry": { "type": "LineString", "coordinates": [ [ -72.99187, -41.33444 ], [ -72.9927, -41.33369 ] ] } },
{ "type": "Feature", "properties": { "tipo": "trunk", "nombre": "Ruta 215 CH", "ref": "215", "color": "#f4a261" }, "geometry": { "type": "LineString", "coordinates": [ [ -72.4043, -40.71565 ], [ -72.38218, -40.70352 ], [ -72.3555, -40.69678 ], [ -72.33884, -40.69231 ] ] } },
{ "type": "Feature", "properties": { "tipo": "trunk", "nombre": "Ruta 215 CH", "ref": "215", "color": "#f4a261" }, "geometry": { "type": "LineString", "coordinates": [ [ -72.40607, -40.71649 ], [ -72.40575, -40.71634 ] ] } },
{ "type": "Feature", "properties": { "tipo": "motorway", "nombre": "Ruta 5 Sur", "ref": "5", "color": "#e63946" }, "geometry": { "type": "LineString", "coordinates": [ [ -73.00515, -41.32242 ], [ -72.99479, -41.33196 ] ] } },
{ "type": "Feature", "properties": { "tipo": "motorway", "nombre": "Ruta 5 Sur", "ref": "5", "color": "#e63946" }, "geometry": { "type": "LineString", "coordinates": [ [ -73.00388, -41.32342 ], [ -73.00718, -41.32034 ] ] } },
{ "type": "Feature", "properties": { "tipo": "motorway", "nombre": "Ruta 5 Sur", "ref": "5", "color": "#e63946" }, "geometry": { "type": "LineString", "coordinates": [ [ -73.01046, -41.31439 ], [ -73.01027, -41.31183 ] ] } },
{ "type": "Feature", "properties": { "tipo": "motorway", "nombre": "Ruta 5 Sur", "ref": "5", "color": "#e63946" }, "geometry": { "type": "LineString", "coordinates": [ [ -73.01055, -41.31359 ], [ -73.01063, -41.31478 ] ] } },
{ "type": "Feature", "properties": { "tipo": "motorway", "nombre": "Ruta 5 Sur", "ref": "5", "color": "#e63946" }, "geometry": { "type": "LineString", "coordinates": [ [ -72.9938, -41.3327 ], [ -72.99465, -41.33192 ] ] } },
{ "type": "Feature", "properties": { "tipo": "motorway", "nombre": "Ruta 5 Sur", "ref": "5", "color": "#e63946" }, "geometry": { "type": "LineString", "coordinates": [ [ -72.98972, -41.33685 ], [ -72.989, -41.33803 ] ] } },
{ "type": "Feature", "properties": { "tipo": "motorway", "nombre": "Ruta 5 Sur", "ref": "5", "color": "#e63946" }, "geometry": { "type": "LineString", "coordinates": [ [ -72.98632, -41.34329 ], [ -72.98845, -41.3388 ] ] } },
{ "type": "Feature", "properties": { "tipo": "motorway", "nombre": "Ruta 5 Sur", "ref": "5", "color": "#e63946" }, "geometry": { "type": "LineString", "coordinates": [ [ -73.06341, -41.11723 ], [ -73.06322, -41.118 ] ] } },
{ "type": "Feature", "properties": { "tipo": "motorway", "nombre": "Ruta 5 Sur", "ref": "5", "color": "#e63946" }, "geometry": { "type": "LineString", "coordinates": [ [ -73.09157, -41.06584 ], [ -73.07109, -41.10245 ] ] } },
{ "type": "Feature", "properties": { "tipo": "motorway", "nombre": "Ruta 5 Sur", "ref": "5", "color": "#e63946" }, "geometry": { "type": "LineString", "coordinates": [ [ -73.0233, -41.25433 ], [ -73.02621, -41.25215 ] ] } },
{ "type": "Feature", "properties": { "tipo": "motorway", "nombre": "Ruta 5 Sur", "ref": "5", "color": "#e63946" }, "geometry": { "type": "LineString", "coordinates": [ [ -73.01959, -41.25718 ], [ -73.0233, -41.25433 ] ] } },
{ "type": "Feature", "properties": { "tipo": "motorway", "nombre": "Ruta 5 Sur", "ref": "5", "color": "#e63946" }, "geometry": { "type": "LineString", "coordinates": [ [ -73.03598, -41.24488 ], [ -73.02526, -41.25304 ] ] } },
{ "type": "Feature", "properties": { "tipo": "motorway", "nombre": "Ruta 5 Sur", "ref": "5", "color": "#e63946" }, "geometry": { "type": "LineString", "coordinates": [ [ -73.02526, -41.25304 ], [ -73.02396, -41.254 ] ] } },
{ "type": "Feature", "properties": { "tipo": "motorway", "nombre": "Ruta 5 Sur", "ref": "5", "color": "#e63946" }, "geometry": { "type": "LineString", "coordinates": [ [ -73.01854, -41.25797 ], [ -73.01959, -41.25718 ] ] } },
{ "type": "Feature", "properties": { "tipo": "motorway", "nombre": "Ruta 5 Sur", "ref": "5", "color": "#e63946" }, "geometry": { "type": "LineString", "coordinates": [ [ -73.01423, -41.26123 ], [ -73.01854, -41.25797 ] ] } },
{ "type": "Feature", "properties": { "tipo": "motorway", "nombre": "Ruta 5 Sur", "ref": "5", "color": "#e63946" }, "geometry": { "type": "LineString", "coordinates": [ [ -73.01182, -41.26306 ], [ -73.01423, -41.26123 ] ] } },
{ "type": "Feature", "properties": { "tipo": "motorway", "nombre": "Ruta 5 Sur", "ref": "5", "color": "#e63946" }, "geometry": { "type": "LineString", "coordinates": [ [ -73.0071, -41.27201 ], [ -73.00705, -41.26994 ] ] } },
{ "type": "Feature", "properties": { "tipo": "motorway", "nombre": "Ruta 5 Sur", "ref": "5", "color": "#e63946" }, "geometry": { "type": "LineString", "coordinates": [ [ -73.00755, -41.27762 ], [ -73.0071, -41.27201 ] ] } },
{ "type": "Feature", "properties": { "tipo": "motorway", "nombre": "Ruta 5 Sur", "ref": "5", "color": "#e63946" }, "geometry": { "type": "LineString", "coordinates": [ [ -73.00792, -41.26814 ], [ -73.00722, -41.26996 ] ] } },
{ "type": "Feature", "properties": { "tipo": "motorway", "nombre": "Ruta 5 Sur", "ref": "5", "color": "#e63946" }, "geometry": { "type": "LineString", "coordinates": [ [ -73.00722, -41.26996 ], [ -73.00722, -41.27138 ] ] } },
{ "type": "Feature", "properties": { "tipo": "motorway", "nombre": "Ruta 5 Sur", "ref": "5", "color": "#e63946" }, "geometry": { "type": "LineString", "coordinates": [ [ -73.00764, -41.27879 ], [ -73.00755, -41.27762 ] ] } },
{ "type": "Feature", "properties": { "tipo": "motorway", "nombre": "Ruta 5 Sur", "ref": "5", "color": "#e63946" }, "geometry": { "type": "LineString", "coordinates": [ [ -72.99746, -41.32932 ], [ -72.99846, -41.3284 ] ] } },
{ "type": "Feature", "properties": { "tipo": "motorway", "nombre": "Ruta 5 Sur", "ref": "5", "color": "#e63946" }, "geometry": { "type": "LineString", "coordinates": [ [ -72.99465, -41.33192 ], [ -72.99746, -41.32932 ] ] } },
{ "type": "Feature", "properties": { "tipo": "motorway", "nombre": "Ruta 5 Sur", "ref": "5", "color": "#e63946" }, "geometry": { "type": "LineString", "coordinates": [ [ -72.98016, -41.35638 ], [ -72.98093, -41.35474 ] ] } },
{ "type": "Feature", "properties": { "tipo": "motorway", "nombre": "Ruta 5 Sur", "ref": "5", "color": "#e63946" }, "geometry": { "type": "LineString", "coordinates": [ [ -72.989, -41.33803 ], [ -72.98834, -41.33946 ] ] } },
{ "type": "Feature", "properties": { "tipo": "motorway", "nombre": "Ruta 5 Sur", "ref": "5", "color": "#e63946" }, "geometry": { "type": "LineString", "coordinates": [ [ -72.98807, -41.34003 ], [ -72.98678, -41.34277 ] ] } },
{ "type": "Feature", "properties": { "tipo": "motorway", "nombre": "Ruta 5 Sur", "ref": "5", "color": "#e63946" }, "geometry": { "type": "LineString", "coordinates": [ [ -72.98678, -41.34277 ], [ -72.98541, -41.34565 ] ] } },
{ "type": "Feature", "properties": { "tipo": "motorway", "nombre": "Ruta 5 Sur", "ref": "5", "color": "#e63946" }, "geometry": { "type": "LineString", "coordinates": [ [ -72.98541, -41.34565 ], [ -72.98261, -41.35155 ] ] } },
{ "type": "Feature", "properties": { "tipo": "motorway", "nombre": "Ruta 5 Sur", "ref": "5", "color": "#e63946" }, "geometry": { "type": "LineString", "coordinates": [ [ -72.98261, -41.35155 ], [ -72.98182, -41.35321 ] ] } },
{ "type": "Feature", "properties": { "tipo": "motorway", "nombre": "Ruta 5 Sur", "ref": "5", "color": "#e63946" }, "geometry": { "type": "LineString", "coordinates": [ [ -72.98103, -41.35488 ], [ -72.98026, -41.35652 ] ] } },
{ "type": "Feature", "properties": { "tipo": "motorway", "nombre": "Ruta 5 Sur", "ref": "5", "color": "#e63946" }, "geometry": { "type": "LineString", "coordinates": [ [ -72.98182, -41.35321 ], [ -72.98103, -41.35488 ] ] } },
{ "type": "Feature", "properties": { "tipo": "motorway", "nombre": "Ruta 5 Sur", "ref": "5", "color": "#e63946" }, "geometry": { "type": "LineString", "coordinates": [ [ -72.98093, -41.35474 ], [ -72.98181, -41.35287 ] ] } },
{ "type": "Feature", "properties": { "tipo": "motorway", "nombre": "Ruta 5 Sur", "ref": "5", "color": "#e63946" }, "geometry": { "type": "LineString", "coordinates": [ [ -72.98419, -41.34782 ], [ -72.98632, -41.34329 ] ] } },
{ "type": "Feature", "properties": { "tipo": "motorway", "nombre": "Ruta 5 Sur", "ref": "5", "color": "#e63946" }, "geometry": { "type": "LineString", "coordinates": [ [ -72.98293, -41.35049 ], [ -72.98419, -41.34782 ] ] } },
{ "type": "Feature", "properties": { "tipo": "motorway", "nombre": "Ruta 5 Sur", "ref": "5", "color": "#e63946" }, "geometry": { "type": "LineString", "coordinates": [ [ -72.98181, -41.35287 ], [ -72.98293, -41.35049 ] ] } },
{ "type": "Feature", "properties": { "tipo": "motorway", "nombre": "Ruta 5 Sur", "ref": "5", "color": "#e63946" }, "geometry": { "type": "LineString", "coordinates": [ [ -73.00747, -41.27421 ], [ -73.00766, -41.27674 ] ] } },
{ "type": "Feature", "properties": { "tipo": "motorway", "nombre": "Ruta 5 Sur", "ref": "5", "color": "#e63946" }, "geometry": { "type": "LineString", "coordinates": [ [ -73.00766, -41.27674 ], [ -73.00791, -41.28059 ] ] } },
{ "type": "Feature", "properties": { "tipo": "motorway", "nombre": "Ruta 5 Sur", "ref": "5", "color": "#e63946" }, "geometry": { "type": "LineString", "coordinates": [ [ -73.00776, -41.28043 ], [ -73.00764, -41.27879 ] ] } },
{ "type": "Feature", "properties": { "tipo": "motorway", "nombre": "Ruta 5 Sur", "ref": "5", "color": "#e63946" }, "geometry": { "type": "LineString", "coordinates": [ [ -73.00813, -41.28568 ], [ -73.00799, -41.28371 ] ] } },
{ "type": "Feature", "properties": { "tipo": "motorway", "nombre": "Ruta 5 Sur", "ref": "5", "color": "#e63946" }, "geometry": { "type": "LineString", "coordinates": [ [ -73.00795, -41.28316 ], [ -73.00776, -41.28043 ] ] } },
{ "type": "Feature", "properties": { "tipo": "motorway", "nombre": "Ruta 5 Sur", "ref": "5", "color": "#e63946" }, "geometry": { "type": "LineString", "coordinates": [ [ -73.00896, -41.29313 ], [ -73.00919, -41.29591 ] ] } },
{ "type": "Feature", "properties": { "tipo": "motorway", "nombre": "Ruta 5 Sur", "ref": "5", "color": "#e63946" }, "geometry": { "type": "LineString", "coordinates": [ [ -73.00791, -41.28059 ], [ -73.00896, -41.29313 ] ] } },
{ "type": "Feature", "properties": { "tipo": "motorway", "nombre": "Ruta 5 Sur", "ref": "5", "color": "#e63946" }, "geometry": { "type": "LineString", "coordinates": [ [ -73.00915, -41.29785 ], [ -73.00813, -41.28568 ] ] } },
{ "type": "Feature", "properties": { "tipo": "motorway", "nombre": "Ruta 5 Sur", "ref": "5", "color": "#e63946" }, "geometry": { "type": "LineString", "coordinates": [ [ -73.00935, -41.30048 ], [ -73.00915, -41.29785 ] ] } },
{ "type": "Feature", "properties": { "tipo": "motorway", "nombre": "Ruta 5 Sur", "ref": "5", "color": "#e63946" }, "geometry": { "type": "LineString", "coordinates": [ [ -73.05706, -41.21251 ], [ -73.05637, -41.21365 ] ] } },
{ "type": "Feature", "properties": { "tipo": "motorway", "nombre": "Ruta 5 Sur", "ref": "5", "color": "#e63946" }, "geometry": { "type": "LineString", "coordinates": [ [ -73.05637, -41.21365 ], [ -73.05442, -41.21684 ] ] } },
{ "type": "Feature", "properties": { "tipo": "motorway", "nombre": "Ruta 5 Sur", "ref": "5", "color": "#e63946" }, "geometry": { "type": "LineString", "coordinates": [ [ -73.05207, -41.22039 ], [ -73.05398, -41.21727 ] ] } },
{ "type": "Feature", "properties": { "tipo": "motorway", "nombre": "Ruta 5 Sur", "ref": "5", "color": "#e63946" }, "geometry": { "type": "LineString", "coordinates": [ [ -73.0515, -41.22131 ], [ -73.05207, -41.22039 ] ] } },
{ "type": "Feature", "properties": { "tipo": "motorway", "nombre": "Ruta 5 Sur", "ref": "5", "color": "#e63946" }, "geometry": { "type": "LineString", "coordinates": [ [ -73.05161, -41.22145 ], [ -73.04437, -41.23321 ] ] } },
{ "type": "Feature", "properties": { "tipo": "motorway", "nombre": "Ruta 5 Sur", "ref": "5", "color": "#e63946" }, "geometry": { "type": "LineString", "coordinates": [ [ -73.05412, -41.21732 ], [ -73.05299, -41.21923 ] ] } },
{ "type": "Feature", "properties": { "tipo": "motorway", "nombre": "Ruta 5 Sur", "ref": "5", "color": "#e63946" }, "geometry": { "type": "LineString", "coordinates": [ [ -73.04437, -41.23321 ], [ -73.0415, -41.23796 ] ] } },
{ "type": "Feature", "properties": { "tipo": "motorway", "nombre": "Ruta 5 Sur", "ref": "5", "color": "#e63946" }, "geometry": { "type": "LineString", "coordinates": [ [ -73.05299, -41.21923 ], [ -73.05161, -41.22145 ] ] } },
{ "type": "Feature", "properties": { "tipo": "motorway", "nombre": "Ruta 5 Sur", "ref": "5", "color": "#e63946" }, "geometry": { "type": "LineString", "coordinates": [ [ -73.03154, -41.24807 ], [ -73.032, -41.24772 ] ] } },
{ "type": "Feature", "properties": { "tipo": "motorway", "nombre": "Ruta 5 Sur", "ref": "5", "color": "#e63946" }, "geometry": { "type": "LineString", "coordinates": [ [ -73.03086, -41.24859 ], [ -73.03154, -41.24807 ] ] } },
{ "type": "Feature", "properties": { "tipo": "motorway", "nombre": "Ruta 5 Sur", "ref": "5", "color": "#e63946" }, "geometry": { "type": "LineString", "coordinates": [ [ -73.02621, -41.25215 ], [ -73.03086, -41.24859 ] ] } },
{ "type": "Feature", "properties": { "tipo": "motorway", "nombre": "Ruta 5 Sur", "ref": "5", "color": "#e63946" }, "geometry": { "type": "LineString", "coordinates": [ [ -73.01717, -41.25917 ], [ -73.01197, -41.26315 ] ] } },
{ "type": "Feature", "properties": { "tipo": "motorway", "nombre": "Ruta 5 Sur", "ref": "5", "color": "#e63946" }, "geometry": { "type": "LineString", "coordinates": [ [ -73.01944, -41.25743 ], [ -73.01717, -41.25917 ] ] } },
{ "type": "Feature", "properties": { "tipo": "motorway", "nombre": "Ruta 5 Sur", "ref": "5", "color": "#e63946" }, "geometry": { "type": "LineString", "coordinates": [ [ -73.05571, -41.2144 ], [ -73.05678, -41.21263 ] ] } },
{ "type": "Feature", "properties": { "tipo": "motorway", "nombre": "Ruta 5 Sur", "ref": "5", "color": "#e63946" }, "geometry": { "type": "LineString", "coordinates": [ [ -73.05428, -41.21679 ], [ -73.05571, -41.2144 ] ] } },
{ "type": "Feature", "properties": { "tipo": "motorway", "nombre": "Ruta 5 Sur", "ref": "5", "color": "#e63946" }, "geometry": { "type": "LineString", "coordinates": [ [ -73.06322, -41.118 ], [ -73.0628, -41.12092 ] ] } },
{ "type": "Feature", "properties": { "tipo": "motorway", "nombre": "Ruta 5 Sur", "ref": "5", "color": "#e63946" }, "geometry": { "type": "LineString", "coordinates": [ [ -73.06264, -41.12087 ], [ -73.06285, -41.119 ] ] } },
{ "type": "Feature", "properties": { "tipo": "motorway", "nombre": "Ruta 5 Sur", "ref": "5", "color": "#e63946" }, "geometry": { "type": "LineString", "coordinates": [ [ -73.06263, -41.12214 ], [ -73.06264, -41.12087 ] ] } },
{ "type": "Feature", "properties": { "tipo": "motorway", "nombre": "Ruta 5 Sur", "ref": "5", "color": "#e63946" }, "geometry": { "type": "LineString", "coordinates": [ [ -73.06285, -41.119 ], [ -73.06379, -41.11557 ] ] } },
{ "type": "Feature", "properties": { "tipo": "motorway", "nombre": "Ruta 5 Sur", "ref": "5", "color": "#e63946" }, "geometry": { "type": "LineString", "coordinates": [ [ -73.06533, -41.14635 ], [ -73.06594, -41.14974 ] ] } },
{ "type": "Feature", "properties": { "tipo": "motorway", "nombre": "Ruta 5 Sur", "ref": "5", "color": "#e63946" }, "geometry": { "type": "LineString", "coordinates": [ [ -73.06494, -41.14409 ], [ -73.06533, -41.14635 ] ] } },
{ "type": "Feature", "properties": { "tipo": "motorway", "nombre": "Ruta 5 Sur", "ref": "5", "color": "#e63946" }, "geometry": { "type": "LineString", "coordinates": [ [ -73.06615, -41.15094 ], [ -73.06741, -41.15782 ] ] } },
{ "type": "Feature", "properties": { "tipo": "motorway", "nombre": "Ruta 5 Sur", "ref": "5", "color": "#e63946" }, "geometry": { "type": "LineString", "coordinates": [ [ -73.06594, -41.14974 ], [ -73.06615, -41.15094 ] ] } },
{ "type": "Feature", "properties": { "tipo": "motorway", "nombre": "Ruta 5 Sur", "ref": "5", "color": "#e63946" }, "geometry": { "type": "LineString", "coordinates": [ [ -73.06794, -41.16182 ], [ -73.067, -41.15659 ] ] } },
{ "type": "Feature", "properties": { "tipo": "motorway", "nombre": "Ruta 5 Sur", "ref": "5", "color": "#e63946" }, "geometry": { "type": "LineString", "coordinates": [ [ -73.07093, -41.18883 ], [ -73.06794, -41.16182 ] ] } },
{ "type": "Feature", "properties": { "tipo": "motorway", "nombre": "Ruta 5 Sur", "ref": "5", "color": "#e63946" }, "geometry": { "type": "LineString", "coordinates": [ [ -73.06832, -41.16309 ], [ -73.07009, -41.17271 ] ] } },
{ "type": "Feature", "properties": { "tipo": "motorway", "nombre": "Ruta 5 Sur", "ref": "5", "color": "#e63946" }, "geometry": { "type": "LineString", "coordinates": [ [ -73.06741, -41.15782 ], [ -73.06832, -41.16309 ] ] } },
{ "type": "Feature", "properties": { "tipo": "motorway", "nombre": "Ruta 5 Sur", "ref": "5", "color": "#e63946" }, "geometry": { "type": "LineString", "coordinates": [ [ -73.07009, -41.17271 ], [ -73.07061, -41.17561 ] ] } },
{ "type": "Feature", "properties": { "tipo": "motorway", "nombre": "Ruta 5 Sur", "ref": "5", "color": "#e63946" }, "geometry": { "type": "LineString", "coordinates": [ [ -73.06278, -41.1221 ], [ -73.06481, -41.14329 ], [ -73.06494, -41.14409 ] ] } },
{ "type": "Feature", "properties": { "tipo": "motorway", "nombre": "Ruta 5 Sur", "ref": "5", "color": "#e63946" }, "geometry": { "type": "LineString", "coordinates": [ [ -73.07028, -41.19068 ], [ -73.06956, -41.19191 ] ] } },
{ "type": "Feature", "properties": { "tipo": "motorway", "nombre": "Ruta 5 Sur", "ref": "5", "color": "#e63946" }, "geometry": { "type": "LineString", "coordinates": [ [ -73.06964, -41.1915 ], [ -73.07093, -41.18883 ] ] } },
{ "type": "Feature", "properties": { "tipo": "motorway", "nombre": "Ruta 5 Sur", "ref": "5", "color": "#e63946" }, "geometry": { "type": "LineString", "coordinates": [ [ -73.06839, -41.19356 ], [ -73.0694, -41.19191 ] ] } },
{ "type": "Feature", "properties": { "tipo": "motorway", "nombre": "Ruta 5 Sur", "ref": "5", "color": "#e63946" }, "geometry": { "type": "LineString", "coordinates": [ [ -73.05678, -41.21263 ], [ -73.06839, -41.19356 ] ] } },
{ "type": "Feature", "properties": { "tipo": "motorway", "nombre": "Ruta 5 Sur", "ref": "5", "color": "#e63946" }, "geometry": { "type": "LineString", "coordinates": [ [ -73.06956, -41.19191 ], [ -73.06945, -41.19211 ] ] } },
{ "type": "Feature", "properties": { "tipo": "motorway", "nombre": "Ruta 5 Sur", "ref": "5", "color": "#e63946" }, "geometry": { "type": "LineString", "coordinates": [ [ -73.0669, -41.19636 ], [ -73.05706, -41.21251 ] ] } },
{ "type": "Feature", "properties": { "tipo": "motorway", "nombre": "Ruta 5 Sur", "ref": "5", "color": "#e63946" }, "geometry": { "type": "LineString", "coordinates": [ [ -73.07109, -41.10245 ], [ -73.07028, -41.1039 ] ] } },
{ "type": "Feature", "properties": { "tipo": "motorway", "nombre": "Ruta 5 Sur", "ref": "5", "color": "#e63946" }, "geometry": { "type": "LineString", "coordinates": [ [ -73.06882, -41.10619 ], [ -73.06946, -41.10503 ] ] } },
{ "type": "Feature", "properties": { "tipo": "motorway", "nombre": "Ruta 5 Sur", "ref": "5", "color": "#e63946" }, "geometry": { "type": "LineString", "coordinates": [ [ -73.06897, -41.10625 ], [ -73.06394, -41.1156 ] ] } },
{ "type": "Feature", "properties": { "tipo": "motorway", "nombre": "Ruta 5 Sur", "ref": "5", "color": "#e63946" }, "geometry": { "type": "LineString", "coordinates": [ [ -73.06514, -41.11274 ], [ -73.06882, -41.10619 ] ] } },
{ "type": "Feature", "properties": { "tipo": "motorway", "nombre": "Ruta 5 Sur", "ref": "5", "color": "#e63946" }, "geometry": { "type": "LineString", "coordinates": [ [ -73.06394, -41.1156 ], [ -73.06341, -41.11723 ] ] } },
{ "type": "Feature", "properties": { "tipo": "motorway", "nombre": "Ruta 5 Sur", "ref": "5", "color": "#e63946" }, "geometry": { "type": "LineString", "coordinates": [ [ -73.06398, -41.11508 ], [ -73.06514, -41.11274 ] ] } },
{ "type": "Feature", "properties": { "tipo": "motorway", "nombre": "Ruta 5 Sur", "ref": "5", "color": "#e63946" }, "geometry": { "type": "LineString", "coordinates": [ [ -73.06379, -41.11557 ], [ -73.06398, -41.11508 ] ] } },
{ "type": "Feature", "properties": { "tipo": "motorway", "nombre": "Ruta 5 Sur", "ref": "5", "color": "#e63946" }, "geometry": { "type": "LineString", "coordinates": [ [ -73.00964, -41.30199 ], [ -73.00967, -41.30236 ] ] } },
{ "type": "Feature", "properties": { "tipo": "motorway", "nombre": "Ruta 5 Sur", "ref": "5", "color": "#e63946" }, "geometry": { "type": "LineString", "coordinates": [ [ -73.00919, -41.29591 ], [ -73.00964, -41.30199 ] ] } },
{ "type": "Feature", "properties": { "tipo": "motorway", "nombre": "Ruta 5 Sur", "ref": "5", "color": "#e63946" }, "geometry": { "type": "LineString", "coordinates": [ [ -72.993, -41.33342 ], [ -72.9938, -41.3327 ] ] } },
{ "type": "Feature", "properties": { "tipo": "motorway", "nombre": "Ruta 5 Sur", "ref": "5", "color": "#e63946" }, "geometry": { "type": "LineString", "coordinates": [ [ -72.9927, -41.33369 ], [ -72.993, -41.33342 ] ] } },
{ "type": "Feature", "properties": { "tipo": "motorway", "nombre": "Ruta 5 Sur", "ref": "5", "color": "#e63946" }, "geometry": { "type": "LineString", "coordinates": [ [ -73.06951, -41.19172 ], [ -73.06964, -41.1915 ] ] } },
{ "type": "Feature", "properties": { "tipo": "motorway", "nombre": "Ruta 5 Sur", "ref": "5", "color": "#e63946" }, "geometry": { "type": "LineString", "coordinates": [ [ -73.0694, -41.19191 ], [ -73.06951, -41.19172 ] ] } },
{ "type": "Feature", "properties": { "tipo": "motorway", "nombre": "Ruta 5 Sur", "ref": "5", "color": "#e63946" }, "geometry": { "type": "LineString", "coordinates": [ [ -73.06931, -41.19234 ], [ -73.0669, -41.19636 ] ] } },
{ "type": "Feature", "properties": { "tipo": "motorway", "nombre": "Ruta 5 Sur", "ref": "5", "color": "#e63946" }, "geometry": { "type": "LineString", "coordinates": [ [ -73.06945, -41.19211 ], [ -73.06931, -41.19234 ] ] } },
{ "type": "Feature", "properties": { "tipo": "motorway", "nombre": "Ruta 5 Sur", "ref": "5", "color": "#e63946" }, "geometry": { "type": "LineString", "coordinates": [ [ -73.06946, -41.10503 ], [ -73.07094, -41.10239 ] ] } },
{ "type": "Feature", "properties": { "tipo": "motorway", "nombre": "Ruta 5 Sur", "ref": "5", "color": "#e63946" }, "geometry": { "type": "LineString", "coordinates": [ [ -73.07028, -41.1039 ], [ -73.06897, -41.10625 ] ] } },
{ "type": "Feature", "properties": { "tipo": "motorway", "nombre": "Ruta 5 Sur", "ref": "5", "color": "#e63946" }, "geometry": { "type": "LineString", "coordinates": [ [ -73.06295, -41.12761 ], [ -73.06263, -41.12214 ] ] } },
{ "type": "Feature", "properties": { "tipo": "motorway", "nombre": "Ruta 5 Sur", "ref": "5", "color": "#e63946" }, "geometry": { "type": "LineString", "coordinates": [ [ -73.06297, -41.12795 ], [ -73.06295, -41.12761 ] ] } },
{ "type": "Feature", "properties": { "tipo": "motorway", "nombre": "Ruta 5 Sur", "ref": "5", "color": "#e63946" }, "geometry": { "type": "LineString", "coordinates": [ [ -73.06278, -41.12178 ], [ -73.06278, -41.1221 ] ] } },
{ "type": "Feature", "properties": { "tipo": "motorway", "nombre": "Ruta 5 Sur", "ref": "5", "color": "#e63946" }, "geometry": { "type": "LineString", "coordinates": [ [ -73.0628, -41.12092 ], [ -73.06278, -41.12178 ] ] } },
{ "type": "Feature", "properties": { "tipo": "trunk", "nombre": "Ruta 215 CH", "ref": "", "color": "#f4a261" }, "geometry": { "type": "LineString", "coordinates": [ [ -72.62811, -40.67176 ], [ -72.62905, -40.67146 ] ] } },
{ "type": "Feature", "properties": { "tipo": "trunk", "nombre": "Ruta 215 CH", "ref": "", "color": "#f4a261" }, "geometry": { "type": "LineString", "coordinates": [ [ -72.62779, -40.67186 ], [ -72.62811, -40.67176 ] ] } },
{ "type": "Feature", "properties": { "tipo": "trunk", "nombre": "Ruta 215 CH", "ref": "", "color": "#f4a261" }, "geometry": { "type": "LineString", "coordinates": [ [ -72.62616, -40.6731 ], [ -72.62779, -40.67186 ] ] } },
{ "type": "Feature", "properties": { "tipo": "motorway", "nombre": "Ruta 5 Sur", "ref": "5", "color": "#e63946" }, "geometry": { "type": "LineString", "coordinates": [ [ -73.00799, -41.28371 ], [ -73.00795, -41.28316 ] ] } },
{ "type": "Feature", "properties": { "tipo": "trunk", "nombre": "Ruta 215 CH", "ref": "215", "color": "#f4a261" }, "geometry": { "type": "LineString", "coordinates": [ [ -72.61048, -40.68294 ], [ -72.60943, -40.68363 ] ] } },
{ "type": "Feature", "properties": { "tipo": "trunk", "nombre": "Ruta 215 CH", "ref": "215", "color": "#f4a261" }, "geometry": { "type": "LineString", "coordinates": [ [ -72.60943, -40.68363 ], [ -72.60466, -40.68636 ] ] } },
{ "type": "Feature", "properties": { "tipo": "trunk", "nombre": "Ruta 215 CH", "ref": "215", "color": "#f4a261" }, "geometry": { "type": "LineString", "coordinates": [ [ -72.62616, -40.6731 ], [ -72.61048, -40.68294 ] ] } },
{ "type": "Feature", "properties": { "tipo": "trunk", "nombre": "Ruta 215 CH", "ref": "215", "color": "#f4a261" }, "geometry": { "type": "LineString", "coordinates": [ [ -72.58987, -40.68551 ], [ -72.58547, -40.68468 ] ] } },
{ "type": "Feature", "properties": { "tipo": "trunk", "nombre": "Ruta 215 CH", "ref": "215", "color": "#f4a261" }, "geometry": { "type": "LineString", "coordinates": [ [ -72.58547, -40.68468 ], [ -72.58022, -40.68233 ] ] } },
{ "type": "Feature", "properties": { "tipo": "trunk", "nombre": "Ruta 215 CH", "ref": "", "color": "#f4a261" }, "geometry": { "type": "LineString", "coordinates": [ [ -72.60309, -40.68662 ], [ -72.60466, -40.68636 ] ] } },
{ "type": "Feature", "properties": { "tipo": "motorway", "nombre": "Ruta 5 Sur", "ref": "5", "color": "#e63946" }, "geometry": { "type": "LineString", "coordinates": [ [ -73.04938, -41.22477 ], [ -73.0515, -41.22131 ] ] } },
{ "type": "Feature", "properties": { "tipo": "motorway", "nombre": "Ruta 5 Sur", "ref": "5", "color": "#e63946" }, "geometry": { "type": "LineString", "coordinates": [ [ -73.04892, -41.2255 ], [ -73.04938, -41.22477 ] ] } },
{ "type": "Feature", "properties": { "tipo": "motorway", "nombre": "Ruta 5 Sur", "ref": "5", "color": "#e63946" }, "geometry": { "type": "LineString", "coordinates": [ [ -73.04674, -41.22909 ], [ -73.0474, -41.22802 ] ] } },
{ "type": "Feature", "properties": { "tipo": "motorway", "nombre": "Ruta 5 Sur", "ref": "5", "color": "#e63946" }, "geometry": { "type": "LineString", "coordinates": [ [ -73.03873, -41.24206 ], [ -73.04674, -41.22909 ] ] } },
{ "type": "Feature", "properties": { "tipo": "trunk", "nombre": "Ruta 215 CH", "ref": "", "color": "#f4a261" }, "geometry": { "type": "LineString", "coordinates": [ [ -72.60213, -40.68706 ], [ -72.60309, -40.68662 ] ] } },
{ "type": "Feature", "properties": { "tipo": "trunk", "nombre": "Ruta 215 CH", "ref": "215", "color": "#f4a261" }, "geometry": { "type": "LineString", "coordinates": [ [ -72.32813, -40.70744 ], [ -72.32753, -40.70736 ] ] } },
{ "type": "Feature", "properties": { "tipo": "trunk", "nombre": "Ruta 215 CH", "ref": "215", "color": "#f4a261" }, "geometry": { "type": "LineString", "coordinates": [ [ -72.32753, -40.70736 ], [ -72.31614, -40.70436 ] ] } },
{ "type": "Feature", "properties": { "tipo": "trunk", "nombre": "Ruta 215 CH", "ref": "215", "color": "#f4a261" }, "geometry": { "type": "LineString", "coordinates": [ [ -72.40462, -40.7158 ], [ -72.4043, -40.71565 ] ] } },
{ "type": "Feature", "properties": { "tipo": "trunk", "nombre": "Ruta 215 CH", "ref": "215", "color": "#f4a261" }, "geometry": { "type": "LineString", "coordinates": [ [ -72.40575, -40.71634 ], [ -72.40462, -40.7158 ] ] } },
{ "type": "Feature", "properties": { "tipo": "trunk", "nombre": "Ruta 215 CH", "ref": "215", "color": "#f4a261" }, "geometry": { "type": "LineString", "coordinates": [ [ -72.43329, -40.72398 ], [ -72.40939, -40.71776 ], [ -72.40607, -40.71649 ] ] } },
{ "type": "Feature", "properties": { "tipo": "trunk", "nombre": "Ruta 215 CH", "ref": "215", "color": "#f4a261" }, "geometry": { "type": "LineString", "coordinates": [ [ -72.43359, -40.72401 ], [ -72.43329, -40.72398 ] ] } }
]
}
