{
"type": "FeatureCollection",
"name": "SDP",
"crs": { "type": "name", "properties": { "name": "urn:ogc:def:crs:OGC:1.3:CRS84" } },
"xy_coordinate_resolution": 1e-05,
"features": [
{ "type": "Feature", "properties": { "tipo": "trunk", "nombre": "Ruta 21 CH", "ref": "21", "color": "#f4a261" }, "geometry": { "type": "LineString", "coordinates": [ [ -68.64899, -22.33542 ], [ -68.64296, -22.31081 ], [ -68.63225, -22.29125 ], [ -68.622, -22.27129 ], [ -68.61042, -22.24785 ] ] } },
{ "type": "Feature", "properties": { "tipo": "trunk", "nombre": "Ruta 21 CH", "ref": "21", "color": "#f4a261" }, "geometry": { "type": "LineString", "coordinates": [ [ -68.61042, -22.24785 ], [ -68.59878, -22.21991 ], [ -68.59501, -22.19716 ], [ -68.59522, -22.17579 ], [ -68.59562, -22.15355 ], [ -68.59457, -22.02001 ], [ -68.56243, -21.96976 ], [ -68.53926, -21.9466 ], [ -68.51763, -21.93425 ], [ -68.50395, -21.91334 ], [ -68.50103, -21.90803 ] ] } },
{ "type": "Feature", "properties": { "tipo": "trunk", "nombre": "Ruta 21 CH", "ref": "21", "color": "#f4a261" }, "geometry": { "type": "LineString", "coordinates": [ [ -68.25029, -21.69592 ], [ -68.25693, -21.67309 ], [ -68.27264, -21.65718 ], [ -68.28335, -21.6342 ], [ -68.3004, -21.61903 ], [ -68.31467, -21.59785 ], [ -68.3134, -21.5717 ], [ -68.32701, -21.54599 ], [ -68.34346, -21.53418 ] ] } },
{ "type": "Feature", "properties": { "tipo": "trunk", "nombre": "Ruta 21 CH", "ref": "21", "color": "#f4a261" }, "geometry": { "type": "LineString", "coordinates": [ [ -68.34346, -21.53418 ], [ -68.36234, -21.5263 ], [ -68.38024, -21.51214 ], [ -68.39646, -21.49852 ], [ -68.39604, -21.47824 ], [ -68.3884, -21.45729 ], [ -68.38383, -21.43739 ], [ -68.36333, -21.42265 ], [ -68.36228, -21.41645 ] ] } },
{ "type": "Feature", "properties": { "tipo": "trunk", "nombre": "Ruta 21 CH", "ref": "21", "color": "#f4a261" }, "geometry": { "type": "LineString", "coordinates": [ [ -68.50099, -21.87249 ], [ -68.50704, -21.85088 ], [ -68.48963, -21.82799 ], [ -68.46874, -21.81724 ], [ -68.44815, -21.81032 ], [ -68.4267, -21.80003 ], [ -68.40147, -21.79739 ], [ -68.3733, -21.78032 ], [ -68.35477, -21.76651 ], [ -68.33093, -21.75544 ], [ -68.30376, -21.74706 ], [ -68.28534, -21.73737 ], [ -68.27188, -21.72161 ], [ -68.25776, -21.70546 ], [ -68.25029, -21.69592 ] ] } },
{ "type": "Feature", "properties": { "tipo": "trunk", "nombre": "Ruta 21 CH", "ref": "21", "color": "#f4a261" }, "geometry": { "type": "LineString", "coordinates": [ [ -68.5009, -21.90782 ], [ -68.50068, -21.90743 ] ] } },
{ "type": "Feature", "properties": { "tipo": "trunk", "nombre": "Ruta 21 CH", "ref": "21", "color": "#f4a261" }, "geometry": { "type": "LineString", "coordinates": [ [ -68.50103, -21.90803 ], [ -68.5009, -21.90782 ] ] } },
{ "type": "Feature", "properties": { "tipo": "trunk", "nombre": "Ruta 21 CH", "ref": "21", "color": "#f4a261" }, "geometry": { "type": "LineString", "coordinates": [ [ -68.50054, -21.90717 ], [ -68.5001, -21.90636 ] ] } },
{ "type": "Feature", "properties": { "tipo": "trunk", "nombre": "Ruta 21 CH", "ref": "21", "color": "#f4a261" }, "geometry": { "type": "LineString", "coordinates": [ [ -68.50068, -21.90743 ], [ -68.50054, -21.90717 ] ] } },
{ "type": "Feature", "properties": { "tipo": "trunk", "nombre": "Ruta 21 CH", "ref": "21", "color": "#f4a261" }, "geometry": { "type": "LineString", "coordinates": [ [ -68.49998, -21.90612 ], [ -68.49929, -21.90485 ] ] } },
{ "type": "Feature", "properties": { "tipo": "trunk", "nombre": "Ruta 21 CH", "ref": "21", "color": "#f4a261" }, "geometry": { "type": "LineString", "coordinates": [ [ -68.5001, -21.90636 ], [ -68.49998, -21.90612 ] ] } },
{ "type": "Feature", "properties": { "tipo": "trunk", "nombre": "Ruta 21 CH", "ref": "21", "color": "#f4a261" }, "geometry": { "type": "LineString", "coordinates": [ [ -68.49929, -21.90485 ], [ -68.49915, -21.90459 ] ] } },
{ "type": "Feature", "properties": { "tipo": "trunk", "nombre": "Ruta 21 CH", "ref": "21", "color": "#f4a261" }, "geometry": { "type": "LineString", "coordinates": [ [ -68.49583, -21.88423 ], [ -68.49592, -21.88396 ] ] } },
{ "type": "Feature", "properties": { "tipo": "trunk", "nombre": "Ruta 21 CH", "ref": "21", "color": "#f4a261" }, "geometry": { "type": "LineString", "coordinates": [ [ -68.49573, -21.88454 ], [ -68.49583, -21.88423 ] ] } },
{ "type": "Feature", "properties": { "tipo": "trunk", "nombre": "Ruta 21 CH", "ref": "21", "color": "#f4a261" }, "geometry": { "type": "LineString", "coordinates": [ [ -68.49601, -21.88367 ], [ -68.49616, -21.88321 ] ] } },
{ "type": "Feature", "properties": { "tipo": "trunk", "nombre": "Ruta 21 CH", "ref": "21", "color": "#f4a261" }, "geometry": { "type": "LineString", "coordinates": [ [ -68.49592, -21.88396 ], [ -68.49601, -21.88367 ] ] } },
{ "type": "Feature", "properties": { "tipo": "trunk", "nombre": "Ruta 21 CH", "ref": "21", "color": "#f4a261" }, "geometry": { "type": "LineString", "coordinates": [ [ -68.49633, -21.88272 ], [ -68.49782, -21.87823 ] ] } },
{ "type": "Feature", "properties": { "tipo": "trunk", "nombre": "Ruta 21 CH", "ref": "21", "color": "#f4a261" }, "geometry": { "type": "LineString", "coordinates": [ [ -68.49616, -21.88321 ], [ -68.49633, -21.88272 ] ] } },
{ "type": "Feature", "properties": { "tipo": "trunk", "nombre": "Ruta 21 CH", "ref": "21", "color": "#f4a261" }, "geometry": { "type": "LineString", "coordinates": [ [ -68.49487, -21.88716 ], [ -68.49573, -21.88454 ] ] } },
{ "type": "Feature", "properties": { "tipo": "trunk", "nombre": "Ruta 21 CH", "ref": "21", "color": "#f4a261" }, "geometry": { "type": "LineString", "coordinates": [ [ -68.49471, -21.88768 ], [ -68.49487, -21.88716 ] ] } },
{ "type": "Feature", "properties": { "tipo": "trunk", "nombre": "Ruta 21 CH", "ref": "21", "color": "#f4a261" }, "geometry": { "type": "LineString", "coordinates": [ [ -68.50067, -21.87294 ], [ -68.50099, -21.87249 ] ] } },
{ "type": "Feature", "properties": { "tipo": "trunk", "nombre": "Ruta 21 CH", "ref": "21", "color": "#f4a261" }, "geometry": { "type": "LineString", "coordinates": [ [ -68.49913, -21.87515 ], [ -68.50067, -21.87294 ] ] } },
{ "type": "Feature", "properties": { "tipo": "trunk", "nombre": "Ruta 21 CH", "ref": "21", "color": "#f4a261" }, "geometry": { "type": "LineString", "coordinates": [ [ -68.49899, -21.87536 ], [ -68.49913, -21.87515 ] ] } },
{ "type": "Feature", "properties": { "tipo": "trunk", "nombre": "Ruta 21 CH", "ref": "21", "color": "#f4a261" }, "geometry": { "type": "LineString", "coordinates": [ [ -68.49789, -21.87805 ], [ -68.49899, -21.87536 ] ] } },
{ "type": "Feature", "properties": { "tipo": "trunk", "nombre": "Ruta 21 CH", "ref": "21", "color": "#f4a261" }, "geometry": { "type": "LineString", "coordinates": [ [ -68.49782, -21.87823 ], [ -68.49789, -21.87805 ] ] } },
{ "type": "Feature", "properties": { "tipo": "trunk", "nombre": "Ruta 21 CH", "ref": "21", "color": "#f4a261" }, "geometry": { "type": "LineString", "coordinates": [ [ -68.49915, -21.90459 ], [ -68.49471, -21.88768 ] ] } }
]
}
