{
"type": "FeatureCollection",
"name": "TAA",
"crs": { "type": "name", "properties": { "name": "urn:ogc:def:crs:OGC:1.3:CRS84" } },
"xy_coordinate_resolution": 1e-05,
"features": [
{ "type": "Feature", "properties": { "tipo": "trunk", "nombre": "Ruta 11 CH", "ref": "11", "color": "#f4a261" }, "geometry": { "type": "LineString", "coordinates": [ [ -69.51667, -18.18022 ], [ -69.49483, -18.1702 ], [ -69.47756, -18.15894 ], [ -69.45479, -18.16563 ], [ -69.42729, -18.17184 ], [ -69.40566, -18.17554 ], [ -69.38551, -18.18048 ], [ -69.36655, -18.19304 ], [ -69.33938, -18.2065 ], [ -69.32331, -18.21562 ] ] } },
{ "type": "Feature", "properties": { "tipo": "trunk", "nombre": "Ruta 11 CH", "ref": "11", "color": "#f4a261" }, "geometry": { "type": "LineString", "coordinates": [ [ -69.55038, -18.20635 ], [ -69.52766, -18.19293 ], [ -69.51667, -18.18022 ] ] } },
{ "type": "Feature", "properties": { "tipo": "trunk", "nombre": "Ruta 11 CH", "ref": "11", "color": "#f4a261" }, "geometry": { "type": "LineString", "coordinates": [ [ -69.55414, -18.20445 ], [ -69.55038, -18.20635 ] ] } },
{ "type": "Feature", "properties": { "tipo": "trunk", "nombre": "Ruta 11 CH", "ref": "11", "color": "#f4a261" }, "geometry": { "type": "LineString", "coordinates": [ [ -69.54466, -18.2342 ], [ -69.56031, -18.21716 ], [ -69.55889, -18.20769 ] ] } },
{ "type": "Feature", "properties": { "tipo": "trunk", "nombre": "Ruta 11 CH", "ref": "11", "color": "#f4a261" }, "geometry": { "type": "LineString", "coordinates": [ [ -69.13736, -18.2822 ], [ -69.11387, -18.28011 ], [ -69.09073, -18.28138 ], [ -69.07738, -18.28455 ] ] } },
{ "type": "Feature", "properties": { "tipo": "trunk", "nombre": "Ruta 11 CH", "ref": "11", "color": "#f4a261" }, "geometry": { "type": "LineString", "coordinates": [ [ -69.26553, -18.22759 ], [ -69.2377, -18.21926 ], [ -69.21341, -18.22049 ], [ -69.19267, -18.22964 ], [ -69.17837, -18.2467 ], [ -69.16746, -18.2637 ], [ -69.14633, -18.27096 ], [ -69.13736, -18.2822 ] ] } },
{ "type": "Feature", "properties": { "tipo": "trunk", "nombre": "Ruta 11 CH", "ref": "11", "color": "#f4a261" }, "geometry": { "type": "LineString", "coordinates": [ [ -69.32331, -18.21562 ], [ -69.30222, -18.21677 ], [ -69.28089, -18.22702 ], [ -69.26553, -18.22759 ] ] } },
{ "type": "Feature", "properties": { "tipo": "trunk", "nombre": "Ruta 11 CH", "ref": "11", "color": "#f4a261" }, "geometry": { "type": "LineString", "coordinates": [ [ -69.0764, -18.28388 ], [ -69.07667, -18.28387 ] ] } },
{ "type": "Feature", "properties": { "tipo": "trunk", "nombre": "Ruta 11 CH", "ref": "11", "color": "#f4a261" }, "geometry": { "type": "LineString", "coordinates": [ [ -69.07554, -18.28392 ], [ -69.0764, -18.28388 ] ] } },
{ "type": "Feature", "properties": { "tipo": "trunk", "nombre": "Ruta 11 CH", "ref": "11", "color": "#f4a261" }, "geometry": { "type": "LineString", "coordinates": [ [ -69.07643, -18.28432 ], [ -69.07701, -18.28434 ] ] } },
{ "type": "Feature", "properties": { "tipo": "trunk", "nombre": "Ruta 11 CH", "ref": "11", "color": "#f4a261" }, "geometry": { "type": "LineString", "coordinates": [ [ -69.07556, -18.28436 ], [ -69.07643, -18.28432 ] ] } },
{ "type": "Feature", "properties": { "tipo": "trunk", "nombre": "Ruta 11 CH", "ref": "11", "color": "#f4a261" }, "geometry": { "type": "LineString", "coordinates": [ [ -69.07701, -18.28434 ], [ -69.07738, -18.28455 ] ] } },
{ "type": "Feature", "properties": { "tipo": "trunk", "nombre": "Ruta 11 CH", "ref": "11", "color": "#f4a261" }, "geometry": { "type": "LineString", "coordinates": [ [ -69.07444, -18.28466 ], [ -69.07476, -18.28446 ] ] } },
{ "type": "Feature", "properties": { "tipo": "trunk", "nombre": "Ruta 11 CH", "ref": "11", "color": "#f4a261" }, "geometry": { "type": "LineString", "coordinates": [ [ -69.07738, -18.28455 ], [ -69.07654, -18.28461 ] ] } },
{ "type": "Feature", "properties": { "tipo": "trunk", "nombre": "Ruta 11 CH", "ref": "11", "color": "#f4a261" }, "geometry": { "type": "LineString", "coordinates": [ [ -69.07444, -18.28466 ], [ -69.07416, -18.28467 ] ] } },
{ "type": "Feature", "properties": { "tipo": "trunk", "nombre": "Ruta 11 CH", "ref": "11", "color": "#f4a261" }, "geometry": { "type": "LineString", "coordinates": [ [ -69.07515, -18.28394 ], [ -69.07554, -18.28392 ] ] } },
{ "type": "Feature", "properties": { "tipo": "trunk", "nombre": "Ruta 11 CH", "ref": "11", "color": "#f4a261" }, "geometry": { "type": "LineString", "coordinates": [ [ -69.07476, -18.28446 ], [ -69.07556, -18.28436 ] ] } },
{ "type": "Feature", "properties": { "tipo": "trunk", "nombre": "Ruta 11 CH", "ref": "11", "color": "#f4a261" }, "geometry": { "type": "LineString", "coordinates": [ [ -69.07515, -18.28394 ], [ -69.07667, -18.28387 ] ] } },
{ "type": "Feature", "properties": { "tipo": "trunk", "nombre": "Ruta 11 CH", "ref": "11", "color": "#f4a261" }, "geometry": { "type": "LineString", "coordinates": [ [ -69.59698, -18.31139 ], [ -69.59667, -18.30881 ] ] } },
{ "type": "Feature", "properties": { "tipo": "trunk", "nombre": "Ruta 11 CH", "ref": "11", "color": "#f4a261" }, "geometry": { "type": "LineString", "coordinates": [ [ -69.58832, -18.29037 ], [ -69.56994, -18.2693 ], [ -69.55917, -18.26274 ] ] } },
{ "type": "Feature", "properties": { "tipo": "trunk", "nombre": "Ruta 11 CH", "ref": "11", "color": "#f4a261" }, "geometry": { "type": "LineString", "coordinates": [ [ -69.58488, -18.33623 ], [ -69.58923, -18.32254 ] ] } },
{ "type": "Feature", "properties": { "tipo": "trunk", "nombre": "Ruta 11 CH", "ref": "11", "color": "#f4a261" }, "geometry": { "type": "LineString", "coordinates": [ [ -69.55889, -18.20769 ], [ -69.55838, -18.20733 ] ] } },
{ "type": "Feature", "properties": { "tipo": "trunk", "nombre": "Ruta 11 CH", "ref": "11", "color": "#f4a261" }, "geometry": { "type": "LineString", "coordinates": [ [ -69.55838, -18.20733 ], [ -69.55414, -18.20445 ] ] } },
{ "type": "Feature", "properties": { "tipo": "trunk", "nombre": "Ruta 11 CH", "ref": "11", "color": "#f4a261" }, "geometry": { "type": "LineString", "coordinates": [ [ -69.54767, -18.24274 ], [ -69.54798, -18.24248 ] ] } },
{ "type": "Feature", "properties": { "tipo": "trunk", "nombre": "Ruta 11 CH", "ref": "11", "color": "#f4a261" }, "geometry": { "type": "LineString", "coordinates": [ [ -69.54562, -18.24471 ], [ -69.54767, -18.24274 ] ] } },
{ "type": "Feature", "properties": { "tipo": "trunk", "nombre": "Ruta 11 CH", "ref": "11", "color": "#f4a261" }, "geometry": { "type": "LineString", "coordinates": [ [ -69.54798, -18.24248 ], [ -69.54466, -18.2342 ] ] } },
{ "type": "Feature", "properties": { "tipo": "trunk", "nombre": "Ruta 11 CH", "ref": "11", "color": "#f4a261" }, "geometry": { "type": "LineString", "coordinates": [ [ -69.55785, -18.24954 ], [ -69.55722, -18.24768 ] ] } },
{ "type": "Feature", "properties": { "tipo": "trunk", "nombre": "Ruta 11 CH", "ref": "11", "color": "#f4a261" }, "geometry": { "type": "LineString", "coordinates": [ [ -69.56215, -18.25383 ], [ -69.55785, -18.24954 ] ] } },
{ "type": "Feature", "properties": { "tipo": "trunk", "nombre": "Ruta 11 CH", "ref": "11", "color": "#f4a261" }, "geometry": { "type": "LineString", "coordinates": [ [ -69.56178, -18.25624 ], [ -69.56215, -18.25383 ] ] } },
{ "type": "Feature", "properties": { "tipo": "trunk", "nombre": "Ruta 11 CH", "ref": "11", "color": "#f4a261" }, "geometry": { "type": "LineString", "coordinates": [ [ -69.56143, -18.25769 ], [ -69.56178, -18.25624 ] ] } },
{ "type": "Feature", "properties": { "tipo": "trunk", "nombre": "Ruta 11 CH", "ref": "11", "color": "#f4a261" }, "geometry": { "type": "LineString", "coordinates": [ [ -69.56077, -18.2602 ], [ -69.56143, -18.25769 ] ] } },
{ "type": "Feature", "properties": { "tipo": "trunk", "nombre": "Ruta 11 CH", "ref": "11", "color": "#f4a261" }, "geometry": { "type": "LineString", "coordinates": [ [ -69.56026, -18.26123 ], [ -69.56077, -18.2602 ] ] } },
{ "type": "Feature", "properties": { "tipo": "trunk", "nombre": "Ruta 11 CH", "ref": "11", "color": "#f4a261" }, "geometry": { "type": "LineString", "coordinates": [ [ -69.55917, -18.26274 ], [ -69.56026, -18.26123 ] ] } },
{ "type": "Feature", "properties": { "tipo": "trunk", "nombre": "Ruta 11 CH", "ref": "11", "color": "#f4a261" }, "geometry": { "type": "LineString", "coordinates": [ [ -69.55722, -18.24768 ], [ -69.54562, -18.24471 ] ] } },
{ "type": "Feature", "properties": { "tipo": "trunk", "nombre": "Ruta 11 CH", "ref": "11", "color": "#f4a261" }, "geometry": { "type": "LineString", "coordinates": [ [ -69.58903, -18.29318 ], [ -69.58832, -18.29037 ] ] } },
{ "type": "Feature", "properties": { "tipo": "trunk", "nombre": "Ruta 11 CH", "ref": "11", "color": "#f4a261" }, "geometry": { "type": "LineString", "coordinates": [ [ -69.5899, -18.29414 ], [ -69.58903, -18.29318 ] ] } },
{ "type": "Feature", "properties": { "tipo": "trunk", "nombre": "Ruta 11 CH", "ref": "11", "color": "#f4a261" }, "geometry": { "type": "LineString", "coordinates": [ [ -69.59184, -18.29508 ], [ -69.5899, -18.29414 ] ] } },
{ "type": "Feature", "properties": { "tipo": "trunk", "nombre": "Ruta 11 CH", "ref": "11", "color": "#f4a261" }, "geometry": { "type": "LineString", "coordinates": [ [ -69.59487, -18.29666 ], [ -69.59184, -18.29508 ] ] } },
{ "type": "Feature", "properties": { "tipo": "trunk", "nombre": "Ruta 11 CH", "ref": "11", "color": "#f4a261" }, "geometry": { "type": "LineString", "coordinates": [ [ -69.59433, -18.30473 ], [ -69.59487, -18.29666 ] ] } },
{ "type": "Feature", "properties": { "tipo": "trunk", "nombre": "Ruta 11 CH", "ref": "11", "color": "#f4a261" }, "geometry": { "type": "LineString", "coordinates": [ [ -69.61822, -18.35271 ], [ -69.61075, -18.34925 ] ] } },
{ "type": "Feature", "properties": { "tipo": "trunk", "nombre": "Ruta 11 CH", "ref": "11", "color": "#f4a261" }, "geometry": { "type": "LineString", "coordinates": [ [ -69.58923, -18.32254 ], [ -69.59333, -18.32254 ] ] } },
{ "type": "Feature", "properties": { "tipo": "trunk", "nombre": "Ruta 11 CH", "ref": "11", "color": "#f4a261" }, "geometry": { "type": "LineString", "coordinates": [ [ -69.59333, -18.32254 ], [ -69.59662, -18.31738 ] ] } },
{ "type": "Feature", "properties": { "tipo": "trunk", "nombre": "Ruta 11 CH", "ref": "11", "color": "#f4a261" }, "geometry": { "type": "LineString", "coordinates": [ [ -69.59662, -18.31738 ], [ -69.59698, -18.31139 ] ] } },
{ "type": "Feature", "properties": { "tipo": "trunk", "nombre": "Ruta 11 CH", "ref": "11", "color": "#f4a261" }, "geometry": { "type": "LineString", "coordinates": [ [ -69.59667, -18.30881 ], [ -69.59477, -18.30617 ] ] } },
{ "type": "Feature", "properties": { "tipo": "trunk", "nombre": "Ruta 11 CH", "ref": "11", "color": "#f4a261" }, "geometry": { "type": "LineString", "coordinates": [ [ -69.59477, -18.30617 ], [ -69.59433, -18.30473 ] ] } },
{ "type": "Feature", "properties": { "tipo": "trunk", "nombre": "Ruta 11 CH", "ref": "11", "color": "#f4a261" }, "geometry": { "type": "LineString", "coordinates": [ [ -69.69629, -18.42083 ], [ -69.68869, -18.41958 ] ] } },
{ "type": "Feature", "properties": { "tipo": "trunk", "nombre": "Ruta 11 CH", "ref": "11", "color": "#f4a261" }, "geometry": { "type": "LineString", "coordinates": [ [ -69.68617, -18.41941 ], [ -69.68145, -18.41804 ] ] } },
{ "type": "Feature", "properties": { "tipo": "trunk", "nombre": "Ruta 11 CH", "ref": "11", "color": "#f4a261" }, "geometry": { "type": "LineString", "coordinates": [ [ -69.68145, -18.41804 ], [ -69.66167, -18.411 ] ] } },
{ "type": "Feature", "properties": { "tipo": "trunk", "nombre": "Ruta 11 CH", "ref": "11", "color": "#f4a261" }, "geometry": { "type": "LineString", "coordinates": [ [ -69.66167, -18.411 ], [ -69.65857, -18.40971 ] ] } },
{ "type": "Feature", "properties": { "tipo": "trunk", "nombre": "Ruta 11 CH", "ref": "11", "color": "#f4a261" }, "geometry": { "type": "LineString", "coordinates": [ [ -69.65857, -18.40971 ], [ -69.6494, -18.40176 ] ] } },
{ "type": "Feature", "properties": { "tipo": "trunk", "nombre": "Ruta 11 CH", "ref": "11", "color": "#f4a261" }, "geometry": { "type": "LineString", "coordinates": [ [ -69.59803, -18.34293 ], [ -69.59264, -18.34035 ] ] } },
{ "type": "Feature", "properties": { "tipo": "trunk", "nombre": "Ruta 11 CH", "ref": "11", "color": "#f4a261" }, "geometry": { "type": "LineString", "coordinates": [ [ -69.61075, -18.34925 ], [ -69.60198, -18.34481 ] ] } },
{ "type": "Feature", "properties": { "tipo": "trunk", "nombre": "Ruta 11 CH", "ref": "11", "color": "#f4a261" }, "geometry": { "type": "LineString", "coordinates": [ [ -69.59211, -18.34008 ], [ -69.58795, -18.33785 ] ] } },
{ "type": "Feature", "properties": { "tipo": "trunk", "nombre": "Ruta 11 CH", "ref": "11", "color": "#f4a261" }, "geometry": { "type": "LineString", "coordinates": [ [ -69.62198, -18.3554 ], [ -69.61822, -18.35271 ] ] } },
{ "type": "Feature", "properties": { "tipo": "trunk", "nombre": "Ruta 11 CH", "ref": "11", "color": "#f4a261" }, "geometry": { "type": "LineString", "coordinates": [ [ -69.63836, -18.37346 ], [ -69.62535, -18.35746 ], [ -69.62198, -18.3554 ] ] } },
{ "type": "Feature", "properties": { "tipo": "trunk", "nombre": "Ruta 11 CH", "ref": "11", "color": "#f4a261" }, "geometry": { "type": "LineString", "coordinates": [ [ -69.63928, -18.37788 ], [ -69.63836, -18.37346 ] ] } },
{ "type": "Feature", "properties": { "tipo": "trunk", "nombre": "Ruta 11 CH", "ref": "11", "color": "#f4a261" }, "geometry": { "type": "LineString", "coordinates": [ [ -69.6402, -18.38879 ], [ -69.63928, -18.37788 ] ] } },
{ "type": "Feature", "properties": { "tipo": "trunk", "nombre": "Ruta 11 CH", "ref": "11", "color": "#f4a261" }, "geometry": { "type": "LineString", "coordinates": [ [ -69.6494, -18.40176 ], [ -69.6402, -18.38879 ] ] } },
{ "type": "Feature", "properties": { "tipo": "trunk", "nombre": "Ruta 11 CH", "ref": "11", "color": "#f4a261" }, "geometry": { "type": "LineString", "coordinates": [ [ -69.76085, -18.44373 ], [ -69.73942, -18.43826 ], [ -69.73444, -18.43665 ] ] } },
{ "type": "Feature", "properties": { "tipo": "trunk", "nombre": "Ruta 11 CH", "ref": "11", "color": "#f4a261" }, "geometry": { "type": "LineString", "coordinates": [ [ -69.72676, -18.43059 ], [ -69.70725, -18.42372 ], [ -69.70074, -18.42153 ] ] } },
{ "type": "Feature", "properties": { "tipo": "trunk", "nombre": "Ruta 11 CH", "ref": "11", "color": "#f4a261" }, "geometry": { "type": "LineString", "coordinates": [ [ -69.70074, -18.42153 ], [ -69.69629, -18.42083 ] ] } },
{ "type": "Feature", "properties": { "tipo": "trunk", "nombre": "Ruta 11 CH", "ref": "11", "color": "#f4a261" }, "geometry": { "type": "LineString", "coordinates": [ [ -69.68869, -18.41958 ], [ -69.68617, -18.41941 ] ] } },
{ "type": "Feature", "properties": { "tipo": "trunk", "nombre": "Ruta 11 CH", "ref": "11", "color": "#f4a261" }, "geometry": { "type": "LineString", "coordinates": [ [ -69.77922, -18.45849 ], [ -69.77703, -18.45774 ] ] } },
{ "type": "Feature", "properties": { "tipo": "trunk", "nombre": "Ruta 11 CH", "ref": "11", "color": "#f4a261" }, "geometry": { "type": "LineString", "coordinates": [ [ -69.78184, -18.45866 ], [ -69.77922, -18.45849 ] ] } },
{ "type": "Feature", "properties": { "tipo": "trunk", "nombre": "Ruta 11 CH", "ref": "11", "color": "#f4a261" }, "geometry": { "type": "LineString", "coordinates": [ [ -69.77282, -18.45711 ], [ -69.7726, -18.45704 ] ] } },
{ "type": "Feature", "properties": { "tipo": "trunk", "nombre": "Ruta 11 CH", "ref": "11", "color": "#f4a261" }, "geometry": { "type": "LineString", "coordinates": [ [ -69.7726, -18.45704 ], [ -69.76842, -18.45606 ] ] } },
{ "type": "Feature", "properties": { "tipo": "trunk", "nombre": "Ruta 11 CH", "ref": "11", "color": "#f4a261" }, "geometry": { "type": "LineString", "coordinates": [ [ -69.78858, -18.45994 ], [ -69.78457, -18.45835 ] ] } },
{ "type": "Feature", "properties": { "tipo": "trunk", "nombre": "Ruta 11 CH", "ref": "11", "color": "#f4a261" }, "geometry": { "type": "LineString", "coordinates": [ [ -69.78407, -18.45837 ], [ -69.78361, -18.45842 ] ] } },
{ "type": "Feature", "properties": { "tipo": "trunk", "nombre": "Ruta 11 CH", "ref": "11", "color": "#f4a261" }, "geometry": { "type": "LineString", "coordinates": [ [ -69.77703, -18.45774 ], [ -69.77282, -18.45711 ] ] } },
{ "type": "Feature", "properties": { "tipo": "trunk", "nombre": "Ruta 11 CH", "ref": "11", "color": "#f4a261" }, "geometry": { "type": "LineString", "coordinates": [ [ -69.76666, -18.45564 ], [ -69.76314, -18.45244 ] ] } },
{ "type": "Feature", "properties": { "tipo": "trunk", "nombre": "Ruta 11 CH", "ref": "11", "color": "#f4a261" }, "geometry": { "type": "LineString", "coordinates": [ [ -69.76314, -18.45244 ], [ -69.76222, -18.45047 ] ] } },
{ "type": "Feature", "properties": { "tipo": "trunk", "nombre": "Ruta 11 CH", "ref": "11", "color": "#f4a261" }, "geometry": { "type": "LineString", "coordinates": [ [ -69.76161, -18.44497 ], [ -69.76085, -18.44373 ] ] } },
{ "type": "Feature", "properties": { "tipo": "trunk", "nombre": "Ruta 11 CH", "ref": "11", "color": "#f4a261" }, "geometry": { "type": "LineString", "coordinates": [ [ -69.76222, -18.45047 ], [ -69.76222, -18.45003 ] ] } },
{ "type": "Feature", "properties": { "tipo": "trunk", "nombre": "Ruta 11 CH", "ref": "11", "color": "#f4a261" }, "geometry": { "type": "LineString", "coordinates": [ [ -69.76222, -18.45003 ], [ -69.76161, -18.44497 ] ] } },
{ "type": "Feature", "properties": { "tipo": "trunk", "nombre": "Ruta 11 CH", "ref": "11", "color": "#f4a261" }, "geometry": { "type": "LineString", "coordinates": [ [ -69.07654, -18.28461 ], [ -69.0751, -18.28464 ] ] } },
{ "type": "Feature", "properties": { "tipo": "trunk", "nombre": "Ruta 11 CH", "ref": "11", "color": "#f4a261" }, "geometry": { "type": "LineString", "coordinates": [ [ -69.0751, -18.28464 ], [ -69.07444, -18.28466 ] ] } },
{ "type": "Feature", "properties": { "tipo": "trunk", "nombre": "Ruta 11 CH", "ref": "11", "color": "#f4a261" }, "geometry": { "type": "LineString", "coordinates": [ [ -69.07667, -18.28387 ], [ -69.07701, -18.28434 ] ] } },
{ "type": "Feature", "properties": { "tipo": "trunk", "nombre": "Ruta 11 CH", "ref": "11", "color": "#f4a261" }, "geometry": { "type": "LineString", "coordinates": [ [ -69.07476, -18.28446 ], [ -69.07515, -18.28394 ] ] } },
{ "type": "Feature", "properties": { "tipo": "trunk", "nombre": "RN4: Frontera Chile-Tambo Quemado", "ref": "F4", "color": "#f4a261" }, "geometry": { "type": "LineString", "coordinates": [ [ -69.07157, -18.2853 ], [ -69.06916, -18.2858 ] ] } },
{ "type": "Feature", "properties": { "tipo": "trunk", "nombre": "RN4: Frontera Chile-Tambo Quemado", "ref": "F4", "color": "#f4a261" }, "geometry": { "type": "LineString", "coordinates": [ [ -69.06954, -18.28431 ], [ -69.07094, -18.28365 ] ] } },
{ "type": "Feature", "properties": { "tipo": "trunk", "nombre": "RN4: Frontera Chile-Tambo Quemado", "ref": "F4", "color": "#f4a261" }, "geometry": { "type": "LineString", "coordinates": [ [ -69.06911, -18.28472 ], [ -69.07107, -18.28425 ] ] } },
{ "type": "Feature", "properties": { "tipo": "trunk", "nombre": "RN4: Frontera Chile-Tambo Quemado", "ref": "F4", "color": "#f4a261" }, "geometry": { "type": "LineString", "coordinates": [ [ -69.07168, -18.28586 ], [ -69.07007, -18.28602 ] ] } },
{ "type": "Feature", "properties": { "tipo": "trunk", "nombre": "Ruta 11 CH", "ref": "11", "color": "#f4a261" }, "geometry": { "type": "LineString", "coordinates": [ [ -69.59264, -18.34035 ], [ -69.59211, -18.34008 ] ] } },
{ "type": "Feature", "properties": { "tipo": "trunk", "nombre": "Ruta 11 CH", "ref": "11", "color": "#f4a261" }, "geometry": { "type": "LineString", "coordinates": [ [ -69.58539, -18.3365 ], [ -69.58488, -18.33623 ] ] } },
{ "type": "Feature", "properties": { "tipo": "trunk", "nombre": "Ruta 11 CH", "ref": "11", "color": "#f4a261" }, "geometry": { "type": "LineString", "coordinates": [ [ -69.58795, -18.33785 ], [ -69.58539, -18.3365 ] ] } },
{ "type": "Feature", "properties": { "tipo": "trunk", "nombre": "RN4: Frontera Chile-Tambo Quemado", "ref": "F4", "color": "#f4a261" }, "geometry": { "type": "LineString", "coordinates": [ [ -69.07318, -18.28467 ], [ -69.07285, -18.28499 ] ] } },
{ "type": "Feature", "properties": { "tipo": "trunk", "nombre": "RN4: Frontera Chile-Tambo Quemado", "ref": "F4", "color": "#f4a261" }, "geometry": { "type": "LineString", "coordinates": [ [ -69.07164, -18.2857 ], [ -69.07007, -18.28602 ] ] } },
{ "type": "Feature", "properties": { "tipo": "trunk", "nombre": "RN4: Frontera Chile-Tambo Quemado", "ref": "F4", "color": "#f4a261" }, "geometry": { "type": "LineString", "coordinates": [ [ -69.07318, -18.28467 ], [ -69.06807, -18.28565 ] ] } },
{ "type": "Feature", "properties": { "tipo": "trunk", "nombre": "Ruta 11 CH", "ref": "11", "color": "#f4a261" }, "geometry": { "type": "LineString", "coordinates": [ [ -69.73184, -18.43375 ], [ -69.72676, -18.43059 ] ] } },
{ "type": "Feature", "properties": { "tipo": "trunk", "nombre": "Ruta 11 CH", "ref": "11", "color": "#f4a261" }, "geometry": { "type": "LineString", "coordinates": [ [ -69.76842, -18.45606 ], [ -69.76666, -18.45564 ] ] } },
{ "type": "Feature", "properties": { "tipo": "trunk", "nombre": "Ruta 11 CH", "ref": "11", "color": "#f4a261" }, "geometry": { "type": "LineString", "coordinates": [ [ -69.78361, -18.45842 ], [ -69.78184, -18.45866 ] ] } },
{ "type": "Feature", "properties": { "tipo": "trunk", "nombre": "Ruta 11 CH", "ref": "11", "color": "#f4a261" }, "geometry": { "type": "LineString", "coordinates": [ [ -69.78457, -18.45835 ], [ -69.78407, -18.45837 ] ] } },
{ "type": "Feature", "properties": { "tipo": "trunk", "nombre": "Ruta 11 CH", "ref": "11", "color": "#f4a261" }, "geometry": { "type": "LineString", "coordinates": [ [ -69.73444, -18.43665 ], [ -69.73184, -18.43375 ] ] } },
{ "type": "Feature", "properties": { "tipo": "trunk", "nombre": "Ruta 11 CH", "ref": "11", "color": "#f4a261" }, "geometry": { "type": "LineString", "coordinates": [ [ -69.60198, -18.34481 ], [ -69.59803, -18.34293 ] ] } },
{ "type": "Feature", "properties": { "tipo": "trunk", "nombre": "RN4: Frontera Chile-Tambo Quemado", "ref": "F4", "color": "#f4a261" }, "geometry": { "type": "LineString", "coordinates": [ [ -69.06954, -18.28431 ], [ -69.071, -18.28398 ] ] } },
{ "type": "Feature", "properties": { "tipo": "trunk", "nombre": "RN4: Frontera Chile-Tambo Quemado", "ref": "F4", "color": "#f4a261" }, "geometry": { "type": "LineString", "coordinates": [ [ -69.07285, -18.28437 ], [ -69.07279, -18.28469 ] ] } },
{ "type": "Feature", "properties": { "tipo": "trunk", "nombre": "RN4: Frontera Chile-Tambo Quemado", "ref": "F4", "color": "#f4a261" }, "geometry": { "type": "LineString", "coordinates": [ [ -69.07285, -18.28499 ], [ -69.07268, -18.28544 ] ] } },
{ "type": "Feature", "properties": { "tipo": "trunk", "nombre": "RN4: Frontera Chile-Tambo Quemado", "ref": "F4", "color": "#f4a261" }, "geometry": { "type": "LineString", "coordinates": [ [ -69.07007, -18.28602 ], [ -69.06807, -18.28565 ] ] } },
{ "type": "Feature", "properties": { "tipo": "trunk", "nombre": "RN4: Frontera Chile-Tambo Quemado", "ref": "F4", "color": "#f4a261" }, "geometry": { "type": "LineString", "coordinates": [ [ -69.07416, -18.28467 ], [ -69.07386, -18.28466 ] ] } },
{ "type": "Feature", "properties": { "tipo": "trunk", "nombre": "RN4: Frontera Chile-Tambo Quemado", "ref": "F4", "color": "#f4a261" }, "geometry": { "type": "LineString", "coordinates": [ [ -69.07386, -18.28466 ], [ -69.07318, -18.28467 ] ] } },
{ "type": "Feature", "properties": { "tipo": "trunk", "nombre": "RN4: Frontera Chile-Tambo Quemado", "ref": "F4", "color": "#f4a261" }, "geometry": { "type": "LineString", "coordinates": [ [ -69.06807, -18.28565 ], [ -69.06911, -18.28472 ] ] } },
{ "type": "Feature", "properties": { "tipo": "trunk", "nombre": "RN4: Frontera Chile-Tambo Quemado", "ref": "F4", "color": "#f4a261" }, "geometry": { "type": "LineString", "coordinates": [ [ -69.07251, -18.28405 ], [ -69.07318, -18.28467 ] ] } },
{ "type": "Feature", "properties": { "tipo": "trunk", "nombre": "RN4: Frontera Chile-Tambo Quemado", "ref": "F4", "color": "#f4a261" }, "geometry": { "type": "LineString", "coordinates": [ [ -69.06911, -18.28472 ], [ -69.06954, -18.28431 ] ] } },
{ "type": "Feature", "properties": { "tipo": "trunk", "nombre": "RN4: Frontera Chile-Tambo Quemado", "ref": "F4", "color": "#f4a261" }, "geometry": { "type": "LineString", "coordinates": [ [ -69.07225, -18.2838 ], [ -69.07251, -18.28405 ] ] } },
{ "type": "Feature", "properties": { "tipo": "trunk", "nombre": "RN4: Frontera Chile-Tambo Quemado", "ref": "F4", "color": "#f4a261" }, "geometry": { "type": "LineString", "coordinates": [ [ -69.07178, -18.28352 ], [ -69.07225, -18.2838 ] ] } },
{ "type": "Feature", "properties": { "tipo": "trunk", "nombre": "RN4: Frontera Chile-Tambo Quemado", "ref": "F4", "color": "#f4a261" }, "geometry": { "type": "LineString", "coordinates": [ [ -69.07107, -18.28425 ], [ -69.07251, -18.28405 ] ] } },
{ "type": "Feature", "properties": { "tipo": "trunk", "nombre": "RN4: Frontera Chile-Tambo Quemado", "ref": "F4", "color": "#f4a261" }, "geometry": { "type": "LineString", "coordinates": [ [ -69.071, -18.28398 ], [ -69.07225, -18.2838 ] ] } },
{ "type": "Feature", "properties": { "tipo": "trunk", "nombre": "RN4: Frontera Chile-Tambo Quemado", "ref": "F4", "color": "#f4a261" }, "geometry": { "type": "LineString", "coordinates": [ [ -69.07094, -18.28365 ], [ -69.07178, -18.28352 ] ] } },
{ "type": "Feature", "properties": { "tipo": "trunk", "nombre": "RN4: Frontera Chile-Tambo Quemado", "ref": "F4", "color": "#f4a261" }, "geometry": { "type": "LineString", "coordinates": [ [ -69.07285, -18.28499 ], [ -69.07157, -18.2853 ] ] } },
{ "type": "Feature", "properties": { "tipo": "trunk", "nombre": "RN4: Frontera Chile-Tambo Quemado", "ref": "F4", "color": "#f4a261" }, "geometry": { "type": "LineString", "coordinates": [ [ -69.07268, -18.28544 ], [ -69.07164, -18.2857 ] ] } },
{ "type": "Feature", "properties": { "tipo": "trunk", "nombre": "RN4: Frontera Chile-Tambo Quemado", "ref": "F4", "color": "#f4a261" }, "geometry": { "type": "LineString", "coordinates": [ [ -69.07258, -18.28562 ], [ -69.07168, -18.28586 ] ] } },
{ "type": "Feature", "properties": { "tipo": "trunk", "nombre": "RN4: Frontera Chile-Tambo Quemado", "ref": "F4", "color": "#f4a261" }, "geometry": { "type": "LineString", "coordinates": [ [ -69.07268, -18.28544 ], [ -69.07258, -18.28562 ] ] } }
]
}
