{
"type": "FeatureCollection",
"name": "ACA",
"crs": { "type": "name", "properties": { "name": "urn:ogc:def:crs:OGC:1.3:CRS84" } },
"xy_coordinate_resolution": 1e-05,
"features": [
{ "type": "Feature", "properties": { "objectid": 2279, "fid_cuarte": null, "fid_": null, "nombre_uni": "RETEN MANTILHUE", "tipo_de_un": "RETEN", "tipo_de_vi": "RUTA", "nombre_de": "RUTA T-985", "numero": "KM", "point_x": -72.49278109, "point_y": -40.62041245, "hecho": "2014", "rg": 14, "prefectura": "VALDIVIA", "zona": "ZONA DE LOS RIOS", "uni_cod": "14021", "fid_dpa_co": null, "cine_prov": "142", "cod_com": null, "cine_com": "14204", "cine_reg": "14", "region": "Los Ríos", "provincia": "Ranco", "comuna": "Río Bueno", "globalid": "ee86a83c-8b0e-4dc5-94c9-48094e9f30f8" }, "geometry": { "type": "Point", "coordinates": [ -72.49278, -40.62041 ] } },
{ "type": "Feature", "properties": { "objectid": 2373, "fid_cuarte": null, "fid_": null, "nombre_uni": "RETEN RUPANCO", "tipo_de_un": "RETEN", "tipo_de_vi": "RUTA", "nombre_de": "RUTA U-91", "numero": "KM 20", "point_x": -72.71918187, "point_y": -40.86423439, "hecho": "2014", "rg": 10, "prefectura": "OSORNO", "zona": "ZONA DE LOS LAGOS", "uni_cod": "10055", "fid_dpa_co": null, "cine_prov": "103", "cod_com": null, "cine_com": "10302", "cine_reg": "10", "region": "Los Lagos", "provincia": "Osorno", "comuna": "Puerto Octay", "globalid": "4b939e20-64e6-45e8-b2ec-b871efa1fe2e" }, "geometry": { "type": "Point", "coordinates": [ -72.71918, -40.86423 ] } },
{ "type": "Feature", "properties": { "objectid": 2392, "fid_cuarte": null, "fid_": null, "nombre_uni": "TCIA. PAJARITOS (F)", "tipo_de_un": "TENENCIA", "tipo_de_vi": "RUTA", "nombre_de": "RUTA CH-215", "numero": "KM 97", "point_x": -72.12641562, "point_y": -40.66157784, "hecho": "2014", "rg": 10, "prefectura": "OSORNO", "zona": "ZONA DE LOS LAGOS", "uni_cod": "10084", "fid_dpa_co": null, "cine_prov": "103", "cod_com": null, "cine_com": "10304", "cine_reg": "10", "region": "Los Lagos", "provincia": "Osorno", "comuna": "Puyehue", "globalid": "5ac6a0a2-8310-4464-92d0-166d57e39384" }, "geometry": { "type": "Point", "coordinates": [ -72.12642, -40.66158 ] } },
{ "type": "Feature", "properties": { "objectid": 2486, "fid_cuarte": null, "fid_": null, "nombre_uni": "TCIA. CASA PANGUE (F)", "tipo_de_un": "TENENCIA", "tipo_de_vi": "RUTA", "nombre_de": "RUTA CH-225", "numero": "KM 18", "point_x": -71.87649562, "point_y": -41.04765792000001, "hecho": "2014", "rg": 10, "prefectura": "LLANQUIHUE", "zona": "ZONA DE LOS LAGOS", "uni_cod": "10072", "fid_dpa_co": null, "cine_prov": "101", "cod_com": null, "cine_com": "10109", "cine_reg": "10", "region": "Los Lagos", "provincia": "Llanquihue", "comuna": "Puerto Varas", "globalid": "773e8106-4c34-4810-91cc-7d846eb3f7a4" }, "geometry": { "type": "Point", "coordinates": [ -71.8765, -41.04766 ] } },
{ "type": "Feature", "properties": { "objectid": 2576, "fid_cuarte": null, "fid_": null, "nombre_uni": "TCIA. ENTRE LAGOS", "tipo_de_un": "TENENCIA", "tipo_de_vi": "CALLE", "nombre_de": "CARABINERO ERIBERTO NOVOA", "numero": "S/N", "point_x": -72.60434404, "point_y": -40.68600276, "hecho": "2014", "rg": 10, "prefectura": "OSORNO", "zona": "ZONA DE LOS LAGOS", "uni_cod": "10079", "fid_dpa_co": null, "cine_prov": "103", "cod_com": null, "cine_com": "10304", "cine_reg": "10", "region": "Los Lagos", "provincia": "Osorno", "comuna": "Puyehue", "globalid": "f488fe39-8831-4b3a-bafc-967ed4cdc44b" }, "geometry": { "type": "Point", "coordinates": [ -72.60434, -40.686 ] } }
]
}
