{
"type": "FeatureCollection",
"name": "ANT",
"crs": { "type": "name", "properties": { "name": "urn:ogc:def:crs:OGC:1.3:CRS84" } },
"xy_coordinate_resolution": 1e-05,
"features": [
{ "type": "Feature", "properties": { "objectid": 2605, "fid_cuarte": null, "fid_": null, "nombre_uni": "RETEN POLCURA", "tipo_de_un": "RETEN", "tipo_de_vi": "CALLE", "nombre_de": "ANIBAL PINTO", "numero": "498", "point_x": -71.72481675, "point_y": -37.2866153, "hecho": "2014", "rg": 8, "prefectura": "BIO BIO", "zona": "ZONA DEL BIOBIO", "uni_cod": "08054", "fid_dpa_co": null, "cine_prov": "083", "cod_com": null, "cine_com": "08312", "cine_reg": "08", "region": "Biobío", "provincia": "Biobío", "comuna": "Tucapel", "globalid": "0e92bd4a-f2cd-4143-9b0d-0d1e792d35c9" }, "geometry": { "type": "Point", "coordinates": [ -71.72482, -37.28662 ] } },
{ "type": "Feature", "properties": { "objectid": 2634, "fid_cuarte": null, "fid_": null, "nombre_uni": "RETEN TRUPAN", "tipo_de_un": "RETEN", "tipo_de_vi": "CALLE", "nombre_de": "ALEJANDRO PEREZ", "numero": "423", "point_x": -71.83382167, "point_y": -37.27637123, "hecho": "2014", "rg": 8, "prefectura": "BIO BIO", "zona": "ZONA DEL BIOBIO", "uni_cod": "08078", "fid_dpa_co": null, "cine_prov": "083", "cod_com": null, "cine_com": "08312", "cine_reg": "08", "region": "Biobío", "provincia": "Biobío", "comuna": "Tucapel", "globalid": "d95d6cd5-c40a-4c5a-be8a-1a6b7f8e0916" }, "geometry": { "type": "Point", "coordinates": [ -71.83382, -37.27637 ] } },
{ "type": "Feature", "properties": { "objectid": 2647, "fid_cuarte": null, "fid_": null, "nombre_uni": "AVANZADA CUATRO JUNTAS", "tipo_de_un": "AVANZADA", "tipo_de_vi": "s/i", "nombre_de": "SECTOR CUATRO JUNTAS", "numero": "s/i", "point_x": -71.32051021, "point_y": -37.21617303, "hecho": "2014", "rg": 8, "prefectura": "BIO BIO", "zona": "ZONA DEL BIOBIO", "uni_cod": "08027", "fid_dpa_co": null, "cine_prov": "083", "cod_com": null, "cine_com": "08302", "cine_reg": "08", "region": "Biobío", "provincia": "Biobío", "comuna": "Antuco", "globalid": "6b6c0749-32f9-44af-abe5-cb2bf5e82eae" }, "geometry": { "type": "Point", "coordinates": [ -71.32051, -37.21617 ] } },
{ "type": "Feature", "properties": { "objectid": 2649, "fid_cuarte": null, "fid_": null, "nombre_uni": "AVANZADA LOS BARROS", "tipo_de_un": "AVANZADA", "tipo_de_vi": "s/i", "nombre_de": "SECTOR LOS BARROS", "numero": "s/i", "point_x": -71.32034899, "point_y": -37.46865784, "hecho": "2014", "rg": 8, "prefectura": "BIO BIO", "zona": "ZONA DEL BIOBIO", "uni_cod": "08029", "fid_dpa_co": null, "cine_prov": "083", "cod_com": null, "cine_com": "08302", "cine_reg": "08", "region": "Biobío", "provincia": "Biobío", "comuna": "Antuco", "globalid": "2214a7d4-d618-4352-b313-1ab340aa31b0" }, "geometry": { "type": "Point", "coordinates": [ -71.32035, -37.46866 ] } },
{ "type": "Feature", "properties": { "objectid": 2650, "fid_cuarte": null, "fid_": null, "nombre_uni": "AVANZADA LOS COLUMPIOS (T.F.)", "tipo_de_un": "AVANZADA", "tipo_de_vi": "s/i", "nombre_de": "CAJON LAS AGUILAS PINTO", "numero": "s/i", "point_x": -71.29808439, "point_y": -37.03261272, "hecho": "2014", "rg": 16, "prefectura": "NUBLE", "zona": "ZONA DE NUBLE", "uni_cod": "08030", "fid_dpa_co": null, "cine_prov": "161", "cod_com": null, "cine_com": "16106", "cine_reg": "16", "region": "Ñuble", "provincia": "Diguillín", "comuna": "Pinto", "globalid": "5b4bab4b-5a05-4666-9c7c-3d472aa9d3ce" }, "geometry": { "type": "Point", "coordinates": [ -71.29808, -37.03261 ] } },
{ "type": "Feature", "properties": { "objectid": 2652, "fid_cuarte": null, "fid_": null, "nombre_uni": "AVANZADA TRAPA-TRAPA", "tipo_de_un": "AVANZADA", "tipo_de_vi": "s/i", "nombre_de": "SECTOR TRAPA TRAPA", "numero": "s/i", "point_x": -71.22814, "point_y": -37.72721, "hecho": "2014", "rg": 8, "prefectura": "BIO BIO", "zona": "ZONA DEL BIOBIO", "uni_cod": "08032", "fid_dpa_co": null, "cine_prov": "083", "cod_com": null, "cine_com": "08314", "cine_reg": "08", "region": "Biobío", "provincia": "Biobío", "comuna": "Alto Biobío", "globalid": "e10e6803-c585-4c0c-9004-af52d3740c01" }, "geometry": { "type": "Point", "coordinates": [ -71.22814, -37.72721 ] } },
{ "type": "Feature", "properties": { "objectid": 2658, "fid_cuarte": null, "fid_": null, "nombre_uni": "TCIA. ANTUCO (F)", "tipo_de_un": "TENENCIA", "tipo_de_vi": "RUTA", "nombre_de": "RUTA Q-45", "numero": "KM 63", "point_x": -71.65987887, "point_y": -37.32906367, "hecho": "2014", "rg": 8, "prefectura": "BIO BIO", "zona": "ZONA DEL BIOBIO", "uni_cod": "08091", "fid_dpa_co": null, "cine_prov": "083", "cod_com": null, "cine_com": "08302", "cine_reg": "08", "region": "Biobío", "provincia": "Biobío", "comuna": "Antuco", "globalid": "a23f15d3-bbd0-4726-8176-9647a97cff1b" }, "geometry": { "type": "Point", "coordinates": [ -71.65988, -37.32906 ] } }
]
}
