{
"type": "FeatureCollection",
"name": "CAL",
"crs": { "type": "name", "properties": { "name": "urn:ogc:def:crs:OGC:1.3:CRS84" } },
"xy_coordinate_resolution": 1e-05,
"features": [
{ "type": "Feature", "properties": { "objectid": 2454, "fid_cuarte": null, "fid_": null, "nombre_uni": "RETEN TROYO (F)", "tipo_de_un": "RETEN", "tipo_de_vi": "CALLE", "nombre_de": "CARLOS CONDEL", "numero": "S/N", "point_x": -71.305199, "point_y": -38.25368, "hecho": "2014", "rg": 9, "prefectura": "MALLECO", "zona": "ZONA DE LA ARAUCANIA", "uni_cod": "09057", "fid_dpa_co": null, "cine_prov": "092", "cod_com": null, "cine_com": "09205", "cine_reg": "09", "region": "La Araucanía", "provincia": "Malleco", "comuna": "Lonquimay", "globalid": "490db118-ccc7-4938-8501-ad82dd849c25" }, "geometry": { "type": "Point", "coordinates": [ -71.3052, -38.25368 ] } },
{ "type": "Feature", "properties": { "objectid": 2601, "fid_cuarte": null, "fid_": null, "nombre_uni": "RETEN LONCOPANGUE", "tipo_de_un": "RETEN", "tipo_de_vi": "CALLE", "nombre_de": "PRINCIPAL VILLA LONCOPANGUE", "numero": "15", "point_x": -71.774117, "point_y": -37.768142, "hecho": "2014", "rg": 8, "prefectura": "BIO BIO", "zona": "ZONA DEL BIOBIO", "uni_cod": "08049", "fid_dpa_co": null, "cine_prov": "083", "cod_com": null, "cine_com": "08308", "cine_reg": "08", "region": "Biobío", "provincia": "Biobío", "comuna": "Quilaco", "globalid": "edfa983c-3baa-462f-ada6-740dce1087ac" }, "geometry": { "type": "Point", "coordinates": [ -71.77412, -37.76814 ] } },
{ "type": "Feature", "properties": { "objectid": 2616, "fid_cuarte": null, "fid_": null, "nombre_uni": "RETEN RUCALHUE", "tipo_de_un": "RETEN", "tipo_de_vi": "CALLE", "nombre_de": "JUAN CORONATA MARENCO", "numero": "326", "point_x": -71.90443422, "point_y": -37.7124809, "hecho": "2014", "rg": 8, "prefectura": "BIO BIO", "zona": "ZONA DEL BIOBIO", "uni_cod": "08065", "fid_dpa_co": null, "cine_prov": "083", "cod_com": null, "cine_com": "08308", "cine_reg": "08", "region": "Biobío", "provincia": "Biobío", "comuna": "Quilaco", "globalid": "c527af07-fa9b-4e9c-befa-b4d5f6bd3ee4" }, "geometry": { "type": "Point", "coordinates": [ -71.90443, -37.71248 ] } },
{ "type": "Feature", "properties": { "objectid": 2648, "fid_cuarte": null, "fid_": null, "nombre_uni": "AVANZADA GUAYALI", "tipo_de_un": "AVANZADA", "tipo_de_vi": "s/i", "nombre_de": "SECTOR GUAYAYIL", "numero": "s/i", "point_x": -71.20834703, "point_y": -37.93819653, "hecho": "2014", "rg": 8, "prefectura": "BIO BIO", "zona": "ZONA DEL BIOBIO", "uni_cod": "08028", "fid_dpa_co": null, "cine_prov": "083", "cod_com": null, "cine_com": "08314", "cine_reg": "08", "region": "Biobío", "provincia": "Biobío", "comuna": "Alto Biobío", "globalid": "9c63ff4d-4d8b-41d3-9140-45f1b64396cf" }, "geometry": { "type": "Point", "coordinates": [ -71.20835, -37.9382 ] } },
{ "type": "Feature", "properties": { "objectid": 2652, "fid_cuarte": null, "fid_": null, "nombre_uni": "AVANZADA TRAPA-TRAPA", "tipo_de_un": "AVANZADA", "tipo_de_vi": "s/i", "nombre_de": "SECTOR TRAPA TRAPA", "numero": "s/i", "point_x": -71.22814, "point_y": -37.72721, "hecho": "2014", "rg": 8, "prefectura": "BIO BIO", "zona": "ZONA DEL BIOBIO", "uni_cod": "08032", "fid_dpa_co": null, "cine_prov": "083", "cod_com": null, "cine_com": "08314", "cine_reg": "08", "region": "Biobío", "provincia": "Biobío", "comuna": "Alto Biobío", "globalid": "e10e6803-c585-4c0c-9004-af52d3740c01" }, "geometry": { "type": "Point", "coordinates": [ -71.22814, -37.72721 ] } },
{ "type": "Feature", "properties": { "objectid": 2659, "fid_cuarte": null, "fid_": null, "nombre_uni": "TCIA. BIO BIO (F)", "tipo_de_un": "TENENCIA", "tipo_de_vi": "CALLE", "nombre_de": "DOMINGO SALVO", "numero": "S/N", "point_x": -71.636363, "point_y": -37.882419, "hecho": "2014", "rg": 8, "prefectura": "BIO BIO", "zona": "ZONA DEL BIOBIO", "uni_cod": "08092", "fid_dpa_co": null, "cine_prov": "083", "cod_com": null, "cine_com": "08314", "cine_reg": "08", "region": "Biobío", "provincia": "Biobío", "comuna": "Alto Biobío", "globalid": "e3fbcd80-be3d-4907-99b2-a2f63d124e0f" }, "geometry": { "type": "Point", "coordinates": [ -71.63636, -37.88242 ] } }
]
}
