{
"type": "FeatureCollection",
"name": "CAY",
"crs": { "type": "name", "properties": { "name": "urn:ogc:def:crs:OGC:1.3:CRS84" } },
"xy_coordinate_resolution": 1e-05,
"features": [
{ "type": "Feature", "properties": { "objectid": 2274, "fid_cuarte": null, "fid_": null, "nombre_uni": "2DA. COM. PUERTO AYSEN", "tipo_de_un": "COMISARIA", "tipo_de_vi": "AVENIDA", "nombre_de": "BERNARDO O'HIGGINS", "numero": "553", "point_x": -72.69720138, "point_y": -45.40605333, "hecho": "2014", "rg": 11, "prefectura": "AYSEN DEL GRAL LUIS MARCHANT GONZALEZ", "zona": "ZONA DE AYSEN", "uni_cod": "11002", "fid_dpa_co": null, "cine_prov": "112", "cod_com": null, "cine_com": "11201", "cine_reg": "11", "region": "Aysén del General Carlos Ibáñez del Campo", "provincia": "Aisén", "comuna": "Aisén", "globalid": "2b36dc0a-8e52-44ad-99e7-b2cc12937302" }, "geometry": { "type": "Point", "coordinates": [ -72.6972, -45.40605 ] } },
{ "type": "Feature", "properties": { "objectid": 2293, "fid_cuarte": null, "fid_": null, "nombre_uni": "RETEN PUERTO AGUIRRE", "tipo_de_un": "RETEN", "tipo_de_vi": "CALLE", "nombre_de": "PEDRO AGUIRRE CERDA", "numero": "S/N", "point_x": -73.52311147, "point_y": -45.16433167, "hecho": "2014", "rg": 11, "prefectura": "AYSEN DEL GRAL LUIS MARCHANT GONZALEZ", "zona": "ZONA DE AYSEN", "uni_cod": "11011", "fid_dpa_co": null, "cine_prov": "112", "cod_com": null, "cine_com": "11201", "cine_reg": "11", "region": "Aysén del General Carlos Ibáñez del Campo", "provincia": "Aisén", "comuna": "Aisén", "globalid": "34494255-fa0a-4893-bb89-7c3d929aded7" }, "geometry": { "type": "Point", "coordinates": [ -73.52311, -45.16433 ] } },
{ "type": "Feature", "properties": { "objectid": 2294, "fid_cuarte": null, "fid_": null, "nombre_uni": "RETEN PUERTO CHACABUCO (M.A.)", "tipo_de_un": "RETEN", "tipo_de_vi": "CALLE", "nombre_de": "CARDENAL CARO", "numero": "335", "point_x": -72.819237, "point_y": -45.46154752, "hecho": "2014", "rg": 11, "prefectura": "AYSEN DEL GRAL LUIS MARCHANT GONZALEZ", "zona": "ZONA DE AYSEN", "uni_cod": "11012", "fid_dpa_co": null, "cine_prov": "112", "cod_com": null, "cine_com": "11201", "cine_reg": "11", "region": "Aysén del General Carlos Ibáñez del Campo", "provincia": "Aisén", "comuna": "Aisén", "globalid": "349eef26-251d-44af-a7ec-972010eaa0aa" }, "geometry": { "type": "Point", "coordinates": [ -72.81924, -45.46155 ] } },
{ "type": "Feature", "properties": { "objectid": 2316, "fid_cuarte": null, "fid_": null, "nombre_uni": "SCOM. PUERTO CISNES", "tipo_de_un": "SUBCOMISARIA", "tipo_de_vi": "CALLE", "nombre_de": "JOSE MARIA CARO", "numero": "S/N", "point_x": -72.68296859, "point_y": -44.72728111000001, "hecho": "2014", "rg": 11, "prefectura": "AYSEN DEL GRAL LUIS MARCHANT GONZALEZ", "zona": "ZONA DE AYSEN", "uni_cod": "11025", "fid_dpa_co": null, "cine_prov": "112", "cod_com": null, "cine_com": "11202", "cine_reg": "11", "region": "Aysén del General Carlos Ibáñez del Campo", "provincia": "Aisén", "comuna": "Cisnes", "globalid": "0359890f-d043-4be6-a5c5-e49557934d1c" }, "geometry": { "type": "Point", "coordinates": [ -72.68297, -44.72728 ] } }
]
}
