{
"type": "FeatureCollection",
"name": "CLB",
"crs": { "type": "name", "properties": { "name": "urn:ogc:def:crs:OGC:1.3:CRS84" } },
"xy_coordinate_resolution": 1e-05,
"features": [
{ "type": "Feature", "properties": { "objectid": 2324, "fid_cuarte": null, "fid_": null, "nombre_uni": "1RA. COM. PUERTO VARAS", "tipo_de_un": "COMISARIA", "tipo_de_vi": "CALLE", "nombre_de": "SAN FRANCISCO", "numero": "241", "point_x": -72.98431844000001, "point_y": -41.31634903, "hecho": "2014", "rg": 10, "prefectura": "LLANQUIHUE", "zona": "ZONA DE LOS LAGOS", "uni_cod": "10004", "fid_dpa_co": null, "cine_prov": "101", "cod_com": null, "cine_com": "10109", "cine_reg": "10", "region": "Los Lagos", "provincia": "Llanquihue", "comuna": "Puerto Varas", "globalid": "353f1725-b9f1-4c99-b63a-e4ddd16c12da" }, "geometry": { "type": "Point", "coordinates": [ -72.98432, -41.31635 ] } },
{ "type": "Feature", "properties": { "objectid": 2326, "fid_cuarte": null, "fid_": null, "nombre_uni": "2DA. COM. PTO. MONTT", "tipo_de_un": "COMISARIA", "tipo_de_vi": "CALLE", "nombre_de": "GUILLERMO GALLARDO", "numero": "519", "point_x": -72.94324915, "point_y": -41.46736675, "hecho": "2014", "rg": 10, "prefectura": "LLANQUIHUE", "zona": "ZONA DE LOS LAGOS", "uni_cod": "10006", "fid_dpa_co": null, "cine_prov": "101", "cod_com": null, "cine_com": "10101", "cine_reg": "10", "region": "Los Lagos", "provincia": "Llanquihue", "comuna": "Puerto Montt", "globalid": "4cb38f90-0a78-4e90-b5d3-0d558f7cc695" }, "geometry": { "type": "Point", "coordinates": [ -72.94325, -41.46737 ] } },
{ "type": "Feature", "properties": { "objectid": 2329, "fid_cuarte": null, "fid_": null, "nombre_uni": "RETEN CANUTILLAR", "tipo_de_un": "RETEN", "tipo_de_vi": "RUTA", "nombre_de": "RUTA 70-E", "numero": "KM 14", "point_x": -72.3350029, "point_y": -41.49606716, "hecho": "2014", "rg": 10, "prefectura": "LLANQUIHUE", "zona": "ZONA DE LOS LAGOS", "uni_cod": "10018", "fid_dpa_co": null, "cine_prov": "101", "cod_com": null, "cine_com": "10103", "cine_reg": "10", "region": "Los Lagos", "provincia": "Llanquihue", "comuna": "Cochamó", "globalid": "d243520e-edfa-49c9-8db4-4a577eabf47e" }, "geometry": { "type": "Point", "coordinates": [ -72.335, -41.49607 ] } },
{ "type": "Feature", "properties": { "objectid": 2331, "fid_cuarte": null, "fid_": null, "nombre_uni": "RETEN COCHAMO", "tipo_de_un": "RETEN", "tipo_de_vi": "RUTA", "nombre_de": "RUTA V-69", "numero": "KM 46", "point_x": -72.30385328, "point_y": -41.49318716, "hecho": "2014", "rg": 10, "prefectura": "LLANQUIHUE", "zona": "ZONA DE LOS LAGOS", "uni_cod": "10020", "fid_dpa_co": null, "cine_prov": "101", "cod_com": null, "cine_com": "10103", "cine_reg": "10", "region": "Los Lagos", "provincia": "Llanquihue", "comuna": "Cochamó", "globalid": "7f6d6abc-45f4-44df-bcbd-53cdfb3f0da0" }, "geometry": { "type": "Point", "coordinates": [ -72.30385, -41.49319 ] } },
{ "type": "Feature", "properties": { "objectid": 2333, "fid_cuarte": null, "fid_": null, "nombre_uni": "RETEN PIEDRA AZUL", "tipo_de_un": "RETEN", "tipo_de_vi": "RUTA", "nombre_de": "RUTA V-65", "numero": "KM 21", "point_x": -72.8164822, "point_y": -41.49264884, "hecho": "2014", "rg": 10, "prefectura": "LLANQUIHUE", "zona": "ZONA DE LOS LAGOS", "uni_cod": "10022", "fid_dpa_co": null, "cine_prov": "101", "cod_com": null, "cine_com": "10101", "cine_reg": "10", "region": "Los Lagos", "provincia": "Llanquihue", "comuna": "Puerto Montt", "globalid": "967bb8c5-fee5-461d-b6fe-78d044938ee9" }, "geometry": { "type": "Point", "coordinates": [ -72.81648, -41.49265 ] } },
{ "type": "Feature", "properties": { "objectid": 2343, "fid_cuarte": null, "fid_": null, "nombre_uni": "RETEN ISLA GUAR", "tipo_de_un": "RETEN", "tipo_de_vi": "CAMINO", "nombre_de": "ALFARO", "numero": "S/N", "point_x": -72.98000106000001, "point_y": -41.66804715, "hecho": "2014", "rg": 10, "prefectura": "LLANQUIHUE", "zona": "ZONA DE LOS LAGOS", "uni_cod": "10027", "fid_dpa_co": null, "cine_prov": "101", "cod_com": null, "cine_com": "10102", "cine_reg": "10", "region": "Los Lagos", "provincia": "Llanquihue", "comuna": "Calbuco", "globalid": "14b93d76-d0d2-45a1-9d52-a54f4fd5c685" }, "geometry": { "type": "Point", "coordinates": [ -72.98, -41.66805 ] } },
{ "type": "Feature", "properties": { "objectid": 2347, "fid_cuarte": null, "fid_": null, "nombre_uni": "RETEN LAS CASCADAS", "tipo_de_un": "RETEN", "tipo_de_vi": "CALLE", "nombre_de": "VICENTE PEREZ ROSALES", "numero": "S/N", "point_x": -72.63676857, "point_y": -41.08312419, "hecho": "2014", "rg": 10, "prefectura": "OSORNO", "zona": "ZONA DE LOS LAGOS", "uni_cod": "10031", "fid_dpa_co": null, "cine_prov": "103", "cod_com": null, "cine_com": "10302", "cine_reg": "10", "region": "Los Lagos", "provincia": "Osorno", "comuna": "Puerto Octay", "globalid": "7b1ca5d9-44ba-42c6-b432-762cbbe82759" }, "geometry": { "type": "Point", "coordinates": [ -72.63677, -41.08312 ] } },
{ "type": "Feature", "properties": { "objectid": 2350, "fid_cuarte": null, "fid_": null, "nombre_uni": "RETEN LOS PELLINES", "tipo_de_un": "RETEN", "tipo_de_vi": "RUTA", "nombre_de": "RUTA 5 SUR", "numero": "KM 989", "point_x": -73.06973623, "point_y": -41.19041989, "hecho": "2014", "rg": 10, "prefectura": "LLANQUIHUE", "zona": "ZONA DE LOS LAGOS", "uni_cod": "10034", "fid_dpa_co": null, "cine_prov": "101", "cod_com": null, "cine_com": "10107", "cine_reg": "10", "region": "Los Lagos", "provincia": "Llanquihue", "comuna": "Llanquihue", "globalid": "6fe38dda-b21c-430e-b330-3bbc992be15b" }, "geometry": { "type": "Point", "coordinates": [ -73.06974, -41.19042 ] } },
{ "type": "Feature", "properties": { "objectid": 2354, "fid_cuarte": null, "fid_": null, "nombre_uni": "TCIA. PANITAO (M.C.)", "tipo_de_un": "TENENCIA", "tipo_de_vi": "RUTA", "nombre_de": "RUTA 5 SUR", "numero": "KM 1035", "point_x": -73.08897582, "point_y": -41.52222921, "hecho": "2014", "rg": 10, "prefectura": "LLANQUIHUE", "zona": "ZONA DE LOS LAGOS", "uni_cod": "10040", "fid_dpa_co": null, "cine_prov": "101", "cod_com": null, "cine_com": "10101", "cine_reg": "10", "region": "Los Lagos", "provincia": "Llanquihue", "comuna": "Puerto Montt", "globalid": "a5cb2588-7bf9-42fc-8adf-e8c2e579c123" }, "geometry": { "type": "Point", "coordinates": [ -73.08898, -41.52223 ] } },
{ "type": "Feature", "properties": { "objectid": 2371, "fid_cuarte": null, "fid_": null, "nombre_uni": "RETEN RIO PESCADO", "tipo_de_un": "RETEN", "tipo_de_vi": "RUTA", "nombre_de": "RUTA CH-225", "numero": "KM 19", "point_x": -72.7970641, "point_y": -41.25341001, "hecho": "2014", "rg": 10, "prefectura": "LLANQUIHUE", "zona": "ZONA DE LOS LAGOS", "uni_cod": "10053", "fid_dpa_co": null, "cine_prov": "101", "cod_com": null, "cine_com": "10109", "cine_reg": "10", "region": "Los Lagos", "provincia": "Llanquihue", "comuna": "Puerto Varas", "globalid": "c1537b52-23a5-4a01-b768-2943fa8da2cc" }, "geometry": { "type": "Point", "coordinates": [ -72.79706, -41.25341 ] } },
{ "type": "Feature", "properties": { "objectid": 2372, "fid_cuarte": null, "fid_": null, "nombre_uni": "RETEN RIO PUELO", "tipo_de_un": "RETEN", "tipo_de_vi": "CAMINO", "nombre_de": "CAMINO  PUBLICO", "numero": "S/N", "point_x": -72.30357044, "point_y": -41.66454683, "hecho": "2014", "rg": 10, "prefectura": "LLANQUIHUE", "zona": "ZONA DE LOS LAGOS", "uni_cod": "10054", "fid_dpa_co": null, "cine_prov": "101", "cod_com": null, "cine_com": "10103", "cine_reg": "10", "region": "Los Lagos", "provincia": "Llanquihue", "comuna": "Cochamó", "globalid": "23f3398b-f84a-43d1-8d2a-c36d02f30db1" }, "geometry": { "type": "Point", "coordinates": [ -72.30357, -41.66455 ] } },
{ "type": "Feature", "properties": { "objectid": 2379, "fid_cuarte": null, "fid_": null, "nombre_uni": "SCOM. FRUTILLAR", "tipo_de_un": "SUBCOMISARIA", "tipo_de_vi": "CALLE", "nombre_de": "CARLOS RICHTER", "numero": "280", "point_x": -73.05267767, "point_y": -41.12883442, "hecho": "2014", "rg": 10, "prefectura": "LLANQUIHUE", "zona": "ZONA DE LOS LAGOS", "uni_cod": "10062", "fid_dpa_co": null, "cine_prov": "101", "cod_com": null, "cine_com": "10105", "cine_reg": "10", "region": "Los Lagos", "provincia": "Llanquihue", "comuna": "Frutillar", "globalid": "2de5369f-4e7b-440c-847c-ff2d3ff9010f" }, "geometry": { "type": "Point", "coordinates": [ -73.05268, -41.12883 ] } },
{ "type": "Feature", "properties": { "objectid": 2380, "fid_cuarte": null, "fid_": null, "nombre_uni": "SCOM. LLANQUIHUE", "tipo_de_un": "SUBCOMISARIA", "tipo_de_vi": "AVENIDA", "nombre_de": "LOS VOLCANES", "numero": "S/N", "point_x": -72.99975399, "point_y": -41.26898369, "hecho": "2014", "rg": 10, "prefectura": "LLANQUIHUE", "zona": "ZONA DE LOS LAGOS", "uni_cod": "10063", "fid_dpa_co": null, "cine_prov": "101", "cod_com": null, "cine_com": "10107", "cine_reg": "10", "region": "Los Lagos", "provincia": "Llanquihue", "comuna": "Llanquihue", "globalid": "a947f240-a2af-4df1-b45f-bf751ff0c3cb" }, "geometry": { "type": "Point", "coordinates": [ -72.99975, -41.26898 ] } },
{ "type": "Feature", "properties": { "objectid": 2383, "fid_cuarte": null, "fid_": null, "nombre_uni": "7MA. COM. MIRASOL", "tipo_de_un": "COMISARIA", "tipo_de_vi": "AVENIDA", "nombre_de": "LA CRUZ", "numero": "S/N", "point_x": -72.98398606000001, "point_y": -41.47514514, "hecho": "2014", "rg": 10, "prefectura": "LLANQUIHUE", "zona": "ZONA DE LOS LAGOS", "uni_cod": "10064", "fid_dpa_co": null, "cine_prov": "101", "cod_com": null, "cine_com": "10101", "cine_reg": "10", "region": "Los Lagos", "provincia": "Llanquihue", "comuna": "Puerto Montt", "globalid": "665a246f-11d8-41cd-b623-7ca94cb279cb" }, "geometry": { "type": "Point", "coordinates": [ -72.98399, -41.47515 ] } },
{ "type": "Feature", "properties": { "objectid": 2386, "fid_cuarte": null, "fid_": null, "nombre_uni": "6TA. COM. ALERCE (S.U.)", "tipo_de_un": "COMISARIA", "tipo_de_vi": "AVENIDA", "nombre_de": "GABRIELA MISTRAL", "numero": "1000", "point_x": -72.9032044, "point_y": -41.39802813, "hecho": "2014", "rg": 10, "prefectura": "LLANQUIHUE", "zona": "ZONA DE LOS LAGOS", "uni_cod": "10068", "fid_dpa_co": null, "cine_prov": "101", "cod_com": null, "cine_com": "10101", "cine_reg": "10", "region": "Los Lagos", "provincia": "Llanquihue", "comuna": "Puerto Montt", "globalid": "df9c2697-1c5f-49d6-81b4-bd4e091448d2" }, "geometry": { "type": "Point", "coordinates": [ -72.9032, -41.39803 ] } },
{ "type": "Feature", "properties": { "objectid": 2388, "fid_cuarte": null, "fid_": null, "nombre_uni": "SCOM.I.A.T. Y CARRET. LLANQUIHUE", "tipo_de_un": "SUBCOMISARIA CARRETERAS", "tipo_de_vi": "RUTA", "nombre_de": "RUTA 5 SUR", "numero": "KM 1010", "point_x": -72.98025506, "point_y": -41.35732547, "hecho": "2014", "rg": 10, "prefectura": "LLANQUIHUE", "zona": "ZONA DE LOS LAGOS", "uni_cod": "10070", "fid_dpa_co": null, "cine_prov": "101", "cod_com": null, "cine_com": "10109", "cine_reg": "10", "region": "Los Lagos", "provincia": "Llanquihue", "comuna": "Puerto Varas", "globalid": "c537f132-d29c-44d1-a12c-ead3c536b52b" }, "geometry": { "type": "Point", "coordinates": [ -72.98026, -41.35733 ] } },
{ "type": "Feature", "properties": { "objectid": 2390, "fid_cuarte": null, "fid_": null, "nombre_uni": "TCIA. LAS QUEMAS", "tipo_de_un": "TENENCIA", "tipo_de_vi": "RUTA", "nombre_de": "RUTA V-60", "numero": "KM 18", "point_x": -73.181246, "point_y": -41.40219118, "hecho": "2014", "rg": 10, "prefectura": "LLANQUIHUE", "zona": "ZONA DE LOS LAGOS", "uni_cod": "10082", "fid_dpa_co": null, "cine_prov": "101", "cod_com": null, "cine_com": "10101", "cine_reg": "10", "region": "Los Lagos", "provincia": "Llanquihue", "comuna": "Puerto Montt", "globalid": "d87cd151-2587-47d4-8cde-22af2f7a7672" }, "geometry": { "type": "Point", "coordinates": [ -73.18125, -41.40219 ] } },
{ "type": "Feature", "properties": { "objectid": 2393, "fid_cuarte": null, "fid_": null, "nombre_uni": "TCIA. PUERTO OCTAY", "tipo_de_un": "TENENCIA", "tipo_de_vi": "CALLE", "nombre_de": "GERMAN WULF", "numero": "797", "point_x": -72.88390063, "point_y": -40.9708895, "hecho": "2014", "rg": 10, "prefectura": "OSORNO", "zona": "ZONA DE LOS LAGOS", "uni_cod": "10085", "fid_dpa_co": null, "cine_prov": "103", "cod_com": null, "cine_com": "10302", "cine_reg": "10", "region": "Los Lagos", "provincia": "Osorno", "comuna": "Puerto Octay", "globalid": "bf17d802-83bc-4070-8026-659b96c7e245" }, "geometry": { "type": "Point", "coordinates": [ -72.8839, -40.97089 ] } },
{ "type": "Feature", "properties": { "objectid": 2394, "fid_cuarte": null, "fid_": null, "nombre_uni": "SCOM. RELONCAVI", "tipo_de_un": "SUBCOMISARIA", "tipo_de_vi": "CALLE", "nombre_de": "RIO YELI", "numero": "S/N", "point_x": -72.91061945, "point_y": -41.47361735, "hecho": "2014", "rg": 10, "prefectura": "LLANQUIHUE", "zona": "ZONA DE LOS LAGOS", "uni_cod": "10086", "fid_dpa_co": null, "cine_prov": "101", "cod_com": null, "cine_com": "10101", "cine_reg": "10", "region": "Los Lagos", "provincia": "Llanquihue", "comuna": "Puerto Montt", "globalid": "71df65a4-6f7e-4c2b-9715-b1f00e7757fa" }, "geometry": { "type": "Point", "coordinates": [ -72.91062, -41.47362 ] } },
{ "type": "Feature", "properties": { "objectid": 2441, "fid_cuarte": null, "fid_": null, "nombre_uni": "5TA. COM. PTO. MONTT S.U.", "tipo_de_un": "COMISARIA", "tipo_de_vi": "AVENIDA", "nombre_de": "PARQUE INDUSTRIAL", "numero": "S/N", "point_x": -72.95230092, "point_y": -41.46032788, "hecho": "2014", "rg": 10, "prefectura": "LLANQUIHUE", "zona": "ZONA DE LOS LAGOS", "uni_cod": "10013", "fid_dpa_co": null, "cine_prov": "101", "cod_com": null, "cine_com": "10101", "cine_reg": "10", "region": "Los Lagos", "provincia": "Llanquihue", "comuna": "Puerto Montt", "globalid": "1918cfe4-712c-41b6-8118-61105b93e210" }, "geometry": { "type": "Point", "coordinates": [ -72.9523, -41.46033 ] } },
{ "type": "Feature", "properties": { "objectid": 2459, "fid_cuarte": null, "fid_": null, "nombre_uni": "RETEN NUEVA BRAUNAU", "tipo_de_un": "RETEN", "tipo_de_vi": "RUTA", "nombre_de": "RUTA V-50", "numero": "KM 9", "point_x": -73.07926789, "point_y": -41.32580829, "hecho": "2014", "rg": 10, "prefectura": "LLANQUIHUE", "zona": "ZONA DE LOS LAGOS", "uni_cod": "10036", "fid_dpa_co": null, "cine_prov": "101", "cod_com": null, "cine_com": "10109", "cine_reg": "10", "region": "Los Lagos", "provincia": "Llanquihue", "comuna": "Puerto Varas", "globalid": "25028a79-ec5d-4fd1-930f-17afedfe869e" }, "geometry": { "type": "Point", "coordinates": [ -73.07927, -41.32581 ] } },
{ "type": "Feature", "properties": { "objectid": 2553, "fid_cuarte": null, "fid_": null, "nombre_uni": "RETEN CORRENTOSO", "tipo_de_un": "RETEN", "tipo_de_vi": "CALLE", "nombre_de": "RUTA V-65", "numero": "KM 21", "point_x": -72.66425443, "point_y": -41.45354406, "hecho": "2014", "rg": 10, "prefectura": "LLANQUIHUE", "zona": "ZONA DE LOS LAGOS", "uni_cod": "10089", "fid_dpa_co": null, "cine_prov": "101", "cod_com": null, "cine_com": "10101", "cine_reg": "10", "region": "Los Lagos", "provincia": "Llanquihue", "comuna": "Puerto Montt", "globalid": "2125f2cf-1a9b-46bc-84e6-ca750e9573aa" }, "geometry": { "type": "Point", "coordinates": [ -72.66425, -41.45354 ] } },
{ "type": "Feature", "properties": { "objectid": 2575, "fid_cuarte": null, "fid_": null, "nombre_uni": "TCIA. ENSENADA", "tipo_de_un": "TENENCIA", "tipo_de_vi": "RUTA", "nombre_de": "RUTA CH-225", "numero": "KM 42", "point_x": -72.53863191000001, "point_y": -41.20848312, "hecho": "2014", "rg": 10, "prefectura": "LLANQUIHUE", "zona": "ZONA DE LOS LAGOS", "uni_cod": "10078", "fid_dpa_co": null, "cine_prov": "101", "cod_com": null, "cine_com": "10109", "cine_reg": "10", "region": "Los Lagos", "provincia": "Llanquihue", "comuna": "Puerto Varas", "globalid": "5391ca0f-2b82-4428-bcff-721fdb40410f" }, "geometry": { "type": "Point", "coordinates": [ -72.53863, -41.20848 ] } }
]
}
