{
"type": "FeatureCollection",
"name": "DGR",
"crs": { "type": "name", "properties": { "name": "urn:ogc:def:crs:OGC:1.3:CRS84" } },
"xy_coordinate_resolution": 1e-05,
"features": [
{ "type": "Feature", "properties": { "objectid": 2244, "fid_cuarte": null, "fid_": null, "nombre_uni": "RETEN EL MELADO (F)", "tipo_de_un": "RETEN", "tipo_de_vi": "CAMINO", "nombre_de": "QUEBRADA DE MEDINA", "numero": "S/N", "point_x": -71.054268, "point_y": -35.856791, "hecho": "2014", "rg": 7, "prefectura": "LINARES", "zona": "ZONA DEL MAULE", "uni_cod": "07038", "fid_dpa_co": null, "cine_prov": "074", "cod_com": null, "cine_com": "07401", "cine_reg": "07", "region": "Maule", "provincia": "Linares", "comuna": "Linares", "globalid": "953b0aa8-ac71-4662-9b65-4ebab1ba4aa2" }, "geometry": { "type": "Point", "coordinates": [ -71.05427, -35.85679 ] } },
{ "type": "Feature", "properties": { "objectid": 2709, "fid_cuarte": null, "fid_": null, "nombre_uni": "RETEN EL RADAL (F)", "tipo_de_un": "RETEN", "tipo_de_vi": "RUTA", "nombre_de": "RUTA K-275", "numero": "KM 14", "point_x": -71.04927146, "point_y": -35.4179538, "hecho": "2014", "rg": 7, "prefectura": "CURICO", "zona": "ZONA DEL MAULE", "uni_cod": "07040", "fid_dpa_co": null, "cine_prov": "073", "cod_com": null, "cine_com": "07304", "cine_reg": "07", "region": "Maule", "provincia": "Curicó", "comuna": "Molina", "globalid": "cba4c49a-3801-44e3-a8be-19fd707acb37" }, "geometry": { "type": "Point", "coordinates": [ -71.04927, -35.41795 ] } },
{ "type": "Feature", "properties": { "objectid": 2721, "fid_cuarte": null, "fid_": null, "nombre_uni": "AVANZADA CABECERAS DEL GRANDE", "tipo_de_un": "AVANZADA", "tipo_de_vi": "s/i", "nombre_de": "SECTOR CABECERAS DEL GRANDE", "numero": "s/i", "point_x": -70.4827234, "point_y": -35.75024838, "hecho": "2014", "rg": 7, "prefectura": "TALCA", "zona": "ZONA DEL MAULE", "uni_cod": "07014", "fid_dpa_co": null, "cine_prov": "071", "cod_com": null, "cine_com": "07109", "cine_reg": "07", "region": "Maule", "provincia": "Talca", "comuna": "San Clemente", "globalid": "4a31152c-94e7-4359-b934-30746cc11aca" }, "geometry": { "type": "Point", "coordinates": [ -70.48272, -35.75025 ] } },
{ "type": "Feature", "properties": { "objectid": 2722, "fid_cuarte": null, "fid_": null, "nombre_uni": "AVANZADA CARRIZALES", "tipo_de_un": "AVANZADA", "tipo_de_vi": "s/i", "nombre_de": "SECTOR CARRIZALES", "numero": "s/i", "point_x": -70.64988688, "point_y": -35.19790507, "hecho": "2014", "rg": 7, "prefectura": "CURICO", "zona": "ZONA DEL MAULE", "uni_cod": "07015", "fid_dpa_co": null, "cine_prov": "073", "cod_com": null, "cine_com": "07306", "cine_reg": "07", "region": "Maule", "provincia": "Curicó", "comuna": "Romeral", "globalid": "2da08ed8-515b-4a0d-aa0c-c0bdb35cdf37" }, "geometry": { "type": "Point", "coordinates": [ -70.64989, -35.19791 ] } },
{ "type": "Feature", "properties": { "objectid": 2723, "fid_cuarte": null, "fid_": null, "nombre_uni": "AVANZADA LAS TORRES", "tipo_de_un": "AVANZADA", "tipo_de_vi": "s/i", "nombre_de": "SECTOR LAS TORRES", "numero": "s/i", "point_x": -70.45116877, "point_y": -35.85094111, "hecho": "2014", "rg": 7, "prefectura": "TALCA", "zona": "ZONA DEL MAULE", "uni_cod": "07016", "fid_dpa_co": null, "cine_prov": "071", "cod_com": null, "cine_com": "07109", "cine_reg": "07", "region": "Maule", "provincia": "Talca", "comuna": "San Clemente", "globalid": "cae814b0-cc9c-440c-b1e7-970fffe86d17" }, "geometry": { "type": "Point", "coordinates": [ -70.45117, -35.85094 ] } },
{ "type": "Feature", "properties": { "objectid": 2724, "fid_cuarte": null, "fid_": null, "nombre_uni": "AVANZADA LOS RETAMOS", "tipo_de_un": "AVANZADA", "tipo_de_vi": "s/i", "nombre_de": "SECTOR LOS RETAMOS", "numero": "s/i", "point_x": -70.60667314, "point_y": -35.37359634, "hecho": "2014", "rg": 7, "prefectura": "CURICO", "zona": "ZONA DEL MAULE", "uni_cod": "07017", "fid_dpa_co": null, "cine_prov": "073", "cod_com": null, "cine_com": "07301", "cine_reg": "07", "region": "Maule", "provincia": "Curicó", "comuna": "Curicó", "globalid": "d6da5103-ee5e-4368-a142-164a5fa31d98" }, "geometry": { "type": "Point", "coordinates": [ -70.60667, -35.3736 ] } },
{ "type": "Feature", "properties": { "objectid": 2727, "fid_cuarte": null, "fid_": null, "nombre_uni": "AVANZADA POTRERILLOS", "tipo_de_un": "AVANZADA", "tipo_de_vi": "s/i", "nombre_de": "SECTOR POTRERILLOS", "numero": "s/i", "point_x": -70.471796, "point_y": -35.416256, "hecho": "2014", "rg": 7, "prefectura": "CURICO", "zona": "ZONA DEL MAULE", "uni_cod": "07020", "fid_dpa_co": null, "cine_prov": "073", "cod_com": null, "cine_com": "07301", "cine_reg": "07", "region": "Maule", "provincia": "Curicó", "comuna": "Curicó", "globalid": "aea780be-1341-4cdc-a44c-1291fbbbebd9" }, "geometry": { "type": "Point", "coordinates": [ -70.4718, -35.41626 ] } },
{ "type": "Feature", "properties": { "objectid": 2729, "fid_cuarte": null, "fid_": null, "nombre_uni": "RETEN AGUA FRIA (F)", "tipo_de_un": "RETEN", "tipo_de_vi": "RUTA", "nombre_de": "RUTA K-175", "numero": "KM 30", "point_x": -71.09179628, "point_y": -35.30662891, "hecho": "2014", "rg": 7, "prefectura": "CURICO", "zona": "ZONA DEL MAULE", "uni_cod": "07022", "fid_dpa_co": null, "cine_prov": "073", "cod_com": null, "cine_com": "07304", "cine_reg": "07", "region": "Maule", "provincia": "Curicó", "comuna": "Molina", "globalid": "e38431aa-e515-4306-864b-6b631739ded2" }, "geometry": { "type": "Point", "coordinates": [ -71.0918, -35.30663 ] } },
{ "type": "Feature", "properties": { "objectid": 2735, "fid_cuarte": null, "fid_": null, "nombre_uni": "TCIA. LA MINA (F)", "tipo_de_un": "TENENCIA", "tipo_de_vi": "RUTA", "nombre_de": "RUTA CH-115", "numero": "KM 104", "point_x": -70.7943757, "point_y": -35.824751, "hecho": "2014", "rg": 7, "prefectura": "TALCA", "zona": "ZONA DEL MAULE", "uni_cod": "07052", "fid_dpa_co": null, "cine_prov": "071", "cod_com": null, "cine_com": "07109", "cine_reg": "07", "region": "Maule", "provincia": "Talca", "comuna": "San Clemente", "globalid": "904fbb0d-e846-404e-91ef-d5a78f1c67c2" }, "geometry": { "type": "Point", "coordinates": [ -70.79438, -35.82475 ] } },
{ "type": "Feature", "properties": { "objectid": 2737, "fid_cuarte": null, "fid_": null, "nombre_uni": "RETEN LAS LOMAS", "tipo_de_un": "RETEN", "tipo_de_vi": "RUTA", "nombre_de": "RUTA K-55", "numero": "KM 55", "point_x": -71.22294437, "point_y": -35.48376269, "hecho": "2014", "rg": 7, "prefectura": "TALCA", "zona": "ZONA DEL MAULE", "uni_cod": "07054", "fid_dpa_co": null, "cine_prov": "071", "cod_com": null, "cine_com": "07109", "cine_reg": "07", "region": "Maule", "provincia": "Talca", "comuna": "San Clemente", "globalid": "efc883fc-47d1-4d14-9027-544926c8211f" }, "geometry": { "type": "Point", "coordinates": [ -71.22294, -35.48376 ] } },
{ "type": "Feature", "properties": { "objectid": 2747, "fid_cuarte": null, "fid_": null, "nombre_uni": "RETEN PASO NEVADO", "tipo_de_un": "RETEN", "tipo_de_vi": "RUTA", "nombre_de": "RUTA CH-115", "numero": "KM 45", "point_x": -71.26411111, "point_y": -35.63702778, "hecho": "2014", "rg": 7, "prefectura": "TALCA", "zona": "ZONA DEL MAULE", "uni_cod": "07064", "fid_dpa_co": null, "cine_prov": "071", "cod_com": null, "cine_com": "07109", "cine_reg": "07", "region": "Maule", "provincia": "Talca", "comuna": "San Clemente", "globalid": "46da2e56-fb49-4600-a601-4e1602161045" }, "geometry": { "type": "Point", "coordinates": [ -71.26411, -35.63703 ] } }
]
}
