{
"type": "FeatureCollection",
"name": "GUA",
"crs": { "type": "name", "properties": { "name": "urn:ogc:def:crs:OGC:1.3:CRS84" } },
"xy_coordinate_resolution": 1e-05,
"features": [
{ "type": "Feature", "properties": { "objectid": 2096, "fid_cuarte": null, "fid_": null, "nombre_uni": "TCIA. CHUNGARA (F)", "tipo_de_un": "TENENCIA", "tipo_de_vi": "RUTA", "nombre_de": "RUTA CH-11", "numero": "KM 185", "point_x": -69.13823534, "point_y": -18.28164755, "hecho": "2014", "rg": 15, "prefectura": "ARICA", "zona": "ZONA DE ARICA Y PARINACOTA", "uni_cod": "15018", "fid_dpa_co": null, "cine_prov": "152", "cod_com": null, "cine_com": "15201", "cine_reg": "15", "region": "Arica y Parinacota", "provincia": "Parinacota", "comuna": "Putre", "globalid": "765528a6-a251-4576-a835-11f98c4172a9" }, "geometry": { "type": "Point", "coordinates": [ -69.13824, -18.28165 ] } },
{ "type": "Feature", "properties": { "objectid": 2231, "fid_cuarte": null, "fid_": null, "nombre_uni": "RETEN GUALLATIRE (F)", "tipo_de_un": "RETEN", "tipo_de_vi": "RUTA", "nombre_de": "RUTA A-235", "numero": "KM 42", "point_x": -69.15428381000001, "point_y": -18.49725346, "hecho": "2014", "rg": 15, "prefectura": "ARICA", "zona": "ZONA DE ARICA Y PARINACOTA", "uni_cod": "15011", "fid_dpa_co": null, "cine_prov": "152", "cod_com": null, "cine_com": "15201", "cine_reg": "15", "region": "Arica y Parinacota", "provincia": "Parinacota", "comuna": "Putre", "globalid": "4ae6d6ea-af24-468a-907c-2ca24a427af4" }, "geometry": { "type": "Point", "coordinates": [ -69.15428, -18.49725 ] } },
{ "type": "Feature", "properties": { "objectid": 2258, "fid_cuarte": null, "fid_": null, "nombre_uni": "RETEN CAQUENA (F)", "tipo_de_un": "RETEN", "tipo_de_vi": "RUTA", "nombre_de": "RUTA A-159", "numero": "KM 12", "point_x": -69.20179622000001, "point_y": -18.05458283, "hecho": "2014", "rg": 15, "prefectura": "ARICA", "zona": "ZONA DE ARICA Y PARINACOTA", "uni_cod": "15005", "fid_dpa_co": null, "cine_prov": "152", "cod_com": null, "cine_com": "15201", "cine_reg": "15", "region": "Arica y Parinacota", "provincia": "Parinacota", "comuna": "Putre", "globalid": "06a13598-ec89-4c34-ac70-308b715967f1" }, "geometry": { "type": "Point", "coordinates": [ -69.2018, -18.05458 ] } },
{ "type": "Feature", "properties": { "objectid": 2260, "fid_cuarte": null, "fid_": null, "nombre_uni": "RETEN C.CHAPIQUINA", "tipo_de_un": "RETEN", "tipo_de_vi": "RUTA", "nombre_de": "RUTA A-255", "numero": "KM 157", "point_x": -69.54841535, "point_y": -18.37189663, "hecho": "2014", "rg": 15, "prefectura": "ARICA", "zona": "ZONA DE ARICA Y PARINACOTA", "uni_cod": "15007", "fid_dpa_co": null, "cine_prov": "152", "cod_com": null, "cine_com": "15201", "cine_reg": "15", "region": "Arica y Parinacota", "provincia": "Parinacota", "comuna": "Putre", "globalid": "bf9cb1b7-5390-42e2-96b2-534c249a19db" }, "geometry": { "type": "Point", "coordinates": [ -69.54842, -18.3719 ] } },
{ "type": "Feature", "properties": { "objectid": 2261, "fid_cuarte": null, "fid_": null, "nombre_uni": "RETEN CHILCAYA (F)", "tipo_de_un": "RETEN", "tipo_de_vi": "RUTA", "nombre_de": "RUTA A-253", "numero": "KM 8", "point_x": -69.08471178, "point_y": -18.79402893, "hecho": "2014", "rg": 15, "prefectura": "ARICA", "zona": "ZONA DE ARICA Y PARINACOTA", "uni_cod": "15008", "fid_dpa_co": null, "cine_prov": "152", "cod_com": null, "cine_com": "15201", "cine_reg": "15", "region": "Arica y Parinacota", "provincia": "Parinacota", "comuna": "Putre", "globalid": "88416197-8475-4b06-835c-05cb60114e33" }, "geometry": { "type": "Point", "coordinates": [ -69.08471, -18.79403 ] } },
{ "type": "Feature", "properties": { "objectid": 2262, "fid_cuarte": null, "fid_": null, "nombre_uni": "RETEN CHUCUYO (F)", "tipo_de_un": "RETEN", "tipo_de_vi": "RUTA", "nombre_de": "RUTA CH-11", "numero": "KM 159", "point_x": -69.32150939, "point_y": -18.21853562, "hecho": "2014", "rg": 15, "prefectura": "ARICA", "zona": "ZONA DE ARICA Y PARINACOTA", "uni_cod": "15009", "fid_dpa_co": null, "cine_prov": "152", "cod_com": null, "cine_com": "15201", "cine_reg": "15", "region": "Arica y Parinacota", "provincia": "Parinacota", "comuna": "Putre", "globalid": "0855cc77-f440-4221-867b-160eae365486" }, "geometry": { "type": "Point", "coordinates": [ -69.32151, -18.21854 ] } }
]
}
