{
"type": "FeatureCollection",
"name": "HOR",
"crs": { "type": "name", "properties": { "name": "urn:ogc:def:crs:OGC:1.3:CRS84" } },
"xy_coordinate_resolution": 1e-05,
"features": [
{ "type": "Feature", "properties": { "objectid": 2329, "fid_cuarte": null, "fid_": null, "nombre_uni": "RETEN CANUTILLAR", "tipo_de_un": "RETEN", "tipo_de_vi": "RUTA", "nombre_de": "RUTA 70-E", "numero": "KM 14", "point_x": -72.3350029, "point_y": -41.49606716, "hecho": "2014", "rg": 10, "prefectura": "LLANQUIHUE", "zona": "ZONA DE LOS LAGOS", "uni_cod": "10018", "fid_dpa_co": null, "cine_prov": "101", "cod_com": null, "cine_com": "10103", "cine_reg": "10", "region": "Los Lagos", "provincia": "Llanquihue", "comuna": "Cochamó", "globalid": "d243520e-edfa-49c9-8db4-4a577eabf47e" }, "geometry": { "type": "Point", "coordinates": [ -72.335, -41.49607 ] } },
{ "type": "Feature", "properties": { "objectid": 2331, "fid_cuarte": null, "fid_": null, "nombre_uni": "RETEN COCHAMO", "tipo_de_un": "RETEN", "tipo_de_vi": "RUTA", "nombre_de": "RUTA V-69", "numero": "KM 46", "point_x": -72.30385328, "point_y": -41.49318716, "hecho": "2014", "rg": 10, "prefectura": "LLANQUIHUE", "zona": "ZONA DE LOS LAGOS", "uni_cod": "10020", "fid_dpa_co": null, "cine_prov": "101", "cod_com": null, "cine_com": "10103", "cine_reg": "10", "region": "Los Lagos", "provincia": "Llanquihue", "comuna": "Cochamó", "globalid": "7f6d6abc-45f4-44df-bcbd-53cdfb3f0da0" }, "geometry": { "type": "Point", "coordinates": [ -72.30385, -41.49319 ] } },
{ "type": "Feature", "properties": { "objectid": 2332, "fid_cuarte": null, "fid_": null, "nombre_uni": "RETEN CONTAO", "tipo_de_un": "RETEN", "tipo_de_vi": "RUTA", "nombre_de": "RUTA 7", "numero": "KM 55", "point_x": -72.71951931, "point_y": -41.80399256, "hecho": "2014", "rg": 10, "prefectura": "LLANQUIHUE", "zona": "ZONA DE LOS LAGOS", "uni_cod": "10021", "fid_dpa_co": null, "cine_prov": "104", "cod_com": null, "cine_com": "10403", "cine_reg": "10", "region": "Los Lagos", "provincia": "Palena", "comuna": "Hualaihué", "globalid": "aadae0cb-bab7-4024-8d70-81b0fdfb7c06" }, "geometry": { "type": "Point", "coordinates": [ -72.71952, -41.80399 ] } },
{ "type": "Feature", "properties": { "objectid": 2348, "fid_cuarte": null, "fid_": null, "nombre_uni": "RETEN LLANADA GRANDE (F)", "tipo_de_un": "RETEN", "tipo_de_vi": "RUTA", "nombre_de": "LLANADA GRANDE", "numero": "S/N", "point_x": -71.941640549999988, "point_y": -41.86964589, "hecho": "2014", "rg": 10, "prefectura": "LLANQUIHUE", "zona": "ZONA DE LOS LAGOS", "uni_cod": "10032", "fid_dpa_co": null, "cine_prov": "101", "cod_com": null, "cine_com": "10103", "cine_reg": "10", "region": "Los Lagos", "provincia": "Llanquihue", "comuna": "Cochamó", "globalid": "0067a234-9ce8-43a5-8cc2-e7f5be8ea13f" }, "geometry": { "type": "Point", "coordinates": [ -71.94164, -41.86965 ] } },
{ "type": "Feature", "properties": { "objectid": 2372, "fid_cuarte": null, "fid_": null, "nombre_uni": "RETEN RIO PUELO", "tipo_de_un": "RETEN", "tipo_de_vi": "CAMINO", "nombre_de": "CAMINO  PUBLICO", "numero": "S/N", "point_x": -72.30357044, "point_y": -41.66454683, "hecho": "2014", "rg": 10, "prefectura": "LLANQUIHUE", "zona": "ZONA DE LOS LAGOS", "uni_cod": "10054", "fid_dpa_co": null, "cine_prov": "101", "cod_com": null, "cine_com": "10103", "cine_reg": "10", "region": "Los Lagos", "provincia": "Llanquihue", "comuna": "Cochamó", "globalid": "23f3398b-f84a-43d1-8d2a-c36d02f30db1" }, "geometry": { "type": "Point", "coordinates": [ -72.30357, -41.66455 ] } },
{ "type": "Feature", "properties": { "objectid": 2389, "fid_cuarte": null, "fid_": null, "nombre_uni": "TCIA. HORNOPIREN (F)", "tipo_de_un": "TENENCIA", "tipo_de_vi": "CALLE", "nombre_de": "INGENIERO MILITAR", "numero": "S/N", "point_x": -72.475361310000011, "point_y": -41.96786575, "hecho": "2014", "rg": 10, "prefectura": "LLANQUIHUE", "zona": "ZONA DE LOS LAGOS", "uni_cod": "10081", "fid_dpa_co": null, "cine_prov": "104", "cod_com": null, "cine_com": "10403", "cine_reg": "10", "region": "Los Lagos", "provincia": "Palena", "comuna": "Hualaihué", "globalid": "c5b687c7-9a93-40d0-9b28-cb1e62c6dd7a" }, "geometry": { "type": "Point", "coordinates": [ -72.47536, -41.96787 ] } }
]
}
