{
"type": "FeatureCollection",
"name": "HUE",
"crs": { "type": "name", "properties": { "name": "urn:ogc:def:crs:OGC:1.3:CRS84" } },
"xy_coordinate_resolution": 1e-05,
"features": [
{ "type": "Feature", "properties": { "objectid": 2377, "fid_cuarte": null, "fid_": null, "nombre_uni": "RETEN VODUDAHUE (F)", "tipo_de_un": "RETEN", "tipo_de_vi": "RUTA", "nombre_de": "VODUDAHUE", "numero": "S/N", "point_x": -72.39130924, "point_y": -42.49017804, "hecho": "2014", "rg": 10, "prefectura": "LLANQUIHUE", "zona": "ZONA DE LOS LAGOS", "uni_cod": "10060", "fid_dpa_co": null, "cine_prov": "104", "cod_com": null, "cine_com": "10403", "cine_reg": "10", "region": "Los Lagos", "provincia": "Palena", "comuna": "Hualaihué", "globalid": "a6e00427-7052-4cf8-ae92-3b3b586ae91a" }, "geometry": { "type": "Point", "coordinates": [ -72.39131, -42.49018 ] } },
{ "type": "Feature", "properties": { "objectid": 2389, "fid_cuarte": null, "fid_": null, "nombre_uni": "TCIA. HORNOPIREN (F)", "tipo_de_un": "TENENCIA", "tipo_de_vi": "CALLE", "nombre_de": "INGENIERO MILITAR", "numero": "S/N", "point_x": -72.475361310000011, "point_y": -41.96786575, "hecho": "2014", "rg": 10, "prefectura": "LLANQUIHUE", "zona": "ZONA DE LOS LAGOS", "uni_cod": "10081", "fid_dpa_co": null, "cine_prov": "104", "cod_com": null, "cine_com": "10403", "cine_reg": "10", "region": "Los Lagos", "provincia": "Palena", "comuna": "Hualaihué", "globalid": "c5b687c7-9a93-40d0-9b28-cb1e62c6dd7a" }, "geometry": { "type": "Point", "coordinates": [ -72.47536, -41.96787 ] } },
{ "type": "Feature", "properties": { "objectid": 2442, "fid_cuarte": null, "fid_": null, "nombre_uni": "RETEN AYACARA", "tipo_de_un": "RETEN", "tipo_de_vi": "AVENIDA", "nombre_de": "COSTANERA", "numero": "S/N", "point_x": -72.78793964, "point_y": -42.31845129, "hecho": "2014", "rg": 10, "prefectura": "CHILOE", "zona": "ZONA DE LOS LAGOS", "uni_cod": "10015", "fid_dpa_co": null, "cine_prov": "104", "cod_com": null, "cine_com": "10401", "cine_reg": "10", "region": "Los Lagos", "provincia": "Palena", "comuna": "Chaitén", "globalid": "38363380-ae3a-4b5a-8e9b-bf4d3c34c5cd" }, "geometry": { "type": "Point", "coordinates": [ -72.78794, -42.31845 ] } }
]
}
