{
"type": "FeatureCollection",
"name": "IRR",
"crs": { "type": "name", "properties": { "name": "urn:ogc:def:crs:OGC:1.3:CRS84" } },
"xy_coordinate_resolution": 1e-05,
"features": [
{ "type": "Feature", "properties": { "objectid": 2546, "fid_cuarte": null, "fid_": null, "nombre_uni": "TCIA UJINA (F)", "tipo_de_un": "TENENCIA", "tipo_de_vi": "CAMINO", "nombre_de": "A-687", "numero": "KM 174", "point_x": -68.69484112000001, "point_y": -20.70808056, "hecho": "2014", "rg": 1, "prefectura": "IQUIQUE", "zona": "ZONA DE TARAPACA", "uni_cod": "01015", "fid_dpa_co": null, "cine_prov": "014", "cod_com": null, "cine_com": "01405", "cine_reg": "01", "region": "Tarapacá", "provincia": "Tamarugal", "comuna": "Pica", "globalid": "cf830505-a33f-4192-9a19-714a812db452" }, "geometry": { "type": "Point", "coordinates": [ -68.69484, -20.70808 ] } }
]
}
