{
"type": "FeatureCollection",
"name": "ISL",
"crs": { "type": "name", "properties": { "name": "urn:ogc:def:crs:OGC:1.3:CRS84" } },
"xy_coordinate_resolution": 1e-05,
"features": [
{ "type": "Feature", "properties": { "objectid": 2261, "fid_cuarte": null, "fid_": null, "nombre_uni": "RETEN CHILCAYA (F)", "tipo_de_un": "RETEN", "tipo_de_vi": "RUTA", "nombre_de": "RUTA A-253", "numero": "KM 8", "point_x": -69.08471178, "point_y": -18.79402893, "hecho": "2014", "rg": 15, "prefectura": "ARICA", "zona": "ZONA DE ARICA Y PARINACOTA", "uni_cod": "15008", "fid_dpa_co": null, "cine_prov": "152", "cod_com": null, "cine_com": "15201", "cine_reg": "15", "region": "Arica y Parinacota", "provincia": "Parinacota", "comuna": "Putre", "globalid": "88416197-8475-4b06-835c-05cb60114e33" }, "geometry": { "type": "Point", "coordinates": [ -69.08471, -18.79403 ] } },
{ "type": "Feature", "properties": { "objectid": 2543, "fid_cuarte": null, "fid_": null, "nombre_uni": "SCOM. COLCHANE (F)", "tipo_de_un": "SUBCOMISARIA", "tipo_de_vi": "RUTA", "nombre_de": "TENIENTE GONZALEZ", "numero": "S/N", "point_x": -68.63793334, "point_y": -19.27638288, "hecho": "2014", "rg": 1, "prefectura": "IQUIQUE", "zona": "ZONA DE TARAPACA", "uni_cod": "01012", "fid_dpa_co": null, "cine_prov": "014", "cod_com": null, "cine_com": "01403", "cine_reg": "01", "region": "Tarapacá", "provincia": "Tamarugal", "comuna": "Colchane", "globalid": "9ca48e96-ac9f-4370-90ab-72262df54ac0" }, "geometry": { "type": "Point", "coordinates": [ -68.63793, -19.27638 ] } }
]
}
