{
"type": "FeatureCollection",
"name": "LAN",
"crs": { "type": "name", "properties": { "name": "urn:ogc:def:crs:OGC:1.3:CRS84" } },
"xy_coordinate_resolution": 1e-05,
"features": [
{ "type": "Feature", "properties": { "objectid": 2114, "fid_cuarte": null, "fid_": null, "nombre_uni": "RETEN CONARIPE", "tipo_de_un": "RETEN", "tipo_de_vi": "CALLE", "nombre_de": "GUIDO BECK DE RAMBERGA", "numero": "307", "point_x": -72.00838503, "point_y": -39.56654039, "hecho": "2014", "rg": 14, "prefectura": "VALDIVIA", "zona": "ZONA DE LOS RIOS", "uni_cod": "14015", "fid_dpa_co": null, "cine_prov": "141", "cod_com": null, "cine_com": "14108", "cine_reg": "14", "region": "Los Ríos", "provincia": "Valdivia", "comuna": "Panguipulli", "globalid": "95505900-bb5e-4f15-9e4e-a6410da0ac47" }, "geometry": { "type": "Point", "coordinates": [ -72.00839, -39.56654 ] } },
{ "type": "Feature", "properties": { "objectid": 2124, "fid_cuarte": null, "fid_": null, "nombre_uni": "TCIA. LIQUINE (F)", "tipo_de_un": "TENENCIA", "tipo_de_vi": "RUTA", "nombre_de": "RUTA CH-201", "numero": "KM", "point_x": -71.85547217, "point_y": -39.74757816, "hecho": "2014", "rg": 14, "prefectura": "VALDIVIA", "zona": "ZONA DE LOS RIOS", "uni_cod": "14037", "fid_dpa_co": null, "cine_prov": "141", "cod_com": null, "cine_com": "14108", "cine_reg": "14", "region": "Los Ríos", "provincia": "Valdivia", "comuna": "Panguipulli", "globalid": "203cf872-3088-49c7-921d-3ad8bb31b297" }, "geometry": { "type": "Point", "coordinates": [ -71.85547, -39.74758 ] } },
{ "type": "Feature", "properties": { "objectid": 2130, "fid_cuarte": null, "fid_": null, "nombre_uni": "AVANZADA CARIRRINE (F)", "tipo_de_un": "AVANZADA", "tipo_de_vi": " ", "nombre_de": "SECTOR CARRIRINE", "numero": " ", "point_x": -71.70088115, "point_y": -39.77640195, "hecho": "2014", "rg": 14, "prefectura": "VALDIVIA", "zona": "ZONA DE LOS RIOS", "uni_cod": "14009", "fid_dpa_co": null, "cine_prov": "141", "cod_com": null, "cine_com": "14108", "cine_reg": "14", "region": "Los Ríos", "provincia": "Valdivia", "comuna": "Panguipulli", "globalid": "3c9ec03f-f1e8-4c12-8779-fd83c7825920" }, "geometry": { "type": "Point", "coordinates": [ -71.70088, -39.7764 ] } },
{ "type": "Feature", "properties": { "objectid": 2281, "fid_cuarte": null, "fid_": null, "nombre_uni": "RETEN NELTUME", "tipo_de_un": "RETEN", "tipo_de_vi": "RUTA", "nombre_de": "RUTA CH-203", "numero": "S/N", "point_x": -71.94550056, "point_y": -39.85104184, "hecho": "2014", "rg": 14, "prefectura": "VALDIVIA", "zona": "ZONA DE LOS RIOS", "uni_cod": "14023", "fid_dpa_co": null, "cine_prov": "141", "cod_com": null, "cine_com": "14108", "cine_reg": "14", "region": "Los Ríos", "provincia": "Valdivia", "comuna": "Panguipulli", "globalid": "7cfcd0f5-219c-4edd-b642-9ac37c169fc5" }, "geometry": { "type": "Point", "coordinates": [ -71.9455, -39.85104 ] } },
{ "type": "Feature", "properties": { "objectid": 2414, "fid_cuarte": null, "fid_": null, "nombre_uni": "RETEN CATRIPULLI", "tipo_de_un": "RETEN", "tipo_de_vi": "RUTA", "nombre_de": "RUTA S-199", "numero": "KM 104", "point_x": -71.70609011000001, "point_y": -39.34749678, "hecho": "2014", "rg": 9, "prefectura": "VILLARICA", "zona": "ZONA DE LA ARAUCANIA", "uni_cod": "09018", "fid_dpa_co": null, "cine_prov": "091", "cod_com": null, "cine_com": "09104", "cine_reg": "09", "region": "La Araucanía", "provincia": "Cautín", "comuna": "Curarrehue", "globalid": "74b4bdb0-a208-491e-ada6-08575fabf91c" }, "geometry": { "type": "Point", "coordinates": [ -71.70609, -39.3475 ] } },
{ "type": "Feature", "properties": { "objectid": 2464, "fid_cuarte": null, "fid_": null, "nombre_uni": "TCIA. CURARREHUE (F)", "tipo_de_un": "TENENCIA", "tipo_de_vi": "AVENIDA", "nombre_de": "BERNARDO O'HIGGINS", "numero": "603", "point_x": -71.587532180000011, "point_y": -39.35946298, "hecho": "2014", "rg": 9, "prefectura": "VILLARICA", "zona": "ZONA DE LA ARAUCANIA", "uni_cod": "09065", "fid_dpa_co": null, "cine_prov": "091", "cod_com": null, "cine_com": "09104", "cine_reg": "09", "region": "La Araucanía", "provincia": "Cautín", "comuna": "Curarrehue", "globalid": "e583d3d5-e92e-4e54-a022-c04c43307758" }, "geometry": { "type": "Point", "coordinates": [ -71.58753, -39.35946 ] } }
]
}
