{
"type": "FeatureCollection",
"name": "LDM",
"crs": { "type": "name", "properties": { "name": "urn:ogc:def:crs:OGC:1.3:CRS84" } },
"xy_coordinate_resolution": 1e-05,
"features": [
{ "type": "Feature", "properties": { "objectid": 2244, "fid_cuarte": null, "fid_": null, "nombre_uni": "RETEN EL MELADO (F)", "tipo_de_un": "RETEN", "tipo_de_vi": "CAMINO", "nombre_de": "QUEBRADA DE MEDINA", "numero": "S/N", "point_x": -71.054268, "point_y": -35.856791, "hecho": "2014", "rg": 7, "prefectura": "LINARES", "zona": "ZONA DEL MAULE", "uni_cod": "07038", "fid_dpa_co": null, "cine_prov": "074", "cod_com": null, "cine_com": "07401", "cine_reg": "07", "region": "Maule", "provincia": "Linares", "comuna": "Linares", "globalid": "953b0aa8-ac71-4662-9b65-4ebab1ba4aa2" }, "geometry": { "type": "Point", "coordinates": [ -71.05427, -35.85679 ] } },
{ "type": "Feature", "properties": { "objectid": 2721, "fid_cuarte": null, "fid_": null, "nombre_uni": "AVANZADA CABECERAS DEL GRANDE", "tipo_de_un": "AVANZADA", "tipo_de_vi": "s/i", "nombre_de": "SECTOR CABECERAS DEL GRANDE", "numero": "s/i", "point_x": -70.4827234, "point_y": -35.75024838, "hecho": "2014", "rg": 7, "prefectura": "TALCA", "zona": "ZONA DEL MAULE", "uni_cod": "07014", "fid_dpa_co": null, "cine_prov": "071", "cod_com": null, "cine_com": "07109", "cine_reg": "07", "region": "Maule", "provincia": "Talca", "comuna": "San Clemente", "globalid": "4a31152c-94e7-4359-b934-30746cc11aca" }, "geometry": { "type": "Point", "coordinates": [ -70.48272, -35.75025 ] } },
{ "type": "Feature", "properties": { "objectid": 2723, "fid_cuarte": null, "fid_": null, "nombre_uni": "AVANZADA LAS TORRES", "tipo_de_un": "AVANZADA", "tipo_de_vi": "s/i", "nombre_de": "SECTOR LAS TORRES", "numero": "s/i", "point_x": -70.45116877, "point_y": -35.85094111, "hecho": "2014", "rg": 7, "prefectura": "TALCA", "zona": "ZONA DEL MAULE", "uni_cod": "07016", "fid_dpa_co": null, "cine_prov": "071", "cod_com": null, "cine_com": "07109", "cine_reg": "07", "region": "Maule", "provincia": "Talca", "comuna": "San Clemente", "globalid": "cae814b0-cc9c-440c-b1e7-970fffe86d17" }, "geometry": { "type": "Point", "coordinates": [ -70.45117, -35.85094 ] } },
{ "type": "Feature", "properties": { "objectid": 2726, "fid_cuarte": null, "fid_": null, "nombre_uni": "AVANZADA PIEDRAS COLORADAS", "tipo_de_un": "AVANZADA", "tipo_de_vi": "s/i", "nombre_de": "SECTOR PIEDRAS COLORADAS", "numero": "s/i", "point_x": -70.487448, "point_y": -36.095892, "hecho": "2014", "rg": 7, "prefectura": "TALCA", "zona": "ZONA DEL MAULE", "uni_cod": "07019", "fid_dpa_co": null, "cine_prov": "071", "cod_com": null, "cine_com": "07109", "cine_reg": "07", "region": "Maule", "provincia": "Talca", "comuna": "San Clemente", "globalid": "99c5145e-1d27-40ac-ae48-f64e15d80b2b" }, "geometry": { "type": "Point", "coordinates": [ -70.48745, -36.09589 ] } },
{ "type": "Feature", "properties": { "objectid": 2735, "fid_cuarte": null, "fid_": null, "nombre_uni": "TCIA. LA MINA (F)", "tipo_de_un": "TENENCIA", "tipo_de_vi": "RUTA", "nombre_de": "RUTA CH-115", "numero": "KM 104", "point_x": -70.7943757, "point_y": -35.824751, "hecho": "2014", "rg": 7, "prefectura": "TALCA", "zona": "ZONA DEL MAULE", "uni_cod": "07052", "fid_dpa_co": null, "cine_prov": "071", "cod_com": null, "cine_com": "07109", "cine_reg": "07", "region": "Maule", "provincia": "Talca", "comuna": "San Clemente", "globalid": "904fbb0d-e846-404e-91ef-d5a78f1c67c2" }, "geometry": { "type": "Point", "coordinates": [ -70.79438, -35.82475 ] } }
]
}
