{
"type": "FeatureCollection",
"name": "LLA",
"crs": { "type": "name", "properties": { "name": "urn:ogc:def:crs:OGC:1.3:CRS84" } },
"xy_coordinate_resolution": 1e-05,
"features": [
{ "type": "Feature", "properties": { "objectid": 2397, "fid_cuarte": null, "fid_": null, "nombre_uni": "SCOM. LONQUIMAY (F)", "tipo_de_un": "SUBCOMISARIA", "tipo_de_vi": "CALLE", "nombre_de": "BERNARDO O'HIGGINS", "numero": "1301", "point_x": -71.37071, "point_y": -38.4531993, "hecho": "2014", "rg": 9, "prefectura": "MALLECO", "zona": "ZONA DE LA ARAUCANIA", "uni_cod": "09001", "fid_dpa_co": null, "cine_prov": "092", "cod_com": null, "cine_com": "09205", "cine_reg": "09", "region": "La Araucanía", "provincia": "Malleco", "comuna": "Lonquimay", "globalid": "62b87b91-2af4-4c0a-bf47-91b04733907b" }, "geometry": { "type": "Point", "coordinates": [ -71.37071, -38.4532 ] } },
{ "type": "Feature", "properties": { "objectid": 2406, "fid_cuarte": null, "fid_": null, "nombre_uni": "5TA. COM. CURACAUTIN", "tipo_de_un": "COMISARIA", "tipo_de_vi": "CALLE", "nombre_de": "ARAUCO", "numero": "235", "point_x": -71.88338773000001, "point_y": -38.43888561, "hecho": "2014", "rg": 9, "prefectura": "MALLECO", "zona": "ZONA DE LA ARAUCANIA", "uni_cod": "09010", "fid_dpa_co": null, "cine_prov": "092", "cod_com": null, "cine_com": "09203", "cine_reg": "09", "region": "La Araucanía", "provincia": "Malleco", "comuna": "Curacautín", "globalid": "b68ef30f-ef74-458f-a5fb-61da49c0f473" }, "geometry": { "type": "Point", "coordinates": [ -71.88339, -38.43889 ] } },
{ "type": "Feature", "properties": { "objectid": 2415, "fid_cuarte": null, "fid_": null, "nombre_uni": "RETEN CHERQUENCO", "tipo_de_un": "RETEN", "tipo_de_vi": "CALLE", "nombre_de": "MENDOZA", "numero": "S/N", "point_x": -72.0025823, "point_y": -38.68550294, "hecho": "2014", "rg": 9, "prefectura": "CAUTIN", "zona": "ZONA DE LA ARAUCANIA", "uni_cod": "09019", "fid_dpa_co": null, "cine_prov": "091", "cod_com": null, "cine_com": "09119", "cine_reg": "09", "region": "La Araucanía", "provincia": "Cautín", "comuna": "Vilcún", "globalid": "bf5e055d-5294-426e-aead-d79b34707082" }, "geometry": { "type": "Point", "coordinates": [ -72.00258, -38.6855 ] } },
{ "type": "Feature", "properties": { "objectid": 2419, "fid_cuarte": null, "fid_": null, "nombre_uni": "RETEN DOLLINCO", "tipo_de_un": "RETEN", "tipo_de_vi": "RUTA", "nombre_de": "RUTA S-11", "numero": "KM 26", "point_x": -72.14759663, "point_y": -38.4849101, "hecho": "2014", "rg": 9, "prefectura": "CAUTIN", "zona": "ZONA DE LA ARAUCANIA", "uni_cod": "09023", "fid_dpa_co": null, "cine_prov": "091", "cod_com": null, "cine_com": "09108", "cine_reg": "09", "region": "La Araucanía", "provincia": "Cautín", "comuna": "Lautaro", "globalid": "2913a0a6-2fe9-4cc1-8419-39b4493d581e" }, "geometry": { "type": "Point", "coordinates": [ -72.1476, -38.48491 ] } },
{ "type": "Feature", "properties": { "objectid": 2423, "fid_cuarte": null, "fid_": null, "nombre_uni": "RETEN ICALMA (F)", "tipo_de_un": "RETEN", "tipo_de_vi": "RUTA", "nombre_de": "RUTA R-95", "numero": "KM 32", "point_x": -71.282469479999989, "point_y": -38.81144204, "hecho": "2014", "rg": 9, "prefectura": "MALLECO", "zona": "ZONA DE LA ARAUCANIA", "uni_cod": "09027", "fid_dpa_co": null, "cine_prov": "092", "cod_com": null, "cine_com": "09205", "cine_reg": "09", "region": "La Araucanía", "provincia": "Malleco", "comuna": "Lonquimay", "globalid": "ed57fb2a-6809-408a-ae95-10be1ad196ca" }, "geometry": { "type": "Point", "coordinates": [ -71.28247, -38.81144 ] } },
{ "type": "Feature", "properties": { "objectid": 2425, "fid_cuarte": null, "fid_": null, "nombre_uni": "RETEN LAS HORTENSIAS", "tipo_de_un": "RETEN", "tipo_de_vi": "AVENIDA", "nombre_de": "FLOR", "numero": "S/N", "point_x": -72.15199793, "point_y": -38.94090113, "hecho": "2014", "rg": 9, "prefectura": "VILLARICA", "zona": "ZONA DE LA ARAUCANIA", "uni_cod": "09029", "fid_dpa_co": null, "cine_prov": "091", "cod_com": null, "cine_com": "09103", "cine_reg": "09", "region": "La Araucanía", "provincia": "Cautín", "comuna": "Cunco", "globalid": "d534b3c3-987a-4ad7-a3fa-4b53b64a33c8" }, "geometry": { "type": "Point", "coordinates": [ -72.152, -38.9409 ] } },
{ "type": "Feature", "properties": { "objectid": 2430, "fid_cuarte": null, "fid_": null, "nombre_uni": "RETEN MALALCAHUELLO", "tipo_de_un": "RETEN", "tipo_de_vi": "CALLE", "nombre_de": "CRISTOBAL COLON", "numero": "350", "point_x": -71.58191772000001, "point_y": -38.4739774, "hecho": "2014", "rg": 9, "prefectura": "MALLECO", "zona": "ZONA DE LA ARAUCANIA", "uni_cod": "09034", "fid_dpa_co": null, "cine_prov": "092", "cod_com": null, "cine_com": "09203", "cine_reg": "09", "region": "La Araucanía", "provincia": "Malleco", "comuna": "Curacautín", "globalid": "bd13fa2a-cb14-4cfa-9c4d-6d69cd920b1a" }, "geometry": { "type": "Point", "coordinates": [ -71.58192, -38.47398 ] } },
{ "type": "Feature", "properties": { "objectid": 2431, "fid_cuarte": null, "fid_": null, "nombre_uni": "RETEN MANZANAR", "tipo_de_un": "RETEN", "tipo_de_vi": "RUTA", "nombre_de": "RUTA CH-181", "numero": "KM 75", "point_x": -71.70112669, "point_y": -38.4667495, "hecho": "2014", "rg": 9, "prefectura": "MALLECO", "zona": "ZONA DE LA ARAUCANIA", "uni_cod": "09035", "fid_dpa_co": null, "cine_prov": "092", "cod_com": null, "cine_com": "09203", "cine_reg": "09", "region": "La Araucanía", "provincia": "Malleco", "comuna": "Curacautín", "globalid": "102d1914-62ae-426c-8eee-83d47079db58" }, "geometry": { "type": "Point", "coordinates": [ -71.70113, -38.46675 ] } },
{ "type": "Feature", "properties": { "objectid": 2432, "fid_cuarte": null, "fid_": null, "nombre_uni": "RETEN MELIPEUCO (F)", "tipo_de_un": "RETEN", "tipo_de_vi": "CALLE", "nombre_de": "PEDRO AGUIRRE CERDA", "numero": "S/N", "point_x": -71.70133975, "point_y": -38.85570876, "hecho": "2014", "rg": 9, "prefectura": "VILLARICA", "zona": "ZONA DE LA ARAUCANIA", "uni_cod": "09036", "fid_dpa_co": null, "cine_prov": "091", "cod_com": null, "cine_com": "09110", "cine_reg": "09", "region": "La Araucanía", "provincia": "Cautín", "comuna": "Melipeuco", "globalid": "e307c4f4-68bb-40c1-97ff-a8e8c60caa33" }, "geometry": { "type": "Point", "coordinates": [ -71.70134, -38.85571 ] } },
{ "type": "Feature", "properties": { "objectid": 2463, "fid_cuarte": null, "fid_": null, "nombre_uni": "SCOM. CUNCO", "tipo_de_un": "SUBCOMISARIA", "tipo_de_vi": "CALLE", "nombre_de": "SANTA MARIA", "numero": "181", "point_x": -72.03547951, "point_y": -38.93182858, "hecho": "2014", "rg": 9, "prefectura": "VILLARICA", "zona": "ZONA DE LA ARAUCANIA", "uni_cod": "09064", "fid_dpa_co": null, "cine_prov": "091", "cod_com": null, "cine_com": "09103", "cine_reg": "09", "region": "La Araucanía", "provincia": "Cautín", "comuna": "Cunco", "globalid": "59bff076-72ca-47b4-9b14-7bd4727115dd" }, "geometry": { "type": "Point", "coordinates": [ -72.03548, -38.93183 ] } },
{ "type": "Feature", "properties": { "objectid": 2475, "fid_cuarte": null, "fid_": null, "nombre_uni": "TCIA. VILCUN", "tipo_de_un": "TENENCIA", "tipo_de_vi": "CALLE", "nombre_de": "CHORRILLOS", "numero": "391", "point_x": -72.22478367, "point_y": -38.67130151, "hecho": "2014", "rg": 9, "prefectura": "CAUTIN", "zona": "ZONA DE LA ARAUCANIA", "uni_cod": "09076", "fid_dpa_co": null, "cine_prov": "091", "cod_com": null, "cine_com": "09119", "cine_reg": "09", "region": "La Araucanía", "provincia": "Cautín", "comuna": "Vilcún", "globalid": "1a9de82c-d24f-427a-a0b5-521d5658fea0" }, "geometry": { "type": "Point", "coordinates": [ -72.22478, -38.6713 ] } },
{ "type": "Feature", "properties": { "objectid": 2618, "fid_cuarte": null, "fid_": null, "nombre_uni": "RETEN SAN PATRICIO", "tipo_de_un": "RETEN", "tipo_de_vi": "AVENIDA", "nombre_de": "INGLESA", "numero": "S/N", "point_x": -72.12209975, "point_y": -38.66121277, "hecho": "2014", "rg": 9, "prefectura": "CAUTIN", "zona": "ZONA DE LA ARAUCANIA", "uni_cod": "09051", "fid_dpa_co": null, "cine_prov": "091", "cod_com": null, "cine_com": "09119", "cine_reg": "09", "region": "La Araucanía", "provincia": "Cautín", "comuna": "Vilcún", "globalid": "91337fa1-ad50-4aed-9f6e-89cedc947084" }, "geometry": { "type": "Point", "coordinates": [ -72.1221, -38.66121 ] } },
{ "type": "Feature", "properties": { "objectid": 2620, "fid_cuarte": null, "fid_": null, "nombre_uni": "RETEN SIERRA NEVADA", "tipo_de_un": "RETEN", "tipo_de_vi": "RUTA", "nombre_de": "RUTA CH-181", "numero": "KM 102", "point_x": -71.47562867000001, "point_y": -38.5632956, "hecho": "2014", "rg": 9, "prefectura": "MALLECO", "zona": "ZONA DE LA ARAUCANIA", "uni_cod": "09053", "fid_dpa_co": null, "cine_prov": "092", "cod_com": null, "cine_com": "09205", "cine_reg": "09", "region": "La Araucanía", "provincia": "Malleco", "comuna": "Lonquimay", "globalid": "63cc87e3-8824-47d5-942d-246805207904" }, "geometry": { "type": "Point", "coordinates": [ -71.47563, -38.5633 ] } }
]
}
