{
"type": "FeatureCollection",
"name": "MCH",
"crs": { "type": "name", "properties": { "name": "urn:ogc:def:crs:OGC:1.3:CRS84" } },
"xy_coordinate_resolution": 1e-05,
"features": [
{ "type": "Feature", "properties": { "objectid": 2108, "fid_cuarte": null, "fid_": null, "nombre_uni": "5TA. COM. PANGUIPULLI", "tipo_de_un": "COMISARIA", "tipo_de_vi": "CALLE", "nombre_de": "BERNARDO O'HIGGINS", "numero": "1255", "point_x": -72.336915, "point_y": -39.641206, "hecho": "2014", "rg": 14, "prefectura": "VALDIVIA", "zona": "ZONA DE LOS RIOS", "uni_cod": "14008", "fid_dpa_co": null, "cine_prov": "141", "cod_com": null, "cine_com": "14108", "cine_reg": "14", "region": "Los Ríos", "provincia": "Valdivia", "comuna": "Panguipulli", "globalid": "9a381c27-5c9f-4fd9-9c88-35615485c827" }, "geometry": { "type": "Point", "coordinates": [ -72.33692, -39.64121 ] } },
{ "type": "Feature", "properties": { "objectid": 2109, "fid_cuarte": null, "fid_": null, "nombre_uni": "AVANZADA CHABRANCO (T.F.)", "tipo_de_un": "AVANZADA", "tipo_de_vi": " ", "nombre_de": "SECTOR LILPELA", "numero": " ", "point_x": -71.95656859, "point_y": -40.23185133, "hecho": "2014", "rg": 14, "prefectura": "VALDIVIA", "zona": "ZONA DE LOS RIOS", "uni_cod": "14010", "fid_dpa_co": null, "cine_prov": "142", "cod_com": null, "cine_com": "14202", "cine_reg": "14", "region": "Los Ríos", "provincia": "Ranco", "comuna": "Futrono", "globalid": "8dad5b18-8c90-4edc-a35a-febe03e7343e" }, "geometry": { "type": "Point", "coordinates": [ -71.95657, -40.23185 ] } },
{ "type": "Feature", "properties": { "objectid": 2113, "fid_cuarte": null, "fid_": null, "nombre_uni": "RETEN CHOSHUENCO", "tipo_de_un": "RETEN", "tipo_de_vi": "CALLE", "nombre_de": "SAN MARTIN", "numero": "300", "point_x": -72.08374552, "point_y": -39.8375839, "hecho": "2014", "rg": 14, "prefectura": "VALDIVIA", "zona": "ZONA DE LOS RIOS", "uni_cod": "14014", "fid_dpa_co": null, "cine_prov": "141", "cod_com": null, "cine_com": "14108", "cine_reg": "14", "region": "Los Ríos", "provincia": "Valdivia", "comuna": "Panguipulli", "globalid": "c832f886-7881-45f2-915f-d665f5355282" }, "geometry": { "type": "Point", "coordinates": [ -72.08375, -39.83758 ] } },
{ "type": "Feature", "properties": { "objectid": 2114, "fid_cuarte": null, "fid_": null, "nombre_uni": "RETEN CONARIPE", "tipo_de_un": "RETEN", "tipo_de_vi": "CALLE", "nombre_de": "GUIDO BECK DE RAMBERGA", "numero": "307", "point_x": -72.00838503, "point_y": -39.56654039, "hecho": "2014", "rg": 14, "prefectura": "VALDIVIA", "zona": "ZONA DE LOS RIOS", "uni_cod": "14015", "fid_dpa_co": null, "cine_prov": "141", "cod_com": null, "cine_com": "14108", "cine_reg": "14", "region": "Los Ríos", "provincia": "Valdivia", "comuna": "Panguipulli", "globalid": "95505900-bb5e-4f15-9e4e-a6410da0ac47" }, "geometry": { "type": "Point", "coordinates": [ -72.00839, -39.56654 ] } },
{ "type": "Feature", "properties": { "objectid": 2122, "fid_cuarte": null, "fid_": null, "nombre_uni": "TCIA. FUTRONO", "tipo_de_un": "TENENCIA", "tipo_de_vi": "CALLE", "nombre_de": "JOSE MIGUEL BALMACEDA", "numero": "10", "point_x": -72.39383959, "point_y": -40.12783597, "hecho": "2014", "rg": 14, "prefectura": "VALDIVIA", "zona": "ZONA DE LOS RIOS", "uni_cod": "14035", "fid_dpa_co": null, "cine_prov": "142", "cod_com": null, "cine_com": "14202", "cine_reg": "14", "region": "Los Ríos", "provincia": "Ranco", "comuna": "Futrono", "globalid": "57d86de5-5408-4785-9ef1-3ff1b527063a" }, "geometry": { "type": "Point", "coordinates": [ -72.39384, -40.12784 ] } },
{ "type": "Feature", "properties": { "objectid": 2124, "fid_cuarte": null, "fid_": null, "nombre_uni": "TCIA. LIQUINE (F)", "tipo_de_un": "TENENCIA", "tipo_de_vi": "RUTA", "nombre_de": "RUTA CH-201", "numero": "KM", "point_x": -71.85547217, "point_y": -39.74757816, "hecho": "2014", "rg": 14, "prefectura": "VALDIVIA", "zona": "ZONA DE LOS RIOS", "uni_cod": "14037", "fid_dpa_co": null, "cine_prov": "141", "cod_com": null, "cine_com": "14108", "cine_reg": "14", "region": "Los Ríos", "provincia": "Valdivia", "comuna": "Panguipulli", "globalid": "203cf872-3088-49c7-921d-3ad8bb31b297" }, "geometry": { "type": "Point", "coordinates": [ -71.85547, -39.74758 ] } },
{ "type": "Feature", "properties": { "objectid": 2126, "fid_cuarte": null, "fid_": null, "nombre_uni": "TCIA. PIRIHUEICO (F)", "tipo_de_un": "TENENCIA", "tipo_de_vi": "RUTA", "nombre_de": "RUTA CH-203", "numero": "KM", "point_x": -71.67856491000001, "point_y": -40.09690508, "hecho": "2014", "rg": 14, "prefectura": "VALDIVIA", "zona": "ZONA DE LOS RIOS", "uni_cod": "14040", "fid_dpa_co": null, "cine_prov": "141", "cod_com": null, "cine_com": "14108", "cine_reg": "14", "region": "Los Ríos", "provincia": "Valdivia", "comuna": "Panguipulli", "globalid": "d1bb8112-b4e0-4f26-8752-19f53617818d" }, "geometry": { "type": "Point", "coordinates": [ -71.67856, -40.09691 ] } },
{ "type": "Feature", "properties": { "objectid": 2130, "fid_cuarte": null, "fid_": null, "nombre_uni": "AVANZADA CARIRRINE (F)", "tipo_de_un": "AVANZADA", "tipo_de_vi": " ", "nombre_de": "SECTOR CARRIRINE", "numero": " ", "point_x": -71.70088115, "point_y": -39.77640195, "hecho": "2014", "rg": 14, "prefectura": "VALDIVIA", "zona": "ZONA DE LOS RIOS", "uni_cod": "14009", "fid_dpa_co": null, "cine_prov": "141", "cod_com": null, "cine_com": "14108", "cine_reg": "14", "region": "Los Ríos", "provincia": "Valdivia", "comuna": "Panguipulli", "globalid": "3c9ec03f-f1e8-4c12-8779-fd83c7825920" }, "geometry": { "type": "Point", "coordinates": [ -71.70088, -39.7764 ] } },
{ "type": "Feature", "properties": { "objectid": 2235, "fid_cuarte": null, "fid_": null, "nombre_uni": "RETEN RININAHUE (F)", "tipo_de_un": "RETEN", "tipo_de_vi": "RUTA", "nombre_de": "RUTA T-85", "numero": "KM 24", "point_x": -72.21121821, "point_y": -40.32220097, "hecho": "2014", "rg": 14, "prefectura": "VALDIVIA", "zona": "ZONA DE LOS RIOS", "uni_cod": "14029", "fid_dpa_co": null, "cine_prov": "142", "cod_com": null, "cine_com": "14203", "cine_reg": "14", "region": "Los Ríos", "provincia": "Ranco", "comuna": "Lago Ranco", "globalid": "ddddc61e-13de-46bd-a8d6-bfa16e1a9488" }, "geometry": { "type": "Point", "coordinates": [ -72.21122, -40.3222 ] } },
{ "type": "Feature", "properties": { "objectid": 2277, "fid_cuarte": null, "fid_": null, "nombre_uni": "RETEN LLIFEN (F)", "tipo_de_un": "RETEN", "tipo_de_vi": "RUTA", "nombre_de": "RUTA T-55", "numero": "KM 22", "point_x": -72.25873704, "point_y": -40.19808257, "hecho": "2014", "rg": 14, "prefectura": "VALDIVIA", "zona": "ZONA DE LOS RIOS", "uni_cod": "14019", "fid_dpa_co": null, "cine_prov": "142", "cod_com": null, "cine_com": "14202", "cine_reg": "14", "region": "Los Ríos", "provincia": "Ranco", "comuna": "Futrono", "globalid": "04cd3b99-f5ea-43a7-a155-be072850d393" }, "geometry": { "type": "Point", "coordinates": [ -72.25874, -40.19808 ] } },
{ "type": "Feature", "properties": { "objectid": 2281, "fid_cuarte": null, "fid_": null, "nombre_uni": "RETEN NELTUME", "tipo_de_un": "RETEN", "tipo_de_vi": "RUTA", "nombre_de": "RUTA CH-203", "numero": "S/N", "point_x": -71.94550056, "point_y": -39.85104184, "hecho": "2014", "rg": 14, "prefectura": "VALDIVIA", "zona": "ZONA DE LOS RIOS", "uni_cod": "14023", "fid_dpa_co": null, "cine_prov": "141", "cod_com": null, "cine_com": "14108", "cine_reg": "14", "region": "Los Ríos", "provincia": "Valdivia", "comuna": "Panguipulli", "globalid": "7cfcd0f5-219c-4edd-b642-9ac37c169fc5" }, "geometry": { "type": "Point", "coordinates": [ -71.9455, -39.85104 ] } },
{ "type": "Feature", "properties": { "objectid": 2286, "fid_cuarte": null, "fid_": null, "nombre_uni": "RETEN RINIHUE", "tipo_de_un": "RETEN", "tipo_de_vi": "CALLE", "nombre_de": "CHOSHUENCO", "numero": "S/N", "point_x": -72.44284038000001, "point_y": -39.81964648, "hecho": "2014", "rg": 14, "prefectura": "VALDIVIA", "zona": "ZONA DE LOS RIOS", "uni_cod": "14028", "fid_dpa_co": null, "cine_prov": "141", "cod_com": null, "cine_com": "14104", "cine_reg": "14", "region": "Los Ríos", "provincia": "Valdivia", "comuna": "Los Lagos", "globalid": "ade10d5b-a404-47ac-924a-4ea7095bf32a" }, "geometry": { "type": "Point", "coordinates": [ -72.44284, -39.81965 ] } }
]
}
