{
"type": "FeatureCollection",
"name": "NCH",
"crs": { "type": "name", "properties": { "name": "urn:ogc:def:crs:OGC:1.3:CRS84" } },
"xy_coordinate_resolution": 1e-05,
"features": [
{ "type": "Feature", "properties": { "objectid": 2089, "fid_cuarte": null, "fid_": null, "nombre_uni": "TCIA. PINTO", "tipo_de_un": "TENENCIA", "tipo_de_vi": "CALLE", "nombre_de": "ERNESTO RIQUELME", "numero": "S/N", "point_x": -71.89268009, "point_y": -36.70198459, "hecho": "2014", "rg": 16, "prefectura": "NUBLE", "zona": "ZONA DE NUBLE", "uni_cod": "08107", "fid_dpa_co": null, "cine_prov": "161", "cod_com": null, "cine_com": "16106", "cine_reg": "16", "region": "Ñuble", "provincia": "Diguillín", "comuna": "Pinto", "globalid": "313e66b4-e3b7-49e8-8265-36a66b068189" }, "geometry": { "type": "Point", "coordinates": [ -71.89268, -36.70198 ] } },
{ "type": "Feature", "properties": { "objectid": 2566, "fid_cuarte": null, "fid_": null, "nombre_uni": "RETEN EL ROBLE", "tipo_de_un": "RETEN", "tipo_de_vi": " ", "nombre_de": "SECTOR EL ROBLE", "numero": " ", "point_x": -71.25910884000001, "point_y": -36.74411123, "hecho": "2019", "rg": 16, "prefectura": "NUBLE", "zona": "ZONA DE NUBLE", "uni_cod": " ", "fid_dpa_co": null, "cine_prov": "163", "cod_com": null, "cine_com": "16304", "cine_reg": "16", "region": "Ñuble", "provincia": "Punilla", "comuna": "San Fabián", "globalid": "68b5831b-43c7-42cb-81dd-764d073134b9" }, "geometry": { "type": "Point", "coordinates": [ -71.25911, -36.74411 ] } },
{ "type": "Feature", "properties": { "objectid": 2613, "fid_cuarte": null, "fid_": null, "nombre_uni": "RETEN RECINTO", "tipo_de_un": "RETEN", "tipo_de_vi": "RUTA", "nombre_de": "RUTA N-55", "numero": "KM 53", "point_x": -71.65815612, "point_y": -36.84568517, "hecho": "2014", "rg": 16, "prefectura": "NUBLE", "zona": "ZONA DE NUBLE", "uni_cod": "08062", "fid_dpa_co": null, "cine_prov": "161", "cod_com": null, "cine_com": "16106", "cine_reg": "16", "region": "Ñuble", "provincia": "Diguillín", "comuna": "Pinto", "globalid": "a3aed085-b3fb-49cd-8282-b5d6596dcdea" }, "geometry": { "type": "Point", "coordinates": [ -71.65816, -36.84569 ] } },
{ "type": "Feature", "properties": { "objectid": 2631, "fid_cuarte": null, "fid_": null, "nombre_uni": "RETEN TANILVORO", "tipo_de_un": "RETEN", "tipo_de_vi": "RUTA", "nombre_de": "RUTA N-545", "numero": "KM 32", "point_x": -71.82093939, "point_y": -36.7265063, "hecho": "2014", "rg": 16, "prefectura": "NUBLE", "zona": "ZONA DE NUBLE", "uni_cod": "08075", "fid_dpa_co": null, "cine_prov": "163", "cod_com": null, "cine_com": "16302", "cine_reg": "16", "region": "Ñuble", "provincia": "Punilla", "comuna": "Coihueco", "globalid": "a9018682-dd93-4c90-bb16-c95363627dc6" }, "geometry": { "type": "Point", "coordinates": [ -71.82094, -36.72651 ] } },
{ "type": "Feature", "properties": { "objectid": 2638, "fid_cuarte": null, "fid_": null, "nombre_uni": "SCOM. COIHUECO", "tipo_de_un": "SUBCOMISARIA", "tipo_de_vi": "CALLE", "nombre_de": "SAN MARTIN", "numero": "1598", "point_x": -71.83941438, "point_y": -36.62885631, "hecho": "2014", "rg": 16, "prefectura": "NUBLE", "zona": "ZONA DE NUBLE", "uni_cod": "08084", "fid_dpa_co": null, "cine_prov": "163", "cod_com": null, "cine_com": "16302", "cine_reg": "16", "region": "Ñuble", "provincia": "Punilla", "comuna": "Coihueco", "globalid": "e9297070-6198-4795-a2fb-e454e8ef369e" }, "geometry": { "type": "Point", "coordinates": [ -71.83941, -36.62886 ] } },
{ "type": "Feature", "properties": { "objectid": 2642, "fid_cuarte": null, "fid_": null, "nombre_uni": "SCOM. SAN FABIAN (F)", "tipo_de_un": "SUBCOMISARIA", "tipo_de_vi": "AVENIDA", "nombre_de": "ANDES", "numero": "S/N", "point_x": -71.54845563000001, "point_y": -36.55983565, "hecho": "2014", "rg": 16, "prefectura": "NUBLE", "zona": "ZONA DE NUBLE", "uni_cod": "08088", "fid_dpa_co": null, "cine_prov": "163", "cod_com": null, "cine_com": "16304", "cine_reg": "16", "region": "Ñuble", "provincia": "Punilla", "comuna": "San Fabián", "globalid": "1c459c3d-fc96-401c-a1d3-fed2389e9466" }, "geometry": { "type": "Point", "coordinates": [ -71.54846, -36.55984 ] } },
{ "type": "Feature", "properties": { "objectid": 2647, "fid_cuarte": null, "fid_": null, "nombre_uni": "AVANZADA CUATRO JUNTAS", "tipo_de_un": "AVANZADA", "tipo_de_vi": "s/i", "nombre_de": "SECTOR CUATRO JUNTAS", "numero": "s/i", "point_x": -71.32051021, "point_y": -37.21617303, "hecho": "2014", "rg": 8, "prefectura": "BIO BIO", "zona": "ZONA DEL BIOBIO", "uni_cod": "08027", "fid_dpa_co": null, "cine_prov": "083", "cod_com": null, "cine_com": "08302", "cine_reg": "08", "region": "Biobío", "provincia": "Biobío", "comuna": "Antuco", "globalid": "6b6c0749-32f9-44af-abe5-cb2bf5e82eae" }, "geometry": { "type": "Point", "coordinates": [ -71.32051, -37.21617 ] } },
{ "type": "Feature", "properties": { "objectid": 2650, "fid_cuarte": null, "fid_": null, "nombre_uni": "AVANZADA LOS COLUMPIOS (T.F.)", "tipo_de_un": "AVANZADA", "tipo_de_vi": "s/i", "nombre_de": "CAJON LAS AGUILAS PINTO", "numero": "s/i", "point_x": -71.29808439, "point_y": -37.03261272, "hecho": "2014", "rg": 16, "prefectura": "NUBLE", "zona": "ZONA DE NUBLE", "uni_cod": "08030", "fid_dpa_co": null, "cine_prov": "161", "cod_com": null, "cine_com": "16106", "cine_reg": "16", "region": "Ñuble", "provincia": "Diguillín", "comuna": "Pinto", "globalid": "5b4bab4b-5a05-4666-9c7c-3d472aa9d3ce" }, "geometry": { "type": "Point", "coordinates": [ -71.29808, -37.03261 ] } },
{ "type": "Feature", "properties": { "objectid": 2651, "fid_cuarte": null, "fid_": null, "nombre_uni": "AVANZADA PICHIRRINCON (T.F.)", "tipo_de_un": "AVANZADA", "tipo_de_vi": "s/i", "nombre_de": "SECTOR PICHIRRINCON", "numero": "s/i", "point_x": -71.23644952000001, "point_y": -36.57757044, "hecho": "2014", "rg": 16, "prefectura": "NUBLE", "zona": "ZONA DE NUBLE", "uni_cod": "08031", "fid_dpa_co": null, "cine_prov": "163", "cod_com": null, "cine_com": "16304", "cine_reg": "16", "region": "Ñuble", "provincia": "Punilla", "comuna": "San Fabián", "globalid": "4ea37b9a-0057-4fae-82ac-070816af368a" }, "geometry": { "type": "Point", "coordinates": [ -71.23645, -36.57757 ] } },
{ "type": "Feature", "properties": { "objectid": 2670, "fid_cuarte": null, "fid_": null, "nombre_uni": "TCIA. LAS TRANCAS (F)", "tipo_de_un": "TENENCIA", "tipo_de_vi": "RUTA", "nombre_de": "RUTA N-55", "numero": "KM 73", "point_x": -71.47972435, "point_y": -36.91110531, "hecho": "2014", "rg": 16, "prefectura": "NUBLE", "zona": "ZONA DE NUBLE", "uni_cod": "08102", "fid_dpa_co": null, "cine_prov": "161", "cod_com": null, "cine_com": "16106", "cine_reg": "16", "region": "Ñuble", "provincia": "Diguillín", "comuna": "Pinto", "globalid": "9246514b-0832-42d7-af77-aa98723deb2c" }, "geometry": { "type": "Point", "coordinates": [ -71.47972, -36.91111 ] } }
]
}
