{
"type": "FeatureCollection",
"name": "NLO",
"crs": { "type": "name", "properties": { "name": "urn:ogc:def:crs:OGC:1.3:CRS84" } },
"xy_coordinate_resolution": 1e-05,
"features": [
{ "type": "Feature", "properties": { "objectid": 2244, "fid_cuarte": null, "fid_": null, "nombre_uni": "RETEN EL MELADO (F)", "tipo_de_un": "RETEN", "tipo_de_vi": "CAMINO", "nombre_de": "QUEBRADA DE MEDINA", "numero": "S/N", "point_x": -71.054268, "point_y": -35.856791, "hecho": "2014", "rg": 7, "prefectura": "LINARES", "zona": "ZONA DEL MAULE", "uni_cod": "07038", "fid_dpa_co": null, "cine_prov": "074", "cod_com": null, "cine_com": "07401", "cine_reg": "07", "region": "Maule", "provincia": "Linares", "comuna": "Linares", "globalid": "953b0aa8-ac71-4662-9b65-4ebab1ba4aa2" }, "geometry": { "type": "Point", "coordinates": [ -71.05427, -35.85679 ] } },
{ "type": "Feature", "properties": { "objectid": 2651, "fid_cuarte": null, "fid_": null, "nombre_uni": "AVANZADA PICHIRRINCON (T.F.)", "tipo_de_un": "AVANZADA", "tipo_de_vi": "s/i", "nombre_de": "SECTOR PICHIRRINCON", "numero": "s/i", "point_x": -71.23644952000001, "point_y": -36.57757044, "hecho": "2014", "rg": 16, "prefectura": "NUBLE", "zona": "ZONA DE NUBLE", "uni_cod": "08031", "fid_dpa_co": null, "cine_prov": "163", "cod_com": null, "cine_com": "16304", "cine_reg": "16", "region": "Ñuble", "provincia": "Punilla", "comuna": "San Fabián", "globalid": "4ea37b9a-0057-4fae-82ac-070816af368a" }, "geometry": { "type": "Point", "coordinates": [ -71.23645, -36.57757 ] } },
{ "type": "Feature", "properties": { "objectid": 2699, "fid_cuarte": null, "fid_": null, "nombre_uni": "RETEN CATILLO", "tipo_de_un": "RETEN", "tipo_de_vi": "CALLE", "nombre_de": "DIEGO PORTALES", "numero": "S/N", "point_x": -71.65208987, "point_y": -36.28808202, "hecho": "2014", "rg": 7, "prefectura": "LINARES", "zona": "ZONA DEL MAULE", "uni_cod": "07029", "fid_dpa_co": null, "cine_prov": "074", "cod_com": null, "cine_com": "07404", "cine_reg": "07", "region": "Maule", "provincia": "Linares", "comuna": "Parral", "globalid": "725bfea1-0aed-4d18-b95e-347e783ce1da" }, "geometry": { "type": "Point", "coordinates": [ -71.65209, -36.28808 ] } },
{ "type": "Feature", "properties": { "objectid": 2702, "fid_cuarte": null, "fid_": null, "nombre_uni": "RETEN CONVENTO", "tipo_de_un": "RETEN", "tipo_de_vi": "RUTA", "nombre_de": "RUTA L-55", "numero": "KM 17", "point_x": -71.56575627000001, "point_y": -36.05496554, "hecho": "2014", "rg": 7, "prefectura": "LINARES", "zona": "ZONA DEL MAULE", "uni_cod": "07032", "fid_dpa_co": null, "cine_prov": "074", "cod_com": null, "cine_com": "07403", "cine_reg": "07", "region": "Maule", "provincia": "Linares", "comuna": "Longaví", "globalid": "716f8694-8432-4e1d-a475-9601c33e8922" }, "geometry": { "type": "Point", "coordinates": [ -71.56576, -36.05497 ] } },
{ "type": "Feature", "properties": { "objectid": 2707, "fid_cuarte": null, "fid_": null, "nombre_uni": "R. DIGUA SOM PABLO A. PINEDA GUTIERREZ", "tipo_de_un": "RETEN", "tipo_de_vi": "RUTA", "nombre_de": "RUTA L-75", "numero": "KM 28", "point_x": -71.54663508, "point_y": -36.23575902, "hecho": "2014", "rg": 7, "prefectura": "LINARES", "zona": "ZONA DEL MAULE", "uni_cod": "07037", "fid_dpa_co": null, "cine_prov": "074", "cod_com": null, "cine_com": "07404", "cine_reg": "07", "region": "Maule", "provincia": "Linares", "comuna": "Parral", "globalid": "7accda97-519e-42db-bb91-9f1634d2d926" }, "geometry": { "type": "Point", "coordinates": [ -71.54664, -36.23576 ] } },
{ "type": "Feature", "properties": { "objectid": 2711, "fid_cuarte": null, "fid_": null, "nombre_uni": "RETEN EMBALSE ANCOA", "tipo_de_un": "RETEN", "tipo_de_vi": "RUTA", "nombre_de": "RUTA L-42", "numero": "KM 20", "point_x": -71.290231, "point_y": -35.907192, "hecho": "2014", "rg": 7, "prefectura": "LINARES", "zona": "ZONA DEL MAULE", "uni_cod": "07042", "fid_dpa_co": null, "cine_prov": "074", "cod_com": null, "cine_com": "07401", "cine_reg": "07", "region": "Maule", "provincia": "Linares", "comuna": "Linares", "globalid": "b4afb203-fa34-44f6-9233-f7aae000a64e" }, "geometry": { "type": "Point", "coordinates": [ -71.29023, -35.90719 ] } },
{ "type": "Feature", "properties": { "objectid": 2728, "fid_cuarte": null, "fid_": null, "nombre_uni": "RETEN ACHIBUENO (F)", "tipo_de_un": "RETEN", "tipo_de_vi": "RUTA", "nombre_de": "RUTA L-45", "numero": "KM 36", "point_x": -71.388732, "point_y": -36.086714, "hecho": "2014", "rg": 7, "prefectura": "LINARES", "zona": "ZONA DEL MAULE", "uni_cod": "07021", "fid_dpa_co": null, "cine_prov": "074", "cod_com": null, "cine_com": "07401", "cine_reg": "07", "region": "Maule", "provincia": "Linares", "comuna": "Linares", "globalid": "c89c56de-859a-42ff-a625-b8ce329e7674" }, "geometry": { "type": "Point", "coordinates": [ -71.38873, -36.08671 ] } },
{ "type": "Feature", "properties": { "objectid": 2734, "fid_cuarte": null, "fid_": null, "nombre_uni": "RETEN BULLILEO (F)", "tipo_de_un": "RETEN", "tipo_de_vi": "RUTA", "nombre_de": "RUTA L-735", "numero": "KM 50", "point_x": -71.41603887, "point_y": -36.28755683, "hecho": "2014", "rg": 7, "prefectura": "LINARES", "zona": "ZONA DEL MAULE", "uni_cod": "07027", "fid_dpa_co": null, "cine_prov": "074", "cod_com": null, "cine_com": "07404", "cine_reg": "07", "region": "Maule", "provincia": "Linares", "comuna": "Parral", "globalid": "2778b867-a633-492c-aae6-a27ca7b25dcc" }, "geometry": { "type": "Point", "coordinates": [ -71.41604, -36.28756 ] } }
]
}
