{
"type": "FeatureCollection",
"name": "PLP",
"crs": { "type": "name", "properties": { "name": "urn:ogc:def:crs:OGC:1.3:CRS84" } },
"xy_coordinate_resolution": 1e-05,
"features": [
{ "type": "Feature", "properties": { "objectid": 2709, "fid_cuarte": null, "fid_": null, "nombre_uni": "RETEN EL RADAL (F)", "tipo_de_un": "RETEN", "tipo_de_vi": "RUTA", "nombre_de": "RUTA K-275", "numero": "KM 14", "point_x": -71.04927146, "point_y": -35.4179538, "hecho": "2014", "rg": 7, "prefectura": "CURICO", "zona": "ZONA DEL MAULE", "uni_cod": "07040", "fid_dpa_co": null, "cine_prov": "073", "cod_com": null, "cine_com": "07304", "cine_reg": "07", "region": "Maule", "provincia": "Curicó", "comuna": "Molina", "globalid": "cba4c49a-3801-44e3-a8be-19fd707acb37" }, "geometry": { "type": "Point", "coordinates": [ -71.04927, -35.41795 ] } },
{ "type": "Feature", "properties": { "objectid": 2722, "fid_cuarte": null, "fid_": null, "nombre_uni": "AVANZADA CARRIZALES", "tipo_de_un": "AVANZADA", "tipo_de_vi": "s/i", "nombre_de": "SECTOR CARRIZALES", "numero": "s/i", "point_x": -70.64988688, "point_y": -35.19790507, "hecho": "2014", "rg": 7, "prefectura": "CURICO", "zona": "ZONA DEL MAULE", "uni_cod": "07015", "fid_dpa_co": null, "cine_prov": "073", "cod_com": null, "cine_com": "07306", "cine_reg": "07", "region": "Maule", "provincia": "Curicó", "comuna": "Romeral", "globalid": "2da08ed8-515b-4a0d-aa0c-c0bdb35cdf37" }, "geometry": { "type": "Point", "coordinates": [ -70.64989, -35.19791 ] } },
{ "type": "Feature", "properties": { "objectid": 2724, "fid_cuarte": null, "fid_": null, "nombre_uni": "AVANZADA LOS RETAMOS", "tipo_de_un": "AVANZADA", "tipo_de_vi": "s/i", "nombre_de": "SECTOR LOS RETAMOS", "numero": "s/i", "point_x": -70.60667314, "point_y": -35.37359634, "hecho": "2014", "rg": 7, "prefectura": "CURICO", "zona": "ZONA DEL MAULE", "uni_cod": "07017", "fid_dpa_co": null, "cine_prov": "073", "cod_com": null, "cine_com": "07301", "cine_reg": "07", "region": "Maule", "provincia": "Curicó", "comuna": "Curicó", "globalid": "d6da5103-ee5e-4368-a142-164a5fa31d98" }, "geometry": { "type": "Point", "coordinates": [ -70.60667, -35.3736 ] } },
{ "type": "Feature", "properties": { "objectid": 2725, "fid_cuarte": null, "fid_": null, "nombre_uni": "AVANZADA PICHUANTE", "tipo_de_un": "AVANZADA", "tipo_de_vi": "s/i", "nombre_de": "SECTRO PICHUANTE", "numero": "s/i", "point_x": -70.49371121, "point_y": -35.09171697, "hecho": "2014", "rg": 7, "prefectura": "CURICO", "zona": "ZONA DEL MAULE", "uni_cod": "07018", "fid_dpa_co": null, "cine_prov": "073", "cod_com": null, "cine_com": "07306", "cine_reg": "07", "region": "Maule", "provincia": "Curicó", "comuna": "Romeral", "globalid": "d46eeb14-9e2f-42eb-9319-7f8e99b58ae1" }, "geometry": { "type": "Point", "coordinates": [ -70.49371, -35.09172 ] } },
{ "type": "Feature", "properties": { "objectid": 2727, "fid_cuarte": null, "fid_": null, "nombre_uni": "AVANZADA POTRERILLOS", "tipo_de_un": "AVANZADA", "tipo_de_vi": "s/i", "nombre_de": "SECTOR POTRERILLOS", "numero": "s/i", "point_x": -70.471796, "point_y": -35.416256, "hecho": "2014", "rg": 7, "prefectura": "CURICO", "zona": "ZONA DEL MAULE", "uni_cod": "07020", "fid_dpa_co": null, "cine_prov": "073", "cod_com": null, "cine_com": "07301", "cine_reg": "07", "region": "Maule", "provincia": "Curicó", "comuna": "Curicó", "globalid": "aea780be-1341-4cdc-a44c-1291fbbbebd9" }, "geometry": { "type": "Point", "coordinates": [ -70.4718, -35.41626 ] } },
{ "type": "Feature", "properties": { "objectid": 2729, "fid_cuarte": null, "fid_": null, "nombre_uni": "RETEN AGUA FRIA (F)", "tipo_de_un": "RETEN", "tipo_de_vi": "RUTA", "nombre_de": "RUTA K-175", "numero": "KM 30", "point_x": -71.09179628, "point_y": -35.30662891, "hecho": "2014", "rg": 7, "prefectura": "CURICO", "zona": "ZONA DEL MAULE", "uni_cod": "07022", "fid_dpa_co": null, "cine_prov": "073", "cod_com": null, "cine_com": "07304", "cine_reg": "07", "region": "Maule", "provincia": "Curicó", "comuna": "Molina", "globalid": "e38431aa-e515-4306-864b-6b631739ded2" }, "geometry": { "type": "Point", "coordinates": [ -71.0918, -35.30663 ] } },
{ "type": "Feature", "properties": { "objectid": 2741, "fid_cuarte": null, "fid_": null, "nombre_uni": "RETEN LOS QUENES (F)", "tipo_de_un": "RETEN", "tipo_de_vi": "CALLE", "nombre_de": "RAMON FREIRE", "numero": "S/N", "point_x": -70.8115, "point_y": -34.999916, "hecho": "2014", "rg": 7, "prefectura": "CURICO", "zona": "ZONA DEL MAULE", "uni_cod": "07058", "fid_dpa_co": null, "cine_prov": "073", "cod_com": null, "cine_com": "07306", "cine_reg": "07", "region": "Maule", "provincia": "Curicó", "comuna": "Romeral", "globalid": "24fca843-e8d2-4246-b69d-d704aa32e683" }, "geometry": { "type": "Point", "coordinates": [ -70.8115, -34.99992 ] } },
{ "type": "Feature", "properties": { "objectid": 2784, "fid_cuarte": null, "fid_": null, "nombre_uni": "TCIA. POTRERO GRANDE (F)", "tipo_de_un": "TENENCIA", "tipo_de_vi": "RUTA", "nombre_de": "RUTA J-65", "numero": "KM 30", "point_x": -71.075313, "point_y": -35.203782, "hecho": "2014", "rg": 7, "prefectura": "CURICO", "zona": "ZONA DEL MAULE", "uni_cod": "07103", "fid_dpa_co": null, "cine_prov": "073", "cod_com": null, "cine_com": "07301", "cine_reg": "07", "region": "Maule", "provincia": "Curicó", "comuna": "Curicó", "globalid": "68a2784e-e5c0-433d-99ff-52d596b19733" }, "geometry": { "type": "Point", "coordinates": [ -71.07531, -35.20378 ] } }
]
}
