{
"type": "FeatureCollection",
"name": "SJO",
"crs": { "type": "name", "properties": { "name": "urn:ogc:def:crs:OGC:1.3:CRS84" } },
"xy_coordinate_resolution": 1e-05,
"features": [
{ "type": "Feature", "properties": { "objectid": 2195, "fid_cuarte": null, "fid_": null, "nombre_uni": "SCOM. SAN JOSE DE MAIPO (F)", "tipo_de_un": "SUBCOMISARIA", "tipo_de_vi": "CAMINO", "nombre_de": "CAMINO EL VOLCAN", "numero": "19333", "point_x": -70.353175, "point_y": -33.636318, "hecho": "2014", "rg": 13, "prefectura": "SANTIAGO CORDILLERA", "zona": "ZONA METROPOLITANA ESTE", "uni_cod": "13084", "fid_dpa_co": null, "cine_prov": "132", "cod_com": null, "cine_com": "13203", "cine_reg": "13", "region": "Metropolitana de Santiago", "provincia": "Cordillera", "comuna": "San José de Maipo", "globalid": "ea8a2b2e-fca1-44ce-a6e4-becb897c6ce0" }, "geometry": { "type": "Point", "coordinates": [ -70.35317, -33.63632 ] } },
{ "type": "Feature", "properties": { "objectid": 2314, "fid_cuarte": null, "fid_": null, "nombre_uni": "AVANZADA CRUZ DE PIEDRA", "tipo_de_un": "AVANZADA", "tipo_de_vi": " ", "nombre_de": "SECTOR CRUZ DE PIEDRA", "numero": " ", "point_x": -69.96611454, "point_y": -34.17152255, "hecho": "2014", "rg": 13, "prefectura": "SANTIAGO CORDILLERA", "zona": "ZONA METROPOLITANA ESTE", "uni_cod": "13043", "fid_dpa_co": null, "cine_prov": "132", "cod_com": null, "cine_com": "13203", "cine_reg": "13", "region": "Metropolitana de Santiago", "provincia": "Cordillera", "comuna": "San José de Maipo", "globalid": "6905f42b-ed69-4910-99aa-e9266c9972f4" }, "geometry": { "type": "Point", "coordinates": [ -69.96611, -34.17152 ] } },
{ "type": "Feature", "properties": { "objectid": 2334, "fid_cuarte": null, "fid_": null, "nombre_uni": "TCIA. SAN GABRIEL (F)", "tipo_de_un": "TENENCIA", "tipo_de_vi": "RUTA", "nombre_de": "RUTA G-25", "numero": "KM 56", "point_x": -70.23935127, "point_y": -33.78228977000001, "hecho": "2014", "rg": 13, "prefectura": "SANTIAGO CORDILLERA", "zona": "ZONA METROPOLITANA ESTE", "uni_cod": "13066", "fid_dpa_co": null, "cine_prov": "132", "cod_com": null, "cine_com": "13203", "cine_reg": "13", "region": "Metropolitana de Santiago", "provincia": "Cordillera", "comuna": "San José de Maipo", "globalid": "797ab705-d4c2-42bf-a3eb-c3999b126b4b" }, "geometry": { "type": "Point", "coordinates": [ -70.23935, -33.78229 ] } }
]
}
