{
"type": "FeatureCollection",
"name": "SOL",
"crs": { "type": "name", "properties": { "name": "urn:ogc:def:crs:OGC:1.3:CRS84" } },
"xy_coordinate_resolution": 1e-05,
"features": [
{ "type": "Feature", "properties": { "objectid": 2414, "fid_cuarte": null, "fid_": null, "nombre_uni": "RETEN CATRIPULLI", "tipo_de_un": "RETEN", "tipo_de_vi": "RUTA", "nombre_de": "RUTA S-199", "numero": "KM 104", "point_x": -71.70609011000001, "point_y": -39.34749678, "hecho": "2014", "rg": 9, "prefectura": "VILLARICA", "zona": "ZONA DE LA ARAUCANIA", "uni_cod": "09018", "fid_dpa_co": null, "cine_prov": "091", "cod_com": null, "cine_com": "09104", "cine_reg": "09", "region": "La Araucanía", "provincia": "Cautín", "comuna": "Curarrehue", "globalid": "74b4bdb0-a208-491e-ada6-08575fabf91c" }, "geometry": { "type": "Point", "coordinates": [ -71.70609, -39.3475 ] } },
{ "type": "Feature", "properties": { "objectid": 2423, "fid_cuarte": null, "fid_": null, "nombre_uni": "RETEN ICALMA (F)", "tipo_de_un": "RETEN", "tipo_de_vi": "RUTA", "nombre_de": "RUTA R-95", "numero": "KM 32", "point_x": -71.282469479999989, "point_y": -38.81144204, "hecho": "2014", "rg": 9, "prefectura": "MALLECO", "zona": "ZONA DE LA ARAUCANIA", "uni_cod": "09027", "fid_dpa_co": null, "cine_prov": "092", "cod_com": null, "cine_com": "09205", "cine_reg": "09", "region": "La Araucanía", "provincia": "Malleco", "comuna": "Lonquimay", "globalid": "ed57fb2a-6809-408a-ae95-10be1ad196ca" }, "geometry": { "type": "Point", "coordinates": [ -71.28247, -38.81144 ] } },
{ "type": "Feature", "properties": { "objectid": 2432, "fid_cuarte": null, "fid_": null, "nombre_uni": "RETEN MELIPEUCO (F)", "tipo_de_un": "RETEN", "tipo_de_vi": "CALLE", "nombre_de": "PEDRO AGUIRRE CERDA", "numero": "S/N", "point_x": -71.70133975, "point_y": -38.85570876, "hecho": "2014", "rg": 9, "prefectura": "VILLARICA", "zona": "ZONA DE LA ARAUCANIA", "uni_cod": "09036", "fid_dpa_co": null, "cine_prov": "091", "cod_com": null, "cine_com": "09110", "cine_reg": "09", "region": "La Araucanía", "provincia": "Cautín", "comuna": "Melipeuco", "globalid": "e307c4f4-68bb-40c1-97ff-a8e8c60caa33" }, "geometry": { "type": "Point", "coordinates": [ -71.70134, -38.85571 ] } },
{ "type": "Feature", "properties": { "objectid": 2453, "fid_cuarte": null, "fid_": null, "nombre_uni": "RETEN REIGOLIL (F)", "tipo_de_un": "RETEN", "tipo_de_vi": "CAMINO", "nombre_de": "CAMINO PUBLICO", "numero": "S/N", "point_x": -71.474103, "point_y": -39.116442, "hecho": "2014", "rg": 9, "prefectura": "VILLARICA", "zona": "ZONA DE LA ARAUCANIA", "uni_cod": "09050", "fid_dpa_co": null, "cine_prov": "091", "cod_com": null, "cine_com": "09104", "cine_reg": "09", "region": "La Araucanía", "provincia": "Cautín", "comuna": "Curarrehue", "globalid": "671893da-e12d-4164-b439-8e26dd55515b" }, "geometry": { "type": "Point", "coordinates": [ -71.4741, -39.11644 ] } },
{ "type": "Feature", "properties": { "objectid": 2463, "fid_cuarte": null, "fid_": null, "nombre_uni": "SCOM. CUNCO", "tipo_de_un": "SUBCOMISARIA", "tipo_de_vi": "CALLE", "nombre_de": "SANTA MARIA", "numero": "181", "point_x": -72.03547951, "point_y": -38.93182858, "hecho": "2014", "rg": 9, "prefectura": "VILLARICA", "zona": "ZONA DE LA ARAUCANIA", "uni_cod": "09064", "fid_dpa_co": null, "cine_prov": "091", "cod_com": null, "cine_com": "09103", "cine_reg": "09", "region": "La Araucanía", "provincia": "Cautín", "comuna": "Cunco", "globalid": "59bff076-72ca-47b4-9b14-7bd4727115dd" }, "geometry": { "type": "Point", "coordinates": [ -72.03548, -38.93183 ] } },
{ "type": "Feature", "properties": { "objectid": 2464, "fid_cuarte": null, "fid_": null, "nombre_uni": "TCIA. CURARREHUE (F)", "tipo_de_un": "TENENCIA", "tipo_de_vi": "AVENIDA", "nombre_de": "BERNARDO O'HIGGINS", "numero": "603", "point_x": -71.587532180000011, "point_y": -39.35946298, "hecho": "2014", "rg": 9, "prefectura": "VILLARICA", "zona": "ZONA DE LA ARAUCANIA", "uni_cod": "09065", "fid_dpa_co": null, "cine_prov": "091", "cod_com": null, "cine_com": "09104", "cine_reg": "09", "region": "La Araucanía", "provincia": "Cautín", "comuna": "Curarrehue", "globalid": "e583d3d5-e92e-4e54-a022-c04c43307758" }, "geometry": { "type": "Point", "coordinates": [ -71.58753, -39.35946 ] } },
{ "type": "Feature", "properties": { "objectid": 2620, "fid_cuarte": null, "fid_": null, "nombre_uni": "RETEN SIERRA NEVADA", "tipo_de_un": "RETEN", "tipo_de_vi": "RUTA", "nombre_de": "RUTA CH-181", "numero": "KM 102", "point_x": -71.47562867000001, "point_y": -38.5632956, "hecho": "2014", "rg": 9, "prefectura": "MALLECO", "zona": "ZONA DE LA ARAUCANIA", "uni_cod": "09053", "fid_dpa_co": null, "cine_prov": "092", "cod_com": null, "cine_com": "09205", "cine_reg": "09", "region": "La Araucanía", "provincia": "Malleco", "comuna": "Lonquimay", "globalid": "63cc87e3-8824-47d5-942d-246805207904" }, "geometry": { "type": "Point", "coordinates": [ -71.47563, -38.5633 ] } }
]
}
