{"type": "FeatureCollection", "metadata": {"volcan": "Olca-Paruma", "codigo": "OLC", "lat": -20.93, "lon": -68.48, "bbox": [-68.98, -21.43, -67.98, -20.43], "starttime": "2026-05-31T12:02:45Z", "endtime": "2026-06-07T12:02:45Z", "minmagnitude": 2.0, "source": "USGS FDSN ComCat", "generated": "2026-06-07T12:02:45Z", "count": 1}, "features": [{"type": "Feature", "geometry": {"type": "Point", "coordinates": [-68.8531, -20.6321, 95.497]}, "properties": {"mag": 4.1, "place": "90 km ESE of La Tirana, Chile", "time": 1780610364897, "depth": 95.497, "type": "earthquake", "status": "reviewed", "lon": -68.8531, "lat": -20.6321}}]}