{"type": "FeatureCollection", "metadata": {"volcan": "Ollague", "codigo": "OLL", "lat": -21.3, "lon": -68.18, "bbox": [-68.68, -21.8, -67.68, -20.8], "starttime": "2026-05-31T12:02:45Z", "endtime": "2026-06-07T12:02:45Z", "minmagnitude": 2.0, "source": "USGS FDSN ComCat", "generated": "2026-06-07T12:02:45Z", "count": 1}, "features": [{"type": "Feature", "geometry": {"type": "Point", "coordinates": [-68.4225, -21.574, 146.209]}, "properties": {"mag": 4.2, "place": "42 km SSW of Ollagüe, Chile", "time": 1780495832124, "depth": 146.209, "type": "earthquake", "status": "reviewed", "lon": -68.4225, "lat": -21.574}}]}