{"type": "FeatureCollection", "metadata": {"volcan": "San Pedro", "codigo": "SDP", "lat": -21.88, "lon": -68.4, "bbox": [-68.9, -22.38, -67.9, -21.38], "starttime": "2026-05-31T12:02:45Z", "endtime": "2026-06-07T12:02:45Z", "minmagnitude": 2.0, "source": "USGS FDSN ComCat", "generated": "2026-06-07T12:02:45Z", "count": 1}, "features": [{"type": "Feature", "geometry": {"type": "Point", "coordinates": [-68.4225, -21.574, 146.209]}, "properties": {"mag": 4.2, "place": "42 km SSW of Ollagüe, Chile", "time": 1780495832124, "depth": 146.209, "type": "earthquake", "status": "reviewed", "lon": -68.4225, "lat": -21.574}}]}