{
"type": "FeatureCollection",
"name": "HUD",
"crs": { "type": "name", "properties": { "name": "urn:ogc:def:crs:OGC:1.3:CRS84" } },
"xy_coordinate_resolution": 1e-05,
"features": [
{ "type": "Feature", "properties": { "nombre": "Arroyo Blanco Chico", "tipo": "stream", "volcan_codigo": "HUD", "volcan_nombre": "Hudson", "drena_volcan": false }, "geometry": { "type": "MultiLineString", "coordinates": [ [ [ -72.72048, -45.90718 ], [ -72.72083, -45.90678 ], [ -72.72157, -45.90643 ], [ -72.72183, -45.90554 ], [ -72.7229, -45.90494 ], [ -72.72324, -45.9043 ], [ -72.72322, -45.90404 ], [ -72.72359, -45.90383 ], [ -72.72429, -45.90287 ], [ -72.72897, -45.9015 ], [ -72.73119, -45.90118 ], [ -72.73187, -45.90077 ], [ -72.7333, -45.90065 ], [ -72.73361, -45.90012 ], [ -72.73442, -45.89947 ], [ -72.73456, -45.89887 ], [ -72.73487, -45.89856 ], [ -72.73507, -45.89742 ], [ -72.73631, -45.8968 ], [ -72.7364, -45.89663 ], [ -72.73662, -45.89515 ], [ -72.7377, -45.89264 ], [ -72.73774, -45.89197 ], [ -72.73757, -45.89154 ], [ -72.73781, -45.89108 ], [ -72.73771, -45.89013 ], [ -72.73829, -45.88989 ], [ -72.73873, -45.8899 ], [ -72.73925, -45.88943 ], [ -72.74068, -45.88899 ], [ -72.74366, -45.88762 ], [ -72.74642, -45.88685 ], [ -72.74761, -45.88633 ], [ -72.74858, -45.88626 ], [ -72.74915, -45.88566 ], [ -72.74997, -45.88557 ], [ -72.75063, -45.88514 ], [ -72.75052, -45.8847 ], [ -72.75099, -45.88391 ], [ -72.75207, -45.88317 ], [ -72.75188, -45.88235 ], [ -72.75275, -45.88153 ], [ -72.75278, -45.88079 ], [ -72.75288, -45.88044 ], [ -72.75335, -45.8799 ], [ -72.75334, -45.87913 ], [ -72.75357, -45.87855 ] ], [ [ -72.75357, -45.87855 ], [ -72.75502, -45.87806 ], [ -72.75556, -45.87762 ], [ -72.7566, -45.87734 ], [ -72.75799, -45.87646 ], [ -72.75902, -45.87559 ], [ -72.75973, -45.87447 ], [ -72.76063, -45.87361 ], [ -72.76311, -45.87219 ], [ -72.7633, -45.8716 ], [ -72.76381, -45.87083 ], [ -72.7637, -45.87038 ] ] ] } },
{ "type": "Feature", "properties": { "nombre": "Arroyo San Sebastián", "tipo": "river", "volcan_codigo": "HUD", "volcan_nombre": "Hudson", "drena_volcan": false }, "geometry": { "type": "LineString", "coordinates": [ [ -72.78812, -45.72542 ], [ -72.78874, -45.7248 ], [ -72.78984, -45.72432 ], [ -72.79015, -45.72395 ], [ -72.79021, -45.72297 ], [ -72.78982, -45.72199 ], [ -72.78971, -45.72118 ], [ -72.7898, -45.7208 ], [ -72.79059, -45.7203 ], [ -72.79318, -45.71976 ], [ -72.79525, -45.71973 ], [ -72.79616, -45.72015 ], [ -72.79658, -45.72011 ], [ -72.79813, -45.71912 ], [ -72.7986, -45.71898 ], [ -72.80044, -45.7191 ], [ -72.80223, -45.71978 ], [ -72.8028, -45.71973 ], [ -72.80308, -45.71912 ], [ -72.80303, -45.71874 ], [ -72.8035, -45.71851 ], [ -72.80348, -45.71819 ], [ -72.80398, -45.71771 ], [ -72.80384, -45.71648 ], [ -72.80408, -45.71628 ], [ -72.80485, -45.71626 ], [ -72.80543, -45.71562 ], [ -72.80553, -45.71505 ], [ -72.80536, -45.71456 ], [ -72.80548, -45.71435 ], [ -72.80632, -45.71458 ], [ -72.80721, -45.71458 ], [ -72.80827, -45.7143 ], [ -72.81187, -45.7143 ], [ -72.81384, -45.71406 ], [ -72.81574, -45.71462 ], [ -72.81802, -45.71478 ] ] } },
{ "type": "Feature", "properties": { "nombre": "Arroyo Sin Nombre", "tipo": "stream", "volcan_codigo": "HUD", "volcan_nombre": "Hudson", "drena_volcan": false }, "geometry": { "type": "MultiLineString", "coordinates": [ [ [ -72.57359, -46.13245 ], [ -72.57333, -46.13198 ], [ -72.57324, -46.13125 ], [ -72.57226, -46.13007 ], [ -72.57225, -46.12948 ] ], [ [ -72.63131, -45.91103 ], [ -72.63198, -45.91054 ], [ -72.6317, -45.91021 ], [ -72.63182, -45.90921 ], [ -72.63156, -45.90852 ], [ -72.63236, -45.90773 ], [ -72.63306, -45.90737 ], [ -72.63305, -45.90703 ], [ -72.63276, -45.9065 ], [ -72.63268, -45.90557 ], [ -72.63284, -45.90533 ], [ -72.63316, -45.90512 ], [ -72.63432, -45.90494 ], [ -72.63476, -45.90428 ], [ -72.63651, -45.90367 ], [ -72.63786, -45.90287 ], [ -72.63863, -45.90096 ], [ -72.63953, -45.89974 ], [ -72.6402, -45.89938 ], [ -72.64048, -45.89872 ], [ -72.64087, -45.89847 ], [ -72.64151, -45.89837 ], [ -72.64289, -45.89859 ], [ -72.64318, -45.89846 ], [ -72.64316, -45.89787 ], [ -72.64336, -45.8976 ], [ -72.64508, -45.89666 ], [ -72.6453, -45.89612 ], [ -72.64558, -45.89589 ], [ -72.64672, -45.8958 ], [ -72.64748, -45.89556 ], [ -72.64849, -45.89469 ], [ -72.6492, -45.89468 ], [ -72.64964, -45.89447 ], [ -72.65038, -45.89465 ], [ -72.6511, -45.8943 ], [ -72.65233, -45.89434 ], [ -72.6531, -45.89371 ], [ -72.65478, -45.89289 ], [ -72.65711, -45.89226 ], [ -72.65951, -45.89083 ], [ -72.65989, -45.89013 ], [ -72.66149, -45.88828 ], [ -72.66174, -45.88823 ], [ -72.66217, -45.88858 ], [ -72.66262, -45.88864 ], [ -72.66434, -45.88831 ], [ -72.6647, -45.88753 ], [ -72.66508, -45.88738 ], [ -72.66498, -45.88668 ], [ -72.66539, -45.88587 ], [ -72.66705, -45.88454 ], [ -72.66722, -45.8838 ], [ -72.66788, -45.88345 ], [ -72.66791, -45.88307 ], [ -72.66834, -45.8826 ], [ -72.66827, -45.88238 ], [ -72.66844, -45.88211 ], [ -72.66944, -45.8818 ], [ -72.66934, -45.8815 ], [ -72.66965, -45.88112 ], [ -72.67088, -45.88059 ], [ -72.67117, -45.87982 ], [ -72.67167, -45.87957 ], [ -72.67193, -45.8791 ], [ -72.67296, -45.87829 ], [ -72.67449, -45.87774 ], [ -72.67491, -45.87736 ], [ -72.67621, -45.87713 ], [ -72.67704, -45.87662 ], [ -72.67732, -45.87617 ], [ -72.67902, -45.8756 ], [ -72.67933, -45.87518 ], [ -72.68002, -45.87522 ], [ -72.68109, -45.87412 ], [ -72.68154, -45.87387 ], [ -72.68278, -45.8737 ], [ -72.68366, -45.87307 ], [ -72.68423, -45.87288 ], [ -72.68617, -45.87267 ], [ -72.68614, -45.87203 ], [ -72.68658, -45.87158 ], [ -72.68605, -45.87091 ], [ -72.68636, -45.87028 ], [ -72.68686, -45.86994 ], [ -72.68756, -45.86999 ], [ -72.688, -45.86971 ], [ -72.68842, -45.86916 ], [ -72.68952, -45.86879 ], [ -72.68962, -45.86838 ], [ -72.69001, -45.86816 ], [ -72.69082, -45.86792 ], [ -72.69249, -45.86774 ], [ -72.69619, -45.86608 ], [ -72.6983, -45.86494 ], [ -72.69839, -45.86449 ], [ -72.6979, -45.8627 ], [ -72.69858, -45.86183 ], [ -72.69898, -45.86158 ], [ -72.7002, -45.86136 ], [ -72.7011, -45.86091 ], [ -72.7011, -45.85988 ], [ -72.70201, -45.85919 ], [ -72.70221, -45.8576 ], [ -72.7038, -45.85618 ], [ -72.70421, -45.85532 ], [ -72.7054, -45.85437 ], [ -72.70699, -45.8538 ], [ -72.71028, -45.8522 ], [ -72.71028, -45.85195 ], [ -72.70888, -45.85009 ] ] ] } },
{ "type": "Feature", "properties": { "nombre": "Estero Dingle", "tipo": "river", "volcan_codigo": "HUD", "volcan_nombre": "Hudson", "drena_volcan": false }, "geometry": { "type": "MultiLineString", "coordinates": [ [ [ -72.81763, -45.51049 ], [ -72.81854, -45.51107 ], [ -72.81886, -45.51107 ], [ -72.82065, -45.5105 ], [ -72.82248, -45.50964 ], [ -72.82384, -45.50752 ], [ -72.82476, -45.50704 ], [ -72.82529, -45.50607 ], [ -72.82525, -45.50546 ], [ -72.82562, -45.5049 ], [ -72.82558, -45.50446 ], [ -72.82584, -45.50423 ], [ -72.82606, -45.5032 ], [ -72.82695, -45.50234 ], [ -72.82737, -45.50106 ], [ -72.82721, -45.50042 ], [ -72.8279, -45.49954 ], [ -72.82825, -45.49846 ], [ -72.82822, -45.49781 ], [ -72.82863, -45.49683 ], [ -72.82889, -45.49653 ], [ -72.8299, -45.49604 ], [ -72.83059, -45.4951 ], [ -72.83193, -45.49489 ], [ -72.83344, -45.49415 ], [ -72.8342, -45.49331 ], [ -72.83368, -45.49271 ], [ -72.83461, -45.49253 ], [ -72.83495, -45.49231 ], [ -72.83506, -45.49154 ], [ -72.83542, -45.49116 ], [ -72.83538, -45.49086 ], [ -72.83564, -45.4901 ], [ -72.83725, -45.48925 ], [ -72.83785, -45.48859 ], [ -72.83937, -45.48776 ], [ -72.83971, -45.48702 ], [ -72.84058, -45.48679 ], [ -72.8415, -45.48611 ], [ -72.84212, -45.48586 ], [ -72.84222, -45.48565 ], [ -72.84135, -45.48528 ], [ -72.84126, -45.48486 ], [ -72.84231, -45.48432 ], [ -72.84209, -45.48376 ], [ -72.84215, -45.48324 ], [ -72.84313, -45.48297 ] ], [ [ -72.84313, -45.48297 ], [ -72.84366, -45.48256 ], [ -72.84351, -45.48192 ], [ -72.84282, -45.48119 ], [ -72.84223, -45.4802 ], [ -72.84128, -45.47961 ] ] ] } },
{ "type": "Feature", "properties": { "nombre": "Río Bayo", "tipo": "river", "volcan_codigo": "HUD", "volcan_nombre": "Hudson", "drena_volcan": false }, "geometry": { "type": "MultiLineString", "coordinates": [ [ [ -72.85519, -45.88574 ], [ -72.85468, -45.8856 ], [ -72.85388, -45.88575 ], [ -72.8529, -45.88542 ], [ -72.85132, -45.8856 ] ], [ [ -72.8481, -45.88592 ], [ -72.84708, -45.88609 ], [ -72.84441, -45.88529 ] ], [ [ -72.84441, -45.88529 ], [ -72.84396, -45.88519 ], [ -72.84255, -45.88546 ], [ -72.8416, -45.88544 ], [ -72.83969, -45.88627 ], [ -72.83795, -45.88648 ], [ -72.8376, -45.88666 ], [ -72.83746, -45.88698 ], [ -72.83551, -45.88738 ], [ -72.83455, -45.88742 ], [ -72.83409, -45.88787 ], [ -72.83286, -45.88799 ] ], [ [ -72.83286, -45.88799 ], [ -72.83208, -45.88814 ], [ -72.83132, -45.88861 ], [ -72.83084, -45.8887 ], [ -72.82951, -45.88838 ], [ -72.8284, -45.88908 ], [ -72.82776, -45.88927 ], [ -72.82714, -45.88929 ], [ -72.82675, -45.88898 ] ], [ [ -72.77828, -45.86939 ], [ -72.77758, -45.86945 ], [ -72.77604, -45.87004 ], [ -72.77544, -45.87005 ], [ -72.77482, -45.86961 ], [ -72.7728, -45.86893 ], [ -72.77241, -45.86869 ], [ -72.77161, -45.86768 ], [ -72.77103, -45.86739 ], [ -72.7699, -45.86728 ], [ -72.76936, -45.86758 ], [ -72.76908, -45.86801 ] ] ] } },
{ "type": "Feature", "properties": { "nombre": "Río Blanco", "tipo": "river", "volcan_codigo": "HUD", "volcan_nombre": "Hudson", "drena_volcan": false }, "geometry": { "type": "MultiLineString", "coordinates": [ [ [ -72.61911, -45.76849 ], [ -72.61833, -45.76811 ], [ -72.61651, -45.76801 ], [ -72.61428, -45.76665 ], [ -72.61286, -45.7662 ], [ -72.61195, -45.76624 ], [ -72.61002, -45.76734 ], [ -72.60909, -45.76737 ], [ -72.60812, -45.76659 ], [ -72.6076, -45.76569 ], [ -72.60711, -45.76404 ], [ -72.60652, -45.76371 ], [ -72.60569, -45.76364 ], [ -72.60399, -45.76387 ], [ -72.60289, -45.76375 ], [ -72.59699, -45.76179 ], [ -72.59443, -45.76146 ], [ -72.58897, -45.76136 ], [ -72.58363, -45.76027 ], [ -72.58044, -45.75923 ], [ -72.57693, -45.75884 ], [ -72.57478, -45.75909 ], [ -72.57425, -45.75932 ], [ -72.57261, -45.76053 ], [ -72.57163, -45.76087 ], [ -72.56991, -45.76041 ], [ -72.56418, -45.75638 ], [ -72.56289, -45.75489 ], [ -72.56257, -45.75339 ], [ -72.56225, -45.75285 ], [ -72.56155, -45.75234 ], [ -72.56066, -45.75213 ], [ -72.55962, -45.75217 ], [ -72.55752, -45.75307 ], [ -72.55682, -45.75313 ], [ -72.55611, -45.75296 ], [ -72.55569, -45.75258 ], [ -72.55567, -45.75237 ], [ -72.55651, -45.75086 ], [ -72.55713, -45.74851 ], [ -72.55799, -45.74682 ], [ -72.55821, -45.74545 ], [ -72.55746, -45.74306 ], [ -72.55558, -45.74035 ], [ -72.5554, -45.73902 ], [ -72.55572, -45.73825 ] ], [ [ -72.55572, -45.73825 ], [ -72.55667, -45.73756 ], [ -72.55898, -45.73718 ], [ -72.55946, -45.73673 ], [ -72.56107, -45.73397 ], [ -72.56152, -45.73282 ], [ -72.56176, -45.73086 ], [ -72.56163, -45.7295 ], [ -72.56074, -45.72744 ], [ -72.56088, -45.72676 ], [ -72.56242, -45.72496 ], [ -72.56742, -45.72295 ], [ -72.56806, -45.72227 ], [ -72.56814, -45.72188 ], [ -72.56733, -45.72044 ], [ -72.56618, -45.71898 ], [ -72.56548, -45.7185 ], [ -72.5636, -45.71788 ], [ -72.56263, -45.71782 ], [ -72.56099, -45.71817 ], [ -72.56028, -45.71865 ], [ -72.55982, -45.71968 ], [ -72.55923, -45.71999 ], [ -72.55851, -45.72003 ], [ -72.55758, -45.71977 ], [ -72.55722, -45.71954 ], [ -72.557, -45.71896 ], [ -72.55709, -45.71806 ], [ -72.55774, -45.71606 ], [ -72.55865, -45.71511 ], [ -72.56104, -45.71348 ], [ -72.5636, -45.71266 ], [ -72.56697, -45.71251 ], [ -72.57155, -45.71272 ], [ -72.57358, -45.71325 ], [ -72.57536, -45.71447 ], [ -72.57651, -45.71487 ], [ -72.57705, -45.71486 ], [ -72.57819, -45.71444 ], [ -72.57885, -45.71368 ], [ -72.57885, -45.71309 ], [ -72.57851, -45.7127 ], [ -72.57702, -45.71275 ], [ -72.57669, -45.71255 ], [ -72.57642, -45.71225 ], [ -72.57638, -45.7118 ], [ -72.57579, -45.71075 ], [ -72.57437, -45.71005 ], [ -72.57367, -45.71002 ], [ -72.57147, -45.71039 ], [ -72.5704, -45.7103 ], [ -72.56842, -45.70936 ], [ -72.5639, -45.70873 ], [ -72.56314, -45.70842 ], [ -72.56293, -45.70814 ], [ -72.56306, -45.7078 ], [ -72.56528, -45.70596 ], [ -72.56726, -45.70396 ], [ -72.56936, -45.70302 ], [ -72.57076, -45.70288 ], [ -72.57389, -45.70303 ], [ -72.57765, -45.70295 ], [ -72.58061, -45.70246 ], [ -72.5829, -45.70183 ] ], [ [ -72.5829, -45.70183 ], [ -72.58385, -45.70145 ], [ -72.58486, -45.70077 ], [ -72.58579, -45.69914 ], [ -72.58609, -45.69793 ], [ -72.58577, -45.6961 ], [ -72.58506, -45.69448 ], [ -72.58367, -45.69205 ], [ -72.58288, -45.68967 ], [ -72.58315, -45.68804 ], [ -72.58397, -45.68675 ], [ -72.58552, -45.68574 ], [ -72.58679, -45.68546 ], [ -72.58946, -45.6855 ], [ -72.59118, -45.68607 ], [ -72.59253, -45.68698 ], [ -72.5939, -45.68843 ], [ -72.59436, -45.68957 ], [ -72.59438, -45.69129 ], [ -72.59475, -45.69189 ], [ -72.59529, -45.69211 ], [ -72.59557, -45.6921 ], [ -72.59588, -45.69186 ], [ -72.5964, -45.69092 ], [ -72.59789, -45.68917 ], [ -72.59848, -45.68822 ], [ -72.5988, -45.68577 ], [ -72.59873, -45.68353 ], [ -72.59814, -45.68194 ], [ -72.59741, -45.68101 ], [ -72.59552, -45.67967 ], [ -72.59304, -45.67897 ], [ -72.59034, -45.6786 ], [ -72.58958, -45.67824 ], [ -72.5893, -45.67766 ], [ -72.58938, -45.67729 ], [ -72.58988, -45.67662 ], [ -72.5908, -45.67606 ], [ -72.59166, -45.67577 ], [ -72.59386, -45.67568 ], [ -72.59662, -45.67604 ], [ -72.5977, -45.676 ], [ -72.59918, -45.6757 ], [ -72.60079, -45.67485 ], [ -72.60159, -45.67418 ], [ -72.60181, -45.67335 ], [ -72.60145, -45.67261 ], [ -72.59973, -45.67091 ], [ -72.59943, -45.67004 ], [ -72.59956, -45.66944 ], [ -72.60001, -45.66902 ], [ -72.60112, -45.66851 ], [ -72.60567, -45.66728 ], [ -72.60663, -45.66673 ], [ -72.60715, -45.66609 ], [ -72.6074, -45.66533 ], [ -72.60737, -45.66462 ], [ -72.60667, -45.66367 ], [ -72.60514, -45.66227 ], [ -72.60369, -45.65771 ], [ -72.60384, -45.65671 ], [ -72.60487, -45.65402 ], [ -72.60466, -45.65258 ], [ -72.60411, -45.65078 ] ], [ [ -72.60411, -45.65078 ], [ -72.60426, -45.64935 ], [ -72.60511, -45.64793 ], [ -72.60675, -45.64586 ], [ -72.60734, -45.64471 ], [ -72.60786, -45.64289 ], [ -72.60844, -45.64204 ], [ -72.61001, -45.64067 ], [ -72.6111, -45.64021 ], [ -72.61353, -45.63959 ], [ -72.61391, -45.63941 ], [ -72.61422, -45.63902 ], [ -72.61386, -45.63792 ], [ -72.61266, -45.63645 ], [ -72.61046, -45.63491 ], [ -72.60755, -45.63383 ], [ -72.60664, -45.6331 ], [ -72.60649, -45.63255 ], [ -72.60696, -45.63198 ], [ -72.60784, -45.63147 ], [ -72.60852, -45.63053 ], [ -72.60856, -45.62945 ], [ -72.60777, -45.62794 ], [ -72.60769, -45.62682 ], [ -72.60881, -45.62302 ], [ -72.60996, -45.62148 ], [ -72.6141, -45.61874 ], [ -72.61495, -45.61769 ], [ -72.61446, -45.61714 ], [ -72.61131, -45.61576 ], [ -72.60836, -45.61355 ], [ -72.60769, -45.61271 ], [ -72.60655, -45.61073 ], [ -72.60543, -45.60964 ], [ -72.60328, -45.60822 ], [ -72.6026, -45.60729 ], [ -72.60275, -45.60643 ], [ -72.60356, -45.6052 ], [ -72.60431, -45.60416 ], [ -72.60585, -45.6027 ], [ -72.607, -45.60194 ], [ -72.60912, -45.60096 ], [ -72.61172, -45.60021 ], [ -72.6133, -45.59958 ], [ -72.61428, -45.5988 ], [ -72.61456, -45.59801 ], [ -72.61459, -45.59688 ], [ -72.61441, -45.5964 ], [ -72.6134, -45.59539 ], [ -72.6128, -45.5951 ], [ -72.61064, -45.59468 ], [ -72.60947, -45.59422 ], [ -72.60622, -45.59373 ], [ -72.60561, -45.59341 ], [ -72.60548, -45.59287 ], [ -72.60614, -45.59222 ], [ -72.60762, -45.5914 ], [ -72.61018, -45.59051 ], [ -72.61249, -45.59021 ], [ -72.61719, -45.59033 ], [ -72.6182, -45.59007 ], [ -72.61842, -45.58963 ], [ -72.61843, -45.58901 ], [ -72.61809, -45.58795 ], [ -72.61749, -45.58694 ], [ -72.61679, -45.5862 ], [ -72.61622, -45.58585 ], [ -72.61355, -45.58461 ], [ -72.61295, -45.5841 ], [ -72.61289, -45.58375 ], [ -72.61324, -45.58332 ], [ -72.61535, -45.5825 ], [ -72.62173, -45.58183 ], [ -72.62257, -45.58152 ], [ -72.62295, -45.58107 ], [ -72.62298, -45.58008 ], [ -72.62181, -45.57777 ], [ -72.62182, -45.57737 ], [ -72.62273, -45.57655 ], [ -72.62279, -45.57542 ], [ -72.62371, -45.57515 ], [ -72.62476, -45.57531 ] ], [ [ -72.62476, -45.57531 ], [ -72.62617, -45.57551 ], [ -72.62729, -45.57506 ], [ -72.62753, -45.57424 ], [ -72.62656, -45.57329 ], [ -72.62644, -45.5729 ], [ -72.627, -45.5721 ], [ -72.62753, -45.57174 ], [ -72.63055, -45.57072 ], [ -72.6317, -45.56997 ], [ -72.63387, -45.57028 ], [ -72.63513, -45.57025 ], [ -72.63615, -45.56993 ], [ -72.63724, -45.56934 ], [ -72.63828, -45.56916 ], [ -72.63976, -45.56762 ], [ -72.6416, -45.56622 ], [ -72.64298, -45.56548 ], [ -72.64363, -45.56321 ], [ -72.64384, -45.56074 ], [ -72.64416, -45.55996 ], [ -72.64576, -45.5578 ], [ -72.64669, -45.55576 ], [ -72.64784, -45.55433 ], [ -72.64948, -45.55005 ], [ -72.64962, -45.54918 ], [ -72.64953, -45.54822 ], [ -72.6505, -45.54603 ], [ -72.6507, -45.545 ], [ -72.65108, -45.54477 ], [ -72.65332, -45.54423 ], [ -72.65554, -45.54297 ] ], [ [ -72.65554, -45.54297 ], [ -72.65664, -45.54224 ], [ -72.65823, -45.54079 ], [ -72.65998, -45.54057 ], [ -72.6613, -45.54083 ], [ -72.66266, -45.54036 ], [ -72.66355, -45.54051 ], [ -72.66525, -45.54036 ], [ -72.66634, -45.5395 ], [ -72.6673, -45.53833 ], [ -72.66869, -45.53596 ], [ -72.6699, -45.53454 ], [ -72.67103, -45.5337 ], [ -72.67262, -45.53299 ], [ -72.67341, -45.53246 ], [ -72.6739, -45.53177 ], [ -72.67429, -45.53077 ], [ -72.67425, -45.52919 ], [ -72.67292, -45.52741 ], [ -72.67167, -45.52631 ], [ -72.67128, -45.52578 ], [ -72.67101, -45.5248 ], [ -72.67138, -45.52383 ], [ -72.67224, -45.52298 ], [ -72.67323, -45.52264 ], [ -72.67461, -45.52254 ], [ -72.67541, -45.52226 ], [ -72.67669, -45.52135 ], [ -72.67695, -45.52096 ], [ -72.67702, -45.52037 ], [ -72.67678, -45.51924 ], [ -72.67523, -45.51734 ], [ -72.67268, -45.5161 ], [ -72.6705, -45.51538 ], [ -72.6692, -45.51467 ], [ -72.66883, -45.51391 ], [ -72.66881, -45.51275 ], [ -72.66946, -45.51163 ], [ -72.67248, -45.50947 ], [ -72.67408, -45.50656 ], [ -72.67477, -45.50439 ], [ -72.67481, -45.50348 ], [ -72.67416, -45.50146 ], [ -72.67191, -45.49974 ], [ -72.6706, -45.49929 ], [ -72.66948, -45.49921 ], [ -72.66857, -45.49924 ], [ -72.6672, -45.49955 ], [ -72.66604, -45.50069 ], [ -72.66585, -45.50152 ], [ -72.66601, -45.50238 ], [ -72.66669, -45.50297 ], [ -72.66924, -45.50447 ], [ -72.66982, -45.50523 ], [ -72.67, -45.50626 ], [ -72.6696, -45.5072 ], [ -72.66777, -45.50867 ], [ -72.66658, -45.50914 ], [ -72.66542, -45.50908 ], [ -72.66525, -45.50884 ], [ -72.66468, -45.50629 ], [ -72.66439, -45.50591 ], [ -72.66146, -45.50413 ], [ -72.66102, -45.50367 ], [ -72.66074, -45.5033 ], [ -72.66021, -45.501 ], [ -72.6587, -45.49912 ], [ -72.65482, -45.49579 ], [ -72.65331, -45.49505 ], [ -72.65132, -45.49439 ], [ -72.64882, -45.4938 ], [ -72.64762, -45.49321 ] ], [ [ -72.61983, -45.79505 ], [ -72.61843, -45.79289 ], [ -72.61843, -45.79226 ], [ -72.61873, -45.79166 ], [ -72.6185, -45.79118 ], [ -72.61857, -45.78943 ], [ -72.61889, -45.78836 ], [ -72.61791, -45.78596 ], [ -72.61767, -45.78414 ], [ -72.61815, -45.7831 ], [ -72.61849, -45.77837 ], [ -72.61883, -45.7776 ], [ -72.61978, -45.77651 ], [ -72.62004, -45.77505 ], [ -72.62062, -45.7733 ], [ -72.62054, -45.7726 ], [ -72.62117, -45.76929 ], [ -72.62094, -45.7689 ], [ -72.61985, -45.76885 ], [ -72.61911, -45.76849 ] ], [ [ -72.60493, -45.79895 ], [ -72.60616, -45.79818 ], [ -72.60626, -45.79775 ], [ -72.60648, -45.7976 ], [ -72.60841, -45.79718 ], [ -72.60888, -45.79642 ], [ -72.60929, -45.79613 ], [ -72.61002, -45.79609 ], [ -72.61208, -45.79637 ], [ -72.61645, -45.79631 ], [ -72.61843, -45.79643 ], [ -72.61939, -45.79593 ], [ -72.61983, -45.79505 ] ], [ [ -72.55572, -45.73825 ], [ -72.55614, -45.73675 ], [ -72.55606, -45.73622 ], [ -72.55531, -45.73474 ], [ -72.55574, -45.73357 ], [ -72.55763, -45.73208 ], [ -72.55934, -45.73176 ], [ -72.55997, -45.73133 ], [ -72.56038, -45.73041 ], [ -72.56071, -45.72722 ] ] ] } },
{ "type": "Feature", "properties": { "nombre": "Río Cajón", "tipo": "stream", "volcan_codigo": "HUD", "volcan_nombre": "Hudson", "drena_volcan": false }, "geometry": { "type": "LineString", "coordinates": [ [ -72.68759, -46.16308 ], [ -72.68743, -46.16372 ], [ -72.68655, -46.16452 ], [ -72.68654, -46.16476 ], [ -72.6872, -46.1655 ], [ -72.68686, -46.16582 ], [ -72.6868, -46.16658 ], [ -72.68648, -46.1667 ], [ -72.68513, -46.16652 ], [ -72.68391, -46.16661 ], [ -72.68269, -46.16701 ], [ -72.68258, -46.16726 ], [ -72.68298, -46.16823 ], [ -72.68245, -46.16926 ], [ -72.68106, -46.16962 ], [ -72.68031, -46.16954 ], [ -72.67856, -46.16891 ], [ -72.67754, -46.16768 ], [ -72.67665, -46.16722 ], [ -72.6749, -46.16672 ], [ -72.67446, -46.16639 ], [ -72.67441, -46.16599 ], [ -72.6742, -46.1658 ], [ -72.67284, -46.16549 ], [ -72.67135, -46.16466 ], [ -72.66693, -46.16291 ], [ -72.66191, -46.16228 ], [ -72.66154, -46.16201 ], [ -72.66111, -46.16134 ], [ -72.6605, -46.16105 ], [ -72.65951, -46.16094 ], [ -72.65663, -46.16014 ], [ -72.65195, -46.15933 ], [ -72.64894, -46.1598 ], [ -72.64773, -46.16048 ], [ -72.64666, -46.15991 ], [ -72.64578, -46.15984 ], [ -72.64532, -46.15965 ], [ -72.64464, -46.15885 ], [ -72.64315, -46.15817 ], [ -72.64246, -46.15751 ], [ -72.6401, -46.15729 ], [ -72.63719, -46.15605 ], [ -72.63659, -46.15552 ], [ -72.63584, -46.1555 ], [ -72.63509, -46.15509 ], [ -72.63341, -46.15522 ], [ -72.63317, -46.15512 ], [ -72.63048, -46.15225 ], [ -72.62835, -46.15129 ], [ -72.62713, -46.15003 ], [ -72.62597, -46.14919 ], [ -72.62568, -46.14836 ], [ -72.62491, -46.14701 ], [ -72.6239, -46.14642 ], [ -72.62268, -46.14604 ], [ -72.62045, -46.1448 ], [ -72.61958, -46.14397 ], [ -72.61929, -46.14346 ], [ -72.61711, -46.14179 ], [ -72.6159, -46.14106 ], [ -72.61319, -46.14021 ], [ -72.61147, -46.13897 ], [ -72.61084, -46.1387 ], [ -72.60796, -46.1379 ], [ -72.60574, -46.13749 ], [ -72.60402, -46.13588 ], [ -72.60292, -46.13573 ], [ -72.60193, -46.13604 ], [ -72.60132, -46.13602 ], [ -72.60098, -46.13581 ], [ -72.60076, -46.13525 ], [ -72.60041, -46.13488 ], [ -72.59898, -46.13444 ], [ -72.59737, -46.13439 ], [ -72.59714, -46.13399 ], [ -72.59737, -46.13368 ], [ -72.59731, -46.13352 ], [ -72.5961, -46.13269 ], [ -72.59518, -46.13244 ], [ -72.59346, -46.13242 ], [ -72.5919, -46.13311 ], [ -72.59005, -46.13303 ], [ -72.58925, -46.13251 ], [ -72.58853, -46.1314 ], [ -72.58855, -46.13092 ], [ -72.58775, -46.13025 ], [ -72.58677, -46.12991 ], [ -72.58631, -46.13017 ], [ -72.58534, -46.1302 ], [ -72.58435, -46.12985 ], [ -72.5831, -46.12972 ], [ -72.58098, -46.13014 ], [ -72.57276, -46.12956 ], [ -72.56833, -46.12887 ], [ -72.56549, -46.12815 ], [ -72.56446, -46.12736 ], [ -72.56458, -46.12705 ], [ -72.56515, -46.1271 ], [ -72.56572, -46.12677 ], [ -72.56535, -46.12566 ], [ -72.56486, -46.12493 ], [ -72.56445, -46.12322 ], [ -72.56231, -46.12277 ], [ -72.56054, -46.12194 ], [ -72.55666, -46.12056 ], [ -72.55441, -46.11915 ], [ -72.55147, -46.11966 ], [ -72.55094, -46.11961 ], [ -72.54989, -46.11902 ], [ -72.54976, -46.11765 ], [ -72.54923, -46.11711 ], [ -72.54948, -46.11659 ], [ -72.54959, -46.11578 ], [ -72.55, -46.11516 ], [ -72.55036, -46.11414 ], [ -72.55029, -46.11393 ], [ -72.54905, -46.11348 ], [ -72.54783, -46.11242 ], [ -72.54749, -46.11189 ], [ -72.5475, -46.11145 ], [ -72.54714, -46.11089 ], [ -72.54673, -46.11058 ], [ -72.54406, -46.11026 ], [ -72.54313, -46.10976 ], [ -72.54201, -46.1086 ], [ -72.54077, -46.10809 ], [ -72.53903, -46.10767 ], [ -72.53665, -46.10619 ], [ -72.53334, -46.10667 ] ] } },
{ "type": "Feature", "properties": { "nombre": "Río Cajón Blanco", "tipo": "river", "volcan_codigo": "HUD", "volcan_nombre": "Hudson", "drena_volcan": false }, "geometry": { "type": "MultiLineString", "coordinates": [ [ [ -72.70888, -45.85009 ], [ -72.70732, -45.84936 ], [ -72.70643, -45.84851 ], [ -72.70493, -45.84804 ], [ -72.70396, -45.84797 ], [ -72.70173, -45.84872 ], [ -72.70072, -45.84864 ], [ -72.70011, -45.84827 ], [ -72.69962, -45.84691 ], [ -72.69934, -45.8466 ] ], [ [ -72.69934, -45.8466 ], [ -72.69741, -45.84583 ], [ -72.69688, -45.8454 ], [ -72.69668, -45.84498 ], [ -72.69707, -45.84409 ], [ -72.69711, -45.84351 ], [ -72.69684, -45.84203 ] ], [ [ -72.69684, -45.84203 ], [ -72.6966, -45.84149 ], [ -72.69658, -45.84067 ], [ -72.69626, -45.84033 ], [ -72.69548, -45.84 ], [ -72.69522, -45.83962 ], [ -72.69535, -45.83818 ], [ -72.69508, -45.83789 ], [ -72.69382, -45.83732 ], [ -72.69307, -45.83604 ], [ -72.69155, -45.83501 ], [ -72.6908, -45.83338 ], [ -72.69092, -45.83287 ], [ -72.6919, -45.8319 ], [ -72.69255, -45.83014 ], [ -72.69407, -45.82768 ], [ -72.69396, -45.82643 ], [ -72.69364, -45.82579 ], [ -72.69116, -45.82335 ], [ -72.68988, -45.82185 ], [ -72.68924, -45.81839 ], [ -72.6888, -45.81734 ], [ -72.68814, -45.81666 ], [ -72.68612, -45.81556 ], [ -72.68522, -45.8139 ], [ -72.68482, -45.81377 ], [ -72.68384, -45.81397 ], [ -72.68304, -45.81393 ], [ -72.67969, -45.81302 ], [ -72.67457, -45.81248 ], [ -72.67191, -45.81191 ], [ -72.66869, -45.81081 ], [ -72.66473, -45.81004 ], [ -72.66304, -45.80999 ], [ -72.66139, -45.81015 ], [ -72.65672, -45.81169 ], [ -72.65555, -45.81181 ], [ -72.65345, -45.81165 ], [ -72.65178, -45.81202 ], [ -72.65117, -45.81192 ], [ -72.64898, -45.81076 ], [ -72.64679, -45.80987 ], [ -72.64637, -45.80991 ], [ -72.64447, -45.81069 ], [ -72.643, -45.81076 ], [ -72.64227, -45.81026 ], [ -72.6412, -45.80996 ], [ -72.6399, -45.80913 ], [ -72.63774, -45.8089 ], [ -72.63521, -45.80813 ], [ -72.63407, -45.80756 ], [ -72.63485, -45.80508 ], [ -72.63433, -45.80286 ], [ -72.63456, -45.80249 ], [ -72.63615, -45.80175 ], [ -72.63636, -45.8013 ], [ -72.63611, -45.80099 ], [ -72.6344, -45.80011 ], [ -72.63373, -45.79918 ], [ -72.63288, -45.79878 ], [ -72.63107, -45.79909 ], [ -72.62987, -45.79869 ], [ -72.6296, -45.79827 ], [ -72.62939, -45.79642 ], [ -72.62863, -45.79547 ], [ -72.62802, -45.7953 ], [ -72.62497, -45.79518 ], [ -72.62073, -45.79546 ], [ -72.62026, -45.7954 ], [ -72.61983, -45.79505 ] ], [ [ -72.73474, -45.86261 ], [ -72.73352, -45.86279 ], [ -72.7321, -45.8627 ], [ -72.73109, -45.8629 ], [ -72.73045, -45.86284 ], [ -72.72911, -45.86248 ], [ -72.72774, -45.86166 ], [ -72.72581, -45.86142 ], [ -72.72523, -45.86118 ], [ -72.72314, -45.85921 ], [ -72.72303, -45.85827 ], [ -72.72328, -45.8556 ], [ -72.72304, -45.85484 ] ], [ [ -72.72304, -45.85484 ], [ -72.72281, -45.85446 ], [ -72.72238, -45.85426 ], [ -72.72057, -45.85401 ], [ -72.71951, -45.85263 ], [ -72.71803, -45.85173 ], [ -72.71178, -45.85085 ], [ -72.70888, -45.85009 ] ], [ [ -72.69934, -45.8466 ], [ -72.69919, -45.84606 ], [ -72.69947, -45.84519 ], [ -72.69938, -45.84425 ], [ -72.69829, -45.84368 ], [ -72.69783, -45.84296 ], [ -72.69684, -45.84203 ] ], [ [ -72.7637, -45.87038 ], [ -72.76161, -45.86955 ], [ -72.7605, -45.8682 ], [ -72.76005, -45.86792 ], [ -72.75622, -45.86821 ], [ -72.75535, -45.86795 ], [ -72.75387, -45.86714 ], [ -72.75304, -45.867 ], [ -72.75202, -45.86718 ], [ -72.75113, -45.86852 ], [ -72.74843, -45.87006 ], [ -72.74762, -45.87015 ], [ -72.74456, -45.86964 ], [ -72.74216, -45.86769 ], [ -72.74022, -45.86711 ], [ -72.73945, -45.86663 ], [ -72.73905, -45.86562 ], [ -72.73893, -45.8645 ], [ -72.73858, -45.86401 ], [ -72.73628, -45.86274 ], [ -72.73474, -45.86261 ] ], [ [ -72.72775, -45.85835 ], [ -72.72726, -45.8579 ], [ -72.72536, -45.85691 ], [ -72.72524, -45.8566 ], [ -72.72533, -45.85569 ], [ -72.72495, -45.85537 ], [ -72.72304, -45.85484 ] ], [ [ -72.73474, -45.86261 ], [ -72.73397, -45.86225 ], [ -72.73353, -45.8615 ], [ -72.73259, -45.86103 ], [ -72.73109, -45.86133 ], [ -72.72921, -45.86079 ], [ -72.72884, -45.86039 ], [ -72.72853, -45.85893 ], [ -72.72804, -45.85842 ], [ -72.72716, -45.85836 ], [ -72.72635, -45.85899 ], [ -72.72545, -45.859 ], [ -72.72489, -45.85878 ], [ -72.72313, -45.85742 ] ] ] } },
{ "type": "Feature", "properties": { "nombre": "Río Cajón Bravo", "tipo": "river", "volcan_codigo": "HUD", "volcan_nombre": "Hudson", "drena_volcan": false }, "geometry": { "type": "MultiLineString", "coordinates": [ [ [ -72.85866, -45.79694 ], [ -72.85837, -45.79698 ], [ -72.85732, -45.79655 ], [ -72.85442, -45.79667 ], [ -72.85417, -45.79671 ], [ -72.85398, -45.79726 ], [ -72.8532, -45.79761 ], [ -72.85176, -45.79704 ], [ -72.85119, -45.79707 ], [ -72.85027, -45.79737 ], [ -72.85016, -45.79754 ], [ -72.85033, -45.79789 ], [ -72.85126, -45.79831 ], [ -72.85107, -45.79873 ], [ -72.84979, -45.79872 ], [ -72.84897, -45.7993 ], [ -72.84684, -45.79903 ], [ -72.84631, -45.79876 ], [ -72.84573, -45.79887 ], [ -72.84543, -45.7993 ], [ -72.84428, -45.79899 ], [ -72.84332, -45.79902 ], [ -72.84288, -45.79927 ], [ -72.84261, -45.80054 ], [ -72.84159, -45.80067 ], [ -72.83992, -45.80052 ], [ -72.83968, -45.80098 ], [ -72.83948, -45.80106 ], [ -72.83783, -45.80103 ], [ -72.8375, -45.80087 ], [ -72.83768, -45.80041 ], [ -72.83746, -45.80017 ], [ -72.83709, -45.79998 ], [ -72.8363, -45.79995 ], [ -72.83603, -45.80019 ], [ -72.83619, -45.80039 ], [ -72.83622, -45.80137 ], [ -72.83659, -45.80171 ], [ -72.83676, -45.80229 ], [ -72.8366, -45.80304 ], [ -72.83598, -45.8037 ], [ -72.83468, -45.80436 ], [ -72.83408, -45.80499 ], [ -72.83237, -45.80572 ], [ -72.83146, -45.80585 ], [ -72.83023, -45.80541 ], [ -72.82945, -45.80544 ], [ -72.82899, -45.80661 ], [ -72.82905, -45.8069 ], [ -72.83001, -45.80723 ], [ -72.8302, -45.80745 ], [ -72.83007, -45.80762 ], [ -72.82684, -45.80744 ], [ -72.82643, -45.80765 ], [ -72.8259, -45.80826 ], [ -72.82499, -45.80836 ], [ -72.82435, -45.80823 ], [ -72.82263, -45.80862 ], [ -72.82187, -45.80903 ], [ -72.82111, -45.80888 ], [ -72.82005, -45.80894 ], [ -72.81922, -45.80846 ], [ -72.81839, -45.80752 ], [ -72.81822, -45.80673 ], [ -72.81797, -45.80652 ], [ -72.81637, -45.80592 ], [ -72.81412, -45.80566 ], [ -72.81329, -45.8053 ], [ -72.81279, -45.80496 ], [ -72.81249, -45.80453 ], [ -72.81234, -45.8036 ], [ -72.81168, -45.80331 ], [ -72.81097, -45.80347 ], [ -72.81013, -45.80483 ], [ -72.80934, -45.8053 ], [ -72.80896, -45.80535 ], [ -72.80846, -45.80524 ], [ -72.80775, -45.80471 ], [ -72.806, -45.80414 ], [ -72.80431, -45.804 ], [ -72.80235, -45.80355 ], [ -72.80157, -45.80364 ], [ -72.80094, -45.804 ], [ -72.80025, -45.80409 ], [ -72.79804, -45.803 ], [ -72.79741, -45.803 ], [ -72.7967, -45.80346 ], [ -72.79486, -45.80363 ], [ -72.79367, -45.80409 ], [ -72.79215, -45.80415 ], [ -72.79021, -45.80308 ], [ -72.78984, -45.80249 ], [ -72.78937, -45.80214 ], [ -72.78858, -45.80196 ], [ -72.78711, -45.80183 ], [ -72.78573, -45.80214 ], [ -72.78279, -45.80228 ], [ -72.78137, -45.80202 ], [ -72.77917, -45.80093 ], [ -72.77783, -45.80049 ], [ -72.77625, -45.80037 ], [ -72.77542, -45.79984 ], [ -72.77391, -45.79965 ], [ -72.77324, -45.80004 ] ], [ [ -72.77324, -45.80004 ], [ -72.77189, -45.80087 ], [ -72.77151, -45.80091 ], [ -72.77103, -45.80058 ], [ -72.77052, -45.79982 ], [ -72.77005, -45.79982 ], [ -72.76958, -45.79944 ], [ -72.76834, -45.79926 ], [ -72.76775, -45.7996 ], [ -72.76696, -45.79955 ], [ -72.76261, -45.79772 ], [ -72.76099, -45.79798 ], [ -72.75917, -45.79755 ], [ -72.75889, -45.79728 ], [ -72.75718, -45.79673 ], [ -72.75653, -45.79681 ], [ -72.75615, -45.79668 ] ], [ [ -72.75615, -45.79668 ], [ -72.75488, -45.79625 ], [ -72.75121, -45.79609 ], [ -72.74945, -45.79556 ], [ -72.74894, -45.79506 ], [ -72.74808, -45.79482 ], [ -72.7476, -45.79512 ], [ -72.7463, -45.79509 ], [ -72.74561, -45.79461 ], [ -72.74357, -45.79437 ], [ -72.74316, -45.79445 ], [ -72.74173, -45.79534 ], [ -72.74034, -45.7951 ], [ -72.73906, -45.79552 ], [ -72.73848, -45.79547 ], [ -72.73821, -45.79633 ], [ -72.73767, -45.7964 ], [ -72.73749, -45.79683 ], [ -72.73779, -45.79729 ], [ -72.73783, -45.79863 ], [ -72.73805, -45.79902 ], [ -72.73958, -45.80008 ], [ -72.73993, -45.80063 ], [ -72.73999, -45.80102 ], [ -72.73976, -45.80134 ] ], [ [ -72.73976, -45.80134 ], [ -72.73913, -45.80148 ], [ -72.73811, -45.80137 ], [ -72.73776, -45.8012 ], [ -72.7368, -45.80013 ], [ -72.73619, -45.79986 ], [ -72.73503, -45.80096 ], [ -72.73353, -45.80314 ], [ -72.73302, -45.8048 ], [ -72.73258, -45.80516 ], [ -72.7318, -45.8053 ], [ -72.73023, -45.80511 ], [ -72.72846, -45.80514 ], [ -72.72812, -45.80533 ], [ -72.72805, -45.80562 ], [ -72.72864, -45.80617 ], [ -72.72811, -45.80704 ], [ -72.72718, -45.80758 ], [ -72.72529, -45.8082 ], [ -72.7228, -45.80819 ], [ -72.7218, -45.80783 ], [ -72.71997, -45.80805 ], [ -72.71919, -45.80769 ], [ -72.71823, -45.80664 ], [ -72.71784, -45.8065 ], [ -72.71593, -45.80655 ], [ -72.71484, -45.80637 ], [ -72.71389, -45.80677 ], [ -72.70931, -45.80696 ], [ -72.70805, -45.80715 ], [ -72.70567, -45.80693 ], [ -72.7049, -45.80663 ], [ -72.70446, -45.80563 ], [ -72.70288, -45.80552 ], [ -72.70272, -45.80533 ], [ -72.70291, -45.8049 ], [ -72.70257, -45.80451 ], [ -72.70198, -45.80474 ], [ -72.70092, -45.80476 ], [ -72.70045, -45.8053 ], [ -72.69996, -45.80527 ], [ -72.69953, -45.80591 ], [ -72.69824, -45.80608 ], [ -72.69704, -45.80703 ], [ -72.69625, -45.80697 ], [ -72.69501, -45.80726 ], [ -72.69429, -45.80721 ], [ -72.69381, -45.80711 ], [ -72.69364, -45.80638 ], [ -72.69342, -45.80627 ], [ -72.69263, -45.8062 ], [ -72.69195, -45.80591 ], [ -72.69152, -45.80611 ], [ -72.69075, -45.80614 ], [ -72.69051, -45.80623 ], [ -72.69006, -45.80709 ], [ -72.68843, -45.80759 ], [ -72.68789, -45.80798 ], [ -72.68669, -45.80828 ], [ -72.68577, -45.80987 ], [ -72.68526, -45.8103 ], [ -72.68455, -45.8115 ], [ -72.68387, -45.81181 ], [ -72.68218, -45.81181 ], [ -72.68157, -45.81218 ], [ -72.68099, -45.81343 ] ] ] } },
{ "type": "Feature", "properties": { "nombre": "Río Despluyado", "tipo": "river", "volcan_codigo": "HUD", "volcan_nombre": "Hudson", "drena_volcan": false }, "geometry": { "type": "MultiLineString", "coordinates": [ [ [ -72.97381, -45.85522 ], [ -72.97543, -45.85254 ], [ -72.97573, -45.85243 ], [ -72.97651, -45.85161 ], [ -72.97761, -45.85117 ], [ -72.97882, -45.85028 ], [ -72.97833, -45.84886 ], [ -72.97845, -45.84851 ], [ -72.97804, -45.84798 ], [ -72.97812, -45.84782 ], [ -72.97767, -45.84671 ], [ -72.97782, -45.84626 ], [ -72.97772, -45.84604 ], [ -72.97789, -45.8458 ], [ -72.97766, -45.84487 ], [ -72.97814, -45.84426 ], [ -72.97805, -45.84417 ], [ -72.97823, -45.84381 ], [ -72.97778, -45.8431 ], [ -72.97781, -45.84252 ], [ -72.97677, -45.84042 ], [ -72.97669, -45.83966 ], [ -72.97589, -45.83837 ], [ -72.97557, -45.83706 ], [ -72.976, -45.83553 ], [ -72.97643, -45.83536 ], [ -72.97799, -45.83533 ], [ -72.97825, -45.8349 ], [ -72.97835, -45.83427 ], [ -72.97875, -45.83397 ], [ -72.97891, -45.83356 ], [ -72.97919, -45.83337 ], [ -72.98016, -45.8332 ], [ -72.98054, -45.8329 ], [ -72.98018, -45.83225 ], [ -72.98038, -45.832 ], [ -72.9808, -45.83186 ], [ -72.98284, -45.83173 ], [ -72.98373, -45.8321 ], [ -72.98549, -45.83219 ], [ -72.98967, -45.83305 ], [ -72.99192, -45.83259 ], [ -72.99255, -45.83232 ], [ -72.99325, -45.83201 ], [ -72.99441, -45.831 ], [ -72.99439, -45.83048 ], [ -72.99475, -45.82993 ], [ -72.99454, -45.82963 ], [ -72.99466, -45.82914 ], [ -72.99373, -45.82829 ], [ -72.99267, -45.82683 ], [ -72.99072, -45.82603 ], [ -72.99045, -45.8253 ], [ -72.99073, -45.82469 ], [ -72.99133, -45.82409 ], [ -72.99395, -45.82306 ], [ -72.9945, -45.8226 ], [ -72.99469, -45.8221 ], [ -72.9946, -45.82161 ], [ -72.99392, -45.82036 ], [ -72.99385, -45.8193 ], [ -72.99444, -45.81849 ], [ -72.99411, -45.81758 ], [ -72.99429, -45.81701 ], [ -72.99507, -45.81638 ], [ -72.99647, -45.8158 ], [ -72.99765, -45.81472 ], [ -72.99931, -45.81442 ], [ -73.00003, -45.81394 ], [ -73.00005, -45.81372 ], [ -72.99959, -45.81309 ], [ -72.99959, -45.81276 ], [ -73.00072, -45.81171 ], [ -73.00251, -45.81056 ], [ -73.00236, -45.80926 ], [ -73.00247, -45.80889 ], [ -73.00419, -45.80794 ], [ -73.00491, -45.80677 ], [ -73.0053, -45.80664 ], [ -73.00601, -45.80699 ], [ -73.00749, -45.80729 ], [ -73.00813, -45.80711 ], [ -73.00835, -45.80685 ], [ -73.00837, -45.80622 ], [ -73.00875, -45.80575 ], [ -73.01092, -45.80427 ], [ -73.01317, -45.80244 ], [ -73.01344, -45.802 ], [ -73.01344, -45.80166 ], [ -73.01304, -45.80011 ], [ -73.01331, -45.79985 ], [ -73.0146, -45.79958 ], [ -73.0155, -45.79906 ], [ -73.01767, -45.79891 ], [ -73.01768, -45.79866 ], [ -73.01716, -45.79811 ], [ -73.01741, -45.79758 ], [ -73.01744, -45.79703 ], [ -73.017, -45.7963 ], [ -73.01623, -45.7959 ], [ -73.01608, -45.79563 ], [ -73.01779, -45.79374 ], [ -73.01784, -45.79249 ], [ -73.01754, -45.79168 ], [ -73.01773, -45.79074 ], [ -73.01755, -45.78948 ], [ -73.01802, -45.78906 ], [ -73.01926, -45.78853 ], [ -73.02039, -45.78772 ], [ -73.02046, -45.78663 ], [ -73.02136, -45.78524 ], [ -73.02185, -45.78416 ], [ -73.0226, -45.78356 ], [ -73.02301, -45.78266 ], [ -73.02381, -45.78166 ], [ -73.02386, -45.7814 ], [ -73.02281, -45.78079 ], [ -73.02275, -45.77993 ], [ -73.02298, -45.77941 ], [ -73.024, -45.77888 ], [ -73.02564, -45.77859 ], [ -73.02637, -45.77805 ], [ -73.02653, -45.77702 ], [ -73.02693, -45.77658 ], [ -73.02696, -45.7759 ], [ -73.02727, -45.77553 ], [ -73.02677, -45.7743 ], [ -73.02669, -45.77361 ], [ -73.02745, -45.7726 ], [ -73.02684, -45.77201 ], [ -73.0268, -45.771 ], [ -73.02727, -45.77034 ], [ -73.02887, -45.76927 ], [ -73.02972, -45.76812 ], [ -73.03142, -45.76705 ], [ -73.03145, -45.76685 ], [ -73.03124, -45.76661 ], [ -73.03054, -45.76612 ], [ -73.03043, -45.76571 ], [ -73.03108, -45.76466 ], [ -73.03179, -45.76418 ], [ -73.0322, -45.7632 ], [ -73.03202, -45.76199 ], [ -73.03101, -45.76093 ] ], [ [ -73.03101, -45.76093 ], [ -73.03083, -45.76074 ], [ -73.0308, -45.75977 ], [ -73.03043, -45.75946 ], [ -73.03041, -45.75924 ], [ -73.03054, -45.75863 ], [ -73.0309, -45.75828 ], [ -73.03095, -45.75779 ] ], [ [ -73.03095, -45.75779 ], [ -73.03132, -45.7571 ], [ -73.03239, -45.75662 ], [ -73.03246, -45.75638 ], [ -73.03218, -45.75605 ], [ -73.0329, -45.75529 ], [ -73.03277, -45.75506 ], [ -73.03192, -45.75463 ], [ -73.03179, -45.75365 ], [ -73.03111, -45.75301 ], [ -73.03102, -45.75269 ], [ -73.03129, -45.75221 ], [ -73.03109, -45.75141 ], [ -73.03243, -45.75063 ], [ -73.033, -45.74913 ], [ -73.03225, -45.74873 ], [ -73.03113, -45.74713 ], [ -73.03126, -45.74662 ], [ -73.03183, -45.74604 ], [ -73.03101, -45.74533 ], [ -73.03047, -45.74414 ], [ -73.03045, -45.74382 ], [ -73.03129, -45.74264 ], [ -73.032, -45.7423 ], [ -73.03195, -45.7418 ], [ -73.0323, -45.74163 ], [ -73.03221, -45.74096 ], [ -73.03259, -45.74035 ], [ -73.03218, -45.73959 ], [ -73.03155, -45.73889 ], [ -73.03139, -45.73837 ], [ -73.03083, -45.73786 ], [ -73.03074, -45.73752 ], [ -73.03134, -45.73729 ], [ -73.03155, -45.73691 ], [ -73.0323, -45.73632 ], [ -73.03267, -45.73569 ], [ -73.03275, -45.73503 ], [ -73.03252, -45.73455 ], [ -73.03091, -45.73388 ], [ -73.02977, -45.73312 ] ], [ [ -73.03099, -45.76096 ], [ -73.03101, -45.76093 ] ], [ [ -73.03101, -45.76093 ], [ -73.03154, -45.76023 ], [ -73.03247, -45.75981 ], [ -73.03262, -45.75947 ], [ -73.03234, -45.75882 ], [ -73.03253, -45.75817 ], [ -73.03139, -45.75802 ], [ -73.03095, -45.75779 ] ], [ [ -73.03095, -45.75779 ], [ -73.03093, -45.75778 ] ] ] } },
{ "type": "Feature", "properties": { "nombre": "Río El Salto", "tipo": "river", "volcan_codigo": "HUD", "volcan_nombre": "Hudson", "drena_volcan": false }, "geometry": { "type": "LineString", "coordinates": [ [ -72.76605, -45.48254 ], [ -72.76552, -45.48254 ], [ -72.76395, -45.48138 ], [ -72.76275, -45.48072 ], [ -72.76166, -45.47969 ], [ -72.76101, -45.47957 ], [ -72.75998, -45.47977 ], [ -72.75932, -45.47962 ], [ -72.75893, -45.47909 ], [ -72.75807, -45.47903 ], [ -72.75753, -45.47863 ], [ -72.75649, -45.47835 ], [ -72.75444, -45.4773 ], [ -72.75301, -45.47729 ], [ -72.75271, -45.47673 ], [ -72.752, -45.4767 ], [ -72.75132, -45.4764 ], [ -72.75121, -45.47581 ], [ -72.75061, -45.47551 ], [ -72.74876, -45.4754 ], [ -72.74801, -45.47492 ], [ -72.74614, -45.47432 ], [ -72.74513, -45.47351 ], [ -72.74273, -45.47264 ], [ -72.74218, -45.47221 ], [ -72.73909, -45.47081 ], [ -72.7389, -45.47039 ], [ -72.7384, -45.47027 ], [ -72.73724, -45.47036 ], [ -72.73647, -45.46924 ], [ -72.73606, -45.46905 ], [ -72.73637, -45.46787 ], [ -72.73716, -45.46695 ], [ -72.73801, -45.46705 ], [ -72.73825, -45.46684 ], [ -72.73826, -45.46638 ], [ -72.73938, -45.46567 ], [ -72.73992, -45.46489 ], [ -72.73954, -45.46404 ], [ -72.73912, -45.46389 ], [ -72.73926, -45.46352 ], [ -72.74038, -45.46214 ], [ -72.74052, -45.46077 ], [ -72.74126, -45.45971 ], [ -72.74133, -45.45914 ], [ -72.74414, -45.45811 ], [ -72.74484, -45.45714 ], [ -72.74517, -45.45698 ], [ -72.74672, -45.4566 ], [ -72.74657, -45.45606 ], [ -72.74696, -45.45552 ], [ -72.74746, -45.45555 ], [ -72.74926, -45.45516 ], [ -72.74983, -45.45543 ], [ -72.74991, -45.45583 ], [ -72.75088, -45.45616 ], [ -72.75113, -45.45662 ], [ -72.75226, -45.45641 ], [ -72.75526, -45.45635 ], [ -72.75554, -45.45646 ], [ -72.756, -45.45703 ], [ -72.75658, -45.45718 ], [ -72.75719, -45.45706 ], [ -72.75986, -45.45823 ], [ -72.76128, -45.45856 ], [ -72.76184, -45.45854 ], [ -72.76262, -45.45888 ], [ -72.76293, -45.45878 ], [ -72.76244, -45.45848 ], [ -72.76247, -45.45803 ], [ -72.7621, -45.45763 ], [ -72.76216, -45.45747 ], [ -72.76684, -45.45693 ], [ -72.7675, -45.45751 ], [ -72.76796, -45.4576 ], [ -72.76949, -45.45711 ], [ -72.76973, -45.4569 ], [ -72.76941, -45.45668 ], [ -72.76961, -45.456 ], [ -72.77011, -45.4557 ], [ -72.77079, -45.45479 ], [ -72.77179, -45.45478 ], [ -72.77282, -45.45448 ], [ -72.77321, -45.45408 ], [ -72.77433, -45.45367 ], [ -72.77614, -45.45256 ], [ -72.77693, -45.4497 ], [ -72.77741, -45.44892 ], [ -72.77711, -45.44818 ], [ -72.77714, -45.44783 ], [ -72.77861, -45.44677 ], [ -72.77933, -45.4467 ], [ -72.78067, -45.44626 ], [ -72.7822, -45.44654 ], [ -72.78394, -45.44534 ], [ -72.78463, -45.44424 ], [ -72.78522, -45.44385 ], [ -72.78726, -45.44437 ], [ -72.78928, -45.4441 ], [ -72.7899, -45.44422 ], [ -72.79063, -45.44467 ], [ -72.79106, -45.44471 ], [ -72.79178, -45.44456 ], [ -72.79433, -45.44461 ] ] } },
{ "type": "Feature", "properties": { "nombre": "Río Huemules", "tipo": "river", "volcan_codigo": "HUD", "volcan_nombre": "Hudson", "drena_volcan": true }, "geometry": { "type": "LineString", "coordinates": [ [ -73.03082, -45.89409 ], [ -73.03446, -45.88706 ], [ -73.03741, -45.88502 ], [ -73.0383, -45.88424 ], [ -73.03922, -45.88257 ], [ -73.04081, -45.88142 ], [ -73.04266, -45.88064 ], [ -73.0464, -45.87971 ], [ -73.04868, -45.87844 ], [ -73.0494, -45.87767 ], [ -73.04964, -45.87671 ], [ -73.05133, -45.87619 ], [ -73.05437, -45.8721 ], [ -73.05719, -45.87023 ], [ -73.05934, -45.86933 ], [ -73.06174, -45.86877 ], [ -73.06427, -45.86787 ], [ -73.06891, -45.86676 ], [ -73.06985, -45.86623 ], [ -73.07556, -45.86569 ], [ -73.07848, -45.86476 ], [ -73.07981, -45.86324 ], [ -73.0817, -45.86189 ], [ -73.0826, -45.86073 ], [ -73.08303, -45.85968 ], [ -73.08376, -45.85902 ], [ -73.08406, -45.85822 ], [ -73.08449, -45.85762 ], [ -73.08565, -45.8563 ], [ -73.08672, -45.85547 ], [ -73.09045, -45.85388 ], [ -73.09577, -45.85349 ], [ -73.09805, -45.85227 ], [ -73.09989, -45.85089 ], [ -73.1008, -45.84988 ], [ -73.10171, -45.84784 ], [ -73.10172, -45.84749 ], [ -73.10298, -45.84623 ], [ -73.1038, -45.8459 ], [ -73.10668, -45.84572 ], [ -73.10904, -45.84521 ], [ -73.11075, -45.84468 ], [ -73.11371, -45.84321 ], [ -73.11491, -45.84181 ], [ -73.11582, -45.84106 ], [ -73.1165, -45.84016 ], [ -73.11719, -45.83885 ], [ -73.11779, -45.8366 ], [ -73.11856, -45.83598 ], [ -73.12109, -45.83308 ], [ -73.12247, -45.83239 ], [ -73.12431, -45.83113 ], [ -73.12637, -45.83029 ], [ -73.12981, -45.82961 ], [ -73.13612, -45.82665 ], [ -73.13826, -45.82536 ], [ -73.14092, -45.82333 ], [ -73.1435, -45.82192 ], [ -73.14538, -45.82043 ], [ -73.14672, -45.81965 ], [ -73.15195, -45.81848 ], [ -73.15324, -45.81833 ], [ -73.15478, -45.81836 ], [ -73.15736, -45.81884 ], [ -73.16023, -45.81899 ], [ -73.16286, -45.81984 ], [ -73.1639, -45.81996 ], [ -73.16612, -45.82149 ], [ -73.16985, -45.82563 ], [ -73.17594, -45.82955 ], [ -73.17882, -45.83077 ], [ -73.17997, -45.83161 ], [ -73.181, -45.83257 ], [ -73.18199, -45.834 ], [ -73.18306, -45.83493 ], [ -73.18362, -45.83565 ], [ -73.18418, -45.83789 ], [ -73.18542, -45.83986 ], [ -73.18654, -45.84357 ], [ -73.18856, -45.84659 ], [ -73.19178, -45.8494 ], [ -73.19487, -45.85308 ], [ -73.19778, -45.85592 ], [ -73.20877, -45.86416 ], [ -73.20959, -45.86497 ], [ -73.21092, -45.86676 ], [ -73.21469, -45.86984 ], [ -73.2174, -45.87143 ], [ -73.21838, -45.87232 ], [ -73.22285, -45.87755 ], [ -73.22375, -45.87922 ], [ -73.22413, -45.88054 ], [ -73.22491, -45.88209 ], [ -73.22594, -45.88311 ], [ -73.22825, -45.88484 ], [ -73.23023, -45.88565 ], [ -73.23255, -45.88607 ], [ -73.24276, -45.88735 ], [ -73.24405, -45.88732 ], [ -73.24615, -45.88759 ], [ -73.24937, -45.88828 ], [ -73.25478, -45.89007 ], [ -73.25911, -45.89058 ], [ -73.26353, -45.89138 ], [ -73.26756, -45.89138 ], [ -73.27018, -45.89114 ], [ -73.27628, -45.88896 ], [ -73.27971, -45.8881 ], [ -73.28168, -45.88795 ], [ -73.28756, -45.88798 ], [ -73.28876, -45.88762 ], [ -73.29409, -45.88684 ], [ -73.29752, -45.88657 ], [ -73.30203, -45.88645 ], [ -73.30829, -45.88735 ], [ -73.31606, -45.88905 ], [ -73.32039, -45.89034 ], [ -73.32975, -45.89407 ], [ -73.33649, -45.89535 ], [ -73.34541, -45.89631 ], [ -73.35108, -45.89658 ], [ -73.36133, -45.89652 ], [ -73.37005, -45.89538 ], [ -73.37327, -45.89464 ], [ -73.37816, -45.89311 ], [ -73.38151, -45.89144 ], [ -73.38378, -45.88992 ], [ -73.38691, -45.88857 ], [ -73.40846, -45.882 ], [ -73.41305, -45.88126 ], [ -73.41936, -45.88075 ], [ -73.42506, -45.87991 ], [ -73.42931, -45.87884 ], [ -73.43481, -45.87785 ], [ -73.43914, -45.87659 ], [ -73.44193, -45.87636 ], [ -73.44635, -45.87636 ], [ -73.45189, -45.87612 ], [ -73.45656, -45.87549 ], [ -73.46528, -45.87271 ], [ -73.47991, -45.86652 ], [ -73.48176, -45.86521 ], [ -73.48502, -45.86446 ], [ -73.49759, -45.86276 ], [ -73.50021, -45.86171 ], [ -73.50502, -45.85852 ], [ -73.51248, -45.85439 ], [ -73.51802, -45.85224 ], [ -73.52853, -45.84522 ] ] } },
{ "type": "Feature", "properties": { "nombre": "Río Ibáñez", "tipo": "river", "volcan_codigo": "HUD", "volcan_nombre": "Hudson", "drena_volcan": false }, "geometry": { "type": "LineString", "coordinates": [ [ -72.90825, -46.05091 ], [ -72.90512, -46.0509 ], [ -72.90433, -46.05128 ], [ -72.90323, -46.05297 ], [ -72.90154, -46.05352 ], [ -72.90004, -46.05441 ], [ -72.89894, -46.05426 ], [ -72.8974, -46.05517 ], [ -72.8959, -46.05566 ], [ -72.89394, -46.05535 ], [ -72.89261, -46.05623 ], [ -72.88583, -46.06254 ], [ -72.88124, -46.06379 ], [ -72.87827, -46.06442 ], [ -72.87643, -46.06618 ], [ -72.87474, -46.06649 ], [ -72.874, -46.06697 ], [ -72.87196, -46.06734 ], [ -72.86912, -46.06952 ], [ -72.86892, -46.07088 ], [ -72.86174, -46.07393 ], [ -72.85976, -46.07427 ], [ -72.85546, -46.07543 ], [ -72.85209, -46.07491 ], [ -72.85062, -46.07532 ], [ -72.84815, -46.07507 ], [ -72.84573, -46.07308 ], [ -72.84487, -46.07277 ], [ -72.84393, -46.07281 ], [ -72.84219, -46.07335 ], [ -72.8386, -46.07344 ], [ -72.83721, -46.07317 ], [ -72.8353, -46.07214 ], [ -72.83442, -46.07213 ], [ -72.82974, -46.07418 ], [ -72.82672, -46.07433 ], [ -72.82056, -46.07415 ], [ -72.81286, -46.07348 ], [ -72.81086, -46.07298 ], [ -72.80075, -46.07179 ], [ -72.79693, -46.07031 ], [ -72.79552, -46.06999 ], [ -72.79539, -46.06943 ], [ -72.79447, -46.06917 ], [ -72.79071, -46.06985 ], [ -72.78944, -46.06939 ], [ -72.78884, -46.06824 ], [ -72.78374, -46.06562 ], [ -72.77685, -46.06421 ], [ -72.77425, -46.06507 ], [ -72.77312, -46.06472 ], [ -72.77129, -46.06117 ], [ -72.76895, -46.06008 ], [ -72.76541, -46.06003 ], [ -72.76166, -46.05949 ], [ -72.7582, -46.05931 ], [ -72.75667, -46.0595 ], [ -72.75523, -46.05888 ], [ -72.75223, -46.0581 ], [ -72.75087, -46.05812 ], [ -72.7506, -46.05869 ], [ -72.74993, -46.05858 ], [ -72.74946, -46.05819 ], [ -72.74956, -46.05773 ], [ -72.74538, -46.05502 ], [ -72.74475, -46.05439 ], [ -72.74351, -46.05425 ], [ -72.74225, -46.05375 ], [ -72.74167, -46.05241 ], [ -72.74235, -46.05088 ], [ -72.74206, -46.05032 ], [ -72.74069, -46.05017 ], [ -72.73993, -46.05029 ], [ -72.73678, -46.04991 ], [ -72.73552, -46.05009 ], [ -72.73536, -46.05077 ], [ -72.73419, -46.0512 ], [ -72.73226, -46.05061 ], [ -72.73216, -46.05003 ], [ -72.73302, -46.04855 ], [ -72.7328, -46.04831 ], [ -72.73128, -46.04875 ], [ -72.73035, -46.04834 ], [ -72.72943, -46.04822 ], [ -72.72194, -46.04903 ], [ -72.71512, -46.04872 ], [ -72.71389, -46.04938 ], [ -72.71165, -46.04799 ], [ -72.70489, -46.047 ], [ -72.70371, -46.04664 ], [ -72.70341, -46.04634 ], [ -72.70405, -46.04553 ], [ -72.70301, -46.04509 ], [ -72.70181, -46.04523 ], [ -72.70018, -46.04474 ], [ -72.69569, -46.04533 ], [ -72.6941, -46.04652 ], [ -72.69017, -46.0479 ], [ -72.68978, -46.04886 ], [ -72.68959, -46.049 ], [ -72.68656, -46.04982 ], [ -72.68519, -46.04986 ], [ -72.68463, -46.04979 ], [ -72.6829, -46.04848 ], [ -72.67979, -46.04771 ], [ -72.67813, -46.04746 ], [ -72.67559, -46.04594 ], [ -72.67432, -46.04493 ], [ -72.67376, -46.04463 ], [ -72.67296, -46.04448 ], [ -72.67278, -46.0442 ], [ -72.673, -46.04371 ], [ -72.67286, -46.04339 ], [ -72.67237, -46.04326 ], [ -72.67162, -46.04341 ], [ -72.6706, -46.04327 ], [ -72.6692, -46.04347 ], [ -72.66791, -46.04346 ], [ -72.66555, -46.04374 ], [ -72.6643, -46.04417 ], [ -72.66057, -46.04415 ], [ -72.65862, -46.04484 ], [ -72.65757, -46.04605 ], [ -72.65499, -46.04661 ], [ -72.64387, -46.04565 ], [ -72.64305, -46.04534 ], [ -72.64176, -46.04371 ], [ -72.64014, -46.04289 ], [ -72.63896, -46.04322 ], [ -72.63677, -46.04347 ], [ -72.6336, -46.04497 ], [ -72.63149, -46.04531 ], [ -72.6266, -46.04455 ], [ -72.6257, -46.04482 ], [ -72.62435, -46.04577 ], [ -72.62316, -46.04615 ], [ -72.62015, -46.0455 ], [ -72.61737, -46.04629 ], [ -72.61153, -46.04611 ], [ -72.60951, -46.04658 ], [ -72.60716, -46.04878 ], [ -72.6063, -46.05003 ], [ -72.60512, -46.0513 ], [ -72.60358, -46.05209 ], [ -72.60092, -46.05414 ], [ -72.59809, -46.05487 ], [ -72.598, -46.05582 ], [ -72.59937, -46.05916 ], [ -72.59972, -46.06357 ], [ -72.60066, -46.07012 ], [ -72.60047, -46.07286 ], [ -72.59946, -46.07506 ], [ -72.5968, -46.07524 ], [ -72.59268, -46.07917 ], [ -72.58671, -46.0811 ], [ -72.58615, -46.08344 ], [ -72.585, -46.08463 ], [ -72.57551, -46.08774 ], [ -72.57088, -46.09062 ], [ -72.56886, -46.0925 ], [ -72.57013, -46.09633 ], [ -72.56933, -46.09752 ], [ -72.56161, -46.09883 ], [ -72.55714, -46.10214 ], [ -72.55547, -46.10304 ], [ -72.55048, -46.1039 ], [ -72.54938, -46.10377 ], [ -72.54651, -46.10412 ], [ -72.54394, -46.1037 ], [ -72.5392, -46.10419 ], [ -72.5321, -46.10718 ], [ -72.52867, -46.10895 ], [ -72.52759, -46.10904 ], [ -72.52591, -46.10858 ], [ -72.5243, -46.10844 ], [ -72.52149, -46.10856 ], [ -72.51997, -46.10889 ], [ -72.51885, -46.1094 ], [ -72.51739, -46.11051 ], [ -72.51557, -46.1124 ], [ -72.51312, -46.11393 ], [ -72.51094, -46.11562 ], [ -72.50903, -46.11472 ], [ -72.50481, -46.11512 ], [ -72.50309, -46.11551 ], [ -72.50191, -46.11519 ], [ -72.50098, -46.11556 ], [ -72.49919, -46.11574 ], [ -72.49764, -46.11609 ], [ -72.49628, -46.11606 ], [ -72.49505, -46.11567 ], [ -72.49164, -46.11515 ], [ -72.48919, -46.11542 ], [ -72.48681, -46.11631 ], [ -72.48278, -46.1185 ], [ -72.48231, -46.11893 ], [ -72.48222, -46.11952 ], [ -72.4813, -46.1204 ], [ -72.481, -46.12155 ], [ -72.48108, -46.1223 ], [ -72.47898, -46.123 ], [ -72.47668, -46.12533 ], [ -72.47449, -46.12685 ], [ -72.47366, -46.12678 ], [ -72.47293, -46.12649 ], [ -72.47226, -46.12598 ], [ -72.47063, -46.12559 ], [ -72.46887, -46.12586 ], [ -72.46765, -46.1265 ], [ -72.46679, -46.12665 ], [ -72.46557, -46.12661 ], [ -72.46468, -46.12619 ], [ -72.46243, -46.12565 ], [ -72.46122, -46.12516 ], [ -72.46014, -46.12511 ], [ -72.45815, -46.12604 ], [ -72.45666, -46.12648 ], [ -72.45365, -46.12692 ], [ -72.45207, -46.12743 ], [ -72.45007, -46.12746 ], [ -72.4489, -46.12779 ], [ -72.44754, -46.12794 ], [ -72.44535, -46.12777 ], [ -72.44323, -46.12795 ], [ -72.44168, -46.12781 ], [ -72.44027, -46.12791 ], [ -72.43591, -46.12904 ], [ -72.42998, -46.13198 ], [ -72.4266, -46.13311 ], [ -72.42488, -46.1334 ], [ -72.42321, -46.13333 ], [ -72.41902, -46.13271 ], [ -72.4164, -46.13189 ], [ -72.41373, -46.13027 ], [ -72.41294, -46.12953 ], [ -72.41074, -46.12665 ], [ -72.40964, -46.12552 ], [ -72.40841, -46.12489 ], [ -72.40649, -46.12421 ], [ -72.40526, -46.12398 ], [ -72.40345, -46.12398 ], [ -72.40188, -46.12423 ], [ -72.40066, -46.12476 ], [ -72.39886, -46.12716 ], [ -72.39252, -46.13225 ], [ -72.39095, -46.13418 ], [ -72.38963, -46.13487 ], [ -72.37193, -46.13516 ], [ -72.36515, -46.13787 ], [ -72.36065, -46.14072 ], [ -72.35481, -46.14236 ], [ -72.35211, -46.14185 ], [ -72.34945, -46.13995 ], [ -72.34567, -46.13912 ], [ -72.34155, -46.1404 ], [ -72.33593, -46.14099 ], [ -72.33091, -46.14203 ], [ -72.32185, -46.1409 ], [ -72.31552, -46.13904 ], [ -72.31265, -46.13641 ], [ -72.30716, -46.13273 ], [ -72.29909, -46.13142 ], [ -72.29344, -46.13074 ], [ -72.29107, -46.13209 ], [ -72.29043, -46.13283 ], [ -72.28913, -46.13368 ], [ -72.28347, -46.1338 ], [ -72.27623, -46.13199 ], [ -72.2718, -46.13035 ] ] } },
{ "type": "Feature", "properties": { "nombre": "Río Lagunillas", "tipo": "river", "volcan_codigo": "HUD", "volcan_nombre": "Hudson", "drena_volcan": false }, "geometry": { "type": "MultiLineString", "coordinates": [ [ [ -72.94968, -45.47881 ], [ -72.94806, -45.47939 ], [ -72.94677, -45.4793 ], [ -72.94045, -45.48014 ], [ -72.93935, -45.48008 ], [ -72.93853, -45.47996 ], [ -72.93745, -45.47907 ], [ -72.93557, -45.47787 ], [ -72.9332, -45.47728 ], [ -72.93066, -45.47697 ], [ -72.92604, -45.47701 ], [ -72.92446, -45.47659 ], [ -72.92225, -45.47546 ], [ -72.91726, -45.47469 ], [ -72.9154, -45.47411 ], [ -72.91302, -45.47384 ], [ -72.91096, -45.47414 ], [ -72.90895, -45.47402 ], [ -72.9079, -45.47364 ], [ -72.90726, -45.47323 ] ], [ [ -72.90726, -45.47323 ], [ -72.90394, -45.47138 ], [ -72.90352, -45.47101 ], [ -72.90293, -45.46982 ], [ -72.90146, -45.46813 ], [ -72.90114, -45.46755 ] ] ] } },
{ "type": "Feature", "properties": { "nombre": "Río Mogote", "tipo": "river", "volcan_codigo": "HUD", "volcan_nombre": "Hudson", "drena_volcan": false }, "geometry": { "type": "MultiLineString", "coordinates": [ [ [ -72.52237, -45.92726 ], [ -72.52215, -45.9267 ], [ -72.52189, -45.92649 ], [ -72.52111, -45.92646 ], [ -72.52084, -45.92623 ], [ -72.51968, -45.92593 ], [ -72.51901, -45.92614 ], [ -72.51856, -45.92584 ], [ -72.51674, -45.92535 ], [ -72.51554, -45.92563 ], [ -72.51492, -45.92562 ], [ -72.51382, -45.92517 ], [ -72.51165, -45.9252 ], [ -72.51056, -45.9248 ], [ -72.51041, -45.92435 ], [ -72.50981, -45.92426 ], [ -72.50923, -45.92445 ], [ -72.50796, -45.92451 ], [ -72.50749, -45.92478 ], [ -72.50693, -45.92559 ], [ -72.50676, -45.92612 ], [ -72.50507, -45.92593 ], [ -72.50444, -45.92607 ], [ -72.50348, -45.92598 ], [ -72.50193, -45.92624 ], [ -72.50135, -45.92542 ], [ -72.50084, -45.92515 ], [ -72.50022, -45.92518 ], [ -72.49985, -45.92553 ], [ -72.49978, -45.9265 ], [ -72.49927, -45.92674 ], [ -72.49931, -45.92719 ], [ -72.49979, -45.92808 ], [ -72.49948, -45.92847 ], [ -72.49789, -45.9285 ], [ -72.49742, -45.92927 ], [ -72.49685, -45.92945 ], [ -72.49587, -45.92946 ], [ -72.49539, -45.92913 ], [ -72.49479, -45.92916 ], [ -72.49409, -45.93012 ], [ -72.49399, -45.93103 ], [ -72.49285, -45.93142 ], [ -72.49195, -45.93103 ], [ -72.48983, -45.93287 ], [ -72.48917, -45.93277 ], [ -72.48803, -45.93171 ], [ -72.48618, -45.93123 ], [ -72.4858, -45.93087 ], [ -72.48565, -45.92999 ], [ -72.48513, -45.92974 ], [ -72.48507, -45.92926 ], [ -72.4853, -45.92838 ], [ -72.48494, -45.92769 ], [ -72.48475, -45.92681 ], [ -72.48406, -45.92659 ], [ -72.48352, -45.9268 ], [ -72.48322, -45.92718 ], [ -72.48264, -45.92738 ], [ -72.4814, -45.9273 ], [ -72.4793, -45.92566 ], [ -72.47767, -45.92493 ], [ -72.47586, -45.92453 ], [ -72.47233, -45.92465 ], [ -72.47176, -45.92433 ], [ -72.47155, -45.92398 ] ], [ [ -72.52493, -45.92854 ], [ -72.52399, -45.92837 ], [ -72.52333, -45.92791 ], [ -72.52255, -45.92762 ], [ -72.52237, -45.92726 ] ], [ [ -72.54169, -45.9271 ], [ -72.53908, -45.92707 ], [ -72.53663, -45.92757 ], [ -72.5356, -45.92814 ], [ -72.53204, -45.92898 ], [ -72.52702, -45.92877 ], [ -72.52612, -45.92832 ], [ -72.52493, -45.92854 ] ] ] } },
{ "type": "Feature", "properties": { "nombre": "Río Murta", "tipo": "river", "volcan_codigo": "HUD", "volcan_nombre": "Hudson", "drena_volcan": false }, "geometry": { "type": "LineString", "coordinates": [ [ -73.01992, -46.13942 ], [ -73.01764, -46.13883 ], [ -73.0157, -46.13808 ], [ -73.01409, -46.13798 ], [ -73.01352, -46.13767 ], [ -73.01319, -46.13711 ], [ -73.01252, -46.13672 ], [ -73.01192, -46.13669 ], [ -73.01137, -46.13692 ], [ -73.01084, -46.13681 ], [ -73.01003, -46.13612 ], [ -73.00867, -46.1354 ], [ -73.00867, -46.13488 ], [ -73.00825, -46.13454 ], [ -73.00731, -46.13445 ], [ -73.00679, -46.13423 ], [ -73.00572, -46.13285 ], [ -73.00486, -46.13206 ], [ -73.00325, -46.13135 ], [ -73.00123, -46.13163 ], [ -72.99896, -46.13083 ], [ -72.99602, -46.13043 ], [ -72.99264, -46.12906 ], [ -72.99163, -46.12849 ], [ -72.99131, -46.12811 ], [ -72.99017, -46.12774 ], [ -72.98958, -46.12732 ], [ -72.98742, -46.1271 ], [ -72.98632, -46.12539 ], [ -72.98558, -46.12499 ], [ -72.98244, -46.12545 ], [ -72.97667, -46.12973 ], [ -72.97587, -46.12909 ], [ -72.97407, -46.12928 ], [ -72.9689, -46.12688 ], [ -72.96708, -46.12484 ], [ -72.96518, -46.12477 ], [ -72.96413, -46.12408 ], [ -72.95725, -46.12287 ], [ -72.95444, -46.12294 ], [ -72.95184, -46.1228 ], [ -72.94969, -46.12313 ], [ -72.94846, -46.12387 ], [ -72.94735, -46.12345 ], [ -72.94563, -46.12419 ], [ -72.94506, -46.12541 ], [ -72.94323, -46.12662 ], [ -72.94324, -46.12835 ], [ -72.94201, -46.12883 ], [ -72.9406, -46.12858 ], [ -72.94012, -46.12992 ], [ -72.93906, -46.1309 ], [ -72.9372, -46.13068 ], [ -72.93559, -46.13105 ], [ -72.93245, -46.13273 ], [ -72.93151, -46.13363 ], [ -72.93143, -46.13465 ], [ -72.9309, -46.13487 ], [ -72.92961, -46.13504 ], [ -72.92743, -46.13603 ], [ -72.92805, -46.13692 ], [ -72.92821, -46.13778 ], [ -72.92862, -46.13857 ], [ -72.92784, -46.14067 ], [ -72.92606, -46.14195 ], [ -72.92758, -46.14892 ], [ -72.92449, -46.15261 ], [ -72.9203, -46.15409 ], [ -72.91505, -46.15938 ], [ -72.90921, -46.16081 ], [ -72.88741, -46.16497 ], [ -72.8743, -46.16562 ], [ -72.86789, -46.1687 ], [ -72.86712, -46.17048 ], [ -72.86718, -46.17124 ], [ -72.86618, -46.17191 ], [ -72.86482, -46.17235 ], [ -72.86353, -46.17249 ], [ -72.86228, -46.1724 ], [ -72.85995, -46.1713 ], [ -72.85828, -46.16997 ], [ -72.85695, -46.17014 ], [ -72.85566, -46.17112 ], [ -72.85448, -46.17103 ], [ -72.85219, -46.16961 ], [ -72.85122, -46.16998 ], [ -72.84963, -46.1715 ], [ -72.84911, -46.17271 ], [ -72.84912, -46.17463 ], [ -72.84804, -46.1748 ], [ -72.84654, -46.17459 ], [ -72.84416, -46.1752 ], [ -72.84346, -46.17583 ], [ -72.84199, -46.17602 ], [ -72.83936, -46.17671 ], [ -72.83732, -46.17655 ], [ -72.8346, -46.17498 ], [ -72.82754, -46.17486 ], [ -72.82126, -46.17786 ], [ -72.81555, -46.18665 ], [ -72.81315, -46.18773 ], [ -72.8115, -46.19011 ], [ -72.81104, -46.19401 ], [ -72.81159, -46.19466 ], [ -72.81301, -46.19526 ], [ -72.81556, -46.19676 ], [ -72.81648, -46.19783 ], [ -72.81638, -46.19906 ], [ -72.81443, -46.203 ], [ -72.81256, -46.20568 ], [ -72.81317, -46.20712 ], [ -72.81442, -46.20863 ], [ -72.81475, -46.20927 ], [ -72.81465, -46.20952 ], [ -72.8135, -46.21036 ], [ -72.81338, -46.21133 ], [ -72.81348, -46.2121 ], [ -72.81257, -46.21405 ], [ -72.81092, -46.21588 ], [ -72.81054, -46.21654 ], [ -72.81008, -46.21789 ], [ -72.80979, -46.22046 ], [ -72.80868, -46.22185 ], [ -72.80838, -46.22237 ], [ -72.80824, -46.22311 ], [ -72.80819, -46.2246 ], [ -72.8094, -46.22726 ], [ -72.80892, -46.22913 ], [ -72.80939, -46.22981 ], [ -72.81041, -46.23054 ], [ -72.81057, -46.23111 ], [ -72.80502, -46.23382 ], [ -72.80437, -46.23434 ], [ -72.80355, -46.23567 ], [ -72.80305, -46.2361 ], [ -72.80091, -46.23659 ], [ -72.79982, -46.23702 ], [ -72.79907, -46.23782 ], [ -72.79878, -46.23869 ], [ -72.79883, -46.23987 ], [ -72.80133, -46.24351 ], [ -72.80297, -46.24498 ], [ -72.80426, -46.24937 ], [ -72.80433, -46.25238 ], [ -72.80518, -46.25539 ], [ -72.80089, -46.26109 ], [ -72.8006, -46.2618 ], [ -72.80077, -46.26295 ], [ -72.80232, -46.26496 ], [ -72.80502, -46.26695 ], [ -72.80587, -46.2679 ], [ -72.8084, -46.26915 ], [ -72.81092, -46.27064 ], [ -72.81224, -46.27151 ], [ -72.81275, -46.27222 ], [ -72.81265, -46.27315 ], [ -72.8117, -46.27516 ], [ -72.81028, -46.28194 ], [ -72.81083, -46.28307 ], [ -72.81057, -46.2836 ], [ -72.80927, -46.28464 ], [ -72.80732, -46.28587 ], [ -72.8059, -46.28617 ], [ -72.80432, -46.28604 ], [ -72.80393, -46.28616 ], [ -72.80357, -46.28676 ], [ -72.80434, -46.28845 ], [ -72.80528, -46.28959 ], [ -72.80585, -46.29153 ], [ -72.80362, -46.29701 ], [ -72.80356, -46.29816 ], [ -72.8041, -46.30014 ], [ -72.80414, -46.30129 ], [ -72.80346, -46.30202 ], [ -72.80294, -46.30224 ], [ -72.79991, -46.30215 ], [ -72.79914, -46.30257 ], [ -72.79817, -46.30386 ], [ -72.79774, -46.30533 ], [ -72.79727, -46.30632 ], [ -72.79552, -46.30778 ], [ -72.79015, -46.31113 ], [ -72.78859, -46.31302 ], [ -72.7867, -46.31662 ], [ -72.78829, -46.3211 ], [ -72.78999, -46.32231 ], [ -72.79325, -46.32281 ], [ -72.79523, -46.32856 ], [ -72.79963, -46.33134 ], [ -72.80003, -46.33237 ], [ -72.79936, -46.33563 ], [ -72.79841, -46.33798 ], [ -72.79963, -46.33908 ], [ -72.79986, -46.33962 ], [ -72.80012, -46.34105 ], [ -72.8001, -46.3423 ], [ -72.79966, -46.34325 ], [ -72.79776, -46.34601 ], [ -72.79696, -46.34867 ], [ -72.79544, -46.3511 ], [ -72.79574, -46.35209 ], [ -72.79664, -46.35389 ], [ -72.79654, -46.35481 ], [ -72.79565, -46.35605 ], [ -72.79443, -46.35712 ], [ -72.79245, -46.35808 ], [ -72.79088, -46.3586 ], [ -72.78957, -46.35869 ], [ -72.78702, -46.35805 ], [ -72.78085, -46.35751 ], [ -72.77916, -46.35761 ], [ -72.77787, -46.35813 ], [ -72.77702, -46.35884 ], [ -72.77615, -46.36031 ], [ -72.77488, -46.36173 ], [ -72.77327, -46.36261 ], [ -72.77293, -46.36314 ], [ -72.7718, -46.36797 ], [ -72.77167, -46.36821 ], [ -72.77096, -46.36839 ], [ -72.76909, -46.36822 ], [ -72.76834, -46.36795 ], [ -72.76716, -46.36724 ], [ -72.76644, -46.36632 ], [ -72.7663, -46.36495 ], [ -72.76647, -46.36398 ], [ -72.76706, -46.36311 ], [ -72.76888, -46.36122 ], [ -72.76918, -46.35996 ], [ -72.76914, -46.35913 ], [ -72.7688, -46.35866 ], [ -72.76824, -46.35828 ], [ -72.76752, -46.35808 ], [ -72.76607, -46.35809 ], [ -72.76413, -46.35847 ], [ -72.76375, -46.35887 ], [ -72.76159, -46.36019 ], [ -72.75763, -46.35979 ], [ -72.75425, -46.36154 ], [ -72.75318, -46.3623 ], [ -72.75262, -46.3629 ], [ -72.75225, -46.36433 ], [ -72.75246, -46.36542 ], [ -72.7535, -46.36815 ], [ -72.75355, -46.36915 ], [ -72.7527, -46.37069 ], [ -72.7508, -46.37242 ], [ -72.75046, -46.37336 ], [ -72.74949, -46.37493 ], [ -72.74874, -46.37654 ], [ -72.74843, -46.37682 ], [ -72.74807, -46.37703 ], [ -72.74709, -46.37712 ], [ -72.74082, -46.37633 ], [ -72.73885, -46.37638 ], [ -72.73742, -46.37674 ], [ -72.7364, -46.37742 ], [ -72.73597, -46.37827 ], [ -72.73608, -46.38073 ], [ -72.73536, -46.3825 ], [ -72.73462, -46.38499 ], [ -72.73327, -46.38607 ], [ -72.73205, -46.38665 ], [ -72.73042, -46.38712 ], [ -72.72523, -46.38776 ], [ -72.72319, -46.38822 ], [ -72.72145, -46.38891 ], [ -72.72015, -46.38978 ], [ -72.71927, -46.39096 ], [ -72.71881, -46.39218 ], [ -72.71844, -46.39435 ], [ -72.71583, -46.39599 ], [ -72.71468, -46.39654 ], [ -72.71353, -46.39687 ], [ -72.71248, -46.39697 ], [ -72.70804, -46.39644 ], [ -72.70697, -46.39649 ], [ -72.70626, -46.39675 ], [ -72.70586, -46.39721 ], [ -72.70579, -46.39808 ], [ -72.70702, -46.39877 ], [ -72.71039, -46.40256 ], [ -72.71482, -46.40559 ], [ -72.71509, -46.40651 ], [ -72.71491, -46.4075 ], [ -72.71413, -46.40853 ], [ -72.7134, -46.40918 ], [ -72.71252, -46.40981 ], [ -72.71134, -46.41038 ], [ -72.70933, -46.41096 ], [ -72.70509, -46.41136 ], [ -72.70262, -46.41207 ], [ -72.70191, -46.41247 ], [ -72.70141, -46.41313 ], [ -72.70165, -46.4137 ], [ -72.70222, -46.41421 ], [ -72.70454, -46.41512 ], [ -72.70698, -46.41519 ], [ -72.70779, -46.41535 ], [ -72.70827, -46.41594 ], [ -72.70817, -46.41648 ], [ -72.70759, -46.41722 ], [ -72.70677, -46.41791 ], [ -72.7037, -46.42015 ], [ -72.70214, -46.42072 ], [ -72.6988, -46.42105 ], [ -72.69734, -46.42152 ], [ -72.69622, -46.42242 ], [ -72.69599, -46.42297 ], [ -72.69605, -46.42351 ], [ -72.69662, -46.4244 ], [ -72.6974, -46.42486 ], [ -72.69871, -46.42461 ], [ -72.70509, -46.42435 ], [ -72.70673, -46.42452 ], [ -72.70762, -46.42486 ], [ -72.70785, -46.42513 ], [ -72.70793, -46.42577 ], [ -72.70743, -46.42683 ], [ -72.70649, -46.42741 ], [ -72.7057, -46.42765 ], [ -72.70387, -46.42777 ], [ -72.70074, -46.42767 ], [ -72.70001, -46.42792 ], [ -72.69883, -46.42938 ], [ -72.69872, -46.43073 ], [ -72.69983, -46.43089 ], [ -72.70143, -46.43301 ], [ -72.70192, -46.43461 ], [ -72.70388, -46.43835 ], [ -72.70585, -46.44 ], [ -72.70807, -46.44103 ], [ -72.7111, -46.44189 ], [ -72.71691, -46.44323 ], [ -72.71935, -46.44409 ], [ -72.72019, -46.44491 ], [ -72.7206, -46.4458 ], [ -72.72067, -46.44662 ], [ -72.72039, -46.44704 ], [ -72.71972, -46.44726 ], [ -72.71662, -46.44697 ], [ -72.71466, -46.44637 ], [ -72.71331, -46.44615 ], [ -72.71204, -46.44643 ], [ -72.70844, -46.44896 ], [ -72.70597, -46.45124 ], [ -72.70262, -46.45547 ], [ -72.70161, -46.45696 ], [ -72.70061, -46.45885 ], [ -72.69945, -46.4602 ], [ -72.69743, -46.46112 ], [ -72.6961, -46.46151 ], [ -72.69386, -46.46193 ], [ -72.69199, -46.46204 ], [ -72.69047, -46.46243 ], [ -72.68983, -46.46303 ], [ -72.68914, -46.4643 ], [ -72.68851, -46.4651 ], [ -72.68651, -46.46612 ] ] } },
{ "type": "Feature", "properties": { "nombre": "Río Quetro", "tipo": "river", "volcan_codigo": "HUD", "volcan_nombre": "Hudson", "drena_volcan": false }, "geometry": { "type": "LineString", "coordinates": [ [ -72.47912, -45.64062 ], [ -72.48006, -45.63987 ], [ -72.48074, -45.63975 ], [ -72.48142, -45.63984 ], [ -72.4818, -45.63965 ], [ -72.48354, -45.6374 ], [ -72.4853, -45.63574 ], [ -72.48597, -45.63441 ], [ -72.48649, -45.63378 ], [ -72.48729, -45.63298 ], [ -72.48905, -45.63177 ], [ -72.48882, -45.63044 ], [ -72.48913, -45.63011 ], [ -72.48919, -45.62964 ], [ -72.48904, -45.62951 ], [ -72.48823, -45.62953 ], [ -72.48794, -45.62897 ], [ -72.48711, -45.62856 ], [ -72.48678, -45.62737 ], [ -72.48744, -45.6249 ], [ -72.48774, -45.62445 ], [ -72.4886, -45.62362 ], [ -72.49038, -45.62291 ], [ -72.49072, -45.62254 ], [ -72.49016, -45.62097 ], [ -72.48991, -45.62072 ], [ -72.48683, -45.61963 ], [ -72.48608, -45.61967 ], [ -72.48592, -45.61997 ], [ -72.4849, -45.6208 ], [ -72.48356, -45.62073 ], [ -72.48219, -45.6199 ], [ -72.48134, -45.61915 ], [ -72.47944, -45.61674 ], [ -72.47894, -45.61654 ], [ -72.47786, -45.61647 ], [ -72.4776, -45.61629 ], [ -72.47755, -45.616 ], [ -72.47839, -45.61492 ], [ -72.47999, -45.61381 ], [ -72.48345, -45.61206 ], [ -72.48371, -45.6116 ], [ -72.4836, -45.6114 ], [ -72.48314, -45.61123 ], [ -72.48291, -45.61089 ], [ -72.48299, -45.61046 ], [ -72.4863, -45.60898 ], [ -72.48661, -45.60864 ], [ -72.48633, -45.60804 ], [ -72.48638, -45.60781 ], [ -72.48918, -45.60727 ], [ -72.48923, -45.60647 ], [ -72.4898, -45.60512 ], [ -72.48975, -45.60481 ], [ -72.49035, -45.60369 ], [ -72.49143, -45.60276 ], [ -72.49258, -45.60262 ], [ -72.49311, -45.6022 ], [ -72.49308, -45.60183 ], [ -72.49251, -45.60168 ], [ -72.49193, -45.60172 ], [ -72.49051, -45.60245 ], [ -72.48979, -45.6024 ], [ -72.48948, -45.60208 ], [ -72.48886, -45.60065 ], [ -72.48873, -45.59987 ], [ -72.48881, -45.59931 ], [ -72.4897, -45.59746 ], [ -72.48975, -45.59671 ], [ -72.48929, -45.59592 ], [ -72.48916, -45.595 ], [ -72.48876, -45.59452 ], [ -72.48769, -45.59393 ], [ -72.48779, -45.5937 ], [ -72.49108, -45.59342 ], [ -72.49147, -45.59326 ], [ -72.49136, -45.59283 ], [ -72.49083, -45.59231 ], [ -72.49083, -45.59197 ], [ -72.49096, -45.5919 ], [ -72.49179, -45.59194 ], [ -72.49265, -45.59227 ], [ -72.49286, -45.59206 ], [ -72.49245, -45.59159 ], [ -72.4922, -45.59062 ], [ -72.49228, -45.59 ], [ -72.49191, -45.58892 ], [ -72.49156, -45.58856 ], [ -72.49013, -45.58814 ], [ -72.48959, -45.58613 ], [ -72.48962, -45.58583 ], [ -72.48982, -45.58565 ], [ -72.49121, -45.58518 ], [ -72.49301, -45.58409 ], [ -72.49315, -45.58351 ], [ -72.49285, -45.583 ], [ -72.49324, -45.58254 ], [ -72.49328, -45.58208 ], [ -72.49276, -45.5817 ], [ -72.4924, -45.58118 ], [ -72.49256, -45.58059 ], [ -72.49164, -45.58056 ], [ -72.49143, -45.58008 ], [ -72.49171, -45.57976 ], [ -72.49269, -45.5797 ], [ -72.49363, -45.57911 ], [ -72.49383, -45.57874 ], [ -72.49374, -45.5778 ], [ -72.49346, -45.5775 ], [ -72.49269, -45.57731 ], [ -72.49246, -45.57709 ], [ -72.49274, -45.57584 ], [ -72.49311, -45.57554 ], [ -72.49324, -45.57497 ], [ -72.49277, -45.57476 ], [ -72.49235, -45.57428 ], [ -72.49218, -45.57378 ], [ -72.49234, -45.5724 ], [ -72.49177, -45.57141 ], [ -72.49134, -45.57114 ], [ -72.49117, -45.57066 ], [ -72.49137, -45.56869 ], [ -72.49189, -45.56767 ], [ -72.49377, -45.56638 ], [ -72.49779, -45.56214 ], [ -72.49772, -45.56131 ], [ -72.49848, -45.56035 ], [ -72.49909, -45.55921 ], [ -72.50021, -45.55897 ], [ -72.5024, -45.55944 ], [ -72.50257, -45.55926 ], [ -72.50254, -45.55882 ], [ -72.50337, -45.55811 ], [ -72.50526, -45.55541 ], [ -72.5058, -45.555 ], [ -72.5065, -45.55478 ], [ -72.50953, -45.55431 ], [ -72.5101, -45.55399 ], [ -72.51198, -45.55182 ], [ -72.51237, -45.55117 ], [ -72.51295, -45.55067 ], [ -72.5162, -45.54949 ], [ -72.51692, -45.54852 ], [ -72.51749, -45.54741 ], [ -72.51973, -45.5471 ], [ -72.52073, -45.54673 ], [ -72.52231, -45.54392 ], [ -72.52278, -45.54352 ], [ -72.52361, -45.54335 ], [ -72.52669, -45.54323 ], [ -72.52782, -45.54294 ], [ -72.5298, -45.54306 ], [ -72.53202, -45.54249 ], [ -72.53566, -45.54212 ], [ -72.53687, -45.54219 ], [ -72.5375, -45.54241 ], [ -72.53973, -45.54359 ], [ -72.54432, -45.5437 ], [ -72.54521, -45.54336 ], [ -72.54511, -45.5427 ], [ -72.54547, -45.54213 ], [ -72.5469, -45.54199 ], [ -72.54926, -45.54222 ], [ -72.5514, -45.54192 ], [ -72.553, -45.54108 ], [ -72.55301, -45.54054 ], [ -72.55426, -45.53938 ] ] } },
{ "type": "Feature", "properties": { "nombre": "Río Sin Nombre", "tipo": "river", "volcan_codigo": "HUD", "volcan_nombre": "Hudson", "drena_volcan": false }, "geometry": { "type": "LineString", "coordinates": [ [ -72.6043, -46.24496 ], [ -72.60397, -46.24471 ], [ -72.60276, -46.24466 ], [ -72.59973, -46.24365 ], [ -72.59785, -46.24389 ], [ -72.597, -46.24337 ], [ -72.5961, -46.24352 ], [ -72.59341, -46.2444 ], [ -72.59255, -46.24388 ], [ -72.592, -46.24301 ], [ -72.5894, -46.2432 ], [ -72.58882, -46.2431 ], [ -72.58764, -46.2425 ], [ -72.58688, -46.24167 ], [ -72.5865, -46.24096 ], [ -72.58542, -46.24085 ], [ -72.58375, -46.23997 ], [ -72.58287, -46.23998 ], [ -72.58195, -46.24023 ], [ -72.58067, -46.2393 ], [ -72.58005, -46.23908 ], [ -72.57868, -46.23941 ], [ -72.57616, -46.23793 ], [ -72.5756, -46.2369 ], [ -72.5743, -46.23666 ], [ -72.57148, -46.23661 ], [ -72.57018, -46.23605 ], [ -72.56886, -46.23593 ], [ -72.56761, -46.23524 ], [ -72.56684, -46.23455 ], [ -72.56601, -46.23435 ], [ -72.56547, -46.23379 ], [ -72.56402, -46.2334 ], [ -72.56358, -46.23354 ], [ -72.56323, -46.23409 ], [ -72.56288, -46.23433 ], [ -72.56231, -46.23441 ], [ -72.56037, -46.23419 ], [ -72.5575, -46.23256 ], [ -72.55675, -46.23237 ], [ -72.55661, -46.23207 ], [ -72.55432, -46.23071 ], [ -72.55352, -46.23066 ], [ -72.54999, -46.22968 ], [ -72.54788, -46.22845 ], [ -72.54677, -46.22825 ], [ -72.54604, -46.22788 ], [ -72.54502, -46.22792 ], [ -72.54408, -46.2276 ], [ -72.5434, -46.22757 ], [ -72.54174, -46.22826 ], [ -72.53987, -46.22839 ], [ -72.53885, -46.22872 ], [ -72.53834, -46.22924 ], [ -72.53688, -46.22961 ], [ -72.53399, -46.22961 ], [ -72.53315, -46.22936 ], [ -72.5328, -46.22899 ], [ -72.53161, -46.22917 ], [ -72.5291, -46.22714 ], [ -72.52897, -46.2262 ], [ -72.52843, -46.22548 ], [ -72.52513, -46.22537 ], [ -72.52493, -46.22516 ], [ -72.52491, -46.22441 ], [ -72.52379, -46.22318 ], [ -72.52321, -46.22312 ], [ -72.52332, -46.22229 ], [ -72.5231, -46.22079 ], [ -72.52186, -46.21669 ], [ -72.521, -46.21548 ], [ -72.52091, -46.21439 ], [ -72.51963, -46.21132 ], [ -72.51922, -46.21083 ], [ -72.51792, -46.21069 ], [ -72.51757, -46.21031 ], [ -72.51615, -46.20963 ], [ -72.51555, -46.20884 ], [ -72.51314, -46.2078 ], [ -72.51259, -46.20683 ], [ -72.51303, -46.20577 ], [ -72.51302, -46.20517 ], [ -72.51265, -46.20481 ], [ -72.51203, -46.20473 ], [ -72.511, -46.20501 ], [ -72.51058, -46.20539 ], [ -72.50918, -46.20563 ], [ -72.5066, -46.20504 ], [ -72.5051, -46.20407 ], [ -72.50336, -46.20421 ], [ -72.50281, -46.2039 ], [ -72.50193, -46.20371 ], [ -72.49974, -46.20241 ], [ -72.49898, -46.20222 ], [ -72.49844, -46.20227 ], [ -72.49738, -46.20279 ], [ -72.49665, -46.20272 ], [ -72.49604, -46.20245 ], [ -72.49541, -46.20253 ], [ -72.49257, -46.20222 ], [ -72.49173, -46.20192 ], [ -72.49117, -46.20086 ], [ -72.49068, -46.20065 ], [ -72.49013, -46.20086 ], [ -72.48877, -46.20076 ], [ -72.48828, -46.2004 ], [ -72.48787, -46.19969 ], [ -72.48671, -46.19933 ], [ -72.48579, -46.19858 ], [ -72.48489, -46.19727 ], [ -72.48429, -46.19703 ], [ -72.48176, -46.19674 ], [ -72.48014, -46.19494 ], [ -72.47833, -46.19376 ], [ -72.47496, -46.19197 ], [ -72.47403, -46.19211 ], [ -72.47287, -46.19139 ], [ -72.4687, -46.18939 ], [ -72.46578, -46.18831 ], [ -72.46409, -46.18706 ], [ -72.46324, -46.18681 ], [ -72.46038, -46.18542 ], [ -72.45887, -46.18508 ], [ -72.45732, -46.18554 ], [ -72.45525, -46.18445 ], [ -72.45489, -46.18389 ], [ -72.4513, -46.18356 ], [ -72.44884, -46.18294 ], [ -72.44795, -46.18327 ], [ -72.44731, -46.18264 ], [ -72.44491, -46.18268 ], [ -72.44422, -46.18231 ], [ -72.44395, -46.18175 ], [ -72.44339, -46.18157 ], [ -72.44197, -46.18198 ], [ -72.43717, -46.18036 ], [ -72.43233, -46.17771 ], [ -72.42993, -46.17739 ], [ -72.42722, -46.17583 ], [ -72.42615, -46.17576 ], [ -72.4254, -46.176 ], [ -72.42335, -46.17598 ], [ -72.42116, -46.17456 ], [ -72.42002, -46.17448 ], [ -72.41901, -46.17491 ], [ -72.41824, -46.17436 ], [ -72.41823, -46.17369 ], [ -72.4177, -46.17361 ], [ -72.41599, -46.17409 ], [ -72.41499, -46.17398 ], [ -72.41094, -46.17242 ], [ -72.40935, -46.17211 ], [ -72.40729, -46.1727 ], [ -72.40608, -46.17258 ], [ -72.40442, -46.17294 ], [ -72.39679, -46.17366 ], [ -72.39238, -46.17349 ], [ -72.39019, -46.17571 ], [ -72.38941, -46.17626 ], [ -72.38763, -46.17684 ], [ -72.38371, -46.17647 ], [ -72.38201, -46.17606 ], [ -72.37992, -46.17503 ], [ -72.37774, -46.17515 ], [ -72.37658, -46.17486 ], [ -72.37398, -46.17511 ], [ -72.37288, -46.1765 ], [ -72.37097, -46.17742 ], [ -72.36803, -46.17641 ], [ -72.36756, -46.17552 ], [ -72.36617, -46.17492 ], [ -72.36445, -46.17475 ], [ -72.36377, -46.17502 ], [ -72.36211, -46.17502 ], [ -72.3601, -46.17474 ], [ -72.35887, -46.17294 ], [ -72.35621, -46.16985 ], [ -72.35223, -46.16653 ], [ -72.35111, -46.16519 ], [ -72.34895, -46.16467 ], [ -72.34691, -46.1644 ], [ -72.3452, -46.16485 ], [ -72.34377, -46.16597 ], [ -72.34325, -46.16663 ], [ -72.34286, -46.16771 ], [ -72.34218, -46.16852 ], [ -72.34004, -46.1694 ], [ -72.33643, -46.16956 ], [ -72.33032, -46.16806 ] ] } },
{ "type": "Feature", "properties": { "nombre": "Río Sorpresa", "tipo": "river", "volcan_codigo": "HUD", "volcan_nombre": "Hudson", "drena_volcan": false }, "geometry": { "type": "LineString", "coordinates": [ [ -73.04544, -46.09594 ], [ -73.04391, -46.09456 ], [ -73.04311, -46.09204 ], [ -73.04603, -46.09062 ], [ -73.04809, -46.0874 ], [ -73.05135, -46.08573 ], [ -73.05667, -46.08466 ], [ -73.05684, -46.08347 ], [ -73.05925, -46.08145 ], [ -73.06216, -46.08133 ], [ -73.06646, -46.07978 ], [ -73.07058, -46.07942 ], [ -73.07281, -46.07573 ], [ -73.07864, -46.07013 ], [ -73.09221, -46.0612 ], [ -73.09289, -46.05822 ], [ -73.09581, -46.05668 ], [ -73.09564, -46.05513 ], [ -73.09667, -46.05346 ], [ -73.09684, -46.05024 ], [ -73.09873, -46.04869 ], [ -73.10096, -46.04572 ], [ -73.10199, -46.04214 ], [ -73.10027, -46.04011 ], [ -73.09959, -46.03535 ], [ -73.10714, -46.03356 ], [ -73.10937, -46.03142 ], [ -73.10903, -46.02939 ], [ -73.11006, -46.02617 ], [ -73.11401, -46.0245 ], [ -73.11641, -46.02248 ], [ -73.11933, -46.02069 ], [ -73.12173, -46.01854 ], [ -73.12053, -46.01699 ], [ -73.12139, -46.01497 ], [ -73.12396, -46.01532 ], [ -73.12602, -46.01449 ], [ -73.12894, -46.01294 ], [ -73.131, -46.01079 ], [ -73.13574, -46.00918 ], [ -73.13838, -46.00674 ], [ -73.14096, -46.004 ], [ -73.14055, -46.00024 ], [ -73.14302, -45.99768 ], [ -73.14662, -45.99649 ], [ -73.15074, -45.99601 ], [ -73.15366, -45.99517 ], [ -73.15589, -45.99303 ], [ -73.15984, -45.99124 ], [ -73.1631, -45.99088 ], [ -73.16688, -45.99291 ], [ -73.17014, -45.99315 ], [ -73.17907, -45.99434 ], [ -73.18216, -45.99649 ], [ -73.18559, -45.99649 ], [ -73.1941, -45.99928 ], [ -73.1952, -46.00114 ], [ -73.19898, -46.00137 ], [ -73.2019, -45.99994 ], [ -73.21127, -45.99725 ], [ -73.21357, -45.99994 ], [ -73.21975, -46.00126 ], [ -73.22353, -45.99959 ], [ -73.22816, -45.99863 ], [ -73.22816, -45.99756 ], [ -73.22919, -45.99529 ], [ -73.23159, -45.99517 ], [ -73.23262, -45.99732 ], [ -73.23709, -45.99768 ], [ -73.24001, -46.00137 ], [ -73.24687, -46.00269 ], [ -73.25041, -46.00143 ], [ -73.25757, -46.00835 ], [ -73.26134, -46.00734 ], [ -73.26598, -46.00659 ], [ -73.2746, -46.01199 ], [ -73.29073, -46.01411 ], [ -73.29335, -46.01424 ], [ -73.29466, -46.01362 ], [ -73.29746, -46.01151 ], [ -73.29803, -46.01142 ], [ -73.30685, -46.01709 ], [ -73.31237, -46.01929 ], [ -73.313, -46.01987 ], [ -73.31321, -46.02101 ], [ -73.31351, -46.02132 ], [ -73.31484, -46.02149 ], [ -73.31587, -46.02139 ], [ -73.31718, -46.02112 ], [ -73.32098, -46.01988 ], [ -73.32164, -46.01992 ], [ -73.32268, -46.02032 ], [ -73.32337, -46.0214 ], [ -73.32442, -46.0214 ], [ -73.32633, -46.02172 ], [ -73.32778, -46.02167 ], [ -73.32992, -46.02082 ], [ -73.33157, -46.02067 ], [ -73.33322, -46.02122 ], [ -73.33549, -46.02307 ] ] } },
{ "type": "Feature", "properties": { "nombre": "Río Zancudo", "tipo": "river", "volcan_codigo": "HUD", "volcan_nombre": "Hudson", "drena_volcan": false }, "geometry": { "type": "LineString", "coordinates": [ [ -72.93629, -45.78664 ], [ -72.93648, -45.78642 ], [ -72.93639, -45.78599 ], [ -72.93681, -45.78565 ], [ -72.93833, -45.78363 ], [ -72.93912, -45.78327 ], [ -72.94091, -45.78292 ], [ -72.94196, -45.78229 ], [ -72.94167, -45.78209 ], [ -72.94125, -45.78091 ], [ -72.94055, -45.77995 ], [ -72.93982, -45.77957 ], [ -72.9398, -45.77939 ], [ -72.94047, -45.77859 ], [ -72.94035, -45.77793 ], [ -72.94044, -45.77749 ], [ -72.9401, -45.77727 ], [ -72.94029, -45.77685 ], [ -72.94, -45.77607 ], [ -72.93909, -45.77522 ], [ -72.94013, -45.77302 ], [ -72.93968, -45.77251 ], [ -72.93962, -45.77222 ], [ -72.93994, -45.77156 ], [ -72.93999, -45.77052 ], [ -72.94069, -45.76984 ], [ -72.94085, -45.76826 ], [ -72.94131, -45.76748 ], [ -72.94133, -45.76702 ], [ -72.94253, -45.76638 ], [ -72.9443, -45.76583 ], [ -72.94443, -45.76586 ], [ -72.94455, -45.76631 ], [ -72.94477, -45.76641 ], [ -72.94558, -45.76606 ], [ -72.94599, -45.76606 ], [ -72.94663, -45.7665 ], [ -72.94777, -45.76661 ], [ -72.9484, -45.76762 ], [ -72.95075, -45.76784 ], [ -72.95088, -45.76809 ], [ -72.95072, -45.7688 ], [ -72.95085, -45.76931 ], [ -72.95132, -45.76965 ], [ -72.9521, -45.76971 ], [ -72.95253, -45.76916 ], [ -72.95372, -45.76909 ], [ -72.95403, -45.76894 ], [ -72.95359, -45.76843 ], [ -72.9542, -45.76748 ], [ -72.95423, -45.76681 ], [ -72.95565, -45.76656 ], [ -72.9566, -45.76586 ], [ -72.95664, -45.76478 ], [ -72.95718, -45.76418 ], [ -72.95763, -45.76224 ], [ -72.95834, -45.76147 ], [ -72.96027, -45.76083 ], [ -72.96114, -45.75981 ], [ -72.96202, -45.7596 ], [ -72.96277, -45.75919 ], [ -72.96369, -45.75944 ], [ -72.96492, -45.75925 ], [ -72.96637, -45.75965 ], [ -72.96806, -45.75971 ], [ -72.96953, -45.75749 ], [ -72.97049, -45.75564 ], [ -72.97055, -45.75517 ], [ -72.97012, -45.75441 ], [ -72.97024, -45.75366 ], [ -72.97159, -45.75259 ], [ -72.97135, -45.75181 ], [ -72.97285, -45.75063 ], [ -72.973, -45.74987 ], [ -72.97325, -45.74967 ], [ -72.97369, -45.74965 ], [ -72.97486, -45.74992 ], [ -72.97798, -45.75013 ], [ -72.97808, -45.74998 ], [ -72.9779, -45.74939 ], [ -72.97837, -45.74892 ], [ -72.97916, -45.74841 ], [ -72.98039, -45.74838 ], [ -72.98103, -45.74772 ], [ -72.98123, -45.74692 ], [ -72.982, -45.74635 ], [ -72.98224, -45.74591 ], [ -72.98195, -45.74545 ], [ -72.98123, -45.74534 ], [ -72.98112, -45.74502 ], [ -72.98171, -45.74445 ], [ -72.98203, -45.74376 ], [ -72.9836, -45.7428 ], [ -72.98467, -45.74164 ], [ -72.98599, -45.73959 ], [ -72.98595, -45.73861 ], [ -72.98615, -45.73792 ], [ -72.98654, -45.73715 ], [ -72.98695, -45.73674 ], [ -72.98601, -45.7364 ], [ -72.98549, -45.73601 ], [ -72.98542, -45.73545 ], [ -72.98589, -45.73437 ], [ -72.98667, -45.7336 ], [ -72.98783, -45.73327 ], [ -72.98798, -45.73215 ], [ -72.9887, -45.73163 ], [ -72.98932, -45.73083 ], [ -72.98971, -45.73082 ], [ -72.99085, -45.73126 ], [ -72.99148, -45.73198 ], [ -72.99212, -45.73202 ], [ -72.99299, -45.73161 ], [ -72.99345, -45.73097 ], [ -72.99407, -45.73051 ], [ -72.99499, -45.73021 ], [ -72.99616, -45.73022 ], [ -72.99729, -45.72998 ], [ -72.99842, -45.72885 ], [ -72.99938, -45.72867 ], [ -73.0006, -45.72922 ], [ -73.00095, -45.72984 ], [ -73.00213, -45.73033 ], [ -73.00249, -45.73076 ], [ -73.00227, -45.73201 ], [ -73.00455, -45.73375 ], [ -73.00531, -45.73399 ], [ -73.00523, -45.73446 ], [ -73.00602, -45.73467 ], [ -73.00677, -45.73516 ], [ -73.00777, -45.73512 ], [ -73.00838, -45.73543 ], [ -73.00913, -45.73541 ], [ -73.00935, -45.73521 ], [ -73.00953, -45.73391 ], [ -73.00977, -45.73339 ], [ -73.01036, -45.73313 ], [ -73.0111, -45.73324 ], [ -73.01205, -45.73389 ], [ -73.01267, -45.73513 ], [ -73.01265, -45.73538 ], [ -73.01193, -45.73619 ], [ -73.01226, -45.73674 ], [ -73.01649, -45.73854 ], [ -73.01757, -45.73878 ], [ -73.01794, -45.73905 ], [ -73.01882, -45.73914 ], [ -73.02029, -45.7401 ], [ -73.02124, -45.74121 ], [ -73.02286, -45.74176 ], [ -73.02406, -45.74147 ], [ -73.02464, -45.74111 ], [ -73.02628, -45.73954 ], [ -73.02769, -45.73912 ], [ -73.02827, -45.73834 ], [ -73.02951, -45.73723 ], [ -73.03085, -45.73716 ], [ -73.03159, -45.73687 ] ] } }
]
}
