{
"type": "FeatureCollection",
"name": "MAC",
"crs": { "type": "name", "properties": { "name": "urn:ogc:def:crs:OGC:1.3:CRS84" } },
"xy_coordinate_resolution": 1e-05,
"features": [
{ "type": "Feature", "properties": { "nombre": "Estero Dingle", "tipo": "river", "volcan_codigo": "MAC", "volcan_nombre": "Maca", "drena_volcan": false }, "geometry": { "type": "MultiLineString", "coordinates": [ [ [ -72.81763, -45.51049 ], [ -72.81854, -45.51107 ], [ -72.81886, -45.51107 ], [ -72.82065, -45.5105 ], [ -72.82248, -45.50964 ], [ -72.82384, -45.50752 ], [ -72.82476, -45.50704 ], [ -72.82529, -45.50607 ], [ -72.82525, -45.50546 ], [ -72.82562, -45.5049 ], [ -72.82558, -45.50446 ], [ -72.82584, -45.50423 ], [ -72.82606, -45.5032 ], [ -72.82695, -45.50234 ], [ -72.82737, -45.50106 ], [ -72.82721, -45.50042 ], [ -72.8279, -45.49954 ], [ -72.82825, -45.49846 ], [ -72.82822, -45.49781 ], [ -72.82863, -45.49683 ], [ -72.82889, -45.49653 ], [ -72.8299, -45.49604 ], [ -72.83059, -45.4951 ], [ -72.83193, -45.49489 ], [ -72.83344, -45.49415 ], [ -72.8342, -45.49331 ], [ -72.83368, -45.49271 ], [ -72.83461, -45.49253 ], [ -72.83495, -45.49231 ], [ -72.83506, -45.49154 ], [ -72.83542, -45.49116 ], [ -72.83538, -45.49086 ], [ -72.83564, -45.4901 ], [ -72.83725, -45.48925 ], [ -72.83785, -45.48859 ], [ -72.83937, -45.48776 ], [ -72.83971, -45.48702 ], [ -72.84058, -45.48679 ], [ -72.8415, -45.48611 ], [ -72.84212, -45.48586 ], [ -72.84222, -45.48565 ], [ -72.84135, -45.48528 ], [ -72.84126, -45.48486 ], [ -72.84231, -45.48432 ], [ -72.84209, -45.48376 ], [ -72.84215, -45.48324 ], [ -72.84313, -45.48297 ] ], [ [ -72.84313, -45.48297 ], [ -72.84366, -45.48256 ], [ -72.84351, -45.48192 ], [ -72.84282, -45.48119 ], [ -72.84223, -45.4802 ], [ -72.84128, -45.47961 ] ] ] } },
{ "type": "Feature", "properties": { "nombre": "Río Aysén", "tipo": "river", "volcan_codigo": "MAC", "volcan_nombre": "Maca", "drena_volcan": false }, "geometry": { "type": "MultiLineString", "coordinates": [ [ [ -72.60261, -45.403 ], [ -72.60054, -45.40405 ], [ -72.59918, -45.40428 ], [ -72.59668, -45.40437 ], [ -72.59468, -45.40504 ], [ -72.59397, -45.40597 ], [ -72.59362, -45.40791 ], [ -72.59384, -45.40824 ], [ -72.59444, -45.40851 ], [ -72.59852, -45.40876 ], [ -72.59981, -45.40914 ], [ -72.60191, -45.41027 ], [ -72.60578, -45.41176 ], [ -72.60812, -45.41165 ], [ -72.61088, -45.41087 ], [ -72.61612, -45.40834 ], [ -72.61823, -45.40765 ], [ -72.61966, -45.4073 ], [ -72.62388, -45.40673 ], [ -72.62888, -45.40428 ], [ -72.6301, -45.40425 ], [ -72.63268, -45.40476 ], [ -72.63475, -45.40614 ], [ -72.63603, -45.40663 ], [ -72.63817, -45.40701 ], [ -72.64145, -45.40707 ], [ -72.64529, -45.40643 ], [ -72.64744, -45.40575 ], [ -72.65202, -45.40336 ], [ -72.65531, -45.40124 ], [ -72.65743, -45.40027 ], [ -72.65956, -45.39978 ], [ -72.66099, -45.39966 ], [ -72.66385, -45.39983 ], [ -72.66681, -45.40054 ], [ -72.67091, -45.40179 ], [ -72.67782, -45.40299 ], [ -72.68151, -45.40381 ], [ -72.68333, -45.40429 ], [ -72.68805, -45.40599 ], [ -72.69035, -45.40718 ], [ -72.69254, -45.40857 ], [ -72.69672, -45.41199 ], [ -72.70142, -45.41513 ], [ -72.70442, -45.41803 ], [ -72.70505, -45.41842 ], [ -72.70571, -45.41851 ], [ -72.70666, -45.41846 ], [ -72.70872, -45.41759 ], [ -72.70972, -45.41687 ], [ -72.71037, -45.41613 ], [ -72.71097, -45.41486 ], [ -72.71037, -45.41277 ], [ -72.7103, -45.41211 ], [ -72.71048, -45.41129 ], [ -72.71114, -45.40974 ], [ -72.71277, -45.40781 ], [ -72.71354, -45.40706 ], [ -72.7153, -45.40582 ], [ -72.71745, -45.40514 ], [ -72.71869, -45.405 ], [ -72.72045, -45.40494 ], [ -72.72211, -45.40509 ], [ -72.72331, -45.4054 ], [ -72.725, -45.40604 ], [ -72.72745, -45.40741 ], [ -72.72878, -45.40838 ], [ -72.72953, -45.40915 ], [ -72.73206, -45.41389 ], [ -72.73277, -45.4148 ], [ -72.73474, -45.41669 ], [ -72.73661, -45.41809 ], [ -72.73779, -45.41871 ], [ -72.74056, -45.41951 ], [ -72.7421, -45.41968 ], [ -72.74635, -45.41962 ], [ -72.75054, -45.41895 ], [ -72.75564, -45.41702 ], [ -72.75687, -45.41635 ], [ -72.76006, -45.41416 ], [ -72.76247, -45.41309 ], [ -72.76455, -45.41245 ], [ -72.76837, -45.41169 ], [ -72.7745, -45.41108 ] ], [ [ -72.79558, -45.40955 ], [ -72.79759, -45.40987 ], [ -72.80079, -45.41088 ], [ -72.81066, -45.41522 ], [ -72.81596, -45.41724 ] ], [ [ -72.7745, -45.41108 ], [ -72.78359, -45.41086 ], [ -72.79114, -45.40972 ], [ -72.79558, -45.40955 ] ], [ [ -72.79558, -45.40955 ], [ -72.80095, -45.40945 ], [ -72.80286, -45.40906 ], [ -72.80466, -45.40839 ], [ -72.80809, -45.40659 ], [ -72.81155, -45.40442 ], [ -72.81666, -45.40087 ] ] ] } },
{ "type": "Feature", "properties": { "nombre": "Río Cuervo", "tipo": "river", "volcan_codigo": "MAC", "volcan_nombre": "Maca", "drena_volcan": true }, "geometry": { "type": "LineString", "coordinates": [ [ -72.98117, -45.21149 ], [ -72.9831, -45.21222 ], [ -72.9836, -45.21288 ], [ -72.98375, -45.21343 ], [ -72.98371, -45.21418 ], [ -72.98277, -45.21637 ], [ -72.98285, -45.21734 ], [ -72.98306, -45.21764 ], [ -72.98381, -45.21811 ], [ -72.98527, -45.21833 ], [ -72.98625, -45.21919 ], [ -72.98707, -45.21943 ], [ -72.98806, -45.21999 ], [ -72.98892, -45.21971 ], [ -72.98969, -45.22011 ], [ -72.99007, -45.2205 ], [ -72.99055, -45.22056 ], [ -72.99093, -45.2215 ], [ -72.99192, -45.22213 ], [ -72.99394, -45.22271 ], [ -72.99552, -45.22277 ], [ -72.99604, -45.22295 ], [ -72.99741, -45.22464 ], [ -72.99849, -45.22528 ], [ -72.99861, -45.22582 ], [ -72.99909, -45.22639 ], [ -72.99896, -45.22733 ], [ -72.99934, -45.22769 ], [ -73.00072, -45.22785 ], [ -73.00102, -45.2283 ], [ -73.00059, -45.22899 ], [ -73.0014, -45.2296 ], [ -73.00119, -45.23117 ], [ -73.00128, -45.23168 ], [ -73.00222, -45.23277 ], [ -73.00273, -45.23368 ], [ -73.00351, -45.2344 ], [ -73.00529, -45.23486 ], [ -73.00522, -45.2354 ], [ -73.00419, -45.23594 ], [ -73.00531, -45.23839 ], [ -73.00557, -45.24051 ], [ -73.00797, -45.24265 ], [ -73.00883, -45.24305 ], [ -73.01153, -45.24356 ], [ -73.01462, -45.24525 ], [ -73.01561, -45.2464 ], [ -73.016, -45.24782 ], [ -73.016, -45.24912 ], [ -73.01788, -45.25093 ], [ -73.01797, -45.25187 ], [ -73.01728, -45.25232 ], [ -73.01844, -45.25311 ], [ -73.0184, -45.25395 ], [ -73.01784, -45.25429 ], [ -73.01758, -45.25528 ], [ -73.01844, -45.25555 ], [ -73.01823, -45.25655 ], [ -73.01878, -45.25713 ], [ -73.01951, -45.25758 ], [ -73.01977, -45.25912 ], [ -73.0196, -45.25978 ], [ -73.01891, -45.2599 ], [ -73.01844, -45.2612 ], [ -73.01927, -45.26168 ], [ -73.01833, -45.26292 ], [ -73.0183, -45.26316 ], [ -73.01952, -45.2654 ], [ -73.01972, -45.26624 ], [ -73.0196, -45.26782 ], [ -73.02077, -45.27131 ], [ -73.02029, -45.27217 ], [ -73.01965, -45.27289 ], [ -73.01913, -45.27449 ], [ -73.01935, -45.2752 ], [ -73.01973, -45.2757 ], [ -73.0213, -45.27689 ], [ -73.02156, -45.27802 ], [ -73.02209, -45.28278 ], [ -73.02155, -45.28376 ], [ -73.02072, -45.28464 ], [ -73.02038, -45.28527 ], [ -73.02021, -45.2861 ], [ -73.02017, -45.28949 ], [ -73.02077, -45.29179 ], [ -73.0208, -45.29266 ], [ -73.0212, -45.2932 ], [ -73.02217, -45.29525 ], [ -73.02392, -45.29642 ], [ -73.02521, -45.29663 ], [ -73.02582, -45.29688 ], [ -73.0262, -45.29731 ], [ -73.0261, -45.29792 ], [ -73.02555, -45.29862 ], [ -73.02445, -45.29904 ], [ -73.02346, -45.29995 ], [ -73.02338, -45.30227 ], [ -73.02368, -45.30526 ], [ -73.0228, -45.30715 ], [ -73.02243, -45.30915 ], [ -73.02251, -45.31073 ], [ -73.02221, -45.31178 ], [ -73.02109, -45.31372 ], [ -73.01999, -45.31486 ], [ -73.01881, -45.31538 ], [ -73.01848, -45.31576 ], [ -73.01825, -45.31685 ], [ -73.01832, -45.31771 ], [ -73.01806, -45.31932 ], [ -73.01821, -45.31972 ], [ -73.01954, -45.32039 ], [ -73.01974, -45.32106 ], [ -73.01943, -45.32187 ], [ -73.01906, -45.32236 ], [ -73.01882, -45.32346 ], [ -73.01824, -45.32433 ], [ -73.01665, -45.32562 ], [ -73.01617, -45.3262 ], [ -73.01502, -45.32828 ], [ -73.01495, -45.32948 ], [ -73.01523, -45.33098 ], [ -73.01574, -45.33145 ], [ -73.01926, -45.33218 ], [ -73.02029, -45.3326 ], [ -73.02097, -45.33317 ], [ -73.02132, -45.33402 ], [ -73.02196, -45.33429 ], [ -73.02286, -45.33432 ], [ -73.02434, -45.33553 ], [ -73.02552, -45.33694 ], [ -73.02599, -45.33788 ], [ -73.02758, -45.33878 ], [ -73.0282, -45.33981 ], [ -73.03046, -45.34129 ], [ -73.032, -45.34476 ], [ -73.03252, -45.34521 ], [ -73.03496, -45.34542 ], [ -73.03655, -45.34604 ], [ -73.0375, -45.34705 ], [ -73.03828, -45.3473 ], [ -73.03998, -45.34732 ], [ -73.04221, -45.34761 ], [ -73.04383, -45.34832 ], [ -73.04622, -45.34902 ] ] } },
{ "type": "Feature", "properties": { "nombre": "Río El Salto", "tipo": "river", "volcan_codigo": "MAC", "volcan_nombre": "Maca", "drena_volcan": false }, "geometry": { "type": "LineString", "coordinates": [ [ -72.76605, -45.48254 ], [ -72.76552, -45.48254 ], [ -72.76395, -45.48138 ], [ -72.76275, -45.48072 ], [ -72.76166, -45.47969 ], [ -72.76101, -45.47957 ], [ -72.75998, -45.47977 ], [ -72.75932, -45.47962 ], [ -72.75893, -45.47909 ], [ -72.75807, -45.47903 ], [ -72.75753, -45.47863 ], [ -72.75649, -45.47835 ], [ -72.75444, -45.4773 ], [ -72.75301, -45.47729 ], [ -72.75271, -45.47673 ], [ -72.752, -45.4767 ], [ -72.75132, -45.4764 ], [ -72.75121, -45.47581 ], [ -72.75061, -45.47551 ], [ -72.74876, -45.4754 ], [ -72.74801, -45.47492 ], [ -72.74614, -45.47432 ], [ -72.74513, -45.47351 ], [ -72.74273, -45.47264 ], [ -72.74218, -45.47221 ], [ -72.73909, -45.47081 ], [ -72.7389, -45.47039 ], [ -72.7384, -45.47027 ], [ -72.73724, -45.47036 ], [ -72.73647, -45.46924 ], [ -72.73606, -45.46905 ], [ -72.73637, -45.46787 ], [ -72.73716, -45.46695 ], [ -72.73801, -45.46705 ], [ -72.73825, -45.46684 ], [ -72.73826, -45.46638 ], [ -72.73938, -45.46567 ], [ -72.73992, -45.46489 ], [ -72.73954, -45.46404 ], [ -72.73912, -45.46389 ], [ -72.73926, -45.46352 ], [ -72.74038, -45.46214 ], [ -72.74052, -45.46077 ], [ -72.74126, -45.45971 ], [ -72.74133, -45.45914 ], [ -72.74414, -45.45811 ], [ -72.74484, -45.45714 ], [ -72.74517, -45.45698 ], [ -72.74672, -45.4566 ], [ -72.74657, -45.45606 ], [ -72.74696, -45.45552 ], [ -72.74746, -45.45555 ], [ -72.74926, -45.45516 ], [ -72.74983, -45.45543 ], [ -72.74991, -45.45583 ], [ -72.75088, -45.45616 ], [ -72.75113, -45.45662 ], [ -72.75226, -45.45641 ], [ -72.75526, -45.45635 ], [ -72.75554, -45.45646 ], [ -72.756, -45.45703 ], [ -72.75658, -45.45718 ], [ -72.75719, -45.45706 ], [ -72.75986, -45.45823 ], [ -72.76128, -45.45856 ], [ -72.76184, -45.45854 ], [ -72.76262, -45.45888 ], [ -72.76293, -45.45878 ], [ -72.76244, -45.45848 ], [ -72.76247, -45.45803 ], [ -72.7621, -45.45763 ], [ -72.76216, -45.45747 ], [ -72.76684, -45.45693 ], [ -72.7675, -45.45751 ], [ -72.76796, -45.4576 ], [ -72.76949, -45.45711 ], [ -72.76973, -45.4569 ], [ -72.76941, -45.45668 ], [ -72.76961, -45.456 ], [ -72.77011, -45.4557 ], [ -72.77079, -45.45479 ], [ -72.77179, -45.45478 ], [ -72.77282, -45.45448 ], [ -72.77321, -45.45408 ], [ -72.77433, -45.45367 ], [ -72.77614, -45.45256 ], [ -72.77693, -45.4497 ], [ -72.77741, -45.44892 ], [ -72.77711, -45.44818 ], [ -72.77714, -45.44783 ], [ -72.77861, -45.44677 ], [ -72.77933, -45.4467 ], [ -72.78067, -45.44626 ], [ -72.7822, -45.44654 ], [ -72.78394, -45.44534 ], [ -72.78463, -45.44424 ], [ -72.78522, -45.44385 ], [ -72.78726, -45.44437 ], [ -72.78928, -45.4441 ], [ -72.7899, -45.44422 ], [ -72.79063, -45.44467 ], [ -72.79106, -45.44471 ], [ -72.79178, -45.44456 ], [ -72.79433, -45.44461 ] ] } },
{ "type": "Feature", "properties": { "nombre": "Río Lagunillas", "tipo": "river", "volcan_codigo": "MAC", "volcan_nombre": "Maca", "drena_volcan": false }, "geometry": { "type": "MultiLineString", "coordinates": [ [ [ -72.94968, -45.47881 ], [ -72.94806, -45.47939 ], [ -72.94677, -45.4793 ], [ -72.94045, -45.48014 ], [ -72.93935, -45.48008 ], [ -72.93853, -45.47996 ], [ -72.93745, -45.47907 ], [ -72.93557, -45.47787 ], [ -72.9332, -45.47728 ], [ -72.93066, -45.47697 ], [ -72.92604, -45.47701 ], [ -72.92446, -45.47659 ], [ -72.92225, -45.47546 ], [ -72.91726, -45.47469 ], [ -72.9154, -45.47411 ], [ -72.91302, -45.47384 ], [ -72.91096, -45.47414 ], [ -72.90895, -45.47402 ], [ -72.9079, -45.47364 ], [ -72.90726, -45.47323 ] ], [ [ -72.90726, -45.47323 ], [ -72.90394, -45.47138 ], [ -72.90352, -45.47101 ], [ -72.90293, -45.46982 ], [ -72.90146, -45.46813 ], [ -72.90114, -45.46755 ] ] ] } },
{ "type": "Feature", "properties": { "nombre": "Río Los Palos", "tipo": "river", "volcan_codigo": "MAC", "volcan_nombre": "Maca", "drena_volcan": false }, "geometry": { "type": "LineString", "coordinates": [ [ -72.69512, -45.32886 ], [ -72.69516, -45.3298 ], [ -72.69539, -45.33053 ], [ -72.69582, -45.33775 ], [ -72.69661, -45.33916 ], [ -72.6972, -45.33976 ], [ -72.69762, -45.34112 ], [ -72.69693, -45.34187 ], [ -72.6956, -45.34291 ], [ -72.69478, -45.34392 ], [ -72.69457, -45.34492 ], [ -72.69483, -45.34552 ], [ -72.69601, -45.3465 ], [ -72.69762, -45.34825 ], [ -72.69871, -45.35013 ], [ -72.69891, -45.35087 ], [ -72.70086, -45.35261 ], [ -72.70154, -45.35341 ], [ -72.70192, -45.35414 ], [ -72.70335, -45.3549 ], [ -72.70356, -45.35517 ], [ -72.70339, -45.35577 ], [ -72.70421, -45.35857 ], [ -72.70736, -45.36327 ], [ -72.70766, -45.36394 ], [ -72.70758, -45.36536 ], [ -72.70702, -45.36603 ], [ -72.70607, -45.36645 ], [ -72.7054, -45.36706 ], [ -72.70428, -45.36895 ], [ -72.69954, -45.37263 ], [ -72.69841, -45.37392 ], [ -72.69814, -45.37467 ], [ -72.69807, -45.37649 ], [ -72.69857, -45.37816 ], [ -72.70121, -45.3807 ], [ -72.70325, -45.3821 ], [ -72.70588, -45.38429 ], [ -72.70726, -45.38726 ], [ -72.70853, -45.38846 ], [ -72.71081, -45.38975 ], [ -72.7114, -45.39045 ], [ -72.71216, -45.3927 ], [ -72.71323, -45.39397 ], [ -72.71338, -45.39437 ], [ -72.71323, -45.3947 ], [ -72.71069, -45.39575 ], [ -72.70984, -45.39645 ], [ -72.70959, -45.39684 ], [ -72.7096, -45.39747 ], [ -72.71048, -45.3988 ], [ -72.71128, -45.39963 ], [ -72.71587, -45.40297 ], [ -72.72045, -45.40494 ] ] } },
{ "type": "Feature", "properties": { "nombre": "Río Uspallante", "tipo": "stream", "volcan_codigo": "MAC", "volcan_nombre": "Maca", "drena_volcan": true }, "geometry": { "type": "MultiLineString", "coordinates": [ [ [ -73.19361, -45.07952 ], [ -73.19305, -45.07831 ], [ -73.19329, -45.07777 ], [ -73.19288, -45.07735 ], [ -73.19305, -45.07695 ], [ -73.19294, -45.07654 ], [ -73.19306, -45.07624 ], [ -73.19296, -45.07552 ], [ -73.19253, -45.07443 ], [ -73.19254, -45.07371 ], [ -73.19138, -45.07229 ], [ -73.19175, -45.07143 ], [ -73.19112, -45.07064 ], [ -73.19113, -45.07004 ], [ -73.19135, -45.06972 ], [ -73.19113, -45.0689 ], [ -73.19069, -45.06856 ], [ -73.19097, -45.06788 ], [ -73.19048, -45.06722 ], [ -73.19078, -45.06694 ], [ -73.19079, -45.06621 ], [ -73.19106, -45.06577 ], [ -73.19115, -45.0647 ], [ -73.19143, -45.06404 ], [ -73.19135, -45.06375 ], [ -73.19184, -45.06309 ], [ -73.19226, -45.06296 ], [ -73.19243, -45.0627 ], [ -73.19229, -45.06224 ], [ -73.19276, -45.06187 ], [ -73.19281, -45.06164 ], [ -73.19203, -45.06107 ], [ -73.19172, -45.05994 ], [ -73.19247, -45.05833 ], [ -73.19228, -45.0565 ], [ -73.19174, -45.05624 ], [ -73.19165, -45.056 ], [ -73.19213, -45.05488 ], [ -73.19195, -45.05452 ], [ -73.19131, -45.05403 ], [ -73.19136, -45.05356 ], [ -73.19081, -45.05291 ], [ -73.191, -45.05218 ], [ -73.19033, -45.05155 ], [ -73.19039, -45.05096 ], [ -73.191, -45.05041 ], [ -73.19047, -45.04962 ], [ -73.19079, -45.04917 ], [ -73.19085, -45.04853 ], [ -73.19158, -45.04752 ], [ -73.192, -45.04649 ], [ -73.19172, -45.04585 ], [ -73.19153, -45.04416 ], [ -73.19039, -45.04296 ], [ -73.19031, -45.04261 ], [ -73.18943, -45.04201 ] ], [ [ -73.18943, -45.04201 ], [ -73.18892, -45.04037 ], [ -73.18905, -45.04001 ], [ -73.18841, -45.03871 ], [ -73.18933, -45.03761 ], [ -73.1893, -45.03713 ], [ -73.18878, -45.03642 ], [ -73.18883, -45.03607 ], [ -73.18905, -45.03584 ], [ -73.18998, -45.03554 ], [ -73.19012, -45.03524 ], [ -73.18987, -45.03481 ], [ -73.18989, -45.03418 ], [ -73.1906, -45.03379 ], [ -73.19077, -45.03354 ], [ -73.19037, -45.03277 ], [ -73.1906, -45.03151 ], [ -73.19055, -45.03123 ], [ -73.18998, -45.03087 ], [ -73.18973, -45.03021 ], [ -73.18894, -45.02946 ], [ -73.18886, -45.02921 ], [ -73.18917, -45.02857 ], [ -73.18871, -45.02748 ], [ -73.18874, -45.02678 ], [ -73.18856, -45.02621 ], [ -73.18873, -45.02532 ], [ -73.18855, -45.02488 ], [ -73.18765, -45.02425 ], [ -73.18706, -45.02338 ], [ -73.18709, -45.02301 ], [ -73.18743, -45.02242 ], [ -73.18706, -45.02176 ], [ -73.18764, -45.01939 ], [ -73.18753, -45.01827 ], [ -73.18735, -45.01812 ], [ -73.18637, -45.01807 ], [ -73.18578, -45.01765 ], [ -73.18578, -45.0173 ], [ -73.18613, -45.01682 ], [ -73.18621, -45.01638 ], [ -73.1861, -45.01586 ], [ -73.18665, -45.01484 ], [ -73.18542, -45.01401 ], [ -73.18544, -45.01352 ], [ -73.18657, -45.01228 ], [ -73.18666, -45.01189 ], [ -73.18628, -45.01115 ], [ -73.18496, -45.01054 ], [ -73.18474, -45.0102 ], [ -73.18474, -45.00966 ], [ -73.18537, -45.00876 ], [ -73.18529, -45.00859 ], [ -73.18458, -45.00832 ], [ -73.18413, -45.00723 ], [ -73.18278, -45.00725 ], [ -73.18252, -45.00697 ], [ -73.18237, -45.00611 ], [ -73.18179, -45.00544 ], [ -73.18169, -45.00501 ], [ -73.18193, -45.0043 ], [ -73.18188, -45.00399 ], [ -73.18096, -45.0032 ], [ -73.18074, -45.0027 ], [ -73.18072, -45.00226 ], [ -73.18112, -45.00151 ], [ -73.18088, -45.00117 ], [ -73.17909, -45.0009 ], [ -73.17839, -45.00056 ], [ -73.17778, -44.99984 ], [ -73.17716, -44.99958 ], [ -73.17638, -44.99952 ], [ -73.17599, -44.99929 ], [ -73.17543, -44.99808 ], [ -73.17385, -44.99741 ], [ -73.17266, -44.99596 ], [ -73.17229, -44.99529 ], [ -73.17222, -44.99396 ], [ -73.17168, -44.99327 ], [ -73.17087, -44.9926 ], [ -73.17058, -44.99161 ], [ -73.17033, -44.99133 ], [ -73.16863, -44.99099 ], [ -73.16862, -44.99001 ], [ -73.16736, -44.98899 ], [ -73.16737, -44.98866 ], [ -73.16774, -44.98795 ], [ -73.16751, -44.9874 ], [ -73.16711, -44.98724 ], [ -73.16425, -44.98723 ], [ -73.16362, -44.98705 ], [ -73.16326, -44.98659 ], [ -73.16322, -44.98619 ], [ -73.16293, -44.98569 ], [ -73.16074, -44.9834 ], [ -73.16014, -44.98298 ], [ -73.15747, -44.98261 ], [ -73.15715, -44.98234 ], [ -73.15598, -44.97985 ], [ -73.15516, -44.9793 ], [ -73.15426, -44.97919 ], [ -73.15344, -44.97885 ], [ -73.1499, -44.97584 ], [ -73.14915, -44.97435 ], [ -73.14903, -44.97284 ], [ -73.14867, -44.97234 ], [ -73.1474, -44.97133 ], [ -73.14544, -44.97106 ], [ -73.14409, -44.97062 ], [ -73.14344, -44.96981 ], [ -73.14329, -44.96884 ], [ -73.14256, -44.96815 ], [ -73.13948, -44.9665 ], [ -73.13932, -44.96625 ], [ -73.13927, -44.96555 ], [ -73.14036, -44.96405 ], [ -73.14021, -44.96354 ], [ -73.13978, -44.96328 ], [ -73.13783, -44.96295 ], [ -73.13661, -44.96221 ], [ -73.13651, -44.96124 ], [ -73.13719, -44.95954 ], [ -73.13701, -44.95799 ], [ -73.13635, -44.95537 ], [ -73.13522, -44.9538 ], [ -73.13114, -44.9496 ], [ -73.12762, -44.94801 ], [ -73.12776, -44.94651 ], [ -73.12804, -44.94583 ], [ -73.12774, -44.94524 ], [ -73.12568, -44.9439 ], [ -73.1244, -44.94355 ], [ -73.1219, -44.94329 ], [ -73.11878, -44.94264 ], [ -73.11727, -44.94166 ], [ -73.1155, -44.94196 ], [ -73.1128, -44.94208 ], [ -73.11088, -44.94332 ], [ -73.11019, -44.94314 ], [ -73.10771, -44.94152 ], [ -73.10563, -44.94135 ], [ -73.10498, -44.94144 ] ] ] } },
{ "type": "Feature", "properties": { "nombre": "Río Álvarez", "tipo": "stream", "volcan_codigo": "MAC", "volcan_nombre": "Maca", "drena_volcan": false }, "geometry": { "type": "LineString", "coordinates": [ [ -72.71037, -45.41613 ], [ -72.7112, -45.41643 ], [ -72.71177, -45.41701 ], [ -72.71313, -45.41935 ], [ -72.71332, -45.42001 ], [ -72.7137, -45.42005 ], [ -72.71389, -45.41991 ], [ -72.71401, -45.41908 ], [ -72.7146, -45.41823 ], [ -72.71531, -45.41808 ], [ -72.71685, -45.41841 ], [ -72.71811, -45.41948 ], [ -72.71817, -45.42 ], [ -72.71793, -45.42117 ], [ -72.71815, -45.42146 ], [ -72.71995, -45.42226 ], [ -72.72051, -45.4228 ], [ -72.72081, -45.42393 ], [ -72.72012, -45.42467 ], [ -72.71946, -45.42528 ], [ -72.71685, -45.42606 ], [ -72.71628, -45.42642 ], [ -72.71617, -45.42702 ], [ -72.71664, -45.4283 ], [ -72.71721, -45.42905 ], [ -72.71854, -45.42962 ], [ -72.71906, -45.43046 ], [ -72.7195, -45.43073 ], [ -72.72133, -45.43138 ], [ -72.72203, -45.43141 ], [ -72.72256, -45.43117 ], [ -72.72271, -45.4307 ], [ -72.72242, -45.42817 ], [ -72.72248, -45.42727 ], [ -72.7236, -45.42662 ], [ -72.72512, -45.42658 ], [ -72.73069, -45.42806 ], [ -72.7321, -45.42929 ], [ -72.73297, -45.43062 ], [ -72.73665, -45.43161 ], [ -72.73848, -45.43231 ], [ -72.74026, -45.43263 ], [ -72.74254, -45.43261 ], [ -72.74887, -45.43145 ], [ -72.75074, -45.43076 ], [ -72.75149, -45.43031 ], [ -72.75187, -45.42973 ], [ -72.75239, -45.42787 ], [ -72.75578, -45.42505 ], [ -72.75759, -45.42323 ], [ -72.7614, -45.42153 ], [ -72.7637, -45.4207 ], [ -72.7647, -45.42001 ], [ -72.76572, -45.41831 ], [ -72.76894, -45.41391 ], [ -72.76939, -45.41367 ], [ -72.77303, -45.41273 ], [ -72.7745, -45.41108 ] ] } }
]
}
