{
"type": "FeatureCollection",
"name": "MEL",
"crs": { "type": "name", "properties": { "name": "urn:ogc:def:crs:OGC:1.3:CRS84" } },
"xy_coordinate_resolution": 1e-05,
"features": [
{ "type": "Feature", "properties": { "nombre": "Arroyo Ciruelillo", "tipo": "stream", "volcan_codigo": "MEL", "volcan_nombre": "Melimoyu", "drena_volcan": false }, "geometry": { "type": "LineString", "coordinates": [ [ -72.56348, -44.29484 ], [ -72.55996, -44.29565 ], [ -72.55746, -44.29538 ], [ -72.55424, -44.2971 ], [ -72.5511, -44.29726 ], [ -72.55021, -44.29758 ], [ -72.54995, -44.29821 ], [ -72.55024, -44.29889 ], [ -72.55028, -44.29956 ], [ -72.55074, -44.30023 ], [ -72.55017, -44.30107 ], [ -72.5502, -44.30143 ], [ -72.54911, -44.30231 ], [ -72.54915, -44.30248 ], [ -72.54819, -44.30292 ], [ -72.54814, -44.30463 ] ] } },
{ "type": "Feature", "properties": { "nombre": "Arroyo El Muelle", "tipo": "stream", "volcan_codigo": "MEL", "volcan_nombre": "Melimoyu", "drena_volcan": false }, "geometry": { "type": "MultiLineString", "coordinates": [ [ [ -72.51468, -44.20282 ], [ -72.51295, -44.202 ], [ -72.51233, -44.20198 ], [ -72.51101, -44.20236 ], [ -72.5106, -44.202 ], [ -72.50981, -44.20186 ], [ -72.50753, -44.20091 ], [ -72.50658, -44.20031 ], [ -72.50492, -44.1998 ], [ -72.50475, -44.19957 ], [ -72.50301, -44.1992 ], [ -72.50193, -44.19877 ], [ -72.50125, -44.19882 ], [ -72.50106, -44.1987 ], [ -72.50031, -44.19883 ], [ -72.49947, -44.19853 ] ], [ [ -72.49947, -44.19853 ], [ -72.49889, -44.19842 ], [ -72.49804, -44.19784 ], [ -72.49737, -44.19762 ], [ -72.49644, -44.19757 ], [ -72.49414, -44.19786 ] ] ] } },
{ "type": "Feature", "properties": { "nombre": "Arroyo Laguna Zancudo", "tipo": "stream", "volcan_codigo": "MEL", "volcan_nombre": "Melimoyu", "drena_volcan": false }, "geometry": { "type": "LineString", "coordinates": [ [ -72.43532, -43.97379 ], [ -72.43584, -43.97313 ], [ -72.43582, -43.9729 ], [ -72.43649, -43.97222 ], [ -72.43669, -43.97145 ] ] } },
{ "type": "Feature", "properties": { "nombre": "Arroyo Loro", "tipo": "stream", "volcan_codigo": "MEL", "volcan_nombre": "Melimoyu", "drena_volcan": false }, "geometry": { "type": "LineString", "coordinates": [ [ -72.54328, -44.26266 ], [ -72.54105, -44.26328 ], [ -72.54039, -44.26365 ], [ -72.53405, -44.26542 ], [ -72.53269, -44.26601 ], [ -72.53171, -44.26665 ], [ -72.52996, -44.26695 ], [ -72.52839, -44.26786 ], [ -72.52831, -44.26814 ], [ -72.52695, -44.26874 ], [ -72.52659, -44.26875 ], [ -72.52605, -44.2692 ] ] } },
{ "type": "Feature", "properties": { "nombre": "Arroyo Los Curas", "tipo": "stream", "volcan_codigo": "MEL", "volcan_nombre": "Melimoyu", "drena_volcan": false }, "geometry": { "type": "LineString", "coordinates": [ [ -72.5638, -44.28018 ], [ -72.56342, -44.28054 ], [ -72.56153, -44.28161 ], [ -72.5611, -44.28367 ], [ -72.55762, -44.28529 ], [ -72.55708, -44.28635 ], [ -72.55589, -44.2872 ], [ -72.55477, -44.28881 ], [ -72.55446, -44.28907 ], [ -72.55294, -44.28954 ], [ -72.5507, -44.29168 ], [ -72.54912, -44.29251 ], [ -72.54835, -44.29343 ], [ -72.54815, -44.29502 ], [ -72.54702, -44.29549 ], [ -72.54647, -44.29553 ], [ -72.5459, -44.29596 ], [ -72.54525, -44.29601 ], [ -72.54449, -44.29662 ], [ -72.54397, -44.29786 ], [ -72.54405, -44.29818 ], [ -72.54442, -44.29848 ], [ -72.54455, -44.29898 ], [ -72.54424, -44.29952 ], [ -72.54413, -44.30019 ], [ -72.54423, -44.30051 ], [ -72.54401, -44.30066 ], [ -72.54401, -44.30096 ], [ -72.54374, -44.30139 ], [ -72.54325, -44.30162 ], [ -72.54311, -44.30223 ], [ -72.54385, -44.30294 ], [ -72.54474, -44.30322 ], [ -72.54621, -44.30409 ], [ -72.54814, -44.30463 ] ] } },
{ "type": "Feature", "properties": { "nombre": "Arroyo Pez", "tipo": "stream", "volcan_codigo": "MEL", "volcan_nombre": "Melimoyu", "drena_volcan": false }, "geometry": { "type": "MultiLineString", "coordinates": [ [ [ -72.50558, -44.2266 ], [ -72.50519, -44.22667 ] ], [ [ -72.50574, -44.22655 ], [ -72.50558, -44.2266 ] ], [ [ -72.51124, -44.22314 ], [ -72.5106, -44.22364 ], [ -72.50995, -44.22467 ], [ -72.50894, -44.2251 ], [ -72.50851, -44.22557 ], [ -72.50574, -44.22655 ] ] ] } },
{ "type": "Feature", "properties": { "nombre": "Arroyo Rancha Larga", "tipo": "stream", "volcan_codigo": "MEL", "volcan_nombre": "Melimoyu", "drena_volcan": false }, "geometry": { "type": "LineString", "coordinates": [ [ -72.53729, -44.24546 ], [ -72.53627, -44.2457 ], [ -72.53434, -44.24561 ], [ -72.53302, -44.24604 ], [ -72.52993, -44.24627 ], [ -72.5296, -44.24651 ], [ -72.52925, -44.24709 ], [ -72.52838, -44.24692 ], [ -72.52777, -44.24699 ], [ -72.52701, -44.24733 ], [ -72.52665, -44.24733 ], [ -72.52596, -44.24695 ], [ -72.5252, -44.24686 ], [ -72.52228, -44.24703 ], [ -72.51964, -44.24684 ], [ -72.51884, -44.24735 ], [ -72.5178, -44.24739 ], [ -72.51652, -44.24873 ], [ -72.51563, -44.24929 ], [ -72.5141, -44.24976 ] ] } },
{ "type": "Feature", "properties": { "nombre": "Arroyo Santana", "tipo": "stream", "volcan_codigo": "MEL", "volcan_nombre": "Melimoyu", "drena_volcan": false }, "geometry": { "type": "LineString", "coordinates": [ [ -72.51189, -44.233 ], [ -72.51148, -44.23323 ], [ -72.51063, -44.23338 ], [ -72.51002, -44.23397 ], [ -72.50776, -44.23469 ], [ -72.50749, -44.23527 ], [ -72.50764, -44.23567 ] ] } },
{ "type": "Feature", "properties": { "nombre": "Arroyo Seco", "tipo": "stream", "volcan_codigo": "MEL", "volcan_nombre": "Melimoyu", "drena_volcan": false }, "geometry": { "type": "LineString", "coordinates": [ [ -72.5546, -44.27317 ], [ -72.55364, -44.27361 ], [ -72.553, -44.27411 ], [ -72.55121, -44.27411 ], [ -72.54993, -44.27504 ], [ -72.54869, -44.27546 ], [ -72.5476, -44.27563 ], [ -72.54264, -44.2787 ], [ -72.54169, -44.27907 ], [ -72.54075, -44.27984 ], [ -72.53769, -44.28095 ], [ -72.53606, -44.28178 ], [ -72.53543, -44.28199 ], [ -72.53447, -44.28191 ], [ -72.53349, -44.2822 ], [ -72.53108, -44.28251 ], [ -72.52951, -44.2824 ] ] } },
{ "type": "Feature", "properties": { "nombre": "Canal Abé", "tipo": "canal", "volcan_codigo": "MEL", "volcan_nombre": "Melimoyu", "drena_volcan": false }, "geometry": { "type": "LineString", "coordinates": [ [ -72.93401, -43.85636 ], [ -72.93401, -43.85414 ], [ -72.93524, -43.85274 ], [ -72.93543, -43.85219 ], [ -72.9354, -43.85131 ], [ -72.93452, -43.85051 ], [ -72.93353, -43.85022 ], [ -72.93317, -43.84996 ], [ -72.93283, -43.84874 ], [ -72.93287, -43.848 ], [ -72.93193, -43.84661 ], [ -72.93182, -43.8453 ], [ -72.93218, -43.8447 ], [ -72.93424, -43.84318 ], [ -72.93559, -43.84115 ], [ -72.9379, -43.83944 ], [ -72.93913, -43.83831 ], [ -72.9396, -43.83733 ], [ -72.93931, -43.83663 ], [ -72.93794, -43.83546 ], [ -72.93678, -43.83535 ], [ -72.93523, -43.83584 ], [ -72.93253, -43.83804 ], [ -72.93204, -43.83812 ], [ -72.92863, -43.83756 ], [ -72.92774, -43.83691 ], [ -72.92197, -43.83426 ], [ -72.92087, -43.83321 ], [ -72.91864, -43.83027 ], [ -72.91703, -43.82752 ], [ -72.91696, -43.82631 ], [ -72.91659, -43.82449 ], [ -72.91688, -43.82272 ], [ -72.91703, -43.8203 ], [ -72.91794, -43.81922 ], [ -72.91824, -43.81817 ], [ -72.91843, -43.81797 ], [ -72.91917, -43.81761 ], [ -72.92061, -43.81734 ], [ -72.92154, -43.81679 ], [ -72.92211, -43.81609 ], [ -72.92238, -43.81477 ], [ -72.92234, -43.81384 ], [ -72.92127, -43.8131 ], [ -72.9205, -43.81227 ], [ -72.92005, -43.81088 ], [ -72.92013, -43.81038 ], [ -72.92052, -43.80994 ], [ -72.92231, -43.80904 ], [ -72.92261, -43.80871 ], [ -72.92262, -43.80828 ], [ -72.92214, -43.80787 ], [ -72.92109, -43.8077 ], [ -72.91808, -43.80827 ], [ -72.91701, -43.80801 ], [ -72.91673, -43.80774 ], [ -72.91622, -43.80599 ], [ -72.9147, -43.80477 ], [ -72.91289, -43.80366 ], [ -72.91112, -43.80338 ], [ -72.90817, -43.804 ], [ -72.90599, -43.80373 ], [ -72.90535, -43.8033 ], [ -72.90389, -43.80138 ], [ -72.90222, -43.80016 ], [ -72.9013, -43.79919 ], [ -72.90092, -43.79834 ], [ -72.901, -43.79774 ], [ -72.90077, -43.79735 ], [ -72.89957, -43.797 ], [ -72.89915, -43.79672 ], [ -72.89768, -43.7951 ] ] } },
{ "type": "Feature", "properties": { "nombre": "Canal Garrao", "tipo": "canal", "volcan_codigo": "MEL", "volcan_nombre": "Melimoyu", "drena_volcan": false }, "geometry": { "type": "LineString", "coordinates": [ [ -72.9546, -43.82719 ], [ -72.95255, -43.82489 ], [ -72.95184, -43.82381 ], [ -72.95134, -43.82327 ], [ -72.94946, -43.82188 ], [ -72.94924, -43.82136 ], [ -72.9494, -43.82105 ], [ -72.95028, -43.8208 ], [ -72.95066, -43.82051 ], [ -72.95149, -43.81738 ], [ -72.95225, -43.81619 ], [ -72.9524, -43.81546 ], [ -72.95218, -43.8148 ], [ -72.95168, -43.81432 ], [ -72.95081, -43.81378 ], [ -72.94962, -43.81346 ], [ -72.94791, -43.81335 ], [ -72.94732, -43.81307 ], [ -72.94601, -43.81159 ], [ -72.94551, -43.81131 ], [ -72.94473, -43.81127 ], [ -72.94407, -43.81155 ], [ -72.94321, -43.81149 ], [ -72.93857, -43.8108 ], [ -72.93572, -43.80947 ], [ -72.93434, -43.80926 ], [ -72.93234, -43.80923 ], [ -72.91881, -43.80556 ], [ -72.91802, -43.80506 ], [ -72.91407, -43.80126 ], [ -72.91049, -43.7986 ], [ -72.90975, -43.79783 ], [ -72.90924, -43.797 ], [ -72.90852, -43.79507 ] ] } },
{ "type": "Feature", "properties": { "nombre": "Estero La Basa", "tipo": "stream", "volcan_codigo": "MEL", "volcan_nombre": "Melimoyu", "drena_volcan": false }, "geometry": { "type": "LineString", "coordinates": [ [ -72.73946, -43.9835 ], [ -72.73705, -43.98368 ], [ -72.73652, -43.98351 ], [ -72.73616, -43.98311 ], [ -72.73479, -43.98285 ], [ -72.73467, -43.98244 ], [ -72.73501, -43.98162 ], [ -72.73564, -43.98084 ], [ -72.73571, -43.98035 ], [ -72.73516, -43.98013 ], [ -72.7341, -43.97921 ], [ -72.73329, -43.97751 ] ] } },
{ "type": "Feature", "properties": { "nombre": "Estero Salvaje", "tipo": "river", "volcan_codigo": "MEL", "volcan_nombre": "Melimoyu", "drena_volcan": false }, "geometry": { "type": "LineString", "coordinates": [ [ -72.57589, -44.31051 ], [ -72.57542, -44.31139 ], [ -72.57571, -44.31321 ], [ -72.57617, -44.31482 ], [ -72.57549, -44.31591 ], [ -72.57488, -44.31642 ], [ -72.57494, -44.31713 ], [ -72.57457, -44.31766 ], [ -72.57392, -44.31797 ], [ -72.57352, -44.31924 ], [ -72.5726, -44.31942 ], [ -72.57184, -44.32097 ], [ -72.56983, -44.32288 ], [ -72.56945, -44.32405 ], [ -72.56872, -44.32471 ], [ -72.56854, -44.32531 ], [ -72.56905, -44.32602 ], [ -72.56923, -44.32675 ] ] } },
{ "type": "Feature", "properties": { "nombre": "None", "tipo": "river", "volcan_codigo": "MEL", "volcan_nombre": "Melimoyu", "drena_volcan": false }, "geometry": { "type": "LineString", "coordinates": [ [ -72.66987, -43.70084 ], [ -72.67083, -43.70021 ], [ -72.67115, -43.69893 ], [ -72.67202, -43.69825 ], [ -72.67355, -43.69667 ], [ -72.6746, -43.69471 ], [ -72.67604, -43.69338 ], [ -72.67671, -43.69324 ], [ -72.678, -43.69248 ], [ -72.67944, -43.69206 ], [ -72.68003, -43.6917 ], [ -72.68034, -43.69124 ], [ -72.68166, -43.69068 ], [ -72.68318, -43.69063 ], [ -72.68377, -43.69047 ] ] } },
{ "type": "Feature", "properties": { "nombre": "RÍo Añihue", "tipo": "river", "volcan_codigo": "MEL", "volcan_nombre": "Melimoyu", "drena_volcan": true }, "geometry": { "type": "MultiLineString", "coordinates": [ [ [ -72.85348, -44.0367 ], [ -72.85206, -44.0369 ], [ -72.85058, -44.03678 ], [ -72.85007, -44.03648 ], [ -72.84976, -44.03578 ], [ -72.8492, -44.03571 ], [ -72.84867, -44.03526 ], [ -72.84764, -44.0348 ], [ -72.8475, -44.03446 ], [ -72.84781, -44.03415 ], [ -72.84715, -44.03354 ], [ -72.84731, -44.03305 ], [ -72.84713, -44.03286 ], [ -72.84734, -44.03274 ], [ -72.84748, -44.03225 ], [ -72.84551, -44.03015 ], [ -72.84481, -44.02973 ], [ -72.84471, -44.02925 ], [ -72.84423, -44.02864 ], [ -72.84404, -44.02811 ], [ -72.8433, -44.02757 ], [ -72.84343, -44.02621 ], [ -72.84305, -44.02504 ], [ -72.84324, -44.02451 ], [ -72.84313, -44.02393 ], [ -72.8428, -44.02345 ], [ -72.84276, -44.02295 ], [ -72.84337, -44.02204 ], [ -72.84439, -44.02147 ], [ -72.84485, -44.02051 ], [ -72.8452, -44.0203 ], [ -72.84532, -44.01971 ], [ -72.8466, -44.01849 ], [ -72.84784, -44.01837 ], [ -72.8494, -44.01771 ], [ -72.8518, -44.01736 ], [ -72.85328, -44.01742 ], [ -72.8538, -44.01718 ], [ -72.85446, -44.01712 ], [ -72.85514, -44.01671 ], [ -72.8561, -44.01651 ], [ -72.85725, -44.01536 ], [ -72.85733, -44.01505 ], [ -72.85709, -44.0147 ], [ -72.85702, -44.01302 ], [ -72.85651, -44.01243 ], [ -72.85653, -44.01171 ], [ -72.85677, -44.01105 ], [ -72.85779, -44.01019 ], [ -72.85785, -44.00941 ], [ -72.85806, -44.0092 ], [ -72.85791, -44.0085 ], [ -72.85813, -44.00753 ], [ -72.85882, -44.00627 ], [ -72.85836, -44.0059 ], [ -72.85824, -44.00528 ], [ -72.85783, -44.0049 ], [ -72.8576, -44.00436 ], [ -72.85693, -44.0041 ], [ -72.85661, -44.00367 ], [ -72.8565, -44.00317 ], [ -72.85623, -44.0028 ], [ -72.85573, -44.00251 ], [ -72.85567, -44.00222 ], [ -72.8574, -43.99983 ], [ -72.85793, -43.99943 ], [ -72.85824, -43.99878 ], [ -72.85953, -43.99768 ], [ -72.8599, -43.99704 ], [ -72.86133, -43.99629 ], [ -72.86277, -43.99617 ], [ -72.86389, -43.99579 ], [ -72.86457, -43.99579 ], [ -72.86657, -43.99499 ], [ -72.86875, -43.99383 ], [ -72.87037, -43.99269 ], [ -72.87097, -43.99244 ], [ -72.8719, -43.99149 ], [ -72.87315, -43.99083 ], [ -72.87343, -43.9903 ], [ -72.87561, -43.98879 ], [ -72.87662, -43.98767 ], [ -72.87653, -43.98663 ], [ -72.87697, -43.98519 ], [ -72.87696, -43.98471 ], [ -72.87675, -43.98361 ], [ -72.87623, -43.98263 ], [ -72.87634, -43.98139 ], [ -72.87598, -43.98057 ], [ -72.8743, -43.97829 ], [ -72.87419, -43.97721 ], [ -72.87348, -43.9755 ], [ -72.87353, -43.97439 ], [ -72.87324, -43.97331 ], [ -72.87313, -43.97189 ], [ -72.87288, -43.97119 ], [ -72.87338, -43.97006 ], [ -72.87282, -43.96918 ], [ -72.87295, -43.96843 ], [ -72.87264, -43.96719 ], [ -72.87331, -43.96555 ], [ -72.87413, -43.96441 ], [ -72.87404, -43.96361 ], [ -72.87437, -43.96282 ], [ -72.87447, -43.96185 ], [ -72.87551, -43.96078 ], [ -72.87727, -43.96029 ], [ -72.87811, -43.95975 ], [ -72.87848, -43.95968 ], [ -72.87922, -43.95998 ], [ -72.87984, -43.9608 ], [ -72.88127, -43.96081 ], [ -72.88318, -43.96107 ], [ -72.88361, -43.96079 ], [ -72.88403, -43.96007 ], [ -72.88566, -43.95963 ], [ -72.88786, -43.95816 ], [ -72.8888, -43.95664 ], [ -72.88796, -43.95583 ], [ -72.88817, -43.95482 ], [ -72.88913, -43.95364 ], [ -72.89152, -43.95233 ], [ -72.89293, -43.95209 ], [ -72.89501, -43.9521 ], [ -72.89686, -43.95302 ], [ -72.89794, -43.95307 ], [ -72.90136, -43.95296 ], [ -72.90222, -43.95264 ], [ -72.903, -43.95263 ], [ -72.90439, -43.95291 ], [ -72.90829, -43.95276 ], [ -72.91239, -43.95157 ], [ -72.9131, -43.95118 ], [ -72.9137, -43.95059 ], [ -72.91476, -43.95017 ], [ -72.91608, -43.95028 ], [ -72.91678, -43.951 ], [ -72.91746, -43.95126 ], [ -72.92176, -43.94983 ], [ -72.92359, -43.94954 ], [ -72.92531, -43.94966 ], [ -72.92559, -43.94917 ], [ -72.92528, -43.94842 ], [ -72.92537, -43.94808 ], [ -72.92793, -43.94705 ], [ -72.92853, -43.94631 ], [ -72.92864, -43.94445 ], [ -72.92886, -43.94416 ], [ -72.92986, -43.94381 ], [ -72.93038, -43.94319 ], [ -72.93013, -43.94283 ], [ -72.92834, -43.94152 ], [ -72.92779, -43.94088 ], [ -72.92768, -43.94044 ], [ -72.92764, -43.94003 ], [ -72.92782, -43.93965 ], [ -72.92878, -43.93846 ], [ -72.9297, -43.93761 ], [ -72.93139, -43.93636 ], [ -72.93307, -43.93562 ], [ -72.93384, -43.93555 ], [ -72.93563, -43.93578 ], [ -72.93594, -43.93565 ], [ -72.93614, -43.93545 ], [ -72.93653, -43.93344 ], [ -72.93687, -43.93287 ], [ -72.93726, -43.93266 ], [ -72.93848, -43.93265 ], [ -72.94058, -43.93292 ], [ -72.94155, -43.93292 ], [ -72.94215, -43.9327 ], [ -72.94252, -43.93239 ], [ -72.94303, -43.9315 ], [ -72.94321, -43.92834 ], [ -72.94337, -43.92782 ], [ -72.94359, -43.92738 ], [ -72.94418, -43.92696 ], [ -72.94565, -43.9268 ], [ -72.94653, -43.9271 ], [ -72.94673, -43.92736 ], [ -72.94682, -43.92816 ], [ -72.94727, -43.92889 ], [ -72.9486, -43.92963 ], [ -72.94942, -43.92949 ], [ -72.95015, -43.92835 ], [ -72.95005, -43.92747 ], [ -72.95069, -43.92663 ], [ -72.95141, -43.92634 ], [ -72.95292, -43.92636 ], [ -72.95329, -43.92608 ], [ -72.95352, -43.92518 ], [ -72.95347, -43.92392 ], [ -72.95424, -43.92267 ], [ -72.9542, -43.92204 ], [ -72.95336, -43.92121 ], [ -72.95355, -43.92 ], [ -72.95389, -43.919 ], [ -72.95465, -43.91806 ], [ -72.95618, -43.91708 ], [ -72.95826, -43.91631 ], [ -72.95954, -43.91611 ], [ -72.96337, -43.91625 ], [ -72.96439, -43.91588 ], [ -72.96489, -43.91552 ], [ -72.96591, -43.91436 ], [ -72.96604, -43.91372 ], [ -72.96589, -43.91333 ], [ -72.96527, -43.91264 ], [ -72.96378, -43.91205 ], [ -72.96336, -43.91172 ], [ -72.96302, -43.91074 ], [ -72.96308, -43.91025 ], [ -72.96342, -43.90963 ], [ -72.96444, -43.90902 ], [ -72.96502, -43.90892 ], [ -72.96663, -43.90904 ], [ -72.96685, -43.9088 ], [ -72.96699, -43.90825 ], [ -72.96721, -43.90645 ], [ -72.96758, -43.90584 ], [ -72.96843, -43.90527 ], [ -72.96949, -43.90512 ], [ -72.97172, -43.90609 ], [ -72.97261, -43.90623 ], [ -72.97302, -43.90608 ], [ -72.97401, -43.90525 ], [ -72.97421, -43.90408 ], [ -72.97441, -43.90383 ], [ -72.9748, -43.90364 ], [ -72.97686, -43.90345 ], [ -72.97722, -43.90318 ], [ -72.97754, -43.90237 ], [ -72.97831, -43.90154 ], [ -72.97848, -43.90112 ], [ -72.97827, -43.89965 ], [ -72.9784, -43.8992 ], [ -72.97874, -43.89869 ], [ -72.98029, -43.89773 ], [ -72.98081, -43.89712 ], [ -72.9808, -43.89623 ], [ -72.98043, -43.89516 ], [ -72.98078, -43.89429 ], [ -72.98135, -43.89404 ], [ -72.98212, -43.89428 ], [ -72.98261, -43.89544 ], [ -72.98307, -43.89579 ], [ -72.98452, -43.89577 ], [ -72.98527, -43.8955 ], [ -72.98546, -43.89507 ], [ -72.9854, -43.89463 ], [ -72.98367, -43.89369 ], [ -72.98328, -43.89267 ], [ -72.98338, -43.89226 ], [ -72.98441, -43.89114 ], [ -72.98436, -43.89056 ], [ -72.98352, -43.89001 ], [ -72.98127, -43.8898 ], [ -72.98091, -43.88909 ], [ -72.98101, -43.88855 ], [ -72.98192, -43.88788 ], [ -72.98628, -43.88633 ], [ -72.99142, -43.88618 ], [ -72.99212, -43.88605 ], [ -72.99291, -43.88561 ], [ -72.99303, -43.88533 ], [ -72.99276, -43.88467 ], [ -72.99122, -43.88408 ], [ -72.99106, -43.88374 ], [ -72.99102, -43.88329 ], [ -72.99151, -43.88186 ], [ -72.99129, -43.8815 ], [ -72.98903, -43.88128 ], [ -72.98874, -43.88074 ], [ -72.98911, -43.88007 ], [ -72.98999, -43.87941 ], [ -72.99031, -43.87891 ], [ -72.99159, -43.87773 ], [ -72.99168, -43.87739 ], [ -72.99149, -43.87648 ], [ -72.99183, -43.87558 ], [ -72.99276, -43.87503 ], [ -72.9938, -43.875 ], [ -72.9946, -43.87475 ], [ -72.99503, -43.87448 ], [ -72.99518, -43.87409 ], [ -72.99477, -43.87293 ], [ -72.99432, -43.87246 ], [ -72.99338, -43.87189 ], [ -72.99132, -43.8712 ], [ -72.99068, -43.87077 ], [ -72.99043, -43.87038 ], [ -72.99041, -43.86993 ], [ -72.99071, -43.86951 ], [ -72.99185, -43.86858 ], [ -72.99207, -43.86816 ], [ -72.99242, -43.86696 ], [ -72.99208, -43.86591 ], [ -72.99245, -43.86536 ], [ -72.99287, -43.86526 ], [ -72.99849, -43.86565 ], [ -72.99922, -43.86539 ], [ -72.9995, -43.86513 ], [ -72.99984, -43.86418 ], [ -72.99991, -43.86268 ], [ -72.99971, -43.86216 ], [ -72.9998, -43.86146 ], [ -73.0009, -43.8606 ], [ -73.00187, -43.85937 ], [ -73.00209, -43.85886 ], [ -73.00204, -43.8584 ], [ -73.00177, -43.85807 ], [ -73.00117, -43.85782 ], [ -72.99804, -43.85697 ], [ -72.9975, -43.8567 ], [ -72.99705, -43.85628 ], [ -72.99693, -43.85591 ], [ -72.99705, -43.85528 ], [ -72.99733, -43.85491 ], [ -72.99811, -43.85459 ], [ -72.99952, -43.8548 ], [ -73.00063, -43.85526 ], [ -73.00169, -43.85511 ], [ -73.00222, -43.85437 ], [ -73.00206, -43.85329 ], [ -73.00047, -43.85177 ], [ -73.00025, -43.85103 ], [ -73.00063, -43.85052 ], [ -73.00321, -43.85004 ], [ -73.00373, -43.84957 ], [ -73.00368, -43.84923 ], [ -73.00336, -43.84904 ], [ -73.00139, -43.84863 ], [ -73.00017, -43.84774 ], [ -72.99934, -43.84669 ], [ -72.99901, -43.84653 ], [ -72.99784, -43.84644 ], [ -72.99685, -43.84658 ], [ -72.99611, -43.84633 ], [ -72.99601, -43.84577 ], [ -72.99622, -43.84547 ], [ -72.99784, -43.84415 ], [ -72.99813, -43.84362 ], [ -72.99815, -43.84322 ], [ -72.99747, -43.84198 ], [ -72.99771, -43.84139 ] ], [ [ -72.99771, -43.84139 ], [ -72.99945, -43.84066 ], [ -72.99986, -43.84028 ], [ -72.99998, -43.83926 ], [ -72.99944, -43.83659 ], [ -72.99996, -43.83532 ], [ -73.00301, -43.83315 ], [ -73.00368, -43.833 ], [ -73.00401, -43.83336 ], [ -73.00404, -43.83364 ] ] ] } },
{ "type": "Feature", "properties": { "nombre": "Río Bahía Mala", "tipo": "river", "volcan_codigo": "MEL", "volcan_nombre": "Melimoyu", "drena_volcan": true }, "geometry": { "type": "MultiLineString", "coordinates": [ [ [ -72.91341, -43.99026 ], [ -72.91391, -43.98977 ], [ -72.91406, -43.9894 ], [ -72.91411, -43.98891 ], [ -72.91384, -43.98824 ], [ -72.91407, -43.98798 ], [ -72.91719, -43.98625 ], [ -72.91892, -43.98631 ], [ -72.91977, -43.98658 ], [ -72.92022, -43.98646 ], [ -72.92152, -43.98496 ], [ -72.92281, -43.98456 ], [ -72.92338, -43.98387 ], [ -72.92522, -43.98273 ], [ -72.92527, -43.98183 ], [ -72.9248, -43.9811 ], [ -72.92529, -43.98043 ], [ -72.92583, -43.98025 ], [ -72.92833, -43.98005 ], [ -72.92853, -43.97941 ], [ -72.92966, -43.97814 ], [ -72.92965, -43.97783 ], [ -72.92901, -43.97685 ], [ -72.92951, -43.97611 ], [ -72.92978, -43.9748 ], [ -72.93146, -43.97242 ], [ -72.93218, -43.9721 ], [ -72.93288, -43.97211 ] ], [ [ -72.87232, -44.02714 ], [ -72.87144, -44.02389 ], [ -72.87575, -44.02195 ], [ -72.87556, -44.01475 ], [ -72.88054, -44.01167 ], [ -72.88622, -44.01096 ], [ -72.88588, -44.00812 ], [ -72.88895, -44.00772 ], [ -72.89172, -44.00541 ], [ -72.89172, -43.99849 ], [ -72.89513, -43.99537 ], [ -72.90183, -43.99364 ], [ -72.90612, -43.99203 ], [ -72.91341, -43.99026 ] ], [ [ -72.93288, -43.97211 ], [ -72.93449, -43.97234 ], [ -72.93714, -43.97023 ], [ -72.93734, -43.96998 ], [ -72.93756, -43.96882 ], [ -72.93844, -43.96776 ], [ -72.93837, -43.96724 ], [ -72.93808, -43.96673 ], [ -72.93824, -43.96618 ], [ -72.93986, -43.96477 ], [ -72.9413, -43.96459 ], [ -72.94183, -43.96438 ], [ -72.94346, -43.96242 ], [ -72.94501, -43.96109 ], [ -72.946, -43.9598 ], [ -72.94639, -43.95893 ], [ -72.94678, -43.95882 ], [ -72.94895, -43.95889 ], [ -72.94998, -43.95844 ], [ -72.95053, -43.95769 ], [ -72.95137, -43.95749 ], [ -72.95218, -43.95705 ], [ -72.95384, -43.957 ], [ -72.95474, -43.95666 ], [ -72.9561, -43.95648 ], [ -72.95625, -43.95569 ], [ -72.95602, -43.95478 ], [ -72.95637, -43.95384 ], [ -72.95587, -43.9529 ], [ -72.95598, -43.95256 ], [ -72.95713, -43.95139 ], [ -72.9567, -43.95022 ], [ -72.95738, -43.94887 ], [ -72.95844, -43.94814 ], [ -72.9599, -43.94779 ], [ -72.96058, -43.94745 ], [ -72.96141, -43.94749 ], [ -72.96311, -43.94692 ], [ -72.9634, -43.94657 ], [ -72.9633, -43.9454 ], [ -72.96358, -43.94491 ], [ -72.96479, -43.94379 ], [ -72.96584, -43.94321 ], [ -72.96663, -43.94243 ], [ -72.96828, -43.94149 ], [ -72.96921, -43.94127 ], [ -72.97056, -43.94147 ], [ -72.97156, -43.94136 ], [ -72.97352, -43.94279 ], [ -72.97526, -43.94292 ], [ -72.97608, -43.94266 ], [ -72.97653, -43.94226 ], [ -72.97782, -43.94167 ], [ -72.9788, -43.94147 ], [ -72.97945, -43.94073 ], [ -72.97997, -43.94047 ], [ -72.9818, -43.94068 ], [ -72.98256, -43.94043 ], [ -72.98421, -43.94159 ], [ -72.9853, -43.94176 ], [ -72.98713, -43.941 ], [ -72.98844, -43.94068 ], [ -72.9898, -43.93997 ], [ -72.99092, -43.94014 ], [ -72.99173, -43.94055 ], [ -72.99229, -43.94064 ], [ -72.99318, -43.94045 ], [ -72.99518, -43.93939 ], [ -72.99621, -43.93914 ], [ -72.99753, -43.93948 ], [ -73.00011, -43.93923 ], [ -73.00187, -43.93951 ], [ -73.00285, -43.93888 ], [ -73.00389, -43.93771 ], [ -73.00457, -43.93663 ], [ -73.00532, -43.93601 ], [ -73.00586, -43.93608 ], [ -73.00649, -43.93671 ], [ -73.00847, -43.93757 ], [ -73.01027, -43.9368 ], [ -73.01151, -43.93669 ], [ -73.01214, -43.93732 ], [ -73.01234, -43.9381 ], [ -73.0143, -43.93868 ], [ -73.01584, -43.93815 ], [ -73.01714, -43.93807 ], [ -73.01804, -43.93777 ], [ -73.01868, -43.93736 ], [ -73.01932, -43.93654 ], [ -73.02064, -43.93604 ], [ -73.02096, -43.93572 ], [ -73.0216, -43.93446 ], [ -73.02164, -43.93259 ], [ -73.02272, -43.93125 ], [ -73.02548, -43.92993 ], [ -73.0281, -43.92891 ], [ -73.03148, -43.92841 ], [ -73.03344, -43.92728 ], [ -73.03563, -43.92695 ], [ -73.03835, -43.92742 ], [ -73.03979, -43.927 ], [ -73.04263, -43.9268 ], [ -73.04378, -43.92645 ], [ -73.04524, -43.92696 ], [ -73.04772, -43.92841 ], [ -73.04891, -43.92857 ], [ -73.05035, -43.9283 ] ] ] } },
{ "type": "Feature", "properties": { "nombre": "Río Correntoso", "tipo": "river", "volcan_codigo": "MEL", "volcan_nombre": "Melimoyu", "drena_volcan": true }, "geometry": { "type": "LineString", "coordinates": [ [ -72.83833, -44.04082 ], [ -72.83857, -44.0402 ], [ -72.83779, -44.03964 ], [ -72.83809, -44.03842 ], [ -72.83715, -44.0378 ], [ -72.83676, -44.03715 ], [ -72.83619, -44.03664 ], [ -72.83561, -44.03647 ], [ -72.83548, -44.0363 ], [ -72.83554, -44.036 ], [ -72.8348, -44.03498 ], [ -72.83511, -44.03453 ], [ -72.83499, -44.03359 ], [ -72.83552, -44.03334 ], [ -72.83504, -44.03305 ], [ -72.83543, -44.03271 ], [ -72.83506, -44.03157 ], [ -72.83391, -44.03123 ], [ -72.83256, -44.03107 ], [ -72.83179, -44.03075 ], [ -72.83158, -44.03032 ], [ -72.83102, -44.03011 ], [ -72.83016, -44.02911 ], [ -72.82844, -44.02815 ], [ -72.82764, -44.0279 ], [ -72.82751, -44.02746 ], [ -72.8264, -44.02714 ], [ -72.82626, -44.02665 ], [ -72.82592, -44.02637 ], [ -72.82443, -44.026 ], [ -72.82313, -44.02594 ], [ -72.82168, -44.02472 ], [ -72.82086, -44.02482 ], [ -72.8196, -44.02449 ], [ -72.81927, -44.02427 ], [ -72.81881, -44.02428 ], [ -72.81843, -44.02404 ], [ -72.8178, -44.02419 ], [ -72.81709, -44.02382 ], [ -72.81671, -44.0238 ], [ -72.81548, -44.02431 ], [ -72.81487, -44.02438 ], [ -72.81415, -44.02419 ], [ -72.81373, -44.02383 ], [ -72.81301, -44.02373 ], [ -72.81198, -44.0222 ], [ -72.81171, -44.02162 ], [ -72.81159, -44.02049 ], [ -72.81118, -44.02019 ], [ -72.81116, -44.01998 ], [ -72.81187, -44.01854 ], [ -72.81282, -44.01742 ], [ -72.81291, -44.01698 ], [ -72.81252, -44.01678 ], [ -72.81139, -44.01677 ], [ -72.81109, -44.01663 ], [ -72.81089, -44.01623 ], [ -72.81047, -44.01607 ], [ -72.80958, -44.01627 ], [ -72.80879, -44.01624 ], [ -72.80782, -44.01656 ], [ -72.80721, -44.01652 ], [ -72.80507, -44.01587 ], [ -72.80465, -44.0156 ], [ -72.80409, -44.01441 ], [ -72.80315, -44.01386 ], [ -72.80159, -44.01232 ], [ -72.80083, -44.01188 ], [ -72.80012, -44.01095 ], [ -72.79973, -44.01075 ], [ -72.7993, -44.0098 ], [ -72.79966, -44.00857 ], [ -72.79935, -44.00812 ], [ -72.79858, -44.00778 ], [ -72.79791, -44.00702 ], [ -72.79758, -44.00594 ], [ -72.79693, -44.00464 ], [ -72.7956, -44.00357 ], [ -72.79483, -44.00234 ], [ -72.79359, -44.00154 ], [ -72.79388, -44.00053 ], [ -72.79353, -43.99856 ], [ -72.79225, -43.99743 ], [ -72.79251, -43.99637 ], [ -72.79186, -43.99546 ], [ -72.79228, -43.99484 ], [ -72.79265, -43.99373 ], [ -72.79174, -43.99292 ], [ -72.79167, -43.99253 ], [ -72.7923, -43.9914 ], [ -72.79315, -43.99107 ], [ -72.79457, -43.98876 ], [ -72.79355, -43.98762 ], [ -72.79292, -43.98725 ], [ -72.79008, -43.98642 ], [ -72.78953, -43.9861 ], [ -72.78876, -43.98599 ], [ -72.7882, -43.98568 ], [ -72.78769, -43.98511 ], [ -72.78764, -43.9847 ], [ -72.78791, -43.98337 ], [ -72.7872, -43.98247 ], [ -72.78717, -43.98224 ], [ -72.78594, -43.98173 ], [ -72.78519, -43.98101 ], [ -72.78505, -43.98064 ], [ -72.78569, -43.98013 ], [ -72.7852, -43.97975 ], [ -72.78474, -43.97883 ], [ -72.78376, -43.97837 ], [ -72.7833, -43.97798 ], [ -72.78299, -43.97695 ], [ -72.78247, -43.97649 ], [ -72.78263, -43.97601 ], [ -72.78257, -43.97548 ], [ -72.78193, -43.97375 ], [ -72.78204, -43.97305 ], [ -72.7819, -43.97222 ], [ -72.78126, -43.97127 ], [ -72.78107, -43.97034 ], [ -72.78077, -43.96976 ], [ -72.7799, -43.96893 ], [ -72.77909, -43.96874 ], [ -72.77862, -43.96841 ], [ -72.77872, -43.96714 ], [ -72.77847, -43.96681 ], [ -72.77714, -43.96637 ], [ -72.77628, -43.96585 ], [ -72.7749, -43.96572 ], [ -72.77422, -43.96583 ], [ -72.77307, -43.96538 ], [ -72.77113, -43.96509 ], [ -72.7706, -43.96434 ], [ -72.76925, -43.96377 ], [ -72.76882, -43.96341 ], [ -72.76849, -43.96223 ], [ -72.76595, -43.96128 ], [ -72.76584, -43.96017 ], [ -72.76632, -43.9585 ], [ -72.76622, -43.95731 ], [ -72.76603, -43.95682 ], [ -72.76542, -43.95635 ], [ -72.7641, -43.95637 ], [ -72.76301, -43.95667 ], [ -72.76095, -43.9576 ], [ -72.75937, -43.95646 ], [ -72.75773, -43.95584 ], [ -72.75574, -43.95468 ], [ -72.75509, -43.95455 ], [ -72.75295, -43.95463 ] ] } },
{ "type": "Feature", "properties": { "nombre": "Río Dinamarca", "tipo": "river", "volcan_codigo": "MEL", "volcan_nombre": "Melimoyu", "drena_volcan": false }, "geometry": { "type": "MultiLineString", "coordinates": [ [ [ -72.57673, -44.07644 ], [ -72.57656, -44.07389 ], [ -72.57602, -44.07276 ], [ -72.57603, -44.07247 ], [ -72.57647, -44.07205 ], [ -72.57908, -44.07131 ], [ -72.57964, -44.07065 ], [ -72.57988, -44.07002 ], [ -72.58039, -44.06954 ], [ -72.58043, -44.06925 ], [ -72.57991, -44.06871 ], [ -72.58003, -44.0678 ], [ -72.57957, -44.06557 ], [ -72.58067, -44.06428 ], [ -72.58063, -44.06397 ], [ -72.57986, -44.06321 ], [ -72.57984, -44.06287 ], [ -72.58025, -44.06236 ], [ -72.58044, -44.06161 ], [ -72.58142, -44.05998 ], [ -72.58198, -44.05967 ], [ -72.58264, -44.05962 ], [ -72.5831, -44.05923 ], [ -72.58309, -44.05899 ], [ -72.58279, -44.05865 ], [ -72.58289, -44.05836 ], [ -72.58447, -44.05781 ], [ -72.58502, -44.05743 ], [ -72.58538, -44.05664 ], [ -72.58528, -44.05615 ], [ -72.5841, -44.05561 ], [ -72.58403, -44.05535 ], [ -72.58519, -44.05421 ], [ -72.58582, -44.05382 ], [ -72.58597, -44.05357 ], [ -72.58587, -44.05317 ], [ -72.58616, -44.05249 ], [ -72.58752, -44.05167 ], [ -72.58795, -44.05113 ], [ -72.58791, -44.05067 ], [ -72.58727, -44.05031 ], [ -72.58554, -44.05047 ], [ -72.58495, -44.05024 ], [ -72.5847, -44.04945 ], [ -72.58499, -44.04872 ], [ -72.58492, -44.04796 ], [ -72.58352, -44.04624 ], [ -72.58344, -44.04583 ], [ -72.58368, -44.0451 ], [ -72.58361, -44.04443 ], [ -72.58378, -44.04396 ], [ -72.58404, -44.04367 ], [ -72.585, -44.04323 ], [ -72.58492, -44.04256 ], [ -72.58545, -44.04232 ], [ -72.58738, -44.04218 ], [ -72.58765, -44.04199 ], [ -72.58762, -44.04174 ], [ -72.58712, -44.04131 ], [ -72.58502, -44.04008 ], [ -72.58451, -44.0392 ], [ -72.58473, -44.03889 ], [ -72.5869, -44.0387 ], [ -72.5872, -44.03853 ], [ -72.58795, -44.03698 ], [ -72.58808, -44.03606 ], [ -72.58713, -44.03419 ], [ -72.58793, -44.03216 ], [ -72.58838, -44.03156 ], [ -72.5896, -44.03051 ], [ -72.59097, -44.02736 ], [ -72.59164, -44.02511 ], [ -72.59202, -44.02458 ], [ -72.59273, -44.02423 ], [ -72.59358, -44.02434 ], [ -72.5947, -44.0238 ], [ -72.59477, -44.0233 ], [ -72.59427, -44.02232 ], [ -72.59417, -44.02168 ], [ -72.5954, -44.02012 ], [ -72.59506, -44.01857 ], [ -72.59513, -44.01821 ], [ -72.59562, -44.01782 ], [ -72.59642, -44.01759 ], [ -72.59851, -44.01704 ], [ -72.60073, -44.01669 ], [ -72.60127, -44.01682 ], [ -72.60151, -44.01774 ], [ -72.60184, -44.01805 ], [ -72.60238, -44.01806 ], [ -72.60309, -44.01774 ], [ -72.60476, -44.01749 ], [ -72.60624, -44.01689 ], [ -72.60639, -44.01656 ], [ -72.60634, -44.01556 ], [ -72.60651, -44.01521 ], [ -72.607, -44.01489 ], [ -72.60819, -44.01453 ], [ -72.60889, -44.01467 ], [ -72.60934, -44.01513 ], [ -72.6125, -44.01617 ], [ -72.61299, -44.01595 ], [ -72.61355, -44.01523 ], [ -72.61562, -44.01405 ] ], [ [ -72.64023, -44.15147 ], [ -72.63943, -44.15034 ] ], [ [ -72.63943, -44.15034 ], [ -72.63845, -44.14974 ], [ -72.6375, -44.14869 ], [ -72.63731, -44.14796 ], [ -72.63673, -44.14703 ], [ -72.63677, -44.14574 ], [ -72.63652, -44.14508 ], [ -72.63386, -44.14318 ], [ -72.63188, -44.14087 ], [ -72.63102, -44.1395 ], [ -72.63001, -44.13881 ], [ -72.62929, -44.1378 ], [ -72.62844, -44.13712 ], [ -72.62808, -44.13585 ], [ -72.62658, -44.1355 ], [ -72.62512, -44.13548 ], [ -72.62388, -44.13562 ], [ -72.62321, -44.13548 ], [ -72.62113, -44.13576 ], [ -72.61987, -44.1356 ], [ -72.61798, -44.13475 ], [ -72.61673, -44.13493 ], [ -72.61656, -44.13457 ], [ -72.61579, -44.13443 ], [ -72.61416, -44.13454 ], [ -72.6133, -44.13489 ], [ -72.61249, -44.13479 ], [ -72.61134, -44.13507 ], [ -72.61022, -44.13465 ], [ -72.60864, -44.13477 ], [ -72.60847, -44.13446 ], [ -72.60863, -44.13355 ], [ -72.60671, -44.13228 ], [ -72.60696, -44.13094 ], [ -72.60678, -44.13059 ], [ -72.60551, -44.13001 ], [ -72.60539, -44.12979 ], [ -72.60553, -44.12949 ], [ -72.60557, -44.12814 ], [ -72.60528, -44.12733 ], [ -72.60532, -44.12657 ], [ -72.60516, -44.1263 ], [ -72.60438, -44.12591 ], [ -72.60462, -44.12493 ], [ -72.60356, -44.12439 ], [ -72.60355, -44.12381 ], [ -72.60381, -44.12312 ], [ -72.60373, -44.12287 ], [ -72.60246, -44.12189 ], [ -72.60144, -44.12193 ], [ -72.60094, -44.12163 ], [ -72.601, -44.12107 ], [ -72.60224, -44.11963 ], [ -72.60196, -44.119 ], [ -72.60005, -44.11866 ], [ -72.59967, -44.11833 ], [ -72.59958, -44.11778 ], [ -72.59824, -44.11671 ], [ -72.59674, -44.11625 ], [ -72.59691, -44.11588 ], [ -72.59682, -44.11544 ], [ -72.59615, -44.11512 ], [ -72.59563, -44.11438 ], [ -72.59494, -44.11417 ], [ -72.59419, -44.11329 ], [ -72.59335, -44.11318 ], [ -72.59209, -44.11227 ], [ -72.59107, -44.10982 ], [ -72.59042, -44.10665 ], [ -72.58884, -44.10431 ], [ -72.58786, -44.10402 ], [ -72.58721, -44.10354 ], [ -72.58708, -44.10219 ], [ -72.58638, -44.10101 ], [ -72.58669, -44.1007 ], [ -72.58745, -44.10082 ], [ -72.58794, -44.10071 ], [ -72.58771, -44.09907 ], [ -72.58766, -44.0989 ], [ -72.58643, -44.09805 ], [ -72.58484, -44.09444 ], [ -72.58424, -44.09433 ], [ -72.58343, -44.09456 ], [ -72.58309, -44.09426 ], [ -72.58304, -44.094 ], [ -72.58326, -44.09341 ], [ -72.58268, -44.0925 ], [ -72.58288, -44.09133 ], [ -72.58271, -44.09069 ], [ -72.58278, -44.09003 ], [ -72.582, -44.08763 ], [ -72.58216, -44.08695 ], [ -72.5817, -44.08568 ], [ -72.58217, -44.08504 ], [ -72.58216, -44.08442 ], [ -72.58187, -44.08403 ], [ -72.58155, -44.0829 ], [ -72.57973, -44.08233 ], [ -72.57846, -44.0815 ], [ -72.57827, -44.0806 ], [ -72.57839, -44.07975 ], [ -72.57798, -44.07922 ], [ -72.57796, -44.07852 ], [ -72.57711, -44.07761 ], [ -72.57673, -44.07644 ] ] ] } },
{ "type": "Feature", "properties": { "nombre": "Río Melimoyu", "tipo": "river", "volcan_codigo": "MEL", "volcan_nombre": "Melimoyu", "drena_volcan": true }, "geometry": { "type": "MultiLineString", "coordinates": [ [ [ -72.83177, -44.14871 ], [ -72.83302, -44.1485 ], [ -72.83564, -44.14945 ], [ -72.8363, -44.14937 ], [ -72.83742, -44.14894 ], [ -72.83907, -44.14986 ], [ -72.8409, -44.15031 ], [ -72.84507, -44.15032 ], [ -72.84566, -44.15053 ], [ -72.8468, -44.15162 ], [ -72.84767, -44.15171 ], [ -72.8518, -44.15069 ], [ -72.85308, -44.15022 ], [ -72.85427, -44.15008 ], [ -72.85555, -44.14918 ], [ -72.85637, -44.14886 ], [ -72.85817, -44.14879 ], [ -72.8592, -44.14908 ], [ -72.86076, -44.14882 ], [ -72.86308, -44.14894 ], [ -72.86388, -44.14865 ], [ -72.86485, -44.1478 ], [ -72.86622, -44.14702 ], [ -72.87127, -44.14689 ], [ -72.87237, -44.14722 ], [ -72.8729, -44.14798 ], [ -72.87305, -44.14886 ], [ -72.87295, -44.14947 ], [ -72.87272, -44.14982 ], [ -72.87134, -44.15093 ], [ -72.87422, -44.15288 ], [ -72.87558, -44.15328 ], [ -72.88077, -44.15318 ], [ -72.88421, -44.15334 ], [ -72.88595, -44.15302 ], [ -72.88755, -44.15244 ], [ -72.89096, -44.15194 ], [ -72.89315, -44.15057 ], [ -72.89489, -44.14866 ], [ -72.89612, -44.14671 ], [ -72.89766, -44.14234 ], [ -72.8984, -44.14135 ], [ -72.89915, -44.14075 ], [ -72.90017, -44.14029 ], [ -72.90113, -44.14013 ], [ -72.90173, -44.14022 ], [ -72.90284, -44.1407 ], [ -72.90468, -44.14081 ], [ -72.90611, -44.14005 ], [ -72.90772, -44.13842 ], [ -72.90855, -44.13846 ], [ -72.91072, -44.13899 ], [ -72.91191, -44.13899 ], [ -72.91274, -44.13876 ], [ -72.91315, -44.13849 ], [ -72.91356, -44.13785 ], [ -72.91368, -44.13708 ], [ -72.91347, -44.13541 ], [ -72.91375, -44.13498 ], [ -72.91421, -44.13457 ], [ -72.91571, -44.1339 ], [ -72.91989, -44.13026 ], [ -72.92102, -44.12945 ], [ -72.92181, -44.12912 ], [ -72.92322, -44.12885 ], [ -72.92611, -44.12867 ], [ -72.92787, -44.12865 ], [ -72.93011, -44.12904 ], [ -72.93428, -44.12875 ], [ -72.93601, -44.12813 ], [ -72.93786, -44.12717 ], [ -72.94424, -44.12543 ], [ -72.94559, -44.12527 ], [ -72.94819, -44.12628 ], [ -72.95143, -44.12601 ], [ -72.95437, -44.12665 ], [ -72.95729, -44.12554 ], [ -72.96261, -44.12752 ], [ -72.96465, -44.12736 ], [ -72.96605, -44.12616 ], [ -72.96654, -44.12465 ], [ -72.96743, -44.12428 ], [ -72.96791, -44.1238 ], [ -72.96867, -44.12213 ], [ -72.96998, -44.1213 ], [ -72.97099, -44.11992 ], [ -72.97125, -44.11916 ], [ -72.9729, -44.11815 ], [ -72.97403, -44.11789 ], [ -72.97736, -44.1181 ], [ -72.98, -44.11735 ], [ -72.98062, -44.11736 ], [ -72.9815, -44.1189 ], [ -72.98768, -44.11865 ], [ -72.99147, -44.11892 ], [ -72.99264, -44.1194 ], [ -72.99388, -44.1202 ], [ -72.99469, -44.12105 ], [ -72.99623, -44.12215 ], [ -72.9978, -44.12275 ], [ -72.99941, -44.1231 ], [ -73.00016, -44.12348 ], [ -73.0004, -44.12372 ], [ -73.0008, -44.12503 ], [ -73.00131, -44.12562 ], [ -73.00205, -44.12581 ], [ -73.00306, -44.12573 ], [ -73.00457, -44.12547 ], [ -73.00765, -44.12457 ], [ -73.00979, -44.12471 ], [ -73.01387, -44.12585 ], [ -73.01677, -44.1269 ], [ -73.01692, -44.12704 ], [ -73.01686, -44.12722 ], [ -73.01594, -44.12771 ], [ -73.01568, -44.12807 ], [ -73.01582, -44.12868 ], [ -73.01609, -44.12898 ], [ -73.01877, -44.13005 ], [ -73.02098, -44.13048 ], [ -73.02184, -44.13032 ], [ -73.02212, -44.13009 ], [ -73.02228, -44.12943 ], [ -73.02298, -44.12811 ], [ -73.02389, -44.12781 ], [ -73.02719, -44.12828 ], [ -73.02805, -44.12821 ], [ -73.02975, -44.12837 ], [ -73.0345, -44.12749 ], [ -73.03483, -44.1272 ], [ -73.03548, -44.12586 ], [ -73.03605, -44.12515 ], [ -73.03653, -44.12372 ], [ -73.03733, -44.12272 ], [ -73.04026, -44.12046 ], [ -73.04245, -44.11923 ], [ -73.0435, -44.11918 ], [ -73.04591, -44.12051 ], [ -73.04639, -44.12064 ], [ -73.04726, -44.12074 ], [ -73.04836, -44.12062 ], [ -73.05163, -44.11946 ], [ -73.05505, -44.11941 ], [ -73.05676, -44.11874 ], [ -73.05711, -44.11853 ], [ -73.05747, -44.11782 ], [ -73.05742, -44.1175 ], [ -73.05679, -44.11668 ], [ -73.05679, -44.11606 ], [ -73.05728, -44.11558 ], [ -73.05786, -44.11541 ], [ -73.06175, -44.11574 ], [ -73.06392, -44.11653 ], [ -73.06622, -44.11672 ], [ -73.06744, -44.11627 ], [ -73.06822, -44.11562 ], [ -73.06846, -44.11504 ] ], [ [ -73.06846, -44.11504 ], [ -73.07076, -44.11445 ], [ -73.07274, -44.11168 ], [ -73.0736, -44.11124 ], [ -73.0749, -44.11097 ], [ -73.07643, -44.11094 ], [ -73.07759, -44.11074 ], [ -73.07982, -44.10948 ], [ -73.07982, -44.10885 ], [ -73.07939, -44.10828 ], [ -73.07849, -44.10791 ], [ -73.07711, -44.10775 ], [ -73.07649, -44.10723 ], [ -73.07641, -44.10631 ], [ -73.07814, -44.10315 ], [ -73.08143, -44.10201 ], [ -73.08222, -44.10164 ], [ -73.08284, -44.10101 ], [ -73.08319, -44.10032 ], [ -73.0831, -44.09936 ], [ -73.08332, -44.09848 ], [ -73.08407, -44.09721 ], [ -73.08508, -44.09626 ], [ -73.0852, -44.0955 ], [ -73.08493, -44.09497 ], [ -73.0843, -44.09472 ], [ -73.08166, -44.09484 ], [ -73.081, -44.09472 ], [ -73.08059, -44.0943 ], [ -73.08048, -44.09353 ], [ -73.08089, -44.09275 ], [ -73.0815, -44.09205 ], [ -73.0845, -44.09082 ], [ -73.08654, -44.09027 ], [ -73.08799, -44.09007 ], [ -73.08894, -44.09011 ], [ -73.09096, -44.09079 ], [ -73.09617, -44.09098 ], [ -73.09815, -44.0908 ], [ -73.10176, -44.0901 ] ], [ [ -72.73332, -44.05747 ], [ -72.73515, -44.05691 ], [ -72.73551, -44.05643 ], [ -72.73749, -44.05526 ], [ -72.73867, -44.05432 ], [ -72.73879, -44.05397 ], [ -72.73912, -44.05371 ], [ -72.74194, -44.05224 ], [ -72.74385, -44.05155 ], [ -72.74522, -44.0508 ], [ -72.74728, -44.05034 ], [ -72.74846, -44.04969 ], [ -72.75071, -44.04899 ], [ -72.75166, -44.04847 ], [ -72.75455, -44.04803 ], [ -72.75537, -44.04766 ], [ -72.75576, -44.0473 ], [ -72.75607, -44.04695 ], [ -72.75617, -44.0464 ], [ -72.75648, -44.04599 ], [ -72.75753, -44.046 ], [ -72.75784, -44.04541 ], [ -72.75774, -44.0451 ], [ -72.75729, -44.04492 ], [ -72.75604, -44.04512 ], [ -72.75556, -44.04447 ], [ -72.75452, -44.04406 ], [ -72.75452, -44.04359 ], [ -72.75428, -44.04297 ], [ -72.75359, -44.04201 ], [ -72.75374, -44.0415 ], [ -72.75429, -44.04108 ], [ -72.75426, -44.04038 ], [ -72.75504, -44.03966 ], [ -72.75537, -44.0389 ], [ -72.75399, -44.03755 ], [ -72.75373, -44.03697 ], [ -72.75387, -44.03665 ], [ -72.75633, -44.03588 ], [ -72.75689, -44.0355 ], [ -72.75764, -44.03535 ], [ -72.75912, -44.03548 ], [ -72.76018, -44.03468 ], [ -72.76024, -44.03437 ], [ -72.75961, -44.03381 ], [ -72.75984, -44.03288 ], [ -72.75921, -44.03124 ], [ -72.75921, -44.03084 ], [ -72.75962, -44.03036 ], [ -72.75957, -44.02994 ], [ -72.7585, -44.02852 ], [ -72.75862, -44.02767 ], [ -72.76013, -44.02762 ], [ -72.76099, -44.02694 ], [ -72.76153, -44.02595 ], [ -72.76135, -44.0257 ], [ -72.76149, -44.02494 ], [ -72.76182, -44.02455 ], [ -72.76292, -44.02434 ], [ -72.76301, -44.02323 ], [ -72.76327, -44.02271 ], [ -72.76366, -44.0225 ], [ -72.7648, -44.02267 ], [ -72.7653, -44.02242 ], [ -72.76591, -44.02241 ], [ -72.7669, -44.02168 ], [ -72.7683, -44.0203 ], [ -72.7692, -44.01999 ], [ -72.76964, -44.01872 ], [ -72.77071, -44.01755 ], [ -72.77091, -44.01679 ], [ -72.77177, -44.01605 ], [ -72.77238, -44.01516 ], [ -72.77235, -44.0136 ], [ -72.77129, -44.01196 ], [ -72.77066, -44.01169 ], [ -72.7701, -44.01214 ], [ -72.76954, -44.01226 ], [ -72.76969, -44.01106 ], [ -72.76939, -44.01017 ], [ -72.76976, -44.00992 ], [ -72.77211, -44.00918 ], [ -72.77324, -44.00801 ], [ -72.77339, -44.0076 ], [ -72.77176, -44.00631 ], [ -72.77247, -44.00546 ], [ -72.7725, -44.00462 ], [ -72.77207, -44.00325 ], [ -72.77185, -44.00178 ], [ -72.77148, -44.00107 ], [ -72.77146, -44.00046 ], [ -72.77185, -43.99956 ], [ -72.77187, -43.99911 ], [ -72.77022, -43.99792 ], [ -72.77002, -43.99761 ], [ -72.77011, -43.99697 ], [ -72.77049, -43.9966 ], [ -72.77172, -43.99458 ], [ -72.77176, -43.99359 ], [ -72.77126, -43.99229 ], [ -72.76959, -43.99173 ], [ -72.7698, -43.99148 ], [ -72.76995, -43.99071 ], [ -72.76995, -43.98921 ], [ -72.76949, -43.98854 ], [ -72.76952, -43.98768 ], [ -72.76933, -43.98731 ], [ -72.7693, -43.98673 ], [ -72.76881, -43.98611 ], [ -72.76864, -43.9856 ], [ -72.76873, -43.98541 ], [ -72.76932, -43.98513 ], [ -72.76894, -43.98387 ], [ -72.76956, -43.98359 ], [ -72.76966, -43.98337 ], [ -72.76943, -43.98271 ], [ -72.76954, -43.98257 ], [ -72.76947, -43.98153 ], [ -72.76978, -43.98056 ], [ -72.7697, -43.98027 ], [ -72.77004, -43.9797 ], [ -72.77054, -43.97958 ], [ -72.77161, -43.98011 ], [ -72.77221, -43.97981 ], [ -72.77331, -43.97969 ], [ -72.77411, -43.97905 ], [ -72.77597, -43.97931 ], [ -72.77666, -43.97922 ], [ -72.77806, -43.97848 ], [ -72.77805, -43.97809 ], [ -72.7791, -43.9762 ], [ -72.77979, -43.97549 ], [ -72.77931, -43.97468 ], [ -72.7784, -43.97446 ], [ -72.77761, -43.97402 ], [ -72.77743, -43.97374 ], [ -72.77698, -43.97085 ], [ -72.77659, -43.96995 ], [ -72.77482, -43.9685 ], [ -72.77449, -43.96799 ], [ -72.77445, -43.96756 ], [ -72.77501, -43.96653 ], [ -72.77441, -43.96582 ] ], [ [ -72.77645, -44.16405 ], [ -72.77759, -44.1637 ], [ -72.77828, -44.16322 ], [ -72.77866, -44.16316 ], [ -72.7796, -44.16336 ], [ -72.77973, -44.16385 ], [ -72.78045, -44.16405 ], [ -72.78157, -44.16389 ], [ -72.78492, -44.16292 ], [ -72.78553, -44.16312 ], [ -72.78636, -44.16373 ], [ -72.78852, -44.16399 ], [ -72.78948, -44.16443 ], [ -72.79102, -44.16547 ], [ -72.79343, -44.16604 ], [ -72.79454, -44.16607 ], [ -72.79506, -44.16523 ], [ -72.79553, -44.16494 ], [ -72.79653, -44.16502 ], [ -72.79796, -44.16618 ], [ -72.79886, -44.16661 ], [ -72.80216, -44.16768 ], [ -72.80293, -44.16759 ], [ -72.80382, -44.16712 ], [ -72.80503, -44.16675 ], [ -72.80728, -44.16665 ], [ -72.8082, -44.16628 ], [ -72.80874, -44.16571 ], [ -72.80871, -44.16513 ], [ -72.80806, -44.16354 ], [ -72.80835, -44.1619 ], [ -72.80866, -44.16168 ], [ -72.80937, -44.16167 ], [ -72.81307, -44.16292 ], [ -72.81397, -44.16307 ], [ -72.8145, -44.163 ], [ -72.81514, -44.16267 ], [ -72.81634, -44.16151 ], [ -72.81724, -44.16113 ], [ -72.81812, -44.16126 ], [ -72.82026, -44.16201 ], [ -72.82178, -44.16204 ], [ -72.82325, -44.16192 ], [ -72.82375, -44.16167 ], [ -72.82426, -44.16116 ], [ -72.82588, -44.16135 ], [ -72.82652, -44.16108 ], [ -72.82876, -44.15848 ], [ -72.82916, -44.15722 ], [ -72.82917, -44.15643 ], [ -72.82822, -44.15525 ], [ -72.82799, -44.1541 ], [ -72.82826, -44.15358 ], [ -72.82891, -44.15301 ], [ -72.83181, -44.15096 ], [ -72.83188, -44.15012 ], [ -72.83159, -44.14936 ], [ -72.83177, -44.14871 ] ] ] } },
{ "type": "Feature", "properties": { "nombre": "Río Palena", "tipo": "river", "volcan_codigo": "MEL", "volcan_nombre": "Melimoyu", "drena_volcan": true }, "geometry": { "type": "MultiLineString", "coordinates": [ [ [ -71.95695, -43.64605 ], [ -71.95848, -43.64611 ], [ -71.95942, -43.6458 ], [ -71.96021, -43.64503 ], [ -71.96134, -43.64431 ], [ -71.96246, -43.64417 ], [ -71.96448, -43.64406 ], [ -71.96693, -43.64429 ], [ -71.96978, -43.64464 ], [ -71.97254, -43.64536 ], [ -71.97547, -43.64561 ], [ -71.97854, -43.64558 ], [ -71.98241, -43.64492 ], [ -71.98834, -43.64359 ], [ -71.99421, -43.64276 ], [ -71.99719, -43.64279 ], [ -71.99915, -43.64294 ], [ -72.00188, -43.64349 ], [ -72.00543, -43.64452 ], [ -72.01035, -43.64662 ], [ -72.0135, -43.64827 ], [ -72.01484, -43.64851 ], [ -72.01804, -43.6477 ], [ -72.01937, -43.64784 ], [ -72.02157, -43.64887 ], [ -72.02379, -43.64898 ], [ -72.02603, -43.6485 ], [ -72.02801, -43.64752 ], [ -72.0309, -43.64636 ], [ -72.03306, -43.64519 ], [ -72.03511, -43.64442 ], [ -72.03799, -43.64444 ], [ -72.04094, -43.64498 ], [ -72.04303, -43.6458 ], [ -72.04655, -43.64885 ], [ -72.0491, -43.64975 ], [ -72.05269, -43.6504 ], [ -72.05686, -43.65068 ], [ -72.05926, -43.65126 ], [ -72.0611, -43.65291 ], [ -72.06322, -43.65535 ], [ -72.06418, -43.65589 ], [ -72.06559, -43.6559 ], [ -72.06689, -43.65533 ], [ -72.06998, -43.65458 ], [ -72.07375, -43.65545 ], [ -72.07572, -43.65716 ], [ -72.07586, -43.65884 ], [ -72.07519, -43.6603 ], [ -72.07522, -43.66127 ], [ -72.07552, -43.66235 ], [ -72.07728, -43.66375 ], [ -72.07963, -43.66532 ], [ -72.08107, -43.66598 ], [ -72.08272, -43.66612 ], [ -72.08473, -43.66676 ], [ -72.08931, -43.66906 ], [ -72.09173, -43.6698 ], [ -72.09344, -43.66997 ], [ -72.09551, -43.6692 ], [ -72.09834, -43.66752 ], [ -72.09956, -43.66698 ], [ -72.10098, -43.66696 ], [ -72.10173, -43.6672 ], [ -72.10358, -43.66974 ], [ -72.10406, -43.67121 ], [ -72.10315, -43.67503 ], [ -72.10331, -43.67622 ], [ -72.10378, -43.67727 ], [ -72.10409, -43.67972 ], [ -72.10378, -43.68042 ], [ -72.10319, -43.68083 ], [ -72.10201, -43.68137 ], [ -72.09962, -43.68199 ], [ -72.0992, -43.68239 ], [ -72.09942, -43.68294 ], [ -72.10063, -43.68359 ], [ -72.10554, -43.68737 ], [ -72.10905, -43.6905 ], [ -72.11133, -43.6917 ], [ -72.11378, -43.69175 ], [ -72.11708, -43.69116 ], [ -72.12096, -43.69018 ], [ -72.12304, -43.68946 ], [ -72.12526, -43.68932 ], [ -72.12795, -43.69033 ], [ -72.13005, -43.69058 ], [ -72.13521, -43.69059 ], [ -72.13714, -43.69076 ], [ -72.13864, -43.69158 ], [ -72.14096, -43.69347 ], [ -72.14237, -43.6958 ], [ -72.14654, -43.69911 ], [ -72.15199, -43.7012 ], [ -72.15297, -43.70215 ], [ -72.15389, -43.70508 ], [ -72.15452, -43.70602 ], [ -72.15564, -43.70685 ], [ -72.1602, -43.70864 ], [ -72.16176, -43.70944 ], [ -72.16346, -43.71108 ], [ -72.16555, -43.71225 ], [ -72.1675, -43.71228 ], [ -72.16923, -43.71174 ], [ -72.17028, -43.71075 ], [ -72.17085, -43.70949 ], [ -72.17093, -43.70837 ], [ -72.17115, -43.70766 ], [ -72.17337, -43.7041 ], [ -72.17445, -43.70295 ], [ -72.17574, -43.70231 ], [ -72.17762, -43.70209 ], [ -72.17985, -43.70261 ], [ -72.1832, -43.70448 ], [ -72.18722, -43.70499 ], [ -72.18945, -43.70598 ], [ -72.19036, -43.70967 ], [ -72.18951, -43.712 ], [ -72.18964, -43.71263 ], [ -72.19028, -43.71314 ], [ -72.19336, -43.71473 ], [ -72.19379, -43.71532 ], [ -72.19365, -43.71877 ], [ -72.19381, -43.72028 ], [ -72.19445, -43.72166 ], [ -72.19617, -43.72343 ], [ -72.19751, -43.72439 ], [ -72.19972, -43.72574 ], [ -72.20257, -43.7271 ], [ -72.20389, -43.72813 ], [ -72.20455, -43.72907 ], [ -72.20491, -43.73105 ], [ -72.2058, -43.73234 ], [ -72.20724, -43.73277 ], [ -72.21192, -43.73318 ], [ -72.21572, -43.73328 ], [ -72.22558, -43.73284 ], [ -72.22854, -43.7331 ], [ -72.23133, -43.73372 ], [ -72.23403, -43.73476 ], [ -72.23719, -43.73663 ], [ -72.23955, -43.73877 ], [ -72.24023, -43.7392 ], [ -72.24118, -43.73907 ], [ -72.24378, -43.73778 ], [ -72.24509, -43.7373 ], [ -72.24727, -43.73675 ], [ -72.25073, -43.73654 ], [ -72.25262, -43.73666 ], [ -72.25421, -43.73696 ], [ -72.25618, -43.73761 ], [ -72.25675, -43.73794 ], [ -72.25727, -43.73865 ], [ -72.25728, -43.73938 ], [ -72.25643, -43.74143 ], [ -72.25638, -43.74295 ], [ -72.25661, -43.74428 ], [ -72.25747, -43.7449 ], [ -72.25908, -43.74542 ], [ -72.26067, -43.74537 ], [ -72.26246, -43.74503 ], [ -72.2642, -43.74447 ], [ -72.26492, -43.74378 ], [ -72.26554, -43.74346 ], [ -72.26756, -43.74332 ], [ -72.26989, -43.74347 ], [ -72.27099, -43.74406 ], [ -72.27176, -43.74484 ], [ -72.27169, -43.74694 ], [ -72.27253, -43.74855 ], [ -72.27475, -43.74936 ], [ -72.27683, -43.74952 ], [ -72.27804, -43.74865 ], [ -72.27978, -43.74864 ], [ -72.28408, -43.75007 ], [ -72.28575, -43.75002 ], [ -72.28663, -43.74849 ], [ -72.28712, -43.74669 ], [ -72.28632, -43.74434 ], [ -72.2844, -43.74034 ], [ -72.28357, -43.73908 ], [ -72.2836, -43.73813 ], [ -72.28462, -43.73617 ], [ -72.2852, -43.7333 ], [ -72.28487, -43.73022 ], [ -72.28349, -43.72596 ], [ -72.28325, -43.72382 ], [ -72.28383, -43.72054 ], [ -72.28464, -43.71937 ], [ -72.28711, -43.71692 ], [ -72.28945, -43.71396 ], [ -72.29076, -43.71066 ], [ -72.29207, -43.70642 ], [ -72.29256, -43.70541 ], [ -72.29263, -43.70462 ], [ -72.29245, -43.70351 ], [ -72.29218, -43.70327 ], [ -72.29172, -43.7009 ], [ -72.292, -43.7002 ], [ -72.29589, -43.69791 ], [ -72.30037, -43.69226 ], [ -72.305, -43.68901 ], [ -72.30728, -43.68781 ], [ -72.30956, -43.68709 ], [ -72.31133, -43.68677 ], [ -72.31289, -43.68707 ], [ -72.31926, -43.68928 ], [ -72.32044, -43.68928 ], [ -72.32109, -43.68911 ], [ -72.32184, -43.68855 ], [ -72.3223, -43.688 ], [ -72.32353, -43.6856 ], [ -72.32543, -43.68365 ], [ -72.32665, -43.68299 ], [ -72.32802, -43.68263 ], [ -72.32957, -43.68274 ], [ -72.33004, -43.68301 ], [ -72.33033, -43.68329 ], [ -72.3307, -43.68441 ], [ -72.33077, -43.68502 ], [ -72.33061, -43.68596 ], [ -72.33004, -43.68672 ], [ -72.32672, -43.68919 ], [ -72.32636, -43.68981 ], [ -72.32638, -43.69037 ], [ -72.32647, -43.69088 ], [ -72.32737, -43.69268 ], [ -72.32895, -43.69452 ], [ -72.32993, -43.69609 ], [ -72.33113, -43.69883 ], [ -72.33159, -43.70047 ], [ -72.33175, -43.70216 ], [ -72.33247, -43.70572 ], [ -72.3324, -43.70738 ], [ -72.33202, -43.70907 ], [ -72.33197, -43.71004 ], [ -72.332, -43.71094 ], [ -72.33251, -43.71236 ], [ -72.33278, -43.71375 ], [ -72.33274, -43.71505 ], [ -72.33232, -43.71775 ], [ -72.33246, -43.71927 ], [ -72.33295, -43.72013 ], [ -72.33406, -43.72106 ], [ -72.33546, -43.72171 ], [ -72.33833, -43.72259 ], [ -72.33901, -43.72303 ], [ -72.3391, -43.72362 ], [ -72.33833, -43.7246 ], [ -72.33918, -43.72634 ], [ -72.33916, -43.72786 ], [ -72.33955, -43.72892 ], [ -72.34016, -43.72945 ], [ -72.34149, -43.73005 ], [ -72.34525, -43.73256 ], [ -72.34568, -43.73323 ], [ -72.34635, -43.73528 ], [ -72.34654, -43.73889 ], [ -72.34706, -43.7414 ], [ -72.34769, -43.74273 ], [ -72.3501, -43.74527 ], [ -72.35113, -43.74702 ], [ -72.35103, -43.74768 ], [ -72.35003, -43.74915 ], [ -72.34982, -43.74971 ], [ -72.35023, -43.75168 ], [ -72.35118, -43.75393 ], [ -72.35213, -43.75556 ], [ -72.35531, -43.75943 ], [ -72.35585, -43.76038 ], [ -72.35605, -43.76107 ], [ -72.35589, -43.76252 ], [ -72.35524, -43.76497 ], [ -72.35568, -43.76745 ], [ -72.35634, -43.76922 ], [ -72.35619, -43.77084 ], [ -72.3567, -43.77203 ], [ -72.35669, -43.77281 ], [ -72.35555, -43.77627 ], [ -72.35514, -43.77811 ], [ -72.35397, -43.78141 ], [ -72.35292, -43.78257 ], [ -72.3504, -43.78471 ], [ -72.35008, -43.78574 ], [ -72.35028, -43.7869 ], [ -72.35089, -43.78801 ], [ -72.3518, -43.78889 ], [ -72.35334, -43.78975 ], [ -72.35411, -43.79046 ], [ -72.35499, -43.79294 ], [ -72.35609, -43.79443 ], [ -72.35644, -43.79586 ], [ -72.35664, -43.79967 ], [ -72.35644, -43.80142 ], [ -72.35526, -43.80451 ], [ -72.35308, -43.80815 ], [ -72.35301, -43.80898 ], [ -72.35336, -43.80976 ], [ -72.35531, -43.81191 ], [ -72.35745, -43.81551 ], [ -72.35892, -43.81739 ], [ -72.36145, -43.81962 ], [ -72.36362, -43.82097 ], [ -72.3643, -43.82156 ], [ -72.36474, -43.82235 ], [ -72.36459, -43.82313 ], [ -72.36421, -43.82384 ], [ -72.36291, -43.82533 ], [ -72.36193, -43.82719 ], [ -72.36213, -43.83125 ], [ -72.36247, -43.83202 ], [ -72.36348, -43.83315 ], [ -72.36333, -43.83391 ], [ -72.36126, -43.83526 ], [ -72.35735, -43.8373 ], [ -72.35668, -43.83808 ], [ -72.35663, -43.83877 ], [ -72.35741, -43.83994 ], [ -72.35741, -43.84169 ], [ -72.35954, -43.84428 ], [ -72.36074, -43.84536 ], [ -72.36144, -43.84583 ], [ -72.36334, -43.84662 ], [ -72.37024, -43.84818 ], [ -72.37088, -43.84842 ], [ -72.37161, -43.84902 ], [ -72.37219, -43.85022 ], [ -72.37402, -43.85567 ], [ -72.37439, -43.85891 ], [ -72.37373, -43.8635 ], [ -72.37348, -43.86464 ], [ -72.37205, -43.86774 ], [ -72.37192, -43.86852 ], [ -72.37231, -43.86966 ], [ -72.37586, -43.8775 ], [ -72.37816, -43.88135 ], [ -72.37877, -43.88379 ], [ -72.3789, -43.88655 ], [ -72.37864, -43.88872 ], [ -72.37794, -43.89083 ], [ -72.3766, -43.8929 ], [ -72.37501, -43.89464 ], [ -72.37446, -43.89546 ], [ -72.37435, -43.89733 ], [ -72.3747, -43.9002 ], [ -72.37499, -43.90132 ], [ -72.37518, -43.90174 ], [ -72.37566, -43.9022 ], [ -72.37623, -43.90239 ], [ -72.37756, -43.90176 ], [ -72.38116, -43.90181 ], [ -72.38467, -43.90242 ], [ -72.38737, -43.9033 ], [ -72.38769, -43.9039 ], [ -72.38761, -43.90475 ], [ -72.38681, -43.90599 ], [ -72.38457, -43.9086 ], [ -72.38418, -43.90927 ], [ -72.38387, -43.91057 ], [ -72.38391, -43.91147 ], [ -72.3844, -43.91214 ], [ -72.38569, -43.91309 ], [ -72.39017, -43.91542 ], [ -72.39587, -43.92001 ], [ -72.39714, -43.92137 ], [ -72.39848, -43.92351 ], [ -72.39886, -43.9245 ], [ -72.39913, -43.92598 ], [ -72.39895, -43.9276 ], [ -72.39804, -43.92988 ], [ -72.39809, -43.93111 ], [ -72.39843, -43.93167 ], [ -72.39975, -43.93252 ], [ -72.40176, -43.93286 ], [ -72.40295, -43.93256 ], [ -72.40456, -43.93161 ], [ -72.40677, -43.931 ], [ -72.40901, -43.93199 ], [ -72.41059, -43.93304 ], [ -72.41141, -43.93406 ], [ -72.41226, -43.93601 ], [ -72.41232, -43.93678 ], [ -72.41145, -43.9382 ], [ -72.40849, -43.94009 ], [ -72.40656, -43.94052 ], [ -72.4039, -43.94025 ], [ -72.39974, -43.93908 ], [ -72.39842, -43.93887 ], [ -72.39594, -43.93878 ], [ -72.39428, -43.939 ], [ -72.3927, -43.93956 ], [ -72.39166, -43.94023 ], [ -72.39112, -43.94092 ], [ -72.39091, -43.94165 ], [ -72.3911, -43.94214 ], [ -72.39384, -43.94445 ], [ -72.39532, -43.94747 ], [ -72.39755, -43.94982 ], [ -72.39859, -43.95125 ], [ -72.39918, -43.95316 ], [ -72.39912, -43.95705 ], [ -72.39949, -43.9582 ], [ -72.39982, -43.9587 ], [ -72.40074, -43.95962 ], [ -72.40234, -43.96055 ], [ -72.40453, -43.96113 ], [ -72.40823, -43.9617 ], [ -72.41035, -43.96169 ], [ -72.4211, -43.96063 ], [ -72.42445, -43.96137 ], [ -72.42604, -43.96319 ], [ -72.43088, -43.9644 ], [ -72.43471, -43.96476 ], [ -72.43884, -43.96431 ], [ -72.44964, -43.96035 ], [ -72.45118, -43.95996 ], [ -72.45406, -43.95958 ], [ -72.45527, -43.95958 ], [ -72.45738, -43.95996 ], [ -72.45834, -43.9605 ], [ -72.45928, -43.96138 ], [ -72.46224, -43.96653 ], [ -72.46567, -43.97111 ], [ -72.46613, -43.97246 ], [ -72.46734, -43.97379 ], [ -72.46911, -43.97484 ], [ -72.47151, -43.97551 ], [ -72.47363, -43.97546 ], [ -72.47637, -43.97501 ], [ -72.47783, -43.97526 ], [ -72.4785, -43.97558 ], [ -72.48031, -43.977 ], [ -72.48316, -43.98101 ], [ -72.48522, -43.98166 ], [ -72.49024, -43.98259 ], [ -72.49766, -43.98509 ], [ -72.5038, -43.9891 ], [ -72.50843, -43.99097 ], [ -72.51247, -43.9918 ], [ -72.51441, -43.99181 ], [ -72.51707, -43.99146 ], [ -72.5184, -43.99157 ], [ -72.52264, -43.99257 ], [ -72.54281, -43.99593 ], [ -72.54608, -43.99616 ], [ -72.54907, -43.99775 ], [ -72.55053, -43.99855 ], [ -72.55246, -44.00324 ], [ -72.55246, -44.01016 ], [ -72.55354, -44.01229 ], [ -72.55547, -44.01361 ], [ -72.55834, -44.0138 ], [ -72.57534, -44.01092 ], [ -72.58482, -44.01009 ] ], [ [ -72.58482, -44.01009 ], [ -72.5901, -44.00876 ], [ -72.59281, -44.00777 ], [ -72.59414, -44.007 ], [ -72.59693, -44.00481 ], [ -72.59821, -44.00424 ], [ -72.6, -44.00376 ], [ -72.60175, -44.0036 ], [ -72.60345, -44.00368 ], [ -72.6065, -44.00439 ], [ -72.60753, -44.00493 ], [ -72.60817, -44.00547 ], [ -72.61115, -44.01002 ], [ -72.61229, -44.01141 ], [ -72.61452, -44.01351 ], [ -72.61671, -44.01456 ], [ -72.61796, -44.01489 ], [ -72.62038, -44.01476 ], [ -72.62145, -44.0141 ], [ -72.62216, -44.0134 ], [ -72.6227, -44.01231 ], [ -72.62298, -44.01107 ], [ -72.62308, -44.00813 ], [ -72.62276, -44.00578 ], [ -72.62147, -44.00155 ], [ -72.62145, -44.00064 ], [ -72.62182, -43.99988 ], [ -72.6224, -43.99945 ], [ -72.62446, -43.99933 ], [ -72.62836, -44.00044 ], [ -72.63403, -44.00149 ], [ -72.63536, -44.00161 ], [ -72.63667, -44.00151 ], [ -72.6372, -44.0012 ], [ -72.63748, -44.0007 ], [ -72.63763, -43.99995 ], [ -72.63817, -43.99959 ], [ -72.64064, -43.99945 ], [ -72.64244, -43.99984 ], [ -72.64516, -44.00092 ], [ -72.64941, -44.00229 ], [ -72.65276, -44.00305 ], [ -72.65501, -44.00325 ], [ -72.65943, -44.00302 ], [ -72.66136, -44.00263 ], [ -72.66385, -44.00182 ], [ -72.66911, -43.99942 ], [ -72.67188, -43.99851 ], [ -72.67377, -43.99809 ], [ -72.67641, -43.99782 ], [ -72.6849, -43.99731 ], [ -72.68814, -43.99683 ], [ -72.69265, -43.99547 ], [ -72.69576, -43.99373 ], [ -72.69694, -43.99257 ], [ -72.69793, -43.9913 ], [ -72.70016, -43.98749 ], [ -72.70316, -43.98463 ], [ -72.70546, -43.98307 ], [ -72.70752, -43.98207 ], [ -72.71063, -43.98103 ], [ -72.71561, -43.97991 ], [ -72.71801, -43.9798 ], [ -72.72007, -43.97989 ], [ -72.72636, -43.98094 ], [ -72.72825, -43.98065 ], [ -72.72932, -43.98025 ], [ -72.73239, -43.97841 ], [ -72.73329, -43.97751 ], [ -72.73449, -43.976 ], [ -72.73552, -43.97436 ], [ -72.73604, -43.97293 ], [ -72.73627, -43.97168 ], [ -72.73625, -43.97077 ], [ -72.73593, -43.96972 ], [ -72.73475, -43.96796 ], [ -72.73402, -43.96746 ], [ -72.72928, -43.96572 ], [ -72.72827, -43.96487 ], [ -72.72816, -43.96442 ], [ -72.72855, -43.96334 ], [ -72.73014, -43.96138 ], [ -72.73142, -43.96028 ], [ -72.73338, -43.95894 ], [ -72.73428, -43.95855 ], [ -72.73606, -43.95835 ], [ -72.73988, -43.95945 ], [ -72.74338, -43.95954 ], [ -72.74647, -43.9587 ], [ -72.7481, -43.95799 ], [ -72.75026, -43.95694 ], [ -72.75151, -43.95609 ], [ -72.75311, -43.95445 ], [ -72.75737, -43.94886 ], [ -72.75874, -43.94745 ], [ -72.76498, -43.94194 ], [ -72.77273, -43.93649 ], [ -72.77646, -43.9347 ], [ -72.77848, -43.93402 ], [ -72.78902, -43.93266 ], [ -72.79245, -43.93151 ], [ -72.79447, -43.93063 ], [ -72.79616, -43.92957 ], [ -72.79657, -43.92907 ], [ -72.79689, -43.92762 ], [ -72.79659, -43.92564 ], [ -72.79663, -43.92377 ], [ -72.79721, -43.92224 ], [ -72.79848, -43.92045 ], [ -72.79925, -43.91975 ], [ -72.80183, -43.91813 ], [ -72.81103, -43.91436 ], [ -72.81494, -43.91232 ], [ -72.81657, -43.91125 ], [ -72.81923, -43.90888 ], [ -72.8206, -43.90735 ], [ -72.822, -43.90562 ], [ -72.82305, -43.90391 ], [ -72.82388, -43.90208 ], [ -72.82571, -43.89715 ], [ -72.82813, -43.89205 ], [ -72.83009, -43.88912 ], [ -72.83152, -43.88738 ], [ -72.83428, -43.8835 ], [ -72.83533, -43.88247 ], [ -72.83612, -43.88193 ], [ -72.83695, -43.88167 ], [ -72.84279, -43.88128 ], [ -72.84573, -43.88123 ], [ -72.84764, -43.88144 ], [ -72.84959, -43.88183 ], [ -72.85352, -43.88317 ], [ -72.85538, -43.88416 ], [ -72.85667, -43.88517 ], [ -72.85755, -43.88614 ], [ -72.85789, -43.88694 ], [ -72.858, -43.88866 ], [ -72.85523, -43.89411 ], [ -72.85461, -43.89613 ], [ -72.8544, -43.89754 ], [ -72.8547, -43.89921 ], [ -72.85519, -43.89992 ], [ -72.85624, -43.9004 ], [ -72.85817, -43.9001 ], [ -72.86317, -43.89839 ], [ -72.86532, -43.89786 ], [ -72.87229, -43.89667 ], [ -72.87465, -43.89601 ], [ -72.87704, -43.89508 ], [ -72.88045, -43.89322 ], [ -72.88283, -43.89114 ], [ -72.88419, -43.88913 ], [ -72.88475, -43.88756 ], [ -72.88497, -43.88599 ], [ -72.8849, -43.8852 ], [ -72.88435, -43.88342 ], [ -72.88385, -43.88258 ], [ -72.88259, -43.88121 ], [ -72.88079, -43.8799 ], [ -72.87955, -43.87921 ], [ -72.87725, -43.87824 ], [ -72.86954, -43.87564 ], [ -72.86838, -43.87508 ], [ -72.86783, -43.87459 ], [ -72.86755, -43.87424 ], [ -72.86738, -43.87357 ], [ -72.86743, -43.87317 ], [ -72.86789, -43.87256 ], [ -72.86941, -43.87181 ], [ -72.87128, -43.87142 ] ], [ [ -72.87128, -43.87142 ], [ -72.88491, -43.87009 ], [ -72.88826, -43.87001 ], [ -72.89656, -43.87072 ], [ -72.90467, -43.87075 ], [ -72.90785, -43.8706 ], [ -72.91308, -43.86943 ], [ -72.91909, -43.86442 ], [ -72.92398, -43.86101 ], [ -72.93401, -43.85636 ], [ -72.94089, -43.85433 ], [ -72.94494, -43.85295 ], [ -72.94579, -43.85261 ], [ -72.94631, -43.85214 ], [ -72.94658, -43.85181 ], [ -72.94674, -43.85123 ], [ -72.94705, -43.84791 ], [ -72.94743, -43.84687 ], [ -72.94814, -43.8454 ], [ -72.95102, -43.84113 ], [ -72.95372, -43.82902 ], [ -72.9546, -43.82719 ], [ -72.95581, -43.82476 ], [ -72.95971, -43.81915 ], [ -72.96274, -43.81412 ], [ -72.9643, -43.81185 ], [ -72.96789, -43.80776 ], [ -72.96909, -43.80581 ], [ -72.96995, -43.80359 ], [ -72.97108, -43.79964 ], [ -72.97145, -43.79563 ], [ -72.97143, -43.79192 ], [ -72.97115, -43.78724 ], [ -72.97138, -43.78477 ], [ -72.97368, -43.7776 ], [ -72.97445, -43.77447 ], [ -72.97664, -43.76886 ] ], [ [ -72.57016, -44.0118 ], [ -72.57699, -44.01354 ], [ -72.57942, -44.01308 ], [ -72.58231, -44.01214 ], [ -72.58377, -44.0111 ], [ -72.58482, -44.01009 ] ] ] } },
{ "type": "Feature", "properties": { "nombre": "Río Pascua", "tipo": "river", "volcan_codigo": "MEL", "volcan_nombre": "Melimoyu", "drena_volcan": false }, "geometry": { "type": "MultiLineString", "coordinates": [ [ [ -72.55053, -44.31899 ], [ -72.55111, -44.31879 ], [ -72.55174, -44.31879 ], [ -72.55412, -44.31978 ], [ -72.55417, -44.32004 ], [ -72.55395, -44.32056 ], [ -72.55403, -44.32169 ], [ -72.55304, -44.32209 ], [ -72.55311, -44.32278 ], [ -72.55416, -44.32282 ], [ -72.55608, -44.32245 ], [ -72.55829, -44.32312 ], [ -72.55989, -44.3228 ], [ -72.56045, -44.3231 ], [ -72.56095, -44.32388 ], [ -72.56212, -44.32455 ], [ -72.56269, -44.32469 ], [ -72.56389, -44.32442 ], [ -72.56464, -44.32473 ], [ -72.56477, -44.3251 ] ], [ [ -72.56477, -44.3251 ], [ -72.56509, -44.32558 ], [ -72.56483, -44.32664 ], [ -72.56541, -44.32726 ], [ -72.56558, -44.3277 ], [ -72.5653, -44.32874 ] ] ] } },
{ "type": "Feature", "properties": { "nombre": "Río Risopatrón", "tipo": "river", "volcan_codigo": "MEL", "volcan_nombre": "Melimoyu", "drena_volcan": false }, "geometry": { "type": "LineString", "coordinates": [ [ -72.53452, -44.15975 ], [ -72.53262, -44.16027 ], [ -72.53122, -44.16042 ], [ -72.53079, -44.16083 ], [ -72.52974, -44.16141 ], [ -72.52921, -44.1615 ], [ -72.5288, -44.16183 ], [ -72.52527, -44.16262 ], [ -72.52474, -44.16298 ], [ -72.52442, -44.16342 ], [ -72.52396, -44.16364 ], [ -72.52196, -44.16398 ], [ -72.52061, -44.16394 ], [ -72.5195, -44.16431 ], [ -72.51897, -44.16431 ], [ -72.51854, -44.16455 ], [ -72.51589, -44.16483 ], [ -72.51456, -44.16533 ], [ -72.5131, -44.16531 ], [ -72.51145, -44.16551 ], [ -72.51117, -44.16561 ], [ -72.51083, -44.16602 ], [ -72.50969, -44.16574 ], [ -72.50821, -44.16637 ], [ -72.50777, -44.16607 ], [ -72.50646, -44.16614 ], [ -72.50539, -44.16583 ], [ -72.50463, -44.16588 ], [ -72.5034, -44.16665 ], [ -72.50258, -44.16661 ], [ -72.50205, -44.16737 ], [ -72.50038, -44.16721 ], [ -72.4999, -44.16748 ], [ -72.4987, -44.16775 ], [ -72.49799, -44.16858 ], [ -72.49662, -44.16916 ], [ -72.49523, -44.16941 ], [ -72.49433, -44.16928 ], [ -72.4932, -44.16963 ], [ -72.49262, -44.16954 ], [ -72.49129, -44.16878 ], [ -72.49054, -44.16873 ], [ -72.48999, -44.16836 ], [ -72.48976, -44.16787 ], [ -72.48762, -44.16605 ], [ -72.48705, -44.16575 ], [ -72.48623, -44.16574 ], [ -72.48565, -44.16551 ], [ -72.48424, -44.16452 ], [ -72.48393, -44.16423 ], [ -72.48364, -44.16337 ], [ -72.48267, -44.1625 ], [ -72.48082, -44.16023 ], [ -72.48044, -44.15968 ], [ -72.4803, -44.15883 ], [ -72.48008, -44.1585 ], [ -72.4794, -44.15804 ], [ -72.47894, -44.15731 ], [ -72.47895, -44.15688 ], [ -72.47936, -44.15637 ], [ -72.4792, -44.15549 ], [ -72.47927, -44.15428 ], [ -72.4787, -44.15371 ], [ -72.47639, -44.15319 ], [ -72.47619, -44.15301 ], [ -72.47616, -44.15256 ], [ -72.47701, -44.1519 ], [ -72.47723, -44.15157 ], [ -72.47721, -44.15126 ], [ -72.4766, -44.15027 ], [ -72.4766, -44.14999 ], [ -72.47686, -44.14961 ], [ -72.47676, -44.14933 ], [ -72.47589, -44.14821 ], [ -72.47579, -44.14745 ], [ -72.47559, -44.14713 ], [ -72.4748, -44.14656 ], [ -72.4743, -44.14644 ], [ -72.47287, -44.14696 ], [ -72.47108, -44.14664 ], [ -72.47076, -44.14624 ], [ -72.47126, -44.14555 ], [ -72.47028, -44.14512 ], [ -72.4697, -44.1444 ], [ -72.47003, -44.14338 ], [ -72.47064, -44.14299 ], [ -72.47101, -44.14258 ], [ -72.471, -44.14235 ], [ -72.47077, -44.14217 ], [ -72.46979, -44.14243 ], [ -72.46822, -44.14222 ], [ -72.4668, -44.14197 ], [ -72.46587, -44.1416 ], [ -72.46531, -44.14093 ], [ -72.46529, -44.14053 ], [ -72.46558, -44.13973 ], [ -72.46534, -44.13913 ], [ -72.4644, -44.13832 ], [ -72.46317, -44.13798 ], [ -72.46271, -44.13768 ], [ -72.46237, -44.13727 ], [ -72.46188, -44.13611 ], [ -72.4607, -44.13581 ], [ -72.46038, -44.13558 ], [ -72.46009, -44.13371 ], [ -72.45818, -44.13095 ], [ -72.45785, -44.12969 ], [ -72.45906, -44.12851 ], [ -72.45935, -44.12795 ], [ -72.45933, -44.12765 ], [ -72.45665, -44.12665 ], [ -72.4561, -44.1263 ], [ -72.45609, -44.12594 ], [ -72.45665, -44.12506 ], [ -72.45668, -44.12466 ], [ -72.4561, -44.1237 ], [ -72.45591, -44.12171 ], [ -72.45626, -44.12118 ], [ -72.45668, -44.12106 ], [ -72.45803, -44.12143 ], [ -72.45974, -44.1214 ], [ -72.46093, -44.12106 ], [ -72.46302, -44.12141 ], [ -72.46416, -44.12111 ], [ -72.46455, -44.12057 ], [ -72.46539, -44.12001 ], [ -72.46565, -44.11926 ], [ -72.46582, -44.11606 ], [ -72.46479, -44.11435 ], [ -72.46353, -44.11293 ], [ -72.46296, -44.11158 ], [ -72.46238, -44.11144 ], [ -72.46126, -44.11154 ], [ -72.46038, -44.11141 ], [ -72.45982, -44.11103 ], [ -72.45943, -44.11031 ], [ -72.45936, -44.11012 ], [ -72.45951, -44.10993 ], [ -72.46157, -44.10919 ], [ -72.46285, -44.11007 ], [ -72.46288, -44.11106 ], [ -72.46355, -44.11118 ], [ -72.46393, -44.11074 ], [ -72.4633, -44.10905 ], [ -72.46246, -44.10816 ], [ -72.46204, -44.10669 ], [ -72.46174, -44.10638 ], [ -72.46011, -44.10647 ], [ -72.45941, -44.10635 ], [ -72.4592, -44.10601 ], [ -72.46032, -44.10436 ], [ -72.46092, -44.10385 ], [ -72.461, -44.10351 ], [ -72.45943, -44.1012 ], [ -72.45765, -44.10039 ], [ -72.45722, -44.09982 ], [ -72.45714, -44.09899 ], [ -72.45636, -44.09661 ], [ -72.45634, -44.09602 ], [ -72.45657, -44.09556 ], [ -72.45882, -44.09353 ], [ -72.45848, -44.09223 ], [ -72.45872, -44.09138 ], [ -72.45977, -44.08991 ], [ -72.46081, -44.08917 ], [ -72.46086, -44.08886 ], [ -72.46002, -44.08829 ], [ -72.45794, -44.08819 ], [ -72.4563, -44.08768 ], [ -72.45597, -44.08704 ], [ -72.45625, -44.08458 ], [ -72.45615, -44.08436 ], [ -72.4545, -44.08436 ], [ -72.45422, -44.08396 ], [ -72.45408, -44.08337 ], [ -72.4543, -44.08191 ], [ -72.4546, -44.0813 ], [ -72.45512, -44.08092 ], [ -72.45493, -44.08012 ], [ -72.45346, -44.07935 ], [ -72.45191, -44.07969 ], [ -72.45111, -44.07956 ], [ -72.45067, -44.07904 ], [ -72.45009, -44.07739 ], [ -72.45021, -44.0755 ], [ -72.44997, -44.075 ], [ -72.4487, -44.07368 ], [ -72.44821, -44.07249 ], [ -72.44755, -44.07196 ], [ -72.44737, -44.07148 ], [ -72.44763, -44.07112 ], [ -72.4483, -44.07079 ], [ -72.44853, -44.07032 ], [ -72.44851, -44.0697 ], [ -72.44799, -44.06907 ], [ -72.44788, -44.06867 ], [ -72.44824, -44.06823 ], [ -72.45, -44.06776 ], [ -72.4503, -44.06741 ], [ -72.45018, -44.06698 ], [ -72.44957, -44.06664 ], [ -72.44742, -44.06414 ], [ -72.4464, -44.0637 ], [ -72.44608, -44.06252 ], [ -72.4463, -44.06196 ], [ -72.44569, -44.06036 ], [ -72.44573, -44.05959 ], [ -72.44607, -44.05895 ], [ -72.4467, -44.05867 ], [ -72.44861, -44.05903 ], [ -72.44928, -44.05866 ], [ -72.45001, -44.05712 ], [ -72.4513, -44.05585 ], [ -72.45077, -44.05532 ], [ -72.44972, -44.05492 ], [ -72.4491, -44.05441 ], [ -72.44799, -44.05427 ], [ -72.44739, -44.05402 ], [ -72.44719, -44.0537 ], [ -72.44779, -44.05249 ], [ -72.45017, -44.05052 ], [ -72.45041, -44.05007 ], [ -72.45035, -44.04977 ], [ -72.45008, -44.04963 ], [ -72.44941, -44.04976 ], [ -72.44858, -44.04963 ], [ -72.44804, -44.04937 ], [ -72.44778, -44.04897 ], [ -72.4474, -44.04759 ], [ -72.44761, -44.04707 ], [ -72.44871, -44.0468 ], [ -72.4492, -44.0463 ], [ -72.44968, -44.0455 ], [ -72.44958, -44.04472 ], [ -72.44871, -44.04317 ], [ -72.4473, -44.04196 ], [ -72.44667, -44.04109 ], [ -72.4462, -44.03992 ], [ -72.44659, -44.03904 ], [ -72.44659, -44.03813 ], [ -72.44625, -44.03747 ], [ -72.44459, -44.03607 ], [ -72.44466, -44.03553 ], [ -72.44517, -44.03532 ], [ -72.44642, -44.03522 ], [ -72.44685, -44.03491 ], [ -72.44713, -44.03443 ], [ -72.44652, -44.03326 ], [ -72.44677, -44.03251 ], [ -72.44655, -44.032 ], [ -72.44526, -44.03105 ], [ -72.44505, -44.03063 ], [ -72.4451, -44.02971 ], [ -72.44488, -44.02901 ], [ -72.44491, -44.02833 ], [ -72.44616, -44.02751 ], [ -72.44635, -44.0271 ], [ -72.4463, -44.02666 ], [ -72.44471, -44.02482 ], [ -72.44413, -44.02441 ], [ -72.44328, -44.02417 ], [ -72.44283, -44.02362 ], [ -72.44272, -44.02311 ], [ -72.44308, -44.02147 ], [ -72.44416, -44.02014 ], [ -72.44453, -44.0193 ], [ -72.44501, -44.01881 ], [ -72.44492, -44.01598 ], [ -72.44573, -44.01553 ], [ -72.44832, -44.01522 ], [ -72.44918, -44.01476 ], [ -72.44985, -44.01368 ], [ -72.45051, -44.01344 ], [ -72.45166, -44.01381 ], [ -72.45337, -44.01351 ], [ -72.45455, -44.01368 ], [ -72.45714, -44.01426 ], [ -72.459, -44.01498 ], [ -72.46212, -44.01473 ], [ -72.46352, -44.01447 ], [ -72.46442, -44.01456 ], [ -72.46506, -44.01483 ], [ -72.46832, -44.01443 ], [ -72.46974, -44.01415 ], [ -72.47067, -44.01378 ], [ -72.47257, -44.01386 ], [ -72.47525, -44.013 ], [ -72.47677, -44.01341 ], [ -72.4778, -44.01402 ], [ -72.47877, -44.01522 ], [ -72.47899, -44.01616 ], [ -72.47895, -44.01847 ], [ -72.47982, -44.01894 ], [ -72.48118, -44.01923 ], [ -72.48211, -44.02039 ], [ -72.48291, -44.02082 ], [ -72.48456, -44.02129 ], [ -72.48556, -44.02133 ], [ -72.48668, -44.02183 ], [ -72.4891, -44.02371 ], [ -72.4898, -44.02454 ], [ -72.49069, -44.02619 ], [ -72.49141, -44.02707 ], [ -72.49237, -44.02788 ], [ -72.49315, -44.02824 ], [ -72.49601, -44.02851 ], [ -72.49882, -44.02906 ], [ -72.49962, -44.02952 ], [ -72.50144, -44.03102 ], [ -72.50473, -44.03285 ], [ -72.50556, -44.03403 ], [ -72.50624, -44.0341 ], [ -72.50725, -44.03286 ], [ -72.50832, -44.03211 ], [ -72.50915, -44.03184 ], [ -72.50941, -44.03192 ], [ -72.50944, -44.03247 ], [ -72.50994, -44.03386 ], [ -72.51031, -44.03396 ], [ -72.51142, -44.0337 ], [ -72.51176, -44.03288 ], [ -72.5123, -44.03228 ], [ -72.51223, -44.03176 ], [ -72.51238, -44.03124 ], [ -72.51271, -44.03108 ], [ -72.51331, -44.03126 ], [ -72.51413, -44.0319 ], [ -72.51483, -44.03177 ], [ -72.51547, -44.03137 ], [ -72.51733, -44.0311 ], [ -72.52215, -44.03195 ], [ -72.52309, -44.03234 ], [ -72.52367, -44.03283 ], [ -72.52665, -44.03381 ], [ -72.52794, -44.03445 ], [ -72.53225, -44.03528 ], [ -72.53344, -44.03528 ], [ -72.53414, -44.03503 ], [ -72.53551, -44.03395 ], [ -72.53638, -44.0336 ], [ -72.53825, -44.03387 ], [ -72.53941, -44.03462 ], [ -72.54005, -44.03461 ], [ -72.54053, -44.0336 ], [ -72.5409, -44.0332 ], [ -72.54135, -44.0332 ], [ -72.54185, -44.03384 ], [ -72.54266, -44.03425 ], [ -72.54341, -44.03428 ], [ -72.54391, -44.034 ], [ -72.54413, -44.03358 ], [ -72.544, -44.03314 ], [ -72.54359, -44.03274 ], [ -72.54263, -44.0324 ], [ -72.54018, -44.03235 ], [ -72.53927, -44.03219 ], [ -72.5386, -44.0319 ], [ -72.53832, -44.03148 ], [ -72.53864, -44.03093 ], [ -72.53982, -44.03066 ], [ -72.54052, -44.02963 ], [ -72.54204, -44.02886 ], [ -72.54256, -44.02844 ], [ -72.54286, -44.02805 ], [ -72.54288, -44.02761 ], [ -72.5425, -44.02723 ], [ -72.54244, -44.0269 ], [ -72.54265, -44.02649 ], [ -72.54306, -44.0263 ], [ -72.54362, -44.02637 ], [ -72.54489, -44.02699 ], [ -72.54662, -44.02754 ], [ -72.54772, -44.02778 ], [ -72.54907, -44.02763 ], [ -72.54994, -44.02698 ], [ -72.55218, -44.02682 ], [ -72.55258, -44.02696 ], [ -72.55272, -44.02724 ], [ -72.55245, -44.0279 ], [ -72.55256, -44.02824 ], [ -72.55392, -44.02884 ], [ -72.5567, -44.02825 ], [ -72.55681, -44.02794 ], [ -72.55619, -44.0272 ], [ -72.55639, -44.02688 ], [ -72.55769, -44.02627 ], [ -72.55783, -44.02572 ], [ -72.55713, -44.02494 ], [ -72.55704, -44.02461 ], [ -72.5573, -44.02413 ], [ -72.55772, -44.02401 ], [ -72.5596, -44.02403 ], [ -72.56125, -44.02334 ], [ -72.56301, -44.02201 ], [ -72.56342, -44.02187 ], [ -72.56458, -44.02201 ], [ -72.56503, -44.02171 ], [ -72.56608, -44.02033 ], [ -72.56656, -44.02003 ], [ -72.56725, -44.0199 ], [ -72.56883, -44.02027 ], [ -72.56939, -44.02024 ], [ -72.57196, -44.01889 ], [ -72.57347, -44.01827 ], [ -72.5753, -44.01781 ], [ -72.57547, -44.01744 ], [ -72.5744, -44.01565 ], [ -72.57427, -44.01533 ], [ -72.57436, -44.01506 ], [ -72.57699, -44.01354 ] ] } },
{ "type": "Feature", "properties": { "nombre": "Río Rodríguez", "tipo": "river", "volcan_codigo": "MEL", "volcan_nombre": "Melimoyu", "drena_volcan": false }, "geometry": { "type": "MultiLineString", "coordinates": [ [ [ -72.687, -43.85379 ], [ -72.68789, -43.85394 ], [ -72.68852, -43.85362 ], [ -72.68998, -43.85214 ], [ -72.69019, -43.85181 ], [ -72.69013, -43.85129 ], [ -72.68957, -43.85079 ], [ -72.68958, -43.85001 ], [ -72.69016, -43.84875 ], [ -72.69155, -43.84816 ], [ -72.69187, -43.84759 ], [ -72.69227, -43.84728 ], [ -72.69552, -43.84535 ], [ -72.69717, -43.84505 ], [ -72.69979, -43.8441 ], [ -72.70304, -43.84414 ], [ -72.70375, -43.84429 ], [ -72.7046, -43.84406 ], [ -72.70482, -43.84385 ], [ -72.70488, -43.84347 ], [ -72.70467, -43.84117 ], [ -72.70507, -43.84073 ], [ -72.7055, -43.84063 ], [ -72.70639, -43.84078 ], [ -72.7073, -43.84133 ], [ -72.70817, -43.84138 ], [ -72.70885, -43.84118 ], [ -72.70946, -43.84082 ], [ -72.7098, -43.84032 ], [ -72.71034, -43.83882 ], [ -72.7112, -43.83813 ], [ -72.71175, -43.838 ], [ -72.71252, -43.83819 ], [ -72.71329, -43.83936 ], [ -72.71389, -43.83953 ], [ -72.71605, -43.83886 ], [ -72.71851, -43.83867 ], [ -72.71977, -43.83782 ], [ -72.72058, -43.8376 ], [ -72.72312, -43.83789 ], [ -72.72649, -43.83886 ], [ -72.72776, -43.83874 ], [ -72.72814, -43.83823 ], [ -72.72852, -43.83615 ], [ -72.72908, -43.83517 ], [ -72.73117, -43.83282 ], [ -72.73241, -43.83092 ], [ -72.73316, -43.83012 ], [ -72.73394, -43.82964 ], [ -72.73508, -43.82938 ] ], [ [ -72.5662, -43.85361 ], [ -72.56732, -43.85364 ], [ -72.5676, -43.85336 ], [ -72.56827, -43.85309 ], [ -72.56887, -43.85318 ], [ -72.56929, -43.85344 ], [ -72.57156, -43.85307 ], [ -72.57201, -43.85286 ], [ -72.57251, -43.852 ], [ -72.57353, -43.85187 ], [ -72.57444, -43.85222 ], [ -72.57544, -43.85231 ], [ -72.57784, -43.85155 ], [ -72.58096, -43.85116 ], [ -72.58183, -43.85125 ], [ -72.58282, -43.85182 ], [ -72.5843, -43.85205 ], [ -72.58692, -43.85058 ], [ -72.58789, -43.85039 ], [ -72.58921, -43.85048 ], [ -72.59062, -43.85106 ], [ -72.59432, -43.85145 ], [ -72.59494, -43.85108 ], [ -72.59542, -43.84957 ], [ -72.5957, -43.84934 ], [ -72.59852, -43.84959 ], [ -72.60129, -43.84938 ], [ -72.60259, -43.84905 ], [ -72.60364, -43.84843 ], [ -72.60477, -43.84743 ], [ -72.6057, -43.84707 ], [ -72.60767, -43.84743 ], [ -72.60877, -43.84742 ], [ -72.61055, -43.8482 ], [ -72.61212, -43.84848 ], [ -72.61307, -43.84896 ], [ -72.61439, -43.8487 ], [ -72.61593, -43.84864 ], [ -72.62014, -43.84884 ], [ -72.6212, -43.84855 ], [ -72.62189, -43.84787 ], [ -72.62221, -43.84732 ], [ -72.6228, -43.84703 ], [ -72.62354, -43.84731 ], [ -72.62407, -43.84777 ], [ -72.62477, -43.84788 ], [ -72.62536, -43.84721 ], [ -72.62801, -43.84678 ], [ -72.63294, -43.84786 ], [ -72.63842, -43.84634 ], [ -72.63911, -43.84627 ], [ -72.64239, -43.8473 ], [ -72.6468, -43.84753 ], [ -72.64744, -43.84805 ], [ -72.6477, -43.84851 ], [ -72.64755, -43.85035 ], [ -72.64784, -43.85147 ], [ -72.64899, -43.85313 ], [ -72.64979, -43.85352 ], [ -72.65057, -43.85336 ], [ -72.65123, -43.85239 ], [ -72.65161, -43.85208 ], [ -72.65237, -43.85182 ], [ -72.65364, -43.85171 ], [ -72.65649, -43.85186 ], [ -72.65697, -43.85162 ], [ -72.65741, -43.85087 ], [ -72.6589, -43.8498 ], [ -72.65929, -43.84967 ], [ -72.66293, -43.85009 ], [ -72.66449, -43.84943 ], [ -72.66546, -43.84926 ], [ -72.66615, -43.8493 ], [ -72.6683, -43.85079 ], [ -72.67051, -43.8516 ], [ -72.67259, -43.85136 ], [ -72.67668, -43.85175 ], [ -72.68371, -43.85149 ], [ -72.68456, -43.85175 ], [ -72.68524, -43.85218 ], [ -72.687, -43.85379 ] ], [ [ -72.73508, -43.82938 ], [ -72.73607, -43.8294 ], [ -72.73724, -43.8297 ], [ -72.74199, -43.8321 ], [ -72.7434, -43.8325 ], [ -72.74525, -43.83267 ], [ -72.74757, -43.8323 ], [ -72.74926, -43.83235 ], [ -72.75773, -43.83509 ], [ -72.76021, -43.83522 ], [ -72.76179, -43.83503 ], [ -72.76252, -43.83485 ], [ -72.76387, -43.83406 ], [ -72.7675, -43.83125 ], [ -72.77015, -43.82631 ], [ -72.77166, -43.82496 ], [ -72.7725, -43.82468 ], [ -72.77382, -43.82467 ], [ -72.77749, -43.82504 ], [ -72.77933, -43.82488 ], [ -72.78067, -43.82447 ], [ -72.78248, -43.82269 ], [ -72.78313, -43.82139 ], [ -72.7835, -43.81981 ], [ -72.78412, -43.81912 ], [ -72.78485, -43.81875 ], [ -72.78612, -43.8185 ], [ -72.79009, -43.81838 ], [ -72.79677, -43.81724 ], [ -72.80419, -43.81679 ], [ -72.80875, -43.81609 ], [ -72.81845, -43.81377 ], [ -72.82377, -43.81227 ], [ -72.8275, -43.81109 ], [ -72.83049, -43.80988 ], [ -72.83274, -43.80874 ], [ -72.83534, -43.80654 ], [ -72.8374, -43.80352 ], [ -72.84233, -43.79384 ], [ -72.84332, -43.7922 ], [ -72.84362, -43.7913 ], [ -72.84379, -43.78978 ], [ -72.84336, -43.78773 ], [ -72.84177, -43.7842 ], [ -72.84164, -43.78309 ], [ -72.84194, -43.78179 ], [ -72.84684, -43.77636 ] ] ] } },
{ "type": "Feature", "properties": { "nombre": "Río San Nicolás", "tipo": "river", "volcan_codigo": "MEL", "volcan_nombre": "Melimoyu", "drena_volcan": false }, "geometry": { "type": "LineString", "coordinates": [ [ -72.65791, -44.01858 ], [ -72.65679, -44.01827 ], [ -72.65578, -44.01778 ], [ -72.65367, -44.01771 ], [ -72.65289, -44.01732 ], [ -72.65212, -44.01655 ], [ -72.65165, -44.01634 ], [ -72.65075, -44.01606 ], [ -72.64951, -44.01599 ], [ -72.649, -44.01578 ], [ -72.64869, -44.01531 ], [ -72.64878, -44.01487 ], [ -72.64921, -44.01424 ], [ -72.65007, -44.01383 ], [ -72.6504, -44.01335 ], [ -72.6504, -44.01309 ], [ -72.64968, -44.01263 ], [ -72.64975, -44.01206 ], [ -72.65, -44.01152 ], [ -72.65067, -44.01086 ], [ -72.65128, -44.0094 ], [ -72.65202, -44.00891 ], [ -72.65552, -44.00809 ], [ -72.65716, -44.0072 ], [ -72.65806, -44.00637 ], [ -72.65906, -44.00651 ], [ -72.65992, -44.00635 ], [ -72.66063, -44.00611 ], [ -72.66136, -44.00531 ], [ -72.66339, -44.00491 ], [ -72.66598, -44.00384 ], [ -72.666, -44.00371 ], [ -72.66475, -44.00281 ], [ -72.66484, -44.00232 ], [ -72.66543, -44.00114 ] ] } },
{ "type": "Feature", "properties": { "nombre": "Río San Víctor", "tipo": "river", "volcan_codigo": "MEL", "volcan_nombre": "Melimoyu", "drena_volcan": false }, "geometry": { "type": "LineString", "coordinates": [ [ -72.67468, -44.00841 ], [ -72.67452, -44.00794 ], [ -72.67382, -44.00749 ], [ -72.67327, -44.00688 ], [ -72.67322, -44.00628 ], [ -72.67281, -44.00594 ], [ -72.67281, -44.00569 ], [ -72.67338, -44.00519 ], [ -72.6734, -44.00482 ], [ -72.67238, -44.00438 ], [ -72.67087, -44.00292 ], [ -72.67003, -44.00274 ], [ -72.66971, -44.00286 ], [ -72.66913, -44.00347 ], [ -72.66692, -44.00391 ], [ -72.666, -44.00371 ] ] } },
{ "type": "Feature", "properties": { "nombre": "Río Santo Domingo", "tipo": "river", "volcan_codigo": "MEL", "volcan_nombre": "Melimoyu", "drena_volcan": true }, "geometry": { "type": "MultiLineString", "coordinates": [ [ [ -73.04359, -43.97455 ], [ -73.04418, -43.97372 ], [ -73.04487, -43.97341 ], [ -73.04617, -43.97355 ], [ -73.04759, -43.97399 ], [ -73.04894, -43.974 ], [ -73.04937, -43.97352 ], [ -73.04959, -43.97204 ], [ -73.0499, -43.97167 ], [ -73.05061, -43.97138 ], [ -73.05108, -43.97138 ], [ -73.05187, -43.97212 ], [ -73.05273, -43.97192 ], [ -73.05351, -43.97105 ], [ -73.05364, -43.97041 ], [ -73.05355, -43.96992 ], [ -73.05369, -43.96971 ], [ -73.05575, -43.96877 ], [ -73.05664, -43.96811 ], [ -73.05703, -43.96726 ], [ -73.05717, -43.966 ], [ -73.05741, -43.96554 ], [ -73.05777, -43.96524 ], [ -73.05886, -43.96492 ], [ -73.05937, -43.96367 ], [ -73.05995, -43.96275 ], [ -73.06051, -43.96271 ], [ -73.06253, -43.96348 ], [ -73.06388, -43.96358 ], [ -73.06478, -43.96351 ], [ -73.06548, -43.96307 ], [ -73.06599, -43.96218 ], [ -73.06614, -43.96146 ], [ -73.06587, -43.95879 ], [ -73.06619, -43.95826 ], [ -73.06685, -43.95769 ], [ -73.06807, -43.95728 ], [ -73.07111, -43.95734 ], [ -73.07234, -43.95721 ], [ -73.07337, -43.95633 ], [ -73.07383, -43.95519 ], [ -73.07472, -43.95373 ], [ -73.07506, -43.95269 ], [ -73.07545, -43.95227 ], [ -73.0769, -43.95184 ], [ -73.08065, -43.95155 ], [ -73.08189, -43.95117 ], [ -73.08222, -43.95066 ], [ -73.08223, -43.94967 ], [ -73.08169, -43.94924 ], [ -73.08001, -43.94903 ], [ -73.07947, -43.94871 ], [ -73.0792, -43.94806 ], [ -73.07918, -43.94723 ], [ -73.07963, -43.9466 ], [ -73.08033, -43.94623 ], [ -73.08085, -43.94567 ], [ -73.08096, -43.94538 ], [ -73.08057, -43.94426 ], [ -73.08288, -43.94202 ], [ -73.08352, -43.94119 ], [ -73.08381, -43.93944 ], [ -73.084, -43.93911 ] ], [ [ -72.94502, -44.05437 ], [ -72.94515, -44.05406 ], [ -72.94551, -44.0538 ], [ -72.9456, -44.05345 ], [ -72.94591, -44.05323 ], [ -72.94648, -44.05319 ], [ -72.94671, -44.05273 ], [ -72.94839, -44.05134 ], [ -72.9495, -44.0497 ], [ -72.94908, -44.04873 ], [ -72.94906, -44.04817 ], [ -72.94927, -44.04768 ], [ -72.94918, -44.04721 ], [ -72.94991, -44.04647 ], [ -72.94979, -44.04593 ], [ -72.94914, -44.04556 ], [ -72.94936, -44.0448 ], [ -72.94895, -44.04375 ], [ -72.94897, -44.04333 ], [ -72.94864, -44.04293 ], [ -72.94854, -44.04209 ], [ -72.94866, -44.04181 ], [ -72.94936, -44.04143 ], [ -72.94953, -44.04084 ], [ -72.94999, -44.04037 ], [ -72.95057, -44.04025 ], [ -72.95129, -44.03948 ], [ -72.95175, -44.03934 ], [ -72.95281, -44.03857 ], [ -72.95342, -44.03833 ], [ -72.95428, -44.03824 ], [ -72.95494, -44.03738 ], [ -72.9558, -44.03672 ], [ -72.95688, -44.03672 ], [ -72.95828, -44.03588 ], [ -72.95908, -44.03586 ], [ -72.95964, -44.03566 ], [ -72.95985, -44.03572 ], [ -72.96003, -44.0362 ], [ -72.96027, -44.03629 ], [ -72.96127, -44.03619 ], [ -72.96183, -44.03576 ], [ -72.96271, -44.03539 ], [ -72.96294, -44.03502 ], [ -72.96303, -44.03415 ], [ -72.96276, -44.03354 ], [ -72.96333, -44.03232 ], [ -72.96413, -44.03173 ], [ -72.96399, -44.03099 ], [ -72.96497, -44.03005 ], [ -72.96622, -44.02934 ], [ -72.9668, -44.02837 ], [ -72.96738, -44.02775 ], [ -72.96774, -44.02659 ], [ -72.96689, -44.02615 ], [ -72.96659, -44.02564 ], [ -72.9656, -44.02488 ], [ -72.96547, -44.02463 ], [ -72.96574, -44.02424 ], [ -72.96494, -44.02314 ], [ -72.96415, -44.02311 ], [ -72.96391, -44.02296 ], [ -72.96382, -44.02265 ], [ -72.96342, -44.02224 ], [ -72.9634, -44.02179 ], [ -72.96275, -44.02124 ], [ -72.96258, -44.02044 ], [ -72.96226, -44.02019 ], [ -72.96177, -44.02034 ], [ -72.96154, -44.02026 ], [ -72.96157, -44.01943 ], [ -72.96117, -44.01886 ], [ -72.96143, -44.01833 ], [ -72.96144, -44.01709 ], [ -72.9611, -44.01658 ], [ -72.9619, -44.01632 ], [ -72.96186, -44.01519 ], [ -72.96345, -44.0138 ], [ -72.96425, -44.01266 ], [ -72.96627, -44.01097 ], [ -72.96671, -44.00957 ], [ -72.96678, -44.00877 ], [ -72.96655, -44.00808 ], [ -72.96679, -44.00665 ], [ -72.96729, -44.00583 ], [ -72.96763, -44.00479 ], [ -72.96862, -44.00377 ], [ -72.96848, -44.00303 ], [ -72.96936, -44.00176 ], [ -72.97015, -44.00146 ], [ -72.97079, -44.0009 ], [ -72.97155, -44.00069 ], [ -72.97214, -43.99993 ], [ -72.97319, -43.9996 ], [ -72.97494, -43.9984 ], [ -72.97626, -43.99781 ], [ -72.97664, -43.99674 ], [ -72.97717, -43.996 ], [ -72.97706, -43.99515 ], [ -72.97735, -43.99467 ], [ -72.9791, -43.99432 ], [ -72.98113, -43.99425 ], [ -72.98223, -43.99455 ], [ -72.98315, -43.99455 ], [ -72.98363, -43.9943 ], [ -72.98397, -43.99381 ], [ -72.98494, -43.99351 ], [ -72.98702, -43.99386 ], [ -72.98976, -43.99366 ], [ -72.99063, -43.99326 ], [ -72.99061, -43.99257 ], [ -72.99088, -43.99228 ], [ -72.99337, -43.99165 ], [ -72.99447, -43.99052 ], [ -72.99562, -43.98996 ], [ -72.99571, -43.98891 ], [ -72.99608, -43.98838 ], [ -72.99853, -43.98729 ], [ -72.99945, -43.98608 ], [ -73.00033, -43.98529 ], [ -73.00037, -43.98413 ], [ -73.00099, -43.98306 ], [ -73.00298, -43.98046 ], [ -73.00424, -43.98002 ], [ -73.00592, -43.97914 ], [ -73.0072, -43.97884 ], [ -73.00806, -43.97841 ], [ -73.0095, -43.97819 ], [ -73.01031, -43.97789 ], [ -73.01085, -43.97718 ], [ -73.01094, -43.97673 ], [ -73.01082, -43.9763 ], [ -73.01188, -43.97514 ], [ -73.01446, -43.97429 ], [ -73.01541, -43.97425 ], [ -73.0169, -43.97448 ], [ -73.01741, -43.97429 ], [ -73.01906, -43.97419 ], [ -73.01952, -43.97433 ], [ -73.02065, -43.97527 ], [ -73.02132, -43.97556 ] ], [ [ -73.02132, -43.97556 ], [ -73.02201, -43.97626 ], [ -73.02407, -43.97762 ], [ -73.02888, -43.97762 ], [ -73.03334, -43.97651 ], [ -73.03609, -43.97391 ], [ -73.03866, -43.97354 ], [ -73.04359, -43.97455 ] ] ] } },
{ "type": "Feature", "properties": { "nombre": "Río Tictoc", "tipo": "river", "volcan_codigo": "MEL", "volcan_nombre": "Melimoyu", "drena_volcan": false }, "geometry": { "type": "MultiLineString", "coordinates": [ [ [ -72.80504, -43.62173 ], [ -72.8061, -43.62219 ], [ -72.80773, -43.62393 ], [ -72.8087, -43.62469 ], [ -72.80981, -43.62492 ], [ -72.81116, -43.62478 ], [ -72.81181, -43.62456 ], [ -72.81249, -43.62389 ], [ -72.81301, -43.62374 ], [ -72.8144, -43.62379 ], [ -72.81623, -43.62344 ], [ -72.81947, -43.62205 ], [ -72.82118, -43.62163 ], [ -72.82339, -43.62136 ], [ -72.82925, -43.62132 ], [ -72.83118, -43.62021 ], [ -72.83284, -43.61996 ], [ -72.83494, -43.62032 ], [ -72.83603, -43.62082 ], [ -72.83715, -43.62198 ], [ -72.83951, -43.62383 ], [ -72.84058, -43.62526 ], [ -72.84095, -43.62699 ], [ -72.84093, -43.62888 ], [ -72.84024, -43.63053 ], [ -72.8393, -43.63172 ], [ -72.83606, -43.63368 ], [ -72.83485, -43.635 ], [ -72.83359, -43.63731 ], [ -72.83288, -43.63913 ], [ -72.83256, -43.64127 ], [ -72.83275, -43.64302 ], [ -72.83312, -43.64425 ], [ -72.8332, -43.64623 ], [ -72.83308, -43.65016 ], [ -72.83268, -43.65123 ], [ -72.8326, -43.65271 ], [ -72.83319, -43.65376 ], [ -72.83419, -43.65505 ], [ -72.83508, -43.65569 ], [ -72.83667, -43.65602 ], [ -72.83706, -43.65592 ], [ -72.83727, -43.65558 ], [ -72.83727, -43.65513 ], [ -72.83746, -43.65499 ], [ -72.83803, -43.65499 ], [ -72.84138, -43.65636 ], [ -72.84538, -43.65646 ], [ -72.84736, -43.65683 ], [ -72.84943, -43.65695 ], [ -72.85347, -43.65661 ], [ -72.85499, -43.65629 ], [ -72.85613, -43.65569 ], [ -72.85782, -43.65531 ], [ -72.85957, -43.65538 ], [ -72.86106, -43.65592 ], [ -72.86217, -43.65654 ], [ -72.86295, -43.65717 ], [ -72.86396, -43.65876 ], [ -72.86507, -43.65897 ], [ -72.86574, -43.6589 ], [ -72.86812, -43.65756 ], [ -72.8693, -43.65728 ], [ -72.87167, -43.65737 ], [ -72.87276, -43.65715 ], [ -72.87435, -43.65605 ], [ -72.87497, -43.65584 ] ], [ [ -72.87497, -43.65584 ], [ -72.87831, -43.65584 ], [ -72.87928, -43.65574 ], [ -72.87984, -43.6555 ], [ -72.88035, -43.65455 ], [ -72.8825, -43.65188 ], [ -72.88267, -43.65105 ], [ -72.88261, -43.64989 ], [ -72.88279, -43.64969 ], [ -72.88611, -43.64892 ], [ -72.88683, -43.64863 ], [ -72.88729, -43.64825 ], [ -72.88721, -43.64609 ] ], [ [ -72.88721, -43.64609 ], [ -72.88855, -43.64465 ], [ -72.88972, -43.64416 ], [ -72.89178, -43.64404 ], [ -72.89357, -43.64438 ], [ -72.89439, -43.64496 ], [ -72.89554, -43.64661 ], [ -72.89629, -43.64681 ], [ -72.89714, -43.64665 ], [ -72.89786, -43.646 ], [ -72.89832, -43.64467 ], [ -72.89868, -43.64294 ], [ -72.89963, -43.64147 ], [ -72.90068, -43.64039 ], [ -72.902, -43.63961 ], [ -72.90811, -43.63745 ], [ -72.91749, -43.63563 ], [ -72.92016, -43.63571 ], [ -72.92281, -43.63603 ], [ -72.92558, -43.63704 ], [ -72.92699, -43.63773 ], [ -72.92796, -43.63878 ], [ -72.92842, -43.63988 ], [ -72.92865, -43.64203 ], [ -72.92918, -43.64321 ], [ -72.93059, -43.6443 ], [ -72.93207, -43.64512 ], [ -72.93368, -43.64551 ], [ -72.93481, -43.64525 ], [ -72.9389, -43.64197 ], [ -72.94126, -43.64113 ], [ -72.946, -43.64123 ], [ -72.94722, -43.64113 ], [ -72.94851, -43.64041 ], [ -72.94924, -43.63931 ], [ -72.95036, -43.63826 ], [ -72.95366, -43.6372 ] ], [ [ -72.87497, -43.65584 ], [ -72.8766, -43.65381 ], [ -72.87708, -43.65269 ], [ -72.87707, -43.65154 ], [ -72.87648, -43.65101 ], [ -72.87383, -43.65014 ], [ -72.87285, -43.64953 ], [ -72.8722, -43.64827 ], [ -72.87223, -43.64704 ], [ -72.87264, -43.64611 ], [ -72.87371, -43.64546 ], [ -72.87533, -43.64519 ], [ -72.87646, -43.6454 ], [ -72.87902, -43.64693 ], [ -72.88035, -43.6474 ], [ -72.8819, -43.64753 ], [ -72.88373, -43.64715 ], [ -72.88638, -43.64622 ], [ -72.88721, -43.64609 ] ] ] } },
{ "type": "Feature", "properties": { "nombre": "Río Ventisquero", "tipo": "river", "volcan_codigo": "MEL", "volcan_nombre": "Melimoyu", "drena_volcan": false }, "geometry": { "type": "LineString", "coordinates": [ [ -72.39675, -44.446 ], [ -72.39692, -44.44712 ], [ -72.39682, -44.44806 ], [ -72.39724, -44.44956 ], [ -72.3983, -44.45081 ], [ -72.39982, -44.4512 ], [ -72.40258, -44.45169 ], [ -72.404, -44.45097 ], [ -72.40588, -44.45084 ], [ -72.40753, -44.45011 ], [ -72.41437, -44.45044 ], [ -72.41669, -44.45154 ], [ -72.42099, -44.45408 ], [ -72.42651, -44.45386 ], [ -72.43071, -44.45287 ], [ -72.43457, -44.45353 ], [ -72.43932, -44.45496 ], [ -72.44186, -44.45838 ], [ -72.44748, -44.45916 ], [ -72.45035, -44.46004 ], [ -72.45444, -44.46015 ], [ -72.46228, -44.4649 ], [ -72.46554, -44.46785 ], [ -72.47037, -44.47064 ], [ -72.47431, -44.47198 ], [ -72.47523, -44.47216 ], [ -72.47653, -44.47216 ], [ -72.47744, -44.47253 ], [ -72.47767, -44.47292 ], [ -72.47806, -44.47316 ], [ -72.4802, -44.47327 ], [ -72.48321, -44.47383 ], [ -72.48397, -44.47453 ], [ -72.48459, -44.47582 ], [ -72.48513, -44.47618 ], [ -72.48555, -44.47673 ], [ -72.48597, -44.47794 ], [ -72.48801, -44.47824 ], [ -72.49038, -44.47774 ], [ -72.49366, -44.47878 ], [ -72.49495, -44.4786 ], [ -72.49575, -44.47866 ], [ -72.49677, -44.47931 ], [ -72.49728, -44.47943 ], [ -72.49893, -44.47928 ], [ -72.50088, -44.47857 ], [ -72.50445, -44.47841 ], [ -72.5054, -44.47814 ], [ -72.50726, -44.47699 ], [ -72.51011, -44.47612 ], [ -72.51407, -44.4752 ], [ -72.5151, -44.47446 ], [ -72.5161, -44.47441 ], [ -72.51689, -44.4746 ], [ -72.5182, -44.47623 ], [ -72.51955, -44.4765 ], [ -72.52005, -44.47638 ], [ -72.52039, -44.47619 ], [ -72.5204, -44.4755 ], [ -72.52061, -44.47517 ], [ -72.52182, -44.47444 ], [ -72.52371, -44.47399 ], [ -72.52552, -44.47423 ], [ -72.52625, -44.47401 ], [ -72.52713, -44.47311 ], [ -72.52935, -44.47192 ], [ -72.53007, -44.47112 ], [ -72.53057, -44.4709 ], [ -72.53167, -44.47083 ], [ -72.53392, -44.47126 ], [ -72.53423, -44.47105 ], [ -72.53418, -44.47061 ], [ -72.53545, -44.46981 ], [ -72.53863, -44.4694 ], [ -72.53949, -44.46896 ], [ -72.53981, -44.46846 ], [ -72.54037, -44.46809 ], [ -72.54042, -44.46761 ], [ -72.54125, -44.4669 ], [ -72.54216, -44.46695 ], [ -72.54306, -44.46751 ], [ -72.5442, -44.46796 ], [ -72.54491, -44.46796 ], [ -72.54597, -44.46757 ], [ -72.54701, -44.46745 ], [ -72.54843, -44.46686 ], [ -72.54965, -44.46675 ], [ -72.55152, -44.46561 ], [ -72.5519, -44.46455 ], [ -72.55185, -44.46361 ], [ -72.55379, -44.46058 ], [ -72.55483, -44.45992 ], [ -72.55626, -44.45963 ], [ -72.55803, -44.45894 ], [ -72.55839, -44.45901 ], [ -72.5589, -44.45955 ], [ -72.55949, -44.45986 ], [ -72.56251, -44.46073 ], [ -72.56318, -44.46077 ], [ -72.56504, -44.46011 ], [ -72.56596, -44.4602 ], [ -72.56749, -44.46218 ], [ -72.56859, -44.4628 ], [ -72.56934, -44.46301 ], [ -72.57058, -44.46301 ], [ -72.57363, -44.46248 ], [ -72.57631, -44.46231 ], [ -72.57684, -44.4624 ], [ -72.57856, -44.46382 ], [ -72.5795, -44.46429 ], [ -72.58354, -44.46539 ], [ -72.58519, -44.46562 ], [ -72.58631, -44.46556 ], [ -72.58746, -44.46585 ], [ -72.58922, -44.4672 ], [ -72.5948, -44.46826 ], [ -72.59563, -44.46862 ], [ -72.59769, -44.46995 ], [ -72.60072, -44.47086 ] ] } },
{ "type": "Feature", "properties": { "nombre": "Río Víctor", "tipo": "river", "volcan_codigo": "MEL", "volcan_nombre": "Melimoyu", "drena_volcan": false }, "geometry": { "type": "LineString", "coordinates": [ [ -72.64449, -44.08114 ], [ -72.64353, -44.08123 ], [ -72.64048, -44.08086 ], [ -72.63944, -44.08098 ], [ -72.63736, -44.08164 ], [ -72.63552, -44.08129 ], [ -72.63487, -44.08087 ], [ -72.63465, -44.08049 ], [ -72.63416, -44.08032 ], [ -72.63394, -44.07994 ], [ -72.63292, -44.07974 ], [ -72.63205, -44.07915 ], [ -72.63135, -44.07898 ], [ -72.62989, -44.0778 ], [ -72.62769, -44.07743 ], [ -72.62731, -44.07701 ], [ -72.62648, -44.07658 ], [ -72.6254, -44.07629 ], [ -72.62476, -44.07556 ], [ -72.62358, -44.07492 ], [ -72.62324, -44.07426 ], [ -72.62235, -44.07405 ], [ -72.62068, -44.07241 ], [ -72.61926, -44.07162 ], [ -72.61867, -44.07081 ], [ -72.61707, -44.07002 ], [ -72.61487, -44.06776 ], [ -72.61341, -44.06762 ], [ -72.61224, -44.06658 ], [ -72.6118, -44.06562 ], [ -72.61111, -44.06513 ], [ -72.60989, -44.06475 ], [ -72.60958, -44.06428 ], [ -72.60926, -44.06357 ], [ -72.60931, -44.06278 ], [ -72.60835, -44.06146 ], [ -72.60794, -44.05896 ], [ -72.60591, -44.0576 ], [ -72.60325, -44.05674 ], [ -72.60299, -44.05599 ], [ -72.6024, -44.05571 ], [ -72.60171, -44.05487 ], [ -72.60028, -44.05381 ], [ -72.60013, -44.05316 ], [ -72.59929, -44.05199 ], [ -72.59952, -44.05135 ], [ -72.59909, -44.05108 ], [ -72.59894, -44.05029 ], [ -72.59866, -44.0499 ], [ -72.59891, -44.04924 ], [ -72.59881, -44.04905 ], [ -72.59796, -44.04831 ], [ -72.59692, -44.04838 ], [ -72.59614, -44.04788 ], [ -72.59532, -44.04762 ], [ -72.59494, -44.04672 ], [ -72.59488, -44.04527 ], [ -72.59419, -44.04475 ], [ -72.59407, -44.04394 ], [ -72.59291, -44.04317 ], [ -72.59152, -44.04276 ], [ -72.59066, -44.04188 ], [ -72.59004, -44.04232 ], [ -72.58975, -44.04142 ], [ -72.59006, -44.04088 ], [ -72.58988, -44.0399 ], [ -72.58927, -44.03935 ], [ -72.58799, -44.0389 ], [ -72.58757, -44.03841 ], [ -72.58745, -44.038 ] ] } }
]
}
