{
"type": "FeatureCollection",
"name": "MEN",
"crs": { "type": "name", "properties": { "name": "urn:ogc:def:crs:OGC:1.3:CRS84" } },
"xy_coordinate_resolution": 1e-05,
"features": [
{ "type": "Feature", "properties": { "nombre": "Picacho", "tipo": "river", "volcan_codigo": "MEN", "volcan_nombre": "Mentolat", "drena_volcan": false }, "geometry": { "type": "LineString", "coordinates": [ [ -72.65167, -44.84745 ], [ -72.65215, -44.84689 ], [ -72.65288, -44.8448 ], [ -72.65348, -44.84425 ], [ -72.65469, -44.84376 ] ] } },
{ "type": "Feature", "properties": { "nombre": "Río Cisnes", "tipo": "river", "volcan_codigo": "MEN", "volcan_nombre": "Mentolat", "drena_volcan": false }, "geometry": { "type": "MultiLineString", "coordinates": [ [ [ -71.65888, -44.62919 ], [ -71.65911, -44.63011 ], [ -71.66029, -44.63281 ], [ -71.66099, -44.63381 ], [ -71.66186, -44.6345 ], [ -71.66328, -44.63496 ], [ -71.66737, -44.63494 ], [ -71.66939, -44.63518 ], [ -71.67058, -44.63575 ], [ -71.67143, -44.63693 ], [ -71.67199, -44.6374 ], [ -71.67477, -44.63821 ], [ -71.67603, -44.63877 ], [ -71.67763, -44.63976 ], [ -71.67923, -44.641 ], [ -71.68045, -44.64135 ], [ -71.68392, -44.64172 ], [ -71.68683, -44.64144 ], [ -71.68991, -44.64171 ], [ -71.69118, -44.64144 ], [ -71.69187, -44.64095 ], [ -71.69244, -44.64004 ], [ -71.69252, -44.63919 ], [ -71.69193, -44.63798 ], [ -71.69215, -44.63742 ], [ -71.69312, -44.63678 ], [ -71.69459, -44.63648 ], [ -71.69547, -44.63677 ], [ -71.6966, -44.63847 ], [ -71.69698, -44.63879 ], [ -71.69925, -44.64017 ], [ -71.70224, -44.64157 ], [ -71.70377, -44.64177 ], [ -71.70591, -44.64098 ], [ -71.70709, -44.64019 ], [ -71.7077, -44.63957 ], [ -71.70873, -44.63912 ], [ -71.70948, -44.63899 ], [ -71.71099, -44.63906 ], [ -71.71336, -44.63947 ], [ -71.71473, -44.63927 ], [ -71.71592, -44.6387 ], [ -71.71645, -44.63794 ], [ -71.71652, -44.63743 ], [ -71.71607, -44.63538 ], [ -71.71665, -44.63432 ], [ -71.71732, -44.63413 ], [ -71.71887, -44.63457 ], [ -71.72133, -44.63568 ], [ -71.72533, -44.63625 ], [ -71.72705, -44.63527 ], [ -71.72922, -44.63458 ], [ -71.73117, -44.63466 ], [ -71.73261, -44.63542 ], [ -71.73472, -44.63727 ], [ -71.73592, -44.63715 ], [ -71.73763, -44.63764 ], [ -71.73893, -44.63688 ], [ -71.74055, -44.63813 ], [ -71.74473, -44.63882 ], [ -71.74662, -44.63821 ], [ -71.74817, -44.63882 ], [ -71.74879, -44.63788 ], [ -71.74834, -44.63662 ], [ -71.74879, -44.63593 ], [ -71.75137, -44.63642 ], [ -71.75383, -44.63808 ], [ -71.75583, -44.63764 ], [ -71.75566, -44.63617 ], [ -71.75795, -44.63515 ], [ -71.76081, -44.63568 ], [ -71.7619, -44.63527 ], [ -71.76138, -44.63417 ], [ -71.76184, -44.63324 ], [ -71.76373, -44.63397 ], [ -71.76559, -44.63381 ], [ -71.76871, -44.63507 ], [ -71.77541, -44.63593 ], [ -71.77987, -44.63569 ], [ -71.78259, -44.63589 ], [ -71.78468, -44.63642 ], [ -71.78502, -44.63813 ], [ -71.78639, -44.6413 ], [ -71.78705, -44.64358 ], [ -71.79, -44.64509 ], [ -71.79083, -44.64444 ], [ -71.79171, -44.6424 ], [ -71.79291, -44.64143 ], [ -71.79512, -44.64053 ], [ -71.79618, -44.64143 ], [ -71.79478, -44.64236 ], [ -71.79618, -44.64375 ], [ -71.79703, -44.64546 ], [ -71.796, -44.6468 ], [ -71.79577, -44.64779 ], [ -71.79875, -44.64814 ], [ -71.80339, -44.65071 ], [ -71.80493, -44.65071 ], [ -71.80613, -44.64961 ], [ -71.80922, -44.64961 ], [ -71.81283, -44.65046 ], [ -71.81332, -44.65378 ], [ -71.80954, -44.65592 ], [ -71.80611, -44.65604 ], [ -71.80459, -44.65888 ], [ -71.80648, -44.65937 ], [ -71.80761, -44.66136 ], [ -71.80868, -44.66239 ], [ -71.80959, -44.66387 ], [ -71.81163, -44.66474 ], [ -71.81369, -44.66438 ], [ -71.81489, -44.66487 ], [ -71.81695, -44.66523 ], [ -71.81866, -44.66658 ], [ -71.8219, -44.66752 ], [ -71.82502, -44.66914 ], [ -71.82742, -44.66999 ], [ -71.83051, -44.67195 ], [ -71.83374, -44.67167 ], [ -71.83872, -44.67228 ], [ -71.84167, -44.67292 ], [ -71.84167, -44.67439 ], [ -71.84012, -44.67573 ], [ -71.8413, -44.67685 ], [ -71.84973, -44.68037 ], [ -71.85209, -44.68113 ], [ -71.85738, -44.68372 ], [ -71.8607, -44.68509 ], [ -71.86177, -44.6857 ], [ -71.86307, -44.68726 ], [ -71.86435, -44.68782 ], [ -71.86545, -44.68789 ], [ -71.86586, -44.68745 ], [ -71.86602, -44.68483 ], [ -71.86716, -44.68371 ], [ -71.87013, -44.6824 ], [ -71.87146, -44.68209 ], [ -71.87309, -44.68254 ], [ -71.87585, -44.68262 ], [ -71.87778, -44.68298 ], [ -71.87963, -44.68312 ], [ -71.88101, -44.68283 ], [ -71.88192, -44.68219 ], [ -71.88359, -44.6815 ], [ -71.88613, -44.68153 ], [ -71.88818, -44.68256 ], [ -71.88982, -44.68287 ], [ -71.89331, -44.68253 ], [ -71.89488, -44.68257 ], [ -71.89638, -44.68282 ], [ -71.89986, -44.68257 ], [ -71.90337, -44.68163 ], [ -71.90391, -44.68168 ], [ -71.90975, -44.68063 ], [ -71.91067, -44.68082 ], [ -71.91208, -44.68036 ], [ -71.91367, -44.68016 ], [ -71.91506, -44.67973 ], [ -71.91854, -44.67904 ], [ -71.92191, -44.67895 ], [ -71.92275, -44.67864 ], [ -71.92292, -44.678 ], [ -71.92378, -44.67762 ], [ -71.92532, -44.67757 ], [ -71.92853, -44.67715 ], [ -71.92913, -44.67722 ], [ -71.92966, -44.677 ], [ -71.93042, -44.67695 ], [ -71.93361, -44.67733 ], [ -71.93583, -44.67673 ], [ -71.93738, -44.67587 ], [ -71.93938, -44.67586 ], [ -71.94215, -44.67623 ], [ -71.94361, -44.67582 ], [ -71.945, -44.67373 ], [ -71.94613, -44.67294 ], [ -71.94716, -44.67257 ], [ -71.9486, -44.67253 ], [ -71.95224, -44.67188 ], [ -71.95597, -44.6717 ], [ -71.96272, -44.67057 ], [ -71.96461, -44.67048 ], [ -71.96615, -44.67083 ], [ -71.96692, -44.67136 ], [ -71.96721, -44.67183 ], [ -71.96698, -44.67237 ], [ -71.96705, -44.67258 ], [ -71.96752, -44.67291 ], [ -71.97298, -44.67244 ], [ -71.97354, -44.67253 ], [ -71.97409, -44.67359 ], [ -71.97457, -44.67389 ], [ -71.97516, -44.67397 ], [ -71.97636, -44.67472 ], [ -71.97698, -44.67548 ], [ -71.97745, -44.67646 ], [ -71.97753, -44.67752 ], [ -71.97813, -44.6785 ], [ -71.97811, -44.67964 ], [ -71.97686, -44.68092 ], [ -71.97601, -44.68223 ], [ -71.976, -44.68255 ], [ -71.97667, -44.68307 ], [ -71.97862, -44.68361 ], [ -71.9798, -44.6843 ], [ -71.98065, -44.68454 ], [ -71.98189, -44.6852 ], [ -71.98243, -44.68616 ], [ -71.98334, -44.68689 ], [ -71.98429, -44.68684 ], [ -71.98639, -44.68707 ], [ -71.98731, -44.68796 ], [ -71.98898, -44.68803 ], [ -71.98959, -44.6885 ], [ -71.99025, -44.68957 ], [ -71.99116, -44.68993 ], [ -71.9938, -44.69179 ], [ -71.99496, -44.69206 ], [ -71.99638, -44.69216 ], [ -72.00227, -44.69105 ], [ -72.00375, -44.69055 ], [ -72.00854, -44.68782 ], [ -72.01112, -44.68586 ], [ -72.01151, -44.68521 ], [ -72.01247, -44.68464 ], [ -72.01315, -44.68449 ], [ -72.01727, -44.68518 ], [ -72.01906, -44.68513 ], [ -72.02099, -44.68473 ], [ -72.02159, -44.68475 ], [ -72.02272, -44.68512 ], [ -72.0243, -44.68631 ], [ -72.02449, -44.68665 ], [ -72.02458, -44.68701 ], [ -72.0244, -44.68897 ], [ -72.02507, -44.69015 ], [ -72.02721, -44.69181 ], [ -72.02809, -44.69191 ], [ -72.02853, -44.69176 ], [ -72.03035, -44.69034 ], [ -72.0341, -44.68684 ], [ -72.03466, -44.68593 ], [ -72.0357, -44.68532 ], [ -72.03696, -44.68513 ], [ -72.038, -44.68546 ], [ -72.03934, -44.68636 ], [ -72.03923, -44.68762 ], [ -72.04009, -44.68914 ], [ -72.04214, -44.6906 ], [ -72.04364, -44.69446 ], [ -72.04527, -44.69528 ], [ -72.04852, -44.69605 ], [ -72.0501, -44.69697 ], [ -72.05095, -44.69714 ], [ -72.05147, -44.69756 ], [ -72.05527, -44.69886 ], [ -72.05657, -44.69997 ], [ -72.05826, -44.70189 ], [ -72.06131, -44.70383 ], [ -72.06557, -44.70438 ], [ -72.06671, -44.70526 ], [ -72.06864, -44.70642 ], [ -72.07326, -44.71062 ], [ -72.08342, -44.71485 ], [ -72.08657, -44.71695 ], [ -72.08836, -44.71909 ], [ -72.09029, -44.72065 ], [ -72.09252, -44.72324 ], [ -72.09478, -44.7238 ], [ -72.09682, -44.72363 ], [ -72.09776, -44.72328 ], [ -72.09889, -44.72227 ], [ -72.10012, -44.71919 ], [ -72.10056, -44.71856 ], [ -72.10103, -44.71825 ], [ -72.10418, -44.71712 ], [ -72.10991, -44.71672 ], [ -72.11131, -44.71684 ], [ -72.1129, -44.7173 ], [ -72.11422, -44.71878 ], [ -72.11418, -44.72088 ], [ -72.11255, -44.722 ], [ -72.11236, -44.72287 ], [ -72.11357, -44.7246 ], [ -72.11505, -44.72538 ], [ -72.12289, -44.72628 ], [ -72.12512, -44.7262 ], [ -72.13121, -44.72532 ], [ -72.13478, -44.72373 ], [ -72.13592, -44.72211 ], [ -72.13676, -44.72169 ], [ -72.13694, -44.7207 ], [ -72.13594, -44.71853 ], [ -72.13646, -44.71668 ], [ -72.13693, -44.71573 ], [ -72.13954, -44.71378 ], [ -72.14256, -44.71261 ], [ -72.14474, -44.71253 ], [ -72.14668, -44.71301 ], [ -72.14873, -44.71422 ], [ -72.15161, -44.71548 ], [ -72.15366, -44.71559 ], [ -72.15451, -44.71521 ], [ -72.15518, -44.71448 ], [ -72.15734, -44.71478 ], [ -72.1599, -44.71548 ], [ -72.16131, -44.71599 ], [ -72.1641, -44.71874 ], [ -72.16563, -44.71968 ], [ -72.17088, -44.72108 ], [ -72.17357, -44.7207 ], [ -72.177, -44.71954 ], [ -72.17743, -44.71866 ], [ -72.17708, -44.71707 ], [ -72.17718, -44.71645 ], [ -72.17827, -44.71523 ], [ -72.18146, -44.71379 ], [ -72.18199, -44.71314 ], [ -72.18312, -44.71238 ], [ -72.18372, -44.71166 ], [ -72.184, -44.71097 ], [ -72.18347, -44.70987 ], [ -72.18349, -44.70934 ], [ -72.18363, -44.70918 ], [ -72.18388, -44.70906 ], [ -72.18471, -44.70916 ], [ -72.18584, -44.70832 ], [ -72.18799, -44.70708 ], [ -72.18946, -44.7065 ], [ -72.19165, -44.70523 ], [ -72.19318, -44.70502 ], [ -72.19486, -44.7053 ], [ -72.19574, -44.70525 ], [ -72.19663, -44.70504 ], [ -72.19882, -44.70399 ], [ -72.1994, -44.70386 ], [ -72.20289, -44.70417 ], [ -72.20513, -44.70411 ], [ -72.20888, -44.70306 ], [ -72.21094, -44.70282 ], [ -72.21354, -44.70279 ], [ -72.21575, -44.70329 ], [ -72.21865, -44.70346 ], [ -72.2194, -44.70378 ], [ -72.22077, -44.70492 ], [ -72.22278, -44.70522 ], [ -72.22319, -44.70517 ], [ -72.22436, -44.70443 ], [ -72.22656, -44.70378 ], [ -72.22769, -44.70319 ], [ -72.22896, -44.70282 ], [ -72.22995, -44.70169 ], [ -72.23128, -44.7011 ], [ -72.23166, -44.70117 ], [ -72.23193, -44.70156 ], [ -72.23233, -44.70174 ], [ -72.23297, -44.70162 ], [ -72.23434, -44.70177 ], [ -72.23521, -44.70089 ], [ -72.23601, -44.6986 ], [ -72.23658, -44.69773 ], [ -72.23869, -44.69693 ], [ -72.23976, -44.69608 ], [ -72.24247, -44.69297 ], [ -72.24367, -44.69194 ], [ -72.24457, -44.69124 ], [ -72.24661, -44.69024 ], [ -72.2474, -44.68909 ], [ -72.25002, -44.68766 ], [ -72.25015, -44.68743 ], [ -72.25014, -44.68682 ], [ -72.24994, -44.68631 ], [ -72.24779, -44.68293 ], [ -72.24742, -44.68136 ], [ -72.24714, -44.67911 ], [ -72.24727, -44.67869 ], [ -72.24984, -44.67532 ], [ -72.24995, -44.67437 ], [ -72.24923, -44.67088 ], [ -72.24961, -44.66998 ], [ -72.25073, -44.66906 ], [ -72.2523, -44.66855 ], [ -72.25352, -44.66847 ], [ -72.25485, -44.6689 ], [ -72.258, -44.6704 ], [ -72.25909, -44.67048 ], [ -72.25987, -44.67033 ], [ -72.267, -44.66706 ], [ -72.27089, -44.66475 ], [ -72.27178, -44.66437 ], [ -72.27247, -44.6643 ], [ -72.27319, -44.66439 ], [ -72.27427, -44.66479 ], [ -72.27869, -44.66741 ], [ -72.27958, -44.66754 ], [ -72.28373, -44.66721 ], [ -72.28582, -44.6664 ], [ -72.28985, -44.66626 ], [ -72.29028, -44.66638 ], [ -72.29061, -44.66675 ], [ -72.29045, -44.66731 ], [ -72.29299, -44.67238 ], [ -72.29377, -44.67333 ], [ -72.29516, -44.67402 ], [ -72.29829, -44.67399 ], [ -72.30046, -44.67367 ], [ -72.30471, -44.67267 ], [ -72.30875, -44.67056 ], [ -72.31155, -44.66994 ], [ -72.31353, -44.67011 ], [ -72.31687, -44.67076 ], [ -72.31838, -44.67064 ], [ -72.31903, -44.67038 ], [ -72.32225, -44.66774 ], [ -72.32541, -44.6661 ], [ -72.3264, -44.66601 ], [ -72.32922, -44.66645 ], [ -72.3302, -44.66636 ], [ -72.33075, -44.66612 ], [ -72.33376, -44.66375 ], [ -72.33603, -44.66261 ], [ -72.33768, -44.6612 ], [ -72.338, -44.6596 ], [ -72.33914, -44.65701 ], [ -72.33912, -44.65581 ], [ -72.3394, -44.6552 ], [ -72.34138, -44.65305 ], [ -72.34208, -44.65249 ], [ -72.34356, -44.6522 ], [ -72.34471, -44.65174 ], [ -72.34599, -44.65013 ], [ -72.34713, -44.64903 ], [ -72.35167, -44.64655 ], [ -72.3517, -44.64593 ], [ -72.3511, -44.64482 ], [ -72.35075, -44.64358 ], [ -72.35102, -44.64232 ], [ -72.35143, -44.64181 ], [ -72.35637, -44.64155 ], [ -72.35965, -44.64224 ], [ -72.36081, -44.64231 ], [ -72.3631, -44.64167 ], [ -72.36495, -44.64043 ], [ -72.36708, -44.63974 ], [ -72.37181, -44.63892 ], [ -72.37377, -44.63892 ], [ -72.37508, -44.63927 ], [ -72.37606, -44.6405 ], [ -72.3791, -44.64246 ], [ -72.38185, -44.6435 ], [ -72.3834, -44.64454 ], [ -72.38358, -44.64482 ], [ -72.3835, -44.64613 ], [ -72.3837, -44.64654 ], [ -72.38515, -44.64731 ], [ -72.38575, -44.64801 ], [ -72.38568, -44.64843 ], [ -72.38614, -44.64888 ], [ -72.38717, -44.64936 ], [ -72.38778, -44.64992 ], [ -72.38873, -44.65144 ], [ -72.38883, -44.65229 ], [ -72.38858, -44.6527 ], [ -72.38856, -44.65474 ], [ -72.38868, -44.65509 ], [ -72.39109, -44.65666 ], [ -72.3928, -44.65729 ], [ -72.3928, -44.65766 ], [ -72.39248, -44.65781 ], [ -72.39248, -44.658 ], [ -72.393, -44.65847 ], [ -72.39499, -44.65872 ], [ -72.39847, -44.65818 ], [ -72.40258, -44.65802 ], [ -72.40579, -44.65808 ], [ -72.40618, -44.65797 ], [ -72.40677, -44.6575 ], [ -72.40883, -44.65726 ], [ -72.41073, -44.6572 ], [ -72.41165, -44.65753 ], [ -72.41232, -44.65745 ], [ -72.41366, -44.65689 ], [ -72.41565, -44.65698 ], [ -72.41695, -44.65672 ], [ -72.41924, -44.65672 ], [ -72.41951, -44.65681 ], [ -72.41977, -44.65715 ], [ -72.41961, -44.65787 ], [ -72.41978, -44.65821 ], [ -72.42292, -44.66034 ], [ -72.42354, -44.66048 ], [ -72.42517, -44.66026 ], [ -72.42768, -44.66061 ], [ -72.42787, -44.661 ], [ -72.42786, -44.6616 ], [ -72.42841, -44.66237 ], [ -72.429, -44.6644 ], [ -72.42972, -44.66511 ], [ -72.4304, -44.66547 ], [ -72.43406, -44.66634 ], [ -72.43739, -44.66823 ], [ -72.44306, -44.66927 ], [ -72.44565, -44.67055 ], [ -72.44762, -44.67133 ], [ -72.44966, -44.67132 ], [ -72.45205, -44.67171 ], [ -72.4538, -44.67158 ], [ -72.45517, -44.67207 ], [ -72.45618, -44.67309 ], [ -72.45753, -44.6737 ], [ -72.45867, -44.67408 ], [ -72.46102, -44.67437 ], [ -72.46248, -44.67514 ], [ -72.464, -44.6762 ], [ -72.46633, -44.67937 ], [ -72.46769, -44.6805 ], [ -72.46875, -44.68102 ], [ -72.47106, -44.68087 ], [ -72.47381, -44.68097 ], [ -72.47805, -44.68071 ], [ -72.48456, -44.68072 ], [ -72.48638, -44.68128 ], [ -72.48877, -44.68141 ], [ -72.49137, -44.68118 ], [ -72.49644, -44.68112 ], [ -72.49839, -44.68144 ], [ -72.50902, -44.68222 ], [ -72.50999, -44.68284 ], [ -72.51023, -44.68329 ], [ -72.5103, -44.68444 ], [ -72.50967, -44.687 ], [ -72.50982, -44.68857 ], [ -72.51026, -44.68941 ], [ -72.51095, -44.69019 ], [ -72.5116, -44.69073 ], [ -72.51606, -44.69209 ], [ -72.52014, -44.69392 ], [ -72.523, -44.69472 ], [ -72.52402, -44.6952 ], [ -72.52515, -44.69677 ], [ -72.52641, -44.69762 ], [ -72.53046, -44.69805 ], [ -72.53782, -44.69786 ], [ -72.53965, -44.69752 ], [ -72.54135, -44.69697 ], [ -72.54409, -44.6966 ], [ -72.54526, -44.69692 ], [ -72.54574, -44.69722 ], [ -72.547, -44.69909 ], [ -72.55089, -44.70398 ], [ -72.55336, -44.70673 ], [ -72.55487, -44.70766 ], [ -72.55765, -44.70866 ], [ -72.55924, -44.70952 ], [ -72.5597, -44.71039 ], [ -72.55954, -44.71124 ], [ -72.55956, -44.71283 ], [ -72.56194, -44.71636 ], [ -72.56155, -44.71795 ], [ -72.56292, -44.72114 ], [ -72.56285, -44.72181 ], [ -72.56233, -44.72302 ], [ -72.56058, -44.72477 ], [ -72.56058, -44.72536 ], [ -72.56082, -44.72566 ], [ -72.56161, -44.7263 ], [ -72.56445, -44.72925 ], [ -72.56857, -44.73098 ], [ -72.57568, -44.73344 ], [ -72.57928, -44.73368 ], [ -72.58083, -44.73441 ], [ -72.58183, -44.73517 ], [ -72.58184, -44.73737 ], [ -72.58292, -44.73955 ], [ -72.58497, -44.73948 ], [ -72.58847, -44.73984 ], [ -72.591, -44.73962 ], [ -72.59198, -44.73972 ], [ -72.59221, -44.73991 ], [ -72.59227, -44.74051 ], [ -72.59205, -44.74163 ], [ -72.59258, -44.74392 ], [ -72.59304, -44.74481 ], [ -72.59296, -44.74643 ], [ -72.59368, -44.75065 ], [ -72.59446, -44.752 ], [ -72.59566, -44.75358 ], [ -72.59634, -44.75547 ], [ -72.5978, -44.75626 ], [ -72.60072, -44.75699 ], [ -72.6051, -44.75699 ], [ -72.60716, -44.75632 ], [ -72.60948, -44.7562 ], [ -72.61085, -44.75632 ], [ -72.61274, -44.75772 ], [ -72.61531, -44.76102 ], [ -72.61712, -44.76443 ], [ -72.61806, -44.76565 ], [ -72.61909, -44.7662 ], [ -72.6233, -44.76687 ], [ -72.63348, -44.76669 ], [ -72.63439, -44.76677 ], [ -72.63658, -44.76755 ], [ -72.63808, -44.76857 ], [ -72.63949, -44.77092 ], [ -72.64004, -44.77265 ], [ -72.64008, -44.77445 ], [ -72.64059, -44.77558 ], [ -72.64222, -44.77701 ], [ -72.64359, -44.77765 ], [ -72.64578, -44.77826 ], [ -72.64698, -44.77829 ], [ -72.64922, -44.77783 ], [ -72.64999, -44.77719 ], [ -72.64947, -44.77649 ], [ -72.64887, -44.77485 ], [ -72.649, -44.76995 ], [ -72.64941, -44.76877 ], [ -72.65033, -44.76735 ], [ -72.65106, -44.76692 ], [ -72.65471, -44.76574 ], [ -72.65694, -44.76562 ], [ -72.65982, -44.76577 ], [ -72.6614, -44.76617 ], [ -72.66218, -44.76702 ], [ -72.66146, -44.77034 ], [ -72.66142, -44.77118 ], [ -72.66204, -44.77226 ], [ -72.66271, -44.77298 ], [ -72.66361, -44.77377 ], [ -72.66569, -44.77513 ], [ -72.66796, -44.77599 ], [ -72.66985, -44.77624 ], [ -72.67181, -44.77599 ], [ -72.67335, -44.77526 ], [ -72.67393, -44.77468 ], [ -72.67445, -44.77337 ], [ -72.67471, -44.77083 ], [ -72.6732, -44.76732 ], [ -72.67323, -44.76678 ], [ -72.67396, -44.76548 ], [ -72.67509, -44.76455 ], [ -72.67608, -44.76406 ], [ -72.6781, -44.76376 ], [ -72.67974, -44.76385 ], [ -72.6815, -44.76442 ], [ -72.68311, -44.76558 ], [ -72.68442, -44.76698 ], [ -72.68484, -44.76832 ], [ -72.68453, -44.76947 ], [ -72.68339, -44.77125 ], [ -72.68278, -44.77345 ], [ -72.6825, -44.77395 ], [ -72.68161, -44.77479 ], [ -72.6778, -44.77668 ], [ -72.67642, -44.77793 ], [ -72.67484, -44.78003 ], [ -72.67454, -44.781 ], [ -72.67449, -44.78323 ], [ -72.67492, -44.78469 ], [ -72.67582, -44.78563 ], [ -72.67724, -44.78581 ], [ -72.67847, -44.78509 ], [ -72.67914, -44.78381 ], [ -72.68127, -44.7817 ], [ -72.68178, -44.78063 ], [ -72.68195, -44.77938 ], [ -72.68256, -44.77858 ], [ -72.68535, -44.77718 ], [ -72.68881, -44.77585 ], [ -72.69825, -44.77174 ], [ -72.69988, -44.77096 ], [ -72.70102, -44.7701 ], [ -72.70139, -44.7696 ], [ -72.70159, -44.76892 ], [ -72.70158, -44.76803 ], [ -72.70088, -44.76393 ], [ -72.70091, -44.7626 ], [ -72.70167, -44.7616 ], [ -72.70264, -44.76116 ], [ -72.70418, -44.76105 ], [ -72.70733, -44.76188 ], [ -72.70967, -44.76193 ], [ -72.71026, -44.76178 ], [ -72.71137, -44.76114 ], [ -72.71313, -44.75957 ] ], [ [ -72.71313, -44.75957 ], [ -72.71427, -44.75822 ], [ -72.71486, -44.75705 ], [ -72.7151, -44.75554 ], [ -72.71508, -44.75467 ], [ -72.71484, -44.7538 ], [ -72.71406, -44.75287 ], [ -72.71322, -44.75237 ], [ -72.70835, -44.75056 ], [ -72.70735, -44.75002 ], [ -72.7062, -44.74888 ], [ -72.70561, -44.7473 ], [ -72.70566, -44.74689 ], [ -72.70607, -44.74615 ], [ -72.70876, -44.74369 ], [ -72.70933, -44.74278 ], [ -72.70954, -44.74214 ], [ -72.70976, -44.74018 ], [ -72.70979, -44.73705 ] ] ] } },
{ "type": "Feature", "properties": { "nombre": "Río Picacho", "tipo": "river", "volcan_codigo": "MEN", "volcan_nombre": "Mentolat", "drena_volcan": false }, "geometry": { "type": "MultiLineString", "coordinates": [ [ [ -72.66252, -44.79634 ], [ -72.66374, -44.79463 ], [ -72.66407, -44.79395 ], [ -72.66419, -44.7928 ], [ -72.66447, -44.79209 ], [ -72.66499, -44.79166 ], [ -72.66609, -44.79131 ], [ -72.66902, -44.79076 ], [ -72.67161, -44.78952 ], [ -72.6729, -44.78919 ], [ -72.67676, -44.78861 ], [ -72.67747, -44.78814 ], [ -72.67793, -44.78756 ], [ -72.67846, -44.78584 ], [ -72.67847, -44.78509 ] ], [ [ -72.65714, -44.87559 ], [ -72.6581, -44.87412 ], [ -72.65918, -44.87332 ], [ -72.65963, -44.87263 ], [ -72.66175, -44.87075 ], [ -72.66392, -44.86793 ], [ -72.66385, -44.86728 ], [ -72.66199, -44.86436 ], [ -72.6571, -44.85916 ], [ -72.65521, -44.85777 ], [ -72.65433, -44.85642 ], [ -72.65173, -44.85397 ], [ -72.64926, -44.85119 ], [ -72.64909, -44.85065 ], [ -72.65167, -44.84745 ], [ -72.65257, -44.8472 ], [ -72.65409, -44.84737 ], [ -72.65521, -44.84716 ], [ -72.65586, -44.84685 ] ] ] } },
{ "type": "Feature", "properties": { "nombre": "Río San Luis", "tipo": "stream", "volcan_codigo": "MEN", "volcan_nombre": "Mentolat", "drena_volcan": false }, "geometry": { "type": "LineString", "coordinates": [ [ -72.67736, -44.72226 ], [ -72.67827, -44.72237 ], [ -72.67859, -44.72257 ], [ -72.67852, -44.72297 ], [ -72.67813, -44.72345 ], [ -72.67836, -44.72432 ], [ -72.67783, -44.72488 ], [ -72.67812, -44.72525 ], [ -72.67894, -44.72534 ], [ -72.67916, -44.72555 ], [ -72.67874, -44.72615 ], [ -72.67778, -44.72632 ], [ -72.67744, -44.72668 ], [ -72.67744, -44.72703 ], [ -72.67936, -44.72807 ], [ -72.68072, -44.72833 ], [ -72.681, -44.72925 ], [ -72.68074, -44.73001 ], [ -72.6808, -44.73043 ], [ -72.68139, -44.73075 ], [ -72.68201, -44.73064 ] ] } },
{ "type": "Feature", "properties": { "nombre": "Río Uspallante", "tipo": "stream", "volcan_codigo": "MEN", "volcan_nombre": "Mentolat", "drena_volcan": false }, "geometry": { "type": "MultiLineString", "coordinates": [ [ [ -73.19361, -45.07952 ], [ -73.19305, -45.07831 ], [ -73.19329, -45.07777 ], [ -73.19288, -45.07735 ], [ -73.19305, -45.07695 ], [ -73.19294, -45.07654 ], [ -73.19306, -45.07624 ], [ -73.19296, -45.07552 ], [ -73.19253, -45.07443 ], [ -73.19254, -45.07371 ], [ -73.19138, -45.07229 ], [ -73.19175, -45.07143 ], [ -73.19112, -45.07064 ], [ -73.19113, -45.07004 ], [ -73.19135, -45.06972 ], [ -73.19113, -45.0689 ], [ -73.19069, -45.06856 ], [ -73.19097, -45.06788 ], [ -73.19048, -45.06722 ], [ -73.19078, -45.06694 ], [ -73.19079, -45.06621 ], [ -73.19106, -45.06577 ], [ -73.19115, -45.0647 ], [ -73.19143, -45.06404 ], [ -73.19135, -45.06375 ], [ -73.19184, -45.06309 ], [ -73.19226, -45.06296 ], [ -73.19243, -45.0627 ], [ -73.19229, -45.06224 ], [ -73.19276, -45.06187 ], [ -73.19281, -45.06164 ], [ -73.19203, -45.06107 ], [ -73.19172, -45.05994 ], [ -73.19247, -45.05833 ], [ -73.19228, -45.0565 ], [ -73.19174, -45.05624 ], [ -73.19165, -45.056 ], [ -73.19213, -45.05488 ], [ -73.19195, -45.05452 ], [ -73.19131, -45.05403 ], [ -73.19136, -45.05356 ], [ -73.19081, -45.05291 ], [ -73.191, -45.05218 ], [ -73.19033, -45.05155 ], [ -73.19039, -45.05096 ], [ -73.191, -45.05041 ], [ -73.19047, -45.04962 ], [ -73.19079, -45.04917 ], [ -73.19085, -45.04853 ], [ -73.19158, -45.04752 ], [ -73.192, -45.04649 ], [ -73.19172, -45.04585 ], [ -73.19153, -45.04416 ], [ -73.19039, -45.04296 ], [ -73.19031, -45.04261 ], [ -73.18943, -45.04201 ] ], [ [ -73.18943, -45.04201 ], [ -73.18892, -45.04037 ], [ -73.18905, -45.04001 ], [ -73.18841, -45.03871 ], [ -73.18933, -45.03761 ], [ -73.1893, -45.03713 ], [ -73.18878, -45.03642 ], [ -73.18883, -45.03607 ], [ -73.18905, -45.03584 ], [ -73.18998, -45.03554 ], [ -73.19012, -45.03524 ], [ -73.18987, -45.03481 ], [ -73.18989, -45.03418 ], [ -73.1906, -45.03379 ], [ -73.19077, -45.03354 ], [ -73.19037, -45.03277 ], [ -73.1906, -45.03151 ], [ -73.19055, -45.03123 ], [ -73.18998, -45.03087 ], [ -73.18973, -45.03021 ], [ -73.18894, -45.02946 ], [ -73.18886, -45.02921 ], [ -73.18917, -45.02857 ], [ -73.18871, -45.02748 ], [ -73.18874, -45.02678 ], [ -73.18856, -45.02621 ], [ -73.18873, -45.02532 ], [ -73.18855, -45.02488 ], [ -73.18765, -45.02425 ], [ -73.18706, -45.02338 ], [ -73.18709, -45.02301 ], [ -73.18743, -45.02242 ], [ -73.18706, -45.02176 ], [ -73.18764, -45.01939 ], [ -73.18753, -45.01827 ], [ -73.18735, -45.01812 ], [ -73.18637, -45.01807 ], [ -73.18578, -45.01765 ], [ -73.18578, -45.0173 ], [ -73.18613, -45.01682 ], [ -73.18621, -45.01638 ], [ -73.1861, -45.01586 ], [ -73.18665, -45.01484 ], [ -73.18542, -45.01401 ], [ -73.18544, -45.01352 ], [ -73.18657, -45.01228 ], [ -73.18666, -45.01189 ], [ -73.18628, -45.01115 ], [ -73.18496, -45.01054 ], [ -73.18474, -45.0102 ], [ -73.18474, -45.00966 ], [ -73.18537, -45.00876 ], [ -73.18529, -45.00859 ], [ -73.18458, -45.00832 ], [ -73.18413, -45.00723 ], [ -73.18278, -45.00725 ], [ -73.18252, -45.00697 ], [ -73.18237, -45.00611 ], [ -73.18179, -45.00544 ], [ -73.18169, -45.00501 ], [ -73.18193, -45.0043 ], [ -73.18188, -45.00399 ], [ -73.18096, -45.0032 ], [ -73.18074, -45.0027 ], [ -73.18072, -45.00226 ], [ -73.18112, -45.00151 ], [ -73.18088, -45.00117 ], [ -73.17909, -45.0009 ], [ -73.17839, -45.00056 ], [ -73.17778, -44.99984 ], [ -73.17716, -44.99958 ], [ -73.17638, -44.99952 ], [ -73.17599, -44.99929 ], [ -73.17543, -44.99808 ], [ -73.17385, -44.99741 ], [ -73.17266, -44.99596 ], [ -73.17229, -44.99529 ], [ -73.17222, -44.99396 ], [ -73.17168, -44.99327 ], [ -73.17087, -44.9926 ], [ -73.17058, -44.99161 ], [ -73.17033, -44.99133 ], [ -73.16863, -44.99099 ], [ -73.16862, -44.99001 ], [ -73.16736, -44.98899 ], [ -73.16737, -44.98866 ], [ -73.16774, -44.98795 ], [ -73.16751, -44.9874 ], [ -73.16711, -44.98724 ], [ -73.16425, -44.98723 ], [ -73.16362, -44.98705 ], [ -73.16326, -44.98659 ], [ -73.16322, -44.98619 ], [ -73.16293, -44.98569 ], [ -73.16074, -44.9834 ], [ -73.16014, -44.98298 ], [ -73.15747, -44.98261 ], [ -73.15715, -44.98234 ], [ -73.15598, -44.97985 ], [ -73.15516, -44.9793 ], [ -73.15426, -44.97919 ], [ -73.15344, -44.97885 ], [ -73.1499, -44.97584 ], [ -73.14915, -44.97435 ], [ -73.14903, -44.97284 ], [ -73.14867, -44.97234 ], [ -73.1474, -44.97133 ], [ -73.14544, -44.97106 ], [ -73.14409, -44.97062 ], [ -73.14344, -44.96981 ], [ -73.14329, -44.96884 ], [ -73.14256, -44.96815 ], [ -73.13948, -44.9665 ], [ -73.13932, -44.96625 ], [ -73.13927, -44.96555 ], [ -73.14036, -44.96405 ], [ -73.14021, -44.96354 ], [ -73.13978, -44.96328 ], [ -73.13783, -44.96295 ], [ -73.13661, -44.96221 ], [ -73.13651, -44.96124 ], [ -73.13719, -44.95954 ], [ -73.13701, -44.95799 ], [ -73.13635, -44.95537 ], [ -73.13522, -44.9538 ], [ -73.13114, -44.9496 ], [ -73.12762, -44.94801 ], [ -73.12776, -44.94651 ], [ -73.12804, -44.94583 ], [ -73.12774, -44.94524 ], [ -73.12568, -44.9439 ], [ -73.1244, -44.94355 ], [ -73.1219, -44.94329 ], [ -73.11878, -44.94264 ], [ -73.11727, -44.94166 ], [ -73.1155, -44.94196 ], [ -73.1128, -44.94208 ], [ -73.11088, -44.94332 ], [ -73.11019, -44.94314 ], [ -73.10771, -44.94152 ], [ -73.10563, -44.94135 ], [ -73.10498, -44.94144 ] ] ] } }
]
}
