{
"type": "FeatureCollection",
"name": "TIP",
"crs": { "type": "name", "properties": { "name": "urn:ogc:def:crs:OGC:1.3:CRS84" } },
"xy_coordinate_resolution": 1e-05,
"features": [
{ "type": "Feature", "properties": { "nombre": "Arroyo Agua Dulce", "tipo": "stream", "volcan_codigo": "TIP", "volcan_nombre": "Tipas", "drena_volcan": false }, "geometry": { "type": "MultiLineString", "coordinates": [ [ [ -68.37635, -26.96274 ], [ -68.37663, -26.96206 ], [ -68.37663, -26.96127 ], [ -68.37521, -26.95945 ], [ -68.37502, -26.95845 ], [ -68.37524, -26.95801 ], [ -68.37587, -26.95762 ], [ -68.37626, -26.95699 ], [ -68.37603, -26.9562 ], [ -68.37502, -26.95577 ], [ -68.37339, -26.95475 ], [ -68.37254, -26.95378 ], [ -68.37222, -26.95267 ], [ -68.37254, -26.95202 ], [ -68.37391, -26.95091 ], [ -68.37417, -26.95051 ], [ -68.37448, -26.94941 ], [ -68.37507, -26.94877 ], [ -68.37533, -26.94813 ], [ -68.37475, -26.94716 ], [ -68.37405, -26.94664 ], [ -68.37323, -26.94646 ], [ -68.37259, -26.94607 ], [ -68.3719, -26.94419 ], [ -68.37312, -26.93986 ], [ -68.37242, -26.93582 ], [ -68.37109, -26.93286 ], [ -68.37048, -26.93074 ], [ -68.37044, -26.92903 ], [ -68.37147, -26.92569 ], [ -68.3723, -26.92399 ], [ -68.3738, -26.92197 ], [ -68.37662, -26.91976 ], [ -68.37894, -26.91864 ], [ -68.38105, -26.91781 ], [ -68.38731, -26.91631 ], [ -68.39384, -26.91358 ], [ -68.39498, -26.91288 ], [ -68.39849, -26.91137 ], [ -68.39942, -26.91125 ], [ -68.40214, -26.91159 ], [ -68.40367, -26.91148 ], [ -68.40478, -26.91122 ], [ -68.40629, -26.91133 ], [ -68.40817, -26.91116 ], [ -68.4093, -26.91135 ], [ -68.41354, -26.91135 ], [ -68.41879, -26.91211 ], [ -68.4238, -26.91243 ], [ -68.43055, -26.91215 ], [ -68.43213, -26.91168 ], [ -68.4327, -26.91134 ], [ -68.43428, -26.91115 ], [ -68.43486, -26.91071 ], [ -68.43513, -26.91021 ], [ -68.43771, -26.90856 ], [ -68.43787, -26.90817 ], [ -68.43918, -26.9079 ], [ -68.43993, -26.90808 ], [ -68.44103, -26.90776 ], [ -68.44126, -26.90712 ], [ -68.44234, -26.90601 ], [ -68.44275, -26.90517 ], [ -68.44304, -26.90374 ], [ -68.44259, -26.90269 ], [ -68.44254, -26.9023 ], [ -68.4428, -26.90213 ] ], [ [ -68.44295, -26.90202 ], [ -68.44398, -26.90108 ], [ -68.44381, -26.90058 ], [ -68.44405, -26.90028 ] ], [ [ -68.4428, -26.90213 ], [ -68.44295, -26.90202 ] ] ] } },
{ "type": "Feature", "properties": { "nombre": "Cazadero", "tipo": "river", "volcan_codigo": "TIP", "volcan_nombre": "Tipas", "drena_volcan": false }, "geometry": { "type": "LineString", "coordinates": [ [ -68.37876, -27.27047 ], [ -68.37838, -27.27137 ], [ -68.37642, -27.2728 ], [ -68.3732, -27.27412 ], [ -68.36938, -27.27833 ], [ -68.36799, -27.27951 ], [ -68.36559, -27.28102 ], [ -68.36209, -27.28476 ], [ -68.36029, -27.2864 ], [ -68.35844, -27.29502 ], [ -68.35728, -27.29721 ], [ -68.35654, -27.29787 ], [ -68.35498, -27.29873 ], [ -68.3542, -27.2995 ], [ -68.35407, -27.29944 ], [ -68.35227, -27.30118 ], [ -68.3519, -27.30196 ], [ -68.35201, -27.30262 ], [ -68.35159, -27.30323 ], [ -68.34897, -27.3049 ], [ -68.34794, -27.30579 ], [ -68.34707, -27.30884 ], [ -68.3461, -27.31015 ], [ -68.34505, -27.31062 ], [ -68.3445, -27.31112 ], [ -68.34293, -27.3113 ], [ -68.34218, -27.3121 ], [ -68.34103, -27.31217 ], [ -68.33939, -27.31267 ], [ -68.33776, -27.31411 ], [ -68.33736, -27.31487 ], [ -68.33732, -27.31579 ], [ -68.33691, -27.31742 ], [ -68.33634, -27.31834 ], [ -68.33631, -27.31864 ], [ -68.33597, -27.31898 ], [ -68.33633, -27.32084 ], [ -68.33578, -27.32176 ], [ -68.33596, -27.32228 ], [ -68.33588, -27.32265 ], [ -68.33653, -27.3238 ], [ -68.3365, -27.32416 ], [ -68.33685, -27.32477 ], [ -68.33675, -27.3256 ], [ -68.3371, -27.3261 ], [ -68.33737, -27.32702 ], [ -68.33704, -27.32774 ], [ -68.33791, -27.32943 ], [ -68.33789, -27.33013 ], [ -68.33813, -27.3306 ], [ -68.33792, -27.33089 ], [ -68.33816, -27.33228 ], [ -68.3387, -27.33324 ], [ -68.33906, -27.33461 ], [ -68.34016, -27.33608 ], [ -68.3422, -27.33833 ], [ -68.3428, -27.33975 ], [ -68.34284, -27.34041 ], [ -68.34128, -27.344 ], [ -68.34024, -27.34558 ], [ -68.33875, -27.34715 ], [ -68.33789, -27.34758 ], [ -68.33753, -27.34807 ], [ -68.33496, -27.34911 ], [ -68.33505, -27.3494 ], [ -68.33531, -27.34951 ], [ -68.33536, -27.34986 ], [ -68.33512, -27.35001 ], [ -68.33412, -27.35024 ], [ -68.33329, -27.35014 ], [ -68.33264, -27.35038 ], [ -68.33179, -27.35015 ], [ -68.3308, -27.35053 ], [ -68.33013, -27.35021 ], [ -68.32992, -27.34973 ], [ -68.32941, -27.34962 ], [ -68.32915, -27.34924 ], [ -68.32818, -27.34871 ], [ -68.32799, -27.34874 ], [ -68.32796, -27.34857 ], [ -68.32761, -27.34846 ], [ -68.3274, -27.34861 ], [ -68.32656, -27.34859 ], [ -68.32644, -27.34845 ], [ -68.3263, -27.34862 ], [ -68.32572, -27.34856 ], [ -68.32581, -27.34834 ], [ -68.32561, -27.3483 ], [ -68.32507, -27.34858 ], [ -68.32496, -27.34841 ], [ -68.32368, -27.34859 ], [ -68.32359, -27.34876 ], [ -68.323, -27.34893 ], [ -68.32286, -27.34928 ], [ -68.3219, -27.34936 ], [ -68.32156, -27.34969 ], [ -68.3213, -27.3495 ], [ -68.32016, -27.35004 ], [ -68.32006, -27.3499 ], [ -68.31921, -27.35009 ], [ -68.31918, -27.34981 ], [ -68.31865, -27.34998 ], [ -68.318, -27.34944 ], [ -68.31711, -27.34921 ], [ -68.31623, -27.34863 ], [ -68.31589, -27.34867 ], [ -68.3147, -27.34808 ], [ -68.31358, -27.34874 ], [ -68.31114, -27.34895 ], [ -68.30972, -27.34816 ], [ -68.30839, -27.34771 ], [ -68.30767, -27.34686 ], [ -68.30748, -27.34589 ], [ -68.3072, -27.34562 ], [ -68.30656, -27.34542 ], [ -68.30634, -27.34554 ], [ -68.30564, -27.34525 ], [ -68.30484, -27.34448 ], [ -68.30448, -27.34458 ], [ -68.30337, -27.34418 ], [ -68.30308, -27.34421 ], [ -68.30125, -27.34328 ], [ -68.30058, -27.34361 ], [ -68.30038, -27.34344 ], [ -68.30015, -27.34375 ], [ -68.29996, -27.34328 ], [ -68.29993, -27.34347 ], [ -68.29895, -27.34272 ], [ -68.29878, -27.34235 ], [ -68.29595, -27.34256 ], [ -68.29524, -27.34225 ], [ -68.29433, -27.34226 ], [ -68.29445, -27.3425 ], [ -68.2931, -27.34295 ], [ -68.29262, -27.34333 ], [ -68.29161, -27.3429 ], [ -68.29085, -27.34291 ], [ -68.29021, -27.34322 ], [ -68.28972, -27.34312 ], [ -68.28819, -27.34234 ], [ -68.28746, -27.34227 ], [ -68.28696, -27.34246 ], [ -68.28669, -27.34225 ], [ -68.28659, -27.34261 ], [ -68.28613, -27.34288 ], [ -68.28508, -27.34286 ], [ -68.28278, -27.34337 ], [ -68.28114, -27.34292 ], [ -68.28093, -27.34251 ], [ -68.28054, -27.34222 ], [ -68.28011, -27.34222 ], [ -68.27885, -27.34146 ], [ -68.27728, -27.34097 ], [ -68.2764, -27.34046 ], [ -68.27495, -27.34031 ], [ -68.27353, -27.33965 ], [ -68.27291, -27.33915 ], [ -68.27102, -27.34065 ], [ -68.27081, -27.3416 ], [ -68.27086, -27.34206 ], [ -68.27025, -27.34238 ], [ -68.26924, -27.34331 ], [ -68.26908, -27.34365 ], [ -68.26691, -27.34469 ], [ -68.2659, -27.3448 ], [ -68.26502, -27.3455 ], [ -68.26398, -27.34588 ], [ -68.26381, -27.34624 ], [ -68.26337, -27.34646 ], [ -68.26216, -27.34817 ], [ -68.26194, -27.3487 ], [ -68.26176, -27.35019 ], [ -68.26148, -27.35088 ], [ -68.2617, -27.35187 ], [ -68.26069, -27.35394 ], [ -68.2607, -27.35445 ], [ -68.26094, -27.35488 ], [ -68.26079, -27.35511 ], [ -68.26125, -27.35613 ], [ -68.26166, -27.35635 ], [ -68.26199, -27.35816 ], [ -68.26144, -27.3593 ], [ -68.26083, -27.36008 ], [ -68.26039, -27.36035 ], [ -68.26025, -27.36098 ], [ -68.2604, -27.36106 ], [ -68.26037, -27.36125 ], [ -68.26013, -27.36155 ], [ -68.26035, -27.36174 ], [ -68.26009, -27.3623 ], [ -68.25914, -27.36288 ], [ -68.25839, -27.3631 ], [ -68.25705, -27.36275 ], [ -68.25657, -27.36287 ], [ -68.25576, -27.36271 ], [ -68.2544, -27.36307 ], [ -68.25281, -27.36404 ], [ -68.2527, -27.36431 ], [ -68.25218, -27.36461 ], [ -68.25183, -27.36506 ], [ -68.25138, -27.36526 ], [ -68.25079, -27.36612 ], [ -68.25059, -27.36676 ], [ -68.25117, -27.36731 ], [ -68.25077, -27.36762 ], [ -68.25033, -27.36748 ], [ -68.24969, -27.36779 ], [ -68.24868, -27.36737 ], [ -68.24836, -27.36753 ], [ -68.24765, -27.36738 ], [ -68.24677, -27.36651 ], [ -68.24546, -27.3661 ], [ -68.24484, -27.36616 ], [ -68.24384, -27.36653 ], [ -68.24305, -27.36751 ], [ -68.24159, -27.36845 ], [ -68.24152, -27.36885 ], [ -68.24174, -27.36922 ], [ -68.24201, -27.36917 ], [ -68.24226, -27.36949 ], [ -68.24206, -27.36994 ], [ -68.24229, -27.36986 ], [ -68.24208, -27.37028 ], [ -68.24122, -27.37054 ], [ -68.24075, -27.3706 ], [ -68.2403, -27.37044 ], [ -68.23974, -27.37064 ], [ -68.23885, -27.37055 ], [ -68.23789, -27.37072 ], [ -68.237, -27.37048 ], [ -68.23594, -27.37091 ], [ -68.23495, -27.37092 ], [ -68.2341, -27.37144 ], [ -68.23254, -27.3716 ], [ -68.23067, -27.37229 ], [ -68.22996, -27.37214 ], [ -68.22959, -27.37227 ], [ -68.22926, -27.37204 ], [ -68.22907, -27.37164 ], [ -68.22836, -27.37142 ], [ -68.22736, -27.37146 ], [ -68.22741, -27.37168 ], [ -68.22714, -27.37207 ], [ -68.2261, -27.37223 ], [ -68.22556, -27.37207 ], [ -68.22475, -27.37274 ], [ -68.2239, -27.37302 ], [ -68.22254, -27.37287 ], [ -68.22042, -27.37323 ], [ -68.21969, -27.37285 ], [ -68.21933, -27.37284 ], [ -68.21868, -27.37306 ], [ -68.21759, -27.37379 ], [ -68.21742, -27.37423 ], [ -68.21694, -27.3745 ], [ -68.21664, -27.37498 ], [ -68.21673, -27.37512 ], [ -68.21647, -27.37537 ], [ -68.21646, -27.37596 ], [ -68.21668, -27.3762 ], [ -68.21666, -27.37655 ], [ -68.21484, -27.37722 ], [ -68.21323, -27.37735 ], [ -68.21184, -27.37925 ], [ -68.21079, -27.37955 ], [ -68.20964, -27.38047 ], [ -68.20826, -27.38113 ], [ -68.20726, -27.38126 ], [ -68.20663, -27.3816 ], [ -68.20542, -27.3819 ], [ -68.20433, -27.38193 ], [ -68.20297, -27.3827 ], [ -68.20213, -27.38288 ], [ -68.20113, -27.38263 ], [ -68.20049, -27.38278 ], [ -68.19997, -27.38268 ], [ -68.19838, -27.38331 ], [ -68.19588, -27.38399 ], [ -68.19384, -27.38531 ], [ -68.19113, -27.38655 ], [ -68.18877, -27.38716 ], [ -68.18856, -27.38735 ], [ -68.18686, -27.38789 ], [ -68.18575, -27.38858 ], [ -68.18513, -27.38858 ], [ -68.18412, -27.38924 ], [ -68.18295, -27.38948 ], [ -68.17994, -27.39103 ], [ -68.17862, -27.39213 ], [ -68.17616, -27.39311 ], [ -68.17527, -27.39322 ], [ -68.17421, -27.39378 ], [ -68.17317, -27.39445 ], [ -68.17144, -27.39607 ], [ -68.17146, -27.39624 ], [ -68.17031, -27.39708 ], [ -68.16829, -27.39765 ], [ -68.16687, -27.39768 ], [ -68.16598, -27.39818 ], [ -68.16545, -27.39824 ], [ -68.16407, -27.39909 ], [ -68.16332, -27.39936 ], [ -68.16318, -27.39959 ], [ -68.16196, -27.39987 ], [ -68.16182, -27.40005 ], [ -68.16111, -27.40005 ], [ -68.16005, -27.40062 ], [ -68.15918, -27.4012 ], [ -68.1591, -27.4015 ], [ -68.15864, -27.40182 ], [ -68.15816, -27.40179 ], [ -68.15741, -27.40237 ], [ -68.15677, -27.40255 ], [ -68.15621, -27.40326 ], [ -68.15553, -27.40366 ], [ -68.15492, -27.40444 ], [ -68.15276, -27.40562 ], [ -68.15261, -27.40614 ], [ -68.15193, -27.40663 ], [ -68.15086, -27.40693 ], [ -68.15057, -27.40725 ], [ -68.14757, -27.40793 ], [ -68.14658, -27.40846 ], [ -68.14599, -27.4096 ], [ -68.1451, -27.4103 ], [ -68.14358, -27.41074 ], [ -68.14307, -27.41168 ], [ -68.1426, -27.4117 ] ] } },
{ "type": "Feature", "properties": { "nombre": "Quebrada Cerro Colorado", "tipo": "stream", "volcan_codigo": "TIP", "volcan_nombre": "Tipas", "drena_volcan": false }, "geometry": { "type": "LineString", "coordinates": [ [ -68.93596, -26.91339 ], [ -68.9366, -26.91287 ], [ -68.9369, -26.91221 ], [ -68.93849, -26.9105 ], [ -68.93969, -26.90966 ], [ -68.9407, -26.90933 ], [ -68.94814, -26.90978 ], [ -68.94982, -26.91012 ], [ -68.95143, -26.9102 ], [ -68.95422, -26.90912 ], [ -68.95484, -26.90832 ], [ -68.95718, -26.90815 ], [ -68.95913, -26.9083 ], [ -68.96074, -26.90813 ], [ -68.96188, -26.90752 ], [ -68.96252, -26.90692 ], [ -68.96533, -26.90514 ], [ -68.96636, -26.90486 ], [ -68.97039, -26.90568 ], [ -68.97242, -26.90645 ], [ -68.97341, -26.90646 ], [ -68.97481, -26.90641 ], [ -68.97697, -26.9053 ], [ -68.97796, -26.90524 ], [ -68.9789, -26.90493 ], [ -68.98348, -26.9047 ], [ -68.98489, -26.90491 ], [ -68.99088, -26.90677 ], [ -68.99255, -26.90702 ], [ -68.99399, -26.90757 ], [ -68.99575, -26.90796 ], [ -68.99903, -26.90995 ], [ -69.00004, -26.91041 ], [ -69.00077, -26.91098 ], [ -69.0041, -26.91226 ], [ -69.00489, -26.91278 ], [ -69.00667, -26.9133 ], [ -69.00783, -26.91328 ], [ -69.0094, -26.91364 ], [ -69.01049, -26.91427 ], [ -69.01693, -26.91559 ], [ -69.01873, -26.91609 ], [ -69.02335, -26.91681 ], [ -69.02615, -26.91745 ], [ -69.03079, -26.91804 ], [ -69.03381, -26.9174 ] ] } },
{ "type": "Feature", "properties": { "nombre": "Quebrada Cienaga", "tipo": "stream", "volcan_codigo": "TIP", "volcan_nombre": "Tipas", "drena_volcan": false }, "geometry": { "type": "MultiLineString", "coordinates": [ [ [ -69.00487, -27.27092 ], [ -69.00527, -27.26992 ], [ -69.00613, -27.26875 ], [ -69.00641, -27.26791 ], [ -69.00609, -27.26704 ], [ -69.00504, -27.26528 ], [ -69.00508, -27.26375 ], [ -69.00461, -27.26299 ], [ -69.00234, -27.26057 ], [ -69.00038, -27.26004 ], [ -68.99826, -27.2588 ], [ -68.99759, -27.25803 ], [ -68.99697, -27.2567 ], [ -68.99622, -27.25601 ], [ -68.99551, -27.25426 ], [ -68.99515, -27.25237 ], [ -68.99573, -27.2512 ], [ -68.99641, -27.24842 ], [ -68.99656, -27.24636 ], [ -68.99834, -27.23751 ], [ -68.99903, -27.23525 ], [ -69.00058, -27.23281 ], [ -69.00079, -27.23001 ], [ -69.00079, -27.2269 ], [ -69.00193, -27.22169 ], [ -69.0036, -27.21659 ], [ -69.00551, -27.21278 ], [ -69.00789, -27.20908 ], [ -69.0092, -27.20566 ], [ -69.01042, -27.20392 ], [ -69.01109, -27.20158 ], [ -69.01075, -27.19915 ], [ -69.00952, -27.19707 ], [ -69.00897, -27.19564 ], [ -69.00819, -27.19194 ], [ -69.00751, -27.19033 ], [ -69.00622, -27.18816 ], [ -69.00585, -27.18388 ], [ -69.00367, -27.17762 ], [ -69.00354, -27.17527 ], [ -69.00216, -27.17222 ], [ -69.0006, -27.16983 ], [ -69.0003, -27.16878 ], [ -68.99955, -27.1677 ], [ -68.99948, -27.16628 ], [ -68.99993, -27.16466 ], [ -68.99948, -27.16344 ], [ -68.9992, -27.16201 ], [ -68.99937, -27.16006 ], [ -69.00216, -27.15456 ], [ -69.00294, -27.15267 ], [ -69.00422, -27.15101 ], [ -69.00512, -27.14843 ], [ -69.00523, -27.14744 ], [ -69.00596, -27.14599 ], [ -69.00558, -27.14297 ], [ -69.00512, -27.14251 ], [ -69.00472, -27.14177 ], [ -69.00452, -27.14119 ], [ -69.00457, -27.14072 ], [ -69.00399, -27.13967 ], [ -69.00369, -27.13818 ], [ -69.00412, -27.13751 ], [ -69.00452, -27.1348 ], [ -69.00545, -27.13302 ], [ -69.00562, -27.13157 ], [ -69.00673, -27.12916 ], [ -69.00813, -27.12752 ], [ -69.00982, -27.12592 ], [ -69.01345, -27.12167 ], [ -69.01693, -27.11564 ], [ -69.02012, -27.11262 ], [ -69.02188, -27.10958 ], [ -69.02379, -27.10744 ], [ -69.02648, -27.10368 ], [ -69.03068, -27.09948 ], [ -69.03448, -27.0972 ], [ -69.03654, -27.09548 ], [ -69.04025, -27.09331 ], [ -69.04274, -27.09229 ], [ -69.04634, -27.09122 ], [ -69.05495, -27.08706 ], [ -69.05875, -27.08629 ], [ -69.06102, -27.08482 ], [ -69.06484, -27.08326 ], [ -69.07023, -27.08228 ], [ -69.08059, -27.07835 ], [ -69.08681, -27.0746 ], [ -69.0905, -27.0738 ], [ -69.09297, -27.07271 ], [ -69.09685, -27.06996 ], [ -69.10011, -27.06793 ], [ -69.10382, -27.06692 ], [ -69.11131, -27.0636 ], [ -69.11419, -27.06272 ], [ -69.11721, -27.06121 ], [ -69.12434, -27.057 ], [ -69.12705, -27.05441 ], [ -69.13136, -27.05139 ], [ -69.13477, -27.04948 ], [ -69.14, -27.04621 ] ], [ [ -69.0048, -27.27113 ], [ -69.00487, -27.27092 ] ], [ [ -69.02974, -27.41571 ], [ -69.0286, -27.4147 ], [ -69.02744, -27.41275 ], [ -69.02669, -27.41191 ], [ -69.02594, -27.4099 ], [ -69.02579, -27.40822 ], [ -69.02506, -27.40628 ], [ -69.02503, -27.40397 ], [ -69.02525, -27.40222 ], [ -69.02613, -27.40094 ], [ -69.02615, -27.39763 ], [ -69.02598, -27.39688 ], [ -69.02491, -27.39544 ], [ -69.02339, -27.39399 ], [ -69.02055, -27.39163 ], [ -69.01568, -27.38822 ], [ -69.01429, -27.38684 ], [ -69.01313, -27.38557 ], [ -69.01206, -27.38357 ], [ -69.00982, -27.38082 ], [ -69.00856, -27.37957 ], [ -69.00721, -27.37884 ], [ -69.0063, -27.37768 ], [ -69.00506, -27.37547 ], [ -69.00452, -27.37229 ], [ -69.00452, -27.37112 ], [ -69.00504, -27.37011 ], [ -69.0048, -27.36729 ], [ -69.00502, -27.36638 ], [ -69.00538, -27.36571 ], [ -69.00579, -27.36552 ], [ -69.00592, -27.36508 ], [ -69.00568, -27.36436 ], [ -69.00727, -27.35956 ], [ -69.00901, -27.35683 ], [ -69.0089, -27.35474 ], [ -69.00933, -27.35211 ], [ -69.00909, -27.3506 ], [ -69.00886, -27.34534 ], [ -69.00916, -27.34408 ], [ -69.00871, -27.34181 ], [ -69.00871, -27.34078 ], [ -69.0092, -27.33897 ], [ -69.00918, -27.33777 ], [ -69.01023, -27.33329 ], [ -69.00974, -27.33125 ], [ -69.00957, -27.3296 ], [ -69.01085, -27.3259 ], [ -69.01135, -27.3238 ], [ -69.01244, -27.32085 ], [ -69.01276, -27.31869 ], [ -69.01409, -27.31646 ], [ -69.01517, -27.3153 ], [ -69.01811, -27.31127 ], [ -69.01877, -27.30944 ], [ -69.01924, -27.30725 ], [ -69.0192, -27.3055 ], [ -69.01871, -27.30169 ], [ -69.01768, -27.29942 ], [ -69.01695, -27.29713 ], [ -69.01422, -27.29522 ], [ -69.0104, -27.29368 ], [ -69.00811, -27.29128 ], [ -69.00643, -27.28826 ], [ -69.00598, -27.28801 ], [ -69.00603, -27.28777 ], [ -69.00463, -27.28691 ], [ -69.00379, -27.28554 ], [ -69.00369, -27.28491 ], [ -69.00319, -27.28439 ], [ -69.00356, -27.28346 ], [ -69.00332, -27.2833 ], [ -69.00356, -27.28321 ], [ -69.00356, -27.28296 ], [ -69.0033, -27.28288 ], [ -69.00367, -27.2825 ], [ -69.00367, -27.28224 ], [ -69.00397, -27.28225 ], [ -69.00382, -27.28176 ], [ -69.00407, -27.28164 ], [ -69.00394, -27.28142 ], [ -69.0042, -27.28134 ], [ -69.00407, -27.28113 ], [ -69.00418, -27.28048 ], [ -69.00455, -27.28021 ], [ -69.00474, -27.27701 ], [ -69.00517, -27.2764 ], [ -69.00534, -27.2759 ], [ -69.00527, -27.27514 ], [ -69.00558, -27.27474 ], [ -69.00521, -27.27283 ], [ -69.00448, -27.27209 ], [ -69.0048, -27.27113 ] ], [ [ -69.02987, -27.41578 ], [ -69.02974, -27.41571 ] ], [ [ -69.05019, -27.45021 ], [ -69.04976, -27.44898 ], [ -69.04905, -27.44833 ], [ -69.04765, -27.44572 ], [ -69.0469, -27.44505 ], [ -69.04516, -27.44275 ], [ -69.04416, -27.44107 ], [ -69.03969, -27.43833 ], [ -69.03819, -27.43704 ], [ -69.0375, -27.4357 ], [ -69.03759, -27.4326 ], [ -69.03808, -27.43102 ], [ -69.03801, -27.43015 ], [ -69.03735, -27.42755 ], [ -69.03598, -27.4261 ], [ -69.0348, -27.42523 ], [ -69.03308, -27.42306 ], [ -69.03293, -27.42262 ], [ -69.03291, -27.42071 ], [ -69.03265, -27.42024 ], [ -69.0319, -27.41984 ], [ -69.0316, -27.41932 ], [ -69.03107, -27.4175 ], [ -69.03049, -27.41635 ], [ -69.02987, -27.41578 ] ] ] } },
{ "type": "Feature", "properties": { "nombre": "Quebrada Colorada", "tipo": "stream", "volcan_codigo": "TIP", "volcan_nombre": "Tipas", "drena_volcan": false }, "geometry": { "type": "LineString", "coordinates": [ [ -68.93693, -26.96026 ], [ -68.93745, -26.96166 ], [ -68.93914, -26.9642 ], [ -68.9394, -26.96629 ], [ -68.93918, -26.96728 ], [ -68.93944, -26.9686 ], [ -68.93994, -26.96936 ], [ -68.94137, -26.97091 ], [ -68.94367, -26.97269 ], [ -68.94496, -26.97418 ], [ -68.94682, -26.97462 ], [ -68.94742, -26.97524 ], [ -68.94848, -26.97883 ], [ -68.9494, -26.98028 ], [ -68.95028, -26.98095 ], [ -68.95176, -26.98143 ], [ -68.95309, -26.98222 ], [ -68.95854, -26.98204 ], [ -68.96159, -26.98114 ], [ -68.9624, -26.98109 ], [ -68.96414, -26.98137 ], [ -68.96541, -26.98025 ], [ -68.96607, -26.97989 ], [ -68.9674, -26.97961 ], [ -68.9685, -26.97996 ], [ -68.96958, -26.97974 ], [ -68.97098, -26.979 ], [ -68.97197, -26.9787 ], [ -68.97501, -26.97843 ], [ -68.97626, -26.9781 ], [ -68.98137, -26.97801 ], [ -68.98282, -26.97778 ], [ -68.98478, -26.97786 ], [ -68.98534, -26.97742 ], [ -68.98671, -26.97686 ], [ -68.991, -26.97679 ], [ -68.99239, -26.97701 ], [ -68.99287, -26.97732 ], [ -68.99557, -26.97768 ], [ -69.00171, -26.97965 ], [ -69.00872, -26.98348 ], [ -69.01046, -26.98415 ], [ -69.01569, -26.98549 ], [ -69.01891, -26.98583 ], [ -69.02104, -26.9857 ], [ -69.02365, -26.98489 ], [ -69.02786, -26.98283 ], [ -69.02964, -26.98179 ], [ -69.03082, -26.98145 ], [ -69.03608, -26.97901 ], [ -69.04084, -26.97814 ], [ -69.04301, -26.97652 ], [ -69.04531, -26.97539 ], [ -69.04713, -26.97491 ], [ -69.04818, -26.97428 ], [ -69.05041, -26.97275 ], [ -69.05095, -26.97187 ], [ -69.05352, -26.9696 ], [ -69.05517, -26.96855 ] ] } },
{ "type": "Feature", "properties": { "nombre": "Quebrada El Fraile", "tipo": "stream", "volcan_codigo": "TIP", "volcan_nombre": "Tipas", "drena_volcan": false }, "geometry": { "type": "LineString", "coordinates": [ [ -68.42646, -27.04942 ], [ -68.42581, -27.04904 ], [ -68.42519, -27.04835 ], [ -68.42289, -27.0466 ], [ -68.42208, -27.04612 ], [ -68.42154, -27.04551 ], [ -68.41947, -27.04487 ], [ -68.41805, -27.04364 ], [ -68.41882, -27.03981 ], [ -68.41882, -27.03875 ], [ -68.41725, -27.03584 ], [ -68.41686, -27.03387 ], [ -68.4165, -27.03286 ], [ -68.41468, -27.03025 ], [ -68.41303, -27.02672 ], [ -68.41208, -27.02531 ], [ -68.41073, -27.02442 ], [ -68.41022, -27.02383 ], [ -68.40848, -27.02259 ], [ -68.40631, -27.02217 ], [ -68.40455, -27.02111 ], [ -68.40429, -27.01928 ], [ -68.40442, -27.0185 ], [ -68.40427, -27.01755 ], [ -68.40448, -27.01662 ], [ -68.40427, -27.01617 ], [ -68.40461, -27.01487 ], [ -68.40271, -27.0092 ], [ -68.40174, -27.00786 ], [ -68.40139, -27.00712 ], [ -68.40137, -27.00647 ], [ -68.4018, -27.0051 ], [ -68.40157, -27.00403 ], [ -68.39816, -27.00074 ], [ -68.39751, -26.9996 ], [ -68.39686, -26.99826 ], [ -68.39647, -26.99604 ], [ -68.39634, -26.99365 ], [ -68.39648, -26.99307 ], [ -68.39595, -26.99166 ], [ -68.39407, -26.98934 ], [ -68.39441, -26.98483 ], [ -68.39507, -26.98339 ], [ -68.39518, -26.98258 ], [ -68.39573, -26.98105 ], [ -68.39427, -26.97655 ], [ -68.39249, -26.97456 ], [ -68.39099, -26.97443 ], [ -68.38968, -26.97482 ], [ -68.3882, -26.97479 ], [ -68.38727, -26.97443 ], [ -68.38632, -26.97382 ], [ -68.38561, -26.9731 ], [ -68.38496, -26.97206 ], [ -68.38399, -26.96959 ], [ -68.3828, -26.96811 ], [ -68.3801, -26.96699 ], [ -68.37863, -26.96686 ], [ -68.37755, -26.9662 ], [ -68.37635, -26.96274 ] ] } },
{ "type": "Feature", "properties": { "nombre": "Quebrada Falso Azufre", "tipo": "stream", "volcan_codigo": "TIP", "volcan_nombre": "Tipas", "drena_volcan": false }, "geometry": { "type": "LineString", "coordinates": [ [ -68.37218, -26.83369 ], [ -68.37218, -26.83568 ], [ -68.37274, -26.83648 ], [ -68.37362, -26.83901 ], [ -68.37377, -26.84048 ], [ -68.37377, -26.84169 ], [ -68.37302, -26.84251 ], [ -68.37242, -26.84358 ], [ -68.3736, -26.84556 ], [ -68.37504, -26.84697 ], [ -68.37517, -26.84755 ], [ -68.3748, -26.84984 ], [ -68.37521, -26.85496 ], [ -68.37463, -26.85716 ], [ -68.37448, -26.85867 ], [ -68.37521, -26.85972 ], [ -68.37729, -26.86039 ], [ -68.37839, -26.86166 ], [ -68.38113, -26.86319 ], [ -68.38169, -26.86539 ], [ -68.38182, -26.86719 ], [ -68.38238, -26.86916 ], [ -68.38493, -26.8731 ], [ -68.38695, -26.87586 ], [ -68.38836, -26.8771 ], [ -68.38959, -26.87919 ], [ -68.39008, -26.88133 ], [ -68.39364, -26.88692 ], [ -68.39431, -26.88839 ], [ -68.39813, -26.89071 ], [ -68.39894, -26.89138 ], [ -68.39883, -26.89471 ], [ -68.39999, -26.89601 ], [ -68.40205, -26.89703 ], [ -68.40401, -26.89739 ], [ -68.40476, -26.89773 ], [ -68.40512, -26.89812 ], [ -68.40538, -26.89882 ], [ -68.40971, -26.9012 ], [ -68.41192, -26.90125 ], [ -68.42044, -26.90078 ], [ -68.42523, -26.89976 ], [ -68.43252, -26.8993 ], [ -68.43658, -26.89926 ], [ -68.43917, -26.89875 ], [ -68.44051, -26.89821 ], [ -68.44111, -26.89771 ], [ -68.44177, -26.89747 ] ] } },
{ "type": "Feature", "properties": { "nombre": "Quebrada La Guacapa", "tipo": "stream", "volcan_codigo": "TIP", "volcan_nombre": "Tipas", "drena_volcan": false }, "geometry": { "type": "MultiLineString", "coordinates": [ [ [ -68.94493, -26.88484 ], [ -68.94658, -26.88388 ], [ -68.9469, -26.88356 ], [ -68.94703, -26.883 ], [ -68.94761, -26.88252 ], [ -68.9487, -26.88233 ], [ -68.95025, -26.8817 ], [ -68.95081, -26.88138 ], [ -68.9513, -26.88069 ], [ -68.9531, -26.87998 ], [ -68.95366, -26.87937 ], [ -68.95379, -26.87866 ], [ -68.95471, -26.87749 ], [ -68.954, -26.87713 ], [ -68.95387, -26.87692 ], [ -68.9539, -26.87638 ], [ -68.95418, -26.87588 ], [ -68.9546, -26.87542 ], [ -68.95555, -26.875 ], [ -68.95585, -26.87458 ], [ -68.9589, -26.87253 ], [ -68.96106, -26.87135 ], [ -68.96308, -26.8707 ], [ -68.96711, -26.87114 ], [ -68.96973, -26.87179 ], [ -68.97068, -26.87217 ], [ -68.97183, -26.87286 ], [ -68.97299, -26.87412 ], [ -68.97398, -26.8745 ], [ -68.97529, -26.87473 ], [ -68.97718, -26.8759 ], [ -68.97795, -26.87621 ], [ -68.97907, -26.8773 ], [ -68.9805, -26.8778 ], [ -68.98187, -26.87776 ], [ -68.98328, -26.87885 ], [ -68.98491, -26.88088 ], [ -68.98747, -26.88193 ], [ -68.98828, -26.88287 ], [ -68.98852, -26.88337 ], [ -68.99008, -26.8848 ], [ -68.9903, -26.88538 ], [ -68.99223, -26.88746 ], [ -68.9933, -26.88804 ], [ -68.99734, -26.89156 ], [ -68.99863, -26.89215 ], [ -69.00058, -26.89257 ], [ -69.0024, -26.89326 ], [ -69.00354, -26.89326 ], [ -69.00598, -26.89269 ], [ -69.00725, -26.89265 ], [ -69.01101, -26.89322 ], [ -69.0144, -26.89437 ], [ -69.01583, -26.89521 ], [ -69.01839, -26.89596 ], [ -69.02073, -26.89695 ], [ -69.02493, -26.89716 ], [ -69.02624, -26.8976 ], [ -69.02686, -26.89814 ], [ -69.02778, -26.89841 ] ], [ [ -69.028, -26.89847 ], [ -69.03068, -26.89925 ], [ -69.03259, -26.89938 ], [ -69.03678, -26.9001 ] ], [ [ -69.02778, -26.89841 ], [ -69.028, -26.89847 ] ] ] } },
{ "type": "Feature", "properties": { "nombre": "Quebrada Las Amarillas", "tipo": "stream", "volcan_codigo": "TIP", "volcan_nombre": "Tipas", "drena_volcan": false }, "geometry": { "type": "LineString", "coordinates": [ [ -68.42922, -26.73046 ], [ -68.42884, -26.73181 ], [ -68.42881, -26.73289 ], [ -68.42974, -26.73407 ], [ -68.4304, -26.7353 ], [ -68.43182, -26.73588 ], [ -68.43272, -26.73726 ], [ -68.43345, -26.73804 ], [ -68.43543, -26.73854 ], [ -68.43817, -26.7389 ], [ -68.43909, -26.73921 ], [ -68.44034, -26.74011 ], [ -68.44347, -26.74314 ], [ -68.44431, -26.74423 ], [ -68.44525, -26.74586 ], [ -68.44682, -26.74701 ], [ -68.44976, -26.74866 ], [ -68.4506, -26.74858 ], [ -68.45152, -26.74806 ], [ -68.45214, -26.74737 ], [ -68.45332, -26.74693 ], [ -68.45416, -26.74701 ], [ -68.45517, -26.74758 ], [ -68.45585, -26.74833 ], [ -68.45847, -26.75205 ], [ -68.46019, -26.75383 ], [ -68.46411, -26.7623 ], [ -68.46424, -26.7631 ], [ -68.46343, -26.76586 ], [ -68.46263, -26.77015 ], [ -68.46087, -26.77462 ], [ -68.45969, -26.77657 ], [ -68.45946, -26.77782 ], [ -68.45836, -26.77922 ], [ -68.45798, -26.78019 ], [ -68.45375, -26.78649 ], [ -68.45334, -26.78795 ], [ -68.45343, -26.78874 ], [ -68.45547, -26.79163 ], [ -68.46062, -26.79374 ], [ -68.46323, -26.79416 ], [ -68.46279, -26.79585 ], [ -68.46359, -26.79809 ], [ -68.46316, -26.8006 ], [ -68.46305, -26.80386 ], [ -68.46344, -26.80579 ], [ -68.46449, -26.80717 ], [ -68.46565, -26.80819 ], [ -68.46601, -26.80901 ], [ -68.46605, -26.81051 ], [ -68.46678, -26.81217 ], [ -68.46884, -26.81495 ], [ -68.46859, -26.81813 ], [ -68.46796, -26.82029 ], [ -68.46822, -26.82452 ], [ -68.46704, -26.82757 ], [ -68.46685, -26.8305 ], [ -68.46869, -26.83259 ], [ -68.47071, -26.83561 ], [ -68.4723, -26.83741 ], [ -68.47414, -26.84093 ], [ -68.47423, -26.84195 ], [ -68.47382, -26.84329 ], [ -68.47256, -26.84522 ], [ -68.47472, -26.84911 ], [ -68.47567, -26.85137 ], [ -68.4776, -26.85403 ], [ -68.48028, -26.85518 ], [ -68.48189, -26.85631 ], [ -68.48268, -26.85776 ], [ -68.48067, -26.85948 ], [ -68.4792, -26.86011 ] ] } },
{ "type": "Feature", "properties": { "nombre": "Quebrada Las Lajitas", "tipo": "stream", "volcan_codigo": "TIP", "volcan_nombre": "Tipas", "drena_volcan": false }, "geometry": { "type": "MultiLineString", "coordinates": [ [ [ -68.94289, -26.99499 ], [ -68.94582, -27.00012 ], [ -68.94597, -27.00087 ], [ -68.94586, -27.0023 ], [ -68.94626, -27.00401 ], [ -68.94677, -27.00468 ], [ -68.94749, -27.0062 ], [ -68.94773, -27.01027 ], [ -68.94954, -27.01315 ], [ -68.94992, -27.01443 ], [ -68.94987, -27.01552 ], [ -68.94954, -27.01658 ], [ -68.94966, -27.01735 ], [ -68.94922, -27.01741 ], [ -68.94869, -27.01709 ], [ -68.94807, -27.01743 ], [ -68.94796, -27.01896 ], [ -68.9485, -27.02139 ], [ -68.94918, -27.02322 ], [ -68.95031, -27.02407 ], [ -68.95075, -27.02525 ], [ -68.95036, -27.02593 ], [ -68.95008, -27.02715 ], [ -68.95016, -27.02753 ], [ -68.95075, -27.02845 ], [ -68.95127, -27.02895 ], [ -68.95231, -27.03119 ], [ -68.95331, -27.03261 ], [ -68.95579, -27.03459 ], [ -68.95747, -27.03505 ], [ -68.95812, -27.03562 ], [ -68.96019, -27.03691 ], [ -68.96153, -27.03822 ], [ -68.9619, -27.03911 ], [ -68.96187, -27.04009 ], [ -68.96135, -27.04057 ], [ -68.96097, -27.04203 ], [ -68.96099, -27.04278 ], [ -68.96194, -27.04543 ], [ -68.96259, -27.04608 ], [ -68.96344, -27.04636 ], [ -68.96409, -27.04694 ], [ -68.96468, -27.04777 ], [ -68.96528, -27.04791 ], [ -68.96804, -27.05089 ], [ -68.96879, -27.0522 ], [ -68.96874, -27.05297 ], [ -68.96966, -27.05459 ], [ -68.97006, -27.05581 ], [ -68.97173, -27.05763 ], [ -68.97365, -27.05798 ], [ -68.97538, -27.05907 ], [ -68.97665, -27.06037 ], [ -68.97755, -27.06093 ], [ -68.97921, -27.06152 ], [ -68.98042, -27.06293 ], [ -68.98101, -27.06324 ] ], [ [ -68.98112, -27.0633 ], [ -68.98182, -27.06358 ], [ -68.98242, -27.06351 ], [ -68.98316, -27.06302 ], [ -68.98387, -27.06278 ], [ -68.98498, -27.0628 ], [ -68.98552, -27.06344 ], [ -68.98591, -27.06438 ], [ -68.98743, -27.06519 ], [ -68.99043, -27.06641 ], [ -68.991, -27.06711 ], [ -68.99297, -27.06866 ], [ -68.99423, -27.06855 ], [ -68.99534, -27.06781 ], [ -68.99915, -27.06728 ] ], [ [ -68.98101, -27.06324 ], [ -68.98112, -27.0633 ] ] ] } },
{ "type": "Feature", "properties": { "nombre": "Quebrada Las Torres", "tipo": "stream", "volcan_codigo": "TIP", "volcan_nombre": "Tipas", "drena_volcan": false }, "geometry": { "type": "LineString", "coordinates": [ [ -68.88048, -26.81029 ], [ -68.88003, -26.8086 ], [ -68.87941, -26.80774 ], [ -68.87855, -26.80699 ], [ -68.87848, -26.80619 ], [ -68.87868, -26.80443 ], [ -68.87831, -26.80374 ], [ -68.87814, -26.80226 ], [ -68.87874, -26.79977 ], [ -68.87838, -26.79774 ], [ -68.87797, -26.79663 ], [ -68.87718, -26.79581 ], [ -68.87495, -26.79412 ], [ -68.87175, -26.7933 ], [ -68.8663, -26.79341 ], [ -68.85912, -26.79278 ], [ -68.85581, -26.79225 ], [ -68.85257, -26.79096 ], [ -68.84888, -26.78893 ], [ -68.84678, -26.7882 ], [ -68.84322, -26.78861 ], [ -68.84088, -26.7883 ], [ -68.83948, -26.78769 ], [ -68.83869, -26.78675 ], [ -68.83828, -26.7842 ], [ -68.83826, -26.78311 ], [ -68.83764, -26.78144 ], [ -68.83624, -26.77978 ], [ -68.833, -26.77769 ], [ -68.83088, -26.77602 ], [ -68.8281, -26.77467 ] ] } },
{ "type": "Feature", "properties": { "nombre": "Quebrada Los Barriales", "tipo": "stream", "volcan_codigo": "TIP", "volcan_nombre": "Tipas", "drena_volcan": false }, "geometry": { "type": "MultiLineString", "coordinates": [ [ [ -68.54455, -26.87085 ], [ -68.54383, -26.87056 ], [ -68.54227, -26.87058 ], [ -68.54062, -26.86993 ], [ -68.5365, -26.86943 ], [ -68.53521, -26.86905 ], [ -68.53429, -26.86832 ], [ -68.5309, -26.86719 ], [ -68.52813, -26.86666 ], [ -68.52163, -26.86444 ], [ -68.52014, -26.86356 ], [ -68.51763, -26.86296 ], [ -68.51624, -26.86233 ], [ -68.51435, -26.86222 ], [ -68.51315, -26.86164 ], [ -68.51184, -26.86137 ], [ -68.5086, -26.8599 ], [ -68.5077, -26.8589 ], [ -68.50654, -26.85809 ], [ -68.50515, -26.858 ], [ -68.50311, -26.85877 ], [ -68.50043, -26.86042 ], [ -68.49809, -26.86256 ], [ -68.49558, -26.863 ], [ -68.49431, -26.86256 ], [ -68.49111, -26.86319 ], [ -68.49034, -26.86363 ], [ -68.48605, -26.86367 ], [ -68.4842, -26.8629 ], [ -68.48192, -26.86224 ] ], [ [ -68.56813, -26.87569 ], [ -68.56607, -26.87481 ], [ -68.56459, -26.87361 ], [ -68.56365, -26.87313 ], [ -68.55902, -26.87288 ], [ -68.55758, -26.87236 ], [ -68.55511, -26.87223 ], [ -68.5538, -26.87223 ], [ -68.55303, -26.87242 ], [ -68.54872, -26.87229 ], [ -68.54687, -26.87196 ], [ -68.54455, -26.87085 ] ], [ [ -68.5035, -26.705 ], [ -68.50324, -26.70594 ], [ -68.5032, -26.70694 ], [ -68.50256, -26.70878 ], [ -68.50206, -26.71119 ], [ -68.50076, -26.71236 ], [ -68.50022, -26.71376 ], [ -68.49945, -26.71499 ], [ -68.49833, -26.71614 ], [ -68.49803, -26.71709 ], [ -68.49769, -26.72105 ], [ -68.49827, -26.72284 ], [ -68.4999, -26.72508 ], [ -68.50015, -26.72663 ], [ -68.50003, -26.72784 ], [ -68.49938, -26.72975 ], [ -68.49833, -26.73071 ], [ -68.49779, -26.73307 ], [ -68.49657, -26.73439 ], [ -68.49449, -26.73773 ], [ -68.49346, -26.73888 ], [ -68.49213, -26.7398 ], [ -68.48977, -26.74087 ], [ -68.48799, -26.74215 ], [ -68.48456, -26.74495 ], [ -68.48254, -26.74748 ], [ -68.48112, -26.74859 ], [ -68.47787, -26.75158 ], [ -68.47611, -26.75355 ], [ -68.47549, -26.75587 ], [ -68.47465, -26.75702 ], [ -68.4727, -26.75834 ], [ -68.47051, -26.76126 ], [ -68.46959, -26.76357 ], [ -68.46914, -26.76656 ], [ -68.46785, -26.76844 ], [ -68.46663, -26.77187 ], [ -68.466, -26.77501 ], [ -68.46525, -26.77653 ], [ -68.46506, -26.77961 ], [ -68.46592, -26.78528 ], [ -68.46622, -26.78834 ], [ -68.46508, -26.79164 ], [ -68.46323, -26.79416 ] ] ] } },
{ "type": "Feature", "properties": { "nombre": "Quebrada Los Patas", "tipo": "stream", "volcan_codigo": "TIP", "volcan_nombre": "Tipas", "drena_volcan": false }, "geometry": { "type": "LineString", "coordinates": [ [ -68.86047, -27.18504 ], [ -68.86118, -27.1862 ], [ -68.86268, -27.18802 ], [ -68.86369, -27.19012 ], [ -68.86442, -27.19302 ], [ -68.8653, -27.19521 ], [ -68.86592, -27.19804 ], [ -68.86667, -27.20535 ], [ -68.86697, -27.20697 ], [ -68.86678, -27.20997 ], [ -68.86699, -27.21146 ], [ -68.86695, -27.2135 ], [ -68.86749, -27.21466 ], [ -68.86942, -27.21676 ], [ -68.87095, -27.21749 ], [ -68.87213, -27.21768 ], [ -68.87363, -27.21831 ], [ -68.87676, -27.21853 ], [ -68.88131, -27.21943 ], [ -68.88406, -27.21976 ], [ -68.88536, -27.21972 ], [ -68.88661, -27.2193 ], [ -68.8879, -27.2193 ], [ -68.88916, -27.21907 ], [ -68.89221, -27.21794 ], [ -68.89556, -27.21787 ], [ -68.89631, -27.218 ], [ -68.89723, -27.21853 ], [ -68.89856, -27.2189 ], [ -68.90459, -27.21842 ], [ -68.90669, -27.21708 ], [ -68.90869, -27.21626 ], [ -68.90933, -27.21623 ], [ -68.91025, -27.21659 ], [ -68.91115, -27.21655 ], [ -68.913, -27.21729 ], [ -68.91536, -27.21668 ], [ -68.91795, -27.21636 ], [ -68.91995, -27.21653 ], [ -68.92134, -27.21686 ], [ -68.92257, -27.2167 ], [ -68.92396, -27.2163 ], [ -68.92499, -27.21571 ], [ -68.92559, -27.21466 ], [ -68.92677, -27.21327 ], [ -68.92812, -27.21292 ], [ -68.92945, -27.21224 ], [ -68.93048, -27.21149 ], [ -68.93211, -27.21094 ], [ -68.93353, -27.21077 ], [ -68.93525, -27.21107 ], [ -68.93653, -27.21168 ], [ -68.93932, -27.21212 ], [ -68.94147, -27.21153 ], [ -68.94492, -27.21104 ], [ -68.94557, -27.21031 ], [ -68.9472, -27.20958 ], [ -68.94767, -27.20897 ], [ -68.94943, -27.20852 ], [ -68.9505, -27.20857 ], [ -68.95213, -27.20928 ], [ -68.95503, -27.21144 ], [ -68.95628, -27.21218 ], [ -68.95799, -27.21277 ], [ -68.95982, -27.21287 ], [ -68.9634, -27.21184 ], [ -68.96572, -27.2117 ], [ -68.97024, -27.2109 ], [ -68.97709, -27.20876 ], [ -68.97904, -27.20836 ], [ -68.98203, -27.20812 ], [ -68.98529, -27.20657 ], [ -68.98885, -27.20539 ], [ -68.99199, -27.2041 ], [ -68.99669, -27.20156 ], [ -68.99913, -27.20003 ], [ -69.0015, -27.19818 ], [ -69.00658, -27.1961 ], [ -69.00819, -27.19584 ], [ -69.00888, -27.19534 ] ] } },
{ "type": "Feature", "properties": { "nombre": "Quebrada Mulas Muertas", "tipo": "stream", "volcan_codigo": "TIP", "volcan_nombre": "Tipas", "drena_volcan": false }, "geometry": { "type": "LineString", "coordinates": [ [ -68.51084, -27.0753 ], [ -68.51114, -27.07463 ], [ -68.51195, -27.07388 ], [ -68.51363, -27.06976 ], [ -68.51358, -27.06834 ], [ -68.51283, -27.06653 ], [ -68.51157, -27.06443 ], [ -68.51114, -27.06315 ], [ -68.51088, -27.06125 ], [ -68.51208, -27.05965 ], [ -68.51558, -27.05724 ], [ -68.51624, -27.05521 ], [ -68.51659, -27.05323 ], [ -68.51815, -27.05118 ], [ -68.51828, -27.05044 ], [ -68.52193, -27.04799 ], [ -68.52283, -27.0469 ], [ -68.52324, -27.04568 ], [ -68.52311, -27.04373 ], [ -68.52343, -27.04255 ], [ -68.52398, -27.0417 ], [ -68.52682, -27.03993 ], [ -68.52976, -27.03737 ], [ -68.53162, -27.03425 ], [ -68.53416, -27.03167 ], [ -68.53519, -27.03085 ], [ -68.53557, -27.03075 ], [ -68.5364, -27.02984 ], [ -68.53655, -27.02925 ], [ -68.53688, -27.029 ], [ -68.53655, -27.0284 ], [ -68.53655, -27.02774 ], [ -68.53535, -27.02544 ], [ -68.53404, -27.02328 ], [ -68.53237, -27.02099 ], [ -68.53061, -27.01892 ], [ -68.5301, -27.01743 ], [ -68.53005, -27.01565 ], [ -68.53057, -27.01491 ], [ -68.53016, -27.01399 ], [ -68.5305, -27.0125 ], [ -68.53175, -27.01059 ], [ -68.53269, -27.00948 ], [ -68.5352, -27.00894 ], [ -68.53587, -27.0082 ], [ -68.5358, -27.00667 ], [ -68.53514, -27.00575 ], [ -68.53265, -27.00359 ], [ -68.53196, -27.00281 ], [ -68.53211, -27.00199 ], [ -68.53321, -27.00111 ], [ -68.5346, -27.00038 ], [ -68.53555, -26.99828 ], [ -68.53589, -26.99599 ], [ -68.537, -26.99568 ], [ -68.53816, -26.99597 ], [ -68.53902, -26.99589 ], [ -68.54235, -26.99463 ], [ -68.54415, -26.99333 ], [ -68.54449, -26.99245 ], [ -68.54353, -26.99138 ], [ -68.54331, -26.98899 ], [ -68.54372, -26.98773 ], [ -68.54366, -26.98463 ], [ -68.544, -26.9832 ], [ -68.54531, -26.98046 ], [ -68.54645, -26.97951 ], [ -68.55078, -26.97807 ], [ -68.55494, -26.97721 ], [ -68.55829, -26.97518 ], [ -68.56144, -26.97226 ], [ -68.56333, -26.96964 ], [ -68.57041, -26.96583 ], [ -68.57375, -26.95905 ], [ -68.57411, -26.95429 ], [ -68.57478, -26.95144 ] ] } },
{ "type": "Feature", "properties": { "nombre": "Quebrada Nevados del Juncalito", "tipo": "stream", "volcan_codigo": "TIP", "volcan_nombre": "Tipas", "drena_volcan": false }, "geometry": { "type": "LineString", "coordinates": [ [ -68.87851, -26.8306 ], [ -68.87591, -26.83142 ], [ -68.87499, -26.83194 ], [ -68.87379, -26.83236 ], [ -68.87303, -26.83242 ], [ -68.87222, -26.83309 ], [ -68.87162, -26.83424 ], [ -68.86788, -26.8364 ], [ -68.86707, -26.83671 ], [ -68.8658, -26.83676 ], [ -68.8649, -26.83636 ], [ -68.86303, -26.83588 ], [ -68.86205, -26.83602 ], [ -68.86147, -26.83627 ], [ -68.86076, -26.83751 ], [ -68.85943, -26.83809 ], [ -68.85911, -26.83858 ], [ -68.85911, -26.83918 ], [ -68.85885, -26.83975 ], [ -68.85885, -26.8404 ], [ -68.85907, -26.84084 ], [ -68.85907, -26.8427 ], [ -68.85799, -26.84504 ], [ -68.85831, -26.84756 ], [ -68.85975, -26.84921 ], [ -68.86078, -26.85001 ], [ -68.86162, -26.85099 ], [ -68.86183, -26.85212 ], [ -68.86437, -26.85426 ], [ -68.86499, -26.85543 ], [ -68.86595, -26.85652 ], [ -68.86651, -26.85742 ], [ -68.86881, -26.85872 ], [ -68.86988, -26.8613 ], [ -68.87177, -26.86358 ], [ -68.8734, -26.86601 ], [ -68.87361, -26.86724 ], [ -68.87527, -26.86837 ], [ -68.87559, -26.86875 ], [ -68.87552, -26.86963 ], [ -68.87582, -26.87076 ], [ -68.87565, -26.87168 ], [ -68.87318, -26.87602 ], [ -68.87245, -26.87698 ], [ -68.87183, -26.87851 ], [ -68.87211, -26.87947 ], [ -68.87194, -26.88274 ], [ -68.87095, -26.88456 ], [ -68.87048, -26.88621 ], [ -68.87024, -26.88925 ], [ -68.87091, -26.89065 ], [ -68.87121, -26.89375 ], [ -68.87115, -26.89509 ], [ -68.8705, -26.89633 ], [ -68.87014, -26.89853 ], [ -68.87112, -26.90291 ], [ -68.87254, -26.90523 ], [ -68.87321, -26.90697 ], [ -68.87353, -26.90883 ], [ -68.87361, -26.91061 ], [ -68.87306, -26.91325 ], [ -68.87142, -26.91514 ], [ -68.86917, -26.91715 ], [ -68.86823, -26.91833 ], [ -68.86795, -26.91967 ], [ -68.86713, -26.92136 ], [ -68.86636, -26.92392 ], [ -68.86535, -26.92534 ], [ -68.8643, -26.92637 ], [ -68.86288, -26.92708 ], [ -68.86188, -26.92809 ], [ -68.85894, -26.93008 ], [ -68.85668, -26.93121 ], [ -68.85205, -26.93314 ], [ -68.84847, -26.93385 ], [ -68.84428, -26.93699 ], [ -68.84263, -26.94083 ], [ -68.84271, -26.94678 ], [ -68.84355, -26.95189 ], [ -68.84299, -26.9543 ], [ -68.84239, -26.96115 ], [ -68.84216, -26.96608 ], [ -68.84285, -26.96835 ] ] } },
{ "type": "Feature", "properties": { "nombre": "Quebrada Ojos del Salado", "tipo": "stream", "volcan_codigo": "TIP", "volcan_nombre": "Tipas", "drena_volcan": false }, "geometry": { "type": "MultiLineString", "coordinates": [ [ [ -68.5519, -27.07906 ], [ -68.55145, -27.07707 ], [ -68.55137, -27.07554 ], [ -68.5498, -27.07325 ], [ -68.54851, -27.07245 ], [ -68.54813, -27.07134 ], [ -68.54823, -27.07061 ], [ -68.54892, -27.07002 ], [ -68.54903, -27.06937 ], [ -68.54881, -27.06882 ], [ -68.54918, -27.06811 ], [ -68.54976, -27.06777 ], [ -68.54989, -27.06746 ], [ -68.54956, -27.06708 ], [ -68.54967, -27.06618 ], [ -68.55085, -27.06471 ], [ -68.55096, -27.06416 ], [ -68.55068, -27.06335 ], [ -68.54892, -27.06137 ], [ -68.54884, -27.0603 ], [ -68.54959, -27.05869 ], [ -68.54881, -27.05626 ], [ -68.5492, -27.05516 ], [ -68.55105, -27.05324 ], [ -68.55143, -27.0521 ], [ -68.5525, -27.04688 ], [ -68.55392, -27.04178 ], [ -68.55448, -27.03828 ], [ -68.55454, -27.03606 ], [ -68.55512, -27.03432 ], [ -68.55703, -27.02966 ], [ -68.5578, -27.02737 ], [ -68.56006, -27.02463 ], [ -68.56044, -27.02257 ], [ -68.56027, -27.02108 ], [ -68.56034, -27.01917 ], [ -68.55995, -27.01789 ], [ -68.56049, -27.01617 ], [ -68.56253, -27.01376 ], [ -68.56358, -27.01321 ], [ -68.56461, -27.01303 ], [ -68.56654, -27.01187 ], [ -68.56778, -27.0116 ], [ -68.56967, -27.01151 ], [ -68.57049, -27.01095 ], [ -68.57173, -27.01055 ], [ -68.57282, -27.00967 ], [ -68.57347, -27.0077 ], [ -68.5731, -27.00539 ], [ -68.57321, -27.0043 ], [ -68.57396, -27.00319 ], [ -68.57602, -27.00126 ], [ -68.57761, -26.9994 ], [ -68.57896, -26.99682 ], [ -68.5804, -26.99371 ], [ -68.5807, -26.99143 ], [ -68.58074, -26.98931 ], [ -68.58145, -26.98638 ], [ -68.58667, -26.97866 ], [ -68.58733, -26.97711 ], [ -68.58776, -26.97539 ], [ -68.58609, -26.97043 ], [ -68.58506, -26.9682 ], [ -68.58171, -26.96437 ], [ -68.57686, -26.95825 ], [ -68.57596, -26.95554 ], [ -68.57478, -26.95144 ], [ -68.57471, -26.94979 ], [ -68.57686, -26.94692 ], [ -68.5792, -26.94474 ], [ -68.58128, -26.94219 ], [ -68.58147, -26.9389 ], [ -68.58072, -26.93624 ], [ -68.57995, -26.93479 ], [ -68.57986, -26.93334 ], [ -68.57789, -26.92972 ], [ -68.5731, -26.92165 ], [ -68.57023, -26.91824 ], [ -68.56959, -26.91639 ] ], [ [ -68.56958, -26.91628 ], [ -68.56645, -26.91182 ], [ -68.56567, -26.9075 ], [ -68.564, -26.90377 ], [ -68.56314, -26.90063 ], [ -68.5592, -26.89343 ], [ -68.55675, -26.88804 ], [ -68.55495, -26.88534 ], [ -68.55195, -26.87988 ], [ -68.54948, -26.87724 ], [ -68.54877, -26.87592 ], [ -68.54747, -26.87515 ] ], [ [ -68.56959, -26.91639 ], [ -68.56958, -26.91628 ] ] ] } },
{ "type": "Feature", "properties": { "nombre": "Quebrada Pantanillo", "tipo": "stream", "volcan_codigo": "TIP", "volcan_nombre": "Tipas", "drena_volcan": false }, "geometry": { "type": "LineString", "coordinates": [ [ -68.94515, -27.51613 ], [ -68.94532, -27.51548 ], [ -68.94575, -27.51478 ], [ -68.94657, -27.51394 ], [ -68.94734, -27.51059 ], [ -68.94745, -27.50804 ], [ -68.94803, -27.50665 ], [ -68.94852, -27.50618 ], [ -68.94938, -27.50599 ], [ -68.95049, -27.50549 ], [ -68.95159, -27.5054 ], [ -68.95337, -27.50578 ], [ -68.95448, -27.50688 ], [ -68.95524, -27.50703 ], [ -68.95639, -27.50644 ], [ -68.95714, -27.50583 ], [ -68.95777, -27.50479 ], [ -68.95993, -27.50366 ], [ -68.96122, -27.50265 ], [ -68.96472, -27.50195 ], [ -68.96564, -27.50151 ], [ -68.97008, -27.50003 ], [ -68.97431, -27.49995 ], [ -68.97618, -27.49906 ], [ -68.97768, -27.49782 ], [ -68.98006, -27.49725 ], [ -68.98116, -27.49681 ], [ -68.9838, -27.49472 ], [ -68.98472, -27.49358 ], [ -68.98558, -27.4928 ], [ -68.98675, -27.4923 ], [ -68.98876, -27.49066 ], [ -68.9904, -27.49019 ], [ -68.99102, -27.48935 ], [ -68.99295, -27.48927 ], [ -68.99439, -27.48874 ], [ -68.9958, -27.48735 ], [ -68.99666, -27.48549 ], [ -68.99741, -27.48476 ], [ -68.99973, -27.48339 ], [ -69.00119, -27.48158 ], [ -69.00503, -27.47806 ], [ -69.00582, -27.47753 ], [ -69.00681, -27.47637 ], [ -69.00739, -27.475 ], [ -69.00786, -27.47454 ], [ -69.01005, -27.47344 ], [ -69.01181, -27.47163 ], [ -69.0129, -27.47128 ], [ -69.01348, -27.47079 ], [ -69.01396, -27.46984 ], [ -69.01426, -27.46868 ], [ -69.01582, -27.4662 ], [ -69.01644, -27.46489 ], [ -69.01726, -27.4639 ], [ -69.01739, -27.46323 ], [ -69.01872, -27.46209 ], [ -69.019, -27.46196 ], [ -69.0194, -27.46203 ], [ -69.01996, -27.46157 ], [ -69.02095, -27.46005 ], [ -69.02116, -27.45843 ], [ -69.02211, -27.45678 ], [ -69.02237, -27.45474 ], [ -69.02176, -27.45356 ], [ -69.02151, -27.45154 ], [ -69.02071, -27.44924 ], [ -69.02101, -27.4484 ], [ -69.02228, -27.44737 ], [ -69.02277, -27.44716 ], [ -69.02294, -27.44674 ], [ -69.02275, -27.44569 ], [ -69.02404, -27.44196 ], [ -69.0243, -27.4401 ], [ -69.02485, -27.43911 ], [ -69.02614, -27.438 ], [ -69.03286, -27.43379 ], [ -69.03498, -27.43067 ], [ -69.03636, -27.42781 ], [ -69.03598, -27.4261 ] ] } },
{ "type": "Feature", "properties": { "nombre": "Quebrada Pastillos", "tipo": "stream", "volcan_codigo": "TIP", "volcan_nombre": "Tipas", "drena_volcan": false }, "geometry": { "type": "LineString", "coordinates": [ [ -69.13808, -27.27721 ], [ -69.13746, -27.27597 ], [ -69.13647, -27.27452 ], [ -69.13566, -27.27384 ], [ -69.13506, -27.27263 ], [ -69.13351, -27.27071 ], [ -69.13283, -27.26954 ], [ -69.13274, -27.26859 ], [ -69.13291, -27.26756 ], [ -69.1328, -27.26663 ], [ -69.13298, -27.26575 ], [ -69.13268, -27.26338 ], [ -69.13345, -27.26056 ], [ -69.13338, -27.25854 ], [ -69.13353, -27.25789 ], [ -69.13414, -27.25686 ], [ -69.13407, -27.25617 ], [ -69.13338, -27.25541 ], [ -69.13253, -27.25383 ], [ -69.13002, -27.25255 ], [ -69.12948, -27.25138 ], [ -69.12935, -27.2503 ], [ -69.12716, -27.24803 ], [ -69.12223, -27.24551 ], [ -69.12159, -27.24477 ], [ -69.12093, -27.24347 ], [ -69.12069, -27.24236 ], [ -69.1208, -27.24015 ], [ -69.12185, -27.23719 ], [ -69.12187, -27.23557 ], [ -69.12151, -27.23479 ], [ -69.12157, -27.23339 ], [ -69.122, -27.23259 ], [ -69.12264, -27.23189 ], [ -69.1229, -27.23128 ], [ -69.12341, -27.22862 ], [ -69.12316, -27.22748 ], [ -69.12318, -27.22639 ], [ -69.12256, -27.22439 ], [ -69.122, -27.22321 ], [ -69.12204, -27.22149 ], [ -69.12163, -27.22065 ], [ -69.12151, -27.21989 ], [ -69.12189, -27.21815 ], [ -69.12159, -27.2172 ], [ -69.12191, -27.2163 ], [ -69.122, -27.2155 ], [ -69.12196, -27.21363 ], [ -69.12093, -27.21166 ], [ -69.11932, -27.20939 ], [ -69.11964, -27.20767 ], [ -69.11998, -27.20689 ], [ -69.1209, -27.20533 ], [ -69.12178, -27.20492 ], [ -69.12208, -27.20451 ], [ -69.12219, -27.20319 ], [ -69.12204, -27.20269 ], [ -69.12125, -27.2017 ], [ -69.12105, -27.20107 ], [ -69.12028, -27.19975 ], [ -69.12002, -27.19888 ], [ -69.12024, -27.19639 ], [ -69.12065, -27.19586 ], [ -69.12088, -27.19508 ], [ -69.12071, -27.19399 ], [ -69.11859, -27.19046 ], [ -69.11655, -27.18779 ], [ -69.11627, -27.18662 ], [ -69.11627, -27.18584 ], [ -69.11717, -27.18506 ], [ -69.11724, -27.18431 ], [ -69.11563, -27.1821 ], [ -69.11464, -27.18172 ], [ -69.11466, -27.18097 ], [ -69.11423, -27.18025 ], [ -69.11402, -27.17845 ], [ -69.11421, -27.17733 ], [ -69.11369, -27.17435 ], [ -69.1144, -27.17223 ], [ -69.11453, -27.16984 ], [ -69.11509, -27.16715 ], [ -69.1149, -27.16555 ], [ -69.1153, -27.16255 ], [ -69.11464, -27.15808 ], [ -69.11464, -27.15726 ], [ -69.11408, -27.15514 ], [ -69.11453, -27.1505 ], [ -69.11526, -27.14715 ], [ -69.11528, -27.14505 ], [ -69.11479, -27.14385 ], [ -69.11447, -27.14242 ], [ -69.11477, -27.13629 ], [ -69.11449, -27.13533 ], [ -69.11464, -27.13438 ], [ -69.11408, -27.13212 ], [ -69.11312, -27.12995 ], [ -69.11312, -27.12828 ], [ -69.11258, -27.12515 ], [ -69.11256, -27.12298 ], [ -69.11288, -27.12063 ], [ -69.11262, -27.11807 ], [ -69.11297, -27.11524 ], [ -69.11578, -27.11027 ], [ -69.11852, -27.10844 ], [ -69.12017, -27.10707 ], [ -69.12288, -27.10567 ], [ -69.12543, -27.10179 ], [ -69.12678, -27.10059 ], [ -69.12979, -27.09909 ], [ -69.13045, -27.09817 ], [ -69.13337, -27.09546 ], [ -69.13776, -27.09331 ] ] } },
{ "type": "Feature", "properties": { "nombre": "Quebrada Piedra Pomez", "tipo": "stream", "volcan_codigo": "TIP", "volcan_nombre": "Tipas", "drena_volcan": false }, "geometry": { "type": "MultiLineString", "coordinates": [ [ [ -68.89234, -27.04664 ], [ -68.89312, -27.04791 ], [ -68.89373, -27.04857 ], [ -68.89636, -27.04918 ], [ -68.89812, -27.0492 ], [ -68.89982, -27.04999 ], [ -68.90218, -27.04997 ], [ -68.90355, -27.05012 ], [ -68.9073, -27.05225 ], [ -68.9084, -27.05312 ], [ -68.91093, -27.05679 ], [ -68.91336, -27.05932 ], [ -68.91466, -27.05989 ], [ -68.9172, -27.06192 ], [ -68.91788, -27.06275 ], [ -68.9178, -27.06289 ] ], [ [ -68.72742, -26.90542 ], [ -68.72966, -26.9067 ], [ -68.73139, -26.90743 ], [ -68.73315, -26.90875 ], [ -68.73498, -26.90974 ], [ -68.73775, -26.91058 ], [ -68.74073, -26.91213 ], [ -68.74182, -26.91372 ], [ -68.74257, -26.91452 ], [ -68.74446, -26.91537 ], [ -68.74569, -26.9164 ], [ -68.74635, -26.9176 ], [ -68.74652, -26.91998 ], [ -68.74721, -26.92195 ], [ -68.74802, -26.92333 ], [ -68.74983, -26.92451 ], [ -68.75264, -26.9256 ], [ -68.75852, -26.9256 ], [ -68.76122, -26.92633 ], [ -68.7639, -26.92813 ], [ -68.76706, -26.93167 ], [ -68.76834, -26.93262 ], [ -68.77113, -26.93283 ], [ -68.77609, -26.9323 ], [ -68.77858, -26.93136 ], [ -68.78023, -26.93025 ], [ -68.78862, -26.923 ], [ -68.79177, -26.92097 ], [ -68.79604, -26.91889 ], [ -68.79892, -26.91646 ], [ -68.79988, -26.91519 ], [ -68.80104, -26.91429 ], [ -68.80495, -26.90978 ], [ -68.80602, -26.90943 ], [ -68.80731, -26.91003 ], [ -68.81119, -26.92005 ], [ -68.81378, -26.92342 ], [ -68.8156, -26.9265 ], [ -68.81577, -26.92949 ], [ -68.81421, -26.93234 ], [ -68.81348, -26.93687 ], [ -68.81264, -26.93964 ], [ -68.81264, -26.94137 ], [ -68.8135, -26.94408 ], [ -68.81509, -26.94731 ], [ -68.81648, -26.9494 ], [ -68.81663, -26.9502 ], [ -68.81766, -26.95147 ], [ -68.81908, -26.95389 ], [ -68.82152, -26.9563 ], [ -68.82307, -26.9585 ], [ -68.83019, -26.9616 ], [ -68.83551, -26.96306 ], [ -68.83878, -26.96426 ], [ -68.84107, -26.96631 ], [ -68.84714, -26.97377 ], [ -68.85129, -26.97793 ], [ -68.85669, -26.98092 ], [ -68.86298, -26.98296 ], [ -68.86997, -26.98465 ], [ -68.87357, -26.98757 ], [ -68.87613, -26.98996 ], [ -68.87696, -26.99212 ], [ -68.87769, -26.99472 ], [ -68.88057, -26.99713 ], [ -68.88325, -26.99975 ], [ -68.89138, -27.00585 ], [ -68.89561, -27.0082 ], [ -68.89846, -27.01013 ], [ -68.89999, -27.01181 ], [ -68.90035, -27.01304 ], [ -68.89965, -27.01411 ], [ -68.89754, -27.0156 ], [ -68.89447, -27.01726 ], [ -68.88825, -27.02269 ], [ -68.88666, -27.0246 ], [ -68.88535, -27.02745 ], [ -68.88538, -27.03072 ], [ -68.88523, -27.03141 ], [ -68.88686, -27.03445 ], [ -68.88894, -27.03649 ], [ -68.88995, -27.03942 ], [ -68.8905, -27.04289 ], [ -68.8913, -27.04479 ], [ -68.89216, -27.04584 ], [ -68.89234, -27.04664 ] ], [ [ -68.91774, -27.06299 ], [ -68.91622, -27.06527 ], [ -68.91742, -27.06924 ], [ -68.91776, -27.07153 ], [ -68.9192, -27.07374 ], [ -68.91969, -27.07377 ], [ -68.92064, -27.07447 ], [ -68.92067, -27.07546 ], [ -68.92103, -27.07637 ], [ -68.9218, -27.07653 ], [ -68.92279, -27.07742 ], [ -68.92309, -27.07822 ], [ -68.924, -27.07914 ], [ -68.92394, -27.08055 ], [ -68.92532, -27.08284 ], [ -68.92599, -27.08305 ], [ -68.92642, -27.08293 ], [ -68.92762, -27.08186 ] ], [ [ -68.9178, -27.06289 ], [ -68.91774, -27.06299 ] ] ] } },
{ "type": "Feature", "properties": { "nombre": "Quebrada Punta del Indio", "tipo": "stream", "volcan_codigo": "TIP", "volcan_nombre": "Tipas", "drena_volcan": false }, "geometry": { "type": "LineString", "coordinates": [ [ -68.72273, -26.79157 ], [ -68.72016, -26.78929 ], [ -68.71829, -26.78819 ], [ -68.7161, -26.78739 ], [ -68.71516, -26.7868 ], [ -68.71344, -26.78643 ], [ -68.71173, -26.7858 ], [ -68.7107, -26.78519 ], [ -68.7087, -26.78459 ], [ -68.70655, -26.78421 ], [ -68.7046, -26.78226 ], [ -68.70362, -26.78176 ], [ -68.70183, -26.78139 ], [ -68.70012, -26.78067 ], [ -68.69842, -26.77938 ], [ -68.69769, -26.77954 ], [ -68.69484, -26.77899 ], [ -68.69205, -26.77794 ], [ -68.69044, -26.77685 ], [ -68.68982, -26.77493 ], [ -68.68977, -26.77338 ], [ -68.68891, -26.77198 ], [ -68.68758, -26.77041 ], [ -68.68241, -26.76698 ], [ -68.68014, -26.76571 ], [ -68.67799, -26.76493 ], [ -68.67591, -26.76393 ], [ -68.67351, -26.76232 ], [ -68.67304, -26.76146 ], [ -68.67237, -26.75872 ], [ -68.67141, -26.75732 ], [ -68.66937, -26.75495 ], [ -68.66864, -26.75378 ], [ -68.66814, -26.75211 ], [ -68.66821, -26.75089 ], [ -68.669, -26.74966 ], [ -68.66965, -26.74887 ], [ -68.67089, -26.74782 ], [ -68.67226, -26.74703 ], [ -68.67409, -26.7441 ], [ -68.67501, -26.74236 ], [ -68.6758, -26.74033 ], [ -68.67681, -26.73883 ], [ -68.67789, -26.73525 ], [ -68.67746, -26.73025 ], [ -68.67696, -26.72797 ], [ -68.67593, -26.72576 ], [ -68.67456, -26.72386 ], [ -68.67344, -26.72195 ], [ -68.67286, -26.71955 ], [ -68.67259, -26.71748 ], [ -68.67282, -26.7162 ], [ -68.67237, -26.71488 ], [ -68.6702, -26.71235 ], [ -68.66389, -26.70744 ], [ -68.6607, -26.70253 ], [ -68.65662, -26.70037 ], [ -68.65233, -26.69923 ], [ -68.6481, -26.69854 ], [ -68.64526, -26.69857 ] ] } },
{ "type": "Feature", "properties": { "nombre": "Quebrada Rio Juncalitos", "tipo": "stream", "volcan_codigo": "TIP", "volcan_nombre": "Tipas", "drena_volcan": false }, "geometry": { "type": "LineString", "coordinates": [ [ -68.84043, -26.85561 ], [ -68.83888, -26.85358 ], [ -68.83852, -26.85151 ], [ -68.83781, -26.8505 ], [ -68.83744, -26.84945 ], [ -68.83744, -26.84849 ], [ -68.83796, -26.84677 ], [ -68.83811, -26.84548 ], [ -68.83811, -26.84445 ], [ -68.83755, -26.84267 ], [ -68.83781, -26.84211 ], [ -68.83787, -26.84148 ], [ -68.83757, -26.84066 ], [ -68.83661, -26.83913 ], [ -68.83405, -26.83723 ], [ -68.83266, -26.83648 ], [ -68.83105, -26.83465 ], [ -68.83101, -26.83271 ], [ -68.83159, -26.83103 ], [ -68.83214, -26.83001 ], [ -68.83309, -26.82909 ], [ -68.83335, -26.8286 ], [ -68.83319, -26.8277 ], [ -68.83281, -26.82685 ], [ -68.83296, -26.82561 ], [ -68.8327, -26.825 ], [ -68.83186, -26.824 ], [ -68.83032, -26.82264 ], [ -68.82781, -26.81737 ], [ -68.82622, -26.81446 ], [ -68.82599, -26.81337 ], [ -68.82549, -26.81245 ], [ -68.8256, -26.81054 ], [ -68.8248, -26.80946 ], [ -68.82442, -26.80855 ], [ -68.82401, -26.80696 ], [ -68.82392, -26.80581 ], [ -68.82268, -26.80353 ], [ -68.82128, -26.80234 ], [ -68.82102, -26.80111 ], [ -68.82143, -26.79732 ], [ -68.8212, -26.79548 ], [ -68.82145, -26.79401 ], [ -68.82244, -26.79269 ], [ -68.8231, -26.79133 ], [ -68.82323, -26.78947 ], [ -68.82409, -26.78696 ], [ -68.82596, -26.78242 ], [ -68.82692, -26.78077 ], [ -68.82699, -26.77968 ], [ -68.82815, -26.77729 ], [ -68.8281, -26.77467 ] ] } },
{ "type": "Feature", "properties": { "nombre": "Quebrada Rio Negro", "tipo": "stream", "volcan_codigo": "TIP", "volcan_nombre": "Tipas", "drena_volcan": false }, "geometry": { "type": "LineString", "coordinates": [ [ -68.88374, -26.81777 ], [ -68.8846, -26.81867 ], [ -68.88691, -26.82183 ], [ -68.88713, -26.82267 ], [ -68.88818, -26.82348 ], [ -68.89076, -26.82356 ], [ -68.89481, -26.82267 ], [ -68.89653, -26.82145 ], [ -68.89801, -26.82082 ], [ -68.89844, -26.82028 ], [ -68.89848, -26.81906 ], [ -68.8988, -26.81848 ], [ -68.90112, -26.81785 ], [ -68.90215, -26.81593 ], [ -68.90339, -26.81524 ], [ -68.90406, -26.81392 ], [ -68.90412, -26.81105 ], [ -68.90513, -26.81009 ], [ -68.90674, -26.80891 ], [ -68.90863, -26.80787 ], [ -68.91056, -26.80586 ], [ -68.91273, -26.80494 ], [ -68.91436, -26.80377 ], [ -68.91612, -26.80372 ], [ -68.91771, -26.80322 ], [ -68.91914, -26.80272 ], [ -68.92071, -26.80176 ], [ -68.92273, -26.79837 ], [ -68.92365, -26.79577 ], [ -68.92447, -26.79514 ], [ -68.92537, -26.79471 ], [ -68.92676, -26.79441 ], [ -68.93022, -26.79157 ], [ -68.93198, -26.78947 ], [ -68.93311, -26.78759 ], [ -68.93395, -26.78686 ], [ -68.93526, -26.78642 ], [ -68.94037, -26.78586 ], [ -68.94255, -26.78539 ], [ -68.94695, -26.78412 ], [ -68.95167, -26.78487 ], [ -68.9577, -26.78491 ], [ -68.9641, -26.78426 ], [ -68.9665, -26.78186 ], [ -68.96978, -26.77972 ], [ -68.97167, -26.77742 ], [ -68.97454, -26.77586 ], [ -68.97602, -26.77477 ], [ -68.97712, -26.77343 ], [ -68.97815, -26.77255 ], [ -68.97873, -26.77142 ], [ -68.97935, -26.77062 ], [ -68.98598, -26.76569 ], [ -68.98719, -26.76301 ], [ -68.98815, -26.75985 ], [ -68.98903, -26.75818 ], [ -68.99004, -26.75667 ], [ -68.99103, -26.75552 ], [ -68.99212, -26.75343 ], [ -68.9927, -26.75305 ], [ -68.99332, -26.75159 ], [ -68.99291, -26.7501 ], [ -68.99302, -26.74855 ], [ -68.9939, -26.74715 ], [ -69.00045, -26.74498 ], [ -69.00409, -26.7431 ], [ -69.01151, -26.73785 ], [ -69.01731, -26.73427 ], [ -69.02145, -26.72686 ], [ -69.02184, -26.72456 ], [ -69.02287, -26.72033 ], [ -69.02329, -26.71932 ], [ -69.02265, -26.71823 ], [ -69.02199, -26.71656 ], [ -69.0219, -26.71564 ], [ -69.02286, -26.71472 ] ] } },
{ "type": "Feature", "properties": { "nombre": "Quebrada San Francisco", "tipo": "stream", "volcan_codigo": "TIP", "volcan_nombre": "Tipas", "drena_volcan": false }, "geometry": { "type": "LineString", "coordinates": [ [ -68.28108, -26.91537 ], [ -68.28316, -26.91573 ], [ -68.28496, -26.91627 ], [ -68.28702, -26.91653 ], [ -68.28771, -26.91638 ], [ -68.28863, -26.91642 ], [ -68.28943, -26.91594 ], [ -68.29065, -26.91565 ], [ -68.29206, -26.91609 ], [ -68.2946, -26.91653 ], [ -68.29867, -26.9169 ], [ -68.30028, -26.9169 ], [ -68.30133, -26.91757 ], [ -68.30307, -26.91804 ], [ -68.30436, -26.91914 ], [ -68.30749, -26.91933 ], [ -68.30895, -26.919 ], [ -68.30992, -26.91808 ], [ -68.31284, -26.91743 ], [ -68.31376, -26.91741 ], [ -68.31623, -26.91799 ], [ -68.31893, -26.91789 ], [ -68.32047, -26.91749 ], [ -68.32594, -26.91795 ], [ -68.32883, -26.91755 ], [ -68.33049, -26.91684 ], [ -68.33218, -26.91552 ], [ -68.33394, -26.9151 ], [ -68.33534, -26.91449 ], [ -68.33752, -26.91426 ], [ -68.33817, -26.91473 ], [ -68.34179, -26.91531 ], [ -68.34345, -26.91516 ], [ -68.34495, -26.91437 ], [ -68.34754, -26.9119 ], [ -68.35033, -26.91208 ], [ -68.35239, -26.91261 ], [ -68.35806, -26.91359 ], [ -68.36119, -26.91353 ], [ -68.36171, -26.91324 ], [ -68.36538, -26.91299 ], [ -68.36821, -26.91297 ], [ -68.37287, -26.91213 ], [ -68.37587, -26.91018 ], [ -68.37776, -26.90931 ], [ -68.37961, -26.90971 ], [ -68.38394, -26.91002 ], [ -68.38787, -26.90929 ], [ -68.3912, -26.9092 ], [ -68.39514, -26.90847 ], [ -68.40066, -26.90686 ], [ -68.40609, -26.90623 ], [ -68.40918, -26.90661 ], [ -68.41381, -26.90575 ], [ -68.42089, -26.90393 ], [ -68.42321, -26.90307 ], [ -68.42587, -26.90235 ], [ -68.42969, -26.90175 ], [ -68.43709, -26.90135 ], [ -68.43842, -26.90192 ], [ -68.44127, -26.90176 ], [ -68.44254, -26.9023 ] ] } },
{ "type": "Feature", "properties": { "nombre": "Quebrada Tamberia", "tipo": "stream", "volcan_codigo": "TIP", "volcan_nombre": "Tipas", "drena_volcan": false }, "geometry": { "type": "LineString", "coordinates": [ [ -68.67283, -26.79764 ], [ -68.67452, -26.79767 ], [ -68.67773, -26.79664 ], [ -68.67924, -26.79706 ], [ -68.68119, -26.79844 ], [ -68.68336, -26.80051 ], [ -68.68591, -26.80559 ], [ -68.68782, -26.80852 ], [ -68.68958, -26.81047 ], [ -68.69029, -26.81081 ], [ -68.69114, -26.81066 ], [ -68.69205, -26.81104 ], [ -68.69265, -26.81246 ], [ -68.69297, -26.81384 ], [ -68.6937, -26.81539 ], [ -68.69593, -26.81694 ], [ -68.69975, -26.82026 ], [ -68.70011, -26.82083 ], [ -68.70039, -26.82158 ], [ -68.70039, -26.82232 ], [ -68.70078, -26.8238 ], [ -68.70084, -26.82772 ], [ -68.70185, -26.82945 ], [ -68.70314, -26.83107 ], [ -68.70359, -26.83234 ], [ -68.70346, -26.83418 ], [ -68.7038, -26.83546 ], [ -68.70488, -26.83668 ], [ -68.70795, -26.83908 ], [ -68.71224, -26.84069 ], [ -68.71544, -26.84139 ], [ -68.71834, -26.84275 ], [ -68.72368, -26.84752 ], [ -68.72518, -26.84938 ], [ -68.72797, -26.85357 ], [ -68.72844, -26.85529 ], [ -68.72851, -26.85638 ], [ -68.72977, -26.85928 ], [ -68.73029, -26.86119 ], [ -68.73228, -26.8628 ], [ -68.73329, -26.86224 ], [ -68.73412, -26.86243 ], [ -68.73505, -26.86186 ], [ -68.73797, -26.8622 ], [ -68.74063, -26.86184 ], [ -68.74327, -26.8609 ], [ -68.74432, -26.86079 ], [ -68.74502, -26.86121 ], [ -68.74616, -26.8628 ], [ -68.74857, -26.86318 ], [ -68.7523, -26.86465 ], [ -68.75455, -26.86661 ], [ -68.75625, -26.86676 ], [ -68.76247, -26.86549 ], [ -68.76816, -26.86511 ], [ -68.77341, -26.86559 ], [ -68.77721, -26.86683 ], [ -68.7811, -26.86863 ], [ -68.7853, -26.87074 ], [ -68.78876, -26.87306 ], [ -68.79026, -26.87459 ], [ -68.79206, -26.87734 ], [ -68.79635, -26.88222 ], [ -68.79712, -26.88716 ], [ -68.79652, -26.89084 ], [ -68.79732, -26.893 ], [ -68.80011, -26.89497 ], [ -68.80292, -26.89935 ], [ -68.80624, -26.90526 ], [ -68.80624, -26.90672 ], [ -68.80665, -26.90888 ], [ -68.80731, -26.91003 ] ] } },
{ "type": "Feature", "properties": { "nombre": "Quebrada de La Sal", "tipo": "stream", "volcan_codigo": "TIP", "volcan_nombre": "Tipas", "drena_volcan": false }, "geometry": { "type": "LineString", "coordinates": [ [ -69.08339, -27.35915 ], [ -69.08208, -27.36083 ], [ -69.08177, -27.36152 ], [ -69.0805, -27.36272 ], [ -69.08017, -27.36333 ], [ -69.08025, -27.36598 ], [ -69.08046, -27.36663 ], [ -69.0803, -27.36728 ], [ -69.08035, -27.36822 ], [ -69.07857, -27.37399 ], [ -69.07852, -27.37506 ], [ -69.07879, -27.37585 ], [ -69.08012, -27.37721 ], [ -69.08051, -27.37841 ], [ -69.08144, -27.38 ], [ -69.08149, -27.38101 ], [ -69.08213, -27.38308 ], [ -69.08242, -27.38533 ], [ -69.08362, -27.38638 ], [ -69.08369, -27.38674 ], [ -69.08334, -27.38788 ], [ -69.08349, -27.38822 ], [ -69.08409, -27.38871 ], [ -69.08561, -27.38908 ], [ -69.08615, -27.38936 ], [ -69.08604, -27.38986 ], [ -69.08645, -27.3903 ], [ -69.08705, -27.39045 ], [ -69.08804, -27.39043 ], [ -69.0886, -27.39012 ], [ -69.08918, -27.39007 ], [ -69.09102, -27.39056 ], [ -69.09119, -27.39075 ], [ -69.09179, -27.39211 ], [ -69.09192, -27.39293 ], [ -69.09224, -27.39338 ], [ -69.09242, -27.39439 ], [ -69.09287, -27.39512 ], [ -69.0931, -27.39647 ], [ -69.09285, -27.39792 ], [ -69.09315, -27.39896 ], [ -69.0936, -27.39994 ], [ -69.09426, -27.40058 ], [ -69.09527, -27.40076 ], [ -69.09587, -27.40051 ], [ -69.09684, -27.40043 ], [ -69.09866, -27.40119 ], [ -69.10003, -27.401 ], [ -69.10083, -27.40114 ], [ -69.10126, -27.40156 ], [ -69.10151, -27.40161 ], [ -69.10282, -27.40306 ], [ -69.10415, -27.40344 ], [ -69.10455, -27.4041 ], [ -69.10442, -27.40628 ], [ -69.10455, -27.40708 ], [ -69.1058, -27.41218 ], [ -69.10635, -27.41298 ], [ -69.10719, -27.41355 ], [ -69.10801, -27.41384 ], [ -69.10959, -27.41401 ], [ -69.10998, -27.41418 ], [ -69.11045, -27.41466 ], [ -69.11058, -27.41509 ], [ -69.11097, -27.41538 ], [ -69.11144, -27.41557 ], [ -69.11307, -27.41574 ], [ -69.11427, -27.41734 ], [ -69.11522, -27.41768 ], [ -69.11719, -27.41791 ], [ -69.11856, -27.41873 ], [ -69.12178, -27.42334 ], [ -69.12399, -27.42458 ], [ -69.12659, -27.42519 ], [ -69.12854, -27.42496 ], [ -69.12947, -27.42511 ], [ -69.13095, -27.42664 ], [ -69.13118, -27.42767 ], [ -69.13172, -27.42864 ], [ -69.13271, -27.42978 ], [ -69.13371, -27.43058 ], [ -69.13494, -27.43218 ], [ -69.13691, -27.43347 ], [ -69.13848, -27.43349 ], [ -69.14256, -27.43262 ], [ -69.14586, -27.43298 ], [ -69.15073, -27.43245 ], [ -69.15326, -27.43246 ], [ -69.15785, -27.43321 ], [ -69.16641, -27.43356 ], [ -69.17068, -27.43478 ], [ -69.17365, -27.43535 ], [ -69.17611, -27.4363 ], [ -69.17684, -27.43733 ], [ -69.1765, -27.43888 ], [ -69.17817, -27.44343 ], [ -69.17686, -27.44954 ], [ -69.17637, -27.4507 ], [ -69.17594, -27.45255 ], [ -69.17656, -27.45556 ], [ -69.17636, -27.45686 ], [ -69.17751, -27.45803 ], [ -69.17794, -27.45891 ], [ -69.17899, -27.45948 ], [ -69.18174, -27.45999 ], [ -69.18249, -27.46074 ], [ -69.18355, -27.4612 ] ] } },
{ "type": "Feature", "properties": { "nombre": "Quebrada del Juncalito", "tipo": "stream", "volcan_codigo": "TIP", "volcan_nombre": "Tipas", "drena_volcan": false }, "geometry": { "type": "LineString", "coordinates": [ [ -68.73125, -26.79203 ], [ -68.7315, -26.79093 ], [ -68.73118, -26.78954 ], [ -68.73148, -26.7885 ], [ -68.73202, -26.78758 ], [ -68.73286, -26.7866 ], [ -68.73449, -26.7858 ], [ -68.73635, -26.78459 ], [ -68.73807, -26.78387 ], [ -68.73927, -26.78287 ], [ -68.74058, -26.78218 ], [ -68.74146, -26.78149 ], [ -68.74386, -26.7804 ], [ -68.74539, -26.7794 ], [ -68.74835, -26.77831 ], [ -68.74955, -26.77827 ], [ -68.75215, -26.77875 ], [ -68.75438, -26.7789 ], [ -68.75807, -26.778 ], [ -68.75914, -26.77802 ], [ -68.76202, -26.77752 ], [ -68.76285, -26.77756 ], [ -68.76563, -26.7763 ], [ -68.76722, -26.77618 ], [ -68.76973, -26.77553 ], [ -68.77076, -26.775 ], [ -68.77202, -26.77371 ], [ -68.77344, -26.77323 ], [ -68.77475, -26.77306 ], [ -68.77559, -26.7726 ], [ -68.77627, -26.77184 ], [ -68.7764, -26.77074 ], [ -68.77679, -26.7699 ], [ -68.77771, -26.76865 ], [ -68.77752, -26.76766 ], [ -68.77668, -26.76584 ], [ -68.77565, -26.76523 ], [ -68.77503, -26.7641 ], [ -68.77524, -26.76239 ], [ -68.77593, -26.76046 ], [ -68.77644, -26.75818 ], [ -68.77717, -26.75632 ], [ -68.77717, -26.75534 ], [ -68.77758, -26.75452 ], [ -68.77923, -26.75315 ], [ -68.77986, -26.75293 ], [ -68.78074, -26.75287 ], [ -68.78265, -26.75344 ], [ -68.78387, -26.75361 ], [ -68.78453, -26.75268 ], [ -68.78498, -26.75235 ], [ -68.78518, -26.75162 ], [ -68.78571, -26.75107 ], [ -68.78578, -26.75074 ], [ -68.78556, -26.7503 ], [ -68.78565, -26.74984 ], [ -68.78533, -26.74932 ], [ -68.78531, -26.74884 ], [ -68.78692, -26.74683 ], [ -68.78719, -26.74559 ], [ -68.78807, -26.7439 ], [ -68.78874, -26.7431 ], [ -68.78953, -26.74277 ], [ -68.79196, -26.74265 ], [ -68.7929, -26.74225 ], [ -68.79344, -26.74166 ], [ -68.7944, -26.74005 ], [ -68.79445, -26.73921 ], [ -68.79483, -26.73859 ], [ -68.79616, -26.73806 ], [ -68.79799, -26.738 ], [ -68.79915, -26.73838 ], [ -68.80024, -26.73853 ], [ -68.80146, -26.73802 ], [ -68.80211, -26.73706 ], [ -68.80226, -26.73585 ], [ -68.80181, -26.7352 ], [ -68.80155, -26.73399 ], [ -68.80159, -26.73223 ], [ -68.80189, -26.73154 ], [ -68.8023, -26.73108 ], [ -68.80468, -26.73027 ], [ -68.80563, -26.7296 ], [ -68.8061, -26.72899 ], [ -68.8062, -26.72799 ], [ -68.80693, -26.72721 ], [ -68.80794, -26.72673 ], [ -68.80891, -26.726 ], [ -68.80975, -26.72476 ], [ -68.81088, -26.72376 ], [ -68.81093, -26.72311 ], [ -68.81142, -26.7223 ], [ -68.81157, -26.72171 ], [ -68.81309, -26.72065 ], [ -68.81335, -26.7196 ], [ -68.81365, -26.71933 ], [ -68.81454, -26.71695 ] ] } },
{ "type": "Feature", "properties": { "nombre": "Rio Lajitas", "tipo": "river", "volcan_codigo": "TIP", "volcan_nombre": "Tipas", "drena_volcan": false }, "geometry": { "type": "MultiLineString", "coordinates": [ [ [ -68.85114, -27.27872 ], [ -68.85252, -27.27782 ], [ -68.85597, -27.27793 ], [ -68.85745, -27.2778 ], [ -68.86041, -27.27631 ], [ -68.86391, -27.27429 ], [ -68.86481, -27.27359 ], [ -68.86599, -27.27332 ], [ -68.86724, -27.27328 ], [ -68.86923, -27.27256 ], [ -68.87048, -27.27259 ], [ -68.87726, -27.27349 ], [ -68.88131, -27.27492 ], [ -68.8823, -27.27614 ], [ -68.88327, -27.27803 ], [ -68.88331, -27.27921 ], [ -68.88385, -27.27952 ], [ -68.88393, -27.28045 ], [ -68.88421, -27.28133 ], [ -68.88571, -27.28217 ], [ -68.88709, -27.28255 ], [ -68.88855, -27.28228 ], [ -68.89108, -27.28232 ], [ -68.89228, -27.28264 ], [ -68.89316, -27.28362 ], [ -68.89481, -27.28461 ], [ -68.89582, -27.28552 ], [ -68.89625, -27.28644 ], [ -68.89646, -27.28722 ], [ -68.89644, -27.28959 ], [ -68.89661, -27.2902 ], [ -68.89711, -27.2906 ], [ -68.89747, -27.29132 ], [ -68.89801, -27.2917 ], [ -68.89988, -27.29241 ], [ -68.90196, -27.29283 ], [ -68.90262, -27.29336 ], [ -68.90284, -27.29416 ], [ -68.90378, -27.29483 ], [ -68.9046, -27.29506 ], [ -68.90522, -27.2955 ], [ -68.90513, -27.29662 ], [ -68.90455, -27.29767 ], [ -68.90485, -27.29887 ], [ -68.90569, -27.29969 ], [ -68.90657, -27.30017 ], [ -68.90844, -27.30063 ], [ -68.90932, -27.30101 ], [ -68.91005, -27.30166 ], [ -68.9108, -27.30335 ], [ -68.9132, -27.30448 ], [ -68.91558, -27.3053 ], [ -68.9179, -27.30545 ], [ -68.91966, -27.30528 ], [ -68.9211, -27.30602 ], [ -68.92299, -27.30814 ], [ -68.92414, -27.30839 ], [ -68.92483, -27.30818 ], [ -68.92674, -27.30808 ], [ -68.92796, -27.30776 ], [ -68.92962, -27.30671 ], [ -68.93107, -27.30743 ], [ -68.93286, -27.3077 ], [ -68.93522, -27.3074 ], [ -68.9367, -27.30667 ], [ -68.93745, -27.30675 ], [ -68.93899, -27.30781 ], [ -68.93934, -27.30835 ], [ -68.94049, -27.30886 ], [ -68.94371, -27.30951 ], [ -68.94466, -27.30957 ], [ -68.94624, -27.30902 ], [ -68.94768, -27.30896 ], [ -68.94854, -27.30858 ], [ -68.94918, -27.30797 ], [ -68.94987, -27.30665 ], [ -68.95064, -27.30648 ], [ -68.95156, -27.30679 ], [ -68.9527, -27.30679 ], [ -68.95502, -27.30629 ], [ -68.9559, -27.30576 ], [ -68.95618, -27.30509 ], [ -68.95601, -27.30417 ], [ -68.96139, -27.29834 ], [ -68.96283, -27.29645 ], [ -68.9639, -27.29311 ], [ -68.96433, -27.29233 ], [ -68.96448, -27.29155 ], [ -68.96508, -27.29067 ], [ -68.9654, -27.28835 ], [ -68.96575, -27.28762 ], [ -68.96626, -27.28695 ], [ -68.96716, -27.2852 ], [ -68.96907, -27.28362 ], [ -68.96937, -27.28291 ], [ -68.96914, -27.28232 ], [ -68.9704, -27.28043 ], [ -68.9712, -27.27978 ], [ -68.97212, -27.27952 ], [ -68.97337, -27.27961 ], [ -68.97525, -27.28026 ], [ -68.97888, -27.27965 ], [ -68.98006, -27.27923 ], [ -68.98184, -27.2782 ], [ -68.9839, -27.27652 ], [ -68.98624, -27.27578 ], [ -68.98733, -27.27526 ], [ -68.98982, -27.27364 ], [ -68.99107, -27.27309 ], [ -68.99407, -27.2709 ], [ -68.99648, -27.26945 ], [ -69.0027, -27.26656 ] ], [ [ -69.00282, -27.26652 ], [ -69.00456, -27.26536 ], [ -69.005, -27.26475 ] ], [ [ -69.0027, -27.26656 ], [ -69.00282, -27.26652 ] ] ] } },
{ "type": "Feature", "properties": { "nombre": "Río Astaburuaga", "tipo": "river", "volcan_codigo": "TIP", "volcan_nombre": "Tipas", "drena_volcan": false }, "geometry": { "type": "LineString", "coordinates": [ [ -69.07997, -27.70016 ], [ -69.07959, -27.69963 ], [ -69.07873, -27.69906 ], [ -69.07798, -27.69832 ], [ -69.07673, -27.69775 ], [ -69.076, -27.6971 ], [ -69.07474, -27.69655 ], [ -69.0733, -27.69628 ], [ -69.07287, -27.69634 ], [ -69.07111, -27.69733 ], [ -69.06817, -27.69797 ], [ -69.06695, -27.69847 ], [ -69.06545, -27.69826 ], [ -69.06315, -27.69623 ], [ -69.06251, -27.69539 ], [ -69.06137, -27.69438 ], [ -69.05757, -27.69007 ], [ -69.05727, -27.6891 ], [ -69.05725, -27.68667 ], [ -69.05864, -27.68443 ], [ -69.05916, -27.68306 ], [ -69.0589, -27.68207 ], [ -69.06015, -27.67945 ], [ -69.06051, -27.67916 ], [ -69.0624, -27.67837 ], [ -69.06306, -27.67789 ], [ -69.06429, -27.67677 ], [ -69.06512, -27.67628 ], [ -69.06594, -27.67512 ], [ -69.06684, -27.67449 ], [ -69.06744, -27.6736 ], [ -69.06864, -27.67115 ], [ -69.0689, -27.67048 ], [ -69.06914, -27.66898 ], [ -69.07014, -27.66854 ], [ -69.0712, -27.66753 ], [ -69.07205, -27.66569 ], [ -69.07276, -27.66499 ], [ -69.07444, -27.6639 ], [ -69.07643, -27.66309 ], [ -69.07791, -27.66187 ], [ -69.08122, -27.66122 ], [ -69.08315, -27.66037 ], [ -69.08379, -27.65961 ], [ -69.08431, -27.65874 ], [ -69.08461, -27.65782 ], [ -69.08607, -27.65552 ], [ -69.08639, -27.65351 ], [ -69.08596, -27.6518 ], [ -69.08542, -27.65108 ], [ -69.08426, -27.65022 ], [ -69.08383, -27.64929 ], [ -69.08368, -27.64841 ], [ -69.08197, -27.64615 ], [ -69.08145, -27.6449 ], [ -69.08077, -27.64404 ], [ -69.08012, -27.64262 ], [ -69.07948, -27.64077 ], [ -69.07956, -27.64039 ], [ -69.07896, -27.63779 ], [ -69.07845, -27.63672 ], [ -69.07843, -27.63623 ], [ -69.07866, -27.63556 ], [ -69.07806, -27.63446 ], [ -69.07811, -27.6337 ], [ -69.07776, -27.63186 ], [ -69.07791, -27.62954 ], [ -69.07815, -27.62893 ], [ -69.07924, -27.62756 ], [ -69.07993, -27.62606 ], [ -69.08214, -27.62463 ], [ -69.08308, -27.62309 ], [ -69.08413, -27.62037 ], [ -69.08422, -27.6196 ], [ -69.08394, -27.61819 ], [ -69.08368, -27.61769 ], [ -69.08403, -27.61669 ], [ -69.08388, -27.61499 ], [ -69.08418, -27.61338 ], [ -69.08392, -27.61277 ], [ -69.08435, -27.61222 ], [ -69.08448, -27.61146 ], [ -69.08386, -27.60994 ], [ -69.08405, -27.60925 ], [ -69.08398, -27.60861 ], [ -69.08484, -27.60661 ], [ -69.08471, -27.60583 ], [ -69.08501, -27.60307 ], [ -69.08338, -27.60064 ], [ -69.0824, -27.59982 ], [ -69.08197, -27.59923 ], [ -69.07993, -27.59583 ], [ -69.07944, -27.59472 ], [ -69.07939, -27.59377 ], [ -69.07875, -27.59206 ], [ -69.0777, -27.59157 ], [ -69.07673, -27.58978 ], [ -69.07596, -27.58879 ], [ -69.07512, -27.58839 ], [ -69.07426, -27.5883 ], [ -69.07351, -27.58736 ], [ -69.07276, -27.58584 ], [ -69.0725, -27.58491 ], [ -69.07255, -27.58419 ], [ -69.0721, -27.58345 ], [ -69.07094, -27.58259 ], [ -69.06804, -27.57932 ], [ -69.06699, -27.57915 ], [ -69.06652, -27.5793 ], [ -69.06532, -27.57814 ], [ -69.06469, -27.57774 ], [ -69.0642, -27.57719 ], [ -69.06416, -27.57689 ], [ -69.06298, -27.57624 ], [ -69.06255, -27.57563 ], [ -69.06081, -27.57443 ], [ -69.06036, -27.57325 ], [ -69.05967, -27.5731 ], [ -69.05926, -27.57253 ], [ -69.05922, -27.57169 ], [ -69.05893, -27.57116 ], [ -69.05887, -27.57004 ], [ -69.05846, -27.56962 ], [ -69.05821, -27.56886 ], [ -69.0584, -27.56781 ], [ -69.05816, -27.56711 ], [ -69.05769, -27.56652 ], [ -69.05527, -27.56538 ], [ -69.05361, -27.56277 ], [ -69.05297, -27.56064 ], [ -69.0531, -27.55982 ], [ -69.05338, -27.55933 ], [ -69.05327, -27.55863 ], [ -69.05293, -27.55805 ], [ -69.05319, -27.55724 ], [ -69.05329, -27.55562 ], [ -69.05237, -27.55412 ], [ -69.05222, -27.55334 ], [ -69.05265, -27.55143 ], [ -69.05304, -27.5506 ], [ -69.05286, -27.54908 ], [ -69.05226, -27.54843 ], [ -69.05149, -27.54672 ], [ -69.0498, -27.5458 ], [ -69.04864, -27.54441 ], [ -69.04684, -27.5431 ], [ -69.04609, -27.5422 ], [ -69.04528, -27.54028 ], [ -69.0456, -27.53908 ], [ -69.04556, -27.53802 ], [ -69.04525, -27.53762 ], [ -69.04513, -27.53687 ], [ -69.0456, -27.53613 ], [ -69.04504, -27.53493 ], [ -69.04536, -27.53427 ], [ -69.04495, -27.53324 ], [ -69.04472, -27.53189 ], [ -69.04403, -27.52955 ], [ -69.0435, -27.52881 ], [ -69.0433, -27.52772 ], [ -69.04272, -27.52688 ], [ -69.04234, -27.52597 ], [ -69.0421, -27.52447 ], [ -69.04086, -27.52352 ], [ -69.03965, -27.5215 ], [ -69.03807, -27.52022 ], [ -69.03633, -27.51771 ], [ -69.03635, -27.51691 ], [ -69.03547, -27.51531 ], [ -69.03508, -27.51231 ], [ -69.03465, -27.5116 ], [ -69.03508, -27.50987 ], [ -69.03534, -27.50949 ], [ -69.03571, -27.50822 ], [ -69.03545, -27.50713 ], [ -69.03571, -27.50664 ], [ -69.03515, -27.50519 ], [ -69.03508, -27.50458 ], [ -69.03549, -27.50275 ], [ -69.03581, -27.50199 ], [ -69.03626, -27.5015 ], [ -69.03607, -27.50096 ], [ -69.03648, -27.50016 ], [ -69.03641, -27.4998 ], [ -69.03656, -27.49935 ], [ -69.03573, -27.49775 ], [ -69.03579, -27.49643 ], [ -69.03566, -27.49546 ], [ -69.03603, -27.49476 ], [ -69.03583, -27.4943 ], [ -69.03609, -27.49421 ], [ -69.03609, -27.49392 ], [ -69.03547, -27.49187 ], [ -69.03556, -27.49135 ], [ -69.03435, -27.4888 ], [ -69.03478, -27.48813 ], [ -69.03478, -27.4876 ], [ -69.03513, -27.48734 ], [ -69.03526, -27.48676 ], [ -69.03493, -27.4849 ], [ -69.03521, -27.48389 ], [ -69.03609, -27.48229 ], [ -69.03729, -27.48062 ], [ -69.03785, -27.48016 ], [ -69.03897, -27.47829 ], [ -69.03968, -27.47805 ], [ -69.04189, -27.47601 ], [ -69.04238, -27.47492 ], [ -69.04236, -27.47395 ], [ -69.04384, -27.47161 ], [ -69.04412, -27.4706 ], [ -69.04489, -27.46999 ], [ -69.04611, -27.46815 ], [ -69.04628, -27.46634 ], [ -69.04661, -27.4658 ], [ -69.048, -27.46487 ], [ -69.05051, -27.46363 ], [ -69.05169, -27.46358 ], [ -69.05386, -27.46409 ], [ -69.05478, -27.46451 ], [ -69.05673, -27.46443 ], [ -69.06081, -27.46561 ], [ -69.06397, -27.46927 ], [ -69.06448, -27.47037 ], [ -69.06651, -27.47311 ], [ -69.06701, -27.47422 ], [ -69.06898, -27.47601 ], [ -69.07001, -27.47641 ], [ -69.07136, -27.47662 ], [ -69.07523, -27.47618 ], [ -69.07791, -27.477 ], [ -69.07911, -27.47755 ], [ -69.08231, -27.48151 ], [ -69.08408, -27.48259 ], [ -69.0848, -27.48342 ], [ -69.08638, -27.48402 ], [ -69.08793, -27.48439 ], [ -69.09, -27.48556 ], [ -69.09088, -27.48652 ], [ -69.0923, -27.48928 ], [ -69.0927, -27.48975 ], [ -69.09366, -27.49028 ], [ -69.09402, -27.49066 ], [ -69.09438, -27.49199 ], [ -69.09522, -27.49302 ], [ -69.09559, -27.49331 ], [ -69.09678, -27.4932 ], [ -69.0982, -27.49525 ], [ -69.10012, -27.49598 ], [ -69.10143, -27.49685 ] ] } },
{ "type": "Feature", "properties": { "nombre": "Río Juncalito", "tipo": "river", "volcan_codigo": "TIP", "volcan_nombre": "Tipas", "drena_volcan": false }, "geometry": { "type": "LineString", "coordinates": [ [ -68.8281, -26.77467 ], [ -68.82784, -26.77373 ], [ -68.82774, -26.7725 ], [ -68.82741, -26.77159 ], [ -68.82526, -26.76918 ], [ -68.82355, -26.76694 ], [ -68.82332, -26.76554 ], [ -68.82263, -26.76399 ], [ -68.82188, -26.76293 ], [ -68.82106, -26.76222 ], [ -68.82069, -26.7611 ], [ -68.82142, -26.76015 ], [ -68.82182, -26.75943 ], [ -68.82198, -26.75859 ], [ -68.82288, -26.7575 ], [ -68.82321, -26.75657 ], [ -68.82385, -26.75598 ], [ -68.82466, -26.75572 ], [ -68.82569, -26.75586 ], [ -68.82645, -26.75555 ], [ -68.82732, -26.75468 ], [ -68.82792, -26.75462 ], [ -68.82944, -26.75311 ], [ -68.8306, -26.75248 ], [ -68.83149, -26.75159 ], [ -68.83225, -26.75035 ], [ -68.8324, -26.74893 ], [ -68.83233, -26.74782 ], [ -68.83288, -26.74654 ], [ -68.83276, -26.74595 ], [ -68.83197, -26.74462 ], [ -68.83212, -26.74291 ], [ -68.83142, -26.73997 ], [ -68.83015, -26.73849 ], [ -68.8262, -26.73749 ], [ -68.82334, -26.73603 ], [ -68.82142, -26.73472 ], [ -68.81883, -26.7322 ], [ -68.81826, -26.73093 ], [ -68.81823, -26.72875 ], [ -68.8179, -26.72803 ], [ -68.8183, -26.72699 ], [ -68.81821, -26.72538 ], [ -68.81686, -26.72349 ], [ -68.81706, -26.72296 ], [ -68.81639, -26.72103 ], [ -68.81633, -26.72 ], [ -68.81454, -26.71695 ], [ -68.81423, -26.71537 ], [ -68.81355, -26.71461 ], [ -68.81302, -26.71428 ], [ -68.81248, -26.71023 ], [ -68.81211, -26.70986 ], [ -68.81224, -26.70952 ], [ -68.81168, -26.70901 ], [ -68.81148, -26.70846 ], [ -68.8114, -26.70729 ], [ -68.81074, -26.70539 ], [ -68.81077, -26.70435 ], [ -68.80965, -26.70193 ], [ -68.80985, -26.70053 ], [ -68.80971, -26.69992 ], [ -68.80838, -26.69846 ], [ -68.80789, -26.69656 ], [ -68.8066, -26.6949 ], [ -68.80678, -26.6944 ], [ -68.8066, -26.69372 ], [ -68.80574, -26.69264 ], [ -68.80485, -26.69242 ], [ -68.80343, -26.69027 ], [ -68.80278, -26.68833 ], [ -68.80232, -26.68765 ], [ -68.80215, -26.68654 ], [ -68.80141, -26.68555 ], [ -68.80134, -26.68504 ], [ -68.80076, -26.68383 ], [ -68.80106, -26.68274 ], [ -68.8006, -26.68228 ], [ -68.80086, -26.68175 ], [ -68.80086, -26.68122 ], [ -68.8003, -26.67981 ], [ -68.80034, -26.67832 ], [ -68.79982, -26.67783 ], [ -68.79938, -26.67708 ], [ -68.79929, -26.67579 ], [ -68.79885, -26.67473 ], [ -68.7989, -26.67355 ], [ -68.79862, -26.67303 ], [ -68.79802, -26.67263 ], [ -68.79815, -26.67225 ], [ -68.79686, -26.67124 ], [ -68.79537, -26.67039 ], [ -68.79346, -26.67049 ], [ -68.79199, -26.67025 ], [ -68.79108, -26.66984 ], [ -68.79036, -26.66895 ], [ -68.79012, -26.66827 ], [ -68.78891, -26.66638 ], [ -68.78843, -26.66486 ], [ -68.78863, -26.66346 ], [ -68.78851, -26.66263 ], [ -68.78883, -26.66136 ], [ -68.78807, -26.65951 ], [ -68.78822, -26.65922 ], [ -68.78817, -26.65888 ], [ -68.78726, -26.65779 ], [ -68.78681, -26.65767 ], [ -68.78699, -26.65743 ], [ -68.78688, -26.65696 ], [ -68.78608, -26.6565 ], [ -68.78569, -26.65551 ], [ -68.78559, -26.65405 ], [ -68.78567, -26.65356 ], [ -68.78608, -26.65295 ], [ -68.78656, -26.65068 ], [ -68.78727, -26.64985 ], [ -68.78745, -26.64942 ], [ -68.78891, -26.64806 ], [ -68.79121, -26.64751 ], [ -68.79202, -26.64751 ], [ -68.79308, -26.6471 ], [ -68.7938, -26.64672 ], [ -68.79402, -26.64621 ], [ -68.79761, -26.64525 ], [ -68.79837, -26.64484 ], [ -68.79946, -26.64389 ], [ -68.80047, -26.64349 ], [ -68.80153, -26.64243 ], [ -68.80207, -26.64109 ], [ -68.80257, -26.64047 ], [ -68.80305, -26.64035 ], [ -68.80368, -26.63993 ], [ -68.80437, -26.63798 ], [ -68.80467, -26.63757 ], [ -68.80493, -26.63652 ], [ -68.8052, -26.63625 ], [ -68.80533, -26.63579 ], [ -68.80526, -26.63526 ], [ -68.80485, -26.63487 ], [ -68.80468, -26.63335 ], [ -68.80487, -26.63267 ], [ -68.80485, -26.63144 ], [ -68.80442, -26.63072 ], [ -68.80432, -26.62938 ], [ -68.80377, -26.62868 ], [ -68.80377, -26.62785 ], [ -68.80397, -26.62714 ], [ -68.80381, -26.62642 ], [ -68.80404, -26.62564 ], [ -68.80389, -26.6241 ], [ -68.8053, -26.62213 ], [ -68.80569, -26.62024 ], [ -68.80568, -26.61934 ], [ -68.80339, -26.61771 ], [ -68.80311, -26.61629 ], [ -68.80336, -26.61582 ], [ -68.80391, -26.61532 ], [ -68.80396, -26.61467 ], [ -68.80392, -26.61399 ], [ -68.80339, -26.61365 ], [ -68.80338, -26.61256 ], [ -68.80415, -26.61173 ], [ -68.80432, -26.61131 ], [ -68.80407, -26.61087 ], [ -68.80432, -26.61047 ], [ -68.80437, -26.60924 ], [ -68.80538, -26.60828 ], [ -68.80536, -26.6074 ], [ -68.80571, -26.6067 ], [ -68.80544, -26.6054 ], [ -68.80568, -26.60468 ], [ -68.80533, -26.60425 ], [ -68.80596, -26.6025 ], [ -68.80557, -26.60041 ], [ -68.80579, -26.59945 ], [ -68.80277, -26.59614 ], [ -68.80047, -26.59068 ], [ -68.80213, -26.58877 ], [ -68.8018, -26.5874 ], [ -68.80365, -26.58489 ], [ -68.80596, -26.58391 ], [ -68.80745, -26.58376 ], [ -68.8075, -26.58341 ], [ -68.80772, -26.58359 ], [ -68.80846, -26.58329 ], [ -68.80913, -26.58212 ], [ -68.81118, -26.58147 ], [ -68.81143, -26.58056 ], [ -68.81309, -26.57982 ], [ -68.81485, -26.57953 ], [ -68.81589, -26.57894 ], [ -68.81694, -26.57793 ], [ -68.81836, -26.57567 ], [ -68.82015, -26.57437 ], [ -68.82165, -26.57292 ], [ -68.82253, -26.57152 ], [ -68.82493, -26.56837 ], [ -68.82553, -26.56827 ], [ -68.82665, -26.56721 ], [ -68.82716, -26.56716 ], [ -68.82755, -26.56675 ], [ -68.82779, -26.56525 ], [ -68.82756, -26.5645 ], [ -68.82885, -26.56389 ], [ -68.82896, -26.56279 ], [ -68.82931, -26.56201 ], [ -68.82922, -26.56168 ], [ -68.82937, -26.56073 ], [ -68.8287, -26.56041 ], [ -68.82824, -26.55939 ], [ -68.82858, -26.55929 ], [ -68.82898, -26.55836 ], [ -68.83, -26.55802 ], [ -68.8315, -26.55821 ], [ -68.83255, -26.55762 ], [ -68.83286, -26.55728 ], [ -68.83275, -26.55687 ], [ -68.83294, -26.55703 ], [ -68.83328, -26.5569 ], [ -68.83351, -26.55632 ], [ -68.83394, -26.5565 ], [ -68.83507, -26.55537 ], [ -68.83523, -26.5548 ], [ -68.83569, -26.55481 ], [ -68.83731, -26.5533 ], [ -68.83774, -26.55252 ], [ -68.84068, -26.5512 ], [ -68.84054, -26.55042 ], [ -68.84192, -26.54968 ], [ -68.84193, -26.54893 ], [ -68.84294, -26.54797 ], [ -68.84282, -26.54773 ], [ -68.84326, -26.54737 ], [ -68.84302, -26.5461 ], [ -68.84282, -26.54592 ], [ -68.84263, -26.54527 ], [ -68.84277, -26.54497 ], [ -68.84296, -26.54515 ], [ -68.84324, -26.54498 ], [ -68.84336, -26.54455 ], [ -68.84322, -26.54441 ], [ -68.84341, -26.54417 ], [ -68.84397, -26.54215 ], [ -68.84503, -26.54126 ], [ -68.84545, -26.54065 ], [ -68.8459, -26.54081 ], [ -68.84628, -26.54048 ], [ -68.84675, -26.54062 ], [ -68.84779, -26.54006 ], [ -68.84887, -26.54007 ], [ -68.8502, -26.53928 ], [ -68.85105, -26.53825 ], [ -68.85152, -26.5375 ], [ -68.85161, -26.53627 ], [ -68.85238, -26.53427 ], [ -68.85245, -26.53367 ], [ -68.85286, -26.53317 ], [ -68.85295, -26.53267 ], [ -68.8532, -26.53224 ], [ -68.85433, -26.53144 ], [ -68.85481, -26.53071 ], [ -68.85489, -26.53019 ], [ -68.85592, -26.5296 ], [ -68.85593, -26.52885 ], [ -68.85679, -26.52675 ], [ -68.85703, -26.52662 ], [ -68.85681, -26.5264 ], [ -68.85703, -26.52616 ], [ -68.8571, -26.52527 ], [ -68.85738, -26.52453 ], [ -68.85763, -26.52436 ], [ -68.8576, -26.52419 ], [ -68.85734, -26.52419 ], [ -68.85737, -26.52361 ], [ -68.85779, -26.52298 ], [ -68.85754, -26.5228 ], [ -68.85776, -26.52271 ], [ -68.85754, -26.52219 ], [ -68.85769, -26.5218 ], [ -68.85753, -26.52153 ], [ -68.85784, -26.52138 ], [ -68.85791, -26.52051 ], [ -68.85818, -26.52028 ], [ -68.85824, -26.51962 ], [ -68.85879, -26.5189 ], [ -68.8595, -26.51729 ], [ -68.85928, -26.5161 ], [ -68.85953, -26.51581 ], [ -68.85934, -26.51575 ], [ -68.85935, -26.51547 ], [ -68.86047, -26.51457 ], [ -68.86008, -26.51337 ] ] } },
{ "type": "Feature", "properties": { "nombre": "Río Lamas", "tipo": "stream", "volcan_codigo": "TIP", "volcan_nombre": "Tipas", "drena_volcan": false }, "geometry": { "type": "MultiLineString", "coordinates": [ [ [ -68.80676, -27.12401 ], [ -68.80732, -27.12447 ], [ -68.80826, -27.12623 ], [ -68.80944, -27.12773 ], [ -68.8102, -27.12838 ], [ -68.81159, -27.12848 ], [ -68.81292, -27.12786 ], [ -68.82361, -27.12869 ], [ -68.82633, -27.12813 ], [ -68.82792, -27.12683 ], [ -68.82874, -27.12585 ], [ -68.82981, -27.12535 ], [ -68.83419, -27.12531 ], [ -68.83599, -27.12509 ], [ -68.83929, -27.12176 ], [ -68.842, -27.121 ], [ -68.84294, -27.12023 ], [ -68.84547, -27.12046 ], [ -68.84736, -27.12008 ], [ -68.84985, -27.11916 ], [ -68.85006, -27.11893 ], [ -68.85006, -27.11847 ], [ -68.85026, -27.11816 ], [ -68.85097, -27.11822 ], [ -68.85122, -27.1186 ], [ -68.85242, -27.11872 ], [ -68.85311, -27.11843 ], [ -68.85408, -27.11767 ], [ -68.85521, -27.11621 ], [ -68.85747, -27.11488 ], [ -68.86006, -27.11083 ], [ -68.8615, -27.10943 ], [ -68.86238, -27.10882 ], [ -68.86313, -27.10764 ], [ -68.86416, -27.1071 ], [ -68.86592, -27.10668 ], [ -68.86626, -27.10596 ], [ -68.86644, -27.10477 ], [ -68.86695, -27.10388 ], [ -68.86824, -27.10267 ], [ -68.87043, -27.10004 ], [ -68.87423, -27.09434 ], [ -68.87521, -27.09346 ], [ -68.87729, -27.09276 ], [ -68.87871, -27.09192 ], [ -68.87963, -27.08961 ], [ -68.88051, -27.08829 ], [ -68.88197, -27.08701 ], [ -68.88332, -27.08678 ], [ -68.88534, -27.0871 ], [ -68.88658, -27.08789 ], [ -68.8901, -27.08779 ], [ -68.8942, -27.08962 ], [ -68.89661, -27.09045 ], [ -68.8989, -27.09054 ], [ -68.90058, -27.09022 ], [ -68.90296, -27.09073 ], [ -68.90427, -27.09152 ], [ -68.90491, -27.09238 ], [ -68.90785, -27.09339 ], [ -68.90954, -27.09339 ], [ -68.91461, -27.09186 ], [ -68.9165, -27.0919 ], [ -68.91901, -27.09005 ], [ -68.9215, -27.0893 ], [ -68.92343, -27.08651 ], [ -68.92544, -27.08521 ], [ -68.92585, -27.08462 ], [ -68.92761, -27.08338 ], [ -68.92762, -27.08186 ] ], [ [ -68.92762, -27.08186 ], [ -68.92798, -27.08175 ], [ -68.92845, -27.08198 ], [ -68.92994, -27.08189 ], [ -68.93099, -27.08225 ], [ -68.9316, -27.08206 ], [ -68.93321, -27.08198 ], [ -68.93362, -27.08155 ], [ -68.93596, -27.08184 ], [ -68.93898, -27.08302 ], [ -68.93966, -27.08289 ], [ -68.94058, -27.08098 ], [ -68.94159, -27.08005 ], [ -68.94539, -27.0802 ], [ -68.94778, -27.0826 ], [ -68.94918, -27.0831 ], [ -68.95124, -27.08327 ], [ -68.95201, -27.08274 ], [ -68.95254, -27.08279 ], [ -68.95469, -27.08216 ], [ -68.95558, -27.08243 ], [ -68.95617, -27.08317 ], [ -68.95707, -27.08315 ], [ -68.95807, -27.08338 ], [ -68.95874, -27.08325 ], [ -68.95983, -27.08351 ], [ -68.96118, -27.0834 ], [ -68.96148, -27.08351 ], [ -68.96416, -27.08323 ], [ -68.96527, -27.08361 ], [ -68.96675, -27.08331 ], [ -68.96771, -27.08347 ], [ -68.96907, -27.08328 ], [ -68.97014, -27.08291 ], [ -68.97072, -27.08228 ], [ -68.97226, -27.08212 ], [ -68.97371, -27.08131 ], [ -68.9755, -27.08088 ], [ -68.97671, -27.08205 ], [ -68.97824, -27.08213 ], [ -68.97892, -27.08131 ], [ -68.98591, -27.07857 ], [ -68.98814, -27.07566 ], [ -68.99159, -27.07266 ], [ -68.99829, -27.06898 ], [ -68.99915, -27.06728 ], [ -69.00232, -27.06573 ], [ -69.00468, -27.06393 ], [ -69.00725, -27.05992 ], [ -69.00906, -27.05843 ], [ -69.01399, -27.0561 ], [ -69.01764, -27.0525 ], [ -69.01979, -27.04864 ], [ -69.02365, -27.04658 ], [ -69.03021, -27.04272 ], [ -69.03614, -27.04111 ], [ -69.04571, -27.03477 ], [ -69.04953, -27.03316 ], [ -69.05382, -27.03251 ], [ -69.05867, -27.02984 ], [ -69.06101, -27.02781 ], [ -69.06378, -27.02456 ], [ -69.0653, -27.01645 ], [ -69.06521, -27.0106 ], [ -69.06613, -27.00431 ], [ -69.06903, -26.99317 ], [ -69.07066, -26.98954 ] ] ] } }
]
}
