{
"type": "FeatureCollection",
"name": "CLV",
"crs": { "type": "name", "properties": { "name": "urn:ogc:def:crs:OGC:1.3:CRS84" } },
"xy_coordinate_resolution": 1e-05,
"features": [
{ "type": "Feature", "properties": { "tipo": "clinic", "nombre": "Filial Cruz Roja Lago Ranco", "icono": "🏥", "color": "#ff8fa3" }, "geometry": { "type": "Point", "coordinates": [ -72.4823, -40.3216 ] } },
{ "type": "Feature", "properties": { "tipo": "represa", "nombre": "Sin nombre", "icono": "💧", "color": "#0077b6" }, "geometry": { "type": "Point", "coordinates": [ -72.30366, -40.08506 ] } }
]
}
