{
"type": "FeatureCollection",
"name": "DGR",
"crs": { "type": "name", "properties": { "name": "urn:ogc:def:crs:OGC:1.3:CRS84" } },
"xy_coordinate_resolution": 1e-05,
"features": [
{ "type": "Feature", "properties": { "tipo": "represa", "nombre": "Bocatoma Armerillo", "icono": "💧", "color": "#0077b6" }, "geometry": { "type": "Point", "coordinates": [ -71.10621, -35.70401 ] } },
{ "type": "Feature", "properties": { "tipo": "planta_electrica", "nombre": "Central Hidroeléctrica Pehuenche", "icono": "⚡", "color": "#f9c74f" }, "geometry": { "type": "Point", "coordinates": [ -71.159, -35.73269 ] } },
{ "type": "Feature", "properties": { "tipo": "represa", "nombre": "Bocatoma Carretones", "icono": "💧", "color": "#0077b6" }, "geometry": { "type": "Point", "coordinates": [ -71.2616, -35.53627 ] } }
]
}
