{
"type": "FeatureCollection",
"name": "LAN",
"crs": { "type": "name", "properties": { "name": "urn:ogc:def:crs:OGC:1.3:CRS84" } },
"xy_coordinate_resolution": 1e-05,
"features": [
{ "type": "Feature", "properties": { "tipo": "clinic", "nombre": "CECOSF Neltume", "icono": "🏥", "color": "#ff8fa3" }, "geometry": { "type": "Point", "coordinates": [ -71.94059, -39.85015 ] } },
{ "type": "Feature", "properties": { "tipo": "hospital", "nombre": "Posta Sanitaria", "icono": "🏥", "color": "#e63946" }, "geometry": { "type": "Point", "coordinates": [ -71.07752, -39.73076 ] } },
{ "type": "Feature", "properties": { "tipo": "clinic", "nombre": "CECOSF Liquiñe", "icono": "🏥", "color": "#ff8fa3" }, "geometry": { "type": "Point", "coordinates": [ -71.85393, -39.74673 ] } }
]
}
