{
"type": "FeatureCollection",
"name": "OSO",
"crs": { "type": "name", "properties": { "name": "urn:ogc:def:crs:OGC:1.3:CRS84" } },
"xy_coordinate_resolution": 1e-05,
"features": [
{ "type": "Feature", "properties": { "tipo": "clinic", "nombre": "Posta de Salud Rural Lago Chapo", "icono": "🏥", "color": "#ff8fa3" }, "geometry": { "type": "Point", "coordinates": [ -72.59446, -41.41587 ] } },
{ "type": "Feature", "properties": { "tipo": "helipuerto", "nombre": "Helipuerto Ecocopter", "icono": "🚁", "color": "#00b4d8" }, "geometry": { "type": "Point", "coordinates": [ -72.94805, -41.34822 ] } },
{ "type": "Feature", "properties": { "tipo": "clinic", "nombre": "Ortopédica Alemana", "icono": "🏥", "color": "#ff8fa3" }, "geometry": { "type": "Point", "coordinates": [ -72.94591, -41.34342 ] } },
{ "type": "Feature", "properties": { "tipo": "represa", "nombre": "Barrera Rio Lenca", "icono": "💧", "color": "#0077b6" }, "geometry": { "type": "Point", "coordinates": [ -72.60903, -41.51585 ] } },
{ "type": "Feature", "properties": { "tipo": "clinic", "nombre": "CECOSF El Encanto", "icono": "🏥", "color": "#ff8fa3" }, "geometry": { "type": "Point", "coordinates": [ -72.44022, -40.76729 ] } },
{ "type": "Feature", "properties": { "tipo": "helipuerto", "nombre": "Sin nombre", "icono": "🚁", "color": "#00b4d8" }, "geometry": { "type": "Point", "coordinates": [ -73.02013, -41.16923 ] } }
]
}
