{
"type": "FeatureCollection",
"name": "SDP",
"crs": { "type": "name", "properties": { "name": "urn:ogc:def:crs:OGC:1.3:CRS84" } },
"xy_coordinate_resolution": 1e-05,
"features": [
{ "type": "Feature", "properties": { "tipo": "helipuerto", "nombre": "PPH Ascotán", "icono": "🚁", "color": "#00b4d8" }, "geometry": { "type": "Point", "coordinates": [ -68.27644, -21.72493 ] } },
{ "type": "Feature", "properties": { "tipo": "helipuerto", "nombre": "PPH Inacaliri", "icono": "🚁", "color": "#00b4d8" }, "geometry": { "type": "Point", "coordinates": [ -68.07227, -22.03363 ] } }
]
}
