{
"type": "FeatureCollection",
"name": "SJO",
"crs": { "type": "name", "properties": { "name": "urn:ogc:def:crs:OGC:1.3:CRS84" } },
"xy_coordinate_resolution": 1e-05,
"features": [
{ "type": "Feature", "properties": { "tipo": "hospital", "nombre": "Hospital San José de Maipo", "icono": "🏥", "color": "#e63946" }, "geometry": { "type": "Point", "coordinates": [ -70.35186, -33.64094 ] } },
{ "type": "Feature", "properties": { "tipo": "helipuerto", "nombre": "Sin nombre", "icono": "🚁", "color": "#00b4d8" }, "geometry": { "type": "Point", "coordinates": [ -70.00052, -33.39798 ] } },
{ "type": "Feature", "properties": { "tipo": "helipuerto", "nombre": "Sin nombre", "icono": "🚁", "color": "#00b4d8" }, "geometry": { "type": "Point", "coordinates": [ -69.96712, -34.1719 ] } }
]
}
