{
"type": "FeatureCollection",
"name": "TAT",
"crs": { "type": "name", "properties": { "name": "urn:ogc:def:crs:OGC:1.3:CRS84" } },
"xy_coordinate_resolution": 1e-05,
"features": [
{ "type": "Feature", "properties": { "tipo": "hospital", "nombre": "CSI Escara", "icono": "🏥", "color": "#e63946" }, "geometry": { "type": "Point", "coordinates": [ -68.17057, -18.85796 ] } },
{ "type": "Feature", "properties": { "tipo": "hospital", "nombre": "C.S. Sabaya", "icono": "🏥", "color": "#e63946" }, "geometry": { "type": "Point", "coordinates": [ -68.37282, -19.01571 ] } },
{ "type": "Feature", "properties": { "tipo": "hospital", "nombre": "P.S. Yunguyo del Litoral", "icono": "🏥", "color": "#e63946" }, "geometry": { "type": "Point", "coordinates": [ -68.32002, -18.85367 ] } },
{ "type": "Feature", "properties": { "tipo": "hospital", "nombre": "P.S. Negrillos (1er Nivel)", "icono": "🏥", "color": "#e63946" }, "geometry": { "type": "Point", "coordinates": [ -68.61056, -18.82836 ] } },
{ "type": "Feature", "properties": { "tipo": "hospital", "nombre": "C.S.I. Chipaya", "icono": "🏥", "color": "#e63946" }, "geometry": { "type": "Point", "coordinates": [ -68.08956, -19.04047 ] } }
]
}
