{
"type": "FeatureCollection",
"name": "TIN",
"crs": { "type": "name", "properties": { "name": "urn:ogc:def:crs:OGC:1.3:CRS84" } },
"xy_coordinate_resolution": 1e-05,
"features": [
{ "type": "Feature", "properties": { "tipo": "represa", "nombre": "Sin nombre", "icono": "💧", "color": "#0077b6" }, "geometry": { "type": "Point", "coordinates": [ -70.44924, -34.7707 ] } },
{ "type": "Feature", "properties": { "tipo": "represa", "nombre": "Sin nombre", "icono": "💧", "color": "#0077b6" }, "geometry": { "type": "Point", "coordinates": [ -70.55244, -34.83943 ] } },
{ "type": "Feature", "properties": { "tipo": "represa", "nombre": "Sin nombre", "icono": "💧", "color": "#0077b6" }, "geometry": { "type": "Point", "coordinates": [ -70.54673, -34.82756 ] } },
{ "type": "Feature", "properties": { "tipo": "helipuerto", "nombre": "Sin nombre", "icono": "🚁", "color": "#00b4d8" }, "geometry": { "type": "Point", "coordinates": [ -70.32284, -34.36702 ] } },
{ "type": "Feature", "properties": { "tipo": "helipuerto", "nombre": "Sin nombre", "icono": "🚁", "color": "#00b4d8" }, "geometry": { "type": "Point", "coordinates": [ -70.75288, -34.80035 ] } },
{ "type": "Feature", "properties": { "tipo": "represa", "nombre": "Sin nombre", "icono": "💧", "color": "#0077b6" }, "geometry": { "type": "Point", "coordinates": [ -70.4412, -34.72809 ] } }
]
}
