{
"type": "FeatureCollection",
"name": "ACA",
"crs": { "type": "name", "properties": { "name": "urn:ogc:def:crs:OGC:1.3:CRS84" } },
"xy_coordinate_resolution": 1e-05,
"features": [
{ "type": "Feature", "properties": { "nombre": "Parque Nacional Vicente Perez Rosales", "categoria": "Parque Nacional", "region": "Los Lagos", "superficie_ha": "253568", "decreto": "NÂ° 552 de 1926; NÂ° 338 de 1950; NÂ° 30 de 1982; NÂ° 369 de 1994; NÂ° 92 de 2017" }, "geometry": { "type": "Polygon", "coordinates": [ [ [ -72.22029, -41.21221 ], [ -72.22733, -41.20417 ], [ -72.24417, -41.18558 ], [ -72.2481, -41.18314 ], [ -72.26315, -41.17467 ], [ -72.26361, -41.17514 ], [ -72.26386, -41.17577 ], [ -72.26508, -41.17761 ], [ -72.26595, -41.17969 ], [ -72.2658, -41.18155 ], [ -72.26599, -41.18207 ], [ -72.26575, -41.18289 ], [ -72.26538, -41.1834 ], [ -72.26548, -41.18433 ], [ -72.26336, -41.18603 ], [ -72.26205, -41.18621 ], [ -72.26146, -41.18733 ], [ -72.2606, -41.18839 ], [ -72.25919, -41.18944 ], [ -72.25838, -41.19066 ], [ -72.2585, -41.19118 ], [ -72.25975, -41.1923 ], [ -72.26, -41.19292 ], [ -72.25983, -41.19374 ], [ -72.25953, -41.1942 ], [ -72.25773, -41.19483 ], [ -72.2576, -41.19627 ], [ -72.25676, -41.19726 ], [ -72.25585, -41.19897 ], [ -72.25545, -41.20025 ], [ -72.25559, -41.20196 ], [ -72.25603, -41.2029 ], [ -72.25713, -41.20437 ], [ -72.25975, -41.20861 ], [ -72.26182, -41.2115 ], [ -72.26181, -41.21164 ], [ -72.28888, -41.20719 ], [ -72.28869, -41.20641 ], [ -72.28872, -41.20568 ], [ -72.28913, -41.2042 ], [ -72.28848, -41.20341 ], [ -72.28659, -41.20264 ], [ -72.28603, -41.19963 ], [ -72.28665, -41.19799 ], [ -72.28655, -41.19711 ], [ -72.2859, -41.19617 ], [ -72.28544, -41.19585 ], [ -72.2852, -41.19502 ], [ -72.2848, -41.1948 ], [ -72.28441, -41.19428 ], [ -72.28519, -41.19352 ], [ -72.28529, -41.19285 ], [ -72.2851, -41.19243 ], [ -72.28521, -41.1914 ], [ -72.28495, -41.19104 ], [ -72.28466, -41.18989 ], [ -72.28474, -41.18959 ], [ -72.28523, -41.18934 ], [ -72.28459, -41.18829 ], [ -72.2845, -41.1872 ], [ -72.28386, -41.18616 ], [ -72.28372, -41.18455 ], [ -72.28341, -41.18372 ], [ -72.28371, -41.18306 ], [ -72.29307, -41.18162 ], [ -72.29366, -41.20641 ], [ -72.3043, -41.20466 ], [ -72.35994, -41.19106 ], [ -72.41352, -41.17338 ], [ -72.44027, -41.16206 ], [ -72.43768, -41.15951 ], [ -72.43488, -41.15789 ], [ -72.43417, -41.15679 ], [ -72.43338, -41.156 ], [ -72.43358, -41.15435 ], [ -72.43498, -41.1534 ], [ -72.43571, -41.15229 ], [ -72.44095, -41.1476 ], [ -72.44174, -41.14653 ], [ -72.44237, -41.14448 ], [ -72.45393, -41.15628 ], [ -72.46452, -41.1518 ], [ -72.51244, -41.12652 ], [ -72.55682, -41.09779 ], [ -72.56216, -41.09357 ], [ -72.56176, -41.09255 ], [ -72.55904, -41.09218 ], [ -72.55753, -41.09235 ], [ -72.55682, -41.09308 ], [ -72.55585, -41.09342 ], [ -72.54516, -41.09476 ], [ -72.54269, -41.09446 ], [ -72.53948, -41.09247 ], [ -72.53895, -41.09242 ], [ -72.53842, -41.09253 ], [ -72.53727, -41.09359 ], [ -72.5342, -41.09488 ], [ -72.53115, -41.09586 ], [ -72.53062, -41.09577 ], [ -72.5308, -41.09536 ], [ -72.5246, -41.07842 ], [ -72.5242, -41.07781 ], [ -72.52465, -41.0771 ], [ -72.5252, -41.07663 ], [ -72.52692, -41.07578 ], [ -72.52975, -41.07516 ], [ -72.53368, -41.07477 ], [ -72.53781, -41.07345 ], [ -72.54114, -41.07208 ], [ -72.54375, -41.0715 ], [ -72.55191, -41.07131 ], [ -72.5546, -41.07161 ], [ -72.55736, -41.07135 ], [ -72.55849, -41.07093 ], [ -72.55968, -41.07019 ], [ -72.56303, -41.06983 ], [ -72.56586, -41.06912 ], [ -72.56704, -41.06859 ], [ -72.56764, -41.06808 ], [ -72.55002, -41.05708 ], [ -72.54926, -41.05872 ], [ -72.5486, -41.05939 ], [ -72.54735, -41.06012 ], [ -72.54633, -41.06054 ], [ -72.54441, -41.06102 ], [ -72.54233, -41.06142 ], [ -72.54005, -41.06161 ], [ -72.53814, -41.06161 ], [ -72.53651, -41.06141 ], [ -72.53301, -41.06166 ], [ -72.53154, -41.06134 ], [ -72.52947, -41.06154 ], [ -72.52797, -41.06195 ], [ -72.52607, -41.06183 ], [ -72.52455, -41.06144 ], [ -72.51905, -41.0614 ], [ -72.51827, -41.06102 ], [ -72.51708, -41.05891 ], [ -72.51731, -41.05693 ], [ -72.51727, -41.05457 ], [ -72.5165, -41.05385 ], [ -72.51616, -41.0532 ], [ -72.51598, -41.05228 ], [ -72.51616, -41.05164 ], [ -72.5165, -41.05113 ], [ -72.51862, -41.04957 ], [ -72.52002, -41.04764 ], [ -72.52196, -41.04376 ], [ -72.52273, -41.04297 ], [ -72.5272, -41.03934 ], [ -72.52789, -41.03788 ], [ -72.52995, -41.03524 ], [ -72.53093, -41.03438 ], [ -72.53206, -41.03404 ], [ -72.53583, -41.03356 ], [ -72.53845, -41.03274 ], [ -72.54143, -41.02952 ], [ -72.54528, -41.0268 ], [ -72.54803, -41.02537 ], [ -72.54929, -41.0244 ], [ -72.54823, -41.02285 ], [ -72.54868, -41.0221 ], [ -72.5503, -41.02122 ], [ -72.55145, -41.02032 ], [ -72.5498, -41.01912 ], [ -72.54855, -41.01849 ], [ -72.54691, -41.0185 ], [ -72.54404, -41.019 ], [ -72.54297, -41.01938 ], [ -72.54116, -41.01954 ], [ -72.5397, -41.0187 ], [ -72.53663, -41.01768 ], [ -72.53571, -41.01706 ], [ -72.53486, -41.01704 ], [ -72.51872, -41.02166 ], [ -72.5052, -41.01692 ], [ -72.50246, -41.01815 ], [ -72.50169, -41.01897 ], [ -72.50109, -41.01936 ], [ -72.49986, -41.01957 ], [ -72.49941, -41.02028 ], [ -72.49922, -41.02136 ], [ -72.49818, -41.02206 ], [ -72.49663, -41.02254 ], [ -72.49496, -41.02351 ], [ -72.49175, -41.02436 ], [ -72.49102, -41.02422 ], [ -72.48735, -41.02198 ], [ -72.48366, -41.02006 ], [ -72.47954, -41.02001 ], [ -72.46635, -41.02332 ], [ -72.46101, -41.02349 ], [ -72.45954, -41.02309 ], [ -72.45773, -41.02069 ], [ -72.45722, -41.02028 ], [ -72.45268, -41.02002 ], [ -72.45128, -41.02059 ], [ -72.44782, -41.02251 ], [ -72.42842, -41.02501 ], [ -72.41586, -41.02612 ], [ -72.41164, -41.01559 ], [ -72.4111, -41.01362 ], [ -72.41301, -41.01191 ], [ -72.41426, -41.00951 ], [ -72.41104, -41.00678 ], [ -72.4083, -41.00514 ], [ -72.40715, -41.00486 ], [ -72.40618, -41.00525 ], [ -72.40366, -41.00705 ], [ -72.40223, -41.00719 ], [ -72.40129, -41.00701 ], [ -72.40114, -41.00676 ], [ -72.40121, -41.00624 ], [ -72.401, -41.00508 ], [ -72.40028, -41.00438 ], [ -72.39965, -41.00421 ], [ -72.39907, -41.00419 ], [ -72.39603, -41.00488 ], [ -72.38273, -41.00434 ], [ -72.38184, -41.0042 ], [ -72.38141, -41.0037 ], [ -72.38081, -41.00344 ], [ -72.37958, -41.00247 ], [ -72.37831, -41.0019 ], [ -72.36665, -41.00187 ], [ -72.36164, -41.00168 ], [ -72.35958, -41.00097 ], [ -72.35232, -41.0 ], [ -72.34862, -41.00016 ], [ -72.34643, -41.00061 ], [ -72.34596, -41.0004 ], [ -72.34321, -40.99647 ], [ -72.34071, -40.99359 ], [ -72.33133, -40.99031 ], [ -72.32016, -40.99327 ], [ -72.31927, -40.99321 ], [ -72.31768, -40.99251 ], [ -72.31701, -40.99166 ], [ -72.31677, -40.99106 ], [ -72.31646, -40.99085 ], [ -72.31671, -40.98854 ], [ -72.31667, -40.987 ], [ -72.31662, -40.98628 ], [ -72.31613, -40.98594 ], [ -72.30261, -40.9844 ], [ -72.29839, -40.97774 ], [ -72.29563, -40.9729 ], [ -72.29123, -40.96804 ], [ -72.28982, -40.96504 ], [ -72.28864, -40.96402 ], [ -72.28413, -40.96415 ], [ -72.27291, -40.95999 ], [ -72.26801, -40.9596 ], [ -72.26014, -40.96085 ], [ -72.25758, -40.96151 ], [ -72.2563, -40.95991 ], [ -72.25183, -40.95729 ], [ -72.24287, -40.95567 ], [ -72.23555, -40.95246 ], [ -72.2339, -40.95029 ], [ -72.23228, -40.94873 ], [ -72.23107, -40.94722 ], [ -72.22929, -40.94446 ], [ -72.22847, -40.94364 ], [ -72.22712, -40.9431 ], [ -72.21865, -40.94124 ], [ -72.20715, -40.93443 ], [ -72.19554, -40.92806 ], [ -72.19429, -40.92767 ], [ -72.18976, -40.92756 ], [ -72.1837, -40.92815 ], [ -72.17794, -40.93091 ], [ -72.17707, -40.93153 ], [ -72.17644, -40.934 ], [ -72.17506, -40.93413 ], [ -72.16374, -40.93209 ], [ -72.16244, -40.93045 ], [ -72.16032, -40.927 ], [ -72.15937, -40.92693 ], [ -72.1566, -40.93264 ], [ -72.15688, -40.93449 ], [ -72.15646, -40.9359 ], [ -72.16538, -40.94182 ], [ -72.15845, -40.94469 ], [ -72.15036, -40.94436 ], [ -72.1484, -40.94521 ], [ -72.14769, -40.94567 ], [ -72.14743, -40.94807 ], [ -72.14761, -40.9488 ], [ -72.14708, -40.94998 ], [ -72.14636, -40.95085 ], [ -72.14502, -40.95129 ], [ -72.13877, -40.95158 ], [ -72.13314, -40.95352 ], [ -72.12989, -40.9542 ], [ -72.12609, -40.95539 ], [ -72.12097, -40.95534 ], [ -72.11441, -40.95554 ], [ -72.1064, -40.95674 ], [ -72.10464, -40.95661 ], [ -72.10199, -40.95613 ], [ -72.09841, -40.9548 ], [ -72.09497, -40.95387 ], [ -72.08709, -40.95361 ], [ -72.08548, -40.95326 ], [ -72.08409, -40.95275 ], [ -72.08261, -40.95147 ], [ -72.08135, -40.94896 ], [ -72.07983, -40.94744 ], [ -72.07776, -40.94642 ], [ -72.07361, -40.9451 ], [ -72.07002, -40.94472 ], [ -72.06693, -40.9457 ], [ -72.05961, -40.94592 ], [ -72.05865, -40.94646 ], [ -72.05776, -40.94672 ], [ -72.05683, -40.94674 ], [ -72.05576, -40.947 ], [ -72.04975, -40.94631 ], [ -72.04748, -40.94557 ], [ -72.04577, -40.9444 ], [ -72.04548, -40.94361 ], [ -72.04534, -40.94192 ], [ -72.04541, -40.93962 ], [ -72.04564, -40.93814 ], [ -72.04607, -40.93747 ], [ -72.04682, -40.93693 ], [ -72.04723, -40.9361 ], [ -72.04686, -40.93463 ], [ -72.04678, -40.93282 ], [ -72.0472, -40.93078 ], [ -72.04719, -40.92921 ], [ -72.04693, -40.92756 ], [ -72.04646, -40.92677 ], [ -72.0451, -40.92575 ], [ -72.04297, -40.92505 ], [ -72.0409, -40.92458 ], [ -72.03804, -40.92453 ], [ -72.03733, -40.92435 ], [ -72.03707, -40.92416 ], [ -72.03695, -40.92365 ], [ -72.03705, -40.92332 ], [ -72.03961, -40.91958 ], [ -72.03972, -40.91846 ], [ -72.03945, -40.91737 ], [ -72.03885, -40.91633 ], [ -72.0383, -40.91586 ], [ -72.03801, -40.91521 ], [ -72.03805, -40.91443 ], [ -72.04055, -40.90974 ], [ -72.04126, -40.90808 ], [ -72.04126, -40.90667 ], [ -72.04202, -40.90496 ], [ -72.04298, -40.90218 ], [ -72.04324, -40.89887 ], [ -72.04353, -40.89778 ], [ -72.04392, -40.89722 ], [ -72.04511, -40.89641 ], [ -72.047, -40.89562 ], [ -72.05096, -40.89444 ], [ -72.05467, -40.89285 ], [ -72.05743, -40.8914 ], [ -72.0589, -40.89036 ], [ -72.06052, -40.88952 ], [ -72.062, -40.88839 ], [ -72.06269, -40.88821 ], [ -72.06422, -40.88825 ], [ -72.0674, -40.88797 ], [ -72.07045, -40.8884 ], [ -72.07142, -40.88825 ], [ -72.07365, -40.88693 ], [ -72.07425, -40.88632 ], [ -72.0744, -40.88589 ], [ -72.07418, -40.88497 ], [ -72.07323, -40.88386 ], [ -72.06928, -40.88116 ], [ -72.06832, -40.88033 ], [ -72.06721, -40.87898 ], [ -72.06713, -40.8785 ], [ -72.06742, -40.87787 ], [ -72.07685, -40.86751 ], [ -72.07938, -40.86506 ], [ -72.08133, -40.86402 ], [ -72.08452, -40.86276 ], [ -72.08889, -40.86127 ], [ -72.09519, -40.85885 ], [ -72.09692, -40.85837 ], [ -72.09725, -40.85808 ], [ -72.09758, -40.85715 ], [ -72.0975, -40.85536 ], [ -72.09706, -40.85412 ], [ -72.09613, -40.85233 ], [ -72.09517, -40.84907 ], [ -72.0952, -40.84826 ], [ -72.09543, -40.84795 ], [ -72.09771, -40.84703 ], [ -72.10021, -40.84638 ], [ -72.10262, -40.84531 ], [ -72.10385, -40.8443 ], [ -72.10541, -40.84257 ], [ -72.10611, -40.84093 ], [ -72.1062, -40.84001 ], [ -72.10561, -40.83849 ], [ -72.10393, -40.83589 ], [ -72.10284, -40.83498 ], [ -72.10122, -40.834 ], [ -72.09827, -40.83278 ], [ -72.09578, -40.83122 ], [ -72.09407, -40.82875 ], [ -72.09378, -40.82812 ], [ -72.09434, -40.82548 ], [ -72.09579, -40.82253 ], [ -72.09603, -40.82055 ], [ -72.09585, -40.81929 ], [ -72.09536, -40.81841 ], [ -72.0944, -40.81741 ], [ -72.09115, -40.81588 ], [ -72.09072, -40.81541 ], [ -72.09064, -40.81373 ], [ -72.09112, -40.81288 ], [ -72.0921, -40.8123 ], [ -72.09495, -40.81164 ], [ -72.09868, -40.81127 ], [ -72.10357, -40.81029 ], [ -72.10501, -40.80938 ], [ -72.10537, -40.80897 ], [ -72.10558, -40.80826 ], [ -72.10464, -40.80693 ], [ -72.10178, -40.80362 ], [ -72.10149, -40.80247 ], [ -72.10152, -40.80109 ], [ -72.10185, -40.80015 ], [ -72.10255, -40.79913 ], [ -72.10408, -40.79805 ], [ -72.10697, -40.79682 ], [ -72.11167, -40.79591 ], [ -72.11575, -40.79485 ], [ -72.11728, -40.79266 ], [ -72.11768, -40.79094 ], [ -72.11855, -40.78933 ], [ -72.11904, -40.78681 ], [ -72.11973, -40.7853 ], [ -72.1211, -40.78437 ], [ -72.12316, -40.78354 ], [ -72.12574, -40.78185 ], [ -72.12679, -40.78072 ], [ -72.12852, -40.77817 ], [ -72.12964, -40.77695 ], [ -72.12985, -40.77641 ], [ -72.12518, -40.77503 ], [ -72.12209, -40.77445 ], [ -72.11608, -40.77295 ], [ -72.11378, -40.77205 ], [ -72.10974, -40.76984 ], [ -72.10848, -40.76973 ], [ -72.10465, -40.76996 ], [ -72.10077, -40.77078 ], [ -72.10014, -40.77084 ], [ -72.09967, -40.77067 ], [ -72.09779, -40.769 ], [ -72.09113, -40.7638 ], [ -72.08894, -40.7619 ], [ -72.08351, -40.75881 ], [ -72.07309, -40.75042 ], [ -72.07165, -40.75005 ], [ -72.06998, -40.75108 ], [ -72.06513, -40.75348 ], [ -72.06137, -40.75386 ], [ -72.0588, -40.75364 ], [ -72.04629, -40.75083 ], [ -72.02438, -40.74378 ], [ -72.02312, -40.74375 ], [ -72.02254, -40.74486 ], [ -72.02119, -40.74674 ], [ -72.02037, -40.74744 ], [ -72.01984, -40.74751 ], [ -72.01887, -40.74725 ], [ -72.01041, -40.74314 ], [ -72.00895, -40.74178 ], [ -72.00806, -40.74052 ], [ -72.00711, -40.73709 ], [ -72.00664, -40.73583 ], [ -72.00549, -40.73374 ], [ -72.00499, -40.73203 ], [ -72.0044, -40.73176 ], [ -72.00261, -40.73179 ], [ -71.99946, -40.73296 ], [ -71.99783, -40.733 ], [ -71.99507, -40.73193 ], [ -71.99243, -40.73038 ], [ -71.99145, -40.73019 ], [ -71.99011, -40.73022 ], [ -71.98885, -40.73059 ], [ -71.98723, -40.73158 ], [ -71.98527, -40.73292 ], [ -71.9827, -40.73511 ], [ -71.98094, -40.73617 ], [ -71.97866, -40.73719 ], [ -71.97506, -40.73761 ], [ -71.97337, -40.73833 ], [ -71.9717, -40.73971 ], [ -71.96894, -40.74356 ], [ -71.96799, -40.74434 ], [ -71.96877, -40.74442 ], [ -71.96792, -40.74485 ], [ -71.96614, -40.74532 ], [ -71.96414, -40.7463 ], [ -71.9619, -40.74658 ], [ -71.96122, -40.74636 ], [ -71.96067, -40.74582 ], [ -71.95982, -40.7443 ], [ -71.95904, -40.74432 ], [ -71.95742, -40.7448 ], [ -71.95707, -40.74502 ], [ -71.95734, -40.7459 ], [ -71.95731, -40.7466 ], [ -71.95506, -40.74832 ], [ -71.95477, -40.74929 ], [ -71.95541, -40.75053 ], [ -71.95629, -40.753 ], [ -71.95774, -40.75547 ], [ -71.95864, -40.75645 ], [ -71.95895, -40.75731 ], [ -71.95898, -40.75789 ], [ -71.95877, -40.75858 ], [ -71.95772, -40.75995 ], [ -71.95675, -40.7609 ], [ -71.95513, -40.76197 ], [ -71.95128, -40.76523 ], [ -71.95019, -40.76603 ], [ -71.94929, -40.76645 ], [ -71.94811, -40.76756 ], [ -71.94167, -40.76526 ], [ -71.94192, -40.76583 ], [ -71.94295, -40.76716 ], [ -71.94291, -40.76857 ], [ -71.94283, -40.76936 ], [ -71.94252, -40.7702 ], [ -71.94112, -40.77209 ], [ -71.93945, -40.77327 ], [ -71.93833, -40.77378 ], [ -71.93459, -40.77507 ], [ -71.93084, -40.77609 ], [ -71.93025, -40.77697 ], [ -71.92959, -40.77851 ], [ -71.92713, -40.78003 ], [ -71.92513, -40.78163 ], [ -71.92357, -40.78313 ], [ -71.922, -40.78435 ], [ -71.92126, -40.78514 ], [ -71.92098, -40.78585 ], [ -71.92115, -40.78729 ], [ -71.92203, -40.78881 ], [ -71.92325, -40.79022 ], [ -71.9255, -40.79175 ], [ -71.92656, -40.79294 ], [ -71.9274, -40.79396 ], [ -71.92823, -40.7954 ], [ -71.92846, -40.79646 ], [ -71.92847, -40.79741 ], [ -71.92733, -40.79943 ], [ -71.92664, -40.80014 ], [ -71.92595, -40.80211 ], [ -71.92605, -40.80297 ], [ -71.92735, -40.80519 ], [ -71.92769, -40.80684 ], [ -71.92498, -40.8102 ], [ -71.92493, -40.81066 ], [ -71.92883, -40.81118 ], [ -71.93039, -40.81232 ], [ -71.93083, -40.81364 ], [ -71.93073, -40.81459 ], [ -71.9298, -40.81511 ], [ -71.92943, -40.81563 ], [ -71.9294, -40.81749 ], [ -71.9297, -40.81818 ], [ -71.93031, -40.81925 ], [ -71.93094, -40.81972 ], [ -71.93155, -40.81982 ], [ -71.93395, -40.82086 ], [ -71.93454, -40.82128 ], [ -71.93471, -40.82168 ], [ -71.93452, -40.82225 ], [ -71.93332, -40.82334 ], [ -71.93277, -40.82351 ], [ -71.93193, -40.82339 ], [ -71.93235, -40.8241 ], [ -71.93227, -40.82459 ], [ -71.92959, -40.82475 ], [ -71.92674, -40.82515 ], [ -71.92565, -40.82549 ], [ -71.92443, -40.82665 ], [ -71.92428, -40.82711 ], [ -71.92367, -40.82753 ], [ -71.9235, -40.82827 ], [ -71.92398, -40.82939 ], [ -71.92497, -40.83051 ], [ -71.92557, -40.83091 ], [ -71.92583, -40.83122 ], [ -71.92601, -40.83188 ], [ -71.92643, -40.83229 ], [ -71.92788, -40.83303 ], [ -71.92595, -40.83508 ], [ -71.92462, -40.83581 ], [ -71.91978, -40.83764 ], [ -71.91934, -40.83834 ], [ -71.91838, -40.83869 ], [ -71.91669, -40.83888 ], [ -71.91455, -40.83962 ], [ -71.91417, -40.84014 ], [ -71.91415, -40.84067 ], [ -71.91348, -40.84138 ], [ -71.91346, -40.84236 ], [ -71.9141, -40.84305 ], [ -71.91241, -40.84431 ], [ -71.9092, -40.84609 ], [ -71.90782, -40.84643 ], [ -71.9084, -40.84672 ], [ -71.90984, -40.84809 ], [ -71.91032, -40.84895 ], [ -71.91107, -40.85164 ], [ -71.91096, -40.85264 ], [ -71.91065, -40.8533 ], [ -71.90972, -40.85376 ], [ -71.90944, -40.85464 ], [ -71.90972, -40.85533 ], [ -71.90975, -40.85613 ], [ -71.90937, -40.85699 ], [ -71.90868, -40.85759 ], [ -71.90577, -40.85916 ], [ -71.90437, -40.86044 ], [ -71.90218, -40.86168 ], [ -71.90087, -40.86346 ], [ -71.89994, -40.86434 ], [ -71.89866, -40.86487 ], [ -71.89578, -40.86708 ], [ -71.89485, -40.86877 ], [ -71.89395, -40.86946 ], [ -71.89297, -40.86975 ], [ -71.8924, -40.87029 ], [ -71.8919, -40.87167 ], [ -71.89131, -40.87253 ], [ -71.88964, -40.87379 ], [ -71.88753, -40.8739 ], [ -71.88681, -40.87527 ], [ -71.88562, -40.87617 ], [ -71.88521, -40.877 ], [ -71.8845, -40.87793 ], [ -71.88352, -40.87836 ], [ -71.88238, -40.87855 ], [ -71.88155, -40.87917 ], [ -71.88129, -40.8802 ], [ -71.88074, -40.88107 ], [ -71.88029, -40.88145 ], [ -71.87893, -40.88157 ], [ -71.87665, -40.8815 ], [ -71.87379, -40.88038 ], [ -71.86963, -40.87919 ], [ -71.86841, -40.87903 ], [ -71.86408, -40.87772 ], [ -71.86113, -40.87843 ], [ -71.85939, -40.87943 ], [ -71.85849, -40.88236 ], [ -71.85883, -40.88309 ], [ -71.86056, -40.88483 ], [ -71.86128, -40.88533 ], [ -71.86168, -40.88602 ], [ -71.86137, -40.88719 ], [ -71.86168, -40.88771 ], [ -71.86625, -40.88983 ], [ -71.86868, -40.89159 ], [ -71.86979, -40.89306 ], [ -71.86973, -40.89385 ], [ -71.8692, -40.89475 ], [ -71.86837, -40.89544 ], [ -71.86791, -40.89623 ], [ -71.86746, -40.8972 ], [ -71.86699, -40.89908 ], [ -71.86623, -40.89961 ], [ -71.86546, -40.90106 ], [ -71.86565, -40.90325 ], [ -71.86485, -40.90434 ], [ -71.86477, -40.90553 ], [ -71.86549, -40.90651 ], [ -71.86654, -40.90748 ], [ -71.86637, -40.90832 ], [ -71.86589, -40.90934 ], [ -71.86523, -40.91016 ], [ -71.86444, -40.9106 ], [ -71.86361, -40.91189 ], [ -71.86347, -40.91345 ], [ -71.86261, -40.91453 ], [ -71.86114, -40.91592 ], [ -71.85899, -40.91898 ], [ -71.85773, -40.9205 ], [ -71.85711, -40.92226 ], [ -71.85635, -40.92297 ], [ -71.85842, -40.92293 ], [ -71.85953, -40.92317 ], [ -71.86023, -40.9235 ], [ -71.86046, -40.92383 ], [ -71.86056, -40.9245 ], [ -71.86009, -40.92569 ], [ -71.8594, -40.92673 ], [ -71.85937, -40.9274 ], [ -71.8598, -40.92835 ], [ -71.86087, -40.92923 ], [ -71.8617, -40.93083 ], [ -71.86292, -40.93411 ], [ -71.86175, -40.93451 ], [ -71.8614, -40.93485 ], [ -71.86144, -40.93554 ], [ -71.86104, -40.93625 ], [ -71.85642, -40.93913 ], [ -71.8566, -40.93993 ], [ -71.85785, -40.94111 ], [ -71.85733, -40.9422 ], [ -71.85568, -40.94377 ], [ -71.85449, -40.94424 ], [ -71.85421, -40.94505 ], [ -71.8544, -40.94639 ], [ -71.85499, -40.94817 ], [ -71.85576, -40.94903 ], [ -71.85642, -40.94939 ], [ -71.85699, -40.95073 ], [ -71.85723, -40.95338 ], [ -71.8575, -40.95398 ], [ -71.85748, -40.95481 ], [ -71.85709, -40.95562 ], [ -71.85678, -40.95698 ], [ -71.85664, -40.95833 ], [ -71.85671, -40.95957 ], [ -71.85805, -40.96035 ], [ -71.85931, -40.96054 ], [ -71.86013, -40.96045 ], [ -71.86178, -40.95993 ], [ -71.86745, -40.95972 ], [ -71.87094, -40.95938 ], [ -71.87196, -40.95947 ], [ -71.87465, -40.96043 ], [ -71.87931, -40.96264 ], [ -71.88048, -40.9634 ], [ -71.88114, -40.96433 ], [ -71.88241, -40.96538 ], [ -71.88405, -40.96602 ], [ -71.88525, -40.96625 ], [ -71.88621, -40.96592 ], [ -71.88862, -40.96592 ], [ -71.89009, -40.96564 ], [ -71.89157, -40.96514 ], [ -71.89278, -40.96466 ], [ -71.89313, -40.9641 ], [ -71.89303, -40.96363 ], [ -71.89354, -40.96295 ], [ -71.89678, -40.96173 ], [ -71.89842, -40.96081 ], [ -71.90018, -40.9604 ], [ -71.90244, -40.96119 ], [ -71.90401, -40.96147 ], [ -71.90568, -40.963 ], [ -71.90694, -40.9634 ], [ -71.90622, -40.96433 ], [ -71.9067, -40.96638 ], [ -71.90677, -40.9684 ], [ -71.90715, -40.96985 ], [ -71.90927, -40.97247 ], [ -71.90906, -40.97373 ], [ -71.90818, -40.97406 ], [ -71.90784, -40.97451 ], [ -71.90741, -40.97477 ], [ -71.90689, -40.97592 ], [ -71.90682, -40.97706 ], [ -71.90601, -40.97834 ], [ -71.90525, -40.97899 ], [ -71.90544, -40.98039 ], [ -71.90527, -40.9817 ], [ -71.90546, -40.98308 ], [ -71.90632, -40.9856 ], [ -71.90099, -40.98393 ], [ -71.89959, -40.98403 ], [ -71.89818, -40.98458 ], [ -71.89656, -40.98448 ], [ -71.89585, -40.98474 ], [ -71.89178, -40.98772 ], [ -71.89033, -40.98786 ], [ -71.88966, -40.98812 ], [ -71.88893, -40.98893 ], [ -71.88857, -40.98996 ], [ -71.88776, -40.99055 ], [ -71.88479, -40.99391 ], [ -71.88298, -40.99548 ], [ -71.87891, -40.99721 ], [ -71.87788, -40.99816 ], [ -71.87458, -40.99923 ], [ -71.87452, -40.99985 ], [ -71.87395, -41.00097 ], [ -71.87367, -41.0023 ], [ -71.87193, -41.00321 ], [ -71.87173, -41.00388 ], [ -71.87203, -41.00475 ], [ -71.8735, -41.00588 ], [ -71.8738, -41.00637 ], [ -71.8742, -41.00742 ], [ -71.8743, -41.00913 ], [ -71.87414, -41.00995 ], [ -71.87382, -41.0106 ], [ -71.87247, -41.01136 ], [ -71.86904, -41.01214 ], [ -71.86702, -41.0149 ], [ -71.86502, -41.01587 ], [ -71.86487, -41.01629 ], [ -71.86512, -41.01772 ], [ -71.86497, -41.01842 ], [ -71.86365, -41.02019 ], [ -71.86356, -41.02118 ], [ -71.86304, -41.0221 ], [ -71.86238, -41.0228 ], [ -71.86234, -41.02474 ], [ -71.86169, -41.02577 ], [ -71.86146, -41.02703 ], [ -71.86152, -41.02834 ], [ -71.86137, -41.0294 ], [ -71.86118, -41.03007 ], [ -71.86038, -41.03118 ], [ -71.85954, -41.03298 ], [ -71.85857, -41.03359 ], [ -71.85724, -41.03365 ], [ -71.85585, -41.03325 ], [ -71.85425, -41.0318 ], [ -71.8516, -41.03097 ], [ -71.84966, -41.03088 ], [ -71.84907, -41.03111 ], [ -71.84707, -41.03121 ], [ -71.84622, -41.03135 ], [ -71.84561, -41.03165 ], [ -71.84462, -41.03395 ], [ -71.84283, -41.03534 ], [ -71.83914, -41.0359 ], [ -71.83788, -41.03711 ], [ -71.83729, -41.03807 ], [ -71.83683, -41.03928 ], [ -71.8359, -41.0406 ], [ -71.83477, -41.0413 ], [ -71.83363, -41.04288 ], [ -71.83403, -41.04461 ], [ -71.83478, -41.04618 ], [ -71.83474, -41.04753 ], [ -71.83596, -41.04884 ], [ -71.8363, -41.04951 ], [ -71.83608, -41.05016 ], [ -71.83502, -41.05103 ], [ -71.83074, -41.05251 ], [ -71.82981, -41.05434 ], [ -71.82905, -41.05533 ], [ -71.82903, -41.05659 ], [ -71.82779, -41.05657 ], [ -71.82597, -41.05583 ], [ -71.82481, -41.05591 ], [ -71.82406, -41.05617 ], [ -71.82368, -41.05668 ], [ -71.82353, -41.05733 ], [ -71.82288, -41.05828 ], [ -71.82136, -41.05843 ], [ -71.82073, -41.05954 ], [ -71.81921, -41.06038 ], [ -71.81822, -41.06131 ], [ -71.81793, -41.06205 ], [ -71.81884, -41.0639 ], [ -71.81896, -41.06536 ], [ -71.81932, -41.06622 ], [ -71.81988, -41.06683 ], [ -71.8208, -41.06736 ], [ -71.82301, -41.06814 ], [ -71.82783, -41.06902 ], [ -71.82825, -41.06939 ], [ -71.82836, -41.07364 ], [ -71.82863, -41.07422 ], [ -71.82918, -41.07479 ], [ -71.83019, -41.07545 ], [ -71.83142, -41.0755 ], [ -71.83263, -41.07585 ], [ -71.83392, -41.07661 ], [ -71.83453, -41.0772 ], [ -71.83896, -41.07728 ], [ -71.83994, -41.07765 ], [ -71.84348, -41.08002 ], [ -71.845, -41.08057 ], [ -71.84614, -41.08152 ], [ -71.84666, -41.08274 ], [ -71.8461, -41.08583 ], [ -71.8462, -41.08672 ], [ -71.84692, -41.08756 ], [ -71.84812, -41.08967 ], [ -71.84898, -41.09338 ], [ -71.84907, -41.09411 ], [ -71.84892, -41.09475 ], [ -71.84825, -41.0959 ], [ -71.84987, -41.09618 ], [ -71.85046, -41.09649 ], [ -71.85094, -41.09723 ], [ -71.85212, -41.09844 ], [ -71.85216, -41.099 ], [ -71.85105, -41.09972 ], [ -71.84949, -41.10012 ], [ -71.84753, -41.10182 ], [ -71.84631, -41.10262 ], [ -71.84361, -41.10347 ], [ -71.84384, -41.10393 ], [ -71.84437, -41.10424 ], [ -71.84527, -41.10435 ], [ -71.84591, -41.10515 ], [ -71.84627, -41.10604 ], [ -71.84635, -41.10688 ], [ -71.84599, -41.10831 ], [ -71.84561, -41.10888 ], [ -71.84551, -41.11027 ], [ -71.84521, -41.11126 ], [ -71.84403, -41.11219 ], [ -71.84113, -41.11322 ], [ -71.83986, -41.11389 ], [ -71.83771, -41.11549 ], [ -71.83708, -41.11632 ], [ -71.83623, -41.11823 ], [ -71.83636, -41.12095 ], [ -71.83708, -41.12175 ], [ -71.83855, -41.12276 ], [ -71.83891, -41.12318 ], [ -71.83965, -41.1247 ], [ -71.8411, -41.1263 ], [ -71.84142, -41.12751 ], [ -71.84308, -41.12883 ], [ -71.84329, -41.12959 ], [ -71.84311, -41.13008 ], [ -71.84054, -41.13265 ], [ -71.83975, -41.13383 ], [ -71.83944, -41.13536 ], [ -71.83923, -41.13665 ], [ -71.83925, -41.13776 ], [ -71.83967, -41.14027 ], [ -71.84075, -41.14172 ], [ -71.84094, -41.14252 ], [ -71.84068, -41.14311 ], [ -71.83881, -41.14518 ], [ -71.83929, -41.14722 ], [ -71.83896, -41.14817 ], [ -71.83904, -41.14891 ], [ -71.83942, -41.14952 ], [ -71.84102, -41.15038 ], [ -71.84599, -41.15041 ], [ -71.8473, -41.15061 ], [ -71.85018, -41.1514 ], [ -71.8536, -41.15133 ], [ -71.85495, -41.15148 ], [ -71.85968, -41.15388 ], [ -71.86105, -41.15401 ], [ -71.86362, -41.15375 ], [ -71.86508, -41.15403 ], [ -71.86592, -41.15441 ], [ -71.86634, -41.15485 ], [ -71.86777, -41.15744 ], [ -71.86881, -41.1587 ], [ -71.87, -41.15978 ], [ -71.87243, -41.16039 ], [ -71.8742, -41.16047 ], [ -71.87743, -41.16001 ], [ -71.87827, -41.16007 ], [ -71.87919, -41.16066 ], [ -71.88128, -41.161 ], [ -71.88709, -41.16101 ], [ -71.88619, -41.1622 ], [ -71.88562, -41.16359 ], [ -71.88613, -41.16427 ], [ -71.88695, -41.16482 ], [ -71.88757, -41.16572 ], [ -71.88777, -41.16694 ], [ -71.88757, -41.1682 ], [ -71.88702, -41.16965 ], [ -71.88652, -41.17037 ], [ -71.88609, -41.17091 ], [ -71.88477, -41.17188 ], [ -71.88444, -41.17197 ], [ -71.90421, -41.17971 ], [ -71.95852, -41.19604 ], [ -72.01472, -41.20825 ], [ -72.07225, -41.21621 ], [ -72.13054, -41.21985 ], [ -72.18903, -41.21913 ], [ -72.2204, -41.21639 ], [ -72.22029, -41.21221 ] ], [ [ -72.37797, -41.1368 ], [ -72.38073, -41.13692 ], [ -72.38416, -41.13896 ], [ -72.38425, -41.13927 ], [ -72.38385, -41.14034 ], [ -72.38349, -41.14075 ], [ -72.38185, -41.14172 ], [ -72.38159, -41.1422 ], [ -72.38096, -41.14263 ], [ -72.37994, -41.14255 ], [ -72.37927, -41.14223 ], [ -72.37849, -41.14211 ], [ -72.37617, -41.14192 ], [ -72.37002, -41.13876 ], [ -72.36877, -41.13845 ], [ -72.36543, -41.13827 ], [ -72.36456, -41.13799 ], [ -72.3627, -41.13625 ], [ -72.36125, -41.13513 ], [ -72.36048, -41.1348 ], [ -72.35995, -41.13515 ], [ -72.35889, -41.13696 ], [ -72.35867, -41.13697 ], [ -72.35782, -41.13642 ], [ -72.35636, -41.13605 ], [ -72.35551, -41.13611 ], [ -72.35471, -41.13655 ], [ -72.35345, -41.13815 ], [ -72.35005, -41.13934 ], [ -72.34174, -41.13789 ], [ -72.34033, -41.13833 ], [ -72.32829, -41.14373 ], [ -72.32289, -41.14644 ], [ -72.32144, -41.14674 ], [ -72.31766, -41.14818 ], [ -72.31372, -41.14927 ], [ -72.31102, -41.15027 ], [ -72.30933, -41.1515 ], [ -72.3087, -41.15303 ], [ -72.30773, -41.15461 ], [ -72.30644, -41.1562 ], [ -72.30497, -41.15872 ], [ -72.3024, -41.16057 ], [ -72.29766, -41.16529 ], [ -72.29356, -41.16874 ], [ -72.28617, -41.17554 ], [ -72.28545, -41.17568 ], [ -72.28481, -41.17533 ], [ -72.2846, -41.17473 ], [ -72.28485, -41.1702 ], [ -72.28527, -41.16963 ], [ -72.28666, -41.16901 ], [ -72.28698, -41.16869 ], [ -72.28609, -41.16787 ], [ -72.28591, -41.1673 ], [ -72.28598, -41.16641 ], [ -72.28554, -41.16516 ], [ -72.28622, -41.16399 ], [ -72.28599, -41.16334 ], [ -72.28604, -41.16211 ], [ -72.28667, -41.16084 ], [ -72.28647, -41.16006 ], [ -72.28648, -41.15886 ], [ -72.28701, -41.15848 ], [ -72.28727, -41.15787 ], [ -72.28726, -41.15743 ], [ -72.28684, -41.15688 ], [ -72.28673, -41.15621 ], [ -72.28693, -41.15551 ], [ -72.28747, -41.15475 ], [ -72.28759, -41.15429 ], [ -72.2867, -41.15347 ], [ -72.28612, -41.15268 ], [ -72.28634, -41.15152 ], [ -72.28715, -41.15087 ], [ -72.28756, -41.15024 ], [ -72.2859, -41.14901 ], [ -72.28551, -41.14843 ], [ -72.2855, -41.14781 ], [ -72.28605, -41.14705 ], [ -72.28631, -41.14636 ], [ -72.28799, -41.14475 ], [ -72.28855, -41.14445 ], [ -72.29003, -41.14415 ], [ -72.29041, -41.1439 ], [ -72.2909, -41.14443 ], [ -72.29371, -41.14424 ], [ -72.29414, -41.14469 ], [ -72.29468, -41.14485 ], [ -72.29605, -41.14476 ], [ -72.29819, -41.14401 ], [ -72.3006, -41.14357 ], [ -72.30134, -41.14382 ], [ -72.30203, -41.14453 ], [ -72.30324, -41.14511 ], [ -72.30436, -41.14596 ], [ -72.30636, -41.14598 ], [ -72.31306, -41.1432 ], [ -72.3157, -41.1416 ], [ -72.32291, -41.13945 ], [ -72.32505, -41.13938 ], [ -72.32779, -41.13835 ], [ -72.32972, -41.13635 ], [ -72.33184, -41.13545 ], [ -72.33206, -41.13506 ], [ -72.33316, -41.13406 ], [ -72.33593, -41.13301 ], [ -72.33768, -41.1321 ], [ -72.33956, -41.13186 ], [ -72.34061, -41.13139 ], [ -72.34198, -41.13108 ], [ -72.34318, -41.13109 ], [ -72.34419, -41.1307 ], [ -72.34458, -41.13024 ], [ -72.34627, -41.12989 ], [ -72.34765, -41.12938 ], [ -72.34895, -41.12816 ], [ -72.35176, -41.12923 ], [ -72.35319, -41.12926 ], [ -72.35381, -41.12912 ], [ -72.35479, -41.12848 ], [ -72.35506, -41.12848 ], [ -72.35713, -41.12967 ], [ -72.35978, -41.13009 ], [ -72.36033, -41.13075 ], [ -72.36082, -41.1317 ], [ -72.36213, -41.13278 ], [ -72.36623, -41.1331 ], [ -72.37141, -41.13503 ], [ -72.37505, -41.13717 ], [ -72.37577, -41.13719 ], [ -72.37797, -41.1368 ] ], [ [ -72.40767, -41.14309 ], [ -72.40788, -41.1451 ], [ -72.40266, -41.14485 ], [ -72.40114, -41.14499 ], [ -72.40146, -41.14242 ], [ -72.40136, -41.14171 ], [ -72.39872, -41.14231 ], [ -72.39787, -41.14189 ], [ -72.39964, -41.1413 ], [ -72.40025, -41.14093 ], [ -72.40193, -41.14046 ], [ -72.40301, -41.14081 ], [ -72.40352, -41.14135 ], [ -72.40437, -41.14184 ], [ -72.40551, -41.14206 ], [ -72.40628, -41.14272 ], [ -72.40767, -41.14309 ] ], [ [ -72.40097, -41.12506 ], [ -72.40067, -41.12328 ], [ -72.40285, -41.12366 ], [ -72.40491, -41.12381 ], [ -72.40706, -41.12367 ], [ -72.40888, -41.12332 ], [ -72.41245, -41.12311 ], [ -72.41389, -41.12328 ], [ -72.4125, -41.12934 ], [ -72.41004, -41.14242 ], [ -72.40695, -41.14112 ], [ -72.40496, -41.13999 ], [ -72.40334, -41.13939 ], [ -72.40213, -41.13922 ], [ -72.39991, -41.13923 ], [ -72.39941, -41.13906 ], [ -72.39852, -41.13754 ], [ -72.39837, -41.13671 ], [ -72.39914, -41.13581 ], [ -72.39971, -41.13544 ], [ -72.40004, -41.13459 ], [ -72.39984, -41.13364 ], [ -72.39951, -41.13326 ], [ -72.39925, -41.13253 ], [ -72.40031, -41.13107 ], [ -72.39993, -41.13062 ], [ -72.39924, -41.1287 ], [ -72.39925, -41.12832 ], [ -72.40097, -41.12506 ] ], [ [ -72.2617, -41.13998 ], [ -72.26183, -41.14088 ], [ -72.26123, -41.14598 ], [ -72.26077, -41.14733 ], [ -72.25787, -41.14664 ], [ -72.25726, -41.14554 ], [ -72.2568, -41.14325 ], [ -72.25673, -41.1417 ], [ -72.25637, -41.14037 ], [ -72.25392, -41.13767 ], [ -72.25259, -41.13664 ], [ -72.25163, -41.13626 ], [ -72.24829, -41.13372 ], [ -72.24678, -41.13209 ], [ -72.245, -41.1314 ], [ -72.23789, -41.12586 ], [ -72.23619, -41.12528 ], [ -72.22943, -41.11932 ], [ -72.22848, -41.11697 ], [ -72.22408, -41.11584 ], [ -72.21472, -41.11512 ], [ -72.21113, -41.11411 ], [ -72.20986, -41.11264 ], [ -72.20965, -41.11354 ], [ -72.20822, -41.11526 ], [ -72.20787, -41.11607 ], [ -72.20733, -41.11681 ], [ -72.20548, -41.11697 ], [ -72.20357, -41.1186 ], [ -72.2021, -41.11638 ], [ -72.20049, -41.11473 ], [ -72.20204, -41.11443 ], [ -72.20339, -41.11393 ], [ -72.204, -41.11314 ], [ -72.20339, -41.1115 ], [ -72.20109, -41.10855 ], [ -72.1995, -41.10873 ], [ -72.19748, -41.10852 ], [ -72.19632, -41.10832 ], [ -72.19475, -41.10769 ], [ -72.1929, -41.10763 ], [ -72.19087, -41.10815 ], [ -72.18834, -41.10827 ], [ -72.18725, -41.10816 ], [ -72.18414, -41.10619 ], [ -72.18208, -41.1061 ], [ -72.17939, -41.10534 ], [ -72.17628, -41.1041 ], [ -72.17538, -41.1045 ], [ -72.17445, -41.10461 ], [ -72.17165, -41.10472 ], [ -72.16828, -41.10523 ], [ -72.16634, -41.10513 ], [ -72.16382, -41.10414 ], [ -72.16233, -41.10392 ], [ -72.16152, -41.10365 ], [ -72.15992, -41.10288 ], [ -72.15832, -41.10163 ], [ -72.15844, -41.10108 ], [ -72.16055, -41.10126 ], [ -72.16132, -41.10087 ], [ -72.16193, -41.10024 ], [ -72.16257, -41.09888 ], [ -72.16391, -41.09788 ], [ -72.17107, -41.09483 ], [ -72.17141, -41.09455 ], [ -72.17237, -41.09546 ], [ -72.17725, -41.09855 ], [ -72.17934, -41.09924 ], [ -72.18036, -41.09927 ], [ -72.1813, -41.09898 ], [ -72.18222, -41.09893 ], [ -72.18317, -41.09913 ], [ -72.1861, -41.1007 ], [ -72.18745, -41.102 ], [ -72.18819, -41.10227 ], [ -72.18956, -41.10368 ], [ -72.19063, -41.1043 ], [ -72.19492, -41.10453 ], [ -72.19698, -41.10486 ], [ -72.19815, -41.10476 ], [ -72.2029, -41.10525 ], [ -72.20717, -41.10723 ], [ -72.2104, -41.10932 ], [ -72.21092, -41.10864 ], [ -72.21177, -41.1084 ], [ -72.22059, -41.109 ], [ -72.22188, -41.10955 ], [ -72.22272, -41.11056 ], [ -72.22386, -41.1113 ], [ -72.22693, -41.1119 ], [ -72.22786, -41.1124 ], [ -72.22793, -41.11324 ], [ -72.22816, -41.11339 ], [ -72.23041, -41.11379 ], [ -72.2298, -41.11451 ], [ -72.23168, -41.11505 ], [ -72.23402, -41.11691 ], [ -72.23515, -41.11836 ], [ -72.23744, -41.12014 ], [ -72.23792, -41.12083 ], [ -72.2383, -41.1222 ], [ -72.23983, -41.12338 ], [ -72.24146, -41.12429 ], [ -72.24221, -41.12586 ], [ -72.24281, -41.12621 ], [ -72.2442, -41.12655 ], [ -72.24459, -41.12692 ], [ -72.2451, -41.12786 ], [ -72.24826, -41.12995 ], [ -72.25055, -41.13058 ], [ -72.25372, -41.13243 ], [ -72.25483, -41.13282 ], [ -72.25565, -41.13356 ], [ -72.25762, -41.13457 ], [ -72.25895, -41.13558 ], [ -72.26045, -41.13732 ], [ -72.2617, -41.13998 ] ], [ [ -72.2872, -41.10765 ], [ -72.28816, -41.10752 ], [ -72.28914, -41.10687 ], [ -72.28976, -41.10684 ], [ -72.29118, -41.10718 ], [ -72.29261, -41.10716 ], [ -72.29331, -41.10692 ], [ -72.29406, -41.10689 ], [ -72.29493, -41.10722 ], [ -72.29732, -41.10727 ], [ -72.29831, -41.10631 ], [ -72.30005, -41.10718 ], [ -72.30162, -41.10727 ], [ -72.30228, -41.1077 ], [ -72.3033, -41.10793 ], [ -72.30332, -41.10917 ], [ -72.30004, -41.10914 ], [ -72.29967, -41.10991 ], [ -72.29861, -41.11066 ], [ -72.29832, -41.11122 ], [ -72.29746, -41.11213 ], [ -72.29407, -41.11329 ], [ -72.29325, -41.11337 ], [ -72.29236, -41.11325 ], [ -72.29218, -41.11278 ], [ -72.29138, -41.11224 ], [ -72.29088, -41.11285 ], [ -72.28973, -41.11262 ], [ -72.28842, -41.11285 ], [ -72.28785, -41.1134 ], [ -72.28547, -41.11329 ], [ -72.28463, -41.11374 ], [ -72.28398, -41.113 ], [ -72.28367, -41.11217 ], [ -72.28322, -41.11159 ], [ -72.28181, -41.11083 ], [ -72.28176, -41.11037 ], [ -72.28144, -41.10994 ], [ -72.2801, -41.1094 ], [ -72.27928, -41.10927 ], [ -72.27886, -41.10957 ], [ -72.27715, -41.10969 ], [ -72.27532, -41.10944 ], [ -72.27351, -41.10862 ], [ -72.27285, -41.10804 ], [ -72.27287, -41.10757 ], [ -72.27365, -41.10671 ], [ -72.27339, -41.1065 ], [ -72.27362, -41.10599 ], [ -72.2743, -41.10601 ], [ -72.27664, -41.10725 ], [ -72.28051, -41.1077 ], [ -72.2816, -41.10773 ], [ -72.28243, -41.10739 ], [ -72.2872, -41.10765 ] ], [ [ -72.35548, -41.07792 ], [ -72.35532, -41.07722 ], [ -72.3559, -41.0772 ], [ -72.36177, -41.08034 ], [ -72.36142, -41.08081 ], [ -72.35749, -41.08074 ], [ -72.35747, -41.08031 ], [ -72.35721, -41.07988 ], [ -72.3567, -41.07965 ], [ -72.35641, -41.07883 ], [ -72.35606, -41.07899 ], [ -72.35529, -41.07894 ], [ -72.35483, -41.07838 ], [ -72.35514, -41.07829 ], [ -72.35548, -41.07792 ] ], [ [ -72.28675, -41.0706 ], [ -72.28605, -41.07094 ], [ -72.28547, -41.07085 ], [ -72.28531, -41.07015 ], [ -72.29034, -41.06128 ], [ -72.29193, -41.06241 ], [ -72.29367, -41.06312 ], [ -72.29502, -41.06351 ], [ -72.29678, -41.06376 ], [ -72.30458, -41.06337 ], [ -72.31034, -41.06243 ], [ -72.31191, -41.06597 ], [ -72.3094, -41.06731 ], [ -72.30816, -41.06738 ], [ -72.30746, -41.06788 ], [ -72.30554, -41.06798 ], [ -72.30092, -41.06928 ], [ -72.29927, -41.06955 ], [ -72.29654, -41.0714 ], [ -72.29359, -41.07179 ], [ -72.29232, -41.07114 ], [ -72.29081, -41.07126 ], [ -72.29, -41.07114 ], [ -72.28947, -41.07082 ], [ -72.28675, -41.0706 ] ], [ [ -72.34622, -41.05872 ], [ -72.34622, -41.05814 ], [ -72.34678, -41.05824 ], [ -72.34909, -41.06036 ], [ -72.34897, -41.06343 ], [ -72.35332, -41.06843 ], [ -72.3533, -41.07054 ], [ -72.35304, -41.0708 ], [ -72.35236, -41.07086 ], [ -72.35196, -41.07062 ], [ -72.35183, -41.07025 ], [ -72.35194, -41.06957 ], [ -72.35165, -41.069 ], [ -72.35139, -41.06879 ], [ -72.3509, -41.06883 ], [ -72.35054, -41.06839 ], [ -72.35072, -41.06818 ], [ -72.35112, -41.06814 ], [ -72.35103, -41.06781 ], [ -72.35043, -41.06748 ], [ -72.35012, -41.06689 ], [ -72.34901, -41.06687 ], [ -72.34892, -41.06657 ], [ -72.3491, -41.06655 ], [ -72.34923, -41.06631 ], [ -72.34879, -41.06596 ], [ -72.34878, -41.06551 ], [ -72.34758, -41.06513 ], [ -72.34748, -41.06487 ], [ -72.34768, -41.06456 ], [ -72.34834, -41.06443 ], [ -72.34786, -41.06414 ], [ -72.34796, -41.06386 ], [ -72.34749, -41.06362 ], [ -72.3475, -41.06333 ], [ -72.34655, -41.06324 ], [ -72.34594, -41.06231 ], [ -72.34436, -41.06201 ], [ -72.3442, -41.06107 ], [ -72.3449, -41.06061 ], [ -72.34491, -41.05997 ], [ -72.34622, -41.05872 ] ], [ [ -72.3405, -41.06238 ], [ -72.33932, -41.06254 ], [ -72.34288, -41.05875 ], [ -72.3445, -41.05787 ], [ -72.34589, -41.05809 ], [ -72.34578, -41.05831 ], [ -72.34593, -41.05872 ], [ -72.3447, -41.05971 ], [ -72.3447, -41.06026 ], [ -72.34345, -41.06139 ], [ -72.34226, -41.06206 ], [ -72.34124, -41.06197 ], [ -72.3405, -41.06238 ] ], [ [ -72.33035, -41.06386 ], [ -72.32971, -41.06397 ], [ -72.32867, -41.0647 ], [ -72.32727, -41.06531 ], [ -72.32631, -41.06561 ], [ -72.32552, -41.06551 ], [ -72.32511, -41.06518 ], [ -72.32488, -41.06297 ], [ -72.32486, -41.06207 ], [ -72.32525, -41.0617 ], [ -72.32529, -41.06146 ], [ -72.32461, -41.06101 ], [ -72.32417, -41.06037 ], [ -72.32477, -41.05927 ], [ -72.32476, -41.05882 ], [ -72.32404, -41.05723 ], [ -72.32805, -41.05424 ], [ -72.33009, -41.05231 ], [ -72.33055, -41.05217 ], [ -72.33031, -41.05445 ], [ -72.33035, -41.06386 ] ], [ [ -72.2604, -41.05872 ], [ -72.26011, -41.05945 ], [ -72.25981, -41.06147 ], [ -72.2601, -41.06224 ], [ -72.26312, -41.06663 ], [ -72.2636, -41.06775 ], [ -72.26448, -41.06897 ], [ -72.26498, -41.06858 ], [ -72.26491, -41.06669 ], [ -72.26522, -41.06651 ], [ -72.26702, -41.06645 ], [ -72.27066, -41.06491 ], [ -72.27284, -41.06467 ], [ -72.27353, -41.06444 ], [ -72.27414, -41.06388 ], [ -72.27489, -41.06355 ], [ -72.2762, -41.0633 ], [ -72.27773, -41.06334 ], [ -72.28173, -41.06383 ], [ -72.28272, -41.06432 ], [ -72.28292, -41.06458 ], [ -72.28288, -41.06626 ], [ -72.28385, -41.06771 ], [ -72.28396, -41.06821 ], [ -72.28394, -41.06903 ], [ -72.28421, -41.06983 ], [ -72.28401, -41.07026 ], [ -72.28354, -41.07079 ], [ -72.28083, -41.07162 ], [ -72.27881, -41.07264 ], [ -72.2774, -41.07268 ], [ -72.27594, -41.07192 ], [ -72.27514, -41.07272 ], [ -72.27309, -41.07312 ], [ -72.27204, -41.07365 ], [ -72.27114, -41.07355 ], [ -72.26873, -41.07233 ], [ -72.26669, -41.07186 ], [ -72.26577, -41.07218 ], [ -72.26654, -41.0729 ], [ -72.26655, -41.0732 ], [ -72.26636, -41.07336 ], [ -72.26452, -41.07357 ], [ -72.26309, -41.07304 ], [ -72.26093, -41.07291 ], [ -72.25894, -41.07238 ], [ -72.25853, -41.07259 ], [ -72.25857, -41.07299 ], [ -72.25934, -41.07363 ], [ -72.25975, -41.07456 ], [ -72.25997, -41.07481 ], [ -72.26144, -41.07514 ], [ -72.2625, -41.07569 ], [ -72.26326, -41.07663 ], [ -72.26322, -41.07757 ], [ -72.26308, -41.07783 ], [ -72.26217, -41.07796 ], [ -72.26219, -41.07821 ], [ -72.26074, -41.07809 ], [ -72.2583, -41.07871 ], [ -72.25788, -41.07864 ], [ -72.2571, -41.07834 ], [ -72.25535, -41.07664 ], [ -72.2549, -41.07593 ], [ -72.2551, -41.07295 ], [ -72.25611, -41.07157 ], [ -72.25604, -41.07073 ], [ -72.25427, -41.06949 ], [ -72.25405, -41.0672 ], [ -72.25388, -41.06675 ], [ -72.25336, -41.06642 ], [ -72.25051, -41.06577 ], [ -72.25004, -41.06558 ], [ -72.24943, -41.06504 ], [ -72.24915, -41.06409 ], [ -72.24919, -41.06175 ], [ -72.23724, -41.06189 ], [ -72.23947, -41.06451 ], [ -72.23966, -41.06506 ], [ -72.2391, -41.06559 ], [ -72.23749, -41.06994 ], [ -72.23781, -41.0739 ], [ -72.23687, -41.07477 ], [ -72.23477, -41.07594 ], [ -72.23327, -41.07597 ], [ -72.23032, -41.07562 ], [ -72.22984, -41.0746 ], [ -72.22918, -41.07397 ], [ -72.22835, -41.07146 ], [ -72.22733, -41.07078 ], [ -72.22634, -41.07093 ], [ -72.22558, -41.07146 ], [ -72.22475, -41.07234 ], [ -72.22415, -41.07264 ], [ -72.22403, -41.07294 ], [ -72.2242, -41.07331 ], [ -72.2239, -41.07422 ], [ -72.22318, -41.07436 ], [ -72.22274, -41.07479 ], [ -72.22221, -41.0748 ], [ -72.22171, -41.07461 ], [ -72.22141, -41.07426 ], [ -72.22162, -41.07358 ], [ -72.22139, -41.07294 ], [ -72.22178, -41.07189 ], [ -72.22168, -41.07098 ], [ -72.22242, -41.07038 ], [ -72.22282, -41.07031 ], [ -72.22373, -41.07059 ], [ -72.22461, -41.07057 ], [ -72.22628, -41.06991 ], [ -72.22707, -41.06921 ], [ -72.2272, -41.06881 ], [ -72.23089, -41.06662 ], [ -72.23115, -41.06608 ], [ -72.23108, -41.06584 ], [ -72.23007, -41.06538 ], [ -72.22896, -41.06409 ], [ -72.22853, -41.06298 ], [ -72.22866, -41.06225 ], [ -72.22791, -41.0615 ], [ -72.22775, -41.06056 ], [ -72.22672, -41.05857 ], [ -72.22521, -41.05633 ], [ -72.22479, -41.05608 ], [ -72.22411, -41.05596 ], [ -72.22337, -41.05593 ], [ -72.22219, -41.05616 ], [ -72.22121, -41.05565 ], [ -72.21832, -41.05268 ], [ -72.21732, -41.05073 ], [ -72.21561, -41.04969 ], [ -72.21493, -41.04903 ], [ -72.21457, -41.04816 ], [ -72.21473, -41.04741 ], [ -72.21506, -41.04703 ], [ -72.21719, -41.04608 ], [ -72.21715, -41.04464 ], [ -72.21601, -41.04279 ], [ -72.21525, -41.04195 ], [ -72.21407, -41.04108 ], [ -72.21354, -41.04107 ], [ -72.21312, -41.04073 ], [ -72.21308, -41.03987 ], [ -72.21286, -41.03942 ], [ -72.21222, -41.03883 ], [ -72.21049, -41.03804 ], [ -72.20912, -41.03709 ], [ -72.20834, -41.03633 ], [ -72.20812, -41.03584 ], [ -72.20817, -41.03536 ], [ -72.2085, -41.03482 ], [ -72.20899, -41.03456 ], [ -72.20909, -41.03406 ], [ -72.2086, -41.03333 ], [ -72.2094, -41.03177 ], [ -72.20792, -41.03107 ], [ -72.20715, -41.03009 ], [ -72.20615, -41.02791 ], [ -72.20591, -41.02672 ], [ -72.20772, -41.02598 ], [ -72.20827, -41.02543 ], [ -72.21225, -41.02455 ], [ -72.21493, -41.02365 ], [ -72.21569, -41.02377 ], [ -72.21619, -41.0244 ], [ -72.21694, -41.02416 ], [ -72.21784, -41.0242 ], [ -72.21897, -41.02751 ], [ -72.22051, -41.02985 ], [ -72.22593, -41.03531 ], [ -72.23115, -41.04022 ], [ -72.23427, -41.04284 ], [ -72.23599, -41.04344 ], [ -72.23793, -41.04441 ], [ -72.23984, -41.04576 ], [ -72.24093, -41.04611 ], [ -72.24138, -41.04608 ], [ -72.24168, -41.04582 ], [ -72.24226, -41.04468 ], [ -72.24346, -41.04322 ], [ -72.24361, -41.04283 ], [ -72.24358, -41.04222 ], [ -72.2427, -41.04116 ], [ -72.24271, -41.04018 ], [ -72.24439, -41.03682 ], [ -72.24484, -41.03619 ], [ -72.24544, -41.03578 ], [ -72.24615, -41.0365 ], [ -72.24671, -41.03643 ], [ -72.24718, -41.03576 ], [ -72.2472, -41.03462 ], [ -72.24742, -41.03381 ], [ -72.24812, -41.03366 ], [ -72.24881, -41.0341 ], [ -72.24996, -41.03552 ], [ -72.25002, -41.03579 ], [ -72.25142, -41.03683 ], [ -72.25226, -41.03697 ], [ -72.25279, -41.03679 ], [ -72.2541, -41.03594 ], [ -72.25616, -41.03582 ], [ -72.25587, -41.03666 ], [ -72.25572, -41.03774 ], [ -72.25607, -41.04067 ], [ -72.25561, -41.04612 ], [ -72.25565, -41.04636 ], [ -72.25611, -41.04673 ], [ -72.25609, -41.04725 ], [ -72.25486, -41.05016 ], [ -72.25489, -41.05074 ], [ -72.25418, -41.05197 ], [ -72.25426, -41.05244 ], [ -72.25645, -41.05214 ], [ -72.25833, -41.05264 ], [ -72.26098, -41.05252 ], [ -72.2615, -41.05264 ], [ -72.26154, -41.05314 ], [ -72.26055, -41.0565 ], [ -72.2604, -41.05872 ] ], [ [ -72.1687, -40.99931 ], [ -72.16968, -40.99894 ], [ -72.17196, -40.99875 ], [ -72.17224, -40.99965 ], [ -72.17265, -41.00011 ], [ -72.17288, -41.00029 ], [ -72.17387, -41.00015 ], [ -72.17568, -41.00196 ], [ -72.17313, -41.00448 ], [ -72.17158, -41.00491 ], [ -72.16935, -41.0051 ], [ -72.16754, -41.00459 ], [ -72.16686, -41.00476 ], [ -72.16736, -41.00309 ], [ -72.16539, -41.00221 ], [ -72.16569, -41.0016 ], [ -72.16634, -41.00094 ], [ -72.16683, -40.99969 ], [ -72.1687, -40.99931 ] ], [ [ -72.17309, -40.98779 ], [ -72.17267, -40.98838 ], [ -72.17282, -40.98869 ], [ -72.17154, -40.98889 ], [ -72.17122, -40.99249 ], [ -72.17062, -40.99262 ], [ -72.1685, -40.99158 ], [ -72.16866, -40.991 ], [ -72.16862, -40.99003 ], [ -72.16804, -40.98824 ], [ -72.17064, -40.98585 ], [ -72.17401, -40.98705 ], [ -72.17309, -40.98779 ] ], [ [ -72.09769, -41.16377 ], [ -72.09869, -41.16341 ], [ -72.0986, -41.16238 ], [ -72.09961, -41.16196 ], [ -72.10083, -41.16228 ], [ -72.10131, -41.16296 ], [ -72.10129, -41.16345 ], [ -72.10188, -41.16401 ], [ -72.1029, -41.16414 ], [ -72.1039, -41.1646 ], [ -72.10493, -41.1645 ], [ -72.10612, -41.16536 ], [ -72.10661, -41.16671 ], [ -72.10753, -41.16756 ], [ -72.10842, -41.16913 ], [ -72.10947, -41.17045 ], [ -72.10976, -41.17149 ], [ -72.12081, -41.18375 ], [ -72.13975, -41.19495 ], [ -72.13447, -41.20628 ], [ -72.13138, -41.21116 ], [ -72.12833, -41.21542 ], [ -72.12507, -41.21488 ], [ -72.12015, -41.21486 ], [ -72.11736, -41.20813 ], [ -72.1082, -41.18962 ], [ -72.1034, -41.18557 ], [ -72.09177, -41.17465 ], [ -72.085, -41.16405 ], [ -72.0796, -41.16107 ], [ -72.06706, -41.15729 ], [ -72.06641, -41.15666 ], [ -72.06686, -41.15569 ], [ -72.06736, -41.15363 ], [ -72.06963, -41.13655 ], [ -72.0701, -41.13647 ], [ -72.07104, -41.13705 ], [ -72.07203, -41.1378 ], [ -72.07312, -41.13933 ], [ -72.07609, -41.14162 ], [ -72.07665, -41.14188 ], [ -72.07686, -41.14222 ], [ -72.0786, -41.1431 ], [ -72.07859, -41.14385 ], [ -72.07933, -41.14552 ], [ -72.08104, -41.14701 ], [ -72.08279, -41.14773 ], [ -72.08551, -41.148 ], [ -72.0876, -41.14868 ], [ -72.08832, -41.14937 ], [ -72.08933, -41.15115 ], [ -72.09181, -41.15224 ], [ -72.09451, -41.15368 ], [ -72.0947, -41.1541 ], [ -72.09437, -41.15455 ], [ -72.09442, -41.15504 ], [ -72.09535, -41.15569 ], [ -72.09573, -41.15637 ], [ -72.0968, -41.15683 ], [ -72.09698, -41.15743 ], [ -72.09581, -41.15756 ], [ -72.09443, -41.15794 ], [ -72.09474, -41.15869 ], [ -72.09556, -41.15936 ], [ -72.09505, -41.16002 ], [ -72.09439, -41.16026 ], [ -72.09364, -41.16029 ], [ -72.09257, -41.15975 ], [ -72.09082, -41.15996 ], [ -72.09056, -41.16052 ], [ -72.09063, -41.16117 ], [ -72.09116, -41.16232 ], [ -72.09252, -41.16388 ], [ -72.09345, -41.1662 ], [ -72.09433, -41.1663 ], [ -72.09518, -41.1657 ], [ -72.09536, -41.16457 ], [ -72.09608, -41.16386 ], [ -72.09638, -41.16325 ], [ -72.09769, -41.16377 ] ], [ [ -72.0956, -41.12859 ], [ -72.09691, -41.12829 ], [ -72.10082, -41.12859 ], [ -72.10215, -41.12796 ], [ -72.10575, -41.12668 ], [ -72.10686, -41.12644 ], [ -72.10758, -41.12661 ], [ -72.10445, -41.1303 ], [ -72.10362, -41.13198 ], [ -72.10237, -41.13337 ], [ -72.1007, -41.13475 ], [ -72.09984, -41.13656 ], [ -72.09346, -41.14067 ], [ -72.09634, -41.1419 ], [ -72.09726, -41.14268 ], [ -72.09741, -41.1432 ], [ -72.09727, -41.14412 ], [ -72.09824, -41.14528 ], [ -72.09993, -41.14654 ], [ -72.10028, -41.14709 ], [ -72.1008, -41.14922 ], [ -72.10126, -41.14967 ], [ -72.10256, -41.15035 ], [ -72.10288, -41.15092 ], [ -72.10313, -41.15439 ], [ -72.10348, -41.15587 ], [ -72.10376, -41.15603 ], [ -72.1041, -41.15657 ], [ -72.10396, -41.15742 ], [ -72.10174, -41.15732 ], [ -72.10102, -41.15661 ], [ -72.09919, -41.15548 ], [ -72.09804, -41.15447 ], [ -72.09717, -41.15321 ], [ -72.09699, -41.15191 ], [ -72.09609, -41.1506 ], [ -72.09589, -41.14969 ], [ -72.09351, -41.14873 ], [ -72.09295, -41.1483 ], [ -72.09176, -41.14667 ], [ -72.0915, -41.14568 ], [ -72.09085, -41.14489 ], [ -72.09065, -41.14153 ], [ -72.08995, -41.14048 ], [ -72.08821, -41.13958 ], [ -72.08673, -41.13838 ], [ -72.08658, -41.13781 ], [ -72.08668, -41.13714 ], [ -72.08641, -41.13644 ], [ -72.08642, -41.13455 ], [ -72.08621, -41.13388 ], [ -72.0867, -41.13288 ], [ -72.08675, -41.13178 ], [ -72.08711, -41.13129 ], [ -72.0883, -41.13058 ], [ -72.0922, -41.12887 ], [ -72.0956, -41.12859 ] ], [ [ -72.06731, -41.13417 ], [ -72.05544, -41.13536 ], [ -72.05401, -41.12763 ], [ -72.06378, -41.12597 ], [ -72.06464, -41.12672 ], [ -72.06526, -41.12802 ], [ -72.0655, -41.12881 ], [ -72.06591, -41.13181 ], [ -72.06731, -41.13417 ] ], [ [ -72.06005, -41.12284 ], [ -72.05959, -41.12332 ], [ -72.05778, -41.12373 ], [ -72.05655, -41.12423 ], [ -72.05414, -41.12179 ], [ -72.05452, -41.12126 ], [ -72.05251, -41.11915 ], [ -72.05072, -41.1168 ], [ -72.0505, -41.11586 ], [ -72.04721, -41.11311 ], [ -72.04637, -41.11267 ], [ -72.04735, -41.11266 ], [ -72.04773, -41.11293 ], [ -72.04816, -41.11357 ], [ -72.04869, -41.11397 ], [ -72.04945, -41.11426 ], [ -72.04946, -41.11455 ], [ -72.05009, -41.11463 ], [ -72.05237, -41.11566 ], [ -72.05219, -41.11603 ], [ -72.0539, -41.11681 ], [ -72.05383, -41.11718 ], [ -72.05405, -41.11734 ], [ -72.05399, -41.11753 ], [ -72.05425, -41.1177 ], [ -72.05422, -41.11803 ], [ -72.05458, -41.11825 ], [ -72.05511, -41.11831 ], [ -72.05561, -41.11883 ], [ -72.0562, -41.119 ], [ -72.05597, -41.11974 ], [ -72.0561, -41.11997 ], [ -72.05667, -41.1201 ], [ -72.05706, -41.12037 ], [ -72.05783, -41.12047 ], [ -72.05795, -41.12067 ], [ -72.05844, -41.12082 ], [ -72.05849, -41.12104 ], [ -72.05914, -41.12126 ], [ -72.05939, -41.12193 ], [ -72.05986, -41.12235 ], [ -72.06005, -41.12284 ] ], [ [ -72.13412, -41.10895 ], [ -72.13439, -41.10888 ], [ -72.13455, -41.10965 ], [ -72.13425, -41.11166 ], [ -72.13155, -41.11569 ], [ -72.1316, -41.11688 ], [ -72.13105, -41.11706 ], [ -72.13017, -41.11697 ], [ -72.12963, -41.11711 ], [ -72.12776, -41.11646 ], [ -72.12826, -41.11612 ], [ -72.12867, -41.11535 ], [ -72.12948, -41.11456 ], [ -72.1291, -41.11401 ], [ -72.12931, -41.11373 ], [ -72.12931, -41.11317 ], [ -72.12954, -41.11277 ], [ -72.1294, -41.11224 ], [ -72.12973, -41.11178 ], [ -72.12971, -41.11078 ], [ -72.13028, -41.11065 ], [ -72.13041, -41.11306 ], [ -72.13076, -41.11325 ], [ -72.13077, -41.11291 ], [ -72.13096, -41.11269 ], [ -72.13231, -41.11186 ], [ -72.13183, -41.11147 ], [ -72.13179, -41.11123 ], [ -72.13238, -41.11125 ], [ -72.13268, -41.11108 ], [ -72.1338, -41.10962 ], [ -72.13331, -41.10921 ], [ -72.13378, -41.10878 ], [ -72.13412, -41.10895 ] ], [ [ -72.11922, -41.08185 ], [ -72.11868, -41.08241 ], [ -72.11943, -41.08413 ], [ -72.11907, -41.08456 ], [ -72.11729, -41.08544 ], [ -72.11634, -41.08612 ], [ -72.11199, -41.09112 ], [ -72.11007, -41.09213 ], [ -72.10919, -41.0934 ], [ -72.10863, -41.09462 ], [ -72.10808, -41.09773 ], [ -72.10758, -41.09863 ], [ -72.10747, -41.09999 ], [ -72.1078, -41.1033 ], [ -72.10711, -41.10509 ], [ -72.10605, -41.106 ], [ -72.10582, -41.1064 ], [ -72.10457, -41.10709 ], [ -72.10364, -41.1079 ], [ -72.10341, -41.10846 ], [ -72.10276, -41.10927 ], [ -72.10206, -41.10972 ], [ -72.10026, -41.11024 ], [ -72.09821, -41.11034 ], [ -72.09593, -41.11096 ], [ -72.09429, -41.11112 ], [ -72.09514, -41.10882 ], [ -72.09639, -41.10663 ], [ -72.09785, -41.1046 ], [ -72.1019, -41.10103 ], [ -72.09962, -41.10157 ], [ -72.09942, -41.10141 ], [ -72.09957, -41.10044 ], [ -72.10004, -41.099 ], [ -72.10051, -41.09155 ], [ -72.10098, -41.09089 ], [ -72.10172, -41.0904 ], [ -72.10237, -41.08954 ], [ -72.10293, -41.08839 ], [ -72.1057, -41.08583 ], [ -72.10618, -41.08511 ], [ -72.108, -41.08338 ], [ -72.10952, -41.08133 ], [ -72.11088, -41.08061 ], [ -72.11443, -41.07972 ], [ -72.11569, -41.07916 ], [ -72.11871, -41.07714 ], [ -72.12288, -41.08011 ], [ -72.12201, -41.08112 ], [ -72.1211, -41.08177 ], [ -72.11981, -41.08169 ], [ -72.11922, -41.08185 ] ], [ [ -72.07103, -41.09476 ], [ -72.07237, -41.09584 ], [ -72.07243, -41.0971 ], [ -72.07469, -41.09801 ], [ -72.07513, -41.09961 ], [ -72.07076, -41.10091 ], [ -72.06918, -41.09865 ], [ -72.06762, -41.09688 ], [ -72.06388, -41.09404 ], [ -72.06318, -41.09273 ], [ -72.05816, -41.09021 ], [ -72.05419, -41.09024 ], [ -72.05121, -41.08962 ], [ -72.04846, -41.08809 ], [ -72.04592, -41.08515 ], [ -72.04393, -41.08199 ], [ -72.0529, -41.07833 ], [ -72.05693, -41.08549 ], [ -72.06104, -41.08245 ], [ -72.06486, -41.08521 ], [ -72.06448, -41.0869 ], [ -72.06521, -41.08883 ], [ -72.06746, -41.0915 ], [ -72.06829, -41.09357 ], [ -72.06928, -41.09292 ], [ -72.07103, -41.09476 ] ], [ [ -72.16891, -41.09201 ], [ -72.16711, -41.09159 ], [ -72.16653, -41.0917 ], [ -72.16565, -41.09225 ], [ -72.16503, -41.09239 ], [ -72.16203, -41.09236 ], [ -72.15306, -41.09547 ], [ -72.15268, -41.09536 ], [ -72.15274, -41.09319 ], [ -72.15165, -41.09322 ], [ -72.14743, -41.09448 ], [ -72.14417, -41.09347 ], [ -72.14281, -41.09248 ], [ -72.14148, -41.09002 ], [ -72.14143, -41.08881 ], [ -72.14089, -41.0881 ], [ -72.14105, -41.08743 ], [ -72.14269, -41.08587 ], [ -72.14291, -41.08546 ], [ -72.14317, -41.08348 ], [ -72.1436, -41.08303 ], [ -72.14432, -41.08294 ], [ -72.14485, -41.08327 ], [ -72.14506, -41.08386 ], [ -72.1451, -41.08539 ], [ -72.14546, -41.08578 ], [ -72.1459, -41.08582 ], [ -72.14694, -41.08536 ], [ -72.14716, -41.08498 ], [ -72.14757, -41.08336 ], [ -72.1477, -41.08212 ], [ -72.14827, -41.08152 ], [ -72.14876, -41.08127 ], [ -72.15033, -41.08113 ], [ -72.15149, -41.08121 ], [ -72.15338, -41.08172 ], [ -72.1576, -41.08343 ], [ -72.15984, -41.08374 ], [ -72.16146, -41.08409 ], [ -72.16227, -41.08442 ], [ -72.1628, -41.08479 ], [ -72.16401, -41.08668 ], [ -72.16539, -41.08806 ], [ -72.16654, -41.08974 ], [ -72.16781, -41.09044 ], [ -72.16996, -41.09127 ], [ -72.17044, -41.09181 ], [ -72.16891, -41.09201 ] ], [ [ -72.01882, -41.07899 ], [ -72.01887, -41.07829 ], [ -72.01957, -41.07753 ], [ -72.01976, -41.07687 ], [ -72.01968, -41.07623 ], [ -72.01997, -41.07517 ], [ -72.01915, -41.07337 ], [ -72.01875, -41.07288 ], [ -72.01829, -41.07141 ], [ -72.01748, -41.07054 ], [ -72.01719, -41.06996 ], [ -72.01702, -41.06777 ], [ -72.01576, -41.06642 ], [ -72.01394, -41.06336 ], [ -72.01207, -41.06087 ], [ -72.01161, -41.05884 ], [ -72.01112, -41.05841 ], [ -72.00664, -41.05567 ], [ -72.00461, -41.05491 ], [ -72.0032, -41.0547 ], [ -72.00245, -41.05434 ], [ -72.00169, -41.0546 ], [ -71.99904, -41.05479 ], [ -71.99633, -41.05454 ], [ -71.99371, -41.05449 ], [ -71.99241, -41.05465 ], [ -71.98986, -41.05427 ], [ -71.98592, -41.0542 ], [ -71.98457, -41.05473 ], [ -71.98298, -41.05481 ], [ -71.98108, -41.05468 ], [ -71.98156, -41.05252 ], [ -71.98146, -41.05253 ], [ -71.9812, -41.04883 ], [ -71.98236, -41.0481 ], [ -71.9841, -41.04771 ], [ -71.98642, -41.048 ], [ -71.98836, -41.04795 ], [ -71.98949, -41.04728 ], [ -71.99276, -41.04785 ], [ -71.99618, -41.04763 ], [ -71.99751, -41.04791 ], [ -71.99857, -41.04792 ], [ -71.9997, -41.04749 ], [ -72.00141, -41.04769 ], [ -72.00321, -41.04702 ], [ -72.00672, -41.04617 ], [ -72.00952, -41.0463 ], [ -72.01414, -41.0457 ], [ -72.01806, -41.04576 ], [ -72.01969, -41.04536 ], [ -72.02104, -41.0447 ], [ -72.02168, -41.04463 ], [ -72.02252, -41.04469 ], [ -72.02432, -41.04534 ], [ -72.02675, -41.04597 ], [ -72.02784, -41.0466 ], [ -72.02751, -41.05209 ], [ -72.02604, -41.05372 ], [ -72.02535, -41.05506 ], [ -72.02478, -41.05713 ], [ -72.02321, -41.06129 ], [ -72.02326, -41.06386 ], [ -72.02394, -41.06632 ], [ -72.02526, -41.06747 ], [ -72.02513, -41.06811 ], [ -72.02537, -41.06852 ], [ -72.02629, -41.06926 ], [ -72.02637, -41.06998 ], [ -72.02544, -41.0718 ], [ -72.02402, -41.07381 ], [ -72.02353, -41.07532 ], [ -72.02476, -41.07747 ], [ -72.02547, -41.08057 ], [ -72.02764, -41.08283 ], [ -72.02837, -41.08425 ], [ -72.02874, -41.08538 ], [ -72.0291, -41.08778 ], [ -72.02999, -41.08916 ], [ -72.02985, -41.08988 ], [ -72.02946, -41.09031 ], [ -72.02824, -41.09044 ], [ -72.02759, -41.09087 ], [ -72.02706, -41.09098 ], [ -72.02608, -41.09169 ], [ -72.02514, -41.09195 ], [ -72.02448, -41.09193 ], [ -72.02262, -41.08918 ], [ -72.021, -41.08633 ], [ -72.01962, -41.08528 ], [ -72.01871, -41.08429 ], [ -72.01768, -41.08188 ], [ -72.01762, -41.08142 ], [ -72.01788, -41.08029 ], [ -72.01882, -41.07899 ] ], [ [ -71.87774, -41.05912 ], [ -71.87786, -41.06177 ], [ -71.87831, -41.06358 ], [ -71.86905, -41.06521 ], [ -71.85738, -41.05781 ], [ -71.86068, -41.05102 ], [ -71.87013, -41.04757 ], [ -71.8685, -41.04391 ], [ -71.89649, -41.03412 ], [ -71.89623, -41.03644 ], [ -71.89647, -41.03783 ], [ -71.89765, -41.03941 ], [ -71.89934, -41.0402 ], [ -71.90129, -41.04036 ], [ -71.90387, -41.0403 ], [ -71.90653, -41.03995 ], [ -71.9072, -41.04039 ], [ -71.909, -41.04352 ], [ -71.8914, -41.05172 ], [ -71.88771, -41.04221 ], [ -71.88472, -41.04343 ], [ -71.88293, -41.04477 ], [ -71.87851, -41.04701 ], [ -71.87744, -41.04903 ], [ -71.87724, -41.05173 ], [ -71.87742, -41.05274 ], [ -71.87795, -41.05332 ], [ -71.87774, -41.05912 ] ], [ [ -72.20573, -41.04775 ], [ -72.20704, -41.04848 ], [ -72.20971, -41.04958 ], [ -72.2181, -41.05747 ], [ -72.21881, -41.05821 ], [ -72.21926, -41.05898 ], [ -72.21951, -41.06175 ], [ -72.21875, -41.06473 ], [ -72.21835, -41.06785 ], [ -72.21693, -41.07034 ], [ -72.21663, -41.07047 ], [ -72.21598, -41.07021 ], [ -72.21581, -41.06981 ], [ -72.21611, -41.06844 ], [ -72.21551, -41.0681 ], [ -72.21504, -41.06855 ], [ -72.21458, -41.0696 ], [ -72.21393, -41.06984 ], [ -72.21325, -41.07057 ], [ -72.21255, -41.07057 ], [ -72.21196, -41.07024 ], [ -72.21125, -41.07054 ], [ -72.21015, -41.06983 ], [ -72.20988, -41.06995 ], [ -72.20989, -41.07031 ], [ -72.21019, -41.07064 ], [ -72.21087, -41.07089 ], [ -72.2116, -41.07167 ], [ -72.21229, -41.07299 ], [ -72.21216, -41.07353 ], [ -72.21178, -41.07383 ], [ -72.21108, -41.07497 ], [ -72.21145, -41.0765 ], [ -72.21185, -41.07703 ], [ -72.21269, -41.07734 ], [ -72.21457, -41.07747 ], [ -72.2156, -41.0773 ], [ -72.21593, -41.07751 ], [ -72.2161, -41.07774 ], [ -72.21494, -41.07809 ], [ -72.21475, -41.07838 ], [ -72.21476, -41.07872 ], [ -72.21523, -41.07936 ], [ -72.21565, -41.07964 ], [ -72.21604, -41.07968 ], [ -72.21639, -41.07959 ], [ -72.21694, -41.07884 ], [ -72.21727, -41.07886 ], [ -72.21945, -41.08114 ], [ -72.21948, -41.08187 ], [ -72.21815, -41.08233 ], [ -72.21826, -41.08284 ], [ -72.21903, -41.08343 ], [ -72.22149, -41.08453 ], [ -72.22246, -41.08527 ], [ -72.22285, -41.08568 ], [ -72.22291, -41.08596 ], [ -72.22263, -41.08651 ], [ -72.22153, -41.08667 ], [ -72.22043, -41.0866 ], [ -72.2166, -41.08592 ], [ -72.21502, -41.08548 ], [ -72.2134, -41.08451 ], [ -72.21274, -41.08445 ], [ -72.20984, -41.08506 ], [ -72.20723, -41.08486 ], [ -72.20302, -41.08176 ], [ -72.20134, -41.0795 ], [ -72.20009, -41.07479 ], [ -72.19949, -41.07187 ], [ -72.19948, -41.06961 ], [ -72.19957, -41.06927 ], [ -72.1999, -41.06897 ], [ -72.20037, -41.06881 ], [ -72.20069, -41.06892 ], [ -72.20092, -41.06972 ], [ -72.20112, -41.06988 ], [ -72.20191, -41.07008 ], [ -72.20254, -41.06979 ], [ -72.20285, -41.06947 ], [ -72.20285, -41.06886 ], [ -72.20263, -41.06812 ], [ -72.202, -41.06739 ], [ -72.20125, -41.06769 ], [ -72.20089, -41.06767 ], [ -72.20038, -41.06707 ], [ -72.20023, -41.06656 ], [ -72.19926, -41.06637 ], [ -72.19868, -41.06666 ], [ -72.19835, -41.06823 ], [ -72.19816, -41.06839 ], [ -72.19732, -41.06838 ], [ -72.19651, -41.06789 ], [ -72.19599, -41.06726 ], [ -72.19588, -41.06683 ], [ -72.19748, -41.06658 ], [ -72.19728, -41.06633 ], [ -72.19607, -41.06605 ], [ -72.19587, -41.06572 ], [ -72.19484, -41.06538 ], [ -72.19453, -41.06555 ], [ -72.19477, -41.06639 ], [ -72.19478, -41.06699 ], [ -72.19463, -41.06722 ], [ -72.19436, -41.06723 ], [ -72.19432, -41.06687 ], [ -72.19463, -41.06634 ], [ -72.19465, -41.06602 ], [ -72.19425, -41.06565 ], [ -72.19378, -41.06557 ], [ -72.19248, -41.06587 ], [ -72.19201, -41.06676 ], [ -72.19156, -41.06669 ], [ -72.18891, -41.06438 ], [ -72.18825, -41.06342 ], [ -72.18779, -41.06208 ], [ -72.18823, -41.0604 ], [ -72.18807, -41.05853 ], [ -72.18752, -41.05759 ], [ -72.18652, -41.05676 ], [ -72.18411, -41.05567 ], [ -72.18287, -41.05556 ], [ -72.18184, -41.05604 ], [ -72.1811, -41.05668 ], [ -72.18052, -41.05686 ], [ -72.17711, -41.05691 ], [ -72.17554, -41.05774 ], [ -72.17523, -41.05769 ], [ -72.17502, -41.05721 ], [ -72.17466, -41.05699 ], [ -72.17374, -41.05691 ], [ -72.1734, -41.0567 ], [ -72.17323, -41.05642 ], [ -72.17303, -41.05497 ], [ -72.17257, -41.05472 ], [ -72.17144, -41.05454 ], [ -72.1701, -41.05508 ], [ -72.1675, -41.05517 ], [ -72.1666, -41.05471 ], [ -72.16595, -41.05417 ], [ -72.16538, -41.05292 ], [ -72.16425, -41.05167 ], [ -72.16141, -41.04977 ], [ -72.16002, -41.04793 ], [ -72.15922, -41.04751 ], [ -72.15786, -41.04744 ], [ -72.15729, -41.04764 ], [ -72.1561, -41.04942 ], [ -72.15505, -41.05064 ], [ -72.15416, -41.05227 ], [ -72.15343, -41.0531 ], [ -72.1517, -41.05476 ], [ -72.15087, -41.0553 ], [ -72.14973, -41.05576 ], [ -72.14896, -41.05635 ], [ -72.14875, -41.05816 ], [ -72.14754, -41.05921 ], [ -72.14681, -41.05953 ], [ -72.1462, -41.05956 ], [ -72.14519, -41.05919 ], [ -72.14421, -41.05925 ], [ -72.14197, -41.06081 ], [ -72.14047, -41.06226 ], [ -72.13911, -41.06312 ], [ -72.1377, -41.06341 ], [ -72.13614, -41.06397 ], [ -72.13485, -41.06516 ], [ -72.13388, -41.06564 ], [ -72.13191, -41.06577 ], [ -72.13159, -41.06536 ], [ -72.13173, -41.0644 ], [ -72.13347, -41.06284 ], [ -72.13483, -41.06083 ], [ -72.13486, -41.05997 ], [ -72.13426, -41.05912 ], [ -72.13455, -41.05796 ], [ -72.13497, -41.05751 ], [ -72.13563, -41.05695 ], [ -72.13761, -41.05593 ], [ -72.14858, -41.04931 ], [ -72.14704, -41.04583 ], [ -72.14456, -41.04196 ], [ -72.1455, -41.03066 ], [ -72.14541, -41.02973 ], [ -72.14307, -41.02871 ], [ -72.13773, -41.02758 ], [ -72.13068, -41.02684 ], [ -72.12511, -41.02346 ], [ -72.11195, -41.02092 ], [ -72.11406, -41.01489 ], [ -72.11889, -41.01585 ], [ -72.13103, -41.01247 ], [ -72.13854, -41.0125 ], [ -72.14712, -41.01339 ], [ -72.15198, -41.01359 ], [ -72.15369, -41.01346 ], [ -72.1596, -41.01094 ], [ -72.1611, -41.01049 ], [ -72.16247, -41.01061 ], [ -72.16509, -41.01115 ], [ -72.16689, -41.0122 ], [ -72.16754, -41.01313 ], [ -72.17077, -41.0205 ], [ -72.173, -41.02648 ], [ -72.17639, -41.03257 ], [ -72.18044, -41.03928 ], [ -72.18219, -41.04021 ], [ -72.18501, -41.04128 ], [ -72.18715, -41.04185 ], [ -72.19823, -41.04616 ], [ -72.20573, -41.04775 ] ], [ [ -72.16839, -40.99149 ], [ -72.16752, -40.99077 ], [ -72.16664, -40.99097 ], [ -72.16489, -40.99191 ], [ -72.16453, -40.98939 ], [ -72.16472, -40.98839 ], [ -72.16797, -40.98832 ], [ -72.16851, -40.99016 ], [ -72.16855, -40.99093 ], [ -72.16839, -40.99149 ] ], [ [ -72.14095, -40.96468 ], [ -72.13438, -40.9657 ], [ -72.13109, -40.96594 ], [ -72.13027, -40.96588 ], [ -72.12489, -40.96451 ], [ -72.12287, -40.96425 ], [ -72.12103, -40.96423 ], [ -72.11833, -40.96532 ], [ -72.11584, -40.96672 ], [ -72.11507, -40.96678 ], [ -72.1146, -40.96661 ], [ -72.11387, -40.96581 ], [ -72.11303, -40.96463 ], [ -72.11221, -40.96385 ], [ -72.11208, -40.96328 ], [ -72.11226, -40.96293 ], [ -72.11329, -40.96227 ], [ -72.115, -40.96171 ], [ -72.11904, -40.96114 ], [ -72.12318, -40.96084 ], [ -72.12669, -40.95996 ], [ -72.12906, -40.96038 ], [ -72.13033, -40.96038 ], [ -72.13257, -40.95995 ], [ -72.13616, -40.9588 ], [ -72.1369, -40.95874 ], [ -72.13816, -40.95897 ], [ -72.14197, -40.95994 ], [ -72.14355, -40.95994 ], [ -72.14854, -40.9583 ], [ -72.15201, -40.95739 ], [ -72.15348, -40.95771 ], [ -72.15595, -40.95789 ], [ -72.15667, -40.95831 ], [ -72.15762, -40.95833 ], [ -72.1588, -40.95796 ], [ -72.15973, -40.95734 ], [ -72.16122, -40.9569 ], [ -72.1622, -40.95636 ], [ -72.16357, -40.95651 ], [ -72.16458, -40.95626 ], [ -72.16635, -40.95442 ], [ -72.16918, -40.95377 ], [ -72.17175, -40.95415 ], [ -72.17247, -40.95453 ], [ -72.17315, -40.95467 ], [ -72.1751, -40.95475 ], [ -72.18078, -40.96402 ], [ -72.16203, -40.96858 ], [ -72.16206, -40.96949 ], [ -72.16231, -40.96986 ], [ -72.16251, -40.97134 ], [ -72.16452, -40.97368 ], [ -72.16486, -40.97433 ], [ -72.16507, -40.97569 ], [ -72.16606, -40.97712 ], [ -72.16618, -40.97766 ], [ -72.1718, -40.97774 ], [ -72.17937, -40.97737 ], [ -72.18365, -40.97743 ], [ -72.18443, -40.97761 ], [ -72.18536, -40.97807 ], [ -72.18781, -40.98018 ], [ -72.18795, -40.98062 ], [ -72.18895, -40.98189 ], [ -72.18974, -40.98335 ], [ -72.19008, -40.98361 ], [ -72.19025, -40.9844 ], [ -72.18015, -40.98439 ], [ -72.16588, -40.98456 ], [ -72.16381, -40.98471 ], [ -72.16506, -40.98639 ], [ -72.1652, -40.98689 ], [ -72.16515, -40.98727 ], [ -72.16401, -40.9886 ], [ -72.16355, -40.98947 ], [ -72.16353, -40.99007 ], [ -72.16388, -40.99044 ], [ -72.16412, -40.99109 ], [ -72.16454, -40.9923 ], [ -72.16452, -40.99282 ], [ -72.16394, -40.99397 ], [ -72.16317, -40.99471 ], [ -72.16311, -40.99499 ], [ -72.16345, -40.99552 ], [ -72.16519, -40.99692 ], [ -72.16532, -40.99753 ], [ -72.16464, -40.99863 ], [ -72.16462, -40.99903 ], [ -72.16507, -40.99968 ], [ -72.16437, -41.00007 ], [ -72.16159, -41.00068 ], [ -72.15991, -41.00056 ], [ -72.15955, -41.00027 ], [ -72.15953, -40.99951 ], [ -72.15888, -40.99741 ], [ -72.15859, -40.9968 ], [ -72.15798, -40.9961 ], [ -72.15776, -40.9945 ], [ -72.15803, -40.99326 ], [ -72.15789, -40.99262 ], [ -72.15594, -40.98896 ], [ -72.15601, -40.98724 ], [ -72.15631, -40.98653 ], [ -72.15607, -40.98584 ], [ -72.15615, -40.98525 ], [ -72.15681, -40.98454 ], [ -72.15685, -40.98382 ], [ -72.15709, -40.98307 ], [ -72.15863, -40.98034 ], [ -72.15906, -40.97895 ], [ -72.15909, -40.97827 ], [ -72.15854, -40.97637 ], [ -72.15795, -40.97528 ], [ -72.15685, -40.97385 ], [ -72.15699, -40.97309 ], [ -72.15784, -40.97183 ], [ -72.15822, -40.97152 ], [ -72.15836, -40.97076 ], [ -72.15737, -40.96922 ], [ -72.15709, -40.96829 ], [ -72.15664, -40.96772 ], [ -72.15586, -40.96377 ], [ -72.15557, -40.96308 ], [ -72.1548, -40.96258 ], [ -72.15327, -40.9624 ], [ -72.15278, -40.96213 ], [ -72.15197, -40.96199 ], [ -72.14905, -40.96308 ], [ -72.1484, -40.96347 ], [ -72.14759, -40.96371 ], [ -72.14486, -40.96396 ], [ -72.14244, -40.96492 ], [ -72.14095, -40.96468 ] ] ] } },
{ "type": "Feature", "properties": { "nombre": "Parque Nacional Puyehue", "categoria": "Parque Nacional", "region": "Los Rios - Los Lagos", "superficie_ha": "106772", "decreto": "NÂ° 4751 de 1929; NÂ° 4363 de 1931; NÂ° 374 de 1941; NÂ° 338 de 1950; NÂ° 792 de 1961; NÂ° 348 de 1967; NÂ° 113 de 1980; NÂ° 71 de 1980; NÂ° 445 de 1981; NÂ° 33 de 1990; NÂ° 369 de 1994; NÂ° 277 de 2000; NÂ° 145 de 2017" }, "geometry": { "type": "Polygon", "coordinates": [ [ [ -72.08194, -40.76673 ], [ -72.08339, -40.7663 ], [ -72.08566, -40.7659 ], [ -72.09041, -40.76544 ], [ -72.09289, -40.76622 ], [ -72.09298, -40.76643 ], [ -72.09305, -40.76625 ], [ -72.09526, -40.76702 ], [ -72.09676, -40.76819 ], [ -72.09809, -40.76864 ], [ -72.09936, -40.7697 ], [ -72.10344, -40.77014 ], [ -72.10679, -40.76979 ], [ -72.10974, -40.76984 ], [ -72.11289, -40.77161 ], [ -72.11555, -40.77166 ], [ -72.11882, -40.77216 ], [ -72.12733, -40.77578 ], [ -72.13025, -40.77688 ], [ -72.13088, -40.77724 ], [ -72.13226, -40.77868 ], [ -72.1313, -40.77934 ], [ -72.12998, -40.78103 ], [ -72.12822, -40.78148 ], [ -72.12567, -40.78408 ], [ -72.11954, -40.78497 ], [ -72.11875, -40.78649 ], [ -72.11913, -40.78933 ], [ -72.11847, -40.79173 ], [ -72.11698, -40.79275 ], [ -72.11385, -40.7939 ], [ -72.11152, -40.7941 ], [ -72.10998, -40.79379 ], [ -72.10717, -40.79387 ], [ -72.10481, -40.79416 ], [ -72.10426, -40.79486 ], [ -72.10365, -40.79704 ], [ -72.10357, -40.80073 ], [ -72.1031, -40.80176 ], [ -72.10411, -40.80324 ], [ -72.1056, -40.80441 ], [ -72.10648, -40.8053 ], [ -72.10665, -40.80646 ], [ -72.10623, -40.80789 ], [ -72.10355, -40.81234 ], [ -72.1017, -40.81331 ], [ -72.09958, -40.8132 ], [ -72.09609, -40.81424 ], [ -72.09376, -40.8152 ], [ -72.0935, -40.81678 ], [ -72.0944, -40.81741 ], [ -72.09536, -40.81841 ], [ -72.09585, -40.81929 ], [ -72.09603, -40.82055 ], [ -72.09579, -40.82253 ], [ -72.09434, -40.82548 ], [ -72.09393, -40.82697 ], [ -72.09378, -40.82812 ], [ -72.09407, -40.82875 ], [ -72.09578, -40.83122 ], [ -72.09827, -40.83278 ], [ -72.10055, -40.83372 ], [ -72.10427, -40.83636 ], [ -72.10497, -40.83746 ], [ -72.1052, -40.83899 ], [ -72.10516, -40.83986 ], [ -72.10371, -40.84175 ], [ -72.10135, -40.84354 ], [ -72.10023, -40.8448 ], [ -72.09842, -40.8464 ], [ -72.09731, -40.84806 ], [ -72.09749, -40.84878 ], [ -72.09727, -40.85037 ], [ -72.09793, -40.85175 ], [ -72.0979, -40.85307 ], [ -72.09838, -40.85467 ], [ -72.09834, -40.85559 ], [ -72.09712, -40.85723 ], [ -72.09529, -40.85827 ], [ -72.09418, -40.85867 ], [ -72.09254, -40.85987 ], [ -72.08452, -40.86276 ], [ -72.08133, -40.86402 ], [ -72.07938, -40.86506 ], [ -72.07685, -40.86751 ], [ -72.06742, -40.87787 ], [ -72.06713, -40.8785 ], [ -72.06721, -40.87898 ], [ -72.06832, -40.88033 ], [ -72.06928, -40.88116 ], [ -72.07332, -40.88397 ], [ -72.07393, -40.8851 ], [ -72.0736, -40.88741 ], [ -72.07219, -40.88811 ], [ -72.06782, -40.88735 ], [ -72.06504, -40.88816 ], [ -72.06269, -40.88821 ], [ -72.062, -40.88839 ], [ -72.06052, -40.88952 ], [ -72.05893, -40.89034 ], [ -72.05413, -40.89063 ], [ -72.05101, -40.89206 ], [ -72.04581, -40.89344 ], [ -72.04516, -40.8934 ], [ -72.04327, -40.89382 ], [ -72.04115, -40.89458 ], [ -72.0405, -40.89629 ], [ -72.04213, -40.90022 ], [ -72.04228, -40.90252 ], [ -72.04179, -40.904 ], [ -72.04086, -40.91114 ], [ -72.03979, -40.91463 ], [ -72.03979, -40.91539 ], [ -72.04137, -40.91762 ], [ -72.04112, -40.91844 ], [ -72.03968, -40.9192 ], [ -72.03961, -40.91958 ], [ -72.03892, -40.92069 ], [ -72.03908, -40.92095 ], [ -72.04135, -40.92117 ], [ -72.04222, -40.9214 ], [ -72.04431, -40.92342 ], [ -72.0452, -40.92495 ], [ -72.0462, -40.92607 ], [ -72.04653, -40.92704 ], [ -72.04649, -40.92913 ], [ -72.04757, -40.93063 ], [ -72.04659, -40.93605 ], [ -72.04685, -40.93701 ], [ -72.04604, -40.93835 ], [ -72.04487, -40.94123 ], [ -72.04493, -40.94243 ], [ -72.04621, -40.94503 ], [ -72.049, -40.94616 ], [ -72.05176, -40.94641 ], [ -72.05694, -40.94595 ], [ -72.06156, -40.94572 ], [ -72.06359, -40.94588 ], [ -72.06791, -40.94555 ], [ -72.07318, -40.94387 ], [ -72.07533, -40.94349 ], [ -72.07735, -40.94343 ], [ -72.07942, -40.94436 ], [ -72.0802, -40.94566 ], [ -72.07998, -40.95016 ], [ -72.08117, -40.951 ], [ -72.08163, -40.95154 ], [ -72.08147, -40.95191 ], [ -72.08173, -40.95235 ], [ -72.08311, -40.95376 ], [ -72.08639, -40.95456 ], [ -72.08849, -40.95452 ], [ -72.09268, -40.95392 ], [ -72.09703, -40.9538 ], [ -72.10454, -40.95616 ], [ -72.10656, -40.95645 ], [ -72.11031, -40.95615 ], [ -72.11694, -40.95498 ], [ -72.12102, -40.95482 ], [ -72.12544, -40.95495 ], [ -72.12952, -40.9541 ], [ -72.13574, -40.95162 ], [ -72.13926, -40.95084 ], [ -72.14089, -40.95065 ], [ -72.14451, -40.95059 ], [ -72.14541, -40.95029 ], [ -72.14602, -40.94986 ], [ -72.14717, -40.94853 ], [ -72.14737, -40.94772 ], [ -72.14726, -40.94641 ], [ -72.14741, -40.9459 ], [ -72.14809, -40.94522 ], [ -72.15309, -40.94199 ], [ -72.15559, -40.94074 ], [ -72.15361, -40.93632 ], [ -72.15256, -40.93324 ], [ -72.15228, -40.93119 ], [ -72.15233, -40.92948 ], [ -72.1534, -40.92851 ], [ -72.15612, -40.92541 ], [ -72.14044, -40.90826 ], [ -72.137, -40.90766 ], [ -72.13403, -40.90756 ], [ -72.12883, -40.90788 ], [ -72.12814, -40.90865 ], [ -72.12584, -40.90978 ], [ -72.12378, -40.9103 ], [ -72.12232, -40.91205 ], [ -72.12089, -40.91441 ], [ -72.11907, -40.91431 ], [ -72.11473, -40.91345 ], [ -72.11422, -40.912 ], [ -72.11168, -40.91073 ], [ -72.11083, -40.90988 ], [ -72.10832, -40.90826 ], [ -72.1053, -40.90721 ], [ -72.10304, -40.90711 ], [ -72.10209, -40.90639 ], [ -72.10042, -40.90484 ], [ -72.09775, -40.9019 ], [ -72.0934, -40.89815 ], [ -72.09115, -40.89505 ], [ -72.08869, -40.89344 ], [ -72.08549, -40.88988 ], [ -72.08172, -40.88831 ], [ -72.07931, -40.88641 ], [ -72.07886, -40.88432 ], [ -72.08042, -40.88252 ], [ -72.08468, -40.87905 ], [ -72.08643, -40.87703 ], [ -72.0884, -40.8751 ], [ -72.08892, -40.87347 ], [ -72.09027, -40.87126 ], [ -72.09181, -40.87023 ], [ -72.09498, -40.86934 ], [ -72.09944, -40.86852 ], [ -72.10291, -40.8675 ], [ -72.10483, -40.86458 ], [ -72.1061, -40.86405 ], [ -72.10781, -40.86493 ], [ -72.10865, -40.86502 ], [ -72.11249, -40.86347 ], [ -72.11918, -40.85941 ], [ -72.12226, -40.85891 ], [ -72.12765, -40.85894 ], [ -72.13043, -40.85916 ], [ -72.13248, -40.85903 ], [ -72.13446, -40.85847 ], [ -72.13622, -40.85766 ], [ -72.1384, -40.85693 ], [ -72.144, -40.85548 ], [ -72.14618, -40.85403 ], [ -72.14743, -40.85169 ], [ -72.14829, -40.84961 ], [ -72.14982, -40.8483 ], [ -72.15224, -40.84786 ], [ -72.15397, -40.84714 ], [ -72.15859, -40.84291 ], [ -72.15977, -40.83974 ], [ -72.1623, -40.83555 ], [ -72.16309, -40.83214 ], [ -72.16287, -40.82814 ], [ -72.16208, -40.82405 ], [ -72.16184, -40.82048 ], [ -72.16172, -40.81461 ], [ -72.16153, -40.81372 ], [ -72.18025, -40.80998 ], [ -72.20878, -40.82378 ], [ -72.27732, -40.84185 ], [ -72.29508, -40.84264 ], [ -72.28867, -40.8279 ], [ -72.30348, -40.82936 ], [ -72.30357, -40.81999 ], [ -72.29851, -40.81969 ], [ -72.29882, -40.80546 ], [ -72.27986, -40.80474 ], [ -72.27975, -40.79805 ], [ -72.28156, -40.79576 ], [ -72.28449, -40.7937 ], [ -72.29341, -40.79119 ], [ -72.29764, -40.79081 ], [ -72.30369, -40.78914 ], [ -72.30645, -40.78858 ], [ -72.31005, -40.78896 ], [ -72.31208, -40.78824 ], [ -72.30995, -40.78552 ], [ -72.30734, -40.7843 ], [ -72.30422, -40.7835 ], [ -72.30077, -40.78238 ], [ -72.29703, -40.78076 ], [ -72.28477, -40.77662 ], [ -72.27024, -40.77142 ], [ -72.27503, -40.77211 ], [ -72.27894, -40.77169 ], [ -72.282, -40.77164 ], [ -72.28484, -40.77123 ], [ -72.28764, -40.7703 ], [ -72.29109, -40.76818 ], [ -72.29271, -40.76587 ], [ -72.29696, -40.76397 ], [ -72.30051, -40.76146 ], [ -72.303, -40.75877 ], [ -72.30547, -40.75752 ], [ -72.30952, -40.75745 ], [ -72.31728, -40.75636 ], [ -72.32535, -40.75308 ], [ -72.33072, -40.75023 ], [ -72.33042, -40.74954 ], [ -72.33116, -40.7485 ], [ -72.3303, -40.74747 ], [ -72.3258, -40.74481 ], [ -72.325, -40.74318 ], [ -72.32643, -40.74085 ], [ -72.32964, -40.73701 ], [ -72.33177, -40.73638 ], [ -72.33297, -40.73238 ], [ -72.33474, -40.72911 ], [ -72.33529, -40.72752 ], [ -72.33518, -40.72544 ], [ -72.33218, -40.72417 ], [ -72.31906, -40.72007 ], [ -72.31198, -40.71834 ], [ -72.30873, -40.71695 ], [ -72.30926, -40.7157 ], [ -72.30938, -40.71472 ], [ -72.3109, -40.71068 ], [ -72.31002, -40.70815 ], [ -72.30921, -40.70463 ], [ -72.30732, -40.70066 ], [ -72.30563, -40.69807 ], [ -72.30183, -40.69405 ], [ -72.30063, -40.6948 ], [ -72.2994, -40.69361 ], [ -72.29771, -40.69078 ], [ -72.29731, -40.68915 ], [ -72.29641, -40.68082 ], [ -72.29564, -40.67787 ], [ -72.29393, -40.6756 ], [ -72.28994, -40.67449 ], [ -72.2818, -40.67408 ], [ -72.27288, -40.67264 ], [ -72.27155, -40.6731 ], [ -72.2695, -40.67175 ], [ -72.26592, -40.67037 ], [ -72.26388, -40.66883 ], [ -72.25954, -40.66724 ], [ -72.25067, -40.66184 ], [ -72.25, -40.66296 ], [ -72.24995, -40.66352 ], [ -72.24895, -40.66492 ], [ -72.24786, -40.66601 ], [ -72.24587, -40.667 ], [ -72.24376, -40.6673 ], [ -72.2418, -40.66736 ], [ -72.24016, -40.66722 ], [ -72.23499, -40.66482 ], [ -72.23117, -40.662 ], [ -72.22935, -40.66149 ], [ -72.22822, -40.66171 ], [ -72.22468, -40.66287 ], [ -72.22247, -40.66274 ], [ -72.21927, -40.66227 ], [ -72.21821, -40.66236 ], [ -72.21676, -40.66278 ], [ -72.21532, -40.66344 ], [ -72.21362, -40.66367 ], [ -72.21052, -40.66537 ], [ -72.20804, -40.666 ], [ -72.20688, -40.66666 ], [ -72.20633, -40.66718 ], [ -72.20534, -40.6686 ], [ -72.20448, -40.66945 ], [ -72.1995, -40.6714 ], [ -72.19883, -40.67135 ], [ -72.1956, -40.66983 ], [ -72.19075, -40.66864 ], [ -72.18925, -40.66806 ], [ -72.18894, -40.66775 ], [ -72.18869, -40.66713 ], [ -72.18881, -40.66661 ], [ -72.18865, -40.66596 ], [ -72.18832, -40.66576 ], [ -72.20015, -40.64227 ], [ -72.19583, -40.64216 ], [ -72.19282, -40.64119 ], [ -72.1898, -40.63848 ], [ -72.18838, -40.6359 ], [ -72.18675, -40.63082 ], [ -72.1872, -40.62858 ], [ -72.18746, -40.62501 ], [ -72.1871, -40.62239 ], [ -72.1853, -40.6175 ], [ -72.18356, -40.61476 ], [ -72.17811, -40.61057 ], [ -72.17531, -40.60784 ], [ -72.17067, -40.60271 ], [ -72.16748, -40.60027 ], [ -72.16649, -40.59872 ], [ -72.1629, -40.59414 ], [ -72.16141, -40.59189 ], [ -72.15931, -40.5897 ], [ -72.15375, -40.58702 ], [ -72.13229, -40.58114 ], [ -72.127, -40.5794 ], [ -72.12429, -40.57834 ], [ -72.12524, -40.5763 ], [ -72.12588, -40.57554 ], [ -72.1296, -40.57235 ], [ -72.13066, -40.57125 ], [ -72.13171, -40.56978 ], [ -72.13353, -40.56588 ], [ -72.13461, -40.56461 ], [ -72.13721, -40.56304 ], [ -72.13885, -40.56184 ], [ -72.14211, -40.56093 ], [ -72.14481, -40.55957 ], [ -72.14686, -40.55754 ], [ -72.1492, -40.55611 ], [ -72.14921, -40.55441 ], [ -72.14881, -40.55333 ], [ -72.14883, -40.5519 ], [ -72.14971, -40.54977 ], [ -72.1523, -40.54799 ], [ -72.15502, -40.54704 ], [ -72.15812, -40.54641 ], [ -72.16385, -40.54679 ], [ -72.16489, -40.54608 ], [ -72.16741, -40.54295 ], [ -72.17001, -40.54131 ], [ -72.17237, -40.54016 ], [ -72.17796, -40.5396 ], [ -72.18384, -40.53757 ], [ -72.18624, -40.53604 ], [ -72.18705, -40.53486 ], [ -72.18722, -40.53378 ], [ -72.18832, -40.53167 ], [ -72.19022, -40.53055 ], [ -72.19344, -40.52979 ], [ -72.19754, -40.52703 ], [ -72.20068, -40.52454 ], [ -72.2031, -40.52298 ], [ -72.21272, -40.5175 ], [ -72.21764, -40.51595 ], [ -72.22034, -40.51356 ], [ -72.22258, -40.51275 ], [ -72.22329, -40.51173 ], [ -72.22533, -40.51126 ], [ -72.22728, -40.51104 ], [ -72.22978, -40.51114 ], [ -72.23057, -40.51178 ], [ -72.23156, -40.51208 ], [ -72.23191, -40.51265 ], [ -72.23435, -40.51374 ], [ -72.23631, -40.51377 ], [ -72.23836, -40.51347 ], [ -72.24124, -40.51256 ], [ -72.24239, -40.51161 ], [ -72.24387, -40.51083 ], [ -72.24559, -40.51053 ], [ -72.24759, -40.5113 ], [ -72.2504, -40.51122 ], [ -72.25139, -40.51144 ], [ -72.25307, -40.51255 ], [ -72.25504, -40.51275 ], [ -72.2584, -40.51265 ], [ -72.26038, -40.51202 ], [ -72.26127, -40.50989 ], [ -72.26228, -40.50825 ], [ -72.26311, -40.50756 ], [ -72.26366, -40.50656 ], [ -72.26376, -40.50539 ], [ -72.26346, -40.50462 ], [ -72.26208, -40.5042 ], [ -72.26213, -40.50288 ], [ -72.26254, -40.5003 ], [ -72.26364, -40.4994 ], [ -72.26454, -40.49905 ], [ -72.26784, -40.49891 ], [ -72.26969, -40.49807 ], [ -72.2701, -40.49752 ], [ -72.27286, -40.49517 ], [ -72.27332, -40.49462 ], [ -72.27714, -40.49187 ], [ -72.27809, -40.49147 ], [ -72.27939, -40.49143 ], [ -72.28238, -40.49172 ], [ -72.2854, -40.49151 ], [ -72.28997, -40.49072 ], [ -72.29278, -40.49167 ], [ -72.29527, -40.49164 ], [ -72.2966, -40.49127 ], [ -72.29747, -40.49013 ], [ -72.2978, -40.48921 ], [ -72.29896, -40.48807 ], [ -72.29931, -40.48695 ], [ -72.29974, -40.48623 ], [ -72.30044, -40.4856 ], [ -72.30105, -40.48442 ], [ -72.30115, -40.48254 ], [ -72.30156, -40.48131 ], [ -72.30207, -40.48094 ], [ -72.30311, -40.47929 ], [ -72.30444, -40.47799 ], [ -72.30471, -40.47793 ], [ -72.30556, -40.47644 ], [ -72.30559, -40.47563 ], [ -72.30519, -40.47432 ], [ -72.30535, -40.47214 ], [ -72.30644, -40.4715 ], [ -72.30744, -40.47026 ], [ -72.30841, -40.46968 ], [ -72.30845, -40.46912 ], [ -72.30933, -40.46692 ], [ -72.3089, -40.46338 ], [ -72.31082, -40.46012 ], [ -72.31023, -40.45826 ], [ -72.31013, -40.45112 ], [ -72.309, -40.44814 ], [ -72.30861, -40.44515 ], [ -72.30703, -40.44312 ], [ -72.30584, -40.43902 ], [ -72.30551, -40.43715 ], [ -72.30617, -40.43563 ], [ -72.30863, -40.43556 ], [ -72.31054, -40.43437 ], [ -72.31092, -40.43436 ], [ -72.31049, -40.43222 ], [ -72.30945, -40.42938 ], [ -72.30852, -40.4284 ], [ -72.30735, -40.4277 ], [ -72.30434, -40.42752 ], [ -72.30185, -40.42686 ], [ -72.30058, -40.42511 ], [ -72.30083, -40.42368 ], [ -72.30329, -40.42206 ], [ -72.30719, -40.41988 ], [ -72.30867, -40.41937 ], [ -72.31085, -40.41808 ], [ -72.31477, -40.41705 ], [ -72.31727, -40.41596 ], [ -72.32067, -40.41298 ], [ -72.32045, -40.41224 ], [ -72.32318, -40.41056 ], [ -72.32341, -40.40974 ], [ -72.32329, -40.40899 ], [ -72.32192, -40.4078 ], [ -72.31951, -40.40693 ], [ -72.31318, -40.40676 ], [ -72.31077, -40.40735 ], [ -72.30938, -40.40797 ], [ -72.30704, -40.4095 ], [ -72.30483, -40.41034 ], [ -72.30388, -40.41209 ], [ -72.30089, -40.41407 ], [ -72.29937, -40.41549 ], [ -72.29786, -40.41867 ], [ -72.29691, -40.4203 ], [ -72.2929, -40.42023 ], [ -72.2834, -40.41919 ], [ -72.27981, -40.41993 ], [ -72.2731, -40.42196 ], [ -72.26977, -40.42281 ], [ -72.26708, -40.42325 ], [ -72.2654, -40.42375 ], [ -72.26092, -40.42573 ], [ -72.26049, -40.42647 ], [ -72.26099, -40.42811 ], [ -72.26221, -40.43012 ], [ -72.26358, -40.43197 ], [ -72.26466, -40.43317 ], [ -72.26714, -40.43542 ], [ -72.26786, -40.43666 ], [ -72.26783, -40.43778 ], [ -72.1188, -40.47759 ], [ -72.12006, -40.47823 ], [ -72.1229, -40.48018 ], [ -72.1253, -40.48124 ], [ -72.12766, -40.48202 ], [ -72.13517, -40.48535 ], [ -72.13475, -40.48681 ], [ -72.13224, -40.48823 ], [ -72.12426, -40.49195 ], [ -72.11672, -40.49648 ], [ -72.11315, -40.49897 ], [ -72.11095, -40.50127 ], [ -72.10842, -40.5043 ], [ -72.10586, -40.50574 ], [ -72.10134, -40.50755 ], [ -72.09594, -40.50929 ], [ -72.0823, -40.51147 ], [ -72.07639, -40.5117 ], [ -72.06952, -40.51146 ], [ -72.06341, -40.51073 ], [ -72.05165, -40.50828 ], [ -72.04103, -40.50412 ], [ -72.0383, -40.50268 ], [ -72.03422, -40.50125 ], [ -72.03112, -40.49986 ], [ -72.02612, -40.49717 ], [ -72.02133, -40.49176 ], [ -72.01683, -40.48538 ], [ -72.01068, -40.4775 ], [ -72.00991, -40.4768 ], [ -72.0042, -40.47582 ], [ -71.9775, -40.47361 ], [ -71.96989, -40.47334 ], [ -71.96012, -40.47226 ], [ -71.9575, -40.47137 ], [ -71.95388, -40.47051 ], [ -71.9502, -40.47009 ], [ -71.9469, -40.46989 ], [ -71.94358, -40.47019 ], [ -71.93322, -40.43829 ], [ -71.93054, -40.43971 ], [ -71.92673, -40.44228 ], [ -71.91979, -40.44217 ], [ -71.91677, -40.44232 ], [ -71.91351, -40.44273 ], [ -71.90892, -40.44205 ], [ -71.84617, -40.4705 ], [ -71.84533, -40.47171 ], [ -71.84479, -40.47254 ], [ -71.84457, -40.47349 ], [ -71.84491, -40.47435 ], [ -71.84619, -40.47549 ], [ -71.84674, -40.47916 ], [ -71.84645, -40.47963 ], [ -71.84295, -40.4823 ], [ -71.84235, -40.48339 ], [ -71.84222, -40.48434 ], [ -71.84105, -40.48596 ], [ -71.84048, -40.48734 ], [ -71.84027, -40.48844 ], [ -71.84105, -40.48944 ], [ -71.84141, -40.49058 ], [ -71.84248, -40.49113 ], [ -71.84368, -40.49138 ], [ -71.84545, -40.49322 ], [ -71.84598, -40.49417 ], [ -71.84571, -40.4951 ], [ -71.84481, -40.49584 ], [ -71.84452, -40.49643 ], [ -71.84633, -40.49822 ], [ -71.84798, -40.49917 ], [ -71.84828, -40.49979 ], [ -71.84809, -40.50024 ], [ -71.84824, -40.50095 ], [ -71.84909, -40.50169 ], [ -71.85033, -40.50371 ], [ -71.8533, -40.50589 ], [ -71.8545, -40.50641 ], [ -71.85559, -40.5076 ], [ -71.85654, -40.50894 ], [ -71.8564, -40.51132 ], [ -71.8553, -40.51377 ], [ -71.85442, -40.51413 ], [ -71.85351, -40.51565 ], [ -71.85307, -40.51823 ], [ -71.85238, -40.52013 ], [ -71.85197, -40.52061 ], [ -71.85112, -40.52092 ], [ -71.84828, -40.52051 ], [ -71.84571, -40.51989 ], [ -71.84479, -40.5201 ], [ -71.84388, -40.52063 ], [ -71.84365, -40.52145 ], [ -71.8439, -40.52216 ], [ -71.84393, -40.52377 ], [ -71.84305, -40.52437 ], [ -71.84305, -40.52513 ], [ -71.84376, -40.52558 ], [ -71.84636, -40.52615 ], [ -71.84905, -40.52653 ], [ -71.85, -40.52606 ], [ -71.85066, -40.52591 ], [ -71.85195, -40.52613 ], [ -71.853, -40.5271 ], [ -71.85349, -40.52997 ], [ -71.8544, -40.53222 ], [ -71.85592, -40.5331 ], [ -71.85765, -40.53384 ], [ -71.85913, -40.53476 ], [ -71.85944, -40.53557 ], [ -71.85961, -40.53679 ], [ -71.86016, -40.538 ], [ -71.8608, -40.53883 ], [ -71.86111, -40.54014 ], [ -71.86044, -40.54197 ], [ -71.86026, -40.5431 ], [ -71.86028, -40.545 ], [ -71.86061, -40.54581 ], [ -71.86051, -40.54657 ], [ -71.85885, -40.54971 ], [ -71.85868, -40.55047 ], [ -71.85887, -40.55128 ], [ -71.85892, -40.55297 ], [ -71.85856, -40.55428 ], [ -71.85823, -40.55487 ], [ -71.85861, -40.55511 ], [ -71.86, -40.55509 ], [ -71.86127, -40.55547 ], [ -71.86342, -40.55576 ], [ -71.86408, -40.55568 ], [ -71.86492, -40.55629 ], [ -71.86727, -40.55737 ], [ -71.8687, -40.55679 ], [ -71.86925, -40.55639 ], [ -71.87072, -40.55625 ], [ -71.8721, -40.55585 ], [ -71.87536, -40.55401 ], [ -71.87639, -40.55383 ], [ -71.87929, -40.55421 ], [ -71.88065, -40.55406 ], [ -71.88358, -40.55325 ], [ -71.88528, -40.55289 ], [ -71.88624, -40.55285 ], [ -71.88783, -40.55221 ], [ -71.88914, -40.55145 ], [ -71.88929, -40.55176 ], [ -71.88882, -40.5533 ], [ -71.89041, -40.55502 ], [ -71.89051, -40.55552 ], [ -71.89031, -40.55632 ], [ -71.88977, -40.55689 ], [ -71.88738, -40.55854 ], [ -71.88712, -40.55989 ], [ -71.88621, -40.56175 ], [ -71.88659, -40.56299 ], [ -71.88581, -40.56308 ], [ -71.88307, -40.56249 ], [ -71.88214, -40.56287 ], [ -71.88126, -40.56349 ], [ -71.88029, -40.56364 ], [ -71.87772, -40.56365 ], [ -71.87772, -40.56515 ], [ -71.8775, -40.5657 ], [ -71.87608, -40.56694 ], [ -71.87532, -40.56974 ], [ -71.87139, -40.57153 ], [ -71.86956, -40.57291 ], [ -71.86951, -40.57353 ], [ -71.86882, -40.57455 ], [ -71.86784, -40.57493 ], [ -71.8667, -40.57731 ], [ -71.86703, -40.57821 ], [ -71.86763, -40.57912 ], [ -71.86742, -40.58045 ], [ -71.86711, -40.58143 ], [ -71.86656, -40.58243 ], [ -71.86565, -40.58366 ], [ -71.86454, -40.58476 ], [ -71.86332, -40.58528 ], [ -71.86282, -40.58576 ], [ -71.86216, -40.58786 ], [ -71.86087, -40.5894 ], [ -71.85942, -40.59063 ], [ -71.85806, -40.59125 ], [ -71.85682, -40.59212 ], [ -71.85521, -40.59223 ], [ -71.8535, -40.59178 ], [ -71.85069, -40.58873 ], [ -71.84921, -40.58771 ], [ -71.84836, -40.58685 ], [ -71.84795, -40.58507 ], [ -71.8474, -40.5845 ], [ -71.84693, -40.58331 ], [ -71.84656, -40.58281 ], [ -71.84582, -40.58266 ], [ -71.84598, -40.5839 ], [ -71.84574, -40.5849 ], [ -71.84495, -40.58592 ], [ -71.84405, -40.58659 ], [ -71.84208, -40.587 ], [ -71.84027, -40.58705 ], [ -71.82546, -40.57761 ], [ -71.82514, -40.57811 ], [ -71.82593, -40.57994 ], [ -71.82855, -40.5814 ], [ -71.82942, -40.58229 ], [ -71.83106, -40.58475 ], [ -71.83125, -40.58593 ], [ -71.83169, -40.58643 ], [ -71.8323, -40.58776 ], [ -71.8336, -40.58898 ], [ -71.83438, -40.59048 ], [ -71.83487, -40.59065 ], [ -71.83617, -40.59212 ], [ -71.83655, -40.59339 ], [ -71.83607, -40.59381 ], [ -71.83496, -40.5943 ], [ -71.83582, -40.59436 ], [ -71.83679, -40.59473 ], [ -71.8381, -40.59587 ], [ -71.83924, -40.59611 ], [ -71.84105, -40.59751 ], [ -71.84126, -40.59856 ], [ -71.84107, -40.59958 ], [ -71.84115, -40.6003 ], [ -71.84174, -40.60282 ], [ -71.84167, -40.60344 ], [ -71.83984, -40.6061 ], [ -71.83855, -40.60853 ], [ -71.83817, -40.60998 ], [ -71.83865, -40.61086 ], [ -71.83936, -40.61145 ], [ -71.83991, -40.61241 ], [ -71.84029, -40.61276 ], [ -71.84043, -40.61348 ], [ -71.84017, -40.61419 ], [ -71.84165, -40.61698 ], [ -71.84191, -40.61814 ], [ -71.84324, -40.62177 ], [ -71.84388, -40.62246 ], [ -71.84327, -40.62466 ], [ -71.84331, -40.62539 ], [ -71.844, -40.62756 ], [ -71.84428, -40.62792 ], [ -71.84507, -40.62836 ], [ -71.84612, -40.62963 ], [ -71.84632, -40.63076 ], [ -71.84665, -40.63139 ], [ -71.84799, -40.63194 ], [ -71.8492, -40.63218 ], [ -71.85007, -40.63277 ], [ -71.85062, -40.63327 ], [ -71.85119, -40.63468 ], [ -71.85259, -40.63558 ], [ -71.8532, -40.63678 ], [ -71.85345, -40.63765 ], [ -71.85488, -40.63971 ], [ -71.8548, -40.64015 ], [ -71.85388, -40.64189 ], [ -71.85419, -40.64443 ], [ -71.8547, -40.64455 ], [ -71.8603, -40.64287 ], [ -71.86148, -40.64285 ], [ -71.86302, -40.64371 ], [ -71.86565, -40.64575 ], [ -71.86659, -40.64712 ], [ -71.86649, -40.64923 ], [ -71.86539, -40.65015 ], [ -71.86528, -40.65095 ], [ -71.86544, -40.65155 ], [ -71.86792, -40.65299 ], [ -71.86818, -40.65499 ], [ -71.86771, -40.65571 ], [ -71.86705, -40.65626 ], [ -71.86608, -40.65662 ], [ -71.86814, -40.6629 ], [ -71.86877, -40.66353 ], [ -71.87354, -40.6657 ], [ -71.87388, -40.66573 ], [ -71.87428, -40.6652 ], [ -71.87492, -40.66506 ], [ -71.87648, -40.66512 ], [ -71.87892, -40.66466 ], [ -71.87979, -40.66547 ], [ -71.8815, -40.66613 ], [ -71.88434, -40.66619 ], [ -71.88536, -40.66671 ], [ -71.88678, -40.66789 ], [ -71.88727, -40.6685 ], [ -71.88801, -40.67067 ], [ -71.88857, -40.67146 ], [ -71.89012, -40.67282 ], [ -71.89058, -40.67343 ], [ -71.8907, -40.67417 ], [ -71.89131, -40.67463 ], [ -71.89342, -40.67558 ], [ -71.89525, -40.67724 ], [ -71.89594, -40.67821 ], [ -71.89712, -40.6792 ], [ -71.89817, -40.67975 ], [ -71.89859, -40.68022 ], [ -71.89804, -40.68094 ], [ -71.89806, -40.68143 ], [ -71.90413, -40.68348 ], [ -71.90688, -40.68368 ], [ -71.90787, -40.68391 ], [ -71.91002, -40.68547 ], [ -71.91136, -40.68612 ], [ -71.91268, -40.68638 ], [ -71.91453, -40.68709 ], [ -71.91831, -40.68922 ], [ -71.91986, -40.68941 ], [ -71.92048, -40.68931 ], [ -71.92098, -40.68867 ], [ -71.9217, -40.68923 ], [ -71.92231, -40.69076 ], [ -71.92426, -40.69176 ], [ -71.92508, -40.69351 ], [ -71.9251, -40.69453 ], [ -71.92581, -40.69539 ], [ -71.92598, -40.69724 ], [ -71.92645, -40.69786 ], [ -71.92897, -40.69757 ], [ -71.92978, -40.69762 ], [ -71.92993, -40.69817 ], [ -71.93064, -40.69876 ], [ -71.93167, -40.69927 ], [ -71.93256, -40.69936 ], [ -71.93303, -40.70014 ], [ -71.93315, -40.70136 ], [ -71.93351, -40.70164 ], [ -71.93355, -40.70301 ], [ -71.93414, -40.70337 ], [ -71.93487, -40.70343 ], [ -71.93567, -40.70322 ], [ -71.93689, -40.70352 ], [ -71.93811, -40.70418 ], [ -71.94051, -40.70654 ], [ -71.94145, -40.70726 ], [ -71.94177, -40.70794 ], [ -71.94327, -40.7087 ], [ -71.94363, -40.70922 ], [ -71.94384, -40.71089 ], [ -71.94464, -40.71266 ], [ -71.94453, -40.71441 ], [ -71.94606, -40.71577 ], [ -71.94689, -40.71708 ], [ -71.94839, -40.71796 ], [ -71.94886, -40.71879 ], [ -71.94993, -40.71967 ], [ -71.95093, -40.71946 ], [ -71.95143, -40.7191 ], [ -71.95304, -40.71862 ], [ -71.95874, -40.71798 ], [ -71.96106, -40.7182 ], [ -71.96176, -40.71846 ], [ -71.96244, -40.71901 ], [ -71.96336, -40.72046 ], [ -71.96358, -40.72135 ], [ -71.96339, -40.72211 ], [ -71.96152, -40.723 ], [ -71.9605, -40.72327 ], [ -71.95902, -40.72336 ], [ -71.95886, -40.7238 ], [ -71.95917, -40.72429 ], [ -71.96003, -40.7245 ], [ -71.96113, -40.72515 ], [ -71.96355, -40.7262 ], [ -71.96526, -40.72728 ], [ -71.96473, -40.72791 ], [ -71.96224, -40.72945 ], [ -71.96176, -40.7299 ], [ -71.96182, -40.73044 ], [ -71.96164, -40.73098 ], [ -71.96299, -40.7329 ], [ -71.96399, -40.73472 ], [ -71.96448, -40.73796 ], [ -71.96395, -40.7399 ], [ -71.96334, -40.74101 ], [ -71.96319, -40.7424 ], [ -71.96334, -40.74318 ], [ -71.96402, -40.74408 ], [ -71.96606, -40.74435 ], [ -71.96685, -40.74428 ], [ -71.96709, -40.74385 ], [ -71.96877, -40.74442 ], [ -71.97055, -40.74208 ], [ -71.9729, -40.74111 ], [ -71.97416, -40.741 ], [ -71.9762, -40.73991 ], [ -71.97789, -40.73928 ], [ -71.97919, -40.73787 ], [ -71.98299, -40.73541 ], [ -71.98978, -40.73475 ], [ -71.99337, -40.73348 ], [ -71.99612, -40.73275 ], [ -71.99778, -40.73267 ], [ -71.99895, -40.73639 ], [ -72.00178, -40.73986 ], [ -72.00351, -40.74136 ], [ -72.00904, -40.7452 ], [ -72.01377, -40.7468 ], [ -72.01867, -40.74748 ], [ -72.01896, -40.74727 ], [ -72.01984, -40.74751 ], [ -72.02037, -40.74744 ], [ -72.02119, -40.74674 ], [ -72.02254, -40.74486 ], [ -72.02312, -40.74375 ], [ -72.02438, -40.74378 ], [ -72.04629, -40.75083 ], [ -72.0588, -40.75364 ], [ -72.06137, -40.75386 ], [ -72.06513, -40.75348 ], [ -72.06998, -40.75108 ], [ -72.07165, -40.75004 ], [ -72.07517, -40.75446 ], [ -72.07826, -40.75708 ], [ -72.07996, -40.7622 ], [ -72.08111, -40.76632 ], [ -72.08194, -40.76673 ] ], [ [ -72.18393, -40.6677 ], [ -72.18403, -40.6677 ], [ -72.18395, -40.66771 ], [ -72.18393, -40.6677 ] ], [ [ -72.18503, -40.66752 ], [ -72.18511, -40.66747 ], [ -72.18506, -40.66752 ], [ -72.18503, -40.66752 ] ] ] } }
]
}
