{
"type": "FeatureCollection",
"name": "ANT",
"crs": { "type": "name", "properties": { "name": "urn:ogc:def:crs:OGC:1.3:CRS84" } },
"xy_coordinate_resolution": 1e-05,
"features": [
{ "type": "Feature", "properties": { "nombre": "Reserva Nacional Ralco", "categoria": "Reserva Nacional", "region": "Biobio", "superficie_ha": "12421,2", "decreto": "Ley NÂ° 17699 de 1972; NÂ° 429 de 1987; NÂ° 249 de 1989" }, "geometry": { "type": "MultiPolygon", "coordinates": [ [ [ [ -71.39473, -37.85791 ], [ -71.39415, -37.85694 ], [ -71.39363, -37.85549 ], [ -71.38819, -37.85641 ], [ -71.38648, -37.85656 ], [ -71.38258, -37.85642 ], [ -71.37952, -37.85675 ], [ -71.37756, -37.85739 ], [ -71.37409, -37.85784 ], [ -71.37472, -37.85853 ], [ -71.37345, -37.85921 ], [ -71.37139, -37.85987 ], [ -71.39488, -37.85847 ], [ -71.39473, -37.85791 ] ] ], [ [ [ -71.35786, -37.85933 ], [ -71.3568, -37.85929 ], [ -71.3557, -37.8601 ], [ -71.35568, -37.86013 ], [ -71.3584, -37.86018 ], [ -71.35786, -37.85933 ] ] ] ] } },
{ "type": "Feature", "properties": { "nombre": "Parque Nacional Laguna Del Laja", "categoria": "Parque Nacional", "region": "Biobio", "superficie_ha": "11600", "decreto": "NÂ° 652 de 1958" }, "geometry": { "type": "Polygon", "coordinates": [ [ [ -71.40855, -37.38595 ], [ -71.40518, -37.385 ], [ -71.40205, -37.38307 ], [ -71.40027, -37.38268 ], [ -71.39671, -37.38103 ], [ -71.39414, -37.38043 ], [ -71.39299, -37.38051 ], [ -71.39205, -37.38082 ], [ -71.39099, -37.38171 ], [ -71.39057, -37.38318 ], [ -71.38875, -37.38387 ], [ -71.38681, -37.38387 ], [ -71.38608, -37.38407 ], [ -71.38578, -37.38447 ], [ -71.38468, -37.38463 ], [ -71.383, -37.38404 ], [ -71.37965, -37.38376 ], [ -71.3786, -37.38304 ], [ -71.37552, -37.38015 ], [ -71.37456, -37.37771 ], [ -71.37305, -37.37793 ], [ -71.37274, -37.37752 ], [ -71.37249, -37.37744 ], [ -71.37202, -37.37769 ], [ -71.37152, -37.37768 ], [ -71.37108, -37.37803 ], [ -71.3705, -37.37805 ], [ -71.37001, -37.37853 ], [ -71.36972, -37.37863 ], [ -71.36939, -37.37851 ], [ -71.36924, -37.37804 ], [ -71.36903, -37.37804 ], [ -71.36881, -37.37836 ], [ -71.36839, -37.37831 ], [ -71.36823, -37.37814 ], [ -71.36765, -37.37813 ], [ -71.3675, -37.37776 ], [ -71.36718, -37.37751 ], [ -71.36676, -37.37747 ], [ -71.3659, -37.37794 ], [ -71.36536, -37.37783 ], [ -71.36512, -37.37765 ], [ -71.36498, -37.37711 ], [ -71.36473, -37.37704 ], [ -71.36399, -37.37591 ], [ -71.36419, -37.37528 ], [ -71.36399, -37.37508 ], [ -71.36288, -37.37478 ], [ -71.36264, -37.37444 ], [ -71.36284, -37.37387 ], [ -71.36221, -37.37379 ], [ -71.36201, -37.37361 ], [ -71.36143, -37.37266 ], [ -71.36032, -37.3723 ], [ -71.36036, -37.37159 ], [ -71.35993, -37.37098 ], [ -71.3584, -37.37047 ], [ -71.35834, -37.37 ], [ -71.35731, -37.36963 ], [ -71.35713, -37.36906 ], [ -71.35693, -37.36889 ], [ -71.35648, -37.36881 ], [ -71.35576, -37.36805 ], [ -71.35317, -37.36627 ], [ -71.34989, -37.36497 ], [ -71.34678, -37.36447 ], [ -71.34492, -37.36478 ], [ -71.34365, -37.36524 ], [ -71.33784, -37.36516 ], [ -71.3364, -37.36558 ], [ -71.33557, -37.36632 ], [ -71.33415, -37.36711 ], [ -71.33266, -37.3684 ], [ -71.33109, -37.36886 ], [ -71.32729, -37.36803 ], [ -71.32637, -37.36797 ], [ -71.3251, -37.37097 ], [ -71.32238, -37.37359 ], [ -71.32086, -37.37468 ], [ -71.31992, -37.37498 ], [ -71.31961, -37.37537 ], [ -71.31815, -37.37539 ], [ -71.31661, -37.37518 ], [ -71.31521, -37.37567 ], [ -71.31456, -37.37688 ], [ -71.31371, -37.37719 ], [ -71.31306, -37.37767 ], [ -71.31257, -37.37912 ], [ -71.31092, -37.38037 ], [ -71.30862, -37.3813 ], [ -71.30608, -37.38196 ], [ -71.30537, -37.38183 ], [ -71.30443, -37.38141 ], [ -71.30422, -37.3814 ], [ -71.30391, -37.38176 ], [ -71.30375, -37.38335 ], [ -71.30326, -37.3847 ], [ -71.30196, -37.38573 ], [ -71.30156, -37.38629 ], [ -71.30182, -37.38686 ], [ -71.3025, -37.38742 ], [ -71.30244, -37.38862 ], [ -71.30208, -37.39014 ], [ -71.30246, -37.39092 ], [ -71.30227, -37.39308 ], [ -71.30205, -37.39317 ], [ -71.302, -37.39347 ], [ -71.30204, -37.39518 ], [ -71.30147, -37.39573 ], [ -71.30135, -37.39643 ], [ -71.30097, -37.39651 ], [ -71.30035, -37.39636 ], [ -71.30007, -37.39695 ], [ -71.2984, -37.3985 ], [ -71.29806, -37.39866 ], [ -71.29774, -37.39925 ], [ -71.29705, -37.39959 ], [ -71.29674, -37.39995 ], [ -71.29646, -37.40145 ], [ -71.29737, -37.40337 ], [ -71.29713, -37.40387 ], [ -71.29671, -37.40389 ], [ -71.2964, -37.40431 ], [ -71.29647, -37.40465 ], [ -71.29691, -37.405 ], [ -71.29677, -37.40532 ], [ -71.29566, -37.40652 ], [ -71.29408, -37.40728 ], [ -71.29243, -37.40772 ], [ -71.28912, -37.40782 ], [ -71.28652, -37.40864 ], [ -71.28479, -37.40992 ], [ -71.28369, -37.41015 ], [ -71.28348, -37.41095 ], [ -71.28432, -37.41094 ], [ -71.28452, -37.41112 ], [ -71.28338, -37.41221 ], [ -71.28243, -37.41359 ], [ -71.27976, -37.41347 ], [ -71.27863, -37.41427 ], [ -71.2777, -37.41447 ], [ -71.27675, -37.41501 ], [ -71.27655, -37.4157 ], [ -71.27666, -37.41607 ], [ -71.27715, -37.41636 ], [ -71.27718, -37.41662 ], [ -71.2757, -37.41771 ], [ -71.27566, -37.41851 ], [ -71.27621, -37.41923 ], [ -71.27607, -37.41962 ], [ -71.27514, -37.42059 ], [ -71.27469, -37.42195 ], [ -71.27489, -37.42219 ], [ -71.27535, -37.4223 ], [ -71.27561, -37.42285 ], [ -71.27555, -37.42325 ], [ -71.27519, -37.42377 ], [ -71.27435, -37.42391 ], [ -71.27433, -37.42421 ], [ -71.27495, -37.42446 ], [ -71.27494, -37.42463 ], [ -71.27422, -37.4248 ], [ -71.27399, -37.42526 ], [ -71.27313, -37.42571 ], [ -71.27311, -37.42597 ], [ -71.27363, -37.42646 ], [ -71.27328, -37.42688 ], [ -71.27315, -37.42774 ], [ -71.27258, -37.42836 ], [ -71.27185, -37.4286 ], [ -71.27072, -37.42943 ], [ -71.26921, -37.42965 ], [ -71.26808, -37.43048 ], [ -71.26646, -37.4302 ], [ -71.26568, -37.42988 ], [ -71.2658, -37.43005 ], [ -71.26744, -37.43067 ], [ -71.26742, -37.4312 ], [ -71.26694, -37.43151 ], [ -71.26587, -37.43292 ], [ -71.2649, -37.43389 ], [ -71.26395, -37.43436 ], [ -71.26337, -37.43514 ], [ -71.2633, -37.43577 ], [ -71.26285, -37.43633 ], [ -71.26309, -37.4366 ], [ -71.26322, -37.4372 ], [ -71.26326, -37.43817 ], [ -71.263, -37.43916 ], [ -71.26296, -37.44041 ], [ -71.26336, -37.44128 ], [ -71.26329, -37.44175 ], [ -71.26221, -37.44321 ], [ -71.26227, -37.44378 ], [ -71.26265, -37.44456 ], [ -71.26294, -37.44467 ], [ -71.26634, -37.44518 ], [ -71.26635, -37.44581 ], [ -71.26658, -37.44632 ], [ -71.26739, -37.44695 ], [ -71.26715, -37.44754 ], [ -71.26996, -37.4491 ], [ -71.2702, -37.44931 ], [ -71.27041, -37.45015 ], [ -71.27165, -37.45035 ], [ -71.27241, -37.45104 ], [ -71.27284, -37.45176 ], [ -71.27312, -37.45193 ], [ -71.27322, -37.45251 ], [ -71.27366, -37.45285 ], [ -71.27385, -37.45329 ], [ -71.2738, -37.45429 ], [ -71.27322, -37.45497 ], [ -71.27311, -37.4555 ], [ -71.27385, -37.45593 ], [ -71.35708, -37.45137 ], [ -71.3578, -37.45079 ], [ -71.36026, -37.45043 ], [ -71.36126, -37.45001 ], [ -71.36156, -37.44958 ], [ -71.36166, -37.4488 ], [ -71.3622, -37.44793 ], [ -71.36285, -37.44734 ], [ -71.36294, -37.44695 ], [ -71.36467, -37.44584 ], [ -71.36607, -37.4456 ], [ -71.36945, -37.44643 ], [ -71.3707, -37.44647 ], [ -71.37201, -37.44679 ], [ -71.37472, -37.44704 ], [ -71.37468, -37.44784 ], [ -71.37492, -37.44844 ], [ -71.37871, -37.45313 ], [ -71.38022, -37.45539 ], [ -71.3838, -37.46329 ], [ -71.41298, -37.46359 ], [ -71.41657, -37.46204 ], [ -71.41936, -37.46147 ], [ -71.42319, -37.46105 ], [ -71.42417, -37.46125 ], [ -71.42458, -37.46156 ], [ -71.42583, -37.46318 ], [ -71.42643, -37.46355 ], [ -71.4271, -37.46374 ], [ -71.42824, -37.46389 ], [ -71.43493, -37.46393 ], [ -71.44279, -37.46379 ], [ -71.44391, -37.46304 ], [ -71.44559, -37.46128 ], [ -71.44731, -37.45976 ], [ -71.44886, -37.45777 ], [ -71.45044, -37.45477 ], [ -71.45048, -37.45392 ], [ -71.45102, -37.45313 ], [ -71.45128, -37.45217 ], [ -71.45167, -37.45155 ], [ -71.45205, -37.4495 ], [ -71.45188, -37.44863 ], [ -71.45134, -37.44787 ], [ -71.45113, -37.44621 ], [ -71.45069, -37.44488 ], [ -71.45096, -37.44379 ], [ -71.4518, -37.44268 ], [ -71.45218, -37.44185 ], [ -71.45215, -37.43988 ], [ -71.45232, -37.43888 ], [ -71.4528, -37.43785 ], [ -71.45313, -37.43578 ], [ -71.45309, -37.43515 ], [ -71.45244, -37.43382 ], [ -71.45265, -37.43233 ], [ -71.4521, -37.43174 ], [ -71.45256, -37.43113 ], [ -71.4528, -37.42924 ], [ -71.4535, -37.42801 ], [ -71.45384, -37.42543 ], [ -71.45445, -37.4246 ], [ -71.45372, -37.42343 ], [ -71.45261, -37.42259 ], [ -71.45215, -37.42155 ], [ -71.45218, -37.42092 ], [ -71.45186, -37.42016 ], [ -71.45188, -37.4197 ], [ -71.45271, -37.41738 ], [ -71.45362, -37.41638 ], [ -71.45457, -37.41601 ], [ -71.45517, -37.41545 ], [ -71.45527, -37.41494 ], [ -71.45438, -37.41388 ], [ -71.45433, -37.41342 ], [ -71.45464, -37.41303 ], [ -71.45474, -37.41252 ], [ -71.4546, -37.4108 ], [ -71.45417, -37.40924 ], [ -71.45466, -37.40805 ], [ -71.45465, -37.40524 ], [ -71.4551, -37.40468 ], [ -71.45529, -37.40377 ], [ -71.44199, -37.40604 ], [ -71.44159, -37.39672 ], [ -71.44077, -37.39655 ], [ -71.43925, -37.39684 ], [ -71.43781, -37.39686 ], [ -71.43747, -37.39656 ], [ -71.43493, -37.39568 ], [ -71.434, -37.39566 ], [ -71.4323, -37.3952 ], [ -71.43162, -37.39438 ], [ -71.43158, -37.39381 ], [ -71.43102, -37.39351 ], [ -71.43052, -37.39338 ], [ -71.42847, -37.39429 ], [ -71.4262, -37.39376 ], [ -71.4234, -37.39242 ], [ -71.42205, -37.39203 ], [ -71.42148, -37.39202 ], [ -71.42016, -37.39272 ], [ -71.41862, -37.39325 ], [ -71.41735, -37.39298 ], [ -71.41637, -37.39232 ], [ -71.41559, -37.39075 ], [ -71.41483, -37.39021 ], [ -71.41449, -37.38975 ], [ -71.41379, -37.38938 ], [ -71.41369, -37.38841 ], [ -71.41459, -37.38763 ], [ -71.41462, -37.38706 ], [ -71.41421, -37.38653 ], [ -71.41328, -37.38656 ], [ -71.41138, -37.38736 ], [ -71.41012, -37.38658 ], [ -71.40855, -37.38595 ] ] ] } },
{ "type": "Feature", "properties": { "nombre": "Reserva Nacional Nuble", "categoria": "Reserva Nacional", "region": "Nuble - Biobio", "superficie_ha": "55948", "decreto": "NÂ° 384 de 1978" }, "geometry": { "type": "Polygon", "coordinates": [ [ [ -71.22029, -36.98158 ], [ -71.21972, -36.98179 ], [ -71.21753, -36.9824 ], [ -71.21666, -36.98299 ], [ -71.2154, -36.98442 ], [ -71.21419, -36.98541 ], [ -71.21266, -36.986 ], [ -71.21028, -36.98588 ], [ -71.2059, -36.98512 ], [ -71.20514, -36.98514 ], [ -71.20099, -36.98602 ], [ -71.19833, -36.98695 ], [ -71.19776, -36.98727 ], [ -71.19652, -36.98857 ], [ -71.19512, -36.99046 ], [ -71.19503, -36.99106 ], [ -71.19117, -36.99367 ], [ -71.18856, -36.99626 ], [ -71.18798, -36.99639 ], [ -71.18645, -36.99561 ], [ -71.18538, -36.99542 ], [ -71.18272, -36.99546 ], [ -71.17733, -36.99607 ], [ -71.17006, -36.99637 ], [ -71.16907, -36.99654 ], [ -71.16703, -36.99774 ], [ -71.16675, -36.99877 ], [ -71.16674, -36.99955 ], [ -71.16719, -37.00229 ], [ -71.1671, -37.00359 ], [ -71.16648, -37.00527 ], [ -71.16591, -37.00587 ], [ -71.16502, -37.00726 ], [ -71.16345, -37.00765 ], [ -71.16171, -37.00755 ], [ -71.16067, -37.00793 ], [ -71.16024, -37.00874 ], [ -71.1599, -37.00993 ], [ -71.15741, -37.01136 ], [ -71.15631, -37.0125 ], [ -71.15581, -37.01317 ], [ -71.15467, -37.01657 ], [ -71.15441, -37.01909 ], [ -71.15379, -37.02004 ], [ -71.15184, -37.02059 ], [ -71.15021, -37.02079 ], [ -71.14935, -37.02138 ], [ -71.14894, -37.02205 ], [ -71.14847, -37.02353 ], [ -71.14776, -37.02477 ], [ -71.14741, -37.02671 ], [ -71.1476, -37.02785 ], [ -71.14656, -37.029 ], [ -71.14316, -37.03164 ], [ -71.14319, -37.03554 ], [ -71.14304, -37.03637 ], [ -71.14178, -37.03844 ], [ -71.14194, -37.0398 ], [ -71.14186, -37.04059 ], [ -71.14051, -37.04126 ], [ -71.13823, -37.04945 ], [ -71.13775, -37.0502 ], [ -71.13745, -37.05148 ], [ -71.13676, -37.05231 ], [ -71.13664, -37.05334 ], [ -71.13726, -37.05446 ], [ -71.13868, -37.05517 ], [ -71.14, -37.05667 ], [ -71.14131, -37.05857 ], [ -71.14378, -37.06138 ], [ -71.14409, -37.06202 ], [ -71.14416, -37.06276 ], [ -71.14371, -37.06335 ], [ -71.1428, -37.06375 ], [ -71.14129, -37.06352 ], [ -71.14047, -37.06375 ], [ -71.14015, -37.06432 ], [ -71.14015, -37.06514 ], [ -71.14165, -37.06779 ], [ -71.14162, -37.06859 ], [ -71.14122, -37.06935 ], [ -71.13992, -37.06981 ], [ -71.13939, -37.07019 ], [ -71.13634, -37.07095 ], [ -71.13486, -37.07226 ], [ -71.13355, -37.07249 ], [ -71.13276, -37.07216 ], [ -71.132, -37.07138 ], [ -71.13103, -37.07085 ], [ -71.13003, -37.07004 ], [ -71.12858, -37.06933 ], [ -71.12746, -37.06964 ], [ -71.12432, -37.07135 ], [ -71.12306, -37.07247 ], [ -71.12007, -37.07323 ], [ -71.1196, -37.07427 ], [ -71.11964, -37.07604 ], [ -71.12171, -37.07941 ], [ -71.12175, -37.08055 ], [ -71.12066, -37.08199 ], [ -71.12039, -37.08285 ], [ -71.12085, -37.08405 ], [ -71.12167, -37.08551 ], [ -71.12165, -37.08631 ], [ -71.12121, -37.08757 ], [ -71.12271, -37.08966 ], [ -71.12268, -37.09069 ], [ -71.12203, -37.09146 ], [ -71.12077, -37.09205 ], [ -71.11578, -37.09373 ], [ -71.11275, -37.09402 ], [ -71.1115, -37.09488 ], [ -71.11087, -37.09591 ], [ -71.1111, -37.0975 ], [ -71.11018, -37.09899 ], [ -71.10895, -37.10039 ], [ -71.10853, -37.10156 ], [ -71.10699, -37.10299 ], [ -71.10476, -37.10676 ], [ -71.0999, -37.10664 ], [ -71.09808, -37.10721 ], [ -71.09636, -37.10875 ], [ -71.09477, -37.11203 ], [ -71.09342, -37.11328 ], [ -71.09248, -37.11356 ], [ -71.09199, -37.11406 ], [ -71.09229, -37.11494 ], [ -71.09269, -37.11814 ], [ -71.09256, -37.11976 ], [ -71.09222, -37.12035 ], [ -71.09234, -37.12087 ], [ -71.09267, -37.12125 ], [ -71.09374, -37.1218 ], [ -71.09521, -37.12478 ], [ -71.09555, -37.12587 ], [ -71.10097, -37.12756 ], [ -71.10183, -37.12806 ], [ -71.10297, -37.12922 ], [ -71.10756, -37.13214 ], [ -71.10804, -37.13272 ], [ -71.10905, -37.13335 ], [ -71.11595, -37.13339 ], [ -71.12161, -37.13434 ], [ -71.12343, -37.13494 ], [ -71.12423, -37.13557 ], [ -71.12441, -37.13636 ], [ -71.12427, -37.13731 ], [ -71.12464, -37.13795 ], [ -71.12557, -37.13864 ], [ -71.12591, -37.14026 ], [ -71.12625, -37.14081 ], [ -71.1269, -37.1409 ], [ -71.1278, -37.1413 ], [ -71.1295, -37.1425 ], [ -71.1333, -37.14228 ], [ -71.13331, -37.14257 ], [ -71.13279, -37.14352 ], [ -71.13284, -37.14418 ], [ -71.13461, -37.14581 ], [ -71.13503, -37.1467 ], [ -71.13486, -37.14924 ], [ -71.13507, -37.15109 ], [ -71.13572, -37.15265 ], [ -71.13591, -37.1552 ], [ -71.13516, -37.15756 ], [ -71.13524, -37.1599 ], [ -71.13606, -37.1627 ], [ -71.13602, -37.16438 ], [ -71.13517, -37.16666 ], [ -71.13438, -37.1671 ], [ -71.13183, -37.16971 ], [ -71.13065, -37.1702 ], [ -71.12943, -37.17162 ], [ -71.12861, -37.17328 ], [ -71.12837, -37.17473 ], [ -71.12957, -37.17677 ], [ -71.12948, -37.17741 ], [ -71.12874, -37.17814 ], [ -71.12827, -37.17907 ], [ -71.12841, -37.18059 ], [ -71.12758, -37.18195 ], [ -71.12734, -37.1837 ], [ -71.12782, -37.18512 ], [ -71.12798, -37.1869 ], [ -71.12786, -37.18778 ], [ -71.12738, -37.18887 ], [ -71.12639, -37.18975 ], [ -71.12334, -37.19306 ], [ -71.12149, -37.19307 ], [ -71.12096, -37.19335 ], [ -71.12108, -37.19428 ], [ -71.11961, -37.19558 ], [ -71.11849, -37.19725 ], [ -71.11742, -37.19839 ], [ -71.11663, -37.19956 ], [ -71.11632, -37.20099 ], [ -71.11532, -37.20278 ], [ -71.1143, -37.20392 ], [ -71.11404, -37.20453 ], [ -71.11418, -37.20541 ], [ -71.11499, -37.20687 ], [ -71.11597, -37.208 ], [ -71.1182, -37.2096 ], [ -71.12087, -37.21219 ], [ -71.12233, -37.21339 ], [ -71.12806, -37.21436 ], [ -71.12977, -37.21507 ], [ -71.13264, -37.21712 ], [ -71.14241, -37.22066 ], [ -71.14333, -37.22085 ], [ -71.14547, -37.22093 ], [ -71.14855, -37.22061 ], [ -71.15279, -37.22181 ], [ -71.15749, -37.2239 ], [ -71.16149, -37.22506 ], [ -71.16334, -37.22539 ], [ -71.16566, -37.2255 ], [ -71.16872, -37.22537 ], [ -71.16981, -37.22497 ], [ -71.17416, -37.22449 ], [ -71.18294, -37.22605 ], [ -71.19064, -37.22806 ], [ -71.19771, -37.22886 ], [ -71.20502, -37.22818 ], [ -71.21023, -37.22879 ], [ -71.21408, -37.22986 ], [ -71.21625, -37.23353 ], [ -71.21872, -37.23612 ], [ -71.22362, -37.23844 ], [ -71.23239, -37.236 ], [ -71.23712, -37.23564 ], [ -71.24089, -37.23733 ], [ -71.24526, -37.24159 ], [ -71.24951, -37.24534 ], [ -71.25055, -37.24575 ], [ -71.252, -37.24449 ], [ -71.25317, -37.24264 ], [ -71.25381, -37.23965 ], [ -71.25178, -37.23602 ], [ -71.25016, -37.23182 ], [ -71.24691, -37.22547 ], [ -71.24614, -37.2232 ], [ -71.24376, -37.22009 ], [ -71.24223, -37.21611 ], [ -71.24133, -37.21453 ], [ -71.24006, -37.21283 ], [ -71.23859, -37.2112 ], [ -71.23782, -37.20904 ], [ -71.24047, -37.20928 ], [ -71.24244, -37.21039 ], [ -71.24355, -37.21186 ], [ -71.24586, -37.21525 ], [ -71.2488, -37.22103 ], [ -71.25021, -37.22278 ], [ -71.25308, -37.22553 ], [ -71.25802, -37.23105 ], [ -71.25993, -37.23285 ], [ -71.26184, -37.23436 ], [ -71.26405, -37.23415 ], [ -71.26624, -37.23291 ], [ -71.2684, -37.23327 ], [ -71.26895, -37.2351 ], [ -71.27098, -37.23598 ], [ -71.27307, -37.23634 ], [ -71.27801, -37.23625 ], [ -71.28065, -37.23592 ], [ -71.28314, -37.23508 ], [ -71.28518, -37.23361 ], [ -71.28733, -37.23368 ], [ -71.2883, -37.23522 ], [ -71.29048, -37.23638 ], [ -71.29301, -37.23696 ], [ -71.29489, -37.23784 ], [ -71.29895, -37.23937 ], [ -71.30287, -37.24142 ], [ -71.30503, -37.24178 ], [ -71.30686, -37.24055 ], [ -71.30768, -37.23887 ], [ -71.30819, -37.2368 ], [ -71.308, -37.23487 ], [ -71.30632, -37.23106 ], [ -71.30593, -37.22724 ], [ -71.3055, -37.22473 ], [ -71.30545, -37.22256 ], [ -71.30582, -37.22054 ], [ -71.30648, -37.21853 ], [ -71.30673, -37.21458 ], [ -71.3075, -37.21119 ], [ -71.30773, -37.20901 ], [ -71.30839, -37.20706 ], [ -71.30971, -37.20526 ], [ -71.31105, -37.20192 ], [ -71.31202, -37.19555 ], [ -71.31214, -37.19195 ], [ -71.31151, -37.18978 ], [ -71.30935, -37.18662 ], [ -71.30858, -37.18474 ], [ -71.30903, -37.18296 ], [ -71.31013, -37.18128 ], [ -71.31227, -37.18069 ], [ -71.31247, -37.17924 ], [ -71.31645, -37.17024 ], [ -71.31855, -37.16283 ], [ -71.31925, -37.15804 ], [ -71.32992, -37.15623 ], [ -71.33718, -37.15314 ], [ -71.3411, -37.14831 ], [ -71.34313, -37.14027 ], [ -71.34333, -37.1361 ], [ -71.33841, -37.12938 ], [ -71.33239, -37.12476 ], [ -71.32882, -37.11936 ], [ -71.33014, -37.1108 ], [ -71.33421, -37.10575 ], [ -71.34092, -37.10014 ], [ -71.3479, -37.09579 ], [ -71.35273, -37.09228 ], [ -71.36065, -37.09325 ], [ -71.37363, -37.0942 ], [ -71.37843, -37.0992 ], [ -71.38629, -37.10463 ], [ -71.39235, -37.10564 ], [ -71.40042, -37.10615 ], [ -71.40748, -37.10734 ], [ -71.41517, -37.10916 ], [ -71.42658, -37.11049 ], [ -71.44195, -37.10305 ], [ -71.44776, -37.10125 ], [ -71.45597, -37.10096 ], [ -71.46608, -37.10399 ], [ -71.47228, -37.10563 ], [ -71.4769, -37.10732 ], [ -71.48175, -37.10877 ], [ -71.48592, -37.11103 ], [ -71.48613, -37.10974 ], [ -71.48788, -37.10622 ], [ -71.48878, -37.10522 ], [ -71.49283, -37.10216 ], [ -71.49666, -37.09777 ], [ -71.49959, -37.09405 ], [ -71.50111, -37.09134 ], [ -71.50192, -37.08923 ], [ -71.50316, -37.08836 ], [ -71.50428, -37.08811 ], [ -71.50546, -37.08714 ], [ -71.50664, -37.08661 ], [ -71.51073, -37.08564 ], [ -71.51359, -37.08539 ], [ -71.51447, -37.08478 ], [ -71.5148, -37.08432 ], [ -71.51493, -37.08337 ], [ -71.51442, -37.08075 ], [ -71.51334, -37.07771 ], [ -71.51184, -37.0758 ], [ -71.51167, -37.07502 ], [ -71.51183, -37.07366 ], [ -71.51242, -37.07163 ], [ -71.51267, -37.069 ], [ -71.51386, -37.06728 ], [ -71.51574, -37.06612 ], [ -71.51757, -37.06556 ], [ -71.51885, -37.06547 ], [ -71.52187, -37.06603 ], [ -71.52443, -37.06803 ], [ -71.52706, -37.06784 ], [ -71.5289, -37.06811 ], [ -71.53112, -37.06811 ], [ -71.53264, -37.06729 ], [ -71.53458, -37.06654 ], [ -71.53744, -37.0646 ], [ -71.54188, -37.0633 ], [ -71.54418, -37.06179 ], [ -71.54452, -37.0611 ], [ -71.54548, -37.06031 ], [ -71.54611, -37.05907 ], [ -71.54623, -37.05855 ], [ -71.54561, -37.05714 ], [ -71.54363, -37.05475 ], [ -71.54333, -37.05255 ], [ -71.54221, -37.04946 ], [ -71.54131, -37.04795 ], [ -71.54125, -37.04732 ], [ -71.54184, -37.04575 ], [ -71.54181, -37.04495 ], [ -71.54134, -37.04354 ], [ -71.54086, -37.04087 ], [ -71.54161, -37.03989 ], [ -71.5455, -37.03744 ], [ -71.54744, -37.0339 ], [ -71.54795, -37.03192 ], [ -71.54782, -37.03033 ], [ -71.54908, -37.02781 ], [ -71.5496, -37.02477 ], [ -71.55162, -37.02187 ], [ -71.55122, -37.02084 ], [ -71.55057, -37.02005 ], [ -71.54935, -37.01914 ], [ -71.54485, -37.01734 ], [ -71.5414, -37.0133 ], [ -71.5409, -37.01298 ], [ -71.54089, -37.01277 ], [ -71.53966, -37.01151 ], [ -71.53833, -37.01049 ], [ -71.53687, -37.00968 ], [ -71.53504, -37.00926 ], [ -71.53216, -37.00938 ], [ -71.53032, -37.00874 ], [ -71.52907, -37.0088 ], [ -71.52715, -37.00775 ], [ -71.52559, -37.00756 ], [ -71.52486, -37.0073 ], [ -71.52435, -37.00741 ], [ -71.52293, -37.00711 ], [ -71.52124, -37.00711 ], [ -71.51953, -37.00649 ], [ -71.51753, -37.00668 ], [ -71.51662, -37.00657 ], [ -71.51058, -37.00507 ], [ -71.50975, -37.00505 ], [ -71.50869, -37.00537 ], [ -71.49792, -37.00096 ], [ -71.49201, -37.00111 ], [ -71.47874, -36.99647 ], [ -71.47625, -36.99597 ], [ -71.46956, -36.99879 ], [ -71.46564, -36.99933 ], [ -71.4593, -36.99743 ], [ -71.45424, -36.99564 ], [ -71.44804, -36.99431 ], [ -71.44284, -36.99434 ], [ -71.43878, -36.99521 ], [ -71.4355, -36.9979 ], [ -71.43337, -37.00086 ], [ -71.43194, -37.00379 ], [ -71.43125, -37.0139 ], [ -71.43003, -37.02479 ], [ -71.41, -37.02582 ], [ -71.38802, -37.02556 ], [ -71.37014, -36.99455 ], [ -71.36914, -36.9899 ], [ -71.3707, -36.98507 ], [ -71.37347, -36.97937 ], [ -71.37439, -36.97443 ], [ -71.37332, -36.96955 ], [ -71.37039, -36.96536 ], [ -71.36555, -36.96158 ], [ -71.36258, -36.96018 ], [ -71.33608, -36.95967 ], [ -71.28114, -36.96291 ], [ -71.22899, -36.97013 ], [ -71.22485, -36.97355 ], [ -71.22105, -36.9748 ], [ -71.2218, -36.97717 ], [ -71.22232, -36.97823 ], [ -71.22229, -36.97888 ], [ -71.22151, -36.98044 ], [ -71.22029, -36.98158 ] ] ] } }
]
}
