{
"type": "FeatureCollection",
"name": "AZU",
"crs": { "type": "name", "properties": { "name": "urn:ogc:def:crs:OGC:1.3:CRS84" } },
"xy_coordinate_resolution": 1e-05,
"features": [
{ "type": "Feature", "properties": { "nombre": "Parque Nacional Llullaillaco", "categoria": "Parque Nacional", "region": "Antofagasta", "superficie_ha": "268670,61", "decreto": "NÂ° 856 de 1995" }, "geometry": { "type": "Polygon", "coordinates": [ [ [ -68.54077, -24.88552 ], [ -68.5431, -24.88707 ], [ -68.55161, -24.89577 ], [ -68.57683, -24.90007 ], [ -68.61988, -24.95336 ], [ -68.6552, -24.97463 ], [ -68.64448, -25.03776 ], [ -68.639, -25.11279 ], [ -68.6552, -25.17135 ], [ -68.68413, -25.17287 ], [ -68.72697, -25.16706 ], [ -68.72981, -25.1058 ], [ -68.76799, -25.09032 ], [ -68.80775, -25.08541 ], [ -68.83221, -25.08076 ], [ -68.85619, -25.08625 ], [ -68.96326, -25.1276 ], [ -68.95823, -25.11792 ], [ -68.93323, -25.0799 ], [ -68.90427, -25.04429 ], [ -68.87164, -25.01144 ], [ -68.83565, -24.98164 ], [ -68.79664, -24.9552 ], [ -68.75499, -24.93235 ], [ -68.71111, -24.91333 ], [ -68.6654, -24.8983 ], [ -68.6183, -24.88742 ], [ -68.57027, -24.88079 ], [ -68.52688, -24.87871 ], [ -68.54077, -24.88552 ] ] ] } }
]
}
