{
"type": "FeatureCollection",
"name": "BAY",
"crs": { "type": "name", "properties": { "name": "urn:ogc:def:crs:OGC:1.3:CRS84" } },
"xy_coordinate_resolution": 1e-05,
"features": [
{ "type": "Feature", "properties": { "nombre": "Parque Nacional Llullaillaco", "categoria": "Parque Nacional", "region": "Antofagasta", "superficie_ha": "268670,61", "decreto": "NÂ° 856 de 1995" }, "geometry": { "type": "Polygon", "coordinates": [ [ [ -68.61988, -24.95336 ], [ -68.6552, -24.97463 ], [ -68.64448, -25.03776 ], [ -68.639, -25.11279 ], [ -68.6552, -25.17135 ], [ -68.68413, -25.17287 ], [ -68.72697, -25.16706 ], [ -68.72981, -25.1058 ], [ -68.76799, -25.09032 ], [ -68.80775, -25.08541 ], [ -68.83221, -25.08076 ], [ -68.85619, -25.08625 ], [ -68.89964, -25.10303 ], [ -68.88445, -25.08435 ], [ -68.85181, -25.05149 ], [ -68.81581, -25.02169 ], [ -68.77679, -24.99524 ], [ -68.73514, -24.97239 ], [ -68.69124, -24.95336 ], [ -68.64552, -24.93833 ], [ -68.59906, -24.92759 ], [ -68.61988, -24.95336 ] ] ] } }
]
}
