{
"type": "FeatureCollection",
"name": "CHA",
"crs": { "type": "name", "properties": { "name": "urn:ogc:def:crs:OGC:1.3:CRS84" } },
"xy_coordinate_resolution": 1e-05,
"features": [
{ "type": "Feature", "properties": { "nombre": "Parque Nacional Corcovado", "categoria": "Parque Nacional", "region": "Los Lagos - Aysen", "superficie_ha": "400010,93", "decreto": "NÂ° 2 de 2005; NÂ° 12 de 2007; NÂ° 4 de 2018" }, "geometry": { "type": "MultiPolygon", "coordinates": [ [ [ [ -72.48877, -43.17129 ], [ -72.49162, -43.17201 ], [ -72.49322, -43.17146 ], [ -72.49595, -43.17158 ], [ -72.49766, -43.17095 ], [ -72.49852, -43.17089 ], [ -72.50008, -43.171 ], [ -72.50191, -43.17083 ], [ -72.50384, -43.1715 ], [ -72.50552, -43.17133 ], [ -72.50704, -43.17148 ], [ -72.50747, -43.17128 ], [ -72.50763, -43.17065 ], [ -72.50802, -43.17036 ], [ -72.50853, -43.17029 ], [ -72.50961, -43.1706 ], [ -72.51016, -43.1706 ], [ -72.51176, -43.17035 ], [ -72.51523, -43.17016 ], [ -72.51685, -43.171 ], [ -72.51951, -43.17089 ], [ -72.518, -43.17117 ], [ -72.51744, -43.17156 ], [ -72.51674, -43.17172 ], [ -72.51533, -43.1713 ], [ -72.51429, -43.17135 ], [ -72.51374, -43.17159 ], [ -72.51229, -43.17269 ], [ -72.50988, -43.17276 ], [ -72.50914, -43.173 ], [ -72.50866, -43.17334 ], [ -72.50739, -43.17348 ], [ -72.50658, -43.17385 ], [ -72.50431, -43.17289 ], [ -72.5037, -43.17278 ], [ -72.49795, -43.17259 ], [ -72.49616, -43.1735 ], [ -72.4939, -43.17431 ], [ -72.49108, -43.17501 ], [ -72.48921, -43.17589 ], [ -72.48929, -43.17731 ], [ -72.48906, -43.17885 ], [ -72.48908, -43.18063 ], [ -72.48927, -43.1815 ], [ -72.49031, -43.18269 ], [ -72.49202, -43.184 ], [ -72.4925, -43.18418 ], [ -72.49377, -43.18385 ], [ -72.49416, -43.1844 ], [ -72.49529, -43.18491 ], [ -72.49585, -43.1858 ], [ -72.49749, -43.18699 ], [ -72.49823, -43.18735 ], [ -72.49948, -43.18761 ], [ -72.49958, -43.18849 ], [ -72.50056, -43.18909 ], [ -72.50169, -43.18918 ], [ -72.50238, -43.18905 ], [ -72.50327, -43.18937 ], [ -72.50409, -43.19103 ], [ -72.5041, -43.19196 ], [ -72.50445, -43.19273 ], [ -72.50651, -43.19376 ], [ -72.50798, -43.19538 ], [ -72.50834, -43.19621 ], [ -72.50839, -43.19801 ], [ -72.50875, -43.19874 ], [ -72.50992, -43.19944 ], [ -72.51159, -43.20102 ], [ -72.51285, -43.20171 ], [ -72.51484, -43.20211 ], [ -72.51692, -43.20295 ], [ -72.51825, -43.20329 ], [ -72.51977, -43.20315 ], [ -72.52233, -43.20327 ], [ -72.523, -43.2034 ], [ -72.52416, -43.20408 ], [ -72.52466, -43.20412 ], [ -72.52502, -43.20499 ], [ -72.52419, -43.20615 ], [ -72.52456, -43.20684 ], [ -72.52573, -43.2079 ], [ -72.52595, -43.20835 ], [ -72.52576, -43.2088 ], [ -72.52578, -43.2096 ], [ -72.52683, -43.21022 ], [ -72.52788, -43.21204 ], [ -72.52933, -43.21334 ], [ -72.53142, -43.21328 ], [ -72.53324, -43.21431 ], [ -72.53845, -43.21567 ], [ -72.54133, -43.21573 ], [ -72.54219, -43.21537 ], [ -72.54471, -43.21605 ], [ -72.54641, -43.21608 ], [ -72.54874, -43.21713 ], [ -72.55095, -43.21705 ], [ -72.55329, -43.21785 ], [ -72.55419, -43.21675 ], [ -72.5579, -43.21732 ], [ -72.55838, -43.21795 ], [ -72.55922, -43.2181 ], [ -72.55917, -43.21934 ], [ -72.55845, -43.22044 ], [ -72.55689, -43.22115 ], [ -72.55704, -43.22177 ], [ -72.56383, -43.22179 ], [ -72.5672, -43.22224 ], [ -72.56752, -43.22287 ], [ -72.56681, -43.22347 ], [ -72.56797, -43.22436 ], [ -72.5689, -43.22662 ], [ -72.56902, -43.22774 ], [ -72.5703, -43.22975 ], [ -72.56944, -43.2301 ], [ -72.56745, -43.22882 ], [ -72.56225, -43.22734 ], [ -72.56027, -43.22594 ], [ -72.5584, -43.22602 ], [ -72.5579, -43.22564 ], [ -72.55654, -43.22573 ], [ -72.55583, -43.22646 ], [ -72.55466, -43.22619 ], [ -72.55317, -43.22517 ], [ -72.54979, -43.22472 ], [ -72.54808, -43.22506 ], [ -72.54658, -43.2244 ], [ -72.54426, -43.22299 ], [ -72.54172, -43.22293 ], [ -72.53947, -43.224 ], [ -72.53823, -43.22534 ], [ -72.53755, -43.22533 ], [ -72.53639, -43.22456 ], [ -72.53489, -43.22403 ], [ -72.53118, -43.22345 ], [ -72.52985, -43.22268 ], [ -72.52455, -43.22227 ], [ -72.52388, -43.22293 ], [ -72.5239, -43.22382 ], [ -72.52295, -43.22463 ], [ -72.52255, -43.22537 ], [ -72.52219, -43.22567 ], [ -72.52073, -43.22596 ], [ -72.52044, -43.22628 ], [ -72.52007, -43.22751 ], [ -72.51898, -43.22852 ], [ -72.51823, -43.22895 ], [ -72.51797, -43.22968 ], [ -72.517, -43.23131 ], [ -72.51703, -43.232 ], [ -72.51738, -43.23277 ], [ -72.51721, -43.23317 ], [ -72.51504, -43.23489 ], [ -72.51453, -43.23571 ], [ -72.51415, -43.23595 ], [ -72.51348, -43.23599 ], [ -72.5125, -43.23633 ], [ -72.51142, -43.23616 ], [ -72.51015, -43.23696 ], [ -72.50995, -43.23678 ], [ -72.51004, -43.23595 ], [ -72.51068, -43.23545 ], [ -72.51128, -43.23434 ], [ -72.5125, -43.23312 ], [ -72.51358, -43.23242 ], [ -72.51533, -43.23162 ], [ -72.51573, -43.2312 ], [ -72.51595, -43.22992 ], [ -72.5164, -43.22908 ], [ -72.51705, -43.22843 ], [ -72.51719, -43.22729 ], [ -72.51769, -43.22655 ], [ -72.51784, -43.22584 ], [ -72.51753, -43.22473 ], [ -72.51838, -43.22359 ], [ -72.51943, -43.22281 ], [ -72.51947, -43.22262 ], [ -72.51921, -43.22218 ], [ -72.51289, -43.22196 ], [ -72.5134, -43.21884 ], [ -72.51331, -43.21616 ], [ -72.51295, -43.21318 ], [ -72.50771, -43.21348 ], [ -72.50213, -43.21192 ], [ -72.50121, -43.20971 ], [ -72.49889, -43.20729 ], [ -72.4942, -43.20332 ], [ -72.49226, -43.19999 ], [ -72.48944, -43.19716 ], [ -72.48647, -43.19448 ], [ -72.48961, -43.1924 ], [ -72.48847, -43.19225 ], [ -72.488, -43.19202 ], [ -72.48784, -43.19047 ], [ -72.48761, -43.19007 ], [ -72.4866, -43.18912 ], [ -72.48535, -43.18761 ], [ -72.48371, -43.18645 ], [ -72.48285, -43.18526 ], [ -72.48227, -43.18486 ], [ -72.4818, -43.18479 ], [ -72.48082, -43.18519 ], [ -72.47938, -43.18497 ], [ -72.47501, -43.18322 ], [ -72.47419, -43.18275 ], [ -72.4738, -43.18227 ], [ -72.47349, -43.18061 ], [ -72.4738, -43.17889 ], [ -72.47435, -43.17803 ], [ -72.47427, -43.17766 ], [ -72.47367, -43.17714 ], [ -72.45926, -43.19755 ], [ -72.4593, -43.1984 ], [ -72.45869, -43.19971 ], [ -72.45718, -43.20168 ], [ -72.45551, -43.20273 ], [ -72.45484, -43.20338 ], [ -72.45224, -43.20668 ], [ -72.45192, -43.2079 ], [ -72.45281, -43.20948 ], [ -72.45282, -43.20992 ], [ -72.45259, -43.21034 ], [ -72.45104, -43.21158 ], [ -72.44964, -43.21222 ], [ -72.44832, -43.21324 ], [ -72.44769, -43.21354 ], [ -72.4474, -43.21413 ], [ -72.44696, -43.21456 ], [ -72.44576, -43.21499 ], [ -72.44501, -43.21496 ], [ -72.4447, -43.21516 ], [ -72.44349, -43.21646 ], [ -72.44277, -43.21777 ], [ -72.44042, -43.2194 ], [ -72.43887, -43.2207 ], [ -72.43371, -43.22578 ], [ -72.4325, -43.22726 ], [ -72.42561, -43.24826 ], [ -72.45484, -43.25666 ], [ -72.51299, -43.26867 ], [ -72.57249, -43.27644 ], [ -72.63275, -43.27987 ], [ -72.69318, -43.27894 ], [ -72.75319, -43.27365 ], [ -72.81219, -43.26406 ], [ -72.8696, -43.25026 ], [ -72.88471, -43.24537 ], [ -72.88365, -43.24497 ], [ -72.88054, -43.24305 ], [ -72.8789, -43.24151 ], [ -72.87767, -43.24125 ], [ -72.87763, -43.2405 ], [ -72.87547, -43.23842 ], [ -72.87428, -43.23702 ], [ -72.87293, -43.23457 ], [ -72.87255, -43.23433 ], [ -72.87256, -43.23416 ], [ -72.87153, -43.23292 ], [ -72.87152, -43.23143 ], [ -72.87139, -43.23102 ], [ -72.87238, -43.22853 ], [ -72.87329, -43.2274 ], [ -72.87397, -43.22477 ], [ -72.87511, -43.2224 ], [ -72.87566, -43.22063 ], [ -72.87576, -43.21879 ], [ -72.87635, -43.21795 ], [ -72.87631, -43.2172 ], [ -72.87649, -43.21669 ], [ -72.87691, -43.21618 ], [ -72.87684, -43.21596 ], [ -72.87744, -43.21488 ], [ -72.87852, -43.2137 ], [ -72.8803, -43.21093 ], [ -72.88186, -43.20926 ], [ -72.88276, -43.20853 ], [ -72.8831, -43.20785 ], [ -72.88287, -43.20623 ], [ -72.88346, -43.20546 ], [ -72.88475, -43.20307 ], [ -72.88475, -43.20158 ], [ -72.88217, -43.20169 ], [ -72.88163, -43.20156 ], [ -72.87996, -43.20065 ], [ -72.87493, -43.19959 ], [ -72.87371, -43.1991 ], [ -72.8703, -43.1986 ], [ -72.86924, -43.19805 ], [ -72.86776, -43.19796 ], [ -72.86554, -43.19704 ], [ -72.864, -43.19665 ], [ -72.86201, -43.1959 ], [ -72.85951, -43.19583 ], [ -72.85844, -43.19535 ], [ -72.85733, -43.19428 ], [ -72.85533, -43.19359 ], [ -72.8544, -43.19351 ], [ -72.85306, -43.19381 ], [ -72.85196, -43.19373 ], [ -72.85038, -43.19271 ], [ -72.84874, -43.19122 ], [ -72.84821, -43.19092 ], [ -72.84777, -43.19039 ], [ -72.8464, -43.18949 ], [ -72.84449, -43.1888 ], [ -72.8429, -43.18785 ], [ -72.84066, -43.18738 ], [ -72.83962, -43.18687 ], [ -72.83918, -43.18639 ], [ -72.83796, -43.18637 ], [ -72.83632, -43.18545 ], [ -72.83589, -43.18466 ], [ -72.83406, -43.18434 ], [ -72.86337, -43.14173 ], [ -72.77775, -43.11695 ], [ -72.76188, -43.11963 ], [ -72.76045, -43.11821 ], [ -72.75855, -43.11729 ], [ -72.75701, -43.11691 ], [ -72.75679, -43.11667 ], [ -72.75673, -43.11626 ], [ -72.75643, -43.11609 ], [ -72.75394, -43.11608 ], [ -72.75321, -43.11496 ], [ -72.75273, -43.11477 ], [ -72.75053, -43.11514 ], [ -72.74999, -43.11563 ], [ -72.74998, -43.11677 ], [ -72.74975, -43.11804 ], [ -72.75033, -43.11912 ], [ -72.75102, -43.1199 ], [ -72.7514, -43.1214 ], [ -72.74359, -43.12272 ], [ -72.74241, -43.12247 ], [ -72.74191, -43.12215 ], [ -72.7418, -43.12172 ], [ -72.74203, -43.12132 ], [ -72.74184, -43.12094 ], [ -72.74068, -43.11988 ], [ -72.74021, -43.11916 ], [ -72.73959, -43.11873 ], [ -72.73803, -43.11862 ], [ -72.73691, -43.11832 ], [ -72.73379, -43.11955 ], [ -72.73273, -43.12056 ], [ -72.7325, -43.12115 ], [ -72.73246, -43.12207 ], [ -72.73226, -43.12245 ], [ -72.73172, -43.12279 ], [ -72.73128, -43.1233 ], [ -72.73031, -43.12338 ], [ -72.72922, -43.12373 ], [ -72.72812, -43.12498 ], [ -72.72712, -43.1255 ], [ -72.6518, -43.13819 ], [ -72.65234, -43.13782 ], [ -72.65258, -43.1374 ], [ -72.65255, -43.13669 ], [ -72.65235, -43.13619 ], [ -72.65161, -43.13561 ], [ -72.64924, -43.13452 ], [ -72.64893, -43.13418 ], [ -72.64878, -43.13363 ], [ -72.62164, -43.0999 ], [ -72.71555, -43.05761 ], [ -72.7285, -43.01443 ], [ -72.53837, -43.08625 ], [ -72.50226, -43.13662 ], [ -72.48036, -43.16766 ], [ -72.48094, -43.1682 ], [ -72.4816, -43.16845 ], [ -72.48218, -43.16908 ], [ -72.48316, -43.16951 ], [ -72.48339, -43.1702 ], [ -72.48429, -43.17092 ], [ -72.48515, -43.17132 ], [ -72.48608, -43.17138 ], [ -72.4869, -43.17123 ], [ -72.48877, -43.17129 ] ] ], [ [ [ -72.42866, -43.23533 ], [ -72.43106, -43.22773 ], [ -72.43043, -43.22861 ], [ -72.43026, -43.22927 ], [ -72.4294, -43.23034 ], [ -72.42606, -43.23359 ], [ -72.42564, -43.23385 ], [ -72.42604, -43.23506 ], [ -72.42541, -43.23755 ], [ -72.42427, -43.23937 ], [ -72.42418, -43.23985 ], [ -72.42416, -43.24077 ], [ -72.42441, -43.24142 ], [ -72.42496, -43.24644 ], [ -72.42866, -43.23533 ] ] ] ] } },
{ "type": "Feature", "properties": { "nombre": "Parque Nacional Pumalin", "categoria": "Parque Nacional", "region": "Los Lagos", "superficie_ha": "402392", "decreto": "NÂ° 28 de 2018" }, "geometry": { "type": "MultiPolygon", "coordinates": [ [ [ [ -72.47896, -43.00971 ], [ -72.47695, -43.00913 ], [ -72.47401, -43.00891 ], [ -72.47388, -43.00907 ], [ -72.47383, -43.00992 ], [ -72.47405, -43.01126 ], [ -72.47396, -43.01162 ], [ -72.47332, -43.01212 ], [ -72.47183, -43.01239 ], [ -72.46827, -43.01093 ], [ -72.4676, -43.01054 ], [ -72.46647, -43.00907 ], [ -72.46436, -43.00838 ], [ -72.4644, -43.00974 ], [ -72.46572, -43.00957 ], [ -72.4665, -43.0105 ], [ -72.46614, -43.01137 ], [ -72.46829, -43.01286 ], [ -72.46992, -43.01327 ], [ -72.47106, -43.01316 ], [ -72.47188, -43.01355 ], [ -72.47355, -43.01346 ], [ -72.47563, -43.01437 ], [ -72.4788, -43.01136 ], [ -72.47896, -43.00971 ] ] ], [ [ [ -72.67774, -42.52566 ], [ -72.67684, -42.52518 ], [ -72.67468, -42.52532 ], [ -72.67412, -42.5215 ], [ -72.67358, -42.52179 ], [ -72.67282, -42.52194 ], [ -72.67053, -42.52326 ], [ -72.66901, -42.52485 ], [ -72.66873, -42.52631 ], [ -72.66819, -42.5266 ], [ -72.66599, -42.52724 ], [ -72.66517, -42.52731 ], [ -72.66488, -42.52702 ], [ -72.66401, -42.52711 ], [ -72.66335, -42.52692 ], [ -72.66315, -42.52647 ], [ -72.6623, -42.52591 ], [ -72.66177, -42.52608 ], [ -72.66079, -42.52767 ], [ -72.66052, -42.52861 ], [ -72.65987, -42.52974 ], [ -72.65923, -42.52997 ], [ -72.65807, -42.53108 ], [ -72.65579, -42.53187 ], [ -72.65433, -42.53308 ], [ -72.65204, -42.53408 ], [ -72.65015, -42.53601 ], [ -72.64914, -42.53646 ], [ -72.64782, -42.53693 ], [ -72.64678, -42.53638 ], [ -72.64534, -42.53666 ], [ -72.64478, -42.53633 ], [ -72.64289, -42.53698 ], [ -72.64195, -42.53694 ], [ -72.64049, -42.53727 ], [ -72.63965, -42.53783 ], [ -72.63704, -42.53906 ], [ -72.63633, -42.53919 ], [ -72.63456, -42.53881 ], [ -72.63331, -42.53975 ], [ -72.63053, -42.54074 ], [ -72.63028, -42.54121 ], [ -72.62948, -42.54185 ], [ -72.62885, -42.54267 ], [ -72.62718, -42.54318 ], [ -72.62613, -42.54379 ], [ -72.6255, -42.54396 ], [ -72.62383, -42.54504 ], [ -72.62035, -42.54436 ], [ -72.61885, -42.54464 ], [ -72.61745, -42.54548 ], [ -72.61705, -42.54609 ], [ -72.61743, -42.54653 ], [ -72.61678, -42.54683 ], [ -72.61549, -42.54702 ], [ -72.61512, -42.54814 ], [ -72.61609, -42.54958 ], [ -72.61575, -42.55069 ], [ -72.61499, -42.55176 ], [ -72.6128, -42.55293 ], [ -72.60789, -42.55639 ], [ -72.60704, -42.55708 ], [ -72.60642, -42.55734 ], [ -72.60607, -42.55787 ], [ -72.60509, -42.55843 ], [ -72.60498, -42.55899 ], [ -72.6052, -42.55985 ], [ -72.60507, -42.56141 ], [ -72.60448, -42.56463 ], [ -72.60359, -42.56588 ], [ -72.60169, -42.56755 ], [ -72.59757, -42.5725 ], [ -72.59734, -42.57307 ], [ -72.59663, -42.57354 ], [ -72.59576, -42.57492 ], [ -72.59453, -42.57911 ], [ -72.59299, -42.58687 ], [ -72.59123, -42.59372 ], [ -72.58828, -42.60264 ], [ -72.58629, -42.60752 ], [ -72.58587, -42.60811 ], [ -72.58527, -42.60841 ], [ -72.58167, -42.60883 ], [ -72.58092, -42.6108 ], [ -72.58156, -42.61202 ], [ -72.58422, -42.61341 ], [ -72.58536, -42.61444 ], [ -72.5898, -42.62113 ], [ -72.5902, -42.62231 ], [ -72.59034, -42.62371 ], [ -72.5901, -42.62427 ], [ -72.58979, -42.62615 ], [ -72.5891, -42.62803 ], [ -72.58111, -42.64043 ], [ -72.58037, -42.64331 ], [ -72.58041, -42.64499 ], [ -72.58065, -42.64566 ], [ -72.58079, -42.64697 ], [ -72.58078, -42.65713 ], [ -72.58121, -42.66026 ], [ -72.58065, -42.66188 ], [ -72.58041, -42.67425 ], [ -72.57999, -42.67486 ], [ -72.57812, -42.67524 ], [ -72.57708, -42.67618 ], [ -72.57698, -42.67752 ], [ -72.57736, -42.68041 ], [ -72.57673, -42.68124 ], [ -72.57672, -42.68178 ], [ -72.5764, -42.68222 ], [ -72.5765, -42.68318 ], [ -72.57623, -42.68402 ], [ -72.57615, -42.68639 ], [ -72.57618, -42.68929 ], [ -72.5766, -42.69234 ], [ -72.57538, -42.69661 ], [ -72.57418, -42.69801 ], [ -72.57408, -42.70076 ], [ -72.57503, -42.70303 ], [ -72.57629, -42.70488 ], [ -72.5805, -42.70982 ], [ -72.58179, -42.71366 ], [ -72.58608, -42.71844 ], [ -72.58654, -42.71858 ], [ -72.58768, -42.71832 ], [ -72.58837, -42.71844 ], [ -72.58881, -42.71882 ], [ -72.58897, -42.71951 ], [ -72.59058, -42.71993 ], [ -72.59127, -42.72055 ], [ -72.59222, -42.72101 ], [ -72.59367, -42.72208 ], [ -72.5957, -42.7219 ], [ -72.59651, -42.72209 ], [ -72.59865, -42.72364 ], [ -72.60005, -42.72535 ], [ -72.60052, -42.72684 ], [ -72.60043, -42.72735 ], [ -72.59954, -42.72791 ], [ -72.59832, -42.72825 ], [ -72.59896, -42.72987 ], [ -72.59886, -42.73284 ], [ -72.59997, -42.73484 ], [ -72.60009, -42.73551 ], [ -72.59968, -42.73605 ], [ -72.59855, -42.73648 ], [ -72.59768, -42.73805 ], [ -72.59619, -42.73886 ], [ -72.59563, -42.73994 ], [ -72.59592, -42.74084 ], [ -72.5972, -42.74319 ], [ -72.59954, -42.74486 ], [ -72.60138, -42.74738 ], [ -72.60217, -42.74814 ], [ -72.60263, -42.74905 ], [ -72.60265, -42.74981 ], [ -72.60281, -42.75013 ], [ -72.60401, -42.7513 ], [ -72.60568, -42.75372 ], [ -72.6061, -42.75538 ], [ -72.60731, -42.7569 ], [ -72.60847, -42.75873 ], [ -72.61014, -42.76053 ], [ -72.61087, -42.76295 ], [ -72.61683, -42.77077 ], [ -72.61871, -42.77436 ], [ -72.61912, -42.77473 ], [ -72.62211, -42.77628 ], [ -72.62409, -42.78012 ], [ -72.63816, -42.79829 ], [ -72.64518, -42.79968 ], [ -72.65911, -42.8057 ], [ -72.69303, -42.81404 ], [ -72.70888, -42.8199 ], [ -72.71174, -42.82065 ], [ -72.72753, -42.82291 ], [ -72.73929, -42.82441 ], [ -72.74624, -42.82445 ], [ -72.7483, -42.8243 ], [ -72.76073, -42.82165 ], [ -72.76796, -42.82211 ], [ -72.77106, -42.82252 ], [ -72.7723, -42.82296 ], [ -72.77717, -42.82533 ], [ -72.7796, -42.82681 ], [ -72.7916, -42.84011 ], [ -72.79221, -42.84094 ], [ -72.7927, -42.84202 ], [ -72.79706, -42.84228 ], [ -72.7983, -42.83603 ], [ -72.81713, -42.83388 ], [ -72.82006, -42.83089 ], [ -72.82028, -42.83052 ], [ -72.82054, -42.80574 ], [ -72.81964, -42.80599 ], [ -72.81874, -42.80583 ], [ -72.8183, -42.8056 ], [ -72.8177, -42.80508 ], [ -72.81655, -42.80354 ], [ -72.81505, -42.8038 ], [ -72.81206, -42.80301 ], [ -72.81154, -42.80307 ], [ -72.80915, -42.80367 ], [ -72.80831, -42.80367 ], [ -72.80681, -42.80412 ], [ -72.80713, -42.80519 ], [ -72.80778, -42.80576 ], [ -72.80797, -42.80617 ], [ -72.8079, -42.80664 ], [ -72.80472, -42.80712 ], [ -72.80225, -42.80805 ], [ -72.79923, -42.80854 ], [ -72.7987, -42.80821 ], [ -72.79852, -42.80718 ], [ -72.79862, -42.80665 ], [ -72.79843, -42.80619 ], [ -72.79778, -42.80571 ], [ -72.79633, -42.80389 ], [ -72.79528, -42.80397 ], [ -72.79455, -42.80428 ], [ -72.79325, -42.80521 ], [ -72.79233, -42.80534 ], [ -72.79138, -42.80535 ], [ -72.78886, -42.80473 ], [ -72.78741, -42.80456 ], [ -72.78695, -42.80421 ], [ -72.78817, -42.76955 ], [ -72.78614, -42.76989 ], [ -72.78382, -42.77138 ], [ -72.78131, -42.77338 ], [ -72.77938, -42.77346 ], [ -72.7755, -42.77469 ], [ -72.77321, -42.7749 ], [ -72.77215, -42.77603 ], [ -72.76516, -42.77794 ], [ -72.76519, -42.77829 ], [ -72.76472, -42.77932 ], [ -72.76323, -42.78113 ], [ -72.76196, -42.78153 ], [ -72.76118, -42.78213 ], [ -72.75904, -42.7833 ], [ -72.75745, -42.78354 ], [ -72.75633, -42.78412 ], [ -72.75574, -42.78514 ], [ -72.75366, -42.78695 ], [ -72.7559, -42.7872 ], [ -72.75588, -42.78776 ], [ -72.75378, -42.78813 ], [ -72.75265, -42.78799 ], [ -72.75121, -42.78821 ], [ -72.74958, -42.78871 ], [ -72.7484, -42.78982 ], [ -72.74731, -42.79039 ], [ -72.74489, -42.79065 ], [ -72.74287, -42.79125 ], [ -72.73866, -42.79417 ], [ -72.73754, -42.79448 ], [ -72.73647, -42.79531 ], [ -72.73416, -42.79595 ], [ -72.73299, -42.79701 ], [ -72.73114, -42.80097 ], [ -72.72729, -42.80332 ], [ -72.72427, -42.80379 ], [ -72.72303, -42.80222 ], [ -72.72163, -42.80125 ], [ -72.71804, -42.80251 ], [ -72.71333, -42.79965 ], [ -72.71025, -42.79862 ], [ -72.70757, -42.79729 ], [ -72.7056, -42.7977 ], [ -72.70245, -42.79739 ], [ -72.70124, -42.79651 ], [ -72.70018, -42.79549 ], [ -72.69863, -42.79518 ], [ -72.69847, -42.79473 ], [ -72.69779, -42.79427 ], [ -72.69566, -42.79342 ], [ -72.69467, -42.7928 ], [ -72.69139, -42.79001 ], [ -72.68746, -42.78706 ], [ -72.68002, -42.78516 ], [ -72.67812, -42.78392 ], [ -72.6745, -42.78229 ], [ -72.67394, -42.78133 ], [ -72.67374, -42.78041 ], [ -72.67376, -42.77921 ], [ -72.67314, -42.77797 ], [ -72.67131, -42.77769 ], [ -72.67014, -42.7768 ], [ -72.66823, -42.77411 ], [ -72.66566, -42.77338 ], [ -72.66382, -42.77261 ], [ -72.66359, -42.77279 ], [ -72.66353, -42.77249 ], [ -72.66379, -42.7726 ], [ -72.66319, -42.77099 ], [ -72.66332, -42.76987 ], [ -72.66367, -42.76887 ], [ -72.66612, -42.76783 ], [ -72.66672, -42.76603 ], [ -72.61524, -42.7444 ], [ -72.61505, -42.74411 ], [ -72.61356, -42.74373 ], [ -72.61313, -42.74322 ], [ -72.61151, -42.74252 ], [ -72.61133, -42.74198 ], [ -72.61084, -42.74166 ], [ -72.61029, -42.74156 ], [ -72.60954, -42.74077 ], [ -72.60852, -42.74059 ], [ -72.60798, -42.74097 ], [ -72.60786, -42.73955 ], [ -72.60735, -42.73818 ], [ -72.60663, -42.73735 ], [ -72.60639, -42.73576 ], [ -72.60656, -42.73431 ], [ -72.60631, -42.73318 ], [ -72.60542, -42.73074 ], [ -72.6056, -42.72417 ], [ -72.60598, -42.72135 ], [ -72.60653, -42.7136 ], [ -72.60913, -42.71375 ], [ -72.61517, -42.71362 ], [ -72.61876, -42.71298 ], [ -72.62103, -42.71344 ], [ -72.62458, -42.71314 ], [ -72.62614, -42.71324 ], [ -72.62761, -42.71367 ], [ -72.6288, -42.7134 ], [ -72.62988, -42.71372 ], [ -72.63083, -42.71361 ], [ -72.63178, -42.71328 ], [ -72.63452, -42.71345 ], [ -72.63542, -42.71395 ], [ -72.6372, -42.71318 ], [ -72.63992, -42.71274 ], [ -72.64063, -42.71237 ], [ -72.64228, -42.71219 ], [ -72.64404, -42.7122 ], [ -72.64633, -42.71294 ], [ -72.64715, -42.71296 ], [ -72.64779, -42.71325 ], [ -72.6492, -42.71351 ], [ -72.65001, -42.71296 ], [ -72.65008, -42.71255 ], [ -72.65103, -42.71133 ], [ -72.65281, -42.71014 ], [ -72.65701, -42.71046 ], [ -72.65943, -42.70969 ], [ -72.66041, -42.71011 ], [ -72.66432, -42.71061 ], [ -72.6652, -42.71097 ], [ -72.66501, -42.71157 ], [ -72.66536, -42.71184 ], [ -72.66598, -42.71199 ], [ -72.66616, -42.71254 ], [ -72.66658, -42.71311 ], [ -72.66792, -42.71308 ], [ -72.66894, -42.7128 ], [ -72.67069, -42.71321 ], [ -72.67243, -42.71234 ], [ -72.67482, -42.71214 ], [ -72.67603, -42.71176 ], [ -72.67746, -42.71048 ], [ -72.67832, -42.70995 ], [ -72.67811, -42.70956 ], [ -72.67996, -42.70958 ], [ -72.68073, -42.70891 ], [ -72.68102, -42.70797 ], [ -72.68327, -42.7052 ], [ -72.68366, -42.7043 ], [ -72.68701, -42.70434 ], [ -72.6876, -42.70363 ], [ -72.6881, -42.70355 ], [ -72.69194, -42.70411 ], [ -72.69439, -42.70402 ], [ -72.69694, -42.70448 ], [ -72.69925, -42.70429 ], [ -72.70082, -42.70491 ], [ -72.70207, -42.70485 ], [ -72.70256, -42.7052 ], [ -72.70408, -42.70578 ], [ -72.70704, -42.7077 ], [ -72.70864, -42.70845 ], [ -72.71022, -42.70819 ], [ -72.71072, -42.70793 ], [ -72.71214, -42.70883 ], [ -72.71672, -42.70802 ], [ -72.71771, -42.70917 ], [ -72.71887, -42.70876 ], [ -72.72001, -42.70905 ], [ -72.72104, -42.70972 ], [ -72.72151, -42.71075 ], [ -72.72242, -42.71085 ], [ -72.72341, -42.71146 ], [ -72.72497, -42.71143 ], [ -72.72714, -42.7103 ], [ -72.72902, -42.71015 ], [ -72.73357, -42.71175 ], [ -72.73599, -42.71187 ], [ -72.73778, -42.71274 ], [ -72.74109, -42.71594 ], [ -72.74573, -42.7164 ], [ -72.74685, -42.71603 ], [ -72.7471, -42.71548 ], [ -72.74587, -42.71491 ], [ -72.74549, -42.71439 ], [ -72.74412, -42.71342 ], [ -72.74316, -42.71206 ], [ -72.74271, -42.71053 ], [ -72.74009, -42.70821 ], [ -72.74006, -42.70739 ], [ -72.73963, -42.70547 ], [ -72.73962, -42.70393 ], [ -72.73973, -42.70245 ], [ -72.7403, -42.69999 ], [ -72.7396, -42.69754 ], [ -72.73908, -42.69413 ], [ -72.73863, -42.69296 ], [ -72.738, -42.69248 ], [ -72.73833, -42.69091 ], [ -72.73798, -42.69024 ], [ -72.73792, -42.68929 ], [ -72.73828, -42.6866 ], [ -72.73798, -42.68538 ], [ -72.73625, -42.68389 ], [ -72.73649, -42.68303 ], [ -72.73615, -42.68144 ], [ -72.73506, -42.67975 ], [ -72.7322, -42.67718 ], [ -72.72984, -42.67622 ], [ -72.72701, -42.67567 ], [ -72.72331, -42.67445 ], [ -72.71738, -42.67211 ], [ -72.71578, -42.67126 ], [ -72.71492, -42.67047 ], [ -72.71401, -42.66907 ], [ -72.71367, -42.66808 ], [ -72.714, -42.66666 ], [ -72.71414, -42.66381 ], [ -72.71467, -42.65985 ], [ -72.71503, -42.65821 ], [ -72.71444, -42.65716 ], [ -72.71189, -42.65535 ], [ -72.70962, -42.65409 ], [ -72.70739, -42.65262 ], [ -72.70637, -42.65136 ], [ -72.70523, -42.64747 ], [ -72.70604, -42.64676 ], [ -72.70632, -42.64627 ], [ -72.70822, -42.64425 ], [ -72.70918, -42.64209 ], [ -72.70994, -42.64129 ], [ -72.71014, -42.64036 ], [ -72.71234, -42.63879 ], [ -72.7133, -42.63746 ], [ -72.71418, -42.63665 ], [ -72.71528, -42.63637 ], [ -72.71802, -42.63656 ], [ -72.71905, -42.63567 ], [ -72.72054, -42.63493 ], [ -72.72249, -42.63304 ], [ -72.7234, -42.63276 ], [ -72.72476, -42.63183 ], [ -72.72589, -42.63137 ], [ -72.72867, -42.63069 ], [ -72.73027, -42.63007 ], [ -72.73169, -42.62995 ], [ -72.73281, -42.62957 ], [ -72.73512, -42.63034 ], [ -72.73645, -42.63061 ], [ -72.73853, -42.63041 ], [ -72.73965, -42.6305 ], [ -72.74111, -42.63032 ], [ -72.74307, -42.62978 ], [ -72.74438, -42.62715 ], [ -72.74728, -42.62543 ], [ -72.74912, -42.62403 ], [ -72.75166, -42.62395 ], [ -72.75269, -42.62406 ], [ -72.75311, -42.62447 ], [ -72.75357, -42.62464 ], [ -72.75549, -42.62474 ], [ -72.75624, -42.62426 ], [ -72.75654, -42.62381 ], [ -72.75665, -42.62213 ], [ -72.75719, -42.62157 ], [ -72.75937, -42.62173 ], [ -72.76015, -42.6224 ], [ -72.76031, -42.62326 ], [ -72.76114, -42.62411 ], [ -72.76217, -42.62456 ], [ -72.76339, -42.62484 ], [ -72.76491, -42.62383 ], [ -72.76677, -42.6232 ], [ -72.77212, -42.6208 ], [ -72.77352, -42.62063 ], [ -72.77663, -42.62056 ], [ -72.77921, -42.62183 ], [ -72.78421, -42.62253 ], [ -72.79027, -42.62187 ], [ -72.79149, -42.62189 ], [ -72.7925, -42.62275 ], [ -72.79262, -42.62373 ], [ -72.79285, -42.62419 ], [ -72.7948, -42.62439 ], [ -72.79583, -42.62473 ], [ -72.79741, -42.62555 ], [ -72.79912, -42.62715 ], [ -72.80111, -42.62733 ], [ -72.80417, -42.62688 ], [ -72.80481, -42.62649 ], [ -72.80554, -42.62569 ], [ -72.81018, -42.62567 ], [ -72.81063, -42.62436 ], [ -72.81154, -42.62339 ], [ -72.81966, -42.62404 ], [ -72.8246, -42.62399 ], [ -72.80242, -42.58009 ], [ -72.79728, -42.58023 ], [ -72.79598, -42.57883 ], [ -72.7961, -42.57762 ], [ -72.79388, -42.57591 ], [ -72.79114, -42.57438 ], [ -72.79155, -42.57373 ], [ -72.79001, -42.57262 ], [ -72.78988, -42.57159 ], [ -72.78941, -42.57083 ], [ -72.78741, -42.56934 ], [ -72.78668, -42.56843 ], [ -72.78576, -42.56776 ], [ -72.78463, -42.56655 ], [ -72.7845, -42.56614 ], [ -72.78523, -42.56355 ], [ -72.78599, -42.55903 ], [ -72.7881, -42.55243 ], [ -72.78552, -42.55041 ], [ -72.78517, -42.5477 ], [ -72.7844, -42.54643 ], [ -72.78217, -42.54393 ], [ -72.78209, -42.54353 ], [ -72.78291, -42.54101 ], [ -72.78399, -42.53997 ], [ -72.78492, -42.53817 ], [ -72.78557, -42.53303 ], [ -72.78076, -42.5334 ], [ -72.77429, -42.53048 ], [ -72.7757, -42.52853 ], [ -72.77528, -42.52727 ], [ -72.77674, -42.52528 ], [ -72.77705, -42.52273 ], [ -72.76491, -42.52482 ], [ -72.75186, -42.52972 ], [ -72.75144, -42.5338 ], [ -72.73595, -42.53363 ], [ -72.73623, -42.53332 ], [ -72.73606, -42.53253 ], [ -72.73519, -42.53199 ], [ -72.73133, -42.52778 ], [ -72.73088, -42.52666 ], [ -72.72154, -42.52764 ], [ -72.71877, -42.52694 ], [ -72.7174, -42.52707 ], [ -72.71555, -42.52656 ], [ -72.71494, -42.52395 ], [ -72.7119, -42.52239 ], [ -72.71091, -42.52255 ], [ -72.7096, -42.52455 ], [ -72.70962, -42.52501 ], [ -72.70902, -42.52557 ], [ -72.69443, -42.52665 ], [ -72.69326, -42.53006 ], [ -72.69117, -42.52947 ], [ -72.68983, -42.52811 ], [ -72.68785, -42.52738 ], [ -72.68759, -42.52721 ], [ -72.68749, -42.52684 ], [ -72.68391, -42.52615 ], [ -72.68296, -42.52647 ], [ -72.67941, -42.5271 ], [ -72.67819, -42.52684 ], [ -72.67774, -42.52566 ] ] ], [ [ [ -72.49868, -42.60521 ], [ -72.49651, -42.60703 ], [ -72.49571, -42.60741 ], [ -72.49648, -42.60805 ], [ -72.4971, -42.60832 ], [ -72.5002, -42.60825 ], [ -72.50112, -42.60854 ], [ -72.50258, -42.60936 ], [ -72.50555, -42.60986 ], [ -72.50518, -42.60785 ], [ -72.50542, -42.60738 ], [ -72.50651, -42.60633 ], [ -72.50636, -42.60518 ], [ -72.50674, -42.60397 ], [ -72.50554, -42.60277 ], [ -72.50557, -42.60132 ], [ -72.50628, -42.60047 ], [ -72.50694, -42.59926 ], [ -72.50801, -42.59855 ], [ -72.50897, -42.59744 ], [ -72.51085, -42.5962 ], [ -72.512, -42.59495 ], [ -72.51342, -42.59411 ], [ -72.51456, -42.59303 ], [ -72.51602, -42.59243 ], [ -72.51725, -42.59147 ], [ -72.51879, -42.59096 ], [ -72.52001, -42.59021 ], [ -72.52259, -42.58962 ], [ -72.52462, -42.58808 ], [ -72.52651, -42.58735 ], [ -72.52764, -42.58657 ], [ -72.52845, -42.58634 ], [ -72.52983, -42.58629 ], [ -72.53147, -42.58556 ], [ -72.53415, -42.5856 ], [ -72.53324, -42.58547 ], [ -72.53168, -42.58413 ], [ -72.53131, -42.58331 ], [ -72.52965, -42.5817 ], [ -72.52801, -42.58071 ], [ -72.5275, -42.58086 ], [ -72.52712, -42.58037 ], [ -72.52669, -42.58011 ], [ -72.52651, -42.58054 ], [ -72.52202, -42.58345 ], [ -72.50685, -42.59769 ], [ -72.50623, -42.59722 ], [ -72.50562, -42.59641 ], [ -72.50505, -42.59485 ], [ -72.50325, -42.59618 ], [ -72.5012, -42.59709 ], [ -72.49942, -42.59834 ], [ -72.49892, -42.599 ], [ -72.49847, -42.60031 ], [ -72.4986, -42.60199 ], [ -72.49914, -42.60288 ], [ -72.49927, -42.60356 ], [ -72.49868, -42.60521 ] ] ], [ [ [ -72.48735, -42.58003 ], [ -72.48739, -42.58004 ], [ -72.48749, -42.57994 ], [ -72.48735, -42.58003 ] ] ], [ [ [ -72.4912, -42.57518 ], [ -72.49223, -42.57465 ], [ -72.4926, -42.57383 ], [ -72.49145, -42.57484 ], [ -72.4912, -42.57518 ] ] ], [ [ [ -72.56328, -42.5755 ], [ -72.5612, -42.57715 ], [ -72.55533, -42.58011 ], [ -72.55332, -42.58181 ], [ -72.58948, -42.58833 ], [ -72.59046, -42.58868 ], [ -72.59109, -42.58928 ], [ -72.59179, -42.58671 ], [ -72.59306, -42.58008 ], [ -72.59461, -42.57463 ], [ -72.59558, -42.57309 ], [ -72.59627, -42.57263 ], [ -72.59652, -42.57205 ], [ -72.60066, -42.56708 ], [ -72.60259, -42.56536 ], [ -72.60336, -42.56427 ], [ -72.60385, -42.56139 ], [ -72.60394, -42.55956 ], [ -72.60387, -42.55936 ], [ -72.60345, -42.55961 ], [ -72.60264, -42.56063 ], [ -72.6015, -42.56017 ], [ -72.60006, -42.55996 ], [ -72.59928, -42.5596 ], [ -72.59819, -42.55874 ], [ -72.59807, -42.55627 ], [ -72.59735, -42.55549 ], [ -72.59703, -42.55584 ], [ -72.5967, -42.55533 ], [ -72.59408, -42.55343 ], [ -72.59305, -42.55319 ], [ -72.58995, -42.55329 ], [ -72.588, -42.55426 ], [ -72.58761, -42.55384 ], [ -72.5866, -42.55359 ], [ -72.58538, -42.55407 ], [ -72.58467, -42.55486 ], [ -72.58363, -42.55508 ], [ -72.58152, -42.55591 ], [ -72.58028, -42.55699 ], [ -72.57917, -42.55823 ], [ -72.57833, -42.55824 ], [ -72.57576, -42.55769 ], [ -72.57308, -42.55811 ], [ -72.57224, -42.55877 ], [ -72.57228, -42.55997 ], [ -72.57194, -42.56131 ], [ -72.57191, -42.56209 ], [ -72.57267, -42.56311 ], [ -72.57125, -42.56508 ], [ -72.57161, -42.56622 ], [ -72.5707, -42.56719 ], [ -72.57049, -42.56785 ], [ -72.57075, -42.56857 ], [ -72.57008, -42.5693 ], [ -72.56826, -42.56966 ], [ -72.56759, -42.57016 ], [ -72.56674, -42.57139 ], [ -72.56328, -42.5755 ] ] ], [ [ [ -72.49212, -42.56766 ], [ -72.49209, -42.56777 ], [ -72.49204, -42.56788 ], [ -72.4922, -42.56772 ], [ -72.49212, -42.56766 ] ] ], [ [ [ -72.49789, -42.54775 ], [ -72.49843, -42.54823 ], [ -72.49838, -42.5497 ], [ -72.49807, -42.55013 ], [ -72.49833, -42.55052 ], [ -72.49946, -42.55043 ], [ -72.50002, -42.55131 ], [ -72.50032, -42.55424 ], [ -72.50074, -42.55501 ], [ -72.50205, -42.56122 ], [ -72.50266, -42.56195 ], [ -72.50296, -42.56383 ], [ -72.50288, -42.56702 ], [ -72.5039, -42.56874 ], [ -72.50453, -42.57015 ], [ -72.50446, -42.57138 ], [ -72.50601, -42.57214 ], [ -72.50938, -42.57098 ], [ -72.50992, -42.5703 ], [ -72.51369, -42.56938 ], [ -72.51398, -42.56879 ], [ -72.51483, -42.56836 ], [ -72.51671, -42.56801 ], [ -72.51792, -42.56734 ], [ -72.5196, -42.56758 ], [ -72.52093, -42.56741 ], [ -72.52484, -42.56637 ], [ -72.52611, -42.5665 ], [ -72.52793, -42.56386 ], [ -72.52876, -42.56301 ], [ -72.52885, -42.56181 ], [ -72.52795, -42.56113 ], [ -72.52818, -42.56046 ], [ -72.52907, -42.55983 ], [ -72.5309, -42.55959 ], [ -72.53282, -42.55899 ], [ -72.53436, -42.5575 ], [ -72.53181, -42.55623 ], [ -72.52982, -42.55474 ], [ -72.52721, -42.55313 ], [ -72.52559, -42.55162 ], [ -72.52432, -42.54992 ], [ -72.5227, -42.54877 ], [ -72.5211, -42.54892 ], [ -72.52113, -42.54831 ], [ -72.52015, -42.54698 ], [ -72.51958, -42.54658 ], [ -72.51939, -42.54577 ], [ -72.52052, -42.54524 ], [ -72.52105, -42.54552 ], [ -72.52245, -42.54538 ], [ -72.5195, -42.54397 ], [ -72.50724, -42.53902 ], [ -72.50106, -42.53693 ], [ -72.4989, -42.53706 ], [ -72.49863, -42.53726 ], [ -72.49753, -42.53722 ], [ -72.49721, -42.5375 ], [ -72.49708, -42.53928 ], [ -72.4986, -42.5397 ], [ -72.49888, -42.53987 ], [ -72.49892, -42.54042 ], [ -72.49767, -42.54085 ], [ -72.49702, -42.54135 ], [ -72.49657, -42.54234 ], [ -72.49646, -42.54386 ], [ -72.49616, -42.5442 ], [ -72.49602, -42.54527 ], [ -72.49617, -42.54593 ], [ -72.49692, -42.54666 ], [ -72.49709, -42.54713 ], [ -72.49759, -42.54772 ], [ -72.49789, -42.54775 ] ] ], [ [ [ -72.45249, -42.4869 ], [ -72.44154, -42.48716 ], [ -72.44175, -42.48803 ], [ -72.44234, -42.48875 ], [ -72.44269, -42.49054 ], [ -72.44243, -42.49093 ], [ -72.44231, -42.49167 ], [ -72.44283, -42.49284 ], [ -72.44498, -42.49354 ], [ -72.44754, -42.49688 ], [ -72.44804, -42.49788 ], [ -72.44798, -42.49844 ], [ -72.44635, -42.49935 ], [ -72.44571, -42.50001 ], [ -72.44461, -42.50041 ], [ -72.44481, -42.5005 ], [ -72.4437, -42.50065 ], [ -72.44325, -42.50059 ], [ -72.44289, -42.50028 ], [ -72.44349, -42.50004 ], [ -72.44338, -42.49986 ], [ -72.44378, -42.4998 ], [ -72.44408, -42.49946 ], [ -72.4437, -42.49837 ], [ -72.44209, -42.49735 ], [ -72.44168, -42.49693 ], [ -72.44161, -42.49651 ], [ -72.44193, -42.49557 ], [ -72.44174, -42.4932 ], [ -72.44153, -42.4926 ], [ -72.44107, -42.49224 ], [ -72.44074, -42.49119 ], [ -72.44095, -42.49077 ], [ -72.44092, -42.49025 ], [ -72.43766, -42.48948 ], [ -72.43787, -42.48973 ], [ -72.43784, -42.49 ], [ -72.43976, -42.49188 ], [ -72.44134, -42.49781 ], [ -72.44194, -42.49875 ], [ -72.44285, -42.50076 ], [ -72.44338, -42.50135 ], [ -72.44538, -42.50187 ], [ -72.44861, -42.50388 ], [ -72.44928, -42.50543 ], [ -72.44923, -42.50639 ], [ -72.44949, -42.50849 ], [ -72.44992, -42.50908 ], [ -72.45198, -42.50997 ], [ -72.45892, -42.51188 ], [ -72.4615, -42.51215 ], [ -72.46252, -42.51253 ], [ -72.47408, -42.51837 ], [ -72.47529, -42.51914 ], [ -72.47854, -42.52223 ], [ -72.4799, -42.52331 ], [ -72.4806, -42.52362 ], [ -72.48371, -42.52407 ], [ -72.48707, -42.52507 ], [ -72.48986, -42.52657 ], [ -72.49393, -42.52391 ], [ -72.50382, -42.53688 ], [ -72.50779, -42.53822 ], [ -72.52011, -42.54319 ], [ -72.52497, -42.54549 ], [ -72.52525, -42.54535 ], [ -72.52612, -42.54533 ], [ -72.52753, -42.54567 ], [ -72.52892, -42.54534 ], [ -72.53054, -42.54552 ], [ -72.53353, -42.54534 ], [ -72.53706, -42.54606 ], [ -72.5428, -42.54689 ], [ -72.54933, -42.54615 ], [ -72.55148, -42.5449 ], [ -72.55569, -42.54189 ], [ -72.55801, -42.53974 ], [ -72.5603, -42.53861 ], [ -72.56244, -42.53797 ], [ -72.56533, -42.53637 ], [ -72.56965, -42.53484 ], [ -72.57512, -42.53382 ], [ -72.57602, -42.53344 ], [ -72.57683, -42.53388 ], [ -72.58294, -42.5341 ], [ -72.58503, -42.53377 ], [ -72.58853, -42.53233 ], [ -72.5895, -42.53254 ], [ -72.59154, -42.53218 ], [ -72.59258, -42.53215 ], [ -72.59274, -42.53142 ], [ -72.59351, -42.53073 ], [ -72.59714, -42.53038 ], [ -72.59973, -42.52873 ], [ -72.60185, -42.52672 ], [ -72.60435, -42.52568 ], [ -72.60494, -42.52458 ], [ -72.60583, -42.52467 ], [ -72.60722, -42.5243 ], [ -72.60766, -42.52316 ], [ -72.60861, -42.52198 ], [ -72.61022, -42.52114 ], [ -72.61189, -42.52091 ], [ -72.61374, -42.52008 ], [ -72.59891, -42.51481 ], [ -72.59845, -42.51529 ], [ -72.60459, -42.50605 ], [ -72.60649, -42.50554 ], [ -72.60775, -42.50598 ], [ -72.60805, -42.50623 ], [ -72.61098, -42.50695 ], [ -72.61334, -42.50646 ], [ -72.61453, -42.50652 ], [ -72.61505, -42.50701 ], [ -72.61564, -42.50722 ], [ -72.61607, -42.508 ], [ -72.61803, -42.50819 ], [ -72.61922, -42.50847 ], [ -72.62588, -42.50424 ], [ -72.63805, -42.49097 ], [ -72.66489, -42.47194 ], [ -72.67729, -42.45975 ], [ -72.68557, -42.44846 ], [ -72.69282, -42.43716 ], [ -72.69683, -42.42523 ], [ -72.69569, -42.42054 ], [ -72.69617, -42.41792 ], [ -72.69306, -42.41369 ], [ -72.69122, -42.41238 ], [ -72.68014, -42.41031 ], [ -72.67804, -42.41049 ], [ -72.67658, -42.40847 ], [ -72.67397, -42.40624 ], [ -72.67145, -42.4062 ], [ -72.67075, -42.40671 ], [ -72.668, -42.40693 ], [ -72.66714, -42.40757 ], [ -72.66675, -42.40835 ], [ -72.66357, -42.409 ], [ -72.6626, -42.40811 ], [ -72.65778, -42.40918 ], [ -72.6571, -42.40871 ], [ -72.65592, -42.40718 ], [ -72.6548, -42.40663 ], [ -72.65383, -42.40657 ], [ -72.65365, -42.40587 ], [ -72.65499, -42.40523 ], [ -72.65518, -42.40493 ], [ -72.65471, -42.40413 ], [ -72.65429, -42.40388 ], [ -72.65345, -42.40376 ], [ -72.65143, -42.40398 ], [ -72.65065, -42.40387 ], [ -72.56021, -42.50128 ], [ -72.45682, -42.46515 ], [ -72.4543, -42.46823 ], [ -72.45281, -42.46837 ], [ -72.45102, -42.4676 ], [ -72.44851, -42.46699 ], [ -72.44834, -42.46819 ], [ -72.44795, -42.46913 ], [ -72.44747, -42.4694 ], [ -72.44744, -42.46985 ], [ -72.44843, -42.47015 ], [ -72.44837, -42.4707 ], [ -72.44853, -42.47124 ], [ -72.44908, -42.47169 ], [ -72.45003, -42.47165 ], [ -72.45174, -42.47105 ], [ -72.45358, -42.47012 ], [ -72.45766, -42.47153 ], [ -72.45639, -42.47824 ], [ -72.45457, -42.48477 ], [ -72.45507, -42.48653 ], [ -72.45678, -42.48751 ], [ -72.45249, -42.4869 ] ] ], [ [ [ -72.44829, -43.00002 ], [ -72.44849, -43.00096 ], [ -72.4493, -43.00186 ], [ -72.45001, -43.00218 ], [ -72.4513, -43.00311 ], [ -72.44934, -43.00136 ], [ -72.44831, -42.99998 ], [ -72.44718, -42.99937 ], [ -72.44829, -43.00002 ] ] ], [ [ [ -72.4458, -42.99858 ], [ -72.44634, -42.99898 ], [ -72.44718, -42.99937 ], [ -72.4458, -42.99858 ] ] ], [ [ [ -72.44273, -42.99759 ], [ -72.44356, -42.9982 ], [ -72.44284, -42.99843 ], [ -72.44459, -42.99845 ], [ -72.44535, -42.99831 ], [ -72.4458, -42.99858 ], [ -72.44518, -42.9982 ], [ -72.44268, -42.99724 ], [ -72.44273, -42.99759 ] ] ], [ [ [ -72.435, -42.48809 ], [ -72.43459, -42.48673 ], [ -72.43472, -42.48771 ], [ -72.435, -42.48809 ] ] ], [ [ [ -72.41806, -42.44523 ], [ -72.4188, -42.44417 ], [ -72.41879, -42.44403 ], [ -72.41812, -42.44496 ], [ -72.41806, -42.44523 ] ] ], [ [ [ -72.41774, -42.4338 ], [ -72.41798, -42.43496 ], [ -72.41886, -42.43591 ], [ -72.41873, -42.43538 ], [ -72.4192, -42.43484 ], [ -72.41929, -42.43446 ], [ -72.41826, -42.43367 ], [ -72.41822, -42.43331 ], [ -72.41883, -42.43233 ], [ -72.41793, -42.43318 ], [ -72.41774, -42.4338 ] ] ], [ [ [ -72.4209, -42.42677 ], [ -72.42118, -42.42628 ], [ -72.42169, -42.42589 ], [ -72.42248, -42.42413 ], [ -72.42226, -42.42254 ], [ -72.42124, -42.42145 ], [ -72.42075, -42.42052 ], [ -72.42046, -42.42369 ], [ -72.4209, -42.42677 ] ] ], [ [ [ -72.38969, -43.06511 ], [ -72.39008, -43.0646 ], [ -72.3891, -43.06448 ], [ -72.38969, -43.06511 ] ] ], [ [ [ -72.41066, -42.97047 ], [ -72.41062, -42.97076 ], [ -72.41138, -42.97243 ], [ -72.41067, -42.97078 ], [ -72.41066, -42.97047 ] ] ], [ [ [ -72.37829, -42.93736 ], [ -72.37961, -42.93613 ], [ -72.37987, -42.93552 ], [ -72.37954, -42.93396 ], [ -72.37989, -42.9333 ], [ -72.37939, -42.93118 ], [ -72.37971, -42.9301 ], [ -72.38076, -42.92901 ], [ -72.38099, -42.92814 ], [ -72.38093, -42.92774 ], [ -72.38043, -42.927 ], [ -72.38039, -42.92628 ], [ -72.38111, -42.92529 ], [ -72.38066, -42.92461 ], [ -72.38036, -42.92365 ], [ -72.37978, -42.92313 ], [ -72.3796, -42.92257 ], [ -72.37983, -42.9223 ], [ -72.38091, -42.92203 ], [ -72.38272, -42.92093 ], [ -72.38445, -42.92055 ], [ -72.38572, -42.91963 ], [ -72.38588, -42.91893 ], [ -72.3859, -42.91807 ], [ -72.38665, -42.91408 ], [ -72.38523, -42.91352 ], [ -72.38403, -42.91172 ], [ -72.38412, -42.91122 ], [ -72.38301, -42.90881 ], [ -72.38235, -42.90786 ], [ -72.38134, -42.90723 ], [ -72.38152, -42.90655 ], [ -72.38199, -42.9059 ], [ -72.38179, -42.90432 ], [ -72.38086, -42.90363 ], [ -72.38024, -42.90287 ], [ -72.37963, -42.90161 ], [ -72.37952, -42.90092 ], [ -72.37978, -42.90033 ], [ -72.38045, -42.89987 ], [ -72.38523, -42.89825 ], [ -72.38435, -42.89796 ], [ -72.38246, -42.89558 ], [ -72.38324, -42.89416 ], [ -72.38324, -42.8935 ], [ -72.38504, -42.89167 ], [ -72.38535, -42.89019 ], [ -72.38393, -42.88918 ], [ -72.38318, -42.88829 ], [ -72.38253, -42.88619 ], [ -72.38219, -42.88583 ], [ -72.38129, -42.88513 ], [ -72.37964, -42.88427 ], [ -72.37942, -42.88399 ], [ -72.37772, -42.88351 ], [ -72.37631, -42.88382 ], [ -72.37306, -42.88368 ], [ -72.37269, -42.88333 ], [ -72.37055, -42.88247 ], [ -72.36618, -42.883 ], [ -72.36378, -42.88386 ], [ -72.36205, -42.88546 ], [ -72.3604, -42.88672 ], [ -72.35894, -42.88836 ], [ -72.35774, -42.8892 ], [ -72.35629, -42.89056 ], [ -72.35493, -42.89078 ], [ -72.35399, -42.89065 ], [ -72.35568, -42.89736 ], [ -72.3553, -42.89787 ], [ -72.35439, -42.89831 ], [ -72.34864, -42.89956 ], [ -72.34586, -42.90076 ], [ -72.34495, -42.90151 ], [ -72.3512, -42.91955 ], [ -72.36612, -42.96299 ], [ -72.398, -42.96378 ], [ -72.39735, -42.96214 ], [ -72.39469, -42.96083 ], [ -72.39368, -42.95823 ], [ -72.3934, -42.95421 ], [ -72.39144, -42.95381 ], [ -72.39008, -42.95326 ], [ -72.38697, -42.95104 ], [ -72.38513, -42.94858 ], [ -72.38486, -42.94678 ], [ -72.38404, -42.94517 ], [ -72.38213, -42.94428 ], [ -72.37898, -42.94374 ], [ -72.37727, -42.94411 ], [ -72.37281, -42.94456 ], [ -72.37381, -42.94308 ], [ -72.37512, -42.94186 ], [ -72.37557, -42.94123 ], [ -72.37575, -42.94078 ], [ -72.37558, -42.94022 ], [ -72.37447, -42.93901 ], [ -72.37526, -42.93853 ], [ -72.37707, -42.93804 ], [ -72.37829, -42.93736 ] ] ], [ [ [ -72.33271, -42.90957 ], [ -72.33292, -42.91102 ], [ -72.33265, -42.91143 ], [ -72.32849, -42.91159 ], [ -72.32417, -42.91272 ], [ -72.32109, -42.91417 ], [ -72.31193, -42.91751 ], [ -72.30798, -42.91941 ], [ -72.30438, -42.92091 ], [ -72.3024, -42.92141 ], [ -72.30162, -42.92182 ], [ -72.3012, -42.92278 ], [ -72.30044, -42.92322 ], [ -72.2984, -42.92356 ], [ -72.29636, -42.92446 ], [ -72.2937, -42.92513 ], [ -72.28949, -42.92701 ], [ -72.28853, -42.92777 ], [ -72.28748, -42.92906 ], [ -72.28728, -42.93177 ], [ -72.2866, -42.93468 ], [ -72.28644, -42.93469 ], [ -72.28631, -42.93509 ], [ -72.28623, -42.93593 ], [ -72.28557, -42.93677 ], [ -72.28479, -42.93821 ], [ -72.28481, -42.93877 ], [ -72.28514, -42.93932 ], [ -72.28562, -42.9408 ], [ -72.28567, -42.94247 ], [ -72.28323, -42.94236 ], [ -72.28269, -42.94152 ], [ -72.28238, -42.94093 ], [ -72.28243, -42.94047 ], [ -72.28279, -42.9401 ], [ -72.283, -42.93851 ], [ -72.28265, -42.93692 ], [ -72.26494, -42.93039 ], [ -72.23919, -42.93133 ], [ -72.23661, -42.92207 ], [ -72.25372, -42.9169 ], [ -72.25472, -42.91734 ], [ -72.25618, -42.91709 ], [ -72.25836, -42.91704 ], [ -72.25918, -42.91727 ], [ -72.2612, -42.91744 ], [ -72.28047, -42.91601 ], [ -72.28091, -42.91549 ], [ -72.28285, -42.91438 ], [ -72.28519, -42.91376 ], [ -72.28656, -42.91313 ], [ -72.28956, -42.91249 ], [ -72.29632, -42.90963 ], [ -72.29683, -42.90903 ], [ -72.29889, -42.90791 ], [ -72.30014, -42.90681 ], [ -72.30122, -42.90632 ], [ -72.30163, -42.90587 ], [ -72.30256, -42.90554 ], [ -72.30257, -42.90541 ], [ -72.32016, -42.89886 ], [ -72.32365, -42.89028 ], [ -72.30678, -42.88577 ], [ -72.3053, -42.87921 ], [ -72.29074, -42.88105 ], [ -72.26413, -42.87865 ], [ -72.26166, -42.87151 ], [ -72.2616, -42.87 ], [ -72.26109, -42.86846 ], [ -72.26059, -42.86781 ], [ -72.24878, -42.86772 ], [ -72.23154, -42.86361 ], [ -72.23238, -42.86329 ], [ -72.23262, -42.86294 ], [ -72.21046, -42.86156 ], [ -72.21193, -42.85457 ], [ -72.21159, -42.85445 ], [ -72.21104, -42.85393 ], [ -72.211, -42.85346 ], [ -72.21195, -42.85319 ], [ -72.21178, -42.8529 ], [ -72.2113, -42.85277 ], [ -72.20919, -42.85111 ], [ -72.20806, -42.8509 ], [ -72.20819, -42.84954 ], [ -72.20782, -42.84884 ], [ -72.20728, -42.84861 ], [ -72.20621, -42.84893 ], [ -72.20592, -42.84799 ], [ -72.20741, -42.846 ], [ -72.23928, -42.85544 ], [ -72.23906, -42.85366 ], [ -72.26472, -42.85935 ], [ -72.26418, -42.85992 ], [ -72.26357, -42.86017 ], [ -72.26188, -42.86046 ], [ -72.26121, -42.8617 ], [ -72.26778, -42.86892 ], [ -72.29635, -42.87077 ], [ -72.30715, -42.8706 ], [ -72.33096, -42.8752 ], [ -72.32834, -42.87878 ], [ -72.33005, -42.87801 ], [ -72.331, -42.87792 ], [ -72.33194, -42.87812 ], [ -72.33236, -42.87845 ], [ -72.33267, -42.87905 ], [ -72.33267, -42.87957 ], [ -72.33195, -42.88114 ], [ -72.32996, -42.88154 ], [ -72.3296, -42.88184 ], [ -72.32947, -42.88236 ], [ -72.33024, -42.88294 ], [ -72.33309, -42.88322 ], [ -72.33553, -42.88454 ], [ -72.33668, -42.88492 ], [ -72.33701, -42.88515 ], [ -72.33725, -42.88562 ], [ -72.33665, -42.88688 ], [ -72.33685, -42.88743 ], [ -72.33712, -42.88758 ], [ -72.33835, -42.88773 ], [ -72.34117, -42.88759 ], [ -72.34219, -42.88777 ], [ -72.34276, -42.88808 ], [ -72.34327, -42.88928 ], [ -72.34176, -42.8898 ], [ -72.34136, -42.89017 ], [ -72.34244, -42.89085 ], [ -72.34296, -42.8909 ], [ -72.34355, -42.89027 ], [ -72.34551, -42.88955 ], [ -72.35029, -42.88935 ], [ -72.35155, -42.88879 ], [ -72.35088, -42.8886 ], [ -72.35002, -42.88802 ], [ -72.35043, -42.88564 ], [ -72.35091, -42.88496 ], [ -72.35108, -42.88426 ], [ -72.35077, -42.88375 ], [ -72.35159, -42.88317 ], [ -72.35142, -42.88265 ], [ -72.35099, -42.88244 ], [ -72.35099, -42.8819 ], [ -72.35142, -42.88093 ], [ -72.35067, -42.87939 ], [ -72.35014, -42.87867 ], [ -72.34994, -42.87783 ], [ -72.35107, -42.87661 ], [ -72.3515, -42.87582 ], [ -72.35115, -42.87505 ], [ -72.35112, -42.87442 ], [ -72.3523, -42.87299 ], [ -72.35366, -42.87249 ], [ -72.35425, -42.87183 ], [ -72.35103, -42.87097 ], [ -72.37465, -42.85563 ], [ -72.374, -42.85458 ], [ -72.32645, -42.85407 ], [ -72.31614, -42.81844 ], [ -72.31626, -42.81868 ], [ -72.36561, -42.81828 ], [ -72.37406, -42.84961 ], [ -72.38864, -42.86172 ], [ -72.3769, -42.88295 ], [ -72.37791, -42.88292 ], [ -72.37941, -42.88356 ], [ -72.38717, -42.86956 ], [ -72.3912, -42.8629 ], [ -72.39266, -42.86589 ], [ -72.42407, -42.8815 ], [ -72.42415, -42.88174 ], [ -72.42353, -42.88197 ], [ -72.42306, -42.88251 ], [ -72.42123, -42.88625 ], [ -72.41969, -42.88758 ], [ -72.41905, -42.88836 ], [ -72.41697, -42.88901 ], [ -72.41549, -42.88974 ], [ -72.4139, -42.89151 ], [ -72.40984, -42.89123 ], [ -72.40571, -42.89063 ], [ -72.4054, -42.90141 ], [ -72.40555, -42.90251 ], [ -72.40471, -42.90542 ], [ -72.40451, -42.9078 ], [ -72.40517, -42.91066 ], [ -72.40507, -42.91483 ], [ -72.40405, -42.91731 ], [ -72.40397, -42.91817 ], [ -72.40515, -42.91754 ], [ -72.40666, -42.91714 ], [ -72.40816, -42.91744 ], [ -72.4113, -42.91765 ], [ -72.4121, -42.91799 ], [ -72.41172, -42.91942 ], [ -72.41005, -42.92132 ], [ -72.41006, -42.92715 ], [ -72.4029, -42.93553 ], [ -72.40079, -42.93826 ], [ -72.39284, -42.94099 ], [ -72.39447, -42.94358 ], [ -72.3972, -42.94898 ], [ -72.39869, -42.95343 ], [ -72.40121, -42.95336 ], [ -72.40419, -42.95633 ], [ -72.40776, -42.95824 ], [ -72.41078, -42.95812 ], [ -72.41163, -42.95753 ], [ -72.41231, -42.9587 ], [ -72.41232, -42.95993 ], [ -72.4127, -42.96075 ], [ -72.41187, -42.96315 ], [ -72.41124, -42.96687 ], [ -72.41095, -42.97126 ], [ -72.41163, -42.97261 ], [ -72.41152, -42.97387 ], [ -72.41166, -42.97372 ], [ -72.4117, -42.97388 ], [ -72.41152, -42.97419 ], [ -72.41189, -42.97477 ], [ -72.41185, -42.97573 ], [ -72.4127, -42.97719 ], [ -72.41215, -42.97794 ], [ -72.41226, -42.97842 ], [ -72.41296, -42.98036 ], [ -72.41373, -42.98076 ], [ -72.4141, -42.98115 ], [ -72.41377, -42.98296 ], [ -72.41479, -42.98356 ], [ -72.4149, -42.98395 ], [ -72.41515, -42.98414 ], [ -72.41524, -42.9853 ], [ -72.41599, -42.98608 ], [ -72.41714, -42.98668 ], [ -72.41843, -42.98826 ], [ -72.42232, -42.98888 ], [ -72.42448, -42.98945 ], [ -72.42723, -42.98984 ], [ -72.43539, -42.99148 ], [ -72.4373, -42.99245 ], [ -72.43826, -42.99358 ], [ -72.43956, -42.9937 ], [ -72.43993, -42.99429 ], [ -72.44044, -42.99468 ], [ -72.44042, -42.99501 ], [ -72.44397, -42.99676 ], [ -72.44586, -42.99744 ], [ -72.44714, -42.99829 ], [ -72.44877, -42.99902 ], [ -72.44932, -42.99947 ], [ -72.45033, -43.00082 ], [ -72.45243, -43.00276 ], [ -72.45267, -43.00318 ], [ -72.45277, -43.00402 ], [ -72.4534, -43.00587 ], [ -72.45399, -43.00641 ], [ -72.45608, -43.00688 ], [ -72.45791, -43.00633 ], [ -72.45896, -43.0063 ], [ -72.4607, -43.0066 ], [ -72.46267, -43.00727 ], [ -72.46527, -43.00786 ], [ -72.46688, -43.00855 ], [ -72.46895, -43.01019 ], [ -72.472, -43.01149 ], [ -72.47282, -43.01125 ], [ -72.47261, -43.00998 ], [ -72.47266, -43.00891 ], [ -72.4729, -43.00848 ], [ -72.47346, -43.00809 ], [ -72.47488, -43.00801 ], [ -72.47723, -43.00826 ], [ -72.47972, -43.00897 ], [ -72.48106, -43.00919 ], [ -72.48107, -43.0082 ], [ -72.47975, -43.00723 ], [ -72.47948, -43.00683 ], [ -72.47943, -43.0061 ], [ -72.47981, -43.00567 ], [ -72.47988, -43.00507 ], [ -72.47923, -43.00449 ], [ -72.47681, -43.00371 ], [ -72.47562, -43.00182 ], [ -72.4756, -42.99904 ], [ -72.47531, -42.99755 ], [ -72.47542, -42.99508 ], [ -72.47532, -42.9942 ], [ -72.4759, -42.99227 ], [ -72.47572, -42.99133 ], [ -72.47619, -42.98917 ], [ -72.47782, -42.98902 ], [ -72.47954, -42.98848 ], [ -72.48054, -42.9863 ], [ -72.48047, -42.98496 ], [ -72.48076, -42.9841 ], [ -72.48157, -42.98345 ], [ -72.4825, -42.98308 ], [ -72.48305, -42.98243 ], [ -72.48324, -42.98099 ], [ -72.48535, -42.97346 ], [ -72.48768, -42.97146 ], [ -72.48849, -42.97006 ], [ -72.48857, -42.96893 ], [ -72.488, -42.96688 ], [ -72.48801, -42.96548 ], [ -72.48834, -42.96435 ], [ -72.48954, -42.96325 ], [ -72.48988, -42.96205 ], [ -72.48934, -42.96098 ], [ -72.4897, -42.95937 ], [ -72.48975, -42.95817 ], [ -72.48806, -42.95707 ], [ -72.48654, -42.95676 ], [ -72.48609, -42.95607 ], [ -72.48607, -42.95531 ], [ -72.48681, -42.95468 ], [ -72.48855, -42.9543 ], [ -72.48952, -42.95315 ], [ -72.49031, -42.9528 ], [ -72.49053, -42.95236 ], [ -72.4904, -42.95171 ], [ -72.49125, -42.94905 ], [ -72.49174, -42.9483 ], [ -72.49323, -42.94748 ], [ -72.49326, -42.94701 ], [ -72.49302, -42.94629 ], [ -72.49272, -42.94594 ], [ -72.49037, -42.94436 ], [ -72.49073, -42.94281 ], [ -72.49029, -42.94166 ], [ -72.49146, -42.94069 ], [ -72.49192, -42.93889 ], [ -72.49271, -42.93749 ], [ -72.49143, -42.93611 ], [ -72.49144, -42.93411 ], [ -72.49062, -42.93212 ], [ -72.49069, -42.92902 ], [ -72.49158, -42.92513 ], [ -72.49121, -42.92354 ], [ -72.49042, -42.92133 ], [ -72.4906, -42.91943 ], [ -72.49036, -42.91702 ], [ -72.48739, -42.91488 ], [ -72.48631, -42.9122 ], [ -72.48586, -42.90786 ], [ -72.48512, -42.90421 ], [ -72.48557, -42.8998 ], [ -72.48693, -42.89657 ], [ -72.48864, -42.8904 ], [ -72.48986, -42.88825 ], [ -72.49212, -42.88355 ], [ -72.49653, -42.8792 ], [ -72.50273, -42.87739 ], [ -72.50648, -42.87687 ], [ -72.50885, -42.87673 ], [ -72.50965, -42.87633 ], [ -72.51118, -42.87653 ], [ -72.51478, -42.87556 ], [ -72.55075, -42.95711 ], [ -72.55853, -42.95677 ], [ -72.57803, -42.95627 ], [ -72.60487, -42.95512 ], [ -72.6055, -42.95879 ], [ -72.60559, -42.96058 ], [ -72.60612, -42.9606 ], [ -72.60648, -42.95978 ], [ -72.60715, -42.95915 ], [ -72.60797, -42.95797 ], [ -72.60792, -42.9577 ], [ -72.60761, -42.95746 ], [ -72.60728, -42.95654 ], [ -72.60769, -42.95471 ], [ -72.60801, -42.9543 ], [ -72.60814, -42.95384 ], [ -72.60719, -42.95268 ], [ -72.6074, -42.95242 ], [ -72.60928, -42.9524 ], [ -72.61134, -42.95216 ], [ -72.61166, -42.95244 ], [ -72.61174, -42.95306 ], [ -72.61148, -42.95408 ], [ -72.61165, -42.9546 ], [ -72.61194, -42.95521 ], [ -72.6134, -42.95656 ], [ -72.61548, -42.95754 ], [ -72.61642, -42.95788 ], [ -72.61753, -42.95805 ], [ -72.61809, -42.95837 ], [ -72.61876, -42.95796 ], [ -72.61895, -42.95751 ], [ -72.6193, -42.95732 ], [ -72.62156, -42.95823 ], [ -72.62415, -42.95846 ], [ -72.62271, -42.95492 ], [ -72.6246, -42.95472 ], [ -72.62692, -42.95393 ], [ -72.62797, -42.95101 ], [ -72.62832, -42.95049 ], [ -72.62902, -42.95016 ], [ -72.62683, -42.94838 ], [ -72.62914, -42.94307 ], [ -72.63399, -42.93486 ], [ -72.63453, -42.93024 ], [ -72.63894, -42.92523 ], [ -72.64139, -42.92144 ], [ -72.64278, -42.91795 ], [ -72.64219, -42.91609 ], [ -72.64428, -42.91485 ], [ -72.6474, -42.91349 ], [ -72.64923, -42.91042 ], [ -72.66582, -42.9095 ], [ -72.66176, -42.88658 ], [ -72.67607, -42.87384 ], [ -72.68529, -42.87369 ], [ -72.70771, -42.8794 ], [ -72.75012, -42.84893 ], [ -72.74894, -42.83879 ], [ -72.77963, -42.83955 ], [ -72.79139, -42.84194 ], [ -72.79073, -42.84078 ], [ -72.7874, -42.83696 ], [ -72.77865, -42.82739 ], [ -72.77647, -42.82607 ], [ -72.77063, -42.82336 ], [ -72.76779, -42.823 ], [ -72.76083, -42.82255 ], [ -72.7485, -42.82519 ], [ -72.74628, -42.82534 ], [ -72.73923, -42.82531 ], [ -72.72731, -42.82379 ], [ -72.71142, -42.82152 ], [ -72.70835, -42.82071 ], [ -72.69258, -42.81487 ], [ -72.65864, -42.80653 ], [ -72.64465, -42.80049 ], [ -72.63814, -42.79929 ], [ -72.63699, -42.79869 ], [ -72.623, -42.78052 ], [ -72.62112, -42.77682 ], [ -72.61832, -42.77541 ], [ -72.61763, -42.77478 ], [ -72.61574, -42.77118 ], [ -72.60975, -42.76332 ], [ -72.60902, -42.76089 ], [ -72.60741, -42.75918 ], [ -72.60623, -42.75732 ], [ -72.60498, -42.75575 ], [ -72.60454, -42.75405 ], [ -72.60295, -42.75175 ], [ -72.6017, -42.7505 ], [ -72.60144, -42.74994 ], [ -72.60144, -42.74927 ], [ -72.60116, -42.74894 ], [ -72.60107, -42.74854 ], [ -72.60033, -42.74783 ], [ -72.59856, -42.74541 ], [ -72.59615, -42.74365 ], [ -72.59477, -42.74115 ], [ -72.59446, -42.74043 ], [ -72.59441, -42.73986 ], [ -72.59505, -42.73852 ], [ -72.59548, -42.73812 ], [ -72.59678, -42.73744 ], [ -72.59766, -42.73586 ], [ -72.59889, -42.73533 ], [ -72.59766, -42.73301 ], [ -72.59774, -42.72994 ], [ -72.59706, -42.72821 ], [ -72.59717, -42.72785 ], [ -72.59749, -42.72758 ], [ -72.59931, -42.72697 ], [ -72.59898, -42.72577 ], [ -72.59769, -42.7242 ], [ -72.59582, -42.72283 ], [ -72.59369, -42.72299 ], [ -72.59314, -42.7229 ], [ -72.59143, -42.72169 ], [ -72.59043, -42.7212 ], [ -72.58986, -42.72065 ], [ -72.58814, -42.72017 ], [ -72.58779, -42.71979 ], [ -72.58772, -42.71924 ], [ -72.58628, -42.71947 ], [ -72.58556, -42.7193 ], [ -72.58509, -42.71896 ], [ -72.5807, -42.71406 ], [ -72.57939, -42.7102 ], [ -72.57486, -42.7048 ], [ -72.57388, -42.70334 ], [ -72.57288, -42.70094 ], [ -72.57299, -42.69781 ], [ -72.57321, -42.69739 ], [ -72.57422, -42.69634 ], [ -72.57539, -42.69226 ], [ -72.57496, -42.68934 ], [ -72.57493, -42.68636 ], [ -72.57501, -42.68394 ], [ -72.57528, -42.68314 ], [ -72.5752, -42.68205 ], [ -72.57553, -42.68157 ], [ -72.57559, -42.68093 ], [ -72.57615, -42.68032 ], [ -72.57576, -42.67755 ], [ -72.57588, -42.67603 ], [ -72.57612, -42.67557 ], [ -72.57739, -42.67452 ], [ -72.5792, -42.67416 ], [ -72.57943, -42.66184 ], [ -72.57999, -42.66026 ], [ -72.57956, -42.65716 ], [ -72.57957, -42.647 ], [ -72.57945, -42.64579 ], [ -72.57918, -42.64493 ], [ -72.57916, -42.64317 ], [ -72.57963, -42.64101 ], [ -72.57999, -42.64009 ], [ -72.58796, -42.62771 ], [ -72.58859, -42.62596 ], [ -72.5889, -42.62412 ], [ -72.58913, -42.62364 ], [ -72.589, -42.62245 ], [ -72.58866, -42.62146 ], [ -72.5843, -42.61488 ], [ -72.58348, -42.61413 ], [ -72.58061, -42.61259 ], [ -72.57985, -42.6113 ], [ -72.5797, -42.61073 ], [ -72.58034, -42.6088 ], [ -72.58088, -42.60814 ], [ -72.58265, -42.60773 ], [ -72.58476, -42.60759 ], [ -72.58511, -42.60728 ], [ -72.5871, -42.60241 ], [ -72.59004, -42.59353 ], [ -72.59065, -42.59111 ], [ -72.58999, -42.58967 ], [ -72.58963, -42.58934 ], [ -72.58902, -42.58917 ], [ -72.55194, -42.58249 ], [ -72.55087, -42.58256 ], [ -72.54923, -42.58237 ], [ -72.54762, -42.58274 ], [ -72.54645, -42.5828 ], [ -72.54522, -42.58318 ], [ -72.54362, -42.58325 ], [ -72.54204, -42.58415 ], [ -72.5415, -42.58483 ], [ -72.54105, -42.58514 ], [ -72.53948, -42.58537 ], [ -72.53699, -42.58626 ], [ -72.53528, -42.58629 ], [ -72.53371, -42.58657 ], [ -72.53176, -42.58644 ], [ -72.5302, -42.58715 ], [ -72.52842, -42.58728 ], [ -72.52718, -42.58811 ], [ -72.5254, -42.58878 ], [ -72.52326, -42.59037 ], [ -72.52239, -42.59068 ], [ -72.52055, -42.59102 ], [ -72.51943, -42.59172 ], [ -72.51796, -42.59221 ], [ -72.51677, -42.59313 ], [ -72.51522, -42.5938 ], [ -72.51432, -42.59471 ], [ -72.51292, -42.59555 ], [ -72.51176, -42.5968 ], [ -72.50988, -42.59803 ], [ -72.50892, -42.59915 ], [ -72.50799, -42.59973 ], [ -72.50736, -42.60088 ], [ -72.50678, -42.60147 ], [ -72.5067, -42.6025 ], [ -72.50766, -42.60327 ], [ -72.50793, -42.60376 ], [ -72.50757, -42.60525 ], [ -72.50775, -42.60629 ], [ -72.50748, -42.60692 ], [ -72.50638, -42.60798 ], [ -72.50679, -42.60963 ], [ -72.50672, -42.61015 ], [ -72.5063, -42.61057 ], [ -72.50561, -42.61076 ], [ -72.50221, -42.61022 ], [ -72.49991, -42.60912 ], [ -72.49773, -42.6093 ], [ -72.4967, -42.60917 ], [ -72.49576, -42.60878 ], [ -72.49471, -42.60794 ], [ -72.49404, -42.6083 ], [ -72.4921, -42.60879 ], [ -72.46896, -42.59904 ], [ -72.4705, -42.59818 ], [ -72.47303, -42.5957 ], [ -72.47522, -42.59564 ], [ -72.47598, -42.59521 ], [ -72.47647, -42.59436 ], [ -72.47629, -42.59383 ], [ -72.47568, -42.59329 ], [ -72.47702, -42.59377 ], [ -72.47764, -42.5936 ], [ -72.4778, -42.59287 ], [ -72.47743, -42.59188 ], [ -72.47741, -42.59112 ], [ -72.47889, -42.58961 ], [ -72.48226, -42.58403 ], [ -72.48439, -42.58151 ], [ -72.48473, -42.58082 ], [ -72.48576, -42.58028 ], [ -72.48631, -42.57952 ], [ -72.48816, -42.57831 ], [ -72.48852, -42.57724 ], [ -72.49025, -42.57457 ], [ -72.49166, -42.57317 ], [ -72.49127, -42.57185 ], [ -72.49151, -42.57037 ], [ -72.49072, -42.56842 ], [ -72.49095, -42.56731 ], [ -72.49041, -42.56665 ], [ -72.49019, -42.56545 ], [ -72.48967, -42.5648 ], [ -72.4893, -42.56378 ], [ -72.48945, -42.55957 ], [ -72.47974, -42.56242 ], [ -72.47903, -42.55889 ], [ -72.47415, -42.54242 ], [ -72.47161, -42.5327 ], [ -72.48036, -42.52927 ], [ -72.48126, -42.52964 ], [ -72.48219, -42.53028 ], [ -72.48243, -42.53029 ], [ -72.48291, -42.52991 ], [ -72.48386, -42.52972 ], [ -72.48633, -42.53045 ], [ -72.48709, -42.53039 ], [ -72.48837, -42.52982 ], [ -72.48924, -42.52992 ], [ -72.48843, -42.52919 ], [ -72.48765, -42.52783 ], [ -72.48865, -42.52703 ], [ -72.48654, -42.52588 ], [ -72.48335, -42.52493 ], [ -72.48022, -42.52448 ], [ -72.47915, -42.52402 ], [ -72.47761, -42.52282 ], [ -72.47437, -42.51972 ], [ -72.47332, -42.51907 ], [ -72.46186, -42.51329 ], [ -72.46113, -42.51301 ], [ -72.45909, -42.51288 ], [ -72.45155, -42.51081 ], [ -72.44906, -42.50972 ], [ -72.44856, -42.50923 ], [ -72.4483, -42.50867 ], [ -72.44801, -42.50644 ], [ -72.44807, -42.50557 ], [ -72.44754, -42.50434 ], [ -72.44476, -42.50265 ], [ -72.4442, -42.50253 ], [ -72.4426, -42.50207 ], [ -72.44177, -42.50117 ], [ -72.4408, -42.49906 ], [ -72.44017, -42.49806 ], [ -72.43861, -42.4922 ], [ -72.43588, -42.48968 ], [ -72.43466, -42.48917 ], [ -72.43388, -42.48852 ], [ -72.43335, -42.48752 ], [ -72.43336, -42.48604 ], [ -72.43192, -42.4843 ], [ -72.42959, -42.48324 ], [ -72.42807, -42.48297 ], [ -72.42708, -42.48261 ], [ -72.42604, -42.48195 ], [ -72.42469, -42.48067 ], [ -72.42403, -42.48043 ], [ -72.42347, -42.48045 ], [ -72.41543, -42.48358 ], [ -72.40876, -42.48531 ], [ -72.40874, -42.48619 ], [ -72.407, -42.4863 ], [ -72.40564, -42.48673 ], [ -72.40434, -42.48741 ], [ -72.40263, -42.48783 ], [ -72.40074, -42.48897 ], [ -72.39728, -42.49073 ], [ -72.39571, -42.49125 ], [ -72.39321, -42.49164 ], [ -72.38622, -42.49422 ], [ -72.38467, -42.49503 ], [ -72.38164, -42.49477 ], [ -72.37379, -42.49211 ], [ -72.37389, -42.48957 ], [ -72.36623, -42.49076 ], [ -72.37138, -42.49266 ], [ -72.36775, -42.49578 ], [ -72.3624, -42.49704 ], [ -72.3563, -42.49588 ], [ -72.35055, -42.49418 ], [ -72.34705, -42.49677 ], [ -72.35019, -42.49756 ], [ -72.35084, -42.50266 ], [ -72.34147, -42.50271 ], [ -72.33391, -42.50212 ], [ -72.32512, -42.4999 ], [ -72.30873, -42.49267 ], [ -72.30276, -42.48895 ], [ -72.30059, -42.48857 ], [ -72.29797, -42.4884 ], [ -72.29651, -42.48872 ], [ -72.28569, -42.49301 ], [ -72.28136, -42.49266 ], [ -72.27651, -42.49468 ], [ -72.27446, -42.49509 ], [ -72.27157, -42.4953 ], [ -72.26289, -42.49823 ], [ -72.2597, -42.4986 ], [ -72.25555, -42.49996 ], [ -72.25361, -42.50125 ], [ -72.25358, -42.50349 ], [ -72.25585, -42.50696 ], [ -72.25765, -42.5144 ], [ -72.26066, -42.52343 ], [ -72.26296, -42.52623 ], [ -72.26393, -42.52821 ], [ -72.26544, -42.53004 ], [ -72.26914, -42.53215 ], [ -72.26988, -42.53429 ], [ -72.27086, -42.53605 ], [ -72.27225, -42.53709 ], [ -72.27334, -42.53997 ], [ -72.27448, -42.54162 ], [ -72.27773, -42.54181 ], [ -72.27967, -42.54231 ], [ -72.28036, -42.544 ], [ -72.28284, -42.54608 ], [ -72.28593, -42.54811 ], [ -72.28778, -42.54911 ], [ -72.29145, -42.5502 ], [ -72.29323, -42.55103 ], [ -72.2932, -42.55181 ], [ -72.29024, -42.55197 ], [ -72.28732, -42.55106 ], [ -72.28612, -42.55011 ], [ -72.28553, -42.55057 ], [ -72.28404, -42.55091 ], [ -72.28171, -42.55078 ], [ -72.28133, -42.55061 ], [ -72.27992, -42.54902 ], [ -72.27976, -42.54815 ], [ -72.28025, -42.54746 ], [ -72.28013, -42.54653 ], [ -72.27688, -42.5456 ], [ -72.27084, -42.54507 ], [ -72.26714, -42.54319 ], [ -72.26657, -42.54054 ], [ -72.26438, -42.53696 ], [ -72.25936, -42.53404 ], [ -72.25661, -42.53123 ], [ -72.25863, -42.52837 ], [ -72.25949, -42.52755 ], [ -72.25844, -42.52579 ], [ -72.25572, -42.5255 ], [ -72.25252, -42.52604 ], [ -72.25116, -42.52416 ], [ -72.2509, -42.5232 ], [ -72.25142, -42.52164 ], [ -72.25311, -42.52129 ], [ -72.2539, -42.52036 ], [ -72.25129, -42.51598 ], [ -72.25056, -42.51205 ], [ -72.25111, -42.50993 ], [ -72.252, -42.5085 ], [ -72.25383, -42.50826 ], [ -72.25403, -42.50709 ], [ -72.25098, -42.5059 ], [ -72.24964, -42.50374 ], [ -72.24896, -42.50198 ], [ -72.24943, -42.49981 ], [ -72.24922, -42.49773 ], [ -72.24883, -42.49616 ], [ -72.24889, -42.49487 ], [ -72.25144, -42.49538 ], [ -72.25719, -42.4954 ], [ -72.25802, -42.49554 ], [ -72.25905, -42.49612 ], [ -72.26027, -42.49604 ], [ -72.26256, -42.49385 ], [ -72.26364, -42.49164 ], [ -72.26344, -42.49102 ], [ -72.26586, -42.49085 ], [ -72.26788, -42.49146 ], [ -72.2705, -42.49376 ], [ -72.27161, -42.4944 ], [ -72.27381, -42.49423 ], [ -72.27546, -42.49298 ], [ -72.27835, -42.48729 ], [ -72.2796, -42.48679 ], [ -72.27933, -42.48684 ], [ -72.27674, -42.4842 ], [ -72.27803, -42.48341 ], [ -72.27865, -42.48211 ], [ -72.27908, -42.48069 ], [ -72.28133, -42.48011 ], [ -72.28236, -42.47931 ], [ -72.28521, -42.47952 ], [ -72.28683, -42.4789 ], [ -72.28884, -42.47947 ], [ -72.29235, -42.47892 ], [ -72.29303, -42.47776 ], [ -72.29252, -42.47569 ], [ -72.2914, -42.47415 ], [ -72.29055, -42.46984 ], [ -72.28983, -42.46883 ], [ -72.28883, -42.4679 ], [ -72.27754, -42.4737 ], [ -72.23205, -42.50229 ], [ -72.19053, -42.53402 ], [ -72.15337, -42.56859 ], [ -72.12093, -42.60567 ], [ -72.11343, -42.61641 ], [ -72.11367, -42.61692 ], [ -72.11413, -42.61715 ], [ -72.1146, -42.61769 ], [ -72.11449, -42.61809 ], [ -72.11469, -42.61918 ], [ -72.11521, -42.62008 ], [ -72.11519, -42.62306 ], [ -72.11562, -42.62484 ], [ -72.11723, -42.62629 ], [ -72.11795, -42.62865 ], [ -72.11717, -42.62935 ], [ -72.11643, -42.62943 ], [ -72.11452, -42.63048 ], [ -72.11369, -42.63062 ], [ -72.11319, -42.63027 ], [ -72.10901, -42.62997 ], [ -72.10647, -42.62935 ], [ -72.10428, -42.62973 ], [ -72.10402, -42.62989 ], [ -72.10016, -42.63542 ], [ -72.10015, -42.63609 ], [ -72.09998, -42.63726 ], [ -72.09977, -42.63774 ], [ -72.09879, -42.63769 ], [ -72.09851, -42.63778 ], [ -72.09754, -42.63918 ], [ -72.09768, -42.63945 ], [ -72.09739, -42.64024 ], [ -72.09635, -42.64087 ], [ -72.09627, -42.641 ], [ -72.09625, -42.6415 ], [ -72.09754, -42.64242 ], [ -72.09867, -42.64261 ], [ -72.09944, -42.64295 ], [ -72.1005, -42.64374 ], [ -72.1012, -42.6448 ], [ -72.10185, -42.64632 ], [ -72.10275, -42.64721 ], [ -72.10693, -42.64809 ], [ -72.10788, -42.64859 ], [ -72.10873, -42.64936 ], [ -72.10976, -42.65128 ], [ -72.10917, -42.6522 ], [ -72.10955, -42.65325 ], [ -72.1101, -42.65396 ], [ -72.11236, -42.65485 ], [ -72.11324, -42.65663 ], [ -72.11395, -42.65751 ], [ -72.11485, -42.65796 ], [ -72.11553, -42.6581 ], [ -72.11702, -42.65891 ], [ -72.1175, -42.65944 ], [ -72.11878, -42.66037 ], [ -72.11933, -42.66265 ], [ -72.11978, -42.66348 ], [ -72.12095, -42.66427 ], [ -72.12107, -42.66496 ], [ -72.12161, -42.6663 ], [ -72.12186, -42.66953 ], [ -72.12266, -42.67244 ], [ -72.12335, -42.67285 ], [ -72.12514, -42.67278 ], [ -72.12568, -42.67263 ], [ -72.12699, -42.6718 ], [ -72.12899, -42.67178 ], [ -72.1306, -42.67204 ], [ -72.13139, -42.67261 ], [ -72.13201, -42.67349 ], [ -72.13353, -42.67471 ], [ -72.13491, -42.67628 ], [ -72.13527, -42.67715 ], [ -72.13531, -42.67968 ], [ -72.13609, -42.68025 ], [ -72.1399, -42.67999 ], [ -72.14267, -42.6811 ], [ -72.14864, -42.68127 ], [ -72.14986, -42.68122 ], [ -72.15114, -42.68053 ], [ -72.15269, -42.67951 ], [ -72.15326, -42.6793 ], [ -72.15554, -42.67754 ], [ -72.15835, -42.67794 ], [ -72.16085, -42.67777 ], [ -72.16487, -42.67658 ], [ -72.16578, -42.67611 ], [ -72.16618, -42.67504 ], [ -72.16699, -42.67418 ], [ -72.16913, -42.6727 ], [ -72.17008, -42.67171 ], [ -72.17146, -42.67149 ], [ -72.17268, -42.6719 ], [ -72.17346, -42.6728 ], [ -72.17387, -42.67394 ], [ -72.17375, -42.67554 ], [ -72.17406, -42.67692 ], [ -72.17415, -42.67958 ], [ -72.17402, -42.68142 ], [ -72.1751, -42.68375 ], [ -72.17736, -42.68705 ], [ -72.17855, -42.6885 ], [ -72.17886, -42.68955 ], [ -72.17872, -42.69015 ], [ -72.17767, -42.69105 ], [ -72.17665, -42.69248 ], [ -72.17665, -42.69331 ], [ -72.17872, -42.69495 ], [ -72.17938, -42.69689 ], [ -72.17796, -42.69781 ], [ -72.17634, -42.69831 ], [ -72.17491, -42.69943 ], [ -72.17465, -42.70031 ], [ -72.17349, -42.70154 ], [ -72.17105, -42.70148 ], [ -72.17048, -42.70172 ], [ -72.16972, -42.70226 ], [ -72.16924, -42.70307 ], [ -72.16773, -42.70423 ], [ -72.16497, -42.70442 ], [ -72.16337, -42.70473 ], [ -72.16239, -42.70448 ], [ -72.15983, -42.70438 ], [ -72.15595, -42.7058 ], [ -72.15433, -42.70623 ], [ -72.15323, -42.70593 ], [ -72.15235, -42.70652 ], [ -72.15149, -42.70738 ], [ -72.15121, -42.70868 ], [ -72.15129, -42.70928 ], [ -72.14969, -42.70921 ], [ -72.14634, -42.70959 ], [ -72.14443, -42.70949 ], [ -72.14312, -42.71023 ], [ -72.13981, -42.71052 ], [ -72.13881, -42.71088 ], [ -72.13808, -42.71151 ], [ -72.13775, -42.71218 ], [ -72.13829, -42.71485 ], [ -72.13858, -42.71539 ], [ -72.13953, -42.71627 ], [ -72.13975, -42.71749 ], [ -72.13913, -42.71896 ], [ -72.13896, -42.7212 ], [ -72.13865, -42.72279 ], [ -72.13763, -42.7247 ], [ -72.13625, -42.72646 ], [ -72.13499, -42.72769 ], [ -72.13187, -42.72941 ], [ -72.13, -42.72972 ], [ -72.12916, -42.73022 ], [ -72.12847, -42.73095 ], [ -72.12869, -42.73146 ], [ -72.12913, -42.73191 ], [ -72.13118, -42.73276 ], [ -72.13292, -42.73402 ], [ -72.1343, -42.7344 ], [ -72.13484, -42.73495 ], [ -72.13496, -42.73621 ], [ -72.13628, -42.73729 ], [ -72.13795, -42.73812 ], [ -72.13945, -42.73786 ], [ -72.14055, -42.73797 ], [ -72.14151, -42.73847 ], [ -72.14193, -42.73897 ], [ -72.14277, -42.73952 ], [ -72.14578, -42.74071 ], [ -72.14741, -42.74161 ], [ -72.14719, -42.74219 ], [ -72.14537, -42.74426 ], [ -72.14467, -42.74614 ], [ -72.14555, -42.74859 ], [ -72.14464, -42.75011 ], [ -72.1437, -42.75068 ], [ -72.14096, -42.75137 ], [ -72.13925, -42.75156 ], [ -72.13789, -42.75241 ], [ -72.13708, -42.75327 ], [ -72.13618, -42.75561 ], [ -72.13489, -42.7562 ], [ -72.13439, -42.75665 ], [ -72.13401, -42.7576 ], [ -72.13472, -42.75913 ], [ -72.13568, -42.76044 ], [ -72.13472, -42.76165 ], [ -72.13482, -42.7626 ], [ -72.13411, -42.76353 ], [ -72.13454, -42.76564 ], [ -72.13458, -42.76688 ], [ -72.13451, -42.76769 ], [ -72.13358, -42.76838 ], [ -72.13339, -42.77081 ], [ -72.13353, -42.77171 ], [ -72.13396, -42.77245 ], [ -72.13384, -42.77374 ], [ -72.13292, -42.775 ], [ -72.1318, -42.77607 ], [ -72.13158, -42.77676 ], [ -72.13168, -42.77747 ], [ -72.13397, -42.77871 ], [ -72.13573, -42.77999 ], [ -72.13713, -42.78033 ], [ -72.13951, -42.7818 ], [ -72.14074, -42.78197 ], [ -72.14115, -42.78252 ], [ -72.14093, -42.78371 ], [ -72.13889, -42.78732 ], [ -72.13879, -42.78875 ], [ -72.13922, -42.7902 ], [ -72.13998, -42.79161 ], [ -72.14046, -42.79211 ], [ -72.14072, -42.79327 ], [ -72.1422, -42.79472 ], [ -72.14246, -42.7952 ], [ -72.14512, -42.79658 ], [ -72.14679, -42.79765 ], [ -72.1482, -42.79881 ], [ -72.14933, -42.79901 ], [ -72.153, -42.79879 ], [ -72.15485, -42.79839 ], [ -72.15564, -42.79803 ], [ -72.15728, -42.79801 ], [ -72.15833, -42.79769 ], [ -72.16112, -42.79726 ], [ -72.16275, -42.79794 ], [ -72.16397, -42.79805 ], [ -72.16473, -42.79794 ], [ -72.16516, -42.79863 ], [ -72.16404, -42.80191 ], [ -72.16256, -42.80374 ], [ -72.16228, -42.8051 ], [ -72.16237, -42.80667 ], [ -72.16223, -42.80795 ], [ -72.16162, -42.80904 ], [ -72.16073, -42.81 ], [ -72.15878, -42.811 ], [ -72.15811, -42.81178 ], [ -72.15773, -42.81278 ], [ -72.15626, -42.81444 ], [ -72.15557, -42.81673 ], [ -72.15564, -42.81901 ], [ -72.15657, -42.82089 ], [ -72.15921, -42.82375 ], [ -72.159, -42.82435 ], [ -72.1593, -42.82599 ], [ -72.15923, -42.82673 ], [ -72.15823, -42.82787 ], [ -72.1575, -42.82806 ], [ -72.15485, -42.82937 ], [ -72.15216, -42.82997 ], [ -72.15105, -42.83108 ], [ -72.15089, -42.83155 ], [ -72.15093, -42.83469 ], [ -72.15036, -42.83574 ], [ -72.15029, -42.83643 ], [ -72.15062, -42.83781 ], [ -72.15015, -42.84052 ], [ -72.15017, -42.84176 ], [ -72.14844, -42.84282 ], [ -72.14912, -42.8448 ], [ -72.14843, -42.84602 ], [ -72.14827, -42.84662 ], [ -72.1485, -42.84792 ], [ -72.14836, -42.84956 ], [ -72.14717, -42.85095 ], [ -72.14694, -42.85147 ], [ -72.1447, -42.85175 ], [ -72.14186, -42.85182 ], [ -72.13946, -42.85237 ], [ -72.13534, -42.85261 ], [ -72.13432, -42.85299 ], [ -72.13423, -42.85351 ], [ -72.13451, -42.85456 ], [ -72.13439, -42.85568 ], [ -72.13387, -42.85668 ], [ -72.13392, -42.8577 ], [ -72.13477, -42.85915 ], [ -72.13473, -42.86241 ], [ -72.13535, -42.86479 ], [ -72.13492, -42.86822 ], [ -72.13009, -42.87126 ], [ -72.12935, -42.87136 ], [ -72.12809, -42.87243 ], [ -72.12626, -42.87293 ], [ -72.1253, -42.87364 ], [ -72.12374, -42.87415 ], [ -72.12273, -42.87476 ], [ -72.12076, -42.87678 ], [ -72.12076, -42.87861 ], [ -72.1195, -42.87997 ], [ -72.1185, -42.88221 ], [ -72.11857, -42.8828 ], [ -72.11924, -42.88311 ], [ -72.12128, -42.88335 ], [ -72.12502, -42.88411 ], [ -72.12826, -42.8845 ], [ -72.12992, -42.8845 ], [ -72.13102, -42.88473 ], [ -72.13185, -42.88516 ], [ -72.13254, -42.88564 ], [ -72.13316, -42.8865 ], [ -72.13551, -42.88858 ], [ -72.13608, -42.88932 ], [ -72.13615, -42.88996 ], [ -72.13594, -42.8912 ], [ -72.13623, -42.89204 ], [ -72.13758, -42.8924 ], [ -72.13839, -42.8928 ], [ -72.13954, -42.89387 ], [ -72.14422, -42.89276 ], [ -72.15099, -42.89038 ], [ -72.15307, -42.88999 ], [ -72.15552, -42.8903 ], [ -72.15914, -42.89172 ], [ -72.16023, -42.89278 ], [ -72.16108, -42.89428 ], [ -72.16222, -42.8957 ], [ -72.16479, -42.89769 ], [ -72.16644, -42.89798 ], [ -72.16993, -42.89704 ], [ -72.17569, -42.89637 ], [ -72.17772, -42.89574 ], [ -72.18254, -42.89224 ], [ -72.18721, -42.88822 ], [ -72.19002, -42.88708 ], [ -72.1912, -42.88706 ], [ -72.19816, -42.88885 ], [ -72.2016, -42.89066 ], [ -72.20159, -42.89251 ], [ -72.20019, -42.89404 ], [ -72.19839, -42.89566 ], [ -72.19721, -42.89817 ], [ -72.19593, -42.90325 ], [ -72.19396, -42.90661 ], [ -72.19048, -42.91009 ], [ -72.18645, -42.91073 ], [ -72.18261, -42.9135 ], [ -72.18244, -42.91602 ], [ -72.18659, -42.91803 ], [ -72.18883, -42.9199 ], [ -72.1919, -42.92408 ], [ -72.19497, -42.92553 ], [ -72.19783, -42.92849 ], [ -72.20138, -42.93112 ], [ -72.2034, -42.932 ], [ -72.21374, -42.93384 ], [ -72.21635, -42.93503 ], [ -72.21751, -42.93892 ], [ -72.21951, -42.94763 ], [ -72.21811, -42.95067 ], [ -72.21821, -42.95283 ], [ -72.21991, -42.95654 ], [ -72.22075, -42.95725 ], [ -72.22473, -42.95829 ], [ -72.23011, -42.96184 ], [ -72.23417, -42.96493 ], [ -72.23202, -42.96678 ], [ -72.22476, -42.96959 ], [ -72.22265, -42.97109 ], [ -72.2202, -42.9732 ], [ -72.2155, -42.97529 ], [ -72.21378, -42.97666 ], [ -72.21272, -42.97796 ], [ -72.21249, -42.98001 ], [ -72.21461, -42.98376 ], [ -72.21451, -42.98555 ], [ -72.21367, -42.98773 ], [ -72.21655, -42.9905 ], [ -72.21812, -42.99107 ], [ -72.22192, -42.99074 ], [ -72.22761, -42.9892 ], [ -72.22994, -42.98935 ], [ -72.23537, -42.98923 ], [ -72.23671, -42.98987 ], [ -72.23929, -42.99339 ], [ -72.24131, -42.99488 ], [ -72.24087, -42.99676 ], [ -72.23909, -42.998 ], [ -72.23701, -43.00001 ], [ -72.23556, -43.00263 ], [ -72.23794, -43.0041 ], [ -72.23796, -43.00575 ], [ -72.23537, -43.00814 ], [ -72.23513, -43.01137 ], [ -72.23241, -43.01327 ], [ -72.22809, -43.01571 ], [ -72.22722, -43.01758 ], [ -72.22721, -43.02043 ], [ -72.2269, -43.02489 ], [ -72.22715, -43.0271 ], [ -72.22833, -43.02852 ], [ -72.23064, -43.03181 ], [ -72.23133, -43.0355 ], [ -72.23033, -43.03761 ], [ -72.22674, -43.03815 ], [ -72.21993, -43.03692 ], [ -72.21635, -43.03558 ], [ -72.2148, -43.03543 ], [ -72.21187, -43.03612 ], [ -72.21083, -43.03775 ], [ -72.20875, -43.03961 ], [ -72.20459, -43.04151 ], [ -72.20234, -43.04322 ], [ -72.20112, -43.04483 ], [ -72.19963, -43.04921 ], [ -72.19811, -43.05068 ], [ -72.19555, -43.05201 ], [ -72.1908, -43.05294 ], [ -72.18697, -43.05284 ], [ -72.18045, -43.05132 ], [ -72.17769, -43.05149 ], [ -72.17433, -43.05222 ], [ -72.17147, -43.05408 ], [ -72.16912, -43.05711 ], [ -72.16743, -43.06038 ], [ -72.16717, -43.06258 ], [ -72.16778, -43.06567 ], [ -72.16994, -43.06866 ], [ -72.17258, -43.0707 ], [ -72.17927, -43.07314 ], [ -72.18043, -43.07493 ], [ -72.18019, -43.0779 ], [ -72.1812, -43.07964 ], [ -72.18135, -43.08146 ], [ -72.18314, -43.08726 ], [ -72.18529, -43.08911 ], [ -72.1857, -43.09167 ], [ -72.18632, -43.09254 ], [ -72.18661, -43.09389 ], [ -72.18515, -43.09587 ], [ -72.18512, -43.09697 ], [ -72.18331, -43.0978 ], [ -72.17867, -43.10034 ], [ -72.1742, -43.10012 ], [ -72.17142, -43.09968 ], [ -72.1645, -43.09958 ], [ -72.16054, -43.10018 ], [ -72.16048, -43.1003 ], [ -72.16455, -43.10462 ], [ -72.20031, -43.13554 ], [ -72.20572, -43.12992 ], [ -72.20744, -43.12535 ], [ -72.20705, -43.1237 ], [ -72.20866, -43.12022 ], [ -72.21915, -43.11369 ], [ -72.22249, -43.1098 ], [ -72.2264, -43.11152 ], [ -72.22482, -43.11497 ], [ -72.22031, -43.11853 ], [ -72.21707, -43.12209 ], [ -72.21343, -43.12655 ], [ -72.2094, -43.12973 ], [ -72.20812, -43.1332 ], [ -72.20385, -43.13822 ], [ -72.20374, -43.13848 ], [ -72.24683, -43.16903 ], [ -72.2809, -43.18881 ], [ -72.2843, -43.18892 ], [ -72.2978, -43.19628 ], [ -72.29885, -43.19872 ], [ -72.34142, -43.21876 ], [ -72.34594, -43.21846 ], [ -72.35914, -43.19541 ], [ -72.37839, -43.18925 ], [ -72.38793, -43.18765 ], [ -72.39614, -43.18109 ], [ -72.42076, -43.16232 ], [ -72.42004, -43.16198 ], [ -72.41861, -43.16171 ], [ -72.41577, -43.16085 ], [ -72.41557, -43.15917 ], [ -72.41534, -43.15873 ], [ -72.41484, -43.15831 ], [ -72.41679, -43.14659 ], [ -72.35094, -43.08274 ], [ -72.35374, -43.08148 ], [ -72.35538, -43.08167 ], [ -72.35648, -43.0813 ], [ -72.35716, -43.08039 ], [ -72.35893, -43.07958 ], [ -72.36022, -43.07856 ], [ -72.36118, -43.07668 ], [ -72.36214, -43.07622 ], [ -72.36304, -43.07503 ], [ -72.36479, -43.07457 ], [ -72.36563, -43.07463 ], [ -72.3674, -43.07414 ], [ -72.36801, -43.07373 ], [ -72.3686, -43.07176 ], [ -72.36918, -43.07106 ], [ -72.37023, -43.07096 ], [ -72.37071, -43.07073 ], [ -72.37143, -43.06982 ], [ -72.37207, -43.06935 ], [ -72.3732, -43.06928 ], [ -72.37327, -43.06871 ], [ -72.37249, -43.06864 ], [ -72.37254, -43.06808 ], [ -72.3728, -43.0676 ], [ -72.37488, -43.06731 ], [ -72.37468, -43.06529 ], [ -72.37273, -43.06413 ], [ -72.37218, -43.06217 ], [ -72.37252, -43.05827 ], [ -72.37241, -43.05517 ], [ -72.37587, -43.0529 ], [ -72.37766, -43.0505 ], [ -72.38071, -43.05054 ], [ -72.38147, -43.04902 ], [ -72.3829, -43.04793 ], [ -72.38367, -43.04899 ], [ -72.38207, -43.05135 ], [ -72.38397, -43.04993 ], [ -72.37967, -43.05519 ], [ -72.37902, -43.05749 ], [ -72.37941, -43.05931 ], [ -72.38221, -43.05935 ], [ -72.38651, -43.06145 ], [ -72.38844, -43.06439 ], [ -72.39008, -43.0646 ], [ -72.39141, -43.06729 ], [ -72.39545, -43.06874 ], [ -72.39609, -43.06947 ], [ -72.39782, -43.07037 ], [ -72.39995, -43.07021 ], [ -72.40306, -43.0705 ], [ -72.34495, -42.90151 ], [ -72.33992, -42.9047 ], [ -72.33952, -42.90519 ], [ -72.33854, -42.90586 ], [ -72.33553, -42.90698 ], [ -72.33307, -42.90906 ], [ -72.33271, -42.90957 ] ], [ [ -72.30777, -42.7368 ], [ -72.30786, -42.73713 ], [ -72.3074, -42.73762 ], [ -72.30751, -42.73778 ], [ -72.3083, -42.73778 ], [ -72.30919, -42.73825 ], [ -72.31046, -42.73812 ], [ -72.31077, -42.73842 ], [ -72.31072, -42.73895 ], [ -72.31012, -42.73939 ], [ -72.31027, -42.73938 ], [ -72.30972, -42.74011 ], [ -72.31003, -42.74067 ], [ -72.31083, -42.74048 ], [ -72.31242, -42.74057 ], [ -72.31345, -42.74025 ], [ -72.31231, -42.73985 ], [ -72.31195, -42.73882 ], [ -72.31223, -42.73835 ], [ -72.31286, -42.73794 ], [ -72.31204, -42.73752 ], [ -72.31187, -42.73647 ], [ -72.31207, -42.73602 ], [ -72.31339, -42.73493 ], [ -72.31274, -42.73489 ], [ -72.31268, -42.73444 ], [ -72.31327, -42.73341 ], [ -72.31384, -42.73289 ], [ -72.31575, -42.73229 ], [ -72.31657, -42.73175 ], [ -72.31795, -42.73165 ], [ -72.31789, -42.73138 ], [ -72.31643, -42.73079 ], [ -72.31623, -42.73035 ], [ -72.31673, -42.72959 ], [ -72.31759, -42.72913 ], [ -72.31892, -42.72924 ], [ -72.31897, -42.729 ], [ -72.31953, -42.72853 ], [ -72.32081, -42.72902 ], [ -72.32192, -42.72862 ], [ -72.32296, -42.72888 ], [ -72.3237, -42.72842 ], [ -72.32518, -42.72841 ], [ -72.32624, -42.72752 ], [ -72.32625, -42.72733 ], [ -72.3255, -42.72694 ], [ -72.32552, -42.72662 ], [ -72.32602, -42.72591 ], [ -72.32552, -42.7256 ], [ -72.32571, -42.72451 ], [ -72.32543, -42.72445 ], [ -72.32506, -42.72463 ], [ -72.32496, -42.72442 ], [ -72.32624, -42.72335 ], [ -72.32711, -42.7223 ], [ -72.32786, -42.72179 ], [ -72.32944, -42.72146 ], [ -72.33042, -42.71955 ], [ -72.3304, -42.71915 ], [ -72.32975, -42.71833 ], [ -72.32833, -42.71747 ], [ -72.32728, -42.71569 ], [ -72.3273, -42.71516 ], [ -72.32787, -42.71443 ], [ -72.32787, -42.71396 ], [ -72.32743, -42.71372 ], [ -72.32702, -42.7132 ], [ -72.327, -42.71269 ], [ -72.32731, -42.71204 ], [ -72.32773, -42.71199 ], [ -72.32812, -42.71231 ], [ -72.32893, -42.71241 ], [ -72.33177, -42.7221 ], [ -72.33164, -42.73118 ], [ -72.33184, -42.73388 ], [ -72.3301, -42.73437 ], [ -72.32493, -42.73472 ], [ -72.32053, -42.73661 ], [ -72.31838, -42.73875 ], [ -72.31631, -42.74032 ], [ -72.31419, -42.74165 ], [ -72.31015, -42.74257 ], [ -72.30022, -42.74414 ], [ -72.28824, -42.74838 ], [ -72.28776, -42.74871 ], [ -72.28732, -42.74707 ], [ -72.28631, -42.74579 ], [ -72.28616, -42.74524 ], [ -72.28777, -42.74441 ], [ -72.28973, -42.74389 ], [ -72.29075, -42.74341 ], [ -72.29187, -42.74263 ], [ -72.29359, -42.74087 ], [ -72.29568, -42.73928 ], [ -72.29673, -42.73884 ], [ -72.29826, -42.73882 ], [ -72.29905, -42.73855 ], [ -72.30144, -42.73719 ], [ -72.3028, -42.73696 ], [ -72.30449, -42.7363 ], [ -72.30496, -42.73556 ], [ -72.30495, -42.735 ], [ -72.30455, -42.73483 ], [ -72.3046, -42.73457 ], [ -72.3048, -42.73425 ], [ -72.30549, -42.73421 ], [ -72.3057, -42.73344 ], [ -72.30596, -42.73334 ], [ -72.30727, -42.73401 ], [ -72.30796, -42.73408 ], [ -72.30812, -42.73449 ], [ -72.30764, -42.73544 ], [ -72.30809, -42.73593 ], [ -72.30811, -42.73638 ], [ -72.30777, -42.7368 ] ] ], [ [ [ -72.32562, -42.72685 ], [ -72.32564, -42.72686 ], [ -72.32561, -42.72679 ], [ -72.32562, -42.72685 ] ] ], [ [ [ -72.42217, -42.4799 ], [ -72.4186, -42.48074 ], [ -72.41605, -42.4817 ], [ -72.41495, -42.48178 ], [ -72.41278, -42.48229 ], [ -72.40999, -42.48369 ], [ -72.40932, -42.48421 ], [ -72.41546, -42.48255 ], [ -72.42217, -42.4799 ] ] ], [ [ [ -72.40902, -42.46452 ], [ -72.41046, -42.46399 ], [ -72.41081, -42.46376 ], [ -72.41088, -42.46349 ], [ -72.4117, -42.46305 ], [ -72.40509, -42.46453 ], [ -72.4025, -42.46535 ], [ -72.39956, -42.46678 ], [ -72.39693, -42.46874 ], [ -72.39725, -42.46909 ], [ -72.39778, -42.46896 ], [ -72.39852, -42.46863 ], [ -72.39971, -42.46779 ], [ -72.40082, -42.46735 ], [ -72.40141, -42.46731 ], [ -72.40172, -42.46699 ], [ -72.40348, -42.46663 ], [ -72.40595, -42.46648 ], [ -72.40712, -42.46574 ], [ -72.40768, -42.46559 ], [ -72.40902, -42.46452 ] ] ], [ [ [ -72.41406, -42.45775 ], [ -72.41428, -42.457 ], [ -72.41494, -42.4564 ], [ -72.41501, -42.45602 ], [ -72.41413, -42.45708 ], [ -72.41406, -42.45775 ] ] ], [ [ [ -72.41515, -42.4535 ], [ -72.4151, -42.4538 ], [ -72.41523, -42.45413 ], [ -72.41515, -42.4535 ] ] ], [ [ [ -72.41506, -42.4527 ], [ -72.41539, -42.4522 ], [ -72.41599, -42.45198 ], [ -72.4163, -42.45161 ], [ -72.41624, -42.45081 ], [ -72.41651, -42.44976 ], [ -72.416, -42.44852 ], [ -72.41688, -42.44799 ], [ -72.41761, -42.44634 ], [ -72.41584, -42.44809 ], [ -72.41506, -42.4527 ] ] ], [ [ [ -72.35408, -42.4404 ], [ -72.35528, -42.44177 ], [ -72.35518, -42.44262 ], [ -72.35537, -42.44308 ], [ -72.35603, -42.44358 ], [ -72.35593, -42.44401 ], [ -72.35407, -42.44598 ], [ -72.35317, -42.44623 ], [ -72.35235, -42.4472 ], [ -72.35129, -42.44806 ], [ -72.35113, -42.44851 ], [ -72.35155, -42.44909 ], [ -72.35156, -42.4502 ], [ -72.35199, -42.45128 ], [ -72.35185, -42.45192 ], [ -72.35075, -42.45286 ], [ -72.35031, -42.45355 ], [ -72.3499, -42.45387 ], [ -72.34886, -42.45415 ], [ -72.34662, -42.45532 ], [ -72.34558, -42.45558 ], [ -72.3451, -42.45593 ], [ -72.34237, -42.46102 ], [ -72.34132, -42.46225 ], [ -72.34056, -42.46257 ], [ -72.34028, -42.46398 ], [ -72.33946, -42.46488 ], [ -72.33823, -42.4671 ], [ -72.33706, -42.46767 ], [ -72.33633, -42.46856 ], [ -72.33635, -42.46942 ], [ -72.33585, -42.47011 ], [ -72.33547, -42.47171 ], [ -72.33536, -42.47302 ], [ -72.33632, -42.47538 ], [ -72.33752, -42.47564 ], [ -72.33825, -42.47769 ], [ -72.34198, -42.47704 ], [ -72.34404, -42.47691 ], [ -72.34555, -42.47714 ], [ -72.35081, -42.47744 ], [ -72.35549, -42.47708 ], [ -72.36699, -42.47562 ], [ -72.37486, -42.47689 ], [ -72.38018, -42.47535 ], [ -72.38519, -42.47409 ], [ -72.388, -42.47266 ], [ -72.3889, -42.47199 ], [ -72.38996, -42.47166 ], [ -72.39359, -42.46981 ], [ -72.39393, -42.46946 ], [ -72.39533, -42.46869 ], [ -72.3983, -42.46635 ], [ -72.40159, -42.46465 ], [ -72.40432, -42.46374 ], [ -72.4114, -42.4621 ], [ -72.41163, -42.46185 ], [ -72.41204, -42.4604 ], [ -72.41273, -42.45878 ], [ -72.41291, -42.45686 ], [ -72.41427, -42.45508 ], [ -72.41386, -42.45398 ], [ -72.41381, -42.45264 ], [ -72.41461, -42.4479 ], [ -72.4167, -42.44568 ], [ -72.41697, -42.44458 ], [ -72.41765, -42.44365 ], [ -72.41748, -42.44281 ], [ -72.41617, -42.44075 ], [ -72.416, -42.43953 ], [ -72.41631, -42.4385 ], [ -72.41768, -42.43642 ], [ -72.41756, -42.43603 ], [ -72.4168, -42.43527 ], [ -72.4165, -42.43397 ], [ -72.41655, -42.43328 ], [ -72.4169, -42.43264 ], [ -72.41832, -42.4312 ], [ -72.41834, -42.42934 ], [ -72.41969, -42.42739 ], [ -72.41921, -42.42363 ], [ -72.41952, -42.42034 ], [ -72.41878, -42.41953 ], [ -72.4186, -42.41902 ], [ -72.41427, -42.41953 ], [ -72.41336, -42.41926 ], [ -72.41133, -42.41916 ], [ -72.41037, -42.41884 ], [ -72.40574, -42.41826 ], [ -72.37862, -42.42703 ], [ -72.35348, -42.43742 ], [ -72.35346, -42.4387 ], [ -72.35408, -42.4404 ] ] ], [ [ [ -72.41727, -42.44011 ], [ -72.41748, -42.44072 ], [ -72.41779, -42.44015 ], [ -72.41808, -42.44001 ], [ -72.4183, -42.43915 ], [ -72.41825, -42.43798 ], [ -72.41842, -42.43747 ], [ -72.41729, -42.43935 ], [ -72.41727, -42.44011 ] ] ] ] } }
]
}
