{
"type": "FeatureCollection",
"name": "COR",
"crs": { "type": "name", "properties": { "name": "urn:ogc:def:crs:OGC:1.3:CRS84" } },
"xy_coordinate_resolution": 1e-05,
"features": [
{ "type": "Feature", "properties": { "nombre": "Parque Nacional Corcovado", "categoria": "Parque Nacional", "region": "Los Lagos - Aysen", "superficie_ha": "400010,93", "decreto": "NÂ° 2 de 2005; NÂ° 12 de 2007; NÂ° 4 de 2018" }, "geometry": { "type": "MultiPolygon", "coordinates": [ [ [ [ -72.48877, -43.17129 ], [ -72.49162, -43.17201 ], [ -72.49322, -43.17146 ], [ -72.49595, -43.17158 ], [ -72.49766, -43.17095 ], [ -72.49852, -43.17089 ], [ -72.50008, -43.171 ], [ -72.50191, -43.17083 ], [ -72.50384, -43.1715 ], [ -72.50552, -43.17133 ], [ -72.50704, -43.17148 ], [ -72.50747, -43.17128 ], [ -72.50763, -43.17065 ], [ -72.50802, -43.17036 ], [ -72.50853, -43.17029 ], [ -72.50961, -43.1706 ], [ -72.51016, -43.1706 ], [ -72.51176, -43.17035 ], [ -72.51523, -43.17016 ], [ -72.51685, -43.171 ], [ -72.51951, -43.17089 ], [ -72.518, -43.17117 ], [ -72.51744, -43.17156 ], [ -72.51674, -43.17172 ], [ -72.51533, -43.1713 ], [ -72.51429, -43.17135 ], [ -72.51374, -43.17159 ], [ -72.51229, -43.17269 ], [ -72.50988, -43.17276 ], [ -72.50914, -43.173 ], [ -72.50866, -43.17334 ], [ -72.50739, -43.17348 ], [ -72.50658, -43.17385 ], [ -72.50431, -43.17289 ], [ -72.5037, -43.17278 ], [ -72.49795, -43.17259 ], [ -72.49616, -43.1735 ], [ -72.4939, -43.17431 ], [ -72.49108, -43.17501 ], [ -72.48921, -43.17589 ], [ -72.48929, -43.17731 ], [ -72.48906, -43.17885 ], [ -72.48908, -43.18063 ], [ -72.48927, -43.1815 ], [ -72.49031, -43.18269 ], [ -72.49202, -43.184 ], [ -72.4925, -43.18418 ], [ -72.49377, -43.18385 ], [ -72.49416, -43.1844 ], [ -72.49529, -43.18491 ], [ -72.49585, -43.1858 ], [ -72.49749, -43.18699 ], [ -72.49823, -43.18735 ], [ -72.49948, -43.18761 ], [ -72.49958, -43.18849 ], [ -72.50056, -43.18909 ], [ -72.50169, -43.18918 ], [ -72.50238, -43.18905 ], [ -72.50327, -43.18937 ], [ -72.50409, -43.19103 ], [ -72.5041, -43.19196 ], [ -72.50445, -43.19273 ], [ -72.50651, -43.19376 ], [ -72.50798, -43.19538 ], [ -72.50834, -43.19621 ], [ -72.50839, -43.19801 ], [ -72.50875, -43.19874 ], [ -72.50992, -43.19944 ], [ -72.51159, -43.20102 ], [ -72.51285, -43.20171 ], [ -72.51484, -43.20211 ], [ -72.51692, -43.20295 ], [ -72.51825, -43.20329 ], [ -72.51977, -43.20315 ], [ -72.52233, -43.20327 ], [ -72.523, -43.2034 ], [ -72.52416, -43.20408 ], [ -72.52466, -43.20412 ], [ -72.52502, -43.20499 ], [ -72.52419, -43.20615 ], [ -72.52456, -43.20684 ], [ -72.52573, -43.2079 ], [ -72.52595, -43.20835 ], [ -72.52576, -43.2088 ], [ -72.52578, -43.2096 ], [ -72.52683, -43.21022 ], [ -72.52788, -43.21204 ], [ -72.52933, -43.21334 ], [ -72.53142, -43.21328 ], [ -72.53324, -43.21431 ], [ -72.53845, -43.21567 ], [ -72.54133, -43.21573 ], [ -72.54219, -43.21537 ], [ -72.54471, -43.21605 ], [ -72.54641, -43.21608 ], [ -72.54874, -43.21713 ], [ -72.55095, -43.21705 ], [ -72.55329, -43.21785 ], [ -72.55419, -43.21675 ], [ -72.5579, -43.21732 ], [ -72.55838, -43.21795 ], [ -72.55922, -43.2181 ], [ -72.55917, -43.21934 ], [ -72.55845, -43.22044 ], [ -72.55689, -43.22115 ], [ -72.55704, -43.22177 ], [ -72.56383, -43.22179 ], [ -72.5672, -43.22224 ], [ -72.56752, -43.22287 ], [ -72.56681, -43.22347 ], [ -72.56797, -43.22436 ], [ -72.5689, -43.22662 ], [ -72.56902, -43.22774 ], [ -72.5703, -43.22975 ], [ -72.56944, -43.2301 ], [ -72.56745, -43.22882 ], [ -72.56225, -43.22734 ], [ -72.56027, -43.22594 ], [ -72.5584, -43.22602 ], [ -72.5579, -43.22564 ], [ -72.55654, -43.22573 ], [ -72.55583, -43.22646 ], [ -72.55466, -43.22619 ], [ -72.55317, -43.22517 ], [ -72.54979, -43.22472 ], [ -72.54808, -43.22506 ], [ -72.54658, -43.2244 ], [ -72.54426, -43.22299 ], [ -72.54172, -43.22293 ], [ -72.53947, -43.224 ], [ -72.53823, -43.22534 ], [ -72.53755, -43.22533 ], [ -72.53639, -43.22456 ], [ -72.53489, -43.22403 ], [ -72.53118, -43.22345 ], [ -72.52985, -43.22268 ], [ -72.52455, -43.22227 ], [ -72.52388, -43.22293 ], [ -72.5239, -43.22382 ], [ -72.52295, -43.22463 ], [ -72.52255, -43.22537 ], [ -72.52219, -43.22567 ], [ -72.52073, -43.22596 ], [ -72.52044, -43.22628 ], [ -72.52007, -43.22751 ], [ -72.51898, -43.22852 ], [ -72.51823, -43.22895 ], [ -72.51797, -43.22968 ], [ -72.517, -43.23131 ], [ -72.51703, -43.232 ], [ -72.51738, -43.23277 ], [ -72.51721, -43.23317 ], [ -72.51504, -43.23489 ], [ -72.51453, -43.23571 ], [ -72.51415, -43.23595 ], [ -72.51348, -43.23599 ], [ -72.5125, -43.23633 ], [ -72.51142, -43.23616 ], [ -72.51015, -43.23696 ], [ -72.50995, -43.23678 ], [ -72.51004, -43.23595 ], [ -72.51068, -43.23545 ], [ -72.51128, -43.23434 ], [ -72.5125, -43.23312 ], [ -72.51358, -43.23242 ], [ -72.51533, -43.23162 ], [ -72.51573, -43.2312 ], [ -72.51595, -43.22992 ], [ -72.5164, -43.22908 ], [ -72.51705, -43.22843 ], [ -72.51719, -43.22729 ], [ -72.51769, -43.22655 ], [ -72.51784, -43.22584 ], [ -72.51753, -43.22473 ], [ -72.51838, -43.22359 ], [ -72.51943, -43.22281 ], [ -72.51947, -43.22262 ], [ -72.51921, -43.22218 ], [ -72.51289, -43.22196 ], [ -72.5134, -43.21884 ], [ -72.51331, -43.21616 ], [ -72.51295, -43.21318 ], [ -72.50771, -43.21348 ], [ -72.50213, -43.21192 ], [ -72.50121, -43.20971 ], [ -72.49889, -43.20729 ], [ -72.4942, -43.20332 ], [ -72.49226, -43.19999 ], [ -72.48944, -43.19716 ], [ -72.48647, -43.19448 ], [ -72.48961, -43.1924 ], [ -72.48847, -43.19225 ], [ -72.488, -43.19202 ], [ -72.48784, -43.19047 ], [ -72.48761, -43.19007 ], [ -72.4866, -43.18912 ], [ -72.48535, -43.18761 ], [ -72.48371, -43.18645 ], [ -72.48285, -43.18526 ], [ -72.48227, -43.18486 ], [ -72.4818, -43.18479 ], [ -72.48082, -43.18519 ], [ -72.47938, -43.18497 ], [ -72.47501, -43.18322 ], [ -72.47419, -43.18275 ], [ -72.4738, -43.18227 ], [ -72.47349, -43.18061 ], [ -72.4738, -43.17889 ], [ -72.47435, -43.17803 ], [ -72.47427, -43.17766 ], [ -72.47367, -43.17714 ], [ -72.45926, -43.19755 ], [ -72.4593, -43.1984 ], [ -72.45869, -43.19971 ], [ -72.45718, -43.20168 ], [ -72.45551, -43.20273 ], [ -72.45484, -43.20338 ], [ -72.45224, -43.20668 ], [ -72.45192, -43.2079 ], [ -72.45281, -43.20948 ], [ -72.45282, -43.20992 ], [ -72.45259, -43.21034 ], [ -72.45104, -43.21158 ], [ -72.44964, -43.21222 ], [ -72.44832, -43.21324 ], [ -72.44769, -43.21354 ], [ -72.4474, -43.21413 ], [ -72.44696, -43.21456 ], [ -72.44576, -43.21499 ], [ -72.44501, -43.21496 ], [ -72.4447, -43.21516 ], [ -72.44349, -43.21646 ], [ -72.44277, -43.21777 ], [ -72.44042, -43.2194 ], [ -72.43887, -43.2207 ], [ -72.43371, -43.22578 ], [ -72.4325, -43.22726 ], [ -72.42528, -43.24928 ], [ -72.42776, -43.27139 ], [ -72.42148, -43.27275 ], [ -72.42093, -43.27641 ], [ -72.42137, -43.27643 ], [ -72.42402, -43.2758 ], [ -72.42652, -43.27562 ], [ -72.42807, -43.27591 ], [ -72.41886, -43.30765 ], [ -72.41981, -43.30823 ], [ -72.41457, -43.32394 ], [ -72.413, -43.32681 ], [ -72.4121, -43.32809 ], [ -72.41113, -43.32908 ], [ -72.41058, -43.33078 ], [ -72.40944, -43.33223 ], [ -72.40906, -43.33382 ], [ -72.40915, -43.33428 ], [ -72.40878, -43.33666 ], [ -72.40775, -43.3388 ], [ -72.40906, -43.34156 ], [ -72.4088, -43.34304 ], [ -72.40769, -43.34392 ], [ -72.4075, -43.34472 ], [ -72.40716, -43.35042 ], [ -72.40809, -43.35293 ], [ -72.40694, -43.35696 ], [ -72.40675, -43.35736 ], [ -72.40592, -43.35793 ], [ -72.40331, -43.35886 ], [ -72.4015, -43.36087 ], [ -72.4, -43.36188 ], [ -72.39858, -43.36372 ], [ -72.39617, -43.36512 ], [ -72.39521, -43.36586 ], [ -72.3911, -43.36804 ], [ -72.3898, -43.36854 ], [ -72.38916, -43.36902 ], [ -72.38881, -43.36941 ], [ -72.38855, -43.37023 ], [ -72.38867, -43.37182 ], [ -72.38639, -43.37482 ], [ -72.38162, -43.37695 ], [ -72.37911, -43.38851 ], [ -72.37932, -43.39666 ], [ -72.37852, -43.39781 ], [ -72.378, -43.39819 ], [ -72.37736, -43.39924 ], [ -72.3768, -43.40355 ], [ -72.37735, -43.40303 ], [ -72.37828, -43.40258 ], [ -72.3786, -43.402 ], [ -72.37914, -43.4016 ], [ -72.38024, -43.40148 ], [ -72.38101, -43.40119 ], [ -72.38235, -43.40125 ], [ -72.38337, -43.40061 ], [ -72.38375, -43.39979 ], [ -72.38446, -43.3994 ], [ -72.38575, -43.39966 ], [ -72.38481, -43.40236 ], [ -72.384, -43.40256 ], [ -72.38361, -43.40288 ], [ -72.3827, -43.4042 ], [ -72.38289, -43.40468 ], [ -72.38415, -43.40532 ], [ -72.38448, -43.40564 ], [ -72.3842, -43.40652 ], [ -72.38324, -43.40726 ], [ -72.38472, -43.41013 ], [ -72.38577, -43.41076 ], [ -72.38948, -43.41187 ], [ -72.39057, -43.41189 ], [ -72.393, -43.41365 ], [ -72.39368, -43.41618 ], [ -72.39405, -43.41869 ], [ -72.39524, -43.42008 ], [ -72.39923, -43.42199 ], [ -72.40434, -43.42313 ], [ -72.40771, -43.42468 ], [ -72.41054, -43.4244 ], [ -72.41181, -43.42386 ], [ -72.41386, -43.42333 ], [ -72.41602, -43.42406 ], [ -72.41737, -43.42546 ], [ -72.41727, -43.42807 ], [ -72.41765, -43.43013 ], [ -72.4176, -43.4315 ], [ -72.41657, -43.433 ], [ -72.41617, -43.43317 ], [ -72.41589, -43.43281 ], [ -72.41518, -43.43241 ], [ -72.41221, -43.43144 ], [ -72.41072, -43.43121 ], [ -72.40955, -43.43081 ], [ -72.40742, -43.42984 ], [ -72.40656, -43.42915 ], [ -72.40601, -43.42898 ], [ -72.40405, -43.42865 ], [ -72.40241, -43.42934 ], [ -72.40116, -43.42962 ], [ -72.39967, -43.42957 ], [ -72.39732, -43.42877 ], [ -72.39646, -43.42871 ], [ -72.39567, -43.42906 ], [ -72.39537, -43.42998 ], [ -72.39443, -43.4305 ], [ -72.39271, -43.43078 ], [ -72.39145, -43.43055 ], [ -72.38981, -43.42987 ], [ -72.38887, -43.42993 ], [ -72.38629, -43.43074 ], [ -72.38503, -43.43097 ], [ -72.38472, -43.43125 ], [ -72.38495, -43.4316 ], [ -72.38496, -43.432 ], [ -72.38457, -43.43281 ], [ -72.38363, -43.4335 ], [ -72.38308, -43.43373 ], [ -72.38031, -43.43397 ], [ -72.37608, -43.46243 ], [ -72.37088, -43.49076 ], [ -72.36935, -43.50132 ], [ -72.39523, -43.51951 ], [ -72.44284, -43.5469 ], [ -72.49395, -43.57074 ], [ -72.54806, -43.59081 ], [ -72.60465, -43.60689 ], [ -72.66317, -43.61884 ], [ -72.72303, -43.62653 ], [ -72.78365, -43.62989 ], [ -72.84444, -43.62888 ], [ -72.88617, -43.62517 ], [ -72.88337, -43.6214 ], [ -72.88215, -43.62041 ], [ -72.8805, -43.61792 ], [ -72.87719, -43.61556 ], [ -72.87683, -43.6147 ], [ -72.87622, -43.61422 ], [ -72.87687, -43.61338 ], [ -72.87735, -43.6131 ], [ -72.87737, -43.61269 ], [ -72.87699, -43.61229 ], [ -72.87629, -43.61199 ], [ -72.87519, -43.61203 ], [ -72.87535, -43.61175 ], [ -72.87575, -43.61164 ], [ -72.87795, -43.61191 ], [ -72.87803, -43.61167 ], [ -72.87773, -43.61138 ], [ -72.87797, -43.61104 ], [ -72.87775, -43.61057 ], [ -72.87783, -43.61047 ], [ -72.87823, -43.61036 ], [ -72.87902, -43.61048 ], [ -72.87957, -43.6102 ], [ -72.87952, -43.60946 ], [ -72.87991, -43.60953 ], [ -72.88005, -43.60999 ], [ -72.88045, -43.60999 ], [ -72.88092, -43.60977 ], [ -72.88094, -43.60937 ], [ -72.88118, -43.6092 ], [ -72.88237, -43.60882 ], [ -72.88238, -43.60859 ], [ -72.88131, -43.60794 ], [ -72.88147, -43.60777 ], [ -72.88279, -43.60813 ], [ -72.8839, -43.60786 ], [ -72.88444, -43.60816 ], [ -72.88466, -43.60862 ], [ -72.8845, -43.60896 ], [ -72.88446, -43.6097 ], [ -72.88469, -43.61018 ], [ -72.88467, -43.61063 ], [ -72.88451, -43.6108 ], [ -72.88458, -43.61098 ], [ -72.88521, -43.61093 ], [ -72.8854, -43.61024 ], [ -72.88534, -43.60944 ], [ -72.88512, -43.60897 ], [ -72.88508, -43.60766 ], [ -72.88541, -43.60743 ], [ -72.88596, -43.60738 ], [ -72.88559, -43.60674 ], [ -72.88646, -43.60647 ], [ -72.88639, -43.60613 ], [ -72.88672, -43.60584 ], [ -72.88627, -43.60538 ], [ -72.88697, -43.60533 ], [ -72.88746, -43.60483 ], [ -72.88747, -43.60442 ], [ -72.88725, -43.60407 ], [ -72.88731, -43.60223 ], [ -72.88791, -43.60063 ], [ -72.8888, -43.60014 ], [ -72.88865, -43.5999 ], [ -72.8881, -43.59978 ], [ -72.88858, -43.59962 ], [ -72.88866, -43.59944 ], [ -72.88703, -43.59879 ], [ -72.88651, -43.59797 ], [ -72.8866, -43.59745 ], [ -72.88638, -43.597 ], [ -72.8867, -43.59695 ], [ -72.88693, -43.59712 ], [ -72.88706, -43.59798 ], [ -72.88766, -43.59862 ], [ -72.88821, -43.59869 ], [ -72.88893, -43.59836 ], [ -72.88965, -43.59825 ], [ -72.88965, -43.59797 ], [ -72.88887, -43.59767 ], [ -72.88913, -43.59733 ], [ -72.88913, -43.59698 ], [ -72.88885, -43.59594 ], [ -72.88891, -43.59422 ], [ -72.88839, -43.59312 ], [ -72.88801, -43.59289 ], [ -72.8862, -43.59308 ], [ -72.88541, -43.59302 ], [ -72.88755, -43.59236 ], [ -72.88836, -43.59169 ], [ -72.88863, -43.59083 ], [ -72.88768, -43.58886 ], [ -72.88704, -43.58897 ], [ -72.88681, -43.58879 ], [ -72.8873, -43.58817 ], [ -72.88752, -43.58634 ], [ -72.88716, -43.58552 ], [ -72.88639, -43.58471 ], [ -72.88642, -43.58414 ], [ -72.88665, -43.58408 ], [ -72.8873, -43.58334 ], [ -72.88732, -43.58294 ], [ -72.88702, -43.58248 ], [ -72.88594, -43.58189 ], [ -72.88375, -43.58139 ], [ -72.88337, -43.58116 ], [ -72.88369, -43.58104 ], [ -72.88494, -43.58118 ], [ -72.88534, -43.5809 ], [ -72.88412, -43.5799 ], [ -72.88352, -43.57903 ], [ -72.88368, -43.57881 ], [ -72.88567, -43.58046 ], [ -72.8863, -43.58045 ], [ -72.88912, -43.5832 ], [ -72.8923, -43.58435 ], [ -72.8926, -43.58469 ], [ -72.89281, -43.58556 ], [ -72.89343, -43.58592 ], [ -72.89603, -43.58562 ], [ -72.89759, -43.58581 ], [ -72.8983, -43.5861 ], [ -72.89898, -43.58664 ], [ -72.90027, -43.5881 ], [ -72.90065, -43.58885 ], [ -72.90155, -43.58995 ], [ -72.90221, -43.59128 ], [ -72.90417, -43.5939 ], [ -72.90471, -43.59431 ], [ -72.90508, -43.59489 ], [ -72.90595, -43.59479 ], [ -72.90641, -43.59514 ], [ -72.90645, -43.59618 ], [ -72.90732, -43.5963 ], [ -72.90793, -43.59677 ], [ -72.90921, -43.59858 ], [ -72.90903, -43.59914 ], [ -72.90948, -43.60007 ], [ -72.90986, -43.60042 ], [ -72.91055, -43.60066 ], [ -72.91077, -43.60113 ], [ -72.91054, -43.60353 ], [ -72.91183, -43.60734 ], [ -72.9129, -43.60822 ], [ -72.91421, -43.60899 ], [ -72.91577, -43.60936 ], [ -72.91721, -43.60886 ], [ -72.9191, -43.60877 ], [ -72.91926, -43.60866 ], [ -72.91927, -43.60827 ], [ -72.91904, -43.60792 ], [ -72.91913, -43.60774 ], [ -72.92008, -43.60742 ], [ -72.92034, -43.60679 ], [ -72.92074, -43.60657 ], [ -72.92083, -43.60628 ], [ -72.92061, -43.60582 ], [ -72.92077, -43.60565 ], [ -72.92087, -43.60502 ], [ -72.92182, -43.60475 ], [ -72.92214, -43.60452 ], [ -72.92256, -43.60366 ], [ -72.92455, -43.6029 ], [ -72.92521, -43.60222 ], [ -72.92622, -43.60229 ], [ -72.92766, -43.60169 ], [ -72.92861, -43.60147 ], [ -72.92904, -43.60044 ], [ -72.92928, -43.60021 ], [ -72.92959, -43.60033 ], [ -72.93011, -43.60138 ], [ -72.93059, -43.60368 ], [ -72.93095, -43.60437 ], [ -72.93084, -43.60546 ], [ -72.93113, -43.60633 ], [ -72.93166, -43.60675 ], [ -72.9323, -43.60675 ], [ -72.93278, -43.60636 ], [ -72.93325, -43.60642 ], [ -72.93379, -43.60689 ], [ -72.93559, -43.60686 ], [ -72.93566, -43.60709 ], [ -72.93534, -43.60732 ], [ -72.93557, -43.6075 ], [ -72.93598, -43.60733 ], [ -72.93675, -43.60745 ], [ -72.9377, -43.6073 ], [ -72.93772, -43.60678 ], [ -72.93812, -43.60661 ], [ -72.93998, -43.60745 ], [ -72.94163, -43.60735 ], [ -72.94268, -43.6068 ], [ -72.9438, -43.60573 ], [ -72.94414, -43.60516 ], [ -72.94424, -43.60464 ], [ -72.94387, -43.60366 ], [ -72.94364, -43.60349 ], [ -72.94233, -43.60283 ], [ -72.94139, -43.60288 ], [ -72.94092, -43.60264 ], [ -72.93896, -43.60249 ], [ -72.94038, -43.60228 ], [ -72.94258, -43.60243 ], [ -72.94362, -43.60177 ], [ -72.94465, -43.60138 ], [ -72.94615, -43.60112 ], [ -72.94805, -43.60109 ], [ -72.94909, -43.60036 ], [ -72.94973, -43.60014 ], [ -72.94956, -43.60054 ], [ -72.95002, -43.60083 ], [ -72.95512, -43.60125 ], [ -72.95637, -43.60151 ], [ -72.95691, -43.60192 ], [ -72.95695, -43.60283 ], [ -72.95747, -43.60388 ], [ -72.95816, -43.60458 ], [ -72.95814, -43.60492 ], [ -72.95765, -43.60567 ], [ -72.95816, -43.60687 ], [ -72.95835, -43.6069 ], [ -72.95823, -43.60627 ], [ -72.95839, -43.60567 ], [ -72.95892, -43.60519 ], [ -72.95942, -43.6044 ], [ -72.95944, -43.60295 ], [ -72.95595, -43.59818 ], [ -72.95447, -43.5973 ], [ -72.95272, -43.59559 ], [ -72.90064, -43.57326 ], [ -72.93582, -43.57625 ], [ -72.93819, -43.57492 ], [ -72.93924, -43.57419 ], [ -72.94005, -43.57334 ], [ -72.94279, -43.57137 ], [ -72.94342, -43.57127 ], [ -72.94544, -43.57222 ], [ -72.94708, -43.57248 ], [ -72.948, -43.57295 ], [ -72.94856, -43.57279 ], [ -72.94906, -43.57188 ], [ -72.95033, -43.57173 ], [ -72.95045, -43.57023 ], [ -72.95069, -43.56989 ], [ -72.95238, -43.56883 ], [ -72.95263, -43.56832 ], [ -72.95291, -43.567 ], [ -72.955, -43.56554 ], [ -72.95553, -43.56365 ], [ -72.95602, -43.56315 ], [ -72.95665, -43.56287 ], [ -72.95709, -43.56173 ], [ -72.95796, -43.56122 ], [ -72.95837, -43.56077 ], [ -72.95855, -43.55996 ], [ -72.95983, -43.55959 ], [ -72.96073, -43.5584 ], [ -72.96253, -43.55843 ], [ -72.96366, -43.55776 ], [ -72.9646, -43.55748 ], [ -72.96641, -43.55739 ], [ -72.97102, -43.55844 ], [ -72.97212, -43.55845 ], [ -72.9733, -43.55825 ], [ -72.97522, -43.55696 ], [ -72.97626, -43.55657 ], [ -72.9776, -43.55659 ], [ -72.97994, -43.55697 ], [ -72.98043, -43.55658 ], [ -72.98069, -43.55544 ], [ -72.98025, -43.55451 ], [ -72.9802, -43.5537 ], [ -72.98085, -43.55303 ], [ -72.98157, -43.55258 ], [ -72.98244, -43.55231 ], [ -72.98371, -43.55215 ], [ -72.98913, -43.55217 ], [ -72.98935, -43.55236 ], [ -72.98918, -43.55304 ], [ -72.98877, -43.55355 ], [ -72.98874, -43.55424 ], [ -72.98898, -43.55441 ], [ -72.98945, -43.55442 ], [ -72.99001, -43.55409 ], [ -72.99093, -43.55249 ], [ -72.99125, -43.55226 ], [ -72.99243, -43.55217 ], [ -72.99343, -43.55276 ], [ -72.9938, -43.55328 ], [ -72.9945, -43.55381 ], [ -72.99535, -43.55394 ], [ -72.99599, -43.5536 ], [ -72.99691, -43.55212 ], [ -72.99692, -43.55149 ], [ -72.99648, -43.55051 ], [ -72.99635, -43.54971 ], [ -72.9966, -43.54948 ], [ -72.99746, -43.54955 ], [ -73.0019, -43.5507 ], [ -73.00558, -43.5513 ], [ -73.00622, -43.55056 ], [ -73.00632, -43.54907 ], [ -73.00657, -43.54867 ], [ -73.00712, -43.54833 ], [ -73.0079, -43.54833 ], [ -73.00822, -43.54856 ], [ -73.00837, -43.54897 ], [ -73.00938, -43.54966 ], [ -73.00959, -43.55139 ], [ -73.01005, -43.55162 ], [ -73.01195, -43.55106 ], [ -73.01234, -43.55112 ], [ -73.01304, -43.5517 ], [ -73.01318, -43.55336 ], [ -73.01372, -43.55376 ], [ -73.01419, -43.55382 ], [ -73.01482, -43.55343 ], [ -73.01492, -43.55269 ], [ -73.01407, -43.55107 ], [ -73.01408, -43.55078 ], [ -73.01439, -43.5505 ], [ -73.01541, -43.55044 ], [ -73.01705, -43.55109 ], [ -73.01753, -43.55109 ], [ -73.01792, -43.55087 ], [ -73.01801, -43.55029 ], [ -73.01691, -43.54954 ], [ -73.01669, -43.54891 ], [ -73.01521, -43.54792 ], [ -73.01498, -43.54746 ], [ -73.01553, -43.54701 ], [ -73.0164, -43.54678 ], [ -73.01727, -43.5469 ], [ -73.01851, -43.54755 ], [ -73.01959, -43.5487 ], [ -73.02038, -43.54876 ], [ -73.0211, -43.54801 ], [ -73.02198, -43.5463 ], [ -73.02199, -43.54562 ], [ -73.02122, -43.54468 ], [ -73.02099, -43.54417 ], [ -73.02108, -43.54331 ], [ -73.02179, -43.54262 ], [ -73.02235, -43.54245 ], [ -73.02352, -43.54258 ], [ -73.02383, -43.54264 ], [ -73.0243, -43.54305 ], [ -73.02475, -43.54442 ], [ -73.02522, -43.54506 ], [ -73.02544, -43.54569 ], [ -73.02535, -43.54649 ], [ -73.02338, -43.55014 ], [ -73.0227, -43.55171 ], [ -73.02243, -43.55394 ], [ -73.02171, -43.55485 ], [ -73.02161, -43.55743 ], [ -73.02104, -43.55829 ], [ -73.02096, -43.55903 ], [ -73.02048, -43.55965 ], [ -73.02039, -43.56058 ], [ -73.01998, -43.56173 ], [ -73.01873, -43.56739 ], [ -73.0183, -43.5702 ], [ -73.01782, -43.57112 ], [ -73.01781, -43.57181 ], [ -73.01819, -43.57262 ], [ -73.01886, -43.57271 ], [ -73.01891, -43.57112 ], [ -73.02049, -43.56505 ], [ -73.02091, -43.56213 ], [ -73.02197, -43.55989 ], [ -73.02289, -43.55554 ], [ -73.02685, -43.54656 ], [ -73.02868, -43.54405 ], [ -73.03077, -43.54045 ], [ -73.03156, -43.53947 ], [ -73.03283, -43.53879 ], [ -73.03417, -43.53863 ], [ -73.03778, -43.53911 ], [ -73.04042, -43.54033 ], [ -73.04152, -43.54057 ], [ -73.04246, -43.54057 ], [ -73.04356, -43.54104 ], [ -73.04426, -43.5411 ], [ -73.04536, -43.54094 ], [ -73.04623, -43.54059 ], [ -73.04749, -43.54049 ], [ -73.04915, -43.53958 ], [ -73.05019, -43.53804 ], [ -73.05122, -43.53719 ], [ -73.05226, -43.53553 ], [ -73.05315, -43.53352 ], [ -73.05387, -43.53267 ], [ -73.05419, -43.53198 ], [ -73.0542, -43.5309 ], [ -73.05461, -43.52975 ], [ -73.05454, -43.52866 ], [ -73.05416, -43.5278 ], [ -73.05245, -43.52629 ], [ -73.05175, -43.52605 ], [ -73.05057, -43.52599 ], [ -73.04877, -43.52558 ], [ -73.04776, -43.52483 ], [ -73.0466, -43.52362 ], [ -73.04637, -43.52304 ], [ -73.04645, -43.52275 ], [ -73.04717, -43.52213 ], [ -73.04819, -43.52173 ], [ -73.04898, -43.52117 ], [ -73.05047, -43.52112 ], [ -73.05134, -43.52078 ], [ -73.05204, -43.52084 ], [ -73.05426, -43.51971 ], [ -73.05506, -43.51862 ], [ -73.05569, -43.51827 ], [ -73.0557, -43.51742 ], [ -73.05674, -43.51616 ], [ -73.05697, -43.51565 ], [ -73.05699, -43.51432 ], [ -73.0577, -43.5141 ], [ -73.05836, -43.51123 ], [ -73.05817, -43.5079 ], [ -73.05779, -43.50675 ], [ -73.05592, -43.504 ], [ -73.05546, -43.50291 ], [ -73.05562, -43.50062 ], [ -73.05523, -43.5001 ], [ -73.05634, -43.49907 ], [ -73.05799, -43.49786 ], [ -73.05792, -43.4974 ], [ -73.05753, -43.49689 ], [ -73.0576, -43.49649 ], [ -73.05831, -43.49592 ], [ -73.05855, -43.49551 ], [ -73.05825, -43.49437 ], [ -73.05857, -43.49271 ], [ -73.05909, -43.49255 ], [ -73.05911, -43.49276 ], [ -73.05872, -43.49334 ], [ -73.05882, -43.49456 ], [ -73.05997, -43.49386 ], [ -73.06163, -43.49242 ], [ -73.06423, -43.48893 ], [ -73.06541, -43.48779 ], [ -73.06668, -43.48613 ], [ -73.06683, -43.48572 ], [ -73.06817, -43.48413 ], [ -73.06849, -43.48298 ], [ -73.06951, -43.48177 ], [ -73.07345, -43.47852 ], [ -73.07722, -43.47698 ], [ -73.07894, -43.47612 ], [ -73.08036, -43.47509 ], [ -73.08115, -43.4743 ], [ -73.08171, -43.47309 ], [ -73.08211, -43.47045 ], [ -73.0829, -43.46879 ], [ -73.08353, -43.46787 ], [ -73.08479, -43.46661 ], [ -73.08565, -43.46621 ], [ -73.0866, -43.4661 ], [ -73.08738, -43.46576 ], [ -73.08841, -43.46468 ], [ -73.09013, -43.4637 ], [ -73.09053, -43.46324 ], [ -73.09037, -43.46261 ], [ -73.08982, -43.4622 ], [ -73.08677, -43.46133 ], [ -73.08592, -43.46088 ], [ -73.08537, -43.46047 ], [ -73.08475, -43.45932 ], [ -73.08483, -43.45755 ], [ -73.08594, -43.456 ], [ -73.08987, -43.45314 ], [ -73.08978, -43.45241 ], [ -73.08854, -43.45164 ], [ -73.08683, -43.44997 ], [ -73.08667, -43.44917 ], [ -73.087, -43.44659 ], [ -73.08755, -43.44544 ], [ -73.08779, -43.4443 ], [ -73.08827, -43.44338 ], [ -73.0889, -43.4428 ], [ -73.08905, -43.44246 ], [ -73.08906, -43.4416 ], [ -73.08891, -43.44114 ], [ -73.08899, -43.43942 ], [ -73.08884, -43.43862 ], [ -73.08979, -43.43655 ], [ -73.08987, -43.43552 ], [ -73.09019, -43.43472 ], [ -73.09011, -43.43426 ], [ -73.08941, -43.43351 ], [ -73.08848, -43.43161 ], [ -73.08786, -43.43115 ], [ -73.08645, -43.43028 ], [ -73.08457, -43.42953 ], [ -73.0809, -43.42752 ], [ -73.07857, -43.42585 ], [ -73.07802, -43.4251 ], [ -73.07795, -43.42377 ], [ -73.07717, -43.42314 ], [ -73.07552, -43.42251 ], [ -73.0724, -43.4221 ], [ -73.07107, -43.42158 ], [ -73.06803, -43.41973 ], [ -73.06622, -43.41979 ], [ -73.06537, -43.41966 ], [ -73.06482, -43.4192 ], [ -73.0638, -43.41902 ], [ -73.06029, -43.41644 ], [ -73.0599, -43.41586 ], [ -73.05888, -43.41498 ], [ -73.05735, -43.41155 ], [ -73.05673, -43.40954 ], [ -73.05674, -43.40822 ], [ -73.05597, -43.40488 ], [ -73.05606, -43.40333 ], [ -73.05575, -43.40201 ], [ -73.0538, -43.40051 ], [ -73.05334, -43.39931 ], [ -73.05217, -43.39787 ], [ -73.05179, -43.39701 ], [ -73.05078, -43.39615 ], [ -73.04953, -43.39356 ], [ -73.04963, -43.39029 ], [ -73.04987, -43.38891 ], [ -73.05265, -43.3826 ], [ -73.05297, -43.38118 ], [ -73.05346, -43.37699 ], [ -73.05401, -43.37538 ], [ -73.05426, -43.37389 ], [ -73.05529, -43.37131 ], [ -73.05561, -43.36918 ], [ -73.05625, -43.36775 ], [ -73.05696, -43.36517 ], [ -73.06068, -43.35618 ], [ -73.06171, -43.35405 ], [ -73.06306, -43.35009 ], [ -73.06293, -43.34459 ], [ -73.06309, -43.34413 ], [ -73.06319, -43.33966 ], [ -73.06243, -43.33563 ], [ -73.06236, -43.33386 ], [ -73.06152, -43.32943 ], [ -73.06147, -43.32455 ], [ -73.06101, -43.3226 ], [ -73.06039, -43.32168 ], [ -73.05704, -43.31903 ], [ -73.0565, -43.3188 ], [ -73.0547, -43.31747 ], [ -73.05416, -43.31765 ], [ -73.05416, -43.3184 ], [ -73.05368, -43.31838 ], [ -73.05244, -43.31775 ], [ -73.04978, -43.31682 ], [ -73.04932, -43.31637 ], [ -73.0483, -43.3163 ], [ -73.04752, -43.31601 ], [ -73.0462, -43.31584 ], [ -73.04488, -43.31451 ], [ -73.04401, -43.31463 ], [ -73.04378, -43.31479 ], [ -73.04308, -43.31473 ], [ -73.04261, -43.31445 ], [ -73.04176, -43.3129 ], [ -73.04098, -43.31278 ], [ -73.04044, -43.31238 ], [ -73.03957, -43.31215 ], [ -73.03872, -43.31168 ], [ -73.03583, -43.31075 ], [ -73.03419, -43.31069 ], [ -73.03341, -43.31046 ], [ -73.03045, -43.30861 ], [ -73.02983, -43.30804 ], [ -73.02874, -43.30751 ], [ -73.0264, -43.30573 ], [ -73.02563, -43.30532 ], [ -73.02438, -43.3044 ], [ -73.0229, -43.30313 ], [ -73.02267, -43.30273 ], [ -73.02065, -43.30106 ], [ -73.01761, -43.29922 ], [ -73.01558, -43.29852 ], [ -73.01411, -43.29743 ], [ -73.0131, -43.29691 ], [ -73.01146, -43.29546 ], [ -73.00726, -43.29338 ], [ -73.00336, -43.29199 ], [ -73.00262, -43.29143 ], [ -73.00235, -43.29076 ], [ -73.00196, -43.29044 ], [ -73.00115, -43.2891 ], [ -72.99941, -43.28765 ], [ -72.99852, -43.2862 ], [ -72.9978, -43.28552 ], [ -72.99627, -43.28464 ], [ -72.99535, -43.2839 ], [ -72.9926, -43.28278 ], [ -72.98814, -43.28009 ], [ -72.98505, -43.27785 ], [ -72.98296, -43.27658 ], [ -72.98196, -43.27543 ], [ -72.98121, -43.27493 ], [ -72.98056, -43.27341 ], [ -72.98051, -43.27287 ], [ -72.97918, -43.27283 ], [ -72.97909, -43.27297 ], [ -72.97946, -43.27325 ], [ -72.97964, -43.27451 ], [ -72.97744, -43.27408 ], [ -72.97613, -43.27406 ], [ -72.97907, -43.27648 ], [ -72.97839, -43.27687 ], [ -72.97595, -43.27748 ], [ -72.97489, -43.27794 ], [ -72.97415, -43.27798 ], [ -72.97344, -43.27775 ], [ -72.97239, -43.2779 ], [ -72.96876, -43.27788 ], [ -72.9648, -43.2776 ], [ -72.95689, -43.27666 ], [ -72.94992, -43.27532 ], [ -72.94725, -43.275 ], [ -72.94651, -43.27478 ], [ -72.9458, -43.27427 ], [ -72.94374, -43.27325 ], [ -72.93981, -43.27199 ], [ -72.9393, -43.27145 ], [ -72.93824, -43.2708 ], [ -72.93759, -43.26994 ], [ -72.93645, -43.26935 ], [ -72.93575, -43.26958 ], [ -72.9226, -43.26748 ], [ -72.92131, -43.26836 ], [ -72.92014, -43.26826 ], [ -72.91926, -43.26791 ], [ -72.91908, -43.26768 ], [ -72.92171, -43.26385 ], [ -72.92632, -43.25901 ], [ -72.93007, -43.25657 ], [ -72.93189, -43.25604 ], [ -72.93241, -43.25613 ], [ -72.93261, -43.25661 ], [ -72.93305, -43.25692 ], [ -72.93336, -43.25692 ], [ -72.93463, -43.25636 ], [ -72.93671, -43.25629 ], [ -72.94023, -43.25677 ], [ -72.9419, -43.25661 ], [ -72.94293, -43.25698 ], [ -72.94406, -43.25714 ], [ -72.94846, -43.25837 ], [ -72.95018, -43.2587 ], [ -72.9527, -43.2598 ], [ -72.95572, -43.26049 ], [ -72.95547, -43.25959 ], [ -72.95436, -43.25866 ], [ -72.95338, -43.25827 ], [ -72.95068, -43.25772 ], [ -72.94761, -43.25677 ], [ -72.94679, -43.25666 ], [ -72.94518, -43.25587 ], [ -72.94286, -43.25505 ], [ -72.93741, -43.25404 ], [ -72.93627, -43.25358 ], [ -72.93366, -43.25294 ], [ -72.93109, -43.25258 ], [ -72.92595, -43.2522 ], [ -72.92422, -43.25257 ], [ -72.92171, -43.25273 ], [ -72.91985, -43.25245 ], [ -72.91688, -43.25231 ], [ -72.91576, -43.25292 ], [ -72.91378, -43.25344 ], [ -72.9126, -43.25346 ], [ -72.91103, -43.25376 ], [ -72.90799, -43.25357 ], [ -72.90629, -43.25328 ], [ -72.90143, -43.25206 ], [ -72.89789, -43.25093 ], [ -72.89633, -43.25071 ], [ -72.89389, -43.24962 ], [ -72.89058, -43.24855 ], [ -72.88631, -43.24642 ], [ -72.8848, -43.2454 ], [ -72.88365, -43.24497 ], [ -72.88054, -43.24305 ], [ -72.8789, -43.24151 ], [ -72.87767, -43.24125 ], [ -72.87763, -43.2405 ], [ -72.87547, -43.23842 ], [ -72.87428, -43.23702 ], [ -72.87293, -43.23457 ], [ -72.87255, -43.23433 ], [ -72.87256, -43.23416 ], [ -72.87153, -43.23292 ], [ -72.87152, -43.23143 ], [ -72.87139, -43.23102 ], [ -72.87238, -43.22853 ], [ -72.87329, -43.2274 ], [ -72.87397, -43.22477 ], [ -72.87511, -43.2224 ], [ -72.87566, -43.22063 ], [ -72.87576, -43.21879 ], [ -72.87635, -43.21795 ], [ -72.87631, -43.2172 ], [ -72.87649, -43.21669 ], [ -72.87691, -43.21618 ], [ -72.87684, -43.21596 ], [ -72.87744, -43.21488 ], [ -72.87852, -43.2137 ], [ -72.8803, -43.21093 ], [ -72.88186, -43.20926 ], [ -72.88276, -43.20853 ], [ -72.8831, -43.20785 ], [ -72.88287, -43.20623 ], [ -72.88346, -43.20546 ], [ -72.88475, -43.20307 ], [ -72.88475, -43.20158 ], [ -72.88217, -43.20169 ], [ -72.88163, -43.20156 ], [ -72.87996, -43.20065 ], [ -72.87493, -43.19959 ], [ -72.87371, -43.1991 ], [ -72.8703, -43.1986 ], [ -72.86924, -43.19805 ], [ -72.86776, -43.19796 ], [ -72.86554, -43.19704 ], [ -72.864, -43.19665 ], [ -72.86201, -43.1959 ], [ -72.85951, -43.19583 ], [ -72.85844, -43.19535 ], [ -72.85733, -43.19428 ], [ -72.85533, -43.19359 ], [ -72.8544, -43.19351 ], [ -72.85306, -43.19381 ], [ -72.85196, -43.19373 ], [ -72.85038, -43.19271 ], [ -72.84874, -43.19122 ], [ -72.84821, -43.19092 ], [ -72.84777, -43.19039 ], [ -72.8464, -43.18949 ], [ -72.84449, -43.1888 ], [ -72.8429, -43.18785 ], [ -72.84066, -43.18738 ], [ -72.83962, -43.18687 ], [ -72.83918, -43.18639 ], [ -72.83796, -43.18637 ], [ -72.83632, -43.18545 ], [ -72.83589, -43.18466 ], [ -72.83406, -43.18434 ], [ -72.86337, -43.14173 ], [ -72.77775, -43.11695 ], [ -72.76188, -43.11963 ], [ -72.76045, -43.11821 ], [ -72.75855, -43.11729 ], [ -72.75701, -43.11691 ], [ -72.75679, -43.11667 ], [ -72.75673, -43.11626 ], [ -72.75643, -43.11609 ], [ -72.75394, -43.11608 ], [ -72.75321, -43.11496 ], [ -72.75273, -43.11477 ], [ -72.75053, -43.11514 ], [ -72.74999, -43.11563 ], [ -72.74998, -43.11677 ], [ -72.74975, -43.11804 ], [ -72.75033, -43.11912 ], [ -72.75102, -43.1199 ], [ -72.7514, -43.1214 ], [ -72.74359, -43.12272 ], [ -72.74241, -43.12247 ], [ -72.74191, -43.12215 ], [ -72.7418, -43.12172 ], [ -72.74203, -43.12132 ], [ -72.74184, -43.12094 ], [ -72.74068, -43.11988 ], [ -72.74021, -43.11916 ], [ -72.73959, -43.11873 ], [ -72.73803, -43.11862 ], [ -72.73691, -43.11832 ], [ -72.73379, -43.11955 ], [ -72.73273, -43.12056 ], [ -72.7325, -43.12115 ], [ -72.73246, -43.12207 ], [ -72.73226, -43.12245 ], [ -72.73172, -43.12279 ], [ -72.73128, -43.1233 ], [ -72.73031, -43.12338 ], [ -72.72922, -43.12373 ], [ -72.72812, -43.12498 ], [ -72.72712, -43.1255 ], [ -72.6518, -43.13819 ], [ -72.65234, -43.13782 ], [ -72.65258, -43.1374 ], [ -72.65255, -43.13669 ], [ -72.65235, -43.13619 ], [ -72.65161, -43.13561 ], [ -72.64924, -43.13452 ], [ -72.64893, -43.13418 ], [ -72.64878, -43.13363 ], [ -72.62164, -43.0999 ], [ -72.71555, -43.05761 ], [ -72.7285, -43.01443 ], [ -72.53837, -43.08625 ], [ -72.50226, -43.13662 ], [ -72.48036, -43.16766 ], [ -72.48094, -43.1682 ], [ -72.4816, -43.16845 ], [ -72.48218, -43.16908 ], [ -72.48316, -43.16951 ], [ -72.48339, -43.1702 ], [ -72.48429, -43.17092 ], [ -72.48515, -43.17132 ], [ -72.48608, -43.17138 ], [ -72.4869, -43.17123 ], [ -72.48877, -43.17129 ] ] ], [ [ [ -72.90946, -43.62218 ], [ -72.90954, -43.62275 ], [ -72.91014, -43.62265 ], [ -72.90946, -43.62218 ] ] ], [ [ [ -72.4202, -43.27302 ], [ -72.41399, -43.27436 ], [ -72.41629, -43.27536 ], [ -72.41739, -43.27552 ], [ -72.4191, -43.27632 ], [ -72.4197, -43.27635 ], [ -72.4202, -43.27302 ] ] ], [ [ [ -72.42866, -43.23533 ], [ -72.43106, -43.22773 ], [ -72.43043, -43.22861 ], [ -72.43026, -43.22927 ], [ -72.4294, -43.23034 ], [ -72.42606, -43.23359 ], [ -72.42564, -43.23385 ], [ -72.42604, -43.23506 ], [ -72.42541, -43.23755 ], [ -72.42427, -43.23937 ], [ -72.42418, -43.23985 ], [ -72.42416, -43.24077 ], [ -72.42441, -43.24142 ], [ -72.42496, -43.24644 ], [ -72.42866, -43.23533 ] ] ] ] } },
{ "type": "Feature", "properties": { "nombre": "Parque Nacional Pumalin", "categoria": "Parque Nacional", "region": "Los Lagos", "superficie_ha": "402392", "decreto": "NÂ° 28 de 2018" }, "geometry": { "type": "MultiPolygon", "coordinates": [ [ [ [ -72.4788, -43.01136 ], [ -72.47896, -43.00971 ], [ -72.47695, -43.00913 ], [ -72.47401, -43.00891 ], [ -72.47388, -43.00907 ], [ -72.47383, -43.00992 ], [ -72.47405, -43.01126 ], [ -72.47396, -43.01162 ], [ -72.47332, -43.01212 ], [ -72.47183, -43.01239 ], [ -72.46827, -43.01093 ], [ -72.4676, -43.01054 ], [ -72.46647, -43.00907 ], [ -72.46436, -43.00838 ], [ -72.4644, -43.00974 ], [ -72.46572, -43.00957 ], [ -72.4665, -43.0105 ], [ -72.46614, -43.01137 ], [ -72.46829, -43.01286 ], [ -72.46992, -43.01327 ], [ -72.47106, -43.01316 ], [ -72.47188, -43.01355 ], [ -72.47355, -43.01346 ], [ -72.47563, -43.01437 ], [ -72.4788, -43.01136 ] ] ], [ [ [ -72.60568, -42.75372 ], [ -72.6061, -42.75538 ], [ -72.60731, -42.7569 ], [ -72.60847, -42.75873 ], [ -72.61014, -42.76053 ], [ -72.61087, -42.76295 ], [ -72.61683, -42.77077 ], [ -72.61871, -42.77436 ], [ -72.61912, -42.77473 ], [ -72.62211, -42.77628 ], [ -72.62409, -42.78012 ], [ -72.63816, -42.79829 ], [ -72.64518, -42.79968 ], [ -72.65911, -42.8057 ], [ -72.69303, -42.81404 ], [ -72.70888, -42.8199 ], [ -72.71174, -42.82065 ], [ -72.72753, -42.82291 ], [ -72.73929, -42.82441 ], [ -72.74624, -42.82445 ], [ -72.7483, -42.8243 ], [ -72.76073, -42.82165 ], [ -72.76796, -42.82211 ], [ -72.77106, -42.82252 ], [ -72.7723, -42.82296 ], [ -72.77717, -42.82533 ], [ -72.7796, -42.82681 ], [ -72.7916, -42.84011 ], [ -72.79221, -42.84094 ], [ -72.7927, -42.84202 ], [ -72.79706, -42.84228 ], [ -72.7983, -42.83603 ], [ -72.81713, -42.83388 ], [ -72.82006, -42.83089 ], [ -72.82028, -42.83052 ], [ -72.82054, -42.80574 ], [ -72.81964, -42.80599 ], [ -72.81874, -42.80583 ], [ -72.8183, -42.8056 ], [ -72.8177, -42.80508 ], [ -72.81655, -42.80354 ], [ -72.81505, -42.8038 ], [ -72.81206, -42.80301 ], [ -72.81154, -42.80307 ], [ -72.80915, -42.80367 ], [ -72.80831, -42.80367 ], [ -72.80681, -42.80412 ], [ -72.80713, -42.80519 ], [ -72.80778, -42.80576 ], [ -72.80797, -42.80617 ], [ -72.8079, -42.80664 ], [ -72.80472, -42.80712 ], [ -72.80225, -42.80805 ], [ -72.79923, -42.80854 ], [ -72.7987, -42.80821 ], [ -72.79852, -42.80718 ], [ -72.79862, -42.80665 ], [ -72.79843, -42.80619 ], [ -72.79778, -42.80571 ], [ -72.79633, -42.80389 ], [ -72.79528, -42.80397 ], [ -72.79455, -42.80428 ], [ -72.79325, -42.80521 ], [ -72.79233, -42.80534 ], [ -72.79138, -42.80535 ], [ -72.78886, -42.80473 ], [ -72.78741, -42.80456 ], [ -72.78695, -42.80421 ], [ -72.78817, -42.76955 ], [ -72.78614, -42.76989 ], [ -72.78382, -42.77138 ], [ -72.78131, -42.77338 ], [ -72.77938, -42.77346 ], [ -72.7755, -42.77469 ], [ -72.77321, -42.7749 ], [ -72.77215, -42.77603 ], [ -72.76516, -42.77794 ], [ -72.76519, -42.77829 ], [ -72.76472, -42.77932 ], [ -72.76323, -42.78113 ], [ -72.76196, -42.78153 ], [ -72.76118, -42.78213 ], [ -72.75904, -42.7833 ], [ -72.75745, -42.78354 ], [ -72.75633, -42.78412 ], [ -72.75574, -42.78514 ], [ -72.75366, -42.78695 ], [ -72.7559, -42.7872 ], [ -72.75588, -42.78776 ], [ -72.75378, -42.78813 ], [ -72.75265, -42.78799 ], [ -72.75121, -42.78821 ], [ -72.74958, -42.78871 ], [ -72.7484, -42.78982 ], [ -72.74731, -42.79039 ], [ -72.74489, -42.79065 ], [ -72.74287, -42.79125 ], [ -72.73866, -42.79417 ], [ -72.73754, -42.79448 ], [ -72.73647, -42.79531 ], [ -72.73416, -42.79595 ], [ -72.73299, -42.79701 ], [ -72.73114, -42.80097 ], [ -72.72729, -42.80332 ], [ -72.72427, -42.80379 ], [ -72.72303, -42.80222 ], [ -72.72163, -42.80125 ], [ -72.71804, -42.80251 ], [ -72.71333, -42.79965 ], [ -72.71025, -42.79862 ], [ -72.70757, -42.79729 ], [ -72.7056, -42.7977 ], [ -72.70245, -42.79739 ], [ -72.70124, -42.79651 ], [ -72.70018, -42.79549 ], [ -72.69863, -42.79518 ], [ -72.69847, -42.79473 ], [ -72.69779, -42.79427 ], [ -72.69566, -42.79342 ], [ -72.69467, -42.7928 ], [ -72.69139, -42.79001 ], [ -72.68746, -42.78706 ], [ -72.68002, -42.78516 ], [ -72.67812, -42.78392 ], [ -72.6745, -42.78229 ], [ -72.67394, -42.78133 ], [ -72.67374, -42.78041 ], [ -72.67376, -42.77921 ], [ -72.67314, -42.77797 ], [ -72.67131, -42.77769 ], [ -72.67014, -42.7768 ], [ -72.66823, -42.77411 ], [ -72.66566, -42.77338 ], [ -72.66382, -42.77261 ], [ -72.66359, -42.77279 ], [ -72.66353, -42.77249 ], [ -72.66379, -42.7726 ], [ -72.66319, -42.77099 ], [ -72.66332, -42.76987 ], [ -72.66367, -42.76887 ], [ -72.66612, -42.76783 ], [ -72.66672, -42.76603 ], [ -72.62587, -42.74887 ], [ -72.60567, -42.75372 ], [ -72.60568, -42.75372 ] ] ], [ [ [ -72.44718, -42.99937 ], [ -72.44829, -43.00002 ], [ -72.44849, -43.00096 ], [ -72.4493, -43.00186 ], [ -72.45001, -43.00218 ], [ -72.4513, -43.00311 ], [ -72.44934, -43.00136 ], [ -72.44831, -42.99998 ], [ -72.44718, -42.99937 ] ] ], [ [ [ -72.44718, -42.99937 ], [ -72.4458, -42.99858 ], [ -72.44634, -42.99898 ], [ -72.44718, -42.99937 ] ] ], [ [ [ -72.44268, -42.99724 ], [ -72.44273, -42.99759 ], [ -72.44356, -42.9982 ], [ -72.44284, -42.99843 ], [ -72.44459, -42.99845 ], [ -72.44535, -42.99831 ], [ -72.4458, -42.99858 ], [ -72.44518, -42.9982 ], [ -72.44268, -42.99724 ] ] ], [ [ [ -72.3891, -43.06448 ], [ -72.38969, -43.06511 ], [ -72.39008, -43.0646 ], [ -72.3891, -43.06448 ] ] ], [ [ [ -72.41067, -42.97078 ], [ -72.41066, -42.97047 ], [ -72.41062, -42.97076 ], [ -72.41138, -42.97243 ], [ -72.41067, -42.97078 ] ] ], [ [ [ -72.37707, -42.93804 ], [ -72.37829, -42.93736 ], [ -72.37961, -42.93613 ], [ -72.37987, -42.93552 ], [ -72.37954, -42.93396 ], [ -72.37989, -42.9333 ], [ -72.37939, -42.93118 ], [ -72.37971, -42.9301 ], [ -72.38076, -42.92901 ], [ -72.38099, -42.92814 ], [ -72.38093, -42.92774 ], [ -72.38043, -42.927 ], [ -72.38039, -42.92628 ], [ -72.38111, -42.92529 ], [ -72.38066, -42.92461 ], [ -72.38036, -42.92365 ], [ -72.37978, -42.92313 ], [ -72.3796, -42.92257 ], [ -72.37983, -42.9223 ], [ -72.38091, -42.92203 ], [ -72.38272, -42.92093 ], [ -72.38445, -42.92055 ], [ -72.38572, -42.91963 ], [ -72.38588, -42.91893 ], [ -72.3859, -42.91807 ], [ -72.38665, -42.91408 ], [ -72.38523, -42.91352 ], [ -72.38403, -42.91172 ], [ -72.38412, -42.91122 ], [ -72.38301, -42.90881 ], [ -72.38235, -42.90786 ], [ -72.38134, -42.90723 ], [ -72.38152, -42.90655 ], [ -72.38199, -42.9059 ], [ -72.38179, -42.90432 ], [ -72.38086, -42.90363 ], [ -72.38024, -42.90287 ], [ -72.37963, -42.90161 ], [ -72.37952, -42.90092 ], [ -72.37978, -42.90033 ], [ -72.38045, -42.89987 ], [ -72.38523, -42.89825 ], [ -72.38435, -42.89796 ], [ -72.38246, -42.89558 ], [ -72.38324, -42.89416 ], [ -72.38324, -42.8935 ], [ -72.38504, -42.89167 ], [ -72.38535, -42.89019 ], [ -72.38393, -42.88918 ], [ -72.38318, -42.88829 ], [ -72.38253, -42.88619 ], [ -72.38219, -42.88583 ], [ -72.38129, -42.88513 ], [ -72.37964, -42.88427 ], [ -72.37942, -42.88399 ], [ -72.37772, -42.88351 ], [ -72.37631, -42.88382 ], [ -72.37306, -42.88368 ], [ -72.37269, -42.88333 ], [ -72.37055, -42.88247 ], [ -72.36618, -42.883 ], [ -72.36378, -42.88386 ], [ -72.36205, -42.88546 ], [ -72.3604, -42.88672 ], [ -72.35894, -42.88836 ], [ -72.35774, -42.8892 ], [ -72.35629, -42.89056 ], [ -72.35493, -42.89078 ], [ -72.35399, -42.89065 ], [ -72.35568, -42.89736 ], [ -72.3553, -42.89787 ], [ -72.35439, -42.89831 ], [ -72.34864, -42.89956 ], [ -72.34586, -42.90076 ], [ -72.34495, -42.90151 ], [ -72.3512, -42.91955 ], [ -72.36612, -42.96299 ], [ -72.398, -42.96378 ], [ -72.39735, -42.96214 ], [ -72.39469, -42.96083 ], [ -72.39368, -42.95823 ], [ -72.3934, -42.95421 ], [ -72.39144, -42.95381 ], [ -72.39008, -42.95326 ], [ -72.38697, -42.95104 ], [ -72.38513, -42.94858 ], [ -72.38486, -42.94678 ], [ -72.38404, -42.94517 ], [ -72.38213, -42.94428 ], [ -72.37898, -42.94374 ], [ -72.37727, -42.94411 ], [ -72.37281, -42.94456 ], [ -72.37381, -42.94308 ], [ -72.37512, -42.94186 ], [ -72.37557, -42.94123 ], [ -72.37575, -42.94078 ], [ -72.37558, -42.94022 ], [ -72.37447, -42.93901 ], [ -72.37526, -42.93853 ], [ -72.37707, -42.93804 ] ] ], [ [ [ -72.33307, -42.90906 ], [ -72.33271, -42.90957 ], [ -72.33292, -42.91102 ], [ -72.33265, -42.91143 ], [ -72.32849, -42.91159 ], [ -72.32417, -42.91272 ], [ -72.32109, -42.91417 ], [ -72.31193, -42.91751 ], [ -72.30798, -42.91941 ], [ -72.30438, -42.92091 ], [ -72.3024, -42.92141 ], [ -72.30162, -42.92182 ], [ -72.3012, -42.92278 ], [ -72.30044, -42.92322 ], [ -72.2984, -42.92356 ], [ -72.29636, -42.92446 ], [ -72.29501, -42.9248 ], [ -72.28669, -42.93429 ], [ -72.2866, -42.93468 ], [ -72.28644, -42.93469 ], [ -72.28631, -42.93509 ], [ -72.28623, -42.93593 ], [ -72.28557, -42.93677 ], [ -72.28479, -42.93821 ], [ -72.28481, -42.93877 ], [ -72.28514, -42.93932 ], [ -72.28562, -42.9408 ], [ -72.28567, -42.94247 ], [ -72.28323, -42.94236 ], [ -72.28269, -42.94152 ], [ -72.28238, -42.94093 ], [ -72.28243, -42.94047 ], [ -72.28279, -42.9401 ], [ -72.283, -42.93851 ], [ -72.283, -42.9385 ], [ -72.26741, -42.95628 ], [ -72.24071, -42.99444 ], [ -72.24131, -42.99488 ], [ -72.24087, -42.99676 ], [ -72.23909, -42.998 ], [ -72.2381, -42.99895 ], [ -72.23598, -43.00289 ], [ -72.23794, -43.0041 ], [ -72.23796, -43.00575 ], [ -72.23537, -43.00814 ], [ -72.23513, -43.01137 ], [ -72.23241, -43.01327 ], [ -72.22951, -43.01491 ], [ -72.22721, -43.01916 ], [ -72.22721, -43.02043 ], [ -72.2269, -43.02489 ], [ -72.22715, -43.0271 ], [ -72.22833, -43.02852 ], [ -72.23064, -43.03181 ], [ -72.23133, -43.0355 ], [ -72.23033, -43.03761 ], [ -72.22674, -43.03815 ], [ -72.21993, -43.03692 ], [ -72.21803, -43.03621 ], [ -72.2178, -43.03663 ], [ -72.20123, -43.07908 ], [ -72.1904, -43.12252 ], [ -72.1879, -43.14459 ], [ -72.19349, -43.1408 ], [ -72.19738, -43.13745 ], [ -72.20024, -43.13561 ], [ -72.20572, -43.12992 ], [ -72.20744, -43.12535 ], [ -72.20705, -43.1237 ], [ -72.20866, -43.12022 ], [ -72.21915, -43.11369 ], [ -72.22249, -43.1098 ], [ -72.2264, -43.11152 ], [ -72.22482, -43.11497 ], [ -72.22031, -43.11853 ], [ -72.21707, -43.12209 ], [ -72.21343, -43.12655 ], [ -72.2094, -43.12973 ], [ -72.20812, -43.1332 ], [ -72.20385, -43.13822 ], [ -72.20244, -43.14157 ], [ -72.19941, -43.14573 ], [ -72.19876, -43.1494 ], [ -72.19903, -43.15042 ], [ -72.19988, -43.15116 ], [ -72.20161, -43.15143 ], [ -72.20333, -43.15228 ], [ -72.20547, -43.1536 ], [ -72.20776, -43.1554 ], [ -72.2121, -43.15754 ], [ -72.21576, -43.15957 ], [ -72.22065, -43.16062 ], [ -72.22782, -43.16254 ], [ -72.23124, -43.16396 ], [ -72.23694, -43.16589 ], [ -72.23986, -43.16713 ], [ -72.2417, -43.1683 ], [ -72.24434, -43.17112 ], [ -72.24755, -43.17392 ], [ -72.24916, -43.17651 ], [ -72.25009, -43.17884 ], [ -72.2519, -43.17986 ], [ -72.25263, -43.18061 ], [ -72.2588, -43.18368 ], [ -72.2672, -43.18398 ], [ -72.27558, -43.18865 ], [ -72.2843, -43.18892 ], [ -72.2978, -43.19628 ], [ -72.30403, -43.21079 ], [ -72.31837, -43.21489 ], [ -72.32826, -43.21963 ], [ -72.34594, -43.21846 ], [ -72.35914, -43.19541 ], [ -72.37839, -43.18925 ], [ -72.38793, -43.18765 ], [ -72.39614, -43.18109 ], [ -72.42076, -43.16232 ], [ -72.42004, -43.16198 ], [ -72.41861, -43.16171 ], [ -72.41577, -43.16085 ], [ -72.41557, -43.15917 ], [ -72.41534, -43.15873 ], [ -72.41484, -43.15831 ], [ -72.41679, -43.14659 ], [ -72.35094, -43.08274 ], [ -72.35374, -43.08148 ], [ -72.35538, -43.08167 ], [ -72.35648, -43.0813 ], [ -72.35716, -43.08039 ], [ -72.35893, -43.07958 ], [ -72.36022, -43.07856 ], [ -72.36118, -43.07668 ], [ -72.36214, -43.07622 ], [ -72.36304, -43.07503 ], [ -72.36479, -43.07457 ], [ -72.36563, -43.07463 ], [ -72.3674, -43.07414 ], [ -72.36801, -43.07373 ], [ -72.3686, -43.07176 ], [ -72.36918, -43.07106 ], [ -72.37023, -43.07096 ], [ -72.37071, -43.07073 ], [ -72.37143, -43.06982 ], [ -72.37207, -43.06935 ], [ -72.3732, -43.06928 ], [ -72.37327, -43.06871 ], [ -72.37249, -43.06864 ], [ -72.37254, -43.06808 ], [ -72.3728, -43.0676 ], [ -72.37488, -43.06731 ], [ -72.37468, -43.06529 ], [ -72.37273, -43.06413 ], [ -72.37218, -43.06217 ], [ -72.37252, -43.05827 ], [ -72.37241, -43.05517 ], [ -72.37587, -43.0529 ], [ -72.37766, -43.0505 ], [ -72.38071, -43.05054 ], [ -72.38147, -43.04902 ], [ -72.3829, -43.04793 ], [ -72.38367, -43.04899 ], [ -72.38207, -43.05135 ], [ -72.38397, -43.04993 ], [ -72.37967, -43.05519 ], [ -72.37902, -43.05749 ], [ -72.37941, -43.05931 ], [ -72.38221, -43.05935 ], [ -72.38651, -43.06145 ], [ -72.38844, -43.06439 ], [ -72.39008, -43.0646 ], [ -72.39141, -43.06729 ], [ -72.39545, -43.06874 ], [ -72.39609, -43.06947 ], [ -72.39782, -43.07037 ], [ -72.39995, -43.07021 ], [ -72.40306, -43.0705 ], [ -72.34495, -42.90151 ], [ -72.33992, -42.9047 ], [ -72.33952, -42.90519 ], [ -72.33854, -42.90586 ], [ -72.33553, -42.90698 ], [ -72.33307, -42.90906 ] ] ], [ [ [ -72.33701, -42.88515 ], [ -72.33725, -42.88562 ], [ -72.33665, -42.88688 ], [ -72.33685, -42.88743 ], [ -72.33712, -42.88758 ], [ -72.33835, -42.88773 ], [ -72.34117, -42.88759 ], [ -72.34219, -42.88777 ], [ -72.34276, -42.88808 ], [ -72.34327, -42.88928 ], [ -72.34176, -42.8898 ], [ -72.34136, -42.89017 ], [ -72.34244, -42.89085 ], [ -72.34296, -42.8909 ], [ -72.34355, -42.89027 ], [ -72.34551, -42.88955 ], [ -72.35029, -42.88935 ], [ -72.35155, -42.88879 ], [ -72.35088, -42.8886 ], [ -72.35002, -42.88802 ], [ -72.35043, -42.88564 ], [ -72.35091, -42.88496 ], [ -72.35108, -42.88426 ], [ -72.35077, -42.88375 ], [ -72.35159, -42.88317 ], [ -72.35142, -42.88265 ], [ -72.35099, -42.88244 ], [ -72.35099, -42.8819 ], [ -72.35142, -42.88093 ], [ -72.35067, -42.87939 ], [ -72.35014, -42.87867 ], [ -72.34994, -42.87783 ], [ -72.35107, -42.87661 ], [ -72.3515, -42.87582 ], [ -72.35115, -42.87505 ], [ -72.35112, -42.87442 ], [ -72.3521, -42.87324 ], [ -72.33726, -42.88455 ], [ -72.33678, -42.88499 ], [ -72.33701, -42.88515 ] ] ], [ [ [ -72.35366, -42.87249 ], [ -72.35425, -42.87183 ], [ -72.35402, -42.87177 ], [ -72.35254, -42.8729 ], [ -72.35366, -42.87249 ] ] ], [ [ [ -72.38864, -42.86172 ], [ -72.3769, -42.88295 ], [ -72.37791, -42.88292 ], [ -72.37941, -42.88356 ], [ -72.38717, -42.86956 ], [ -72.3912, -42.8629 ], [ -72.39266, -42.86589 ], [ -72.42407, -42.8815 ], [ -72.42415, -42.88174 ], [ -72.42353, -42.88197 ], [ -72.42306, -42.88251 ], [ -72.42123, -42.88625 ], [ -72.41969, -42.88758 ], [ -72.41905, -42.88836 ], [ -72.41697, -42.88901 ], [ -72.41549, -42.88974 ], [ -72.4139, -42.89151 ], [ -72.40984, -42.89123 ], [ -72.40571, -42.89063 ], [ -72.4054, -42.90141 ], [ -72.40555, -42.90251 ], [ -72.40471, -42.90542 ], [ -72.40451, -42.9078 ], [ -72.40517, -42.91066 ], [ -72.40507, -42.91483 ], [ -72.40405, -42.91731 ], [ -72.40397, -42.91817 ], [ -72.40515, -42.91754 ], [ -72.40666, -42.91714 ], [ -72.40816, -42.91744 ], [ -72.4113, -42.91765 ], [ -72.4121, -42.91799 ], [ -72.41172, -42.91942 ], [ -72.41005, -42.92132 ], [ -72.41006, -42.92715 ], [ -72.4029, -42.93553 ], [ -72.40079, -42.93826 ], [ -72.39284, -42.94099 ], [ -72.39447, -42.94358 ], [ -72.3972, -42.94898 ], [ -72.39869, -42.95343 ], [ -72.40121, -42.95336 ], [ -72.40419, -42.95633 ], [ -72.40776, -42.95824 ], [ -72.41078, -42.95812 ], [ -72.41163, -42.95753 ], [ -72.41231, -42.9587 ], [ -72.41232, -42.95993 ], [ -72.4127, -42.96075 ], [ -72.41187, -42.96315 ], [ -72.41124, -42.96687 ], [ -72.41095, -42.97126 ], [ -72.41163, -42.97261 ], [ -72.41152, -42.97387 ], [ -72.41166, -42.97372 ], [ -72.4117, -42.97388 ], [ -72.41152, -42.97419 ], [ -72.41189, -42.97477 ], [ -72.41185, -42.97573 ], [ -72.4127, -42.97719 ], [ -72.41215, -42.97794 ], [ -72.41226, -42.97842 ], [ -72.41296, -42.98036 ], [ -72.41373, -42.98076 ], [ -72.4141, -42.98115 ], [ -72.41377, -42.98296 ], [ -72.41479, -42.98356 ], [ -72.4149, -42.98395 ], [ -72.41515, -42.98414 ], [ -72.41524, -42.9853 ], [ -72.41599, -42.98608 ], [ -72.41714, -42.98668 ], [ -72.41843, -42.98826 ], [ -72.42232, -42.98888 ], [ -72.42448, -42.98945 ], [ -72.42723, -42.98984 ], [ -72.43539, -42.99148 ], [ -72.4373, -42.99245 ], [ -72.43826, -42.99358 ], [ -72.43956, -42.9937 ], [ -72.43993, -42.99429 ], [ -72.44044, -42.99468 ], [ -72.44042, -42.99501 ], [ -72.44397, -42.99676 ], [ -72.44586, -42.99744 ], [ -72.44714, -42.99829 ], [ -72.44877, -42.99902 ], [ -72.44932, -42.99947 ], [ -72.45033, -43.00082 ], [ -72.45243, -43.00276 ], [ -72.45267, -43.00318 ], [ -72.45277, -43.00402 ], [ -72.4534, -43.00587 ], [ -72.45399, -43.00641 ], [ -72.45608, -43.00688 ], [ -72.45791, -43.00633 ], [ -72.45896, -43.0063 ], [ -72.4607, -43.0066 ], [ -72.46267, -43.00727 ], [ -72.46527, -43.00786 ], [ -72.46688, -43.00855 ], [ -72.46895, -43.01019 ], [ -72.472, -43.01149 ], [ -72.47282, -43.01125 ], [ -72.47261, -43.00998 ], [ -72.47266, -43.00891 ], [ -72.4729, -43.00848 ], [ -72.47346, -43.00809 ], [ -72.47488, -43.00801 ], [ -72.47723, -43.00826 ], [ -72.47972, -43.00897 ], [ -72.48106, -43.00919 ], [ -72.48107, -43.0082 ], [ -72.47975, -43.00723 ], [ -72.47948, -43.00683 ], [ -72.47943, -43.0061 ], [ -72.47981, -43.00567 ], [ -72.47988, -43.00507 ], [ -72.47923, -43.00449 ], [ -72.47681, -43.00371 ], [ -72.47562, -43.00182 ], [ -72.4756, -42.99904 ], [ -72.47531, -42.99755 ], [ -72.47542, -42.99508 ], [ -72.47532, -42.9942 ], [ -72.4759, -42.99227 ], [ -72.47572, -42.99133 ], [ -72.47619, -42.98917 ], [ -72.47782, -42.98902 ], [ -72.47954, -42.98848 ], [ -72.48054, -42.9863 ], [ -72.48047, -42.98496 ], [ -72.48076, -42.9841 ], [ -72.48157, -42.98345 ], [ -72.4825, -42.98308 ], [ -72.48305, -42.98243 ], [ -72.48324, -42.98099 ], [ -72.48535, -42.97346 ], [ -72.48768, -42.97146 ], [ -72.48849, -42.97006 ], [ -72.48857, -42.96893 ], [ -72.488, -42.96688 ], [ -72.48801, -42.96548 ], [ -72.48834, -42.96435 ], [ -72.48954, -42.96325 ], [ -72.48988, -42.96205 ], [ -72.48934, -42.96098 ], [ -72.4897, -42.95937 ], [ -72.48975, -42.95817 ], [ -72.48806, -42.95707 ], [ -72.48654, -42.95676 ], [ -72.48609, -42.95607 ], [ -72.48607, -42.95531 ], [ -72.48681, -42.95468 ], [ -72.48855, -42.9543 ], [ -72.48952, -42.95315 ], [ -72.49031, -42.9528 ], [ -72.49053, -42.95236 ], [ -72.4904, -42.95171 ], [ -72.49125, -42.94905 ], [ -72.49174, -42.9483 ], [ -72.49323, -42.94748 ], [ -72.49326, -42.94701 ], [ -72.49302, -42.94629 ], [ -72.49272, -42.94594 ], [ -72.49037, -42.94436 ], [ -72.49073, -42.94281 ], [ -72.49029, -42.94166 ], [ -72.49146, -42.94069 ], [ -72.49192, -42.93889 ], [ -72.49271, -42.93749 ], [ -72.49143, -42.93611 ], [ -72.49144, -42.93411 ], [ -72.49062, -42.93212 ], [ -72.49069, -42.92902 ], [ -72.49158, -42.92513 ], [ -72.49121, -42.92354 ], [ -72.49042, -42.92133 ], [ -72.4906, -42.91943 ], [ -72.49036, -42.91702 ], [ -72.48739, -42.91488 ], [ -72.48631, -42.9122 ], [ -72.48586, -42.90786 ], [ -72.48512, -42.90421 ], [ -72.48557, -42.8998 ], [ -72.48693, -42.89657 ], [ -72.48864, -42.8904 ], [ -72.48986, -42.88825 ], [ -72.49212, -42.88355 ], [ -72.49653, -42.8792 ], [ -72.50273, -42.87739 ], [ -72.50648, -42.87687 ], [ -72.50885, -42.87673 ], [ -72.50965, -42.87633 ], [ -72.51118, -42.87653 ], [ -72.51478, -42.87556 ], [ -72.55075, -42.95711 ], [ -72.55853, -42.95677 ], [ -72.57803, -42.95627 ], [ -72.60487, -42.95512 ], [ -72.6055, -42.95879 ], [ -72.60559, -42.96058 ], [ -72.60612, -42.9606 ], [ -72.60648, -42.95978 ], [ -72.60715, -42.95915 ], [ -72.60797, -42.95797 ], [ -72.60792, -42.9577 ], [ -72.60761, -42.95746 ], [ -72.60728, -42.95654 ], [ -72.60769, -42.95471 ], [ -72.60801, -42.9543 ], [ -72.60814, -42.95384 ], [ -72.60719, -42.95268 ], [ -72.6074, -42.95242 ], [ -72.60928, -42.9524 ], [ -72.61134, -42.95216 ], [ -72.61166, -42.95244 ], [ -72.61174, -42.95306 ], [ -72.61148, -42.95408 ], [ -72.61165, -42.9546 ], [ -72.61194, -42.95521 ], [ -72.6134, -42.95656 ], [ -72.61548, -42.95754 ], [ -72.61642, -42.95788 ], [ -72.61753, -42.95805 ], [ -72.61809, -42.95837 ], [ -72.61876, -42.95796 ], [ -72.61895, -42.95751 ], [ -72.6193, -42.95732 ], [ -72.62156, -42.95823 ], [ -72.62415, -42.95846 ], [ -72.62271, -42.95492 ], [ -72.6246, -42.95472 ], [ -72.62692, -42.95393 ], [ -72.62797, -42.95101 ], [ -72.62832, -42.95049 ], [ -72.62902, -42.95016 ], [ -72.62683, -42.94838 ], [ -72.62914, -42.94307 ], [ -72.63399, -42.93486 ], [ -72.63453, -42.93024 ], [ -72.63894, -42.92523 ], [ -72.64139, -42.92144 ], [ -72.64278, -42.91795 ], [ -72.64219, -42.91609 ], [ -72.64428, -42.91485 ], [ -72.6474, -42.91349 ], [ -72.64923, -42.91042 ], [ -72.66582, -42.9095 ], [ -72.66176, -42.88658 ], [ -72.67607, -42.87384 ], [ -72.68529, -42.87369 ], [ -72.70771, -42.8794 ], [ -72.75012, -42.84893 ], [ -72.74894, -42.83879 ], [ -72.77963, -42.83955 ], [ -72.79139, -42.84194 ], [ -72.79073, -42.84078 ], [ -72.7874, -42.83696 ], [ -72.77865, -42.82739 ], [ -72.77647, -42.82607 ], [ -72.77063, -42.82336 ], [ -72.76779, -42.823 ], [ -72.76083, -42.82255 ], [ -72.7485, -42.82519 ], [ -72.74628, -42.82534 ], [ -72.73923, -42.82531 ], [ -72.72731, -42.82379 ], [ -72.71142, -42.82152 ], [ -72.70835, -42.82071 ], [ -72.69258, -42.81487 ], [ -72.65864, -42.80653 ], [ -72.64465, -42.80049 ], [ -72.63814, -42.79929 ], [ -72.63699, -42.79869 ], [ -72.623, -42.78052 ], [ -72.62112, -42.77682 ], [ -72.61832, -42.77541 ], [ -72.61763, -42.77478 ], [ -72.61574, -42.77118 ], [ -72.60975, -42.76332 ], [ -72.60902, -42.76089 ], [ -72.60741, -42.75918 ], [ -72.60623, -42.75732 ], [ -72.60498, -42.75575 ], [ -72.60454, -42.75405 ], [ -72.6045, -42.754 ], [ -72.58111, -42.75962 ], [ -72.5262, -42.77734 ], [ -72.47388, -42.79891 ], [ -72.42464, -42.82414 ], [ -72.37895, -42.85277 ], [ -72.37838, -42.8532 ], [ -72.38864, -42.86172 ] ] ], [ [ [ -72.19231, -43.2042 ], [ -72.19949, -43.20743 ], [ -72.20399, -43.21483 ], [ -72.20641, -43.21583 ], [ -72.21042, -43.2171 ], [ -72.22022, -43.21784 ], [ -72.2238, -43.21859 ], [ -72.22729, -43.21972 ], [ -72.23041, -43.22313 ], [ -72.23009, -43.22504 ], [ -72.2317, -43.22694 ], [ -72.22941, -43.23072 ], [ -72.22261, -43.23439 ], [ -72.21344, -43.24002 ], [ -72.21238, -43.23991 ], [ -72.21173, -43.23963 ], [ -72.20985, -43.2383 ], [ -72.20831, -43.23777 ], [ -72.20444, -43.23725 ], [ -72.19783, -43.23716 ], [ -72.19687, -43.23759 ], [ -72.1939, -43.24045 ], [ -72.19118, -43.24156 ], [ -72.19321, -43.25455 ], [ -72.20592, -43.29771 ], [ -72.21709, -43.32316 ], [ -72.21784, -43.32249 ], [ -72.21915, -43.32161 ], [ -72.22391, -43.32035 ], [ -72.22594, -43.31998 ], [ -72.22695, -43.32005 ], [ -72.22764, -43.32035 ], [ -72.23113, -43.32107 ], [ -72.23443, -43.32116 ], [ -72.23797, -43.32107 ], [ -72.24028, -43.32058 ], [ -72.24142, -43.32051 ], [ -72.24273, -43.32008 ], [ -72.24419, -43.32054 ], [ -72.24575, -43.32048 ], [ -72.24936, -43.31981 ], [ -72.25012, -43.31941 ], [ -72.25163, -43.31802 ], [ -72.25308, -43.31755 ], [ -72.25417, -43.31678 ], [ -72.2579, -43.31609 ], [ -72.26091, -43.31458 ], [ -72.26136, -43.31397 ], [ -72.26173, -43.31254 ], [ -72.2628, -43.31147 ], [ -72.26736, -43.31099 ], [ -72.27064, -43.30972 ], [ -72.27213, -43.30931 ], [ -72.27284, -43.30824 ], [ -72.27228, -43.30611 ], [ -72.27251, -43.30511 ], [ -72.2724, -43.30477 ], [ -72.27255, -43.30397 ], [ -72.27364, -43.30299 ], [ -72.27429, -43.30195 ], [ -72.27577, -43.30086 ], [ -72.27735, -43.29935 ], [ -72.27809, -43.29749 ], [ -72.27847, -43.29713 ], [ -72.27991, -43.2966 ], [ -72.28216, -43.29613 ], [ -72.2825, -43.29437 ], [ -72.28157, -43.293 ], [ -72.28067, -43.29239 ], [ -72.27921, -43.29103 ], [ -72.27826, -43.29089 ], [ -72.27724, -43.29049 ], [ -72.27544, -43.29041 ], [ -72.27492, -43.29012 ], [ -72.27438, -43.28942 ], [ -72.27462, -43.28905 ], [ -72.2747, -43.28825 ], [ -72.27443, -43.28696 ], [ -72.27497, -43.28594 ], [ -72.27504, -43.28456 ], [ -72.27574, -43.28416 ], [ -72.27605, -43.28374 ], [ -72.27609, -43.28259 ], [ -72.27729, -43.28014 ], [ -72.27747, -43.27913 ], [ -72.27706, -43.27816 ], [ -72.27689, -43.27713 ], [ -72.27715, -43.27629 ], [ -72.27784, -43.27565 ], [ -72.27833, -43.27457 ], [ -72.27886, -43.27152 ], [ -72.2792, -43.27116 ], [ -72.28051, -43.27064 ], [ -72.284, -43.26811 ], [ -72.28524, -43.26807 ], [ -72.28651, -43.26777 ], [ -72.28773, -43.26779 ], [ -72.2883, -43.2676 ], [ -72.2898, -43.26664 ], [ -72.29196, -43.266 ], [ -72.29263, -43.26523 ], [ -72.29292, -43.2644 ], [ -72.29359, -43.2639 ], [ -72.29375, -43.26288 ], [ -72.29404, -43.26245 ], [ -72.29475, -43.26191 ], [ -72.29479, -43.26144 ], [ -72.29502, -43.26105 ], [ -72.29569, -43.26049 ], [ -72.2967, -43.25922 ], [ -72.29735, -43.25874 ], [ -72.29761, -43.25807 ], [ -72.29997, -43.25658 ], [ -72.30117, -43.25602 ], [ -72.30215, -43.25526 ], [ -72.30313, -43.25488 ], [ -72.30337, -43.25397 ], [ -72.30522, -43.25264 ], [ -72.3066, -43.25273 ], [ -72.30697, -43.25255 ], [ -72.30751, -43.25195 ], [ -72.30852, -43.25138 ], [ -72.30708, -43.25071 ], [ -72.30601, -43.24832 ], [ -72.30705, -43.24348 ], [ -72.31015, -43.24009 ], [ -72.30808, -43.22398 ], [ -72.2977, -43.22068 ], [ -72.29629, -43.21576 ], [ -72.28975, -43.20637 ], [ -72.29031, -43.20466 ], [ -72.29071, -43.2042 ], [ -72.29054, -43.20192 ], [ -72.29004, -43.20128 ], [ -72.28621, -43.20028 ], [ -72.28017, -43.1977 ], [ -72.27982, -43.19784 ], [ -72.27938, -43.19748 ], [ -72.27897, -43.1966 ], [ -72.27888, -43.19563 ], [ -72.27905, -43.19347 ], [ -72.27815, -43.1925 ], [ -72.27191, -43.19261 ], [ -72.2701, -43.19221 ], [ -72.26931, -43.19187 ], [ -72.26682, -43.1914 ], [ -72.25257, -43.18456 ], [ -72.24672, -43.18197 ], [ -72.24525, -43.17934 ], [ -72.24292, -43.17651 ], [ -72.24091, -43.17494 ], [ -72.23835, -43.17206 ], [ -72.23389, -43.16917 ], [ -72.2253, -43.16655 ], [ -72.22176, -43.16634 ], [ -72.21798, -43.16568 ], [ -72.21036, -43.16276 ], [ -72.20672, -43.16103 ], [ -72.20396, -43.16064 ], [ -72.20171, -43.15869 ], [ -72.19926, -43.15749 ], [ -72.19676, -43.15533 ], [ -72.19151, -43.15305 ], [ -72.18883, -43.15027 ], [ -72.18811, -43.14802 ], [ -72.18762, -43.14704 ], [ -72.18542, -43.16652 ], [ -72.1862, -43.203 ], [ -72.19231, -43.2042 ] ] ] ] } }
]
}
