{
"type": "FeatureCollection",
"name": "HOR",
"crs": { "type": "name", "properties": { "name": "urn:ogc:def:crs:OGC:1.3:CRS84" } },
"xy_coordinate_resolution": 1e-05,
"features": [
{ "type": "Feature", "properties": { "nombre": "Parque Nacional Pumalin", "categoria": "Parque Nacional", "region": "Los Lagos", "superficie_ha": "402392", "decreto": "NÂ° 28 de 2018" }, "geometry": { "type": "MultiPolygon", "coordinates": [ [ [ [ -72.46497, -42.31756 ], [ -72.46508, -42.31657 ], [ -72.46497, -42.3162 ], [ -72.46496, -42.31681 ], [ -72.46497, -42.31756 ] ] ], [ [ [ -72.46448, -42.31469 ], [ -72.46449, -42.3151 ], [ -72.46487, -42.31574 ], [ -72.46613, -42.31353 ], [ -72.46669, -42.31297 ], [ -72.46764, -42.31245 ], [ -72.46762, -42.31196 ], [ -72.46783, -42.31179 ], [ -72.46853, -42.31232 ], [ -72.46882, -42.31215 ], [ -72.46907, -42.31153 ], [ -72.46879, -42.31098 ], [ -72.46753, -42.31041 ], [ -72.46751, -42.30929 ], [ -72.46839, -42.308 ], [ -72.46889, -42.30763 ], [ -72.46912, -42.30625 ], [ -72.46999, -42.30539 ], [ -72.47031, -42.30426 ], [ -72.4702, -42.303 ], [ -72.46723, -42.30887 ], [ -72.46639, -42.31252 ], [ -72.46597, -42.3133 ], [ -72.46448, -42.31469 ] ] ], [ [ [ -72.46908, -42.29824 ], [ -72.46899, -42.29865 ], [ -72.46915, -42.29935 ], [ -72.46908, -42.29824 ] ] ], [ [ [ -72.46486, -42.29208 ], [ -72.46484, -42.29185 ], [ -72.4648, -42.29182 ], [ -72.46486, -42.29208 ] ] ], [ [ [ -72.46251, -42.28848 ], [ -72.46267, -42.28902 ], [ -72.46308, -42.28933 ], [ -72.46251, -42.28848 ] ] ], [ [ [ -72.46079, -42.20037 ], [ -72.46054, -42.19875 ], [ -72.46034, -42.19798 ], [ -72.46021, -42.19772 ], [ -72.46053, -42.19879 ], [ -72.46079, -42.20037 ] ] ], [ [ [ -72.45856, -42.20838 ], [ -72.45862, -42.20936 ], [ -72.45901, -42.21077 ], [ -72.45939, -42.21066 ], [ -72.45971, -42.21019 ], [ -72.45896, -42.2085 ], [ -72.45962, -42.20642 ], [ -72.45961, -42.20561 ], [ -72.45876, -42.2074 ], [ -72.45856, -42.20838 ] ] ], [ [ [ -72.4583, -42.19354 ], [ -72.45972, -42.19665 ], [ -72.45846, -42.1935 ], [ -72.4585, -42.192 ], [ -72.45824, -42.19103 ], [ -72.45774, -42.19039 ], [ -72.45834, -42.19153 ], [ -72.4583, -42.19354 ] ] ], [ [ [ -72.45665, -42.1888 ], [ -72.45586, -42.18748 ], [ -72.45609, -42.18841 ], [ -72.45665, -42.1888 ] ] ], [ [ [ -72.45569, -42.18715 ], [ -72.45573, -42.18673 ], [ -72.45528, -42.18592 ], [ -72.45384, -42.18475 ], [ -72.45239, -42.18324 ], [ -72.45558, -42.187 ], [ -72.45569, -42.18715 ] ] ], [ [ [ -72.45123, -42.17952 ], [ -72.45185, -42.17694 ], [ -72.45155, -42.17583 ], [ -72.4508, -42.17535 ], [ -72.45003, -42.17434 ], [ -72.45034, -42.17683 ], [ -72.45123, -42.17952 ] ] ], [ [ [ -72.44425, -42.16724 ], [ -72.44869, -42.1699 ], [ -72.4469, -42.16841 ], [ -72.44617, -42.16799 ], [ -72.44585, -42.16753 ], [ -72.44565, -42.16658 ], [ -72.44425, -42.16541 ], [ -72.44387, -42.1665 ], [ -72.44425, -42.16724 ] ] ], [ [ [ -72.44744, -42.16076 ], [ -72.44604, -42.16203 ], [ -72.44508, -42.16376 ], [ -72.44604, -42.1639 ], [ -72.44697, -42.16381 ], [ -72.45062, -42.16272 ], [ -72.45171, -42.16282 ], [ -72.45213, -42.1614 ], [ -72.45367, -42.15938 ], [ -72.45399, -42.15933 ], [ -72.45423, -42.15905 ], [ -72.45499, -42.15915 ], [ -72.45555, -42.15896 ], [ -72.45667, -42.15704 ], [ -72.4583, -42.15561 ], [ -72.45859, -42.1548 ], [ -72.45847, -42.15318 ], [ -72.458, -42.15231 ], [ -72.45834, -42.15336 ], [ -72.45839, -42.15432 ], [ -72.45794, -42.15528 ], [ -72.45572, -42.15792 ], [ -72.45493, -42.15843 ], [ -72.44891, -42.16004 ], [ -72.44744, -42.16076 ] ] ], [ [ [ -72.40228, -42.17479 ], [ -72.40132, -42.1747 ], [ -72.39916, -42.17409 ], [ -72.39871, -42.17333 ], [ -72.39939, -42.17191 ], [ -72.39865, -42.17072 ], [ -72.39786, -42.17035 ], [ -72.39586, -42.17052 ], [ -72.39497, -42.17091 ], [ -72.39345, -42.17193 ], [ -72.38949, -42.17163 ], [ -72.3883, -42.17175 ], [ -72.38644, -42.17322 ], [ -72.3858, -42.1733 ], [ -72.3829, -42.17301 ], [ -72.37726, -42.17508 ], [ -72.37523, -42.17615 ], [ -72.37405, -42.17644 ], [ -72.37143, -42.17604 ], [ -72.36857, -42.17619 ], [ -72.36703, -42.17409 ], [ -72.36559, -42.17276 ], [ -72.36464, -42.17125 ], [ -72.36507, -42.17069 ], [ -72.36493, -42.1674 ], [ -72.3633, -42.16741 ], [ -72.36258, -42.16722 ], [ -72.36078, -42.1676 ], [ -72.35929, -42.16768 ], [ -72.35647, -42.16909 ], [ -72.35464, -42.16979 ], [ -72.35165, -42.17059 ], [ -72.34879, -42.1711 ], [ -72.34794, -42.17074 ], [ -72.34767, -42.16883 ], [ -72.34734, -42.16835 ], [ -72.34552, -42.16751 ], [ -72.34471, -42.16692 ], [ -72.34355, -42.16663 ], [ -72.23657, -42.1624 ], [ -72.2364, -42.16182 ], [ -72.22856, -42.24392 ], [ -72.22512, -42.24504 ], [ -72.21952, -42.24735 ], [ -72.21149, -42.25015 ], [ -72.20352, -42.25163 ], [ -72.19682, -42.25226 ], [ -72.19045, -42.25261 ], [ -72.1699, -42.25257 ], [ -72.16885, -42.25284 ], [ -72.16871, -42.25365 ], [ -72.16885, -42.2561 ], [ -72.16814, -42.25938 ], [ -72.16729, -42.26164 ], [ -72.16631, -42.26235 ], [ -72.16522, -42.26389 ], [ -72.16305, -42.26625 ], [ -72.16248, -42.26744 ], [ -72.16248, -42.2682 ], [ -72.16181, -42.26923 ], [ -72.16093, -42.26982 ], [ -72.15993, -42.26999 ], [ -72.15869, -42.27049 ], [ -72.15755, -42.27106 ], [ -72.18098, -42.28002 ], [ -72.31534, -42.2898 ], [ -72.37609, -42.29364 ], [ -72.41869, -42.31977 ], [ -72.43512, -42.31954 ], [ -72.43605, -42.31925 ], [ -72.44087, -42.31946 ], [ -72.46423, -42.31913 ], [ -72.46415, -42.31882 ], [ -72.46376, -42.31806 ], [ -72.46371, -42.31612 ], [ -72.46325, -42.31528 ], [ -72.46323, -42.31456 ], [ -72.46353, -42.31403 ], [ -72.46511, -42.31251 ], [ -72.46606, -42.30853 ], [ -72.46935, -42.30204 ], [ -72.46932, -42.30117 ], [ -72.46841, -42.3005 ], [ -72.46784, -42.29934 ], [ -72.46773, -42.29869 ], [ -72.46799, -42.29724 ], [ -72.46717, -42.29495 ], [ -72.4666, -42.29438 ], [ -72.46487, -42.29366 ], [ -72.46404, -42.293 ], [ -72.4636, -42.29217 ], [ -72.46349, -42.29076 ], [ -72.46309, -42.29037 ], [ -72.46214, -42.29003 ], [ -72.46165, -42.28963 ], [ -72.46087, -42.28739 ], [ -72.45992, -42.28645 ], [ -72.45996, -42.28592 ], [ -72.46055, -42.28531 ], [ -72.46055, -42.28474 ], [ -72.46022, -42.28359 ], [ -72.45976, -42.28321 ], [ -72.45957, -42.28275 ], [ -72.45968, -42.28221 ], [ -72.45926, -42.2811 ], [ -72.45808, -42.2789 ], [ -72.45809, -42.27778 ], [ -72.45774, -42.27716 ], [ -72.45711, -42.27692 ], [ -72.45507, -42.27663 ], [ -72.45442, -42.27626 ], [ -72.4515, -42.27565 ], [ -72.45002, -42.27496 ], [ -72.44918, -42.27393 ], [ -72.44719, -42.27266 ], [ -72.44696, -42.27196 ], [ -72.44697, -42.27127 ], [ -72.44649, -42.26968 ], [ -72.44618, -42.26941 ], [ -72.44465, -42.26922 ], [ -72.44254, -42.26945 ], [ -72.44057, -42.2699 ], [ -72.43983, -42.26987 ], [ -72.43892, -42.26965 ], [ -72.43799, -42.26919 ], [ -72.43638, -42.26788 ], [ -72.43581, -42.26715 ], [ -72.43548, -42.26705 ], [ -72.43471, -42.26698 ], [ -72.43201, -42.26721 ], [ -72.43088, -42.26706 ], [ -72.42585, -42.26731 ], [ -72.42398, -42.26722 ], [ -72.41976, -42.266 ], [ -72.41756, -42.26569 ], [ -72.41278, -42.26423 ], [ -72.41068, -42.26382 ], [ -72.40646, -42.26344 ], [ -72.40577, -42.26328 ], [ -72.40448, -42.26265 ], [ -72.40382, -42.26261 ], [ -72.40228, -42.26289 ], [ -72.4012, -42.26285 ], [ -72.39699, -42.26134 ], [ -72.39659, -42.2608 ], [ -72.39524, -42.25984 ], [ -72.39456, -42.25043 ], [ -72.39571, -42.24956 ], [ -72.39639, -42.24857 ], [ -72.39715, -42.24816 ], [ -72.39885, -42.24797 ], [ -72.40038, -42.24806 ], [ -72.40125, -42.24825 ], [ -72.4023, -42.24872 ], [ -72.40356, -42.24869 ], [ -72.40444, -42.24841 ], [ -72.40602, -42.24827 ], [ -72.40849, -42.24852 ], [ -72.40915, -42.24877 ], [ -72.40918, -42.24911 ], [ -72.40966, -42.24944 ], [ -72.41088, -42.24951 ], [ -72.41339, -42.25091 ], [ -72.42167, -42.25285 ], [ -72.42421, -42.2539 ], [ -72.42588, -42.25431 ], [ -72.42631, -42.25496 ], [ -72.42763, -42.2553 ], [ -72.42792, -42.25561 ], [ -72.42795, -42.25622 ], [ -72.4283, -42.25661 ], [ -72.43104, -42.25774 ], [ -72.43172, -42.2578 ], [ -72.4324, -42.25762 ], [ -72.4339, -42.25688 ], [ -72.43586, -42.25626 ], [ -72.43678, -42.2561 ], [ -72.43748, -42.25618 ], [ -72.43795, -42.25641 ], [ -72.43838, -42.25712 ], [ -72.43877, -42.25839 ], [ -72.43991, -42.25926 ], [ -72.4408, -42.25956 ], [ -72.44168, -42.25929 ], [ -72.44361, -42.25761 ], [ -72.4442, -42.25727 ], [ -72.44592, -42.25688 ], [ -72.44747, -42.25632 ], [ -72.44871, -42.25549 ], [ -72.44976, -42.25446 ], [ -72.45015, -42.25437 ], [ -72.45021, -42.25378 ], [ -72.45003, -42.25238 ], [ -72.44984, -42.25168 ], [ -72.44942, -42.25123 ], [ -72.44928, -42.25084 ], [ -72.44948, -42.24936 ], [ -72.44889, -42.24904 ], [ -72.44915, -42.24843 ], [ -72.44905, -42.24673 ], [ -72.44851, -42.24572 ], [ -72.44801, -42.24418 ], [ -72.44608, -42.24304 ], [ -72.44617, -42.24257 ], [ -72.44572, -42.24092 ], [ -72.44488, -42.23939 ], [ -72.44391, -42.23847 ], [ -72.44366, -42.23729 ], [ -72.44376, -42.23656 ], [ -72.44244, -42.23656 ], [ -72.442, -42.23625 ], [ -72.44189, -42.23578 ], [ -72.44424, -42.23284 ], [ -72.44451, -42.23208 ], [ -72.44472, -42.23036 ], [ -72.44498, -42.22973 ], [ -72.44597, -42.22857 ], [ -72.44656, -42.22758 ], [ -72.44823, -42.22671 ], [ -72.44856, -42.22585 ], [ -72.45028, -42.2238 ], [ -72.45145, -42.22079 ], [ -72.45241, -42.21944 ], [ -72.45339, -42.21864 ], [ -72.45414, -42.21665 ], [ -72.45536, -42.21562 ], [ -72.45595, -42.21401 ], [ -72.45774, -42.21136 ], [ -72.45781, -42.21106 ], [ -72.45732, -42.20903 ], [ -72.45737, -42.20786 ], [ -72.45773, -42.20672 ], [ -72.45941, -42.20329 ], [ -72.45917, -42.20186 ], [ -72.45956, -42.20056 ], [ -72.45909, -42.19819 ], [ -72.45705, -42.19366 ], [ -72.45705, -42.1915 ], [ -72.45586, -42.18956 ], [ -72.45484, -42.18866 ], [ -72.45456, -42.18755 ], [ -72.45113, -42.18338 ], [ -72.45059, -42.18059 ], [ -72.44992, -42.1796 ], [ -72.44891, -42.17599 ], [ -72.44879, -42.17359 ], [ -72.44909, -42.17291 ], [ -72.44901, -42.17238 ], [ -72.44917, -42.17162 ], [ -72.44824, -42.17081 ], [ -72.44341, -42.16793 ], [ -72.44361, -42.16741 ], [ -72.44309, -42.16681 ], [ -72.44283, -42.16596 ], [ -72.44294, -42.1653 ], [ -72.44335, -42.16449 ], [ -72.44272, -42.1645 ], [ -72.43973, -42.16501 ], [ -72.43835, -42.16556 ], [ -72.43727, -42.16687 ], [ -72.43566, -42.16838 ], [ -72.43533, -42.16891 ], [ -72.4349, -42.16886 ], [ -72.43409, -42.16913 ], [ -72.43227, -42.16997 ], [ -72.43103, -42.17081 ], [ -72.43008, -42.17116 ], [ -72.4248, -42.17214 ], [ -72.42256, -42.17235 ], [ -72.42006, -42.17321 ], [ -72.41819, -42.17293 ], [ -72.41663, -42.17317 ], [ -72.41569, -42.17353 ], [ -72.41402, -42.17369 ], [ -72.41205, -42.17353 ], [ -72.41093, -42.17368 ], [ -72.41006, -42.17403 ], [ -72.40988, -42.17467 ], [ -72.40991, -42.17551 ], [ -72.40753, -42.17533 ], [ -72.4048, -42.17462 ], [ -72.40228, -42.17479 ] ] ], [ [ [ -72.13846, -42.14889 ], [ -72.14086, -42.14824 ], [ -72.14351, -42.1471 ], [ -72.15001, -42.14528 ], [ -72.15112, -42.14509 ], [ -72.15369, -42.14508 ], [ -72.15507, -42.14479 ], [ -72.157, -42.14414 ], [ -72.15762, -42.14402 ], [ -72.15812, -42.14414 ], [ -72.15966, -42.14241 ], [ -72.16143, -42.14105 ], [ -72.16487, -42.13994 ], [ -72.16792, -42.13934 ], [ -72.17213, -42.13908 ], [ -72.1729, -42.13957 ], [ -72.17349, -42.1405 ], [ -72.1753, -42.14195 ], [ -72.17563, -42.14271 ], [ -72.17539, -42.14418 ], [ -72.17553, -42.14494 ], [ -72.17606, -42.14531 ], [ -72.17594, -42.14748 ], [ -72.1762, -42.14838 ], [ -72.17718, -42.14971 ], [ -72.17718, -42.1511 ], [ -72.17758, -42.15291 ], [ -72.17858, -42.15398 ], [ -72.17894, -42.15459 ], [ -72.17935, -42.15592 ], [ -72.18065, -42.15666 ], [ -72.18457, -42.15777 ], [ -72.18709, -42.15791 ], [ -72.18769, -42.15817 ], [ -72.18796, -42.15847 ], [ -72.1885, -42.16005 ], [ -72.1885, -42.16074 ], [ -72.18779, -42.16159 ], [ -72.18665, -42.16228 ], [ -72.18598, -42.16338 ], [ -72.18579, -42.16478 ], [ -72.18583, -42.16615 ], [ -72.1862, -42.16754 ], [ -72.18578, -42.16925 ], [ -72.18477, -42.17113 ], [ -72.18529, -42.17282 ], [ -72.18536, -42.1736 ], [ -72.18484, -42.17482 ], [ -72.1847, -42.17646 ], [ -72.18322, -42.17824 ], [ -72.18199, -42.17929 ], [ -72.17975, -42.18175 ], [ -72.17765, -42.18237 ], [ -72.17601, -42.18341 ], [ -72.17444, -42.18381 ], [ -72.17373, -42.18428 ], [ -72.17144, -42.18455 ], [ -72.16871, -42.18607 ], [ -72.16816, -42.187 ], [ -72.16702, -42.18814 ], [ -72.16247, -42.19045 ], [ -72.16112, -42.19074 ], [ -72.15909, -42.19181 ], [ -72.15833, -42.19268 ], [ -72.15762, -42.19302 ], [ -72.15691, -42.19387 ], [ -72.15681, -42.19669 ], [ -72.15638, -42.19883 ], [ -72.15593, -42.20011 ], [ -72.15634, -42.20197 ], [ -72.15705, -42.20351 ], [ -72.15689, -42.20408 ], [ -72.15624, -42.20467 ], [ -72.1561, -42.20527 ], [ -72.15938, -42.20668 ], [ -72.16112, -42.20792 ], [ -72.16261, -42.20861 ], [ -72.1639, -42.20947 ], [ -72.16445, -42.21138 ], [ -72.16602, -42.2128 ], [ -72.16649, -42.21344 ], [ -72.16576, -42.21565 ], [ -72.165, -42.21713 ], [ -72.16481, -42.21784 ], [ -72.16564, -42.21969 ], [ -72.16385, -42.22015 ], [ -72.16143, -42.22373 ], [ -72.16038, -42.22476 ], [ -72.15881, -42.22723 ], [ -72.15902, -42.22843 ], [ -72.15893, -42.22924 ], [ -72.15815, -42.23011 ], [ -72.15722, -42.23181 ], [ -72.15658, -42.23575 ], [ -72.15617, -42.23716 ], [ -72.15567, -42.23808 ], [ -72.15431, -42.23951 ], [ -72.15443, -42.24044 ], [ -72.15401, -42.24129 ], [ -72.15366, -42.24302 ], [ -72.15387, -42.24367 ], [ -72.15427, -42.24419 ], [ -72.15544, -42.24495 ], [ -72.15677, -42.24512 ], [ -72.15841, -42.24558 ], [ -72.16012, -42.24577 ], [ -72.16414, -42.24753 ], [ -72.16838, -42.25055 ], [ -72.16879, -42.25186 ], [ -72.16884, -42.25276 ], [ -72.16991, -42.25248 ], [ -72.19045, -42.25252 ], [ -72.19683, -42.25217 ], [ -72.20352, -42.25154 ], [ -72.2115, -42.25006 ], [ -72.21952, -42.24726 ], [ -72.22513, -42.24495 ], [ -72.22856, -42.24383 ], [ -72.2364, -42.16182 ], [ -72.2364, -42.16173 ], [ -72.23803, -42.07696 ], [ -72.23826, -42.05575 ], [ -72.35177, -42.08778 ], [ -72.35001, -42.0928 ], [ -72.34913, -42.09858 ], [ -72.34935, -42.1018 ], [ -72.35174, -42.10584 ], [ -72.35276, -42.10873 ], [ -72.3512, -42.10962 ], [ -72.34969, -42.11128 ], [ -72.34946, -42.1122 ], [ -72.34937, -42.11369 ], [ -72.35055, -42.11675 ], [ -72.35127, -42.11766 ], [ -72.35146, -42.11908 ], [ -72.35247, -42.12057 ], [ -72.35377, -42.12476 ], [ -72.35348, -42.12652 ], [ -72.3534, -42.13104 ], [ -72.35367, -42.13293 ], [ -72.35458, -42.13491 ], [ -72.35709, -42.138 ], [ -72.35802, -42.13975 ], [ -72.35892, -42.14086 ], [ -72.36151, -42.14289 ], [ -72.36273, -42.14414 ], [ -72.36345, -42.14544 ], [ -72.3657, -42.15305 ], [ -72.36673, -42.1547 ], [ -72.3701, -42.15787 ], [ -72.3708, -42.15898 ], [ -72.37095, -42.15984 ], [ -72.37093, -42.16474 ], [ -72.37552, -42.16436 ], [ -72.37677, -42.16355 ], [ -72.37821, -42.16328 ], [ -72.38013, -42.16267 ], [ -72.38361, -42.16229 ], [ -72.38694, -42.16149 ], [ -72.38862, -42.16151 ], [ -72.3898, -42.16133 ], [ -72.39273, -42.16161 ], [ -72.39446, -42.16236 ], [ -72.39601, -42.16263 ], [ -72.39658, -42.16326 ], [ -72.39722, -42.16327 ], [ -72.39791, -42.16294 ], [ -72.39914, -42.16285 ], [ -72.40163, -42.1632 ], [ -72.40464, -42.16393 ], [ -72.40618, -42.16404 ], [ -72.40739, -42.16381 ], [ -72.40965, -42.16205 ], [ -72.41031, -42.16194 ], [ -72.41326, -42.162 ], [ -72.41434, -42.16218 ], [ -72.41565, -42.16263 ], [ -72.41616, -42.16248 ], [ -72.41716, -42.16169 ], [ -72.41797, -42.16151 ], [ -72.42045, -42.16144 ], [ -72.42119, -42.16157 ], [ -72.42276, -42.16285 ], [ -72.42316, -42.16335 ], [ -72.42581, -42.16422 ], [ -72.42802, -42.16407 ], [ -72.42939, -42.16371 ], [ -72.43126, -42.16218 ], [ -72.4323, -42.16196 ], [ -72.43327, -42.16215 ], [ -72.43426, -42.16206 ], [ -72.43683, -42.16165 ], [ -72.43971, -42.16218 ], [ -72.44126, -42.162 ], [ -72.44296, -42.1625 ], [ -72.44391, -42.16346 ], [ -72.44516, -42.16133 ], [ -72.44597, -42.16054 ], [ -72.44713, -42.15976 ], [ -72.44871, -42.15909 ], [ -72.45432, -42.15762 ], [ -72.45476, -42.15733 ], [ -72.45672, -42.15496 ], [ -72.45604, -42.15477 ], [ -72.45565, -42.15389 ], [ -72.45576, -42.15293 ], [ -72.45674, -42.15211 ], [ -72.45794, -42.14947 ], [ -72.45862, -42.14709 ], [ -72.45963, -42.14587 ], [ -72.46001, -42.14471 ], [ -72.46218, -42.1434 ], [ -72.46255, -42.14285 ], [ -72.46235, -42.14123 ], [ -72.46155, -42.13977 ], [ -72.46152, -42.13805 ], [ -72.46199, -42.13655 ], [ -72.46377, -42.1353 ], [ -72.46244, -42.13368 ], [ -72.46222, -42.13212 ], [ -72.46269, -42.11833 ], [ -72.46356, -42.11648 ], [ -72.4627, -42.11547 ], [ -72.46268, -42.11331 ], [ -72.46189, -42.11298 ], [ -72.46117, -42.11301 ], [ -72.45972, -42.11367 ], [ -72.45893, -42.11381 ], [ -72.46029, -42.10816 ], [ -72.46106, -42.10825 ], [ -72.46165, -42.10779 ], [ -72.46158, -42.10723 ], [ -72.46108, -42.10586 ], [ -72.46015, -42.10527 ], [ -72.45739, -42.09934 ], [ -72.45649, -42.09808 ], [ -72.45536, -42.09709 ], [ -72.45411, -42.09691 ], [ -72.45269, -42.09538 ], [ -72.45134, -42.0911 ], [ -72.45037, -42.08921 ], [ -72.45014, -42.08925 ], [ -72.44733, -42.08788 ], [ -72.43688, -42.09215 ], [ -72.43049, -42.09347 ], [ -72.42498, -42.09341 ], [ -72.42083, -42.09117 ], [ -72.42187, -42.08954 ], [ -72.42788, -42.09149 ], [ -72.42965, -42.0915 ], [ -72.43048, -42.09125 ], [ -72.43175, -42.09033 ], [ -72.43366, -42.08997 ], [ -72.43458, -42.08943 ], [ -72.4397, -42.09019 ], [ -72.4407, -42.08963 ], [ -72.441, -42.08854 ], [ -72.44087, -42.08807 ], [ -72.44095, -42.08767 ], [ -72.44269, -42.08642 ], [ -72.44313, -42.0843 ], [ -72.44415, -42.08367 ], [ -72.44679, -42.08299 ], [ -72.44826, -42.08284 ], [ -72.45026, -42.08349 ], [ -72.451, -42.08352 ], [ -72.45243, -42.08254 ], [ -72.45301, -42.08193 ], [ -72.45389, -42.08141 ], [ -72.45348, -42.08015 ], [ -72.45364, -42.07842 ], [ -72.45386, -42.07789 ], [ -72.45294, -42.07759 ], [ -72.45079, -42.07779 ], [ -72.44952, -42.07716 ], [ -72.45061, -42.07555 ], [ -72.45162, -42.07459 ], [ -72.45175, -42.07413 ], [ -72.45165, -42.06993 ], [ -72.45345, -42.0695 ], [ -72.45288, -42.06849 ], [ -72.45194, -42.06744 ], [ -72.45159, -42.06613 ], [ -72.45137, -42.06407 ], [ -72.45157, -42.06196 ], [ -72.4521, -42.06128 ], [ -72.45129, -42.05941 ], [ -72.45063, -42.05567 ], [ -72.44906, -42.05177 ], [ -72.44879, -42.05051 ], [ -72.44833, -42.04971 ], [ -72.44742, -42.04561 ], [ -72.44571, -42.04196 ], [ -72.44534, -42.04023 ], [ -72.44456, -42.0395 ], [ -72.44319, -42.03745 ], [ -72.44281, -42.03614 ], [ -72.44277, -42.0349 ], [ -72.44033, -42.0341 ], [ -72.44067, -42.03346 ], [ -72.44026, -42.03174 ], [ -72.43666, -42.03309 ], [ -72.43317, -42.03391 ], [ -72.42894, -42.034 ], [ -72.42629, -42.03475 ], [ -72.42453, -42.03464 ], [ -72.42346, -42.0342 ], [ -72.41954, -42.034 ], [ -72.41325, -42.03428 ], [ -72.40415, -42.03397 ], [ -72.39608, -42.03317 ], [ -72.39473, -42.0329 ], [ -72.39338, -42.03201 ], [ -72.39275, -42.03147 ], [ -72.39194, -42.03028 ], [ -72.39088, -42.02944 ], [ -72.38921, -42.0285 ], [ -72.38778, -42.02815 ], [ -72.387, -42.02766 ], [ -72.38552, -42.02731 ], [ -72.38491, -42.02742 ], [ -72.38436, -42.02784 ], [ -72.38337, -42.02736 ], [ -72.38166, -42.0274 ], [ -72.38009, -42.02784 ], [ -72.37951, -42.02784 ], [ -72.3792, -42.02759 ], [ -72.37926, -42.02716 ], [ -72.37982, -42.02611 ], [ -72.37764, -42.02475 ], [ -72.37548, -42.0243 ], [ -72.37457, -42.02369 ], [ -72.37402, -42.02288 ], [ -72.1184, -42.01674 ], [ -72.12685, -42.02385 ], [ -72.12853, -42.02875 ], [ -72.1363, -42.02936 ], [ -72.14381, -42.03469 ], [ -72.15415, -42.04066 ], [ -72.15466, -42.03862 ], [ -72.1713, -42.04389 ], [ -72.18091, -42.04067 ], [ -72.18842, -42.04068 ], [ -72.1929, -42.0416 ], [ -72.19979, -42.04247 ], [ -72.21461, -42.04053 ], [ -72.233, -42.04263 ], [ -72.23407, -42.04515 ], [ -72.22759, -42.04669 ], [ -72.21617, -42.04547 ], [ -72.20529, -42.04792 ], [ -72.19965, -42.04772 ], [ -72.1763, -42.05156 ], [ -72.16514, -42.05138 ], [ -72.16052, -42.04919 ], [ -72.15255, -42.04267 ], [ -72.15101, -42.04243 ], [ -72.14274, -42.04372 ], [ -72.14157, -42.04421 ], [ -72.13743, -42.04243 ], [ -72.13364, -42.04162 ], [ -72.13304, -42.04376 ], [ -72.13251, -42.04648 ], [ -72.1321, -42.04719 ], [ -72.13169, -42.04774 ], [ -72.13062, -42.04867 ], [ -72.1283, -42.05001 ], [ -72.12777, -42.05148 ], [ -72.12641, -42.05364 ], [ -72.12335, -42.05438 ], [ -72.12038, -42.0557 ], [ -72.11702, -42.05574 ], [ -72.11336, -42.0565 ], [ -72.11755, -42.05158 ], [ -72.11953, -42.04983 ], [ -72.12061, -42.04896 ], [ -72.12228, -42.04846 ], [ -72.12411, -42.04743 ], [ -72.12536, -42.04614 ], [ -72.12733, -42.04496 ], [ -72.12996, -42.04304 ], [ -72.12996, -42.04207 ], [ -72.12838, -42.04042 ], [ -72.12732, -42.03977 ], [ -72.12413, -42.03857 ], [ -72.12294, -42.0388 ], [ -72.11941, -42.03801 ], [ -72.1169, -42.03608 ], [ -72.11362, -42.03414 ], [ -72.11244, -42.03214 ], [ -72.1119, -42.03159 ], [ -72.10938, -42.03028 ], [ -72.09963, -42.02953 ], [ -72.09558, -42.02847 ], [ -72.09012, -42.02829 ], [ -72.09008, -42.02896 ], [ -72.08938, -42.02951 ], [ -72.08814, -42.02954 ], [ -72.08731, -42.02908 ], [ -72.08287, -42.0283 ], [ -72.07857, -42.02845 ], [ -72.07098, -42.02499 ], [ -72.06874, -42.02423 ], [ -72.06718, -42.0241 ], [ -72.06342, -42.02484 ], [ -72.05853, -42.0246 ], [ -72.05938, -42.0252 ], [ -72.05982, -42.02589 ], [ -72.05999, -42.02711 ], [ -72.05978, -42.02797 ], [ -72.06023, -42.031 ], [ -72.06154, -42.03251 ], [ -72.06244, -42.03587 ], [ -72.06369, -42.04393 ], [ -72.06435, -42.04693 ], [ -72.06571, -42.04851 ], [ -72.06762, -42.05226 ], [ -72.06974, -42.05827 ], [ -72.07096, -42.06306 ], [ -72.07085, -42.07247 ], [ -72.07058, -42.07258 ], [ -72.07065, -42.07277 ], [ -72.07037, -42.07321 ], [ -72.06942, -42.07379 ], [ -72.06893, -42.07441 ], [ -72.06861, -42.0791 ], [ -72.06833, -42.07995 ], [ -72.06775, -42.08078 ], [ -72.06617, -42.08167 ], [ -72.06539, -42.08233 ], [ -72.06466, -42.08331 ], [ -72.0638, -42.08499 ], [ -72.06375, -42.08552 ], [ -72.06329, -42.08587 ], [ -72.06325, -42.08726 ], [ -72.06292, -42.08861 ], [ -72.06216, -42.08941 ], [ -72.05865, -42.09164 ], [ -72.05775, -42.09305 ], [ -72.05752, -42.09397 ], [ -72.05733, -42.0962 ], [ -72.05697, -42.0967 ], [ -72.05709, -42.09771 ], [ -72.05581, -42.09851 ], [ -72.05525, -42.09913 ], [ -72.05517, -42.10036 ], [ -72.05569, -42.10151 ], [ -72.05631, -42.10183 ], [ -72.05676, -42.10244 ], [ -72.05661, -42.10289 ], [ -72.05507, -42.1054 ], [ -72.05497, -42.10591 ], [ -72.05459, -42.10617 ], [ -72.05296, -42.10856 ], [ -72.05194, -42.1093 ], [ -72.05181, -42.10965 ], [ -72.0519, -42.10975 ], [ -72.05011, -42.11196 ], [ -72.05275, -42.11376 ], [ -72.05368, -42.11374 ], [ -72.05684, -42.11412 ], [ -72.05739, -42.11448 ], [ -72.05801, -42.11531 ], [ -72.06139, -42.1161 ], [ -72.06308, -42.11695 ], [ -72.06629, -42.11733 ], [ -72.0671, -42.11757 ], [ -72.06728, -42.11833 ], [ -72.06698, -42.11876 ], [ -72.06425, -42.12014 ], [ -72.06418, -42.12071 ], [ -72.06446, -42.12155 ], [ -72.0661, -42.12278 ], [ -72.06713, -42.12445 ], [ -72.06867, -42.12512 ], [ -72.07057, -42.12495 ], [ -72.07183, -42.12502 ], [ -72.07379, -42.12514 ], [ -72.07465, -42.12548 ], [ -72.0751, -42.12631 ], [ -72.07629, -42.12766 ], [ -72.07757, -42.12797 ], [ -72.07883, -42.12899 ], [ -72.07971, -42.13006 ], [ -72.08029, -42.13211 ], [ -72.08019, -42.13254 ], [ -72.07377, -42.13513 ], [ -72.0657, -42.13751 ], [ -72.06526, -42.1378 ], [ -72.06462, -42.13899 ], [ -72.0651, -42.1398 ], [ -72.06686, -42.14192 ], [ -72.06708, -42.14273 ], [ -72.06707, -42.14363 ], [ -72.06662, -42.14596 ], [ -72.06691, -42.14699 ], [ -72.06727, -42.14743 ], [ -72.07496, -42.14651 ], [ -72.07664, -42.14598 ], [ -72.07776, -42.14539 ], [ -72.07907, -42.14415 ], [ -72.07981, -42.1437 ], [ -72.08276, -42.14318 ], [ -72.08414, -42.14337 ], [ -72.08495, -42.14372 ], [ -72.08638, -42.14544 ], [ -72.08766, -42.14598 ], [ -72.08804, -42.14658 ], [ -72.08921, -42.14765 ], [ -72.09142, -42.14827 ], [ -72.09275, -42.14812 ], [ -72.09418, -42.14827 ], [ -72.09813, -42.14736 ], [ -72.1007, -42.14734 ], [ -72.10467, -42.14534 ], [ -72.10682, -42.14539 ], [ -72.10924, -42.14567 ], [ -72.11074, -42.14646 ], [ -72.11359, -42.14758 ], [ -72.11424, -42.14729 ], [ -72.11488, -42.14629 ], [ -72.11526, -42.14608 ], [ -72.11565, -42.14621 ], [ -72.11737, -42.14904 ], [ -72.11876, -42.15055 ], [ -72.1215, -42.15448 ], [ -72.12195, -42.15472 ], [ -72.12452, -42.1546 ], [ -72.12795, -42.15338 ], [ -72.13142, -42.15138 ], [ -72.13256, -42.15103 ], [ -72.13351, -42.15043 ], [ -72.13432, -42.14948 ], [ -72.13492, -42.14911 ], [ -72.13578, -42.14892 ], [ -72.13694, -42.14903 ], [ -72.13846, -42.14889 ] ] ] ] } },
{ "type": "Feature", "properties": { "nombre": "Parque Nacional Hornopiren", "categoria": "Parque Nacional", "region": "Los Lagos", "superficie_ha": "66195,78", "decreto": "NÂ° 884 de 1988; NÂ° 2 de 2018" }, "geometry": { "type": "Polygon", "coordinates": [ [ [ -72.20993, -41.74308 ], [ -72.20871, -41.74418 ], [ -72.20673, -41.74517 ], [ -72.20398, -41.74576 ], [ -72.2004, -41.74695 ], [ -72.19804, -41.74733 ], [ -72.19668, -41.74722 ], [ -72.19473, -41.7474 ], [ -72.1901, -41.74821 ], [ -72.18346, -41.75047 ], [ -72.17878, -41.75165 ], [ -72.17568, -41.75296 ], [ -72.17427, -41.75382 ], [ -72.17316, -41.75428 ], [ -72.16982, -41.75659 ], [ -72.16808, -41.75757 ], [ -72.16854, -41.75883 ], [ -72.16909, -41.75955 ], [ -72.17445, -41.76436 ], [ -72.17525, -41.76523 ], [ -72.17607, -41.76653 ], [ -72.17642, -41.76747 ], [ -72.17641, -41.76813 ], [ -72.17585, -41.76884 ], [ -72.1748, -41.76948 ], [ -72.17201, -41.77182 ], [ -72.17138, -41.77269 ], [ -72.17081, -41.77418 ], [ -72.17016, -41.77673 ], [ -72.16964, -41.77798 ], [ -72.16805, -41.77998 ], [ -72.16423, -41.78305 ], [ -72.1632, -41.78364 ], [ -72.16013, -41.78496 ], [ -72.15959, -41.78528 ], [ -72.15921, -41.78591 ], [ -72.15921, -41.78686 ], [ -72.15955, -41.78766 ], [ -72.16247, -41.79197 ], [ -72.1628, -41.79332 ], [ -72.16272, -41.79602 ], [ -72.16292, -41.7968 ], [ -72.16346, -41.79751 ], [ -72.16618, -41.79867 ], [ -72.16777, -41.79955 ], [ -72.16995, -41.80131 ], [ -72.17418, -41.80278 ], [ -72.17561, -41.80343 ], [ -72.17756, -41.8046 ], [ -72.17891, -41.80564 ], [ -72.18037, -41.8071 ], [ -72.18091, -41.80791 ], [ -72.1812, -41.8087 ], [ -72.1811, -41.81017 ], [ -72.18022, -41.81276 ], [ -72.18015, -41.81355 ], [ -72.18827, -41.81788 ], [ -72.18729, -41.8187 ], [ -72.18716, -41.81902 ], [ -72.18722, -41.81994 ], [ -72.18697, -41.82063 ], [ -72.18626, -41.82178 ], [ -72.18468, -41.82364 ], [ -72.18396, -41.8236 ], [ -72.1829, -41.824 ], [ -72.18175, -41.82467 ], [ -72.18143, -41.82517 ], [ -72.18155, -41.82568 ], [ -72.18206, -41.82652 ], [ -72.18169, -41.82712 ], [ -72.1816, -41.82765 ], [ -72.18209, -41.82904 ], [ -72.18296, -41.82945 ], [ -72.18359, -41.83042 ], [ -72.18448, -41.83103 ], [ -72.1857, -41.83395 ], [ -72.1859, -41.83496 ], [ -72.19064, -41.83616 ], [ -72.19315, -41.83737 ], [ -72.19522, -41.83767 ], [ -72.20228, -41.83962 ], [ -72.20042, -41.83932 ], [ -72.19922, -41.83932 ], [ -72.19793, -41.83882 ], [ -72.19697, -41.83864 ], [ -72.1963, -41.83871 ], [ -72.19538, -41.83927 ], [ -72.19376, -41.8389 ], [ -72.19257, -41.83897 ], [ -72.19136, -41.83944 ], [ -72.19143, -41.84077 ], [ -72.1921, -41.84277 ], [ -72.19338, -41.84429 ], [ -72.19122, -41.8445 ], [ -72.1887, -41.84517 ], [ -72.18775, -41.84499 ], [ -72.18522, -41.84565 ], [ -72.18367, -41.85911 ], [ -72.18383, -41.85961 ], [ -72.18288, -41.86145 ], [ -72.18271, -41.86254 ], [ -72.18225, -41.86316 ], [ -72.1814, -41.86381 ], [ -72.1784, -41.86533 ], [ -72.17729, -41.86566 ], [ -72.17472, -41.86597 ], [ -72.17415, -41.86625 ], [ -72.17399, -41.86767 ], [ -72.17417, -41.87158 ], [ -72.17389, -41.87248 ], [ -72.17252, -41.87501 ], [ -72.1705, -41.8779 ], [ -72.16778, -41.88042 ], [ -72.1174, -41.89599 ], [ -72.00289, -41.91106 ], [ -71.98396, -41.9501 ], [ -71.9876, -41.97523 ], [ -72.11131, -41.99169 ], [ -72.14873, -41.99722 ], [ -72.1677, -42.01787 ], [ -72.37154, -42.02272 ], [ -72.37973, -42.02616 ], [ -72.37915, -42.02735 ], [ -72.37944, -42.02776 ], [ -72.3802, -42.02778 ], [ -72.38168, -42.02729 ], [ -72.38328, -42.02727 ], [ -72.38434, -42.0278 ], [ -72.38529, -42.02722 ], [ -72.38597, -42.02709 ], [ -72.38997, -42.02862 ], [ -72.39221, -42.03022 ], [ -72.39286, -42.03126 ], [ -72.39345, -42.03179 ], [ -72.39495, -42.03274 ], [ -72.39555, -42.03292 ], [ -72.39937, -42.03318 ], [ -72.40187, -42.03392 ], [ -72.40402, -42.03373 ], [ -72.40586, -42.03377 ], [ -72.40776, -42.03404 ], [ -72.41465, -42.03407 ], [ -72.4188, -42.03382 ], [ -72.42316, -42.03391 ], [ -72.42392, -42.03403 ], [ -72.42512, -42.03458 ], [ -72.42635, -42.03454 ], [ -72.42766, -42.03422 ], [ -72.42891, -42.03368 ], [ -72.43297, -42.03365 ], [ -72.43482, -42.03317 ], [ -72.4359, -42.03307 ], [ -72.43892, -42.03211 ], [ -72.44025, -42.03122 ], [ -72.43931, -42.03059 ], [ -72.43954, -42.02971 ], [ -72.43984, -42.02663 ], [ -72.43948, -42.02624 ], [ -72.43926, -42.02558 ], [ -72.43894, -42.0242 ], [ -72.43901, -42.02361 ], [ -72.43823, -42.0223 ], [ -72.43821, -42.02187 ], [ -72.43709, -42.02049 ], [ -72.43686, -42.01974 ], [ -72.43649, -42.01941 ], [ -72.43603, -42.01845 ], [ -72.43561, -42.0165 ], [ -72.43401, -42.01697 ], [ -72.42866, -42.01187 ], [ -72.42628, -42.00751 ], [ -72.4266, -42.00629 ], [ -72.42685, -42.0062 ], [ -72.42387, -41.9992 ], [ -72.42405, -41.99883 ], [ -72.42522, -41.99828 ], [ -72.42716, -41.99845 ], [ -72.43042, -41.99828 ], [ -72.43196, -41.99277 ], [ -72.43149, -41.99094 ], [ -72.43133, -41.99095 ], [ -72.43053, -41.98967 ], [ -72.42916, -41.98846 ], [ -72.42917, -41.98765 ], [ -72.42857, -41.98707 ], [ -72.42834, -41.98649 ], [ -72.42848, -41.98503 ], [ -72.42701, -41.98305 ], [ -72.42689, -41.98197 ], [ -72.42639, -41.9812 ], [ -72.42627, -41.98081 ], [ -72.42633, -41.97969 ], [ -72.42595, -41.97811 ], [ -72.426, -41.9769 ], [ -72.42556, -41.97625 ], [ -72.42545, -41.9758 ], [ -72.42538, -41.97321 ], [ -72.42497, -41.97158 ], [ -72.425, -41.97067 ], [ -72.42346, -41.96294 ], [ -72.42303, -41.96278 ], [ -72.42233, -41.96199 ], [ -72.42163, -41.96186 ], [ -72.4212, -41.96113 ], [ -72.42075, -41.95971 ], [ -72.4201, -41.95542 ], [ -72.41632, -41.94626 ], [ -72.41573, -41.9436 ], [ -72.41573, -41.94255 ], [ -72.41529, -41.94141 ], [ -72.4134, -41.94047 ], [ -72.41025, -41.93968 ], [ -72.40859, -41.94018 ], [ -72.40654, -41.94047 ], [ -72.40502, -41.94046 ], [ -72.40467, -41.94027 ], [ -72.40235, -41.93998 ], [ -72.40013, -41.94047 ], [ -72.39909, -41.94099 ], [ -72.39758, -41.94213 ], [ -72.39621, -41.94283 ], [ -72.39081, -41.94744 ], [ -72.39022, -41.94776 ], [ -72.38767, -41.94888 ], [ -72.38217, -41.94974 ], [ -72.38115, -41.9506 ], [ -72.38073, -41.9521 ], [ -72.38082, -41.95245 ], [ -72.38066, -41.95354 ], [ -72.38016, -41.95447 ], [ -72.37693, -41.95573 ], [ -72.37402, -41.95653 ], [ -72.37252, -41.95652 ], [ -72.37158, -41.95621 ], [ -72.36794, -41.95393 ], [ -72.36551, -41.95287 ], [ -72.36452, -41.95266 ], [ -72.36463, -41.95142 ], [ -72.36412, -41.95099 ], [ -72.36362, -41.95017 ], [ -72.36291, -41.95017 ], [ -72.36065, -41.9508 ], [ -72.35945, -41.95083 ], [ -72.35379, -41.95001 ], [ -72.35125, -41.94914 ], [ -72.35531, -41.94746 ], [ -72.35542, -41.9467 ], [ -72.35131, -41.94045 ], [ -72.35298, -41.94105 ], [ -72.3549, -41.94197 ], [ -72.35809, -41.94384 ], [ -72.35936, -41.94491 ], [ -72.36124, -41.94606 ], [ -72.36376, -41.94728 ], [ -72.36557, -41.94785 ], [ -72.36745, -41.94783 ], [ -72.37092, -41.94705 ], [ -72.37282, -41.94696 ], [ -72.37334, -41.94709 ], [ -72.37249, -41.94661 ], [ -72.37214, -41.94615 ], [ -72.37235, -41.94534 ], [ -72.37285, -41.94493 ], [ -72.37527, -41.94378 ], [ -72.37656, -41.94345 ], [ -72.37876, -41.94245 ], [ -72.3824, -41.94131 ], [ -72.38479, -41.93999 ], [ -72.38853, -41.93829 ], [ -72.39112, -41.93758 ], [ -72.39532, -41.93673 ], [ -72.39889, -41.93557 ], [ -72.40475, -41.93468 ], [ -72.40855, -41.93383 ], [ -72.4098, -41.93335 ], [ -72.41123, -41.93201 ], [ -72.4118, -41.93111 ], [ -72.41206, -41.92879 ], [ -72.41182, -41.9285 ], [ -72.41111, -41.92666 ], [ -72.41078, -41.9243 ], [ -72.41016, -41.92246 ], [ -72.40971, -41.92028 ], [ -72.40828, -41.91792 ], [ -72.40731, -41.9168 ], [ -72.40572, -41.91577 ], [ -72.39946, -41.9138 ], [ -72.39722, -41.91271 ], [ -72.39145, -41.90919 ], [ -72.38776, -41.90671 ], [ -72.38538, -41.90479 ], [ -72.38491, -41.90435 ], [ -72.38413, -41.90309 ], [ -72.37433, -41.89733 ], [ -72.37101, -41.89457 ], [ -72.36582, -41.89108 ], [ -72.36348, -41.89023 ], [ -72.3622, -41.88953 ], [ -72.35848, -41.88801 ], [ -72.35832, -41.8878 ], [ -72.35595, -41.88693 ], [ -72.35471, -41.88669 ], [ -72.35172, -41.8866 ], [ -72.35027, -41.88637 ], [ -72.34474, -41.88506 ], [ -72.34282, -41.88416 ], [ -72.33996, -41.88222 ], [ -72.34331, -41.88221 ], [ -72.34436, -41.8827 ], [ -72.3453, -41.88277 ], [ -72.3459, -41.88337 ], [ -72.34725, -41.88305 ], [ -72.34892, -41.88324 ], [ -72.34975, -41.88263 ], [ -72.35046, -41.88258 ], [ -72.35133, -41.88227 ], [ -72.35279, -41.88216 ], [ -72.35421, -41.88146 ], [ -72.35527, -41.88088 ], [ -72.35555, -41.88048 ], [ -72.35575, -41.87972 ], [ -72.35665, -41.87826 ], [ -72.35686, -41.87738 ], [ -72.35751, -41.8767 ], [ -72.35763, -41.87508 ], [ -72.35794, -41.87419 ], [ -72.35844, -41.87338 ], [ -72.35978, -41.87213 ], [ -72.35995, -41.87141 ], [ -72.35933, -41.87044 ], [ -72.35901, -41.86903 ], [ -72.35762, -41.86692 ], [ -72.35659, -41.86618 ], [ -72.35389, -41.86499 ], [ -72.35293, -41.86414 ], [ -72.3513, -41.8643 ], [ -72.34955, -41.86418 ], [ -72.3497, -41.86147 ], [ -72.35128, -41.86195 ], [ -72.35261, -41.86168 ], [ -72.36428, -41.8618 ], [ -72.36415, -41.86267 ], [ -72.36359, -41.86368 ], [ -72.36351, -41.86421 ], [ -72.36385, -41.86617 ], [ -72.36413, -41.86686 ], [ -72.36405, -41.86794 ], [ -72.36578, -41.86816 ], [ -72.37308, -41.87528 ], [ -72.37381, -41.8764 ], [ -72.37454, -41.87904 ], [ -72.3753, -41.87974 ], [ -72.37703, -41.88073 ], [ -72.37839, -41.88222 ], [ -72.37905, -41.88318 ], [ -72.37913, -41.88462 ], [ -72.37897, -41.8848 ], [ -72.37927, -41.88514 ], [ -72.37987, -41.88543 ], [ -72.38051, -41.88643 ], [ -72.38078, -41.88656 ], [ -72.38123, -41.88517 ], [ -72.38494, -41.88341 ], [ -72.38671, -41.88352 ], [ -72.38734, -41.88334 ], [ -72.38766, -41.883 ], [ -72.38774, -41.88179 ], [ -72.38836, -41.88087 ], [ -72.3888, -41.87885 ], [ -72.38986, -41.87655 ], [ -72.38954, -41.87115 ], [ -72.38956, -41.86696 ], [ -72.38888, -41.86339 ], [ -72.38802, -41.85664 ], [ -72.38905, -41.85649 ], [ -72.39045, -41.85671 ], [ -72.39144, -41.85724 ], [ -72.39243, -41.85802 ], [ -72.39323, -41.85913 ], [ -72.39361, -41.85934 ], [ -72.39391, -41.85862 ], [ -72.39454, -41.85808 ], [ -72.39465, -41.8578 ], [ -72.396, -41.85848 ], [ -72.39701, -41.8587 ], [ -72.39809, -41.85851 ], [ -72.4005, -41.85896 ], [ -72.40241, -41.85863 ], [ -72.402, -41.87998 ], [ -72.40577, -41.87583 ], [ -72.40829, -41.87472 ], [ -72.41239, -41.88861 ], [ -72.41051, -41.88932 ], [ -72.41275, -41.89684 ], [ -72.41377, -41.89668 ], [ -72.41876, -41.90382 ], [ -72.42498, -41.89818 ], [ -72.42942, -41.90449 ], [ -72.43354, -41.90073 ], [ -72.43366, -41.90085 ], [ -72.4372, -41.89985 ], [ -72.4402, -41.89863 ], [ -72.44102, -41.89949 ], [ -72.442, -41.90151 ], [ -72.44454, -41.90485 ], [ -72.45023, -41.90188 ], [ -72.44959, -41.90072 ], [ -72.45225, -41.89881 ], [ -72.45393, -41.89921 ], [ -72.4558, -41.90016 ], [ -72.45816, -41.90055 ], [ -72.45866, -41.89963 ], [ -72.45953, -41.89873 ], [ -72.46034, -41.89819 ], [ -72.45463, -41.89609 ], [ -72.44945, -41.89448 ], [ -72.45275, -41.88953 ], [ -72.45268, -41.88906 ], [ -72.45724, -41.88698 ], [ -72.4617, -41.88449 ], [ -72.46606, -41.88058 ], [ -72.40335, -41.85606 ], [ -72.38763, -41.82014 ], [ -72.37531, -41.78734 ], [ -72.36273, -41.79112 ], [ -72.36126, -41.79247 ], [ -72.36069, -41.79276 ], [ -72.35929, -41.79311 ], [ -72.3577, -41.79422 ], [ -72.35626, -41.79433 ], [ -72.35423, -41.79488 ], [ -72.35136, -41.79504 ], [ -72.35018, -41.79494 ], [ -72.34659, -41.79389 ], [ -72.34515, -41.79379 ], [ -72.34162, -41.79433 ], [ -72.3397, -41.79424 ], [ -72.33883, -41.79395 ], [ -72.33139, -41.79412 ], [ -72.3287, -41.79484 ], [ -72.3276, -41.79488 ], [ -72.32604, -41.79407 ], [ -72.32492, -41.79377 ], [ -72.32352, -41.79405 ], [ -72.32137, -41.79415 ], [ -72.32006, -41.79483 ], [ -72.31795, -41.79517 ], [ -72.31583, -41.79498 ], [ -72.31281, -41.79558 ], [ -72.31155, -41.79609 ], [ -72.31106, -41.7961 ], [ -72.3095, -41.79563 ], [ -72.30759, -41.79548 ], [ -72.3051, -41.7944 ], [ -72.30368, -41.79424 ], [ -72.30131, -41.79243 ], [ -72.29899, -41.79151 ], [ -72.29646, -41.79089 ], [ -72.29368, -41.79093 ], [ -72.29702, -41.79522 ], [ -72.29819, -41.79571 ], [ -72.29943, -41.79657 ], [ -72.29964, -41.79689 ], [ -72.29976, -41.7976 ], [ -72.30022, -41.79825 ], [ -72.30056, -41.79911 ], [ -72.30102, -41.79942 ], [ -72.30064, -41.80072 ], [ -72.3001, -41.80121 ], [ -72.29926, -41.80156 ], [ -72.29671, -41.802 ], [ -72.29564, -41.80281 ], [ -72.2944, -41.80338 ], [ -72.29226, -41.80568 ], [ -72.29797, -41.82104 ], [ -72.29585, -41.82287 ], [ -72.29424, -41.82598 ], [ -72.29423, -41.82638 ], [ -72.29369, -41.82675 ], [ -72.29332, -41.82743 ], [ -72.293, -41.82764 ], [ -72.29143, -41.82722 ], [ -72.2888, -41.82736 ], [ -72.28722, -41.82692 ], [ -72.28627, -41.82704 ], [ -72.28522, -41.82746 ], [ -72.28427, -41.82734 ], [ -72.28314, -41.82767 ], [ -72.2814, -41.82711 ], [ -72.27953, -41.82743 ], [ -72.27857, -41.82737 ], [ -72.27787, -41.82714 ], [ -72.27778, -41.82685 ], [ -72.27793, -41.82611 ], [ -72.27715, -41.82547 ], [ -72.27706, -41.82456 ], [ -72.27676, -41.82405 ], [ -72.27539, -41.82379 ], [ -72.273, -41.82177 ], [ -72.27217, -41.8214 ], [ -72.27124, -41.82128 ], [ -72.27056, -41.82078 ], [ -72.27071, -41.82027 ], [ -72.27062, -41.81992 ], [ -72.26956, -41.81872 ], [ -72.26825, -41.81791 ], [ -72.26791, -41.81687 ], [ -72.26747, -41.81624 ], [ -72.2675, -41.816 ], [ -72.26621, -41.8147 ], [ -72.26532, -41.81284 ], [ -72.26455, -41.81171 ], [ -72.26392, -41.81109 ], [ -72.2639, -41.81002 ], [ -72.26366, -41.80951 ], [ -72.26362, -41.80737 ], [ -72.26313, -41.80634 ], [ -72.26292, -41.80547 ], [ -72.26187, -41.80427 ], [ -72.26217, -41.80341 ], [ -72.26229, -41.80071 ], [ -72.2626, -41.80022 ], [ -72.26259, -41.79985 ], [ -72.2622, -41.7992 ], [ -72.26213, -41.79866 ], [ -72.26152, -41.79789 ], [ -72.26061, -41.79584 ], [ -72.2604, -41.79404 ], [ -72.26024, -41.79373 ], [ -72.26031, -41.793 ], [ -72.25999, -41.79234 ], [ -72.25854, -41.79096 ], [ -72.25593, -41.79364 ], [ -72.25454, -41.79539 ], [ -72.25426, -41.79554 ], [ -72.25412, -41.79543 ], [ -72.25514, -41.79131 ], [ -72.25513, -41.78889 ], [ -72.25177, -41.78481 ], [ -72.24671, -41.78284 ], [ -72.24309, -41.78176 ], [ -72.23776, -41.78123 ], [ -72.23615, -41.78223 ], [ -72.23379, -41.78297 ], [ -72.23078, -41.78322 ], [ -72.22908, -41.78227 ], [ -72.2271, -41.78168 ], [ -72.22708, -41.78108 ], [ -72.22986, -41.77974 ], [ -72.23051, -41.77907 ], [ -72.23067, -41.77658 ], [ -72.23105, -41.77565 ], [ -72.23317, -41.77311 ], [ -72.23628, -41.76871 ], [ -72.23704, -41.76523 ], [ -72.23823, -41.76214 ], [ -72.23654, -41.76099 ], [ -72.23626, -41.7605 ], [ -72.23518, -41.75977 ], [ -72.23439, -41.75845 ], [ -72.23398, -41.75829 ], [ -72.23279, -41.75827 ], [ -72.23169, -41.75731 ], [ -72.23099, -41.75719 ], [ -72.22961, -41.75639 ], [ -72.2225, -41.75072 ], [ -72.22227, -41.75011 ], [ -72.22223, -41.74887 ], [ -72.22197, -41.74779 ], [ -72.22079, -41.74606 ], [ -72.2194, -41.74485 ], [ -72.2177, -41.744 ], [ -72.21522, -41.74321 ], [ -72.21408, -41.74297 ], [ -72.21155, -41.7428 ], [ -72.20993, -41.74308 ] ] ] } },
{ "type": "Feature", "properties": { "nombre": "Parque Nacional Alerce Andino", "categoria": "Parque Nacional", "region": "Los Lagos", "superficie_ha": "39255", "decreto": "NÂ° 735 de 1983" }, "geometry": { "type": "Polygon", "coordinates": [ [ [ -72.56659, -41.4456 ], [ -72.56386, -41.44552 ], [ -72.56065, -41.44622 ], [ -72.55781, -41.44751 ], [ -72.55491, -41.44805 ], [ -72.55349, -41.44801 ], [ -72.55456, -41.45184 ], [ -72.55334, -41.4546 ], [ -72.55555, -41.4627 ], [ -72.55679, -41.46839 ], [ -72.55711, -41.46928 ], [ -72.56073, -41.47398 ], [ -72.56333, -41.4788 ], [ -72.56644, -41.4835 ], [ -72.56247, -41.48977 ], [ -72.54961, -41.49495 ], [ -72.5452, -41.49781 ], [ -72.55277, -41.50574 ], [ -72.55219, -41.50914 ], [ -72.54936, -41.51636 ], [ -72.54393, -41.5184 ], [ -72.54049, -41.51641 ], [ -72.53504, -41.51426 ], [ -72.52954, -41.51054 ], [ -72.5313, -41.50474 ], [ -72.53502, -41.50099 ], [ -72.5333, -41.5 ], [ -72.53146, -41.50024 ], [ -72.53061, -41.49919 ], [ -72.5232, -41.49495 ], [ -72.52195, -41.48845 ], [ -72.52236, -41.47821 ], [ -72.51994, -41.4734 ], [ -72.52048, -41.46862 ], [ -72.51584, -41.4614 ], [ -72.51404, -41.4607 ], [ -72.50812, -41.45906 ], [ -72.50729, -41.46116 ], [ -72.50535, -41.46302 ], [ -72.50319, -41.46471 ], [ -72.50178, -41.4668 ], [ -72.50097, -41.46931 ], [ -72.49987, -41.47124 ], [ -72.49922, -41.4734 ], [ -72.49827, -41.47562 ], [ -72.49633, -41.47788 ], [ -72.49976, -41.48361 ], [ -72.49012, -41.48813 ], [ -72.48027, -41.49246 ], [ -72.4784, -41.49484 ], [ -72.47826, -41.50252 ], [ -72.47792, -41.50867 ], [ -72.48007, -41.51552 ], [ -72.48339, -41.52016 ], [ -72.48947, -41.52382 ], [ -72.49158, -41.53255 ], [ -72.48948, -41.53543 ], [ -72.48744, -41.53507 ], [ -72.48542, -41.53351 ], [ -72.48364, -41.53161 ], [ -72.47899, -41.53669 ], [ -72.47807, -41.54186 ], [ -72.47707, -41.54545 ], [ -72.47424, -41.54665 ], [ -72.47159, -41.551 ], [ -72.46693, -41.55043 ], [ -72.46656, -41.54525 ], [ -72.46823, -41.54316 ], [ -72.46597, -41.53919 ], [ -72.46415, -41.53066 ], [ -72.45863, -41.53209 ], [ -72.45441, -41.52643 ], [ -72.45198, -41.51922 ], [ -72.44899, -41.51664 ], [ -72.4469, -41.51618 ], [ -72.44244, -41.51745 ], [ -72.44076, -41.5198 ], [ -72.43989, -41.52234 ], [ -72.43814, -41.52249 ], [ -72.43656, -41.51958 ], [ -72.43344, -41.5177 ], [ -72.42842, -41.51773 ], [ -72.42373, -41.51821 ], [ -72.41906, -41.51833 ], [ -72.41105, -41.51579 ], [ -72.40559, -41.51542 ], [ -72.39848, -41.51521 ], [ -72.39008, -41.51594 ], [ -72.38622, -41.51726 ], [ -72.38542, -41.52095 ], [ -72.36638, -41.52416 ], [ -72.36919, -41.53857 ], [ -72.36314, -41.54014 ], [ -72.36357, -41.54218 ], [ -72.36421, -41.54406 ], [ -72.36445, -41.54435 ], [ -72.36488, -41.54755 ], [ -72.36558, -41.54632 ], [ -72.36633, -41.54559 ], [ -72.36804, -41.54485 ], [ -72.37155, -41.54455 ], [ -72.37503, -41.54483 ], [ -72.3789, -41.54433 ], [ -72.38727, -41.54611 ], [ -72.39326, -41.54595 ], [ -72.40157, -41.54667 ], [ -72.4126, -41.54543 ], [ -72.41663, -41.54432 ], [ -72.41895, -41.54494 ], [ -72.40679, -41.54773 ], [ -72.44328, -41.57329 ], [ -72.44144, -41.57403 ], [ -72.44003, -41.57325 ], [ -72.43848, -41.57422 ], [ -72.43846, -41.57552 ], [ -72.43641, -41.57611 ], [ -72.43506, -41.57762 ], [ -72.43809, -41.57857 ], [ -72.4397, -41.57981 ], [ -72.43782, -41.58223 ], [ -72.43465, -41.58311 ], [ -72.41969, -41.58295 ], [ -72.37257, -41.58356 ], [ -72.3633, -41.58427 ], [ -72.36269, -41.58773 ], [ -72.36911, -41.58829 ], [ -72.37023, -41.58863 ], [ -72.37054, -41.58915 ], [ -72.3703, -41.59082 ], [ -72.37044, -41.59167 ], [ -72.37251, -41.59141 ], [ -72.37377, -41.59186 ], [ -72.37393, -41.59367 ], [ -72.37384, -41.59494 ], [ -72.37144, -41.59489 ], [ -72.37105, -41.59469 ], [ -72.36956, -41.59449 ], [ -72.37042, -41.59815 ], [ -72.36833, -41.59837 ], [ -72.36957, -41.59956 ], [ -72.37019, -41.6007 ], [ -72.37028, -41.60175 ], [ -72.37077, -41.60272 ], [ -72.37135, -41.60546 ], [ -72.37204, -41.6108 ], [ -72.37252, -41.61126 ], [ -72.3734, -41.61273 ], [ -72.37382, -41.61315 ], [ -72.37417, -41.61371 ], [ -72.37423, -41.6142 ], [ -72.37604, -41.61525 ], [ -72.37705, -41.6168 ], [ -72.37786, -41.61651 ], [ -72.37921, -41.61692 ], [ -72.38402, -41.61545 ], [ -72.38597, -41.61506 ], [ -72.38681, -41.61624 ], [ -72.38804, -41.61729 ], [ -72.3885, -41.61797 ], [ -72.38882, -41.61887 ], [ -72.38911, -41.62066 ], [ -72.38654, -41.62213 ], [ -72.38519, -41.62329 ], [ -72.38466, -41.624 ], [ -72.38378, -41.62422 ], [ -72.38306, -41.62373 ], [ -72.38128, -41.62299 ], [ -72.38289, -41.625 ], [ -72.38342, -41.62692 ], [ -72.38061, -41.62774 ], [ -72.38206, -41.6303 ], [ -72.38276, -41.63194 ], [ -72.38522, -41.63557 ], [ -72.44266, -41.66006 ], [ -72.46621, -41.66154 ], [ -72.46565, -41.66447 ], [ -72.46821, -41.66717 ], [ -72.47276, -41.67051 ], [ -72.48425, -41.67228 ], [ -72.48934, -41.6743 ], [ -72.49153, -41.68067 ], [ -72.49159, -41.68287 ], [ -72.50664, -41.67965 ], [ -72.50668, -41.67738 ], [ -72.5189, -41.66785 ], [ -72.53223, -41.66618 ], [ -72.55104, -41.66215 ], [ -72.55952, -41.6735 ], [ -72.56332, -41.67795 ], [ -72.56703, -41.67845 ], [ -72.56888, -41.67917 ], [ -72.56887, -41.6801 ], [ -72.57329, -41.68432 ], [ -72.60333, -41.7054 ], [ -72.60417, -41.70998 ], [ -72.60471, -41.70962 ], [ -72.60547, -41.70941 ], [ -72.6078, -41.71014 ], [ -72.61009, -41.70967 ], [ -72.61068, -41.70988 ], [ -72.61151, -41.70963 ], [ -72.61388, -41.71011 ], [ -72.61504, -41.71019 ], [ -72.61574, -41.70954 ], [ -72.61587, -41.70915 ], [ -72.6166, -41.70877 ], [ -72.61817, -41.70843 ], [ -72.61892, -41.70854 ], [ -72.61952, -41.70836 ], [ -72.62095, -41.70858 ], [ -72.62264, -41.708 ], [ -72.62327, -41.70801 ], [ -72.62469, -41.70767 ], [ -72.62669, -41.70797 ], [ -72.62801, -41.70783 ], [ -72.6286, -41.70653 ], [ -72.62934, -41.70661 ], [ -72.63146, -41.70598 ], [ -72.63312, -41.70379 ], [ -72.63364, -41.70362 ], [ -72.63431, -41.70273 ], [ -72.63435, -41.70226 ], [ -72.63522, -41.70123 ], [ -72.63333, -41.69854 ], [ -72.63167, -41.69859 ], [ -72.63124, -41.69726 ], [ -72.63005, -41.69659 ], [ -72.62669, -41.69647 ], [ -72.62709, -41.69458 ], [ -72.62684, -41.69237 ], [ -72.62732, -41.69113 ], [ -72.62693, -41.68933 ], [ -72.62753, -41.6885 ], [ -72.62897, -41.68917 ], [ -72.63056, -41.69042 ], [ -72.63226, -41.69037 ], [ -72.63378, -41.68905 ], [ -72.63534, -41.68698 ], [ -72.63782, -41.68202 ], [ -72.63644, -41.67996 ], [ -72.63062, -41.68032 ], [ -72.63808, -41.6741 ], [ -72.64038, -41.67024 ], [ -72.64186, -41.66972 ], [ -72.64341, -41.6689 ], [ -72.64533, -41.66743 ], [ -72.64752, -41.66616 ], [ -72.6519, -41.66548 ], [ -72.65195, -41.66489 ], [ -72.6528, -41.66258 ], [ -72.6523, -41.66103 ], [ -72.65181, -41.65812 ], [ -72.65366, -41.65691 ], [ -72.64964, -41.65398 ], [ -72.64549, -41.64663 ], [ -72.64252, -41.64173 ], [ -72.64838, -41.63127 ], [ -72.64007, -41.61695 ], [ -72.63056, -41.61181 ], [ -72.62918, -41.61186 ], [ -72.62738, -41.61145 ], [ -72.62541, -41.6115 ], [ -72.623, -41.61194 ], [ -72.62195, -41.61244 ], [ -72.62131, -41.61243 ], [ -72.62061, -41.61265 ], [ -72.61925, -41.61217 ], [ -72.61803, -41.61229 ], [ -72.61682, -41.61158 ], [ -72.61573, -41.61157 ], [ -72.60765, -41.60608 ], [ -72.60664, -41.60594 ], [ -72.60663, -41.60551 ], [ -72.60583, -41.60512 ], [ -72.6041, -41.60468 ], [ -72.60078, -41.60485 ], [ -72.59788, -41.60476 ], [ -72.59546, -41.60526 ], [ -72.59489, -41.60558 ], [ -72.59233, -41.60552 ], [ -72.58805, -41.60601 ], [ -72.58866, -41.60518 ], [ -72.58883, -41.60459 ], [ -72.58928, -41.6041 ], [ -72.58994, -41.60378 ], [ -72.59219, -41.60136 ], [ -72.59149, -41.60092 ], [ -72.59144, -41.60051 ], [ -72.59027, -41.60036 ], [ -72.58957, -41.60003 ], [ -72.58949, -41.59966 ], [ -72.58965, -41.59905 ], [ -72.58911, -41.59853 ], [ -72.58878, -41.59792 ], [ -72.58697, -41.59721 ], [ -72.58643, -41.59667 ], [ -72.58633, -41.59613 ], [ -72.58379, -41.59617 ], [ -72.58153, -41.59527 ], [ -72.5808, -41.59547 ], [ -72.57878, -41.59497 ], [ -72.57867, -41.59392 ], [ -72.57824, -41.5934 ], [ -72.57718, -41.59355 ], [ -72.57718, -41.59304 ], [ -72.57767, -41.59098 ], [ -72.57868, -41.59131 ], [ -72.57976, -41.59196 ], [ -72.58233, -41.59286 ], [ -72.58292, -41.59337 ], [ -72.58933, -41.59562 ], [ -72.5897, -41.59609 ], [ -72.59212, -41.59729 ], [ -72.59751, -41.58778 ], [ -72.59701, -41.58139 ], [ -72.59262, -41.57275 ], [ -72.59041, -41.56152 ], [ -72.59193, -41.55094 ], [ -72.6002, -41.54108 ], [ -72.60655, -41.54867 ], [ -72.60925, -41.5498 ], [ -72.61545, -41.55426 ], [ -72.62045, -41.55571 ], [ -72.62455, -41.55798 ], [ -72.62756, -41.53995 ], [ -72.62956, -41.52593 ], [ -72.61791, -41.52367 ], [ -72.61783, -41.51763 ], [ -72.61711, -41.51708 ], [ -72.61675, -41.51638 ], [ -72.61776, -41.51606 ], [ -72.61812, -41.51504 ], [ -72.61891, -41.51466 ], [ -72.61769, -41.51401 ], [ -72.61661, -41.51304 ], [ -72.61833, -41.51315 ], [ -72.62006, -41.51363 ], [ -72.62178, -41.51336 ], [ -72.62207, -41.50754 ], [ -72.6315, -41.49249 ], [ -72.63696, -41.48612 ], [ -72.63745, -41.48502 ], [ -72.63845, -41.48384 ], [ -72.63942, -41.47978 ], [ -72.63921, -41.47628 ], [ -72.64064, -41.47532 ], [ -72.64076, -41.47427 ], [ -72.64167, -41.47305 ], [ -72.64223, -41.47254 ], [ -72.64349, -41.4735 ], [ -72.64335, -41.47432 ], [ -72.64442, -41.47465 ], [ -72.64612, -41.47545 ], [ -72.6505, -41.47153 ], [ -72.64255, -41.46371 ], [ -72.63887, -41.46682 ], [ -72.63377, -41.47242 ], [ -72.62215, -41.46792 ], [ -72.61298, -41.46678 ], [ -72.60662, -41.46401 ], [ -72.60505, -41.45771 ], [ -72.5957, -41.45114 ], [ -72.58965, -41.44647 ], [ -72.58973, -41.44187 ], [ -72.587, -41.4387 ], [ -72.58592, -41.43681 ], [ -72.58064, -41.43796 ], [ -72.57833, -41.43951 ], [ -72.57671, -41.4412 ], [ -72.57403, -41.44209 ], [ -72.5715, -41.44315 ], [ -72.56927, -41.44483 ], [ -72.56659, -41.4456 ] ] ] } },
{ "type": "Feature", "properties": { "nombre": "Reserva Nacional Llanquihue", "categoria": "Reserva Nacional", "region": "Los Lagos", "superficie_ha": "33972", "decreto": "NÂ° 750 de 1912; NÂ° 1256 de 1912; NÂ° 735 de 1982; NÂ° 883 de 1988" }, "geometry": { "type": "Polygon", "coordinates": [ [ [ -72.36027, -41.44619 ], [ -72.35948, -41.44628 ], [ -72.35854, -41.44682 ], [ -72.35736, -41.44696 ], [ -72.35699, -41.44672 ], [ -72.35436, -41.44769 ], [ -72.35336, -41.4475 ], [ -72.35253, -41.44669 ], [ -72.35349, -41.45068 ], [ -72.34836, -41.4514 ], [ -72.34908, -41.45447 ], [ -72.34137, -41.45386 ], [ -72.33992, -41.45476 ], [ -72.33771, -41.46463 ], [ -72.35181, -41.46502 ], [ -72.35155, -41.47315 ], [ -72.33865, -41.4725 ], [ -72.34022, -41.48089 ], [ -72.34825, -41.4813 ], [ -72.34816, -41.48342 ], [ -72.34904, -41.48363 ], [ -72.34926, -41.48723 ], [ -72.34417, -41.48686 ], [ -72.34409, -41.48854 ], [ -72.35169, -41.48845 ], [ -72.35134, -41.49057 ], [ -72.35237, -41.49079 ], [ -72.35222, -41.49388 ], [ -72.34742, -41.49345 ], [ -72.34841, -41.49669 ], [ -72.34642, -41.49675 ], [ -72.34657, -41.49769 ], [ -72.35298, -41.49772 ], [ -72.35323, -41.49974 ], [ -72.33701, -41.49974 ], [ -72.33613, -41.50023 ], [ -72.33636, -41.50365 ], [ -72.35931, -41.50311 ], [ -72.35928, -41.50488 ], [ -72.35672, -41.51353 ], [ -72.3649, -41.51222 ], [ -72.3739, -41.50954 ], [ -72.38096, -41.50826 ], [ -72.3888, -41.50805 ], [ -72.39306, -41.5069 ], [ -72.39673, -41.50616 ], [ -72.40345, -41.50592 ], [ -72.4151, -41.50624 ], [ -72.41658, -41.50446 ], [ -72.41882, -41.50318 ], [ -72.42172, -41.50247 ], [ -72.42455, -41.5021 ], [ -72.42707, -41.50139 ], [ -72.42969, -41.50017 ], [ -72.43155, -41.49819 ], [ -72.43469, -41.49743 ], [ -72.43729, -41.49649 ], [ -72.44147, -41.49283 ], [ -72.44319, -41.49096 ], [ -72.44444, -41.48909 ], [ -72.44671, -41.48204 ], [ -72.44774, -41.47959 ], [ -72.4496, -41.47784 ], [ -72.45236, -41.47708 ], [ -72.45807, -41.47703 ], [ -72.46052, -41.47609 ], [ -72.46314, -41.47458 ], [ -72.46462, -41.47265 ], [ -72.46662, -41.47119 ], [ -72.46908, -41.47019 ], [ -72.47048, -41.46832 ], [ -72.47204, -41.46663 ], [ -72.47458, -41.46506 ], [ -72.47576, -41.46302 ], [ -72.47679, -41.46074 ], [ -72.47954, -41.45626 ], [ -72.48026, -41.45399 ], [ -72.48053, -41.45182 ], [ -72.48103, -41.44977 ], [ -72.48306, -41.44282 ], [ -72.4831, -41.44042 ], [ -72.48345, -41.43837 ], [ -72.48331, -41.43763 ], [ -72.4837, -41.43323 ], [ -72.48472, -41.4313 ], [ -72.4862, -41.42955 ], [ -72.49073, -41.42697 ], [ -72.49572, -41.42446 ], [ -72.49788, -41.42311 ], [ -72.49791, -41.42304 ], [ -72.44783, -41.42009 ], [ -72.38915, -41.42094 ], [ -72.35714, -41.42377 ], [ -72.36027, -41.44619 ] ] ] } }
]
}
