{
"type": "FeatureCollection",
"name": "HUD",
"crs": { "type": "name", "properties": { "name": "urn:ogc:def:crs:OGC:1.3:CRS84" } },
"xy_coordinate_resolution": 1e-05,
"features": [
{ "type": "Feature", "properties": { "nombre": "Parque Nacional Cerro Castillo", "categoria": "Parque Nacional", "region": "Aysen", "superficie_ha": "143502", "decreto": "NÂ° 201 de 1970; NÂ° 88 de 2017" }, "geometry": { "type": "MultiPolygon", "coordinates": [ [ [ [ -72.41119, -46.10632 ], [ -72.4336, -46.10876 ], [ -72.43431, -46.10903 ], [ -72.43635, -46.10762 ], [ -72.43854, -46.10747 ], [ -72.43991, -46.10714 ], [ -72.44124, -46.10667 ], [ -72.44217, -46.10614 ], [ -72.44298, -46.10534 ], [ -72.4433, -46.10461 ], [ -72.44437, -46.10308 ], [ -72.44617, -46.10149 ], [ -72.44724, -46.09984 ], [ -72.44844, -46.09849 ], [ -72.4517, -46.09583 ], [ -72.45338, -46.09351 ], [ -72.45583, -46.09295 ], [ -72.45755, -46.09211 ], [ -72.45948, -46.09144 ], [ -72.46002, -46.09078 ], [ -72.46039, -46.09066 ], [ -72.4622, -46.09068 ], [ -72.46344, -46.09019 ], [ -72.46612, -46.08956 ], [ -72.46683, -46.08913 ], [ -72.46732, -46.08861 ], [ -72.46797, -46.0873 ], [ -72.46804, -46.08649 ], [ -72.46846, -46.08564 ], [ -72.46924, -46.08512 ], [ -72.47035, -46.08291 ], [ -72.47099, -46.08228 ], [ -72.47151, -46.08109 ], [ -72.47215, -46.08066 ], [ -72.47244, -46.07952 ], [ -72.47287, -46.07906 ], [ -72.47288, -46.07801 ], [ -72.47314, -46.0775 ], [ -72.47457, -46.07649 ], [ -72.47645, -46.07597 ], [ -72.47708, -46.07552 ], [ -72.47744, -46.07505 ], [ -72.47756, -46.07395 ], [ -72.47968, -46.07172 ], [ -72.48245, -46.07098 ], [ -72.48543, -46.0694 ], [ -72.48831, -46.06688 ], [ -72.49014, -46.06603 ], [ -72.49183, -46.06435 ], [ -72.49263, -46.06397 ], [ -72.49262, -46.06274 ], [ -72.49279, -46.06227 ], [ -72.49422, -46.06171 ], [ -72.49512, -46.0617 ], [ -72.49588, -46.06136 ], [ -72.49785, -46.05983 ], [ -72.50168, -46.05752 ], [ -72.5043, -46.05408 ], [ -72.50514, -46.05335 ], [ -72.50555, -46.05266 ], [ -72.50881, -46.05125 ], [ -72.51137, -46.04966 ], [ -72.51193, -46.04811 ], [ -72.51298, -46.04733 ], [ -72.51364, -46.0453 ], [ -72.51666, -46.04324 ], [ -72.51888, -46.04108 ], [ -72.51931, -46.04012 ], [ -72.52083, -46.03907 ], [ -72.52186, -46.03748 ], [ -72.52217, -46.03668 ], [ -72.52238, -46.03536 ], [ -72.52496, -46.03253 ], [ -72.52518, -46.03094 ], [ -72.52565, -46.02917 ], [ -72.52719, -46.02694 ], [ -72.52617, -46.02586 ], [ -72.52608, -46.02458 ], [ -72.5248, -46.02242 ], [ -72.52844, -46.01612 ], [ -72.52755, -46.01462 ], [ -72.52902, -46.01326 ], [ -72.52926, -46.01146 ], [ -72.52977, -46.01019 ], [ -72.53034, -46.00765 ], [ -72.53244, -46.00515 ], [ -72.53667, -46.00269 ], [ -72.53826, -46.00112 ], [ -72.53857, -45.99773 ], [ -72.53917, -45.99444 ], [ -72.53578, -45.99182 ], [ -72.53159, -45.98641 ], [ -72.52868, -45.98351 ], [ -72.52932, -45.98286 ], [ -72.52944, -45.97921 ], [ -72.52986, -45.97769 ], [ -72.53078, -45.97552 ], [ -72.53099, -45.97441 ], [ -72.53048, -45.97343 ], [ -72.5296, -45.97032 ], [ -72.52844, -45.96826 ], [ -72.52833, -45.96768 ], [ -72.52858, -45.96681 ], [ -72.52978, -45.96521 ], [ -72.52567, -45.9627 ], [ -72.52502, -45.96041 ], [ -72.52501, -45.95913 ], [ -72.52905, -45.9586 ], [ -72.53804, -45.95704 ], [ -72.53987, -45.95576 ], [ -72.54179, -45.95144 ], [ -72.54288, -45.95101 ], [ -72.54351, -45.95056 ], [ -72.54374, -45.9502 ], [ -72.54376, -45.94976 ], [ -72.54362, -45.9492 ], [ -72.54158, -45.9467 ], [ -72.54154, -45.94589 ], [ -72.54177, -45.94516 ], [ -72.54143, -45.94444 ], [ -72.54014, -45.94344 ], [ -72.53969, -45.94268 ], [ -72.53866, -45.94184 ], [ -72.5385, -45.94149 ], [ -72.53863, -45.93998 ], [ -72.53846, -45.93941 ], [ -72.53792, -45.93908 ], [ -72.53789, -45.93854 ], [ -72.53821, -45.93809 ], [ -72.53828, -45.93751 ], [ -72.53812, -45.93671 ], [ -72.53777, -45.93641 ], [ -72.53558, -45.93538 ], [ -72.53393, -45.93527 ], [ -72.53165, -45.93487 ], [ -72.53124, -45.93437 ], [ -72.5312, -45.93375 ], [ -72.53096, -45.93346 ], [ -72.52987, -45.93288 ], [ -72.5287, -45.93269 ], [ -72.52826, -45.9324 ], [ -72.52799, -45.93168 ], [ -72.52663, -45.93112 ], [ -72.52569, -45.93001 ], [ -72.52407, -45.92915 ], [ -72.52404, -45.92797 ], [ -72.52318, -45.92723 ], [ -72.52252, -45.92712 ], [ -72.519, -45.93066 ], [ -72.50833, -45.92588 ], [ -72.50505, -45.927 ], [ -72.49325, -45.9342 ], [ -72.48884, -45.9349 ], [ -72.48416, -45.9304 ], [ -72.47414, -45.93061 ], [ -72.45548, -45.92887 ], [ -72.43251, -45.93883 ], [ -72.41718, -45.93945 ], [ -72.40818, -45.93607 ], [ -72.40612, -45.93452 ], [ -72.40105, -45.93232 ], [ -72.39716, -45.93114 ], [ -72.39183, -45.9301 ], [ -72.38159, -45.92851 ], [ -72.379, -45.92646 ], [ -72.3575, -45.92234 ], [ -72.35303, -45.92271 ], [ -72.34928, -45.92321 ], [ -72.34928, -45.9224 ], [ -72.3395, -45.92075 ], [ -72.33662, -45.92071 ], [ -72.33301, -45.92027 ], [ -72.32674, -45.91738 ], [ -72.32704, -45.93087 ], [ -72.32879, -45.94155 ], [ -72.32957, -45.94249 ], [ -72.3301, -45.94382 ], [ -72.33304, -45.94601 ], [ -72.33521, -45.94671 ], [ -72.3441, -45.95339 ], [ -72.34629, -45.95336 ], [ -72.35125, -45.95511 ], [ -72.35076, -45.95562 ], [ -72.35029, -45.95573 ], [ -72.35251, -45.95776 ], [ -72.35361, -45.95817 ], [ -72.35407, -45.95921 ], [ -72.3537, -45.9606 ], [ -72.35175, -45.96347 ], [ -72.35244, -45.9637 ], [ -72.35237, -45.96528 ], [ -72.34949, -45.96485 ], [ -72.34819, -45.96448 ], [ -72.34794, -45.964 ], [ -72.3477, -45.96288 ], [ -72.3472, -45.96231 ], [ -72.34701, -45.96182 ], [ -72.34696, -45.96122 ], [ -72.34597, -45.96058 ], [ -72.3456, -45.95997 ], [ -72.34487, -45.95964 ], [ -72.34421, -45.95892 ], [ -72.34299, -45.95924 ], [ -72.34039, -45.95817 ], [ -72.33873, -45.95555 ], [ -72.33477, -45.95263 ], [ -72.32993, -45.94854 ], [ -72.33422, -45.97473 ], [ -72.34755, -46.01788 ], [ -72.36691, -46.05991 ], [ -72.39213, -46.10041 ], [ -72.39706, -46.10658 ], [ -72.41119, -46.10632 ] ] ], [ [ [ -72.33465, -45.86814 ], [ -72.34135, -45.86514 ], [ -72.34623, -45.8616 ], [ -72.35531, -45.85784 ], [ -72.3572, -45.8533 ], [ -72.3698, -45.84586 ], [ -72.37105, -45.84544 ], [ -72.37275, -45.84457 ], [ -72.37385, -45.84424 ], [ -72.3764, -45.84223 ], [ -72.37713, -45.84048 ], [ -72.37609, -45.83965 ], [ -72.3744, -45.83903 ], [ -72.37376, -45.83853 ], [ -72.37081, -45.83727 ], [ -72.37131, -45.83665 ], [ -72.37301, -45.83645 ], [ -72.37326, -45.83608 ], [ -72.37486, -45.83594 ], [ -72.37505, -45.83622 ], [ -72.37556, -45.83625 ], [ -72.3773, -45.83554 ], [ -72.38068, -45.83329 ], [ -72.38289, -45.83131 ], [ -72.38408, -45.83086 ], [ -72.38622, -45.82941 ], [ -72.38728, -45.82775 ], [ -72.38782, -45.8262 ], [ -72.38898, -45.82388 ], [ -72.39162, -45.82033 ], [ -72.39249, -45.81953 ], [ -72.39256, -45.81892 ], [ -72.39455, -45.81737 ], [ -72.3957, -45.81605 ], [ -72.39651, -45.81491 ], [ -72.39678, -45.81358 ], [ -72.39777, -45.81204 ], [ -72.39952, -45.81029 ], [ -72.40673, -45.80582 ], [ -72.41016, -45.80445 ], [ -72.41182, -45.80408 ], [ -72.41257, -45.80357 ], [ -72.41514, -45.80283 ], [ -72.41816, -45.80143 ], [ -72.42048, -45.80089 ], [ -72.42099, -45.8011 ], [ -72.42341, -45.80042 ], [ -72.4253, -45.79763 ], [ -72.42595, -45.79798 ], [ -72.42754, -45.79661 ], [ -72.42815, -45.79569 ], [ -72.42788, -45.79345 ], [ -72.4267, -45.79237 ], [ -72.42542, -45.79086 ], [ -72.42362, -45.79059 ], [ -72.4224, -45.79016 ], [ -72.41391, -45.78923 ], [ -72.41346, -45.78766 ], [ -72.40838, -45.78712 ], [ -72.40288, -45.78591 ], [ -72.40125, -45.78593 ], [ -72.40071, -45.78613 ], [ -72.39671, -45.78614 ], [ -72.39632, -45.78639 ], [ -72.39385, -45.78691 ], [ -72.39307, -45.78638 ], [ -72.39259, -45.78556 ], [ -72.39208, -45.78511 ], [ -72.39159, -45.78491 ], [ -72.3902, -45.7854 ], [ -72.38958, -45.78517 ], [ -72.38431, -45.78187 ], [ -72.38357, -45.78109 ], [ -72.38309, -45.77993 ], [ -72.38196, -45.7795 ], [ -72.38073, -45.77771 ], [ -72.37933, -45.77609 ], [ -72.37789, -45.77524 ], [ -72.36817, -45.77296 ], [ -72.36589, -45.77171 ], [ -72.36521, -45.77115 ], [ -72.36489, -45.77155 ], [ -72.36534, -45.77388 ], [ -72.36508, -45.77478 ], [ -72.36539, -45.77554 ], [ -72.36706, -45.77713 ], [ -72.36727, -45.77805 ], [ -72.36631, -45.77827 ], [ -72.36476, -45.77779 ], [ -72.35985, -45.77803 ], [ -72.35679, -45.77747 ], [ -72.35478, -45.77673 ], [ -72.35314, -45.77569 ], [ -72.35257, -45.77495 ], [ -72.34261, -45.79933 ], [ -72.33127, -45.84275 ], [ -72.32799, -45.8704 ], [ -72.33465, -45.86814 ] ] ] ] } }
]
}
