{
"type": "FeatureCollection",
"name": "HUE",
"crs": { "type": "name", "properties": { "name": "urn:ogc:def:crs:OGC:1.3:CRS84" } },
"xy_coordinate_resolution": 1e-05,
"features": [
{ "type": "Feature", "properties": { "nombre": "Parque Nacional Pumalin", "categoria": "Parque Nacional", "region": "Los Lagos", "superficie_ha": "402392", "decreto": "NÂ° 28 de 2018" }, "geometry": { "type": "MultiPolygon", "coordinates": [ [ [ [ -72.67774, -42.52566 ], [ -72.67684, -42.52518 ], [ -72.67468, -42.52532 ], [ -72.67412, -42.5215 ], [ -72.67358, -42.52179 ], [ -72.67282, -42.52194 ], [ -72.67053, -42.52326 ], [ -72.66901, -42.52485 ], [ -72.66873, -42.52631 ], [ -72.66819, -42.5266 ], [ -72.66599, -42.52724 ], [ -72.66517, -42.52731 ], [ -72.66488, -42.52702 ], [ -72.66401, -42.52711 ], [ -72.66335, -42.52692 ], [ -72.66315, -42.52647 ], [ -72.6623, -42.52591 ], [ -72.66177, -42.52608 ], [ -72.66079, -42.52767 ], [ -72.66052, -42.52861 ], [ -72.65987, -42.52974 ], [ -72.65923, -42.52997 ], [ -72.65807, -42.53108 ], [ -72.65579, -42.53187 ], [ -72.65433, -42.53308 ], [ -72.65204, -42.53408 ], [ -72.65015, -42.53601 ], [ -72.64914, -42.53646 ], [ -72.64782, -42.53693 ], [ -72.64678, -42.53638 ], [ -72.64534, -42.53666 ], [ -72.64478, -42.53633 ], [ -72.64289, -42.53698 ], [ -72.64195, -42.53694 ], [ -72.64049, -42.53727 ], [ -72.63965, -42.53783 ], [ -72.63704, -42.53906 ], [ -72.63633, -42.53919 ], [ -72.63456, -42.53881 ], [ -72.63331, -42.53975 ], [ -72.63053, -42.54074 ], [ -72.63028, -42.54121 ], [ -72.62948, -42.54185 ], [ -72.62885, -42.54267 ], [ -72.62718, -42.54318 ], [ -72.62613, -42.54379 ], [ -72.6255, -42.54396 ], [ -72.62383, -42.54504 ], [ -72.62035, -42.54436 ], [ -72.61885, -42.54464 ], [ -72.61745, -42.54548 ], [ -72.61705, -42.54609 ], [ -72.61743, -42.54653 ], [ -72.61678, -42.54683 ], [ -72.61549, -42.54702 ], [ -72.61512, -42.54814 ], [ -72.61609, -42.54958 ], [ -72.61575, -42.55069 ], [ -72.61499, -42.55176 ], [ -72.6128, -42.55293 ], [ -72.60789, -42.55639 ], [ -72.60704, -42.55708 ], [ -72.60642, -42.55734 ], [ -72.60607, -42.55787 ], [ -72.60509, -42.55843 ], [ -72.60498, -42.55899 ], [ -72.6052, -42.55985 ], [ -72.60507, -42.56141 ], [ -72.60448, -42.56463 ], [ -72.60359, -42.56588 ], [ -72.60169, -42.56755 ], [ -72.59757, -42.5725 ], [ -72.59734, -42.57307 ], [ -72.59663, -42.57354 ], [ -72.59576, -42.57492 ], [ -72.59453, -42.57911 ], [ -72.59299, -42.58687 ], [ -72.59123, -42.59372 ], [ -72.58828, -42.60264 ], [ -72.58629, -42.60752 ], [ -72.58587, -42.60811 ], [ -72.58527, -42.60841 ], [ -72.58167, -42.60883 ], [ -72.58092, -42.6108 ], [ -72.58156, -42.61202 ], [ -72.58422, -42.61341 ], [ -72.58536, -42.61444 ], [ -72.5898, -42.62113 ], [ -72.5902, -42.62231 ], [ -72.59034, -42.62371 ], [ -72.5901, -42.62427 ], [ -72.58979, -42.62615 ], [ -72.5891, -42.62803 ], [ -72.58111, -42.64043 ], [ -72.58037, -42.64331 ], [ -72.58041, -42.64499 ], [ -72.58065, -42.64566 ], [ -72.58079, -42.64697 ], [ -72.58078, -42.65713 ], [ -72.58121, -42.66026 ], [ -72.58065, -42.66188 ], [ -72.58041, -42.67425 ], [ -72.57999, -42.67486 ], [ -72.57812, -42.67524 ], [ -72.57708, -42.67618 ], [ -72.57698, -42.67752 ], [ -72.57736, -42.68041 ], [ -72.57673, -42.68124 ], [ -72.57672, -42.68178 ], [ -72.5764, -42.68222 ], [ -72.5765, -42.68318 ], [ -72.57623, -42.68402 ], [ -72.57615, -42.68639 ], [ -72.57618, -42.68929 ], [ -72.5766, -42.69234 ], [ -72.57538, -42.69661 ], [ -72.57418, -42.69801 ], [ -72.57408, -42.70076 ], [ -72.57503, -42.70303 ], [ -72.57629, -42.70488 ], [ -72.5805, -42.70982 ], [ -72.58179, -42.71366 ], [ -72.58608, -42.71844 ], [ -72.58654, -42.71858 ], [ -72.58768, -42.71832 ], [ -72.58837, -42.71844 ], [ -72.58881, -42.71882 ], [ -72.58897, -42.71951 ], [ -72.59058, -42.71993 ], [ -72.59127, -42.72055 ], [ -72.59222, -42.72101 ], [ -72.59367, -42.72208 ], [ -72.5957, -42.7219 ], [ -72.59651, -42.72209 ], [ -72.59865, -42.72364 ], [ -72.60005, -42.72535 ], [ -72.60052, -42.72684 ], [ -72.60043, -42.72735 ], [ -72.59954, -42.72791 ], [ -72.59832, -42.72825 ], [ -72.59896, -42.72987 ], [ -72.59886, -42.73284 ], [ -72.59997, -42.73484 ], [ -72.60009, -42.73551 ], [ -72.59968, -42.73605 ], [ -72.59855, -42.73648 ], [ -72.59768, -42.73805 ], [ -72.59619, -42.73886 ], [ -72.59563, -42.73994 ], [ -72.59592, -42.74084 ], [ -72.5972, -42.74319 ], [ -72.59954, -42.74486 ], [ -72.60138, -42.74738 ], [ -72.60217, -42.74814 ], [ -72.60263, -42.74905 ], [ -72.60265, -42.74981 ], [ -72.60281, -42.75013 ], [ -72.60401, -42.7513 ], [ -72.60568, -42.75372 ], [ -72.6061, -42.75538 ], [ -72.60731, -42.7569 ], [ -72.60847, -42.75873 ], [ -72.61014, -42.76053 ], [ -72.61087, -42.76295 ], [ -72.61683, -42.77077 ], [ -72.61871, -42.77436 ], [ -72.61912, -42.77473 ], [ -72.62211, -42.77628 ], [ -72.62409, -42.78012 ], [ -72.63816, -42.79829 ], [ -72.64518, -42.79968 ], [ -72.65911, -42.8057 ], [ -72.69303, -42.81404 ], [ -72.70783, -42.81951 ], [ -72.74066, -42.81415 ], [ -72.78699, -42.80295 ], [ -72.78817, -42.76955 ], [ -72.78614, -42.76989 ], [ -72.78382, -42.77138 ], [ -72.78131, -42.77338 ], [ -72.77938, -42.77346 ], [ -72.7755, -42.77469 ], [ -72.77321, -42.7749 ], [ -72.77215, -42.77603 ], [ -72.76516, -42.77794 ], [ -72.76519, -42.77829 ], [ -72.76472, -42.77932 ], [ -72.76323, -42.78113 ], [ -72.76196, -42.78153 ], [ -72.76118, -42.78213 ], [ -72.75904, -42.7833 ], [ -72.75745, -42.78354 ], [ -72.75633, -42.78412 ], [ -72.75574, -42.78514 ], [ -72.75366, -42.78695 ], [ -72.7559, -42.7872 ], [ -72.75588, -42.78776 ], [ -72.75378, -42.78813 ], [ -72.75265, -42.78799 ], [ -72.75121, -42.78821 ], [ -72.74958, -42.78871 ], [ -72.7484, -42.78982 ], [ -72.74731, -42.79039 ], [ -72.74489, -42.79065 ], [ -72.74287, -42.79125 ], [ -72.73866, -42.79417 ], [ -72.73754, -42.79448 ], [ -72.73647, -42.79531 ], [ -72.73416, -42.79595 ], [ -72.73299, -42.79701 ], [ -72.73114, -42.80097 ], [ -72.72729, -42.80332 ], [ -72.72427, -42.80379 ], [ -72.72303, -42.80222 ], [ -72.72163, -42.80125 ], [ -72.71804, -42.80251 ], [ -72.71333, -42.79965 ], [ -72.71025, -42.79862 ], [ -72.70757, -42.79729 ], [ -72.7056, -42.7977 ], [ -72.70245, -42.79739 ], [ -72.70124, -42.79651 ], [ -72.70018, -42.79549 ], [ -72.69863, -42.79518 ], [ -72.69847, -42.79473 ], [ -72.69779, -42.79427 ], [ -72.69566, -42.79342 ], [ -72.69467, -42.7928 ], [ -72.69139, -42.79001 ], [ -72.68746, -42.78706 ], [ -72.68002, -42.78516 ], [ -72.67812, -42.78392 ], [ -72.6745, -42.78229 ], [ -72.67394, -42.78133 ], [ -72.67374, -42.78041 ], [ -72.67376, -42.77921 ], [ -72.67314, -42.77797 ], [ -72.67131, -42.77769 ], [ -72.67014, -42.7768 ], [ -72.66823, -42.77411 ], [ -72.66566, -42.77338 ], [ -72.66382, -42.77261 ], [ -72.66359, -42.77279 ], [ -72.66353, -42.77249 ], [ -72.66379, -42.7726 ], [ -72.66319, -42.77099 ], [ -72.66332, -42.76987 ], [ -72.66367, -42.76887 ], [ -72.66612, -42.76783 ], [ -72.66672, -42.76603 ], [ -72.61524, -42.7444 ], [ -72.61505, -42.74411 ], [ -72.61356, -42.74373 ], [ -72.61313, -42.74322 ], [ -72.61151, -42.74252 ], [ -72.61133, -42.74198 ], [ -72.61084, -42.74166 ], [ -72.61029, -42.74156 ], [ -72.60954, -42.74077 ], [ -72.60852, -42.74059 ], [ -72.60798, -42.74097 ], [ -72.60786, -42.73955 ], [ -72.60735, -42.73818 ], [ -72.60663, -42.73735 ], [ -72.60639, -42.73576 ], [ -72.60656, -42.73431 ], [ -72.60631, -42.73318 ], [ -72.60542, -42.73074 ], [ -72.6056, -42.72417 ], [ -72.60598, -42.72135 ], [ -72.60653, -42.7136 ], [ -72.60913, -42.71375 ], [ -72.61517, -42.71362 ], [ -72.61876, -42.71298 ], [ -72.62103, -42.71344 ], [ -72.62458, -42.71314 ], [ -72.62614, -42.71324 ], [ -72.62761, -42.71367 ], [ -72.6288, -42.7134 ], [ -72.62988, -42.71372 ], [ -72.63083, -42.71361 ], [ -72.63178, -42.71328 ], [ -72.63452, -42.71345 ], [ -72.63542, -42.71395 ], [ -72.6372, -42.71318 ], [ -72.63992, -42.71274 ], [ -72.64063, -42.71237 ], [ -72.64228, -42.71219 ], [ -72.64404, -42.7122 ], [ -72.64633, -42.71294 ], [ -72.64715, -42.71296 ], [ -72.64779, -42.71325 ], [ -72.6492, -42.71351 ], [ -72.65001, -42.71296 ], [ -72.65008, -42.71255 ], [ -72.65103, -42.71133 ], [ -72.65281, -42.71014 ], [ -72.65701, -42.71046 ], [ -72.65943, -42.70969 ], [ -72.66041, -42.71011 ], [ -72.66432, -42.71061 ], [ -72.6652, -42.71097 ], [ -72.66501, -42.71157 ], [ -72.66536, -42.71184 ], [ -72.66598, -42.71199 ], [ -72.66616, -42.71254 ], [ -72.66658, -42.71311 ], [ -72.66792, -42.71308 ], [ -72.66894, -42.7128 ], [ -72.67069, -42.71321 ], [ -72.67243, -42.71234 ], [ -72.67482, -42.71214 ], [ -72.67603, -42.71176 ], [ -72.67746, -42.71048 ], [ -72.67832, -42.70995 ], [ -72.67811, -42.70956 ], [ -72.67996, -42.70958 ], [ -72.68073, -42.70891 ], [ -72.68102, -42.70797 ], [ -72.68327, -42.7052 ], [ -72.68366, -42.7043 ], [ -72.68701, -42.70434 ], [ -72.6876, -42.70363 ], [ -72.6881, -42.70355 ], [ -72.69194, -42.70411 ], [ -72.69439, -42.70402 ], [ -72.69694, -42.70448 ], [ -72.69925, -42.70429 ], [ -72.70082, -42.70491 ], [ -72.70207, -42.70485 ], [ -72.70256, -42.7052 ], [ -72.70408, -42.70578 ], [ -72.70704, -42.7077 ], [ -72.70864, -42.70845 ], [ -72.71022, -42.70819 ], [ -72.71072, -42.70793 ], [ -72.71214, -42.70883 ], [ -72.71672, -42.70802 ], [ -72.71771, -42.70917 ], [ -72.71887, -42.70876 ], [ -72.72001, -42.70905 ], [ -72.72104, -42.70972 ], [ -72.72151, -42.71075 ], [ -72.72242, -42.71085 ], [ -72.72341, -42.71146 ], [ -72.72497, -42.71143 ], [ -72.72714, -42.7103 ], [ -72.72902, -42.71015 ], [ -72.73357, -42.71175 ], [ -72.73599, -42.71187 ], [ -72.73778, -42.71274 ], [ -72.74109, -42.71594 ], [ -72.74573, -42.7164 ], [ -72.74685, -42.71603 ], [ -72.7471, -42.71548 ], [ -72.74587, -42.71491 ], [ -72.74549, -42.71439 ], [ -72.74412, -42.71342 ], [ -72.74316, -42.71206 ], [ -72.74271, -42.71053 ], [ -72.74009, -42.70821 ], [ -72.74006, -42.70739 ], [ -72.73963, -42.70547 ], [ -72.73962, -42.70393 ], [ -72.73973, -42.70245 ], [ -72.7403, -42.69999 ], [ -72.7396, -42.69754 ], [ -72.73908, -42.69413 ], [ -72.73863, -42.69296 ], [ -72.738, -42.69248 ], [ -72.73833, -42.69091 ], [ -72.73798, -42.69024 ], [ -72.73792, -42.68929 ], [ -72.73828, -42.6866 ], [ -72.73798, -42.68538 ], [ -72.73625, -42.68389 ], [ -72.73649, -42.68303 ], [ -72.73615, -42.68144 ], [ -72.73506, -42.67975 ], [ -72.7322, -42.67718 ], [ -72.72984, -42.67622 ], [ -72.72701, -42.67567 ], [ -72.72331, -42.67445 ], [ -72.71738, -42.67211 ], [ -72.71578, -42.67126 ], [ -72.71492, -42.67047 ], [ -72.71401, -42.66907 ], [ -72.71367, -42.66808 ], [ -72.714, -42.66666 ], [ -72.71414, -42.66381 ], [ -72.71467, -42.65985 ], [ -72.71503, -42.65821 ], [ -72.71444, -42.65716 ], [ -72.71189, -42.65535 ], [ -72.70962, -42.65409 ], [ -72.70739, -42.65262 ], [ -72.70637, -42.65136 ], [ -72.70523, -42.64747 ], [ -72.70604, -42.64676 ], [ -72.70632, -42.64627 ], [ -72.70822, -42.64425 ], [ -72.70918, -42.64209 ], [ -72.70994, -42.64129 ], [ -72.71014, -42.64036 ], [ -72.71234, -42.63879 ], [ -72.7133, -42.63746 ], [ -72.71418, -42.63665 ], [ -72.71528, -42.63637 ], [ -72.71802, -42.63656 ], [ -72.71905, -42.63567 ], [ -72.72054, -42.63493 ], [ -72.72249, -42.63304 ], [ -72.7234, -42.63276 ], [ -72.72476, -42.63183 ], [ -72.72589, -42.63137 ], [ -72.72867, -42.63069 ], [ -72.73027, -42.63007 ], [ -72.73169, -42.62995 ], [ -72.73281, -42.62957 ], [ -72.73512, -42.63034 ], [ -72.73645, -42.63061 ], [ -72.73853, -42.63041 ], [ -72.73965, -42.6305 ], [ -72.74111, -42.63032 ], [ -72.74307, -42.62978 ], [ -72.74438, -42.62715 ], [ -72.74728, -42.62543 ], [ -72.74912, -42.62403 ], [ -72.75166, -42.62395 ], [ -72.75269, -42.62406 ], [ -72.75311, -42.62447 ], [ -72.75357, -42.62464 ], [ -72.75549, -42.62474 ], [ -72.75624, -42.62426 ], [ -72.75654, -42.62381 ], [ -72.75665, -42.62213 ], [ -72.75719, -42.62157 ], [ -72.75937, -42.62173 ], [ -72.76015, -42.6224 ], [ -72.76031, -42.62326 ], [ -72.76114, -42.62411 ], [ -72.76217, -42.62456 ], [ -72.76339, -42.62484 ], [ -72.76491, -42.62383 ], [ -72.76677, -42.6232 ], [ -72.77212, -42.6208 ], [ -72.77352, -42.62063 ], [ -72.77663, -42.62056 ], [ -72.77921, -42.62183 ], [ -72.78421, -42.62253 ], [ -72.79027, -42.62187 ], [ -72.79149, -42.62189 ], [ -72.7925, -42.62275 ], [ -72.79262, -42.62373 ], [ -72.79285, -42.62419 ], [ -72.7948, -42.62439 ], [ -72.79583, -42.62473 ], [ -72.79741, -42.62555 ], [ -72.79912, -42.62715 ], [ -72.80111, -42.62733 ], [ -72.80417, -42.62688 ], [ -72.80481, -42.62649 ], [ -72.80554, -42.62569 ], [ -72.81018, -42.62567 ], [ -72.81063, -42.62436 ], [ -72.81154, -42.62339 ], [ -72.81966, -42.62404 ], [ -72.8246, -42.62399 ], [ -72.80242, -42.58009 ], [ -72.79728, -42.58023 ], [ -72.79598, -42.57883 ], [ -72.7961, -42.57762 ], [ -72.79388, -42.57591 ], [ -72.79114, -42.57438 ], [ -72.79155, -42.57373 ], [ -72.79001, -42.57262 ], [ -72.78988, -42.57159 ], [ -72.78941, -42.57083 ], [ -72.78741, -42.56934 ], [ -72.78668, -42.56843 ], [ -72.78576, -42.56776 ], [ -72.78463, -42.56655 ], [ -72.7845, -42.56614 ], [ -72.78523, -42.56355 ], [ -72.78599, -42.55903 ], [ -72.7881, -42.55243 ], [ -72.78552, -42.55041 ], [ -72.78517, -42.5477 ], [ -72.7844, -42.54643 ], [ -72.78217, -42.54393 ], [ -72.78209, -42.54353 ], [ -72.78291, -42.54101 ], [ -72.78399, -42.53997 ], [ -72.78492, -42.53817 ], [ -72.78557, -42.53303 ], [ -72.78076, -42.5334 ], [ -72.77429, -42.53048 ], [ -72.7757, -42.52853 ], [ -72.77528, -42.52727 ], [ -72.77674, -42.52528 ], [ -72.77705, -42.52273 ], [ -72.76491, -42.52482 ], [ -72.75186, -42.52972 ], [ -72.75144, -42.5338 ], [ -72.73595, -42.53363 ], [ -72.73623, -42.53332 ], [ -72.73606, -42.53253 ], [ -72.73519, -42.53199 ], [ -72.73133, -42.52778 ], [ -72.73088, -42.52666 ], [ -72.72154, -42.52764 ], [ -72.71877, -42.52694 ], [ -72.7174, -42.52707 ], [ -72.71555, -42.52656 ], [ -72.71494, -42.52395 ], [ -72.7119, -42.52239 ], [ -72.71091, -42.52255 ], [ -72.7096, -42.52455 ], [ -72.70962, -42.52501 ], [ -72.70902, -42.52557 ], [ -72.69443, -42.52665 ], [ -72.69326, -42.53006 ], [ -72.69117, -42.52947 ], [ -72.68983, -42.52811 ], [ -72.68785, -42.52738 ], [ -72.68759, -42.52721 ], [ -72.68749, -42.52684 ], [ -72.68391, -42.52615 ], [ -72.68296, -42.52647 ], [ -72.67941, -42.5271 ], [ -72.67819, -42.52684 ], [ -72.67774, -42.52566 ] ] ], [ [ [ -72.49868, -42.60521 ], [ -72.49651, -42.60703 ], [ -72.49571, -42.60741 ], [ -72.49648, -42.60805 ], [ -72.4971, -42.60832 ], [ -72.5002, -42.60825 ], [ -72.50112, -42.60854 ], [ -72.50258, -42.60936 ], [ -72.50555, -42.60986 ], [ -72.50518, -42.60785 ], [ -72.50542, -42.60738 ], [ -72.50651, -42.60633 ], [ -72.50636, -42.60518 ], [ -72.50674, -42.60397 ], [ -72.50554, -42.60277 ], [ -72.50557, -42.60132 ], [ -72.50628, -42.60047 ], [ -72.50694, -42.59926 ], [ -72.50801, -42.59855 ], [ -72.50897, -42.59744 ], [ -72.51085, -42.5962 ], [ -72.512, -42.59495 ], [ -72.51342, -42.59411 ], [ -72.51456, -42.59303 ], [ -72.51602, -42.59243 ], [ -72.51725, -42.59147 ], [ -72.51879, -42.59096 ], [ -72.52001, -42.59021 ], [ -72.52259, -42.58962 ], [ -72.52462, -42.58808 ], [ -72.52651, -42.58735 ], [ -72.52764, -42.58657 ], [ -72.52845, -42.58634 ], [ -72.52983, -42.58629 ], [ -72.53147, -42.58556 ], [ -72.53415, -42.5856 ], [ -72.53324, -42.58547 ], [ -72.53168, -42.58413 ], [ -72.53131, -42.58331 ], [ -72.52965, -42.5817 ], [ -72.52801, -42.58071 ], [ -72.5275, -42.58086 ], [ -72.52712, -42.58037 ], [ -72.52669, -42.58011 ], [ -72.52651, -42.58054 ], [ -72.52202, -42.58345 ], [ -72.50685, -42.59769 ], [ -72.50623, -42.59722 ], [ -72.50562, -42.59641 ], [ -72.50505, -42.59485 ], [ -72.50325, -42.59618 ], [ -72.5012, -42.59709 ], [ -72.49942, -42.59834 ], [ -72.49892, -42.599 ], [ -72.49847, -42.60031 ], [ -72.4986, -42.60199 ], [ -72.49914, -42.60288 ], [ -72.49927, -42.60356 ], [ -72.49868, -42.60521 ] ] ], [ [ [ -72.48735, -42.58003 ], [ -72.48739, -42.58004 ], [ -72.48749, -42.57994 ], [ -72.48735, -42.58003 ] ] ], [ [ [ -72.4912, -42.57518 ], [ -72.49223, -42.57465 ], [ -72.4926, -42.57383 ], [ -72.49145, -42.57484 ], [ -72.4912, -42.57518 ] ] ], [ [ [ -72.56328, -42.5755 ], [ -72.5612, -42.57715 ], [ -72.55533, -42.58011 ], [ -72.55332, -42.58181 ], [ -72.58948, -42.58833 ], [ -72.59046, -42.58868 ], [ -72.59109, -42.58928 ], [ -72.59179, -42.58671 ], [ -72.59306, -42.58008 ], [ -72.59461, -42.57463 ], [ -72.59558, -42.57309 ], [ -72.59627, -42.57263 ], [ -72.59652, -42.57205 ], [ -72.60066, -42.56708 ], [ -72.60259, -42.56536 ], [ -72.60336, -42.56427 ], [ -72.60385, -42.56139 ], [ -72.60394, -42.55956 ], [ -72.60387, -42.55936 ], [ -72.60345, -42.55961 ], [ -72.60264, -42.56063 ], [ -72.6015, -42.56017 ], [ -72.60006, -42.55996 ], [ -72.59928, -42.5596 ], [ -72.59819, -42.55874 ], [ -72.59807, -42.55627 ], [ -72.59735, -42.55549 ], [ -72.59703, -42.55584 ], [ -72.5967, -42.55533 ], [ -72.59408, -42.55343 ], [ -72.59305, -42.55319 ], [ -72.58995, -42.55329 ], [ -72.588, -42.55426 ], [ -72.58761, -42.55384 ], [ -72.5866, -42.55359 ], [ -72.58538, -42.55407 ], [ -72.58467, -42.55486 ], [ -72.58363, -42.55508 ], [ -72.58152, -42.55591 ], [ -72.58028, -42.55699 ], [ -72.57917, -42.55823 ], [ -72.57833, -42.55824 ], [ -72.57576, -42.55769 ], [ -72.57308, -42.55811 ], [ -72.57224, -42.55877 ], [ -72.57228, -42.55997 ], [ -72.57194, -42.56131 ], [ -72.57191, -42.56209 ], [ -72.57267, -42.56311 ], [ -72.57125, -42.56508 ], [ -72.57161, -42.56622 ], [ -72.5707, -42.56719 ], [ -72.57049, -42.56785 ], [ -72.57075, -42.56857 ], [ -72.57008, -42.5693 ], [ -72.56826, -42.56966 ], [ -72.56759, -42.57016 ], [ -72.56674, -42.57139 ], [ -72.56328, -42.5755 ] ] ], [ [ [ -72.49212, -42.56766 ], [ -72.49209, -42.56777 ], [ -72.49204, -42.56788 ], [ -72.4922, -42.56772 ], [ -72.49212, -42.56766 ] ] ], [ [ [ -72.49789, -42.54775 ], [ -72.49843, -42.54823 ], [ -72.49838, -42.5497 ], [ -72.49807, -42.55013 ], [ -72.49833, -42.55052 ], [ -72.49946, -42.55043 ], [ -72.50002, -42.55131 ], [ -72.50032, -42.55424 ], [ -72.50074, -42.55501 ], [ -72.50205, -42.56122 ], [ -72.50266, -42.56195 ], [ -72.50296, -42.56383 ], [ -72.50288, -42.56702 ], [ -72.5039, -42.56874 ], [ -72.50453, -42.57015 ], [ -72.50446, -42.57138 ], [ -72.50601, -42.57214 ], [ -72.50938, -42.57098 ], [ -72.50992, -42.5703 ], [ -72.51369, -42.56938 ], [ -72.51398, -42.56879 ], [ -72.51483, -42.56836 ], [ -72.51671, -42.56801 ], [ -72.51792, -42.56734 ], [ -72.5196, -42.56758 ], [ -72.52093, -42.56741 ], [ -72.52484, -42.56637 ], [ -72.52611, -42.5665 ], [ -72.52793, -42.56386 ], [ -72.52876, -42.56301 ], [ -72.52885, -42.56181 ], [ -72.52795, -42.56113 ], [ -72.52818, -42.56046 ], [ -72.52907, -42.55983 ], [ -72.5309, -42.55959 ], [ -72.53282, -42.55899 ], [ -72.53436, -42.5575 ], [ -72.53181, -42.55623 ], [ -72.52982, -42.55474 ], [ -72.52721, -42.55313 ], [ -72.52559, -42.55162 ], [ -72.52432, -42.54992 ], [ -72.5227, -42.54877 ], [ -72.5211, -42.54892 ], [ -72.52113, -42.54831 ], [ -72.52015, -42.54698 ], [ -72.51958, -42.54658 ], [ -72.51939, -42.54577 ], [ -72.52052, -42.54524 ], [ -72.52105, -42.54552 ], [ -72.52245, -42.54538 ], [ -72.5195, -42.54397 ], [ -72.50724, -42.53902 ], [ -72.50106, -42.53693 ], [ -72.4989, -42.53706 ], [ -72.49863, -42.53726 ], [ -72.49753, -42.53722 ], [ -72.49721, -42.5375 ], [ -72.49708, -42.53928 ], [ -72.4986, -42.5397 ], [ -72.49888, -42.53987 ], [ -72.49892, -42.54042 ], [ -72.49767, -42.54085 ], [ -72.49702, -42.54135 ], [ -72.49657, -42.54234 ], [ -72.49646, -42.54386 ], [ -72.49616, -42.5442 ], [ -72.49602, -42.54527 ], [ -72.49617, -42.54593 ], [ -72.49692, -42.54666 ], [ -72.49709, -42.54713 ], [ -72.49759, -42.54772 ], [ -72.49789, -42.54775 ] ] ], [ [ [ -72.45249, -42.4869 ], [ -72.44154, -42.48716 ], [ -72.44175, -42.48803 ], [ -72.44234, -42.48875 ], [ -72.44269, -42.49054 ], [ -72.44243, -42.49093 ], [ -72.44231, -42.49167 ], [ -72.44283, -42.49284 ], [ -72.44498, -42.49354 ], [ -72.44754, -42.49688 ], [ -72.44804, -42.49788 ], [ -72.44798, -42.49844 ], [ -72.44635, -42.49935 ], [ -72.44571, -42.50001 ], [ -72.44461, -42.50041 ], [ -72.44481, -42.5005 ], [ -72.4437, -42.50065 ], [ -72.44325, -42.50059 ], [ -72.44289, -42.50028 ], [ -72.44349, -42.50004 ], [ -72.44338, -42.49986 ], [ -72.44378, -42.4998 ], [ -72.44408, -42.49946 ], [ -72.4437, -42.49837 ], [ -72.44209, -42.49735 ], [ -72.44168, -42.49693 ], [ -72.44161, -42.49651 ], [ -72.44193, -42.49557 ], [ -72.44174, -42.4932 ], [ -72.44153, -42.4926 ], [ -72.44107, -42.49224 ], [ -72.44074, -42.49119 ], [ -72.44095, -42.49077 ], [ -72.44092, -42.49025 ], [ -72.43766, -42.48948 ], [ -72.43787, -42.48973 ], [ -72.43784, -42.49 ], [ -72.43976, -42.49188 ], [ -72.44134, -42.49781 ], [ -72.44194, -42.49875 ], [ -72.44285, -42.50076 ], [ -72.44338, -42.50135 ], [ -72.44538, -42.50187 ], [ -72.44861, -42.50388 ], [ -72.44928, -42.50543 ], [ -72.44923, -42.50639 ], [ -72.44949, -42.50849 ], [ -72.44992, -42.50908 ], [ -72.45198, -42.50997 ], [ -72.45892, -42.51188 ], [ -72.4615, -42.51215 ], [ -72.46252, -42.51253 ], [ -72.47408, -42.51837 ], [ -72.47529, -42.51914 ], [ -72.47854, -42.52223 ], [ -72.4799, -42.52331 ], [ -72.4806, -42.52362 ], [ -72.48371, -42.52407 ], [ -72.48707, -42.52507 ], [ -72.48986, -42.52657 ], [ -72.49393, -42.52391 ], [ -72.50382, -42.53688 ], [ -72.50779, -42.53822 ], [ -72.52011, -42.54319 ], [ -72.52497, -42.54549 ], [ -72.52525, -42.54535 ], [ -72.52612, -42.54533 ], [ -72.52753, -42.54567 ], [ -72.52892, -42.54534 ], [ -72.53054, -42.54552 ], [ -72.53353, -42.54534 ], [ -72.53706, -42.54606 ], [ -72.5428, -42.54689 ], [ -72.54933, -42.54615 ], [ -72.55148, -42.5449 ], [ -72.55569, -42.54189 ], [ -72.55801, -42.53974 ], [ -72.5603, -42.53861 ], [ -72.56244, -42.53797 ], [ -72.56533, -42.53637 ], [ -72.56965, -42.53484 ], [ -72.57512, -42.53382 ], [ -72.57602, -42.53344 ], [ -72.57683, -42.53388 ], [ -72.58294, -42.5341 ], [ -72.58503, -42.53377 ], [ -72.58853, -42.53233 ], [ -72.5895, -42.53254 ], [ -72.59154, -42.53218 ], [ -72.59258, -42.53215 ], [ -72.59274, -42.53142 ], [ -72.59351, -42.53073 ], [ -72.59714, -42.53038 ], [ -72.59973, -42.52873 ], [ -72.60185, -42.52672 ], [ -72.60435, -42.52568 ], [ -72.60494, -42.52458 ], [ -72.60583, -42.52467 ], [ -72.60722, -42.5243 ], [ -72.60766, -42.52316 ], [ -72.60861, -42.52198 ], [ -72.61022, -42.52114 ], [ -72.61189, -42.52091 ], [ -72.61374, -42.52008 ], [ -72.59891, -42.51481 ], [ -72.59845, -42.51529 ], [ -72.60459, -42.50605 ], [ -72.60649, -42.50554 ], [ -72.60775, -42.50598 ], [ -72.60805, -42.50623 ], [ -72.61098, -42.50695 ], [ -72.61334, -42.50646 ], [ -72.61453, -42.50652 ], [ -72.61505, -42.50701 ], [ -72.61564, -42.50722 ], [ -72.61607, -42.508 ], [ -72.61803, -42.50819 ], [ -72.61922, -42.50847 ], [ -72.62588, -42.50424 ], [ -72.63805, -42.49097 ], [ -72.66489, -42.47194 ], [ -72.67729, -42.45975 ], [ -72.68557, -42.44846 ], [ -72.69282, -42.43716 ], [ -72.69683, -42.42523 ], [ -72.69569, -42.42054 ], [ -72.69617, -42.41792 ], [ -72.69306, -42.41369 ], [ -72.69122, -42.41238 ], [ -72.68014, -42.41031 ], [ -72.67804, -42.41049 ], [ -72.67658, -42.40847 ], [ -72.67397, -42.40624 ], [ -72.67145, -42.4062 ], [ -72.67075, -42.40671 ], [ -72.668, -42.40693 ], [ -72.66714, -42.40757 ], [ -72.66675, -42.40835 ], [ -72.66357, -42.409 ], [ -72.6626, -42.40811 ], [ -72.65778, -42.40918 ], [ -72.6571, -42.40871 ], [ -72.65592, -42.40718 ], [ -72.6548, -42.40663 ], [ -72.65383, -42.40657 ], [ -72.65365, -42.40587 ], [ -72.65499, -42.40523 ], [ -72.65518, -42.40493 ], [ -72.65471, -42.40413 ], [ -72.65429, -42.40388 ], [ -72.65345, -42.40376 ], [ -72.65143, -42.40398 ], [ -72.65065, -42.40387 ], [ -72.56021, -42.50128 ], [ -72.45682, -42.46515 ], [ -72.4543, -42.46823 ], [ -72.45281, -42.46837 ], [ -72.45102, -42.4676 ], [ -72.44851, -42.46699 ], [ -72.44834, -42.46819 ], [ -72.44795, -42.46913 ], [ -72.44747, -42.4694 ], [ -72.44744, -42.46985 ], [ -72.44843, -42.47015 ], [ -72.44837, -42.4707 ], [ -72.44853, -42.47124 ], [ -72.44908, -42.47169 ], [ -72.45003, -42.47165 ], [ -72.45174, -42.47105 ], [ -72.45358, -42.47012 ], [ -72.45766, -42.47153 ], [ -72.45639, -42.47824 ], [ -72.45457, -42.48477 ], [ -72.45507, -42.48653 ], [ -72.45678, -42.48751 ], [ -72.45249, -42.4869 ] ] ], [ [ [ -72.46497, -42.31756 ], [ -72.46508, -42.31657 ], [ -72.46497, -42.3162 ], [ -72.46496, -42.31681 ], [ -72.46497, -42.31756 ] ] ], [ [ [ -72.46448, -42.31469 ], [ -72.46449, -42.3151 ], [ -72.46487, -42.31574 ], [ -72.46613, -42.31353 ], [ -72.46669, -42.31297 ], [ -72.46764, -42.31245 ], [ -72.46762, -42.31196 ], [ -72.46783, -42.31179 ], [ -72.46853, -42.31232 ], [ -72.46882, -42.31215 ], [ -72.46907, -42.31153 ], [ -72.46879, -42.31098 ], [ -72.46753, -42.31041 ], [ -72.46751, -42.30929 ], [ -72.46839, -42.308 ], [ -72.46889, -42.30763 ], [ -72.46912, -42.30625 ], [ -72.46999, -42.30539 ], [ -72.47031, -42.30426 ], [ -72.4702, -42.303 ], [ -72.46723, -42.30887 ], [ -72.46639, -42.31252 ], [ -72.46597, -42.3133 ], [ -72.46448, -42.31469 ] ] ], [ [ [ -72.46908, -42.29824 ], [ -72.46899, -42.29865 ], [ -72.46915, -42.29935 ], [ -72.46908, -42.29824 ] ] ], [ [ [ -72.46486, -42.29208 ], [ -72.46484, -42.29185 ], [ -72.4648, -42.29182 ], [ -72.46486, -42.29208 ] ] ], [ [ [ -72.46251, -42.28848 ], [ -72.46267, -42.28902 ], [ -72.46308, -42.28933 ], [ -72.46251, -42.28848 ] ] ], [ [ [ -72.46079, -42.20037 ], [ -72.46054, -42.19875 ], [ -72.46034, -42.19798 ], [ -72.46021, -42.19772 ], [ -72.46053, -42.19879 ], [ -72.46079, -42.20037 ] ] ], [ [ [ -72.435, -42.48809 ], [ -72.43459, -42.48673 ], [ -72.43472, -42.48771 ], [ -72.435, -42.48809 ] ] ], [ [ [ -72.41806, -42.44523 ], [ -72.4188, -42.44417 ], [ -72.41879, -42.44403 ], [ -72.41812, -42.44496 ], [ -72.41806, -42.44523 ] ] ], [ [ [ -72.41774, -42.4338 ], [ -72.41798, -42.43496 ], [ -72.41886, -42.43591 ], [ -72.41873, -42.43538 ], [ -72.4192, -42.43484 ], [ -72.41929, -42.43446 ], [ -72.41826, -42.43367 ], [ -72.41822, -42.43331 ], [ -72.41883, -42.43233 ], [ -72.41793, -42.43318 ], [ -72.41774, -42.4338 ] ] ], [ [ [ -72.4209, -42.42677 ], [ -72.42118, -42.42628 ], [ -72.42169, -42.42589 ], [ -72.42248, -42.42413 ], [ -72.42226, -42.42254 ], [ -72.42124, -42.42145 ], [ -72.42075, -42.42052 ], [ -72.42046, -42.42369 ], [ -72.4209, -42.42677 ] ] ], [ [ [ -72.45856, -42.20838 ], [ -72.45862, -42.20936 ], [ -72.45901, -42.21077 ], [ -72.45939, -42.21066 ], [ -72.45971, -42.21019 ], [ -72.45896, -42.2085 ], [ -72.45962, -42.20642 ], [ -72.45961, -42.20561 ], [ -72.45876, -42.2074 ], [ -72.45856, -42.20838 ] ] ], [ [ [ -72.4583, -42.19354 ], [ -72.45972, -42.19665 ], [ -72.45846, -42.1935 ], [ -72.4585, -42.192 ], [ -72.45824, -42.19103 ], [ -72.45774, -42.19039 ], [ -72.45834, -42.19153 ], [ -72.4583, -42.19354 ] ] ], [ [ [ -72.45665, -42.1888 ], [ -72.45586, -42.18748 ], [ -72.45609, -42.18841 ], [ -72.45665, -42.1888 ] ] ], [ [ [ -72.45569, -42.18715 ], [ -72.45573, -42.18673 ], [ -72.45528, -42.18592 ], [ -72.45384, -42.18475 ], [ -72.45239, -42.18324 ], [ -72.45558, -42.187 ], [ -72.45569, -42.18715 ] ] ], [ [ [ -72.45123, -42.17952 ], [ -72.45185, -42.17694 ], [ -72.45155, -42.17583 ], [ -72.4508, -42.17535 ], [ -72.45003, -42.17434 ], [ -72.45034, -42.17683 ], [ -72.45123, -42.17952 ] ] ], [ [ [ -72.44425, -42.16724 ], [ -72.44869, -42.1699 ], [ -72.4469, -42.16841 ], [ -72.44617, -42.16799 ], [ -72.44585, -42.16753 ], [ -72.44565, -42.16658 ], [ -72.44425, -42.16541 ], [ -72.44387, -42.1665 ], [ -72.44425, -42.16724 ] ] ], [ [ [ -72.44744, -42.16076 ], [ -72.44604, -42.16203 ], [ -72.44508, -42.16376 ], [ -72.44604, -42.1639 ], [ -72.44697, -42.16381 ], [ -72.45062, -42.16272 ], [ -72.45171, -42.16282 ], [ -72.45213, -42.1614 ], [ -72.45367, -42.15938 ], [ -72.45399, -42.15933 ], [ -72.45423, -42.15905 ], [ -72.45499, -42.15915 ], [ -72.45555, -42.15896 ], [ -72.45667, -42.15704 ], [ -72.4583, -42.15561 ], [ -72.45859, -42.1548 ], [ -72.45847, -42.15318 ], [ -72.458, -42.15231 ], [ -72.45834, -42.15336 ], [ -72.45839, -42.15432 ], [ -72.45794, -42.15528 ], [ -72.45572, -42.15792 ], [ -72.45493, -42.15843 ], [ -72.44891, -42.16004 ], [ -72.44744, -42.16076 ] ] ], [ [ [ -72.65864, -42.80653 ], [ -72.64465, -42.80049 ], [ -72.63814, -42.79929 ], [ -72.63699, -42.79869 ], [ -72.623, -42.78052 ], [ -72.62112, -42.77682 ], [ -72.61832, -42.77541 ], [ -72.61763, -42.77478 ], [ -72.61574, -42.77118 ], [ -72.60975, -42.76332 ], [ -72.60902, -42.76089 ], [ -72.60741, -42.75918 ], [ -72.60623, -42.75732 ], [ -72.60498, -42.75575 ], [ -72.60454, -42.75405 ], [ -72.60295, -42.75175 ], [ -72.6017, -42.7505 ], [ -72.60144, -42.74994 ], [ -72.60144, -42.74927 ], [ -72.60116, -42.74894 ], [ -72.60107, -42.74854 ], [ -72.60033, -42.74783 ], [ -72.59856, -42.74541 ], [ -72.59615, -42.74365 ], [ -72.59477, -42.74115 ], [ -72.59446, -42.74043 ], [ -72.59441, -42.73986 ], [ -72.59505, -42.73852 ], [ -72.59548, -42.73812 ], [ -72.59678, -42.73744 ], [ -72.59766, -42.73586 ], [ -72.59889, -42.73533 ], [ -72.59766, -42.73301 ], [ -72.59774, -42.72994 ], [ -72.59706, -42.72821 ], [ -72.59717, -42.72785 ], [ -72.59749, -42.72758 ], [ -72.59931, -42.72697 ], [ -72.59898, -42.72577 ], [ -72.59769, -42.7242 ], [ -72.59582, -42.72283 ], [ -72.59369, -42.72299 ], [ -72.59314, -42.7229 ], [ -72.59143, -42.72169 ], [ -72.59043, -42.7212 ], [ -72.58986, -42.72065 ], [ -72.58814, -42.72017 ], [ -72.58779, -42.71979 ], [ -72.58772, -42.71924 ], [ -72.58628, -42.71947 ], [ -72.58556, -42.7193 ], [ -72.58509, -42.71896 ], [ -72.5807, -42.71406 ], [ -72.57939, -42.7102 ], [ -72.57486, -42.7048 ], [ -72.57388, -42.70334 ], [ -72.57288, -42.70094 ], [ -72.57299, -42.69781 ], [ -72.57321, -42.69739 ], [ -72.57422, -42.69634 ], [ -72.57539, -42.69226 ], [ -72.57496, -42.68934 ], [ -72.57493, -42.68636 ], [ -72.57501, -42.68394 ], [ -72.57528, -42.68314 ], [ -72.5752, -42.68205 ], [ -72.57553, -42.68157 ], [ -72.57559, -42.68093 ], [ -72.57615, -42.68032 ], [ -72.57576, -42.67755 ], [ -72.57588, -42.67603 ], [ -72.57612, -42.67557 ], [ -72.57739, -42.67452 ], [ -72.5792, -42.67416 ], [ -72.57943, -42.66184 ], [ -72.57999, -42.66026 ], [ -72.57956, -42.65716 ], [ -72.57957, -42.647 ], [ -72.57945, -42.64579 ], [ -72.57918, -42.64493 ], [ -72.57916, -42.64317 ], [ -72.57963, -42.64101 ], [ -72.57999, -42.64009 ], [ -72.58796, -42.62771 ], [ -72.58859, -42.62596 ], [ -72.5889, -42.62412 ], [ -72.58913, -42.62364 ], [ -72.589, -42.62245 ], [ -72.58866, -42.62146 ], [ -72.5843, -42.61488 ], [ -72.58348, -42.61413 ], [ -72.58061, -42.61259 ], [ -72.57985, -42.6113 ], [ -72.5797, -42.61073 ], [ -72.58034, -42.6088 ], [ -72.58088, -42.60814 ], [ -72.58265, -42.60773 ], [ -72.58476, -42.60759 ], [ -72.58511, -42.60728 ], [ -72.5871, -42.60241 ], [ -72.59004, -42.59353 ], [ -72.59065, -42.59111 ], [ -72.58999, -42.58967 ], [ -72.58963, -42.58934 ], [ -72.58902, -42.58917 ], [ -72.55194, -42.58249 ], [ -72.55087, -42.58256 ], [ -72.54923, -42.58237 ], [ -72.54762, -42.58274 ], [ -72.54645, -42.5828 ], [ -72.54522, -42.58318 ], [ -72.54362, -42.58325 ], [ -72.54204, -42.58415 ], [ -72.5415, -42.58483 ], [ -72.54105, -42.58514 ], [ -72.53948, -42.58537 ], [ -72.53699, -42.58626 ], [ -72.53528, -42.58629 ], [ -72.53371, -42.58657 ], [ -72.53176, -42.58644 ], [ -72.5302, -42.58715 ], [ -72.52842, -42.58728 ], [ -72.52718, -42.58811 ], [ -72.5254, -42.58878 ], [ -72.52326, -42.59037 ], [ -72.52239, -42.59068 ], [ -72.52055, -42.59102 ], [ -72.51943, -42.59172 ], [ -72.51796, -42.59221 ], [ -72.51677, -42.59313 ], [ -72.51522, -42.5938 ], [ -72.51432, -42.59471 ], [ -72.51292, -42.59555 ], [ -72.51176, -42.5968 ], [ -72.50988, -42.59803 ], [ -72.50892, -42.59915 ], [ -72.50799, -42.59973 ], [ -72.50736, -42.60088 ], [ -72.50678, -42.60147 ], [ -72.5067, -42.6025 ], [ -72.50766, -42.60327 ], [ -72.50793, -42.60376 ], [ -72.50757, -42.60525 ], [ -72.50775, -42.60629 ], [ -72.50748, -42.60692 ], [ -72.50638, -42.60798 ], [ -72.50679, -42.60963 ], [ -72.50672, -42.61015 ], [ -72.5063, -42.61057 ], [ -72.50561, -42.61076 ], [ -72.50221, -42.61022 ], [ -72.49991, -42.60912 ], [ -72.49773, -42.6093 ], [ -72.4967, -42.60917 ], [ -72.49576, -42.60878 ], [ -72.49471, -42.60794 ], [ -72.49404, -42.6083 ], [ -72.4921, -42.60879 ], [ -72.46896, -42.59904 ], [ -72.4705, -42.59818 ], [ -72.47303, -42.5957 ], [ -72.47522, -42.59564 ], [ -72.47598, -42.59521 ], [ -72.47647, -42.59436 ], [ -72.47629, -42.59383 ], [ -72.47568, -42.59329 ], [ -72.47702, -42.59377 ], [ -72.47764, -42.5936 ], [ -72.4778, -42.59287 ], [ -72.47743, -42.59188 ], [ -72.47741, -42.59112 ], [ -72.47889, -42.58961 ], [ -72.48226, -42.58403 ], [ -72.48439, -42.58151 ], [ -72.48473, -42.58082 ], [ -72.48576, -42.58028 ], [ -72.48631, -42.57952 ], [ -72.48816, -42.57831 ], [ -72.48852, -42.57724 ], [ -72.49025, -42.57457 ], [ -72.49166, -42.57317 ], [ -72.49127, -42.57185 ], [ -72.49151, -42.57037 ], [ -72.49072, -42.56842 ], [ -72.49095, -42.56731 ], [ -72.49041, -42.56665 ], [ -72.49019, -42.56545 ], [ -72.48967, -42.5648 ], [ -72.4893, -42.56378 ], [ -72.48945, -42.55957 ], [ -72.47974, -42.56242 ], [ -72.47903, -42.55889 ], [ -72.47415, -42.54242 ], [ -72.47161, -42.5327 ], [ -72.48036, -42.52927 ], [ -72.48126, -42.52964 ], [ -72.48219, -42.53028 ], [ -72.48243, -42.53029 ], [ -72.48291, -42.52991 ], [ -72.48386, -42.52972 ], [ -72.48633, -42.53045 ], [ -72.48709, -42.53039 ], [ -72.48837, -42.52982 ], [ -72.48924, -42.52992 ], [ -72.48843, -42.52919 ], [ -72.48765, -42.52783 ], [ -72.48865, -42.52703 ], [ -72.48654, -42.52588 ], [ -72.48335, -42.52493 ], [ -72.48022, -42.52448 ], [ -72.47915, -42.52402 ], [ -72.47761, -42.52282 ], [ -72.47437, -42.51972 ], [ -72.47332, -42.51907 ], [ -72.46186, -42.51329 ], [ -72.46113, -42.51301 ], [ -72.45909, -42.51288 ], [ -72.45155, -42.51081 ], [ -72.44906, -42.50972 ], [ -72.44856, -42.50923 ], [ -72.4483, -42.50867 ], [ -72.44801, -42.50644 ], [ -72.44807, -42.50557 ], [ -72.44754, -42.50434 ], [ -72.44476, -42.50265 ], [ -72.4442, -42.50253 ], [ -72.4426, -42.50207 ], [ -72.44177, -42.50117 ], [ -72.4408, -42.49906 ], [ -72.44017, -42.49806 ], [ -72.43861, -42.4922 ], [ -72.43588, -42.48968 ], [ -72.43466, -42.48917 ], [ -72.43388, -42.48852 ], [ -72.43335, -42.48752 ], [ -72.43336, -42.48604 ], [ -72.43192, -42.4843 ], [ -72.42959, -42.48324 ], [ -72.42807, -42.48297 ], [ -72.42708, -42.48261 ], [ -72.42604, -42.48195 ], [ -72.42469, -42.48067 ], [ -72.42403, -42.48043 ], [ -72.42347, -42.48045 ], [ -72.41543, -42.48358 ], [ -72.40876, -42.48531 ], [ -72.40874, -42.48619 ], [ -72.407, -42.4863 ], [ -72.40564, -42.48673 ], [ -72.40434, -42.48741 ], [ -72.40263, -42.48783 ], [ -72.40074, -42.48897 ], [ -72.39728, -42.49073 ], [ -72.39571, -42.49125 ], [ -72.39321, -42.49164 ], [ -72.38622, -42.49422 ], [ -72.38467, -42.49503 ], [ -72.38164, -42.49477 ], [ -72.37379, -42.49211 ], [ -72.37389, -42.48957 ], [ -72.36623, -42.49076 ], [ -72.37138, -42.49266 ], [ -72.36775, -42.49578 ], [ -72.3624, -42.49704 ], [ -72.3563, -42.49588 ], [ -72.35055, -42.49418 ], [ -72.34705, -42.49677 ], [ -72.35019, -42.49756 ], [ -72.35084, -42.50266 ], [ -72.34147, -42.50271 ], [ -72.33391, -42.50212 ], [ -72.32512, -42.4999 ], [ -72.30873, -42.49267 ], [ -72.30276, -42.48895 ], [ -72.30059, -42.48857 ], [ -72.29797, -42.4884 ], [ -72.29651, -42.48872 ], [ -72.28569, -42.49301 ], [ -72.28136, -42.49266 ], [ -72.27651, -42.49468 ], [ -72.27446, -42.49509 ], [ -72.27157, -42.4953 ], [ -72.26289, -42.49823 ], [ -72.2597, -42.4986 ], [ -72.25555, -42.49996 ], [ -72.25361, -42.50125 ], [ -72.25358, -42.50349 ], [ -72.25585, -42.50696 ], [ -72.25765, -42.5144 ], [ -72.26066, -42.52343 ], [ -72.26296, -42.52623 ], [ -72.26393, -42.52821 ], [ -72.26544, -42.53004 ], [ -72.26914, -42.53215 ], [ -72.26988, -42.53429 ], [ -72.27086, -42.53605 ], [ -72.27225, -42.53709 ], [ -72.27334, -42.53997 ], [ -72.27448, -42.54162 ], [ -72.27773, -42.54181 ], [ -72.27967, -42.54231 ], [ -72.28036, -42.544 ], [ -72.28284, -42.54608 ], [ -72.28593, -42.54811 ], [ -72.28778, -42.54911 ], [ -72.29145, -42.5502 ], [ -72.29323, -42.55103 ], [ -72.2932, -42.55181 ], [ -72.29024, -42.55197 ], [ -72.28732, -42.55106 ], [ -72.28612, -42.55011 ], [ -72.28553, -42.55057 ], [ -72.28404, -42.55091 ], [ -72.28171, -42.55078 ], [ -72.28133, -42.55061 ], [ -72.27992, -42.54902 ], [ -72.27976, -42.54815 ], [ -72.28025, -42.54746 ], [ -72.28013, -42.54653 ], [ -72.27688, -42.5456 ], [ -72.27084, -42.54507 ], [ -72.26714, -42.54319 ], [ -72.26657, -42.54054 ], [ -72.26438, -42.53696 ], [ -72.25936, -42.53404 ], [ -72.25661, -42.53123 ], [ -72.25863, -42.52837 ], [ -72.25949, -42.52755 ], [ -72.25844, -42.52579 ], [ -72.25572, -42.5255 ], [ -72.25252, -42.52604 ], [ -72.25116, -42.52416 ], [ -72.2509, -42.5232 ], [ -72.25142, -42.52164 ], [ -72.25311, -42.52129 ], [ -72.2539, -42.52036 ], [ -72.25129, -42.51598 ], [ -72.25056, -42.51205 ], [ -72.25111, -42.50993 ], [ -72.252, -42.5085 ], [ -72.25383, -42.50826 ], [ -72.25403, -42.50709 ], [ -72.25098, -42.5059 ], [ -72.24964, -42.50374 ], [ -72.24896, -42.50198 ], [ -72.24943, -42.49981 ], [ -72.24922, -42.49773 ], [ -72.24883, -42.49616 ], [ -72.24889, -42.49487 ], [ -72.25144, -42.49538 ], [ -72.25719, -42.4954 ], [ -72.25802, -42.49554 ], [ -72.25905, -42.49612 ], [ -72.26027, -42.49604 ], [ -72.26256, -42.49385 ], [ -72.26364, -42.49164 ], [ -72.26344, -42.49102 ], [ -72.26586, -42.49085 ], [ -72.26788, -42.49146 ], [ -72.2705, -42.49376 ], [ -72.27161, -42.4944 ], [ -72.27381, -42.49423 ], [ -72.27546, -42.49298 ], [ -72.27835, -42.48729 ], [ -72.2796, -42.48679 ], [ -72.27933, -42.48684 ], [ -72.27674, -42.4842 ], [ -72.27803, -42.48341 ], [ -72.27865, -42.48211 ], [ -72.27908, -42.48069 ], [ -72.28133, -42.48011 ], [ -72.28236, -42.47931 ], [ -72.28521, -42.47952 ], [ -72.28683, -42.4789 ], [ -72.28884, -42.47947 ], [ -72.29235, -42.47892 ], [ -72.29303, -42.47776 ], [ -72.29252, -42.47569 ], [ -72.2914, -42.47415 ], [ -72.29055, -42.46984 ], [ -72.28983, -42.46883 ], [ -72.28781, -42.46695 ], [ -72.28455, -42.46525 ], [ -72.28365, -42.46403 ], [ -72.28135, -42.46426 ], [ -72.27977, -42.46535 ], [ -72.27692, -42.46521 ], [ -72.27541, -42.46449 ], [ -72.27603, -42.4643 ], [ -72.27663, -42.46361 ], [ -72.27754, -42.46205 ], [ -72.27923, -42.46008 ], [ -72.27946, -42.4591 ], [ -72.2797, -42.45899 ], [ -72.28131, -42.45635 ], [ -72.28402, -42.45316 ], [ -72.28413, -42.45274 ], [ -72.28522, -42.45418 ], [ -72.28511, -42.45458 ], [ -72.28547, -42.45624 ], [ -72.28515, -42.45666 ], [ -72.28516, -42.45707 ], [ -72.28568, -42.45835 ], [ -72.28623, -42.45895 ], [ -72.28757, -42.45949 ], [ -72.28836, -42.46016 ], [ -72.28958, -42.46049 ], [ -72.2916, -42.46044 ], [ -72.29372, -42.46077 ], [ -72.29436, -42.46104 ], [ -72.2952, -42.46101 ], [ -72.29654, -42.46014 ], [ -72.29564, -42.4599 ], [ -72.2947, -42.45991 ], [ -72.2948, -42.45931 ], [ -72.29376, -42.4585 ], [ -72.29406, -42.45789 ], [ -72.29398, -42.45748 ], [ -72.29351, -42.45681 ], [ -72.29572, -42.45446 ], [ -72.29598, -42.45401 ], [ -72.29575, -42.45351 ], [ -72.29453, -42.45261 ], [ -72.29281, -42.45195 ], [ -72.28869, -42.45 ], [ -72.28696, -42.44839 ], [ -72.28624, -42.44802 ], [ -72.28595, -42.44757 ], [ -72.28566, -42.44634 ], [ -72.28506, -42.44545 ], [ -72.28539, -42.44487 ], [ -72.28606, -42.44454 ], [ -72.28737, -42.44424 ], [ -72.28845, -42.44379 ], [ -72.28891, -42.44099 ], [ -72.28964, -42.44049 ], [ -72.29071, -42.44008 ], [ -72.29164, -42.439 ], [ -72.29194, -42.43814 ], [ -72.29322, -42.43638 ], [ -72.29415, -42.43651 ], [ -72.29423, -42.43562 ], [ -72.2958, -42.43475 ], [ -72.29802, -42.43426 ], [ -72.30245, -42.43382 ], [ -72.30427, -42.43413 ], [ -72.3056, -42.4339 ], [ -72.30702, -42.434 ], [ -72.30853, -42.43335 ], [ -72.3121, -42.43225 ], [ -72.31389, -42.43244 ], [ -72.31715, -42.43308 ], [ -72.31768, -42.43295 ], [ -72.31893, -42.43312 ], [ -72.32081, -42.43223 ], [ -72.32321, -42.43228 ], [ -72.3251, -42.43114 ], [ -72.33054, -42.42942 ], [ -72.33245, -42.42758 ], [ -72.33364, -42.42614 ], [ -72.33555, -42.42461 ], [ -72.33859, -42.4228 ], [ -72.34445, -42.42069 ], [ -72.3445, -42.41962 ], [ -72.34426, -42.41935 ], [ -72.34445, -42.41844 ], [ -72.34431, -42.41778 ], [ -72.34385, -42.41751 ], [ -72.34436, -42.41698 ], [ -72.34437, -42.41596 ], [ -72.34684, -42.41431 ], [ -72.3475, -42.41413 ], [ -72.34924, -42.41409 ], [ -72.35042, -42.41382 ], [ -72.3511, -42.41177 ], [ -72.3051, -42.41819 ], [ -72.25191, -42.39604 ], [ -72.22555, -42.39209 ], [ -72.19971, -42.39539 ], [ -72.17527, -42.3952 ], [ -72.12299, -42.38824 ], [ -72.12053, -42.39002 ], [ -72.11927, -42.39262 ], [ -72.11856, -42.39309 ], [ -72.11658, -42.3935 ], [ -72.11473, -42.39478 ], [ -72.11411, -42.39538 ], [ -72.11368, -42.39623 ], [ -72.11227, -42.39811 ], [ -72.10923, -42.39785 ], [ -72.10735, -42.3974 ], [ -72.10535, -42.39585 ], [ -72.10318, -42.39493 ], [ -72.09928, -42.39483 ], [ -72.09759, -42.39545 ], [ -72.09664, -42.396 ], [ -72.09545, -42.3958 ], [ -72.09426, -42.39516 ], [ -72.09274, -42.39461 ], [ -72.09138, -42.39455 ], [ -72.08991, -42.39526 ], [ -72.08903, -42.39552 ], [ -72.0885, -42.3955 ], [ -72.08803, -42.39507 ], [ -72.08508, -42.39343 ], [ -72.08455, -42.39288 ], [ -72.08374, -42.39188 ], [ -72.08296, -42.39031 ], [ -72.08089, -42.38757 ], [ -72.08075, -42.38688 ], [ -72.07951, -42.38434 ], [ -72.07794, -42.38362 ], [ -72.07677, -42.38265 ], [ -72.07587, -42.38279 ], [ -72.07413, -42.38355 ], [ -72.07273, -42.38503 ], [ -72.07104, -42.38826 ], [ -72.06956, -42.3895 ], [ -72.06911, -42.3905 ], [ -72.0669, -42.39221 ], [ -72.06342, -42.39424 ], [ -72.05825, -42.39611 ], [ -72.05743, -42.39635 ], [ -72.05595, -42.39647 ], [ -72.05403, -42.3975 ], [ -72.05345, -42.39745 ], [ -72.05181, -42.39778 ], [ -72.048, -42.39726 ], [ -72.04555, -42.39769 ], [ -72.04455, -42.39802 ], [ -72.04315, -42.39909 ], [ -72.0401, -42.39931 ], [ -72.03872, -42.39988 ], [ -72.0368, -42.40112 ], [ -72.03513, -42.40273 ], [ -72.03358, -42.40397 ], [ -72.03311, -42.40457 ], [ -72.03162, -42.40572 ], [ -72.02891, -42.40688 ], [ -72.02782, -42.40783 ], [ -72.0273, -42.40873 ], [ -72.0271, -42.40991 ], [ -72.02726, -42.41298 ], [ -72.02952, -42.41338 ], [ -72.02995, -42.41376 ], [ -72.03206, -42.41483 ], [ -72.03287, -42.41504 ], [ -72.03351, -42.41544 ], [ -72.03406, -42.41608 ], [ -72.03453, -42.41771 ], [ -72.03437, -42.4185 ], [ -72.03449, -42.41952 ], [ -72.0348, -42.42092 ], [ -72.03537, -42.42145 ], [ -72.03561, -42.42223 ], [ -72.03549, -42.42307 ], [ -72.03601, -42.42471 ], [ -72.03601, -42.42542 ], [ -72.03546, -42.42583 ], [ -72.03415, -42.42735 ], [ -72.0332, -42.42925 ], [ -72.03211, -42.43051 ], [ -72.03254, -42.43144 ], [ -72.0333, -42.43212 ], [ -72.03408, -42.43257 ], [ -72.03473, -42.43359 ], [ -72.0367, -42.43586 ], [ -72.0372, -42.43748 ], [ -72.03729, -42.43833 ], [ -72.03813, -42.43996 ], [ -72.03915, -42.44356 ], [ -72.03982, -42.44416 ], [ -72.04058, -42.44456 ], [ -72.04182, -42.4448 ], [ -72.04365, -42.44592 ], [ -72.04419, -42.44658 ], [ -72.046, -42.44819 ], [ -72.04679, -42.44907 ], [ -72.0471, -42.44992 ], [ -72.0475, -42.45209 ], [ -72.04729, -42.45266 ], [ -72.0465, -42.45285 ], [ -72.04291, -42.45304 ], [ -72.03749, -42.4554 ], [ -72.03615, -42.45614 ], [ -72.03522, -42.45631 ], [ -72.03372, -42.45707 ], [ -72.03282, -42.45947 ], [ -72.03263, -42.46064 ], [ -72.03308, -42.46338 ], [ -72.03242, -42.46485 ], [ -72.0326, -42.46597 ], [ -72.03172, -42.46754 ], [ -72.03047, -42.46845 ], [ -72.02953, -42.4689 ], [ -72.02813, -42.47054 ], [ -72.0271, -42.47133 ], [ -72.02473, -42.47457 ], [ -72.02376, -42.475 ], [ -72.01983, -42.47761 ], [ -72.01923, -42.47833 ], [ -72.01952, -42.47916 ], [ -72.01816, -42.48064 ], [ -72.01776, -42.48137 ], [ -72.01705, -42.4819 ], [ -72.01464, -42.48254 ], [ -72.0144, -42.483 ], [ -72.01429, -42.48459 ], [ -72.01412, -42.48499 ], [ -72.01357, -42.48544 ], [ -72.01288, -42.48668 ], [ -72.01167, -42.48789 ], [ -72.01198, -42.48992 ], [ -72.01243, -42.49099 ], [ -72.01203, -42.49287 ], [ -72.01198, -42.49408 ], [ -72.01257, -42.49572 ], [ -72.01531, -42.49877 ], [ -72.01625, -42.49866 ], [ -72.01856, -42.49899 ], [ -72.02001, -42.49901 ], [ -72.02346, -42.50001 ], [ -72.02555, -42.50137 ], [ -72.02603, -42.50189 ], [ -72.02643, -42.50258 ], [ -72.02641, -42.50327 ], [ -72.02668, -42.50391 ], [ -72.0288, -42.50495 ], [ -72.02904, -42.50574 ], [ -72.02856, -42.50707 ], [ -72.02758, -42.50865 ], [ -72.02758, -42.50939 ], [ -72.02822, -42.51072 ], [ -72.02831, -42.51196 ], [ -72.02927, -42.51379 ], [ -72.02919, -42.51641 ], [ -72.02946, -42.51705 ], [ -72.02651, -42.52052 ], [ -72.02686, -42.5216 ], [ -72.02774, -42.52209 ], [ -72.02936, -42.52214 ], [ -72.03104, -42.52282 ], [ -72.03304, -42.52385 ], [ -72.0349, -42.52509 ], [ -72.03564, -42.52671 ], [ -72.03657, -42.52792 ], [ -72.03676, -42.52878 ], [ -72.03743, -42.53021 ], [ -72.03895, -42.53273 ], [ -72.03964, -42.53328 ], [ -72.04204, -42.53463 ], [ -72.04302, -42.53654 ], [ -72.04304, -42.53749 ], [ -72.04383, -42.53863 ], [ -72.04621, -42.53994 ], [ -72.04794, -42.54046 ], [ -72.05149, -42.54289 ], [ -72.05232, -42.54327 ], [ -72.05396, -42.54472 ], [ -72.05432, -42.54551 ], [ -72.05464, -42.55002 ], [ -72.05406, -42.55155 ], [ -72.05308, -42.55289 ], [ -72.05316, -42.55438 ], [ -72.05332, -42.55498 ], [ -72.05577, -42.55662 ], [ -72.05606, -42.55724 ], [ -72.05594, -42.55788 ], [ -72.0553, -42.55845 ], [ -72.05492, -42.55969 ], [ -72.05358, -42.5615 ], [ -72.05323, -42.56169 ], [ -72.05289, -42.56255 ], [ -72.0524, -42.56318 ], [ -72.05188, -42.56358 ], [ -72.05187, -42.56464 ], [ -72.05208, -42.56493 ], [ -72.05396, -42.56552 ], [ -72.05408, -42.56595 ], [ -72.05454, -42.56652 ], [ -72.05463, -42.56702 ], [ -72.05632, -42.56852 ], [ -72.05713, -42.56992 ], [ -72.06121, -42.57139 ], [ -72.06245, -42.57206 ], [ -72.06465, -42.57242 ], [ -72.0659, -42.57213 ], [ -72.06679, -42.57114 ], [ -72.06777, -42.57035 ], [ -72.06949, -42.56789 ], [ -72.07206, -42.56637 ], [ -72.07345, -42.56578 ], [ -72.07486, -42.56564 ], [ -72.07633, -42.56647 ], [ -72.07812, -42.56852 ], [ -72.07957, -42.56937 ], [ -72.07981, -42.56985 ], [ -72.07995, -42.57097 ], [ -72.08096, -42.57241 ], [ -72.08326, -42.5747 ], [ -72.08604, -42.57694 ], [ -72.0868, -42.57777 ], [ -72.08704, -42.57837 ], [ -72.08911, -42.57989 ], [ -72.09066, -42.58049 ], [ -72.09161, -42.58063 ], [ -72.09255, -42.58153 ], [ -72.09319, -42.58234 ], [ -72.0933, -42.58444 ], [ -72.09374, -42.58519 ], [ -72.09534, -42.58634 ], [ -72.09711, -42.58793 ], [ -72.09719, -42.58931 ], [ -72.09645, -42.59088 ], [ -72.09645, -42.59161 ], [ -72.097, -42.59259 ], [ -72.09949, -42.59399 ], [ -72.10026, -42.59418 ], [ -72.1009, -42.59476 ], [ -72.10164, -42.59595 ], [ -72.10198, -42.59705 ], [ -72.10398, -42.60002 ], [ -72.10488, -42.60064 ], [ -72.10653, -42.60114 ], [ -72.10914, -42.60138 ], [ -72.11381, -42.60216 ], [ -72.11597, -42.60188 ], [ -72.117, -42.60212 ], [ -72.11746, -42.6029 ], [ -72.11743, -42.60345 ], [ -72.11585, -42.60588 ], [ -72.11452, -42.60856 ], [ -72.11438, -42.61097 ], [ -72.11455, -42.61182 ], [ -72.11495, -42.61266 ], [ -72.11343, -42.61516 ], [ -72.11331, -42.61616 ], [ -72.11367, -42.61692 ], [ -72.11413, -42.61715 ], [ -72.1146, -42.61769 ], [ -72.11449, -42.61809 ], [ -72.11469, -42.61918 ], [ -72.11521, -42.62008 ], [ -72.11519, -42.62306 ], [ -72.11562, -42.62484 ], [ -72.11723, -42.62629 ], [ -72.11795, -42.62865 ], [ -72.11717, -42.62935 ], [ -72.11643, -42.62943 ], [ -72.11452, -42.63048 ], [ -72.11369, -42.63062 ], [ -72.11319, -42.63027 ], [ -72.10901, -42.62997 ], [ -72.10647, -42.62935 ], [ -72.10428, -42.62973 ], [ -72.10329, -42.63034 ], [ -72.10229, -42.6316 ], [ -72.10165, -42.63305 ], [ -72.10048, -42.63369 ], [ -72.10017, -42.63457 ], [ -72.10015, -42.63609 ], [ -72.09998, -42.63726 ], [ -72.09977, -42.63774 ], [ -72.09879, -42.63769 ], [ -72.09815, -42.6379 ], [ -72.09751, -42.63845 ], [ -72.09737, -42.63886 ], [ -72.09768, -42.63945 ], [ -72.09739, -42.64024 ], [ -72.09627, -42.64093 ], [ -72.09625, -42.6415 ], [ -72.09754, -42.64242 ], [ -72.09867, -42.64261 ], [ -72.09944, -42.64295 ], [ -72.1005, -42.64374 ], [ -72.1012, -42.6448 ], [ -72.10185, -42.64632 ], [ -72.10275, -42.64721 ], [ -72.10693, -42.64809 ], [ -72.10788, -42.64859 ], [ -72.10873, -42.64936 ], [ -72.10976, -42.65128 ], [ -72.10917, -42.6522 ], [ -72.10955, -42.65325 ], [ -72.1101, -42.65396 ], [ -72.11236, -42.65485 ], [ -72.11324, -42.65663 ], [ -72.11395, -42.65751 ], [ -72.11485, -42.65796 ], [ -72.11553, -42.6581 ], [ -72.11702, -42.65891 ], [ -72.1175, -42.65944 ], [ -72.11878, -42.66037 ], [ -72.11933, -42.66265 ], [ -72.11978, -42.66348 ], [ -72.12095, -42.66427 ], [ -72.12107, -42.66496 ], [ -72.12161, -42.6663 ], [ -72.12186, -42.66953 ], [ -72.12266, -42.67244 ], [ -72.12335, -42.67285 ], [ -72.12514, -42.67278 ], [ -72.12568, -42.67263 ], [ -72.12699, -42.6718 ], [ -72.12899, -42.67178 ], [ -72.1306, -42.67204 ], [ -72.13139, -42.67261 ], [ -72.13201, -42.67349 ], [ -72.13353, -42.67471 ], [ -72.13491, -42.67628 ], [ -72.13527, -42.67715 ], [ -72.13531, -42.67968 ], [ -72.13609, -42.68025 ], [ -72.1399, -42.67999 ], [ -72.14267, -42.6811 ], [ -72.14864, -42.68127 ], [ -72.14986, -42.68122 ], [ -72.15114, -42.68053 ], [ -72.15269, -42.67951 ], [ -72.15326, -42.6793 ], [ -72.15554, -42.67754 ], [ -72.15835, -42.67794 ], [ -72.16085, -42.67777 ], [ -72.16487, -42.67658 ], [ -72.16578, -42.67611 ], [ -72.16618, -42.67504 ], [ -72.16699, -42.67418 ], [ -72.16913, -42.6727 ], [ -72.17008, -42.67171 ], [ -72.17146, -42.67149 ], [ -72.17268, -42.6719 ], [ -72.17346, -42.6728 ], [ -72.17387, -42.67394 ], [ -72.17375, -42.67554 ], [ -72.17406, -42.67692 ], [ -72.17415, -42.67958 ], [ -72.17402, -42.68142 ], [ -72.1751, -42.68375 ], [ -72.17736, -42.68705 ], [ -72.17855, -42.6885 ], [ -72.17886, -42.68955 ], [ -72.17872, -42.69015 ], [ -72.17767, -42.69105 ], [ -72.17665, -42.69248 ], [ -72.17665, -42.69331 ], [ -72.17872, -42.69495 ], [ -72.17938, -42.69689 ], [ -72.17796, -42.69781 ], [ -72.17634, -42.69831 ], [ -72.17491, -42.69943 ], [ -72.17465, -42.70031 ], [ -72.17349, -42.70154 ], [ -72.17105, -42.70148 ], [ -72.17048, -42.70172 ], [ -72.16972, -42.70226 ], [ -72.16924, -42.70307 ], [ -72.16773, -42.70423 ], [ -72.16497, -42.70442 ], [ -72.16337, -42.70473 ], [ -72.16239, -42.70448 ], [ -72.15983, -42.70438 ], [ -72.15943, -42.70452 ], [ -72.1795, -42.71888 ], [ -72.22641, -42.74635 ], [ -72.27678, -42.77027 ], [ -72.33012, -42.79042 ], [ -72.38593, -42.8066 ], [ -72.44364, -42.81864 ], [ -72.5027, -42.82642 ], [ -72.56251, -42.82988 ], [ -72.62251, -42.82897 ], [ -72.68208, -42.82371 ], [ -72.70594, -42.81982 ], [ -72.69258, -42.81487 ], [ -72.65864, -42.80653 ] ], [ [ -72.30777, -42.7368 ], [ -72.30786, -42.73713 ], [ -72.3074, -42.73762 ], [ -72.30751, -42.73778 ], [ -72.3083, -42.73778 ], [ -72.30919, -42.73825 ], [ -72.31046, -42.73812 ], [ -72.31077, -42.73842 ], [ -72.31072, -42.73895 ], [ -72.31012, -42.73939 ], [ -72.31027, -42.73938 ], [ -72.30972, -42.74011 ], [ -72.31003, -42.74067 ], [ -72.31083, -42.74048 ], [ -72.31242, -42.74057 ], [ -72.31345, -42.74025 ], [ -72.31231, -42.73985 ], [ -72.31195, -42.73882 ], [ -72.31223, -42.73835 ], [ -72.31286, -42.73794 ], [ -72.31204, -42.73752 ], [ -72.31187, -42.73647 ], [ -72.31207, -42.73602 ], [ -72.31339, -42.73493 ], [ -72.31274, -42.73489 ], [ -72.31268, -42.73444 ], [ -72.31327, -42.73341 ], [ -72.31384, -42.73289 ], [ -72.31575, -42.73229 ], [ -72.31657, -42.73175 ], [ -72.31795, -42.73165 ], [ -72.31789, -42.73138 ], [ -72.31643, -42.73079 ], [ -72.31623, -42.73035 ], [ -72.31673, -42.72959 ], [ -72.31759, -42.72913 ], [ -72.31892, -42.72924 ], [ -72.31897, -42.729 ], [ -72.31953, -42.72853 ], [ -72.32081, -42.72902 ], [ -72.32192, -42.72862 ], [ -72.32296, -42.72888 ], [ -72.3237, -42.72842 ], [ -72.32518, -42.72841 ], [ -72.32624, -42.72752 ], [ -72.32625, -42.72733 ], [ -72.3255, -42.72694 ], [ -72.32552, -42.72662 ], [ -72.32602, -42.72591 ], [ -72.32552, -42.7256 ], [ -72.32571, -42.72451 ], [ -72.32543, -42.72445 ], [ -72.32506, -42.72463 ], [ -72.32496, -42.72442 ], [ -72.32624, -42.72335 ], [ -72.32711, -42.7223 ], [ -72.32786, -42.72179 ], [ -72.32944, -42.72146 ], [ -72.33042, -42.71955 ], [ -72.3304, -42.71915 ], [ -72.32975, -42.71833 ], [ -72.32833, -42.71747 ], [ -72.32728, -42.71569 ], [ -72.3273, -42.71516 ], [ -72.32787, -42.71443 ], [ -72.32787, -42.71396 ], [ -72.32743, -42.71372 ], [ -72.32702, -42.7132 ], [ -72.327, -42.71269 ], [ -72.32731, -42.71204 ], [ -72.32773, -42.71199 ], [ -72.32812, -42.71231 ], [ -72.32893, -42.71241 ], [ -72.33177, -42.7221 ], [ -72.33164, -42.73118 ], [ -72.33184, -42.73388 ], [ -72.3301, -42.73437 ], [ -72.32493, -42.73472 ], [ -72.32053, -42.73661 ], [ -72.31838, -42.73875 ], [ -72.31631, -42.74032 ], [ -72.31419, -42.74165 ], [ -72.31015, -42.74257 ], [ -72.30022, -42.74414 ], [ -72.28824, -42.74838 ], [ -72.28776, -42.74871 ], [ -72.28732, -42.74707 ], [ -72.28631, -42.74579 ], [ -72.28616, -42.74524 ], [ -72.28777, -42.74441 ], [ -72.28973, -42.74389 ], [ -72.29075, -42.74341 ], [ -72.29187, -42.74263 ], [ -72.29359, -42.74087 ], [ -72.29568, -42.73928 ], [ -72.29673, -42.73884 ], [ -72.29826, -42.73882 ], [ -72.29905, -42.73855 ], [ -72.30144, -42.73719 ], [ -72.3028, -42.73696 ], [ -72.30449, -42.7363 ], [ -72.30496, -42.73556 ], [ -72.30495, -42.735 ], [ -72.30455, -42.73483 ], [ -72.3046, -42.73457 ], [ -72.3048, -42.73425 ], [ -72.30549, -42.73421 ], [ -72.3057, -42.73344 ], [ -72.30596, -42.73334 ], [ -72.30727, -42.73401 ], [ -72.30796, -42.73408 ], [ -72.30812, -42.73449 ], [ -72.30764, -42.73544 ], [ -72.30809, -42.73593 ], [ -72.30811, -42.73638 ], [ -72.30777, -42.7368 ] ] ], [ [ [ -72.32562, -42.72685 ], [ -72.32564, -42.72686 ], [ -72.32561, -42.72679 ], [ -72.32562, -42.72685 ] ] ], [ [ [ -72.42217, -42.4799 ], [ -72.4186, -42.48074 ], [ -72.41605, -42.4817 ], [ -72.41495, -42.48178 ], [ -72.41278, -42.48229 ], [ -72.40999, -42.48369 ], [ -72.40932, -42.48421 ], [ -72.41546, -42.48255 ], [ -72.42217, -42.4799 ] ] ], [ [ [ -72.40902, -42.46452 ], [ -72.41046, -42.46399 ], [ -72.41081, -42.46376 ], [ -72.41088, -42.46349 ], [ -72.4117, -42.46305 ], [ -72.40509, -42.46453 ], [ -72.4025, -42.46535 ], [ -72.39956, -42.46678 ], [ -72.39693, -42.46874 ], [ -72.39725, -42.46909 ], [ -72.39778, -42.46896 ], [ -72.39852, -42.46863 ], [ -72.39971, -42.46779 ], [ -72.40082, -42.46735 ], [ -72.40141, -42.46731 ], [ -72.40172, -42.46699 ], [ -72.40348, -42.46663 ], [ -72.40595, -42.46648 ], [ -72.40712, -42.46574 ], [ -72.40768, -42.46559 ], [ -72.40902, -42.46452 ] ] ], [ [ [ -72.41406, -42.45775 ], [ -72.41428, -42.457 ], [ -72.41494, -42.4564 ], [ -72.41501, -42.45602 ], [ -72.41413, -42.45708 ], [ -72.41406, -42.45775 ] ] ], [ [ [ -72.41515, -42.4535 ], [ -72.4151, -42.4538 ], [ -72.41523, -42.45413 ], [ -72.41515, -42.4535 ] ] ], [ [ [ -72.41506, -42.4527 ], [ -72.41539, -42.4522 ], [ -72.41599, -42.45198 ], [ -72.4163, -42.45161 ], [ -72.41624, -42.45081 ], [ -72.41651, -42.44976 ], [ -72.416, -42.44852 ], [ -72.41688, -42.44799 ], [ -72.41761, -42.44634 ], [ -72.41584, -42.44809 ], [ -72.41506, -42.4527 ] ] ], [ [ [ -72.35348, -42.43724 ], [ -72.35346, -42.4387 ], [ -72.35408, -42.4404 ], [ -72.35528, -42.44177 ], [ -72.35518, -42.44262 ], [ -72.35537, -42.44308 ], [ -72.35603, -42.44358 ], [ -72.35593, -42.44401 ], [ -72.35407, -42.44598 ], [ -72.35317, -42.44623 ], [ -72.35235, -42.4472 ], [ -72.35129, -42.44806 ], [ -72.35113, -42.44851 ], [ -72.35155, -42.44909 ], [ -72.35156, -42.4502 ], [ -72.35199, -42.45128 ], [ -72.35185, -42.45192 ], [ -72.35075, -42.45286 ], [ -72.35031, -42.45355 ], [ -72.3499, -42.45387 ], [ -72.34886, -42.45415 ], [ -72.34662, -42.45532 ], [ -72.34558, -42.45558 ], [ -72.3451, -42.45593 ], [ -72.34237, -42.46102 ], [ -72.34132, -42.46225 ], [ -72.34056, -42.46257 ], [ -72.34028, -42.46398 ], [ -72.33946, -42.46488 ], [ -72.33823, -42.4671 ], [ -72.33706, -42.46767 ], [ -72.33633, -42.46856 ], [ -72.33635, -42.46942 ], [ -72.33585, -42.47011 ], [ -72.33547, -42.47171 ], [ -72.33536, -42.47302 ], [ -72.33632, -42.47538 ], [ -72.33752, -42.47564 ], [ -72.33825, -42.47769 ], [ -72.34198, -42.47704 ], [ -72.34404, -42.47691 ], [ -72.34555, -42.47714 ], [ -72.35081, -42.47744 ], [ -72.35549, -42.47708 ], [ -72.36699, -42.47562 ], [ -72.37486, -42.47689 ], [ -72.38018, -42.47535 ], [ -72.38519, -42.47409 ], [ -72.388, -42.47266 ], [ -72.3889, -42.47199 ], [ -72.38996, -42.47166 ], [ -72.39359, -42.46981 ], [ -72.39393, -42.46946 ], [ -72.39533, -42.46869 ], [ -72.3983, -42.46635 ], [ -72.40159, -42.46465 ], [ -72.40432, -42.46374 ], [ -72.4114, -42.4621 ], [ -72.41163, -42.46185 ], [ -72.41204, -42.4604 ], [ -72.41273, -42.45878 ], [ -72.41291, -42.45686 ], [ -72.41427, -42.45508 ], [ -72.41386, -42.45398 ], [ -72.41381, -42.45264 ], [ -72.41461, -42.4479 ], [ -72.4167, -42.44568 ], [ -72.41697, -42.44458 ], [ -72.41765, -42.44365 ], [ -72.41748, -42.44281 ], [ -72.41617, -42.44075 ], [ -72.416, -42.43953 ], [ -72.41631, -42.4385 ], [ -72.41768, -42.43642 ], [ -72.41756, -42.43603 ], [ -72.4168, -42.43527 ], [ -72.4165, -42.43397 ], [ -72.41655, -42.43328 ], [ -72.4169, -42.43264 ], [ -72.41832, -42.4312 ], [ -72.41834, -42.42934 ], [ -72.41969, -42.42739 ], [ -72.41921, -42.42363 ], [ -72.41952, -42.42034 ], [ -72.41878, -42.41953 ], [ -72.4186, -42.41902 ], [ -72.41427, -42.41953 ], [ -72.41336, -42.41926 ], [ -72.41133, -42.41916 ], [ -72.41037, -42.41884 ], [ -72.35295, -42.41163 ], [ -72.35112, -42.41168 ], [ -72.35241, -42.41773 ], [ -72.35483, -42.42289 ], [ -72.35697, -42.42908 ], [ -72.35529, -42.43059 ], [ -72.35537, -42.43134 ], [ -72.35577, -42.43229 ], [ -72.35572, -42.43348 ], [ -72.35489, -42.43417 ], [ -72.35473, -42.43461 ], [ -72.35412, -42.43514 ], [ -72.35393, -42.43645 ], [ -72.35348, -42.43724 ] ] ], [ [ [ -72.41727, -42.44011 ], [ -72.41748, -42.44072 ], [ -72.41779, -42.44015 ], [ -72.41808, -42.44001 ], [ -72.4183, -42.43915 ], [ -72.41825, -42.43798 ], [ -72.41842, -42.43747 ], [ -72.41729, -42.43935 ], [ -72.41727, -42.44011 ] ] ], [ [ [ -72.3511, -42.41168 ], [ -72.3511, -42.41171 ], [ -72.35112, -42.41168 ], [ -72.3511, -42.41168 ] ] ], [ [ [ -72.40228, -42.17479 ], [ -72.40132, -42.1747 ], [ -72.39916, -42.17409 ], [ -72.39871, -42.17333 ], [ -72.39939, -42.17191 ], [ -72.39865, -42.17072 ], [ -72.39786, -42.17035 ], [ -72.39586, -42.17052 ], [ -72.39497, -42.17091 ], [ -72.39345, -42.17193 ], [ -72.38949, -42.17163 ], [ -72.3883, -42.17175 ], [ -72.38644, -42.17322 ], [ -72.3858, -42.1733 ], [ -72.3829, -42.17301 ], [ -72.37726, -42.17508 ], [ -72.37523, -42.17615 ], [ -72.37405, -42.17644 ], [ -72.37143, -42.17604 ], [ -72.36857, -42.17619 ], [ -72.36703, -42.17409 ], [ -72.36559, -42.17276 ], [ -72.36464, -42.17125 ], [ -72.36507, -42.17069 ], [ -72.36493, -42.1674 ], [ -72.3633, -42.16741 ], [ -72.36258, -42.16722 ], [ -72.36078, -42.1676 ], [ -72.35929, -42.16768 ], [ -72.35647, -42.16909 ], [ -72.35464, -42.16979 ], [ -72.35165, -42.17059 ], [ -72.34879, -42.1711 ], [ -72.34794, -42.17074 ], [ -72.34767, -42.16883 ], [ -72.34734, -42.16835 ], [ -72.34552, -42.16751 ], [ -72.34471, -42.16692 ], [ -72.34355, -42.16663 ], [ -72.23657, -42.1624 ], [ -72.2364, -42.16182 ], [ -72.22856, -42.24392 ], [ -72.22512, -42.24504 ], [ -72.21952, -42.24735 ], [ -72.21149, -42.25015 ], [ -72.20352, -42.25163 ], [ -72.19682, -42.25226 ], [ -72.19045, -42.25261 ], [ -72.1699, -42.25257 ], [ -72.16885, -42.25284 ], [ -72.16871, -42.25365 ], [ -72.16885, -42.2561 ], [ -72.16814, -42.25938 ], [ -72.16729, -42.26164 ], [ -72.16631, -42.26235 ], [ -72.16522, -42.26389 ], [ -72.16305, -42.26625 ], [ -72.16248, -42.26744 ], [ -72.16248, -42.2682 ], [ -72.16181, -42.26923 ], [ -72.16093, -42.26982 ], [ -72.15993, -42.26999 ], [ -72.15869, -42.27049 ], [ -72.15489, -42.27239 ], [ -72.15474, -42.2737 ], [ -72.15353, -42.27665 ], [ -72.15405, -42.2772 ], [ -72.15415, -42.27767 ], [ -72.15387, -42.27805 ], [ -72.31534, -42.2898 ], [ -72.37609, -42.29364 ], [ -72.42402, -42.32304 ], [ -72.43605, -42.31925 ], [ -72.46432, -42.32048 ], [ -72.46444, -42.32004 ], [ -72.46415, -42.31882 ], [ -72.46376, -42.31806 ], [ -72.46371, -42.31612 ], [ -72.46325, -42.31528 ], [ -72.46323, -42.31456 ], [ -72.46353, -42.31403 ], [ -72.46511, -42.31251 ], [ -72.46606, -42.30853 ], [ -72.46935, -42.30204 ], [ -72.46932, -42.30117 ], [ -72.46841, -42.3005 ], [ -72.46784, -42.29934 ], [ -72.46773, -42.29869 ], [ -72.46799, -42.29724 ], [ -72.46717, -42.29495 ], [ -72.4666, -42.29438 ], [ -72.46487, -42.29366 ], [ -72.46404, -42.293 ], [ -72.4636, -42.29217 ], [ -72.46349, -42.29076 ], [ -72.46309, -42.29037 ], [ -72.46214, -42.29003 ], [ -72.46165, -42.28963 ], [ -72.46087, -42.28739 ], [ -72.45992, -42.28645 ], [ -72.45996, -42.28592 ], [ -72.46055, -42.28531 ], [ -72.46055, -42.28474 ], [ -72.46022, -42.28359 ], [ -72.45976, -42.28321 ], [ -72.45957, -42.28275 ], [ -72.45968, -42.28221 ], [ -72.45926, -42.2811 ], [ -72.45808, -42.2789 ], [ -72.45809, -42.27778 ], [ -72.45774, -42.27716 ], [ -72.45711, -42.27692 ], [ -72.45507, -42.27663 ], [ -72.45442, -42.27626 ], [ -72.4515, -42.27565 ], [ -72.45002, -42.27496 ], [ -72.44918, -42.27393 ], [ -72.44719, -42.27266 ], [ -72.44696, -42.27196 ], [ -72.44697, -42.27127 ], [ -72.44649, -42.26968 ], [ -72.44618, -42.26941 ], [ -72.44465, -42.26922 ], [ -72.44254, -42.26945 ], [ -72.44057, -42.2699 ], [ -72.43983, -42.26987 ], [ -72.43892, -42.26965 ], [ -72.43799, -42.26919 ], [ -72.43638, -42.26788 ], [ -72.43581, -42.26715 ], [ -72.43548, -42.26705 ], [ -72.43471, -42.26698 ], [ -72.43201, -42.26721 ], [ -72.43088, -42.26706 ], [ -72.42585, -42.26731 ], [ -72.42398, -42.26722 ], [ -72.41976, -42.266 ], [ -72.41756, -42.26569 ], [ -72.41278, -42.26423 ], [ -72.41068, -42.26382 ], [ -72.40646, -42.26344 ], [ -72.40577, -42.26328 ], [ -72.40448, -42.26265 ], [ -72.40382, -42.26261 ], [ -72.40228, -42.26289 ], [ -72.4012, -42.26285 ], [ -72.39699, -42.26134 ], [ -72.39659, -42.2608 ], [ -72.39524, -42.25984 ], [ -72.39456, -42.25043 ], [ -72.39571, -42.24956 ], [ -72.39639, -42.24857 ], [ -72.39715, -42.24816 ], [ -72.39885, -42.24797 ], [ -72.40038, -42.24806 ], [ -72.40125, -42.24825 ], [ -72.4023, -42.24872 ], [ -72.40356, -42.24869 ], [ -72.40444, -42.24841 ], [ -72.40602, -42.24827 ], [ -72.40849, -42.24852 ], [ -72.40915, -42.24877 ], [ -72.40918, -42.24911 ], [ -72.40966, -42.24944 ], [ -72.41088, -42.24951 ], [ -72.41339, -42.25091 ], [ -72.42167, -42.25285 ], [ -72.42421, -42.2539 ], [ -72.42588, -42.25431 ], [ -72.42631, -42.25496 ], [ -72.42763, -42.2553 ], [ -72.42792, -42.25561 ], [ -72.42795, -42.25622 ], [ -72.4283, -42.25661 ], [ -72.43104, -42.25774 ], [ -72.43172, -42.2578 ], [ -72.4324, -42.25762 ], [ -72.4339, -42.25688 ], [ -72.43586, -42.25626 ], [ -72.43678, -42.2561 ], [ -72.43748, -42.25618 ], [ -72.43795, -42.25641 ], [ -72.43838, -42.25712 ], [ -72.43877, -42.25839 ], [ -72.43991, -42.25926 ], [ -72.4408, -42.25956 ], [ -72.44168, -42.25929 ], [ -72.44361, -42.25761 ], [ -72.4442, -42.25727 ], [ -72.44592, -42.25688 ], [ -72.44747, -42.25632 ], [ -72.44871, -42.25549 ], [ -72.44976, -42.25446 ], [ -72.45015, -42.25437 ], [ -72.45021, -42.25378 ], [ -72.45003, -42.25238 ], [ -72.44984, -42.25168 ], [ -72.44942, -42.25123 ], [ -72.44928, -42.25084 ], [ -72.44948, -42.24936 ], [ -72.44889, -42.24904 ], [ -72.44915, -42.24843 ], [ -72.44905, -42.24673 ], [ -72.44851, -42.24572 ], [ -72.44801, -42.24418 ], [ -72.44608, -42.24304 ], [ -72.44617, -42.24257 ], [ -72.44572, -42.24092 ], [ -72.44488, -42.23939 ], [ -72.44391, -42.23847 ], [ -72.44366, -42.23729 ], [ -72.44376, -42.23656 ], [ -72.44244, -42.23656 ], [ -72.442, -42.23625 ], [ -72.44189, -42.23578 ], [ -72.44424, -42.23284 ], [ -72.44451, -42.23208 ], [ -72.44472, -42.23036 ], [ -72.44498, -42.22973 ], [ -72.44597, -42.22857 ], [ -72.44656, -42.22758 ], [ -72.44823, -42.22671 ], [ -72.44856, -42.22585 ], [ -72.45028, -42.2238 ], [ -72.45145, -42.22079 ], [ -72.45241, -42.21944 ], [ -72.45339, -42.21864 ], [ -72.45414, -42.21665 ], [ -72.45536, -42.21562 ], [ -72.45595, -42.21401 ], [ -72.45774, -42.21136 ], [ -72.45781, -42.21106 ], [ -72.45732, -42.20903 ], [ -72.45737, -42.20786 ], [ -72.45773, -42.20672 ], [ -72.45941, -42.20329 ], [ -72.45917, -42.20186 ], [ -72.45956, -42.20056 ], [ -72.45909, -42.19819 ], [ -72.45705, -42.19366 ], [ -72.45705, -42.1915 ], [ -72.45586, -42.18956 ], [ -72.45484, -42.18866 ], [ -72.45456, -42.18755 ], [ -72.45113, -42.18338 ], [ -72.45059, -42.18059 ], [ -72.44992, -42.1796 ], [ -72.44891, -42.17599 ], [ -72.44879, -42.17359 ], [ -72.44909, -42.17291 ], [ -72.44901, -42.17238 ], [ -72.44917, -42.17162 ], [ -72.44824, -42.17081 ], [ -72.44341, -42.16793 ], [ -72.44361, -42.16741 ], [ -72.44309, -42.16681 ], [ -72.44283, -42.16596 ], [ -72.44294, -42.1653 ], [ -72.44335, -42.16449 ], [ -72.44272, -42.1645 ], [ -72.43973, -42.16501 ], [ -72.43835, -42.16556 ], [ -72.43727, -42.16687 ], [ -72.43566, -42.16838 ], [ -72.43533, -42.16891 ], [ -72.4349, -42.16886 ], [ -72.43409, -42.16913 ], [ -72.43227, -42.16997 ], [ -72.43103, -42.17081 ], [ -72.43008, -42.17116 ], [ -72.4248, -42.17214 ], [ -72.42256, -42.17235 ], [ -72.42006, -42.17321 ], [ -72.41819, -42.17293 ], [ -72.41663, -42.17317 ], [ -72.41569, -42.17353 ], [ -72.41402, -42.17369 ], [ -72.41205, -42.17353 ], [ -72.41093, -42.17368 ], [ -72.41006, -42.17403 ], [ -72.40988, -42.17467 ], [ -72.40991, -42.17551 ], [ -72.40753, -42.17533 ], [ -72.4048, -42.17462 ], [ -72.40228, -42.17479 ] ] ], [ [ [ -72.13846, -42.14889 ], [ -72.14086, -42.14824 ], [ -72.14351, -42.1471 ], [ -72.15001, -42.14528 ], [ -72.15112, -42.14509 ], [ -72.15369, -42.14508 ], [ -72.15507, -42.14479 ], [ -72.157, -42.14414 ], [ -72.15762, -42.14402 ], [ -72.15812, -42.14414 ], [ -72.15966, -42.14241 ], [ -72.16143, -42.14105 ], [ -72.16487, -42.13994 ], [ -72.16792, -42.13934 ], [ -72.17213, -42.13908 ], [ -72.1729, -42.13957 ], [ -72.17349, -42.1405 ], [ -72.1753, -42.14195 ], [ -72.17563, -42.14271 ], [ -72.17539, -42.14418 ], [ -72.17553, -42.14494 ], [ -72.17606, -42.14531 ], [ -72.17594, -42.14748 ], [ -72.1762, -42.14838 ], [ -72.17718, -42.14971 ], [ -72.17718, -42.1511 ], [ -72.17758, -42.15291 ], [ -72.17858, -42.15398 ], [ -72.17894, -42.15459 ], [ -72.17935, -42.15592 ], [ -72.18065, -42.15666 ], [ -72.18457, -42.15777 ], [ -72.18709, -42.15791 ], [ -72.18769, -42.15817 ], [ -72.18796, -42.15847 ], [ -72.1885, -42.16005 ], [ -72.1885, -42.16074 ], [ -72.18779, -42.16159 ], [ -72.18665, -42.16228 ], [ -72.18598, -42.16338 ], [ -72.18579, -42.16478 ], [ -72.18583, -42.16615 ], [ -72.1862, -42.16754 ], [ -72.18578, -42.16925 ], [ -72.18477, -42.17113 ], [ -72.18529, -42.17282 ], [ -72.18536, -42.1736 ], [ -72.18484, -42.17482 ], [ -72.1847, -42.17646 ], [ -72.18322, -42.17824 ], [ -72.18199, -42.17929 ], [ -72.17975, -42.18175 ], [ -72.17765, -42.18237 ], [ -72.17601, -42.18341 ], [ -72.17444, -42.18381 ], [ -72.17373, -42.18428 ], [ -72.17144, -42.18455 ], [ -72.16871, -42.18607 ], [ -72.16816, -42.187 ], [ -72.16702, -42.18814 ], [ -72.16247, -42.19045 ], [ -72.16112, -42.19074 ], [ -72.15909, -42.19181 ], [ -72.15833, -42.19268 ], [ -72.15762, -42.19302 ], [ -72.15691, -42.19387 ], [ -72.15681, -42.19669 ], [ -72.15638, -42.19883 ], [ -72.15593, -42.20011 ], [ -72.15634, -42.20197 ], [ -72.15705, -42.20351 ], [ -72.15689, -42.20408 ], [ -72.15624, -42.20467 ], [ -72.1561, -42.20527 ], [ -72.15938, -42.20668 ], [ -72.16112, -42.20792 ], [ -72.16261, -42.20861 ], [ -72.1639, -42.20947 ], [ -72.16445, -42.21138 ], [ -72.16602, -42.2128 ], [ -72.16649, -42.21344 ], [ -72.16576, -42.21565 ], [ -72.165, -42.21713 ], [ -72.16481, -42.21784 ], [ -72.16564, -42.21969 ], [ -72.16385, -42.22015 ], [ -72.16143, -42.22373 ], [ -72.16038, -42.22476 ], [ -72.15881, -42.22723 ], [ -72.15902, -42.22843 ], [ -72.15893, -42.22924 ], [ -72.15815, -42.23011 ], [ -72.15722, -42.23181 ], [ -72.15658, -42.23575 ], [ -72.15617, -42.23716 ], [ -72.15567, -42.23808 ], [ -72.15431, -42.23951 ], [ -72.15443, -42.24044 ], [ -72.15401, -42.24129 ], [ -72.15366, -42.24302 ], [ -72.15387, -42.24367 ], [ -72.15427, -42.24419 ], [ -72.15544, -42.24495 ], [ -72.15677, -42.24512 ], [ -72.15841, -42.24558 ], [ -72.16012, -42.24577 ], [ -72.16414, -42.24753 ], [ -72.16838, -42.25055 ], [ -72.16879, -42.25186 ], [ -72.16884, -42.25276 ], [ -72.16991, -42.25248 ], [ -72.19045, -42.25252 ], [ -72.19683, -42.25217 ], [ -72.20352, -42.25154 ], [ -72.2115, -42.25006 ], [ -72.21952, -42.24726 ], [ -72.22513, -42.24495 ], [ -72.22856, -42.24383 ], [ -72.2364, -42.16182 ], [ -72.2364, -42.16173 ], [ -72.23803, -42.07696 ], [ -72.23826, -42.05575 ], [ -72.35177, -42.08778 ], [ -72.35001, -42.0928 ], [ -72.34913, -42.09858 ], [ -72.34935, -42.1018 ], [ -72.35174, -42.10584 ], [ -72.35276, -42.10873 ], [ -72.3512, -42.10962 ], [ -72.34969, -42.11128 ], [ -72.34946, -42.1122 ], [ -72.34937, -42.11369 ], [ -72.35055, -42.11675 ], [ -72.35127, -42.11766 ], [ -72.35146, -42.11908 ], [ -72.35247, -42.12057 ], [ -72.35377, -42.12476 ], [ -72.35348, -42.12652 ], [ -72.3534, -42.13104 ], [ -72.35367, -42.13293 ], [ -72.35458, -42.13491 ], [ -72.35709, -42.138 ], [ -72.35802, -42.13975 ], [ -72.35892, -42.14086 ], [ -72.36151, -42.14289 ], [ -72.36273, -42.14414 ], [ -72.36345, -42.14544 ], [ -72.3657, -42.15305 ], [ -72.36673, -42.1547 ], [ -72.3701, -42.15787 ], [ -72.3708, -42.15898 ], [ -72.37095, -42.15984 ], [ -72.37093, -42.16474 ], [ -72.37552, -42.16436 ], [ -72.37677, -42.16355 ], [ -72.37821, -42.16328 ], [ -72.38013, -42.16267 ], [ -72.38361, -42.16229 ], [ -72.38694, -42.16149 ], [ -72.38862, -42.16151 ], [ -72.3898, -42.16133 ], [ -72.39273, -42.16161 ], [ -72.39446, -42.16236 ], [ -72.39601, -42.16263 ], [ -72.39658, -42.16326 ], [ -72.39722, -42.16327 ], [ -72.39791, -42.16294 ], [ -72.39914, -42.16285 ], [ -72.40163, -42.1632 ], [ -72.40464, -42.16393 ], [ -72.40618, -42.16404 ], [ -72.40739, -42.16381 ], [ -72.40965, -42.16205 ], [ -72.41031, -42.16194 ], [ -72.41326, -42.162 ], [ -72.41434, -42.16218 ], [ -72.41565, -42.16263 ], [ -72.41616, -42.16248 ], [ -72.41716, -42.16169 ], [ -72.41797, -42.16151 ], [ -72.42045, -42.16144 ], [ -72.42119, -42.16157 ], [ -72.42276, -42.16285 ], [ -72.42316, -42.16335 ], [ -72.42581, -42.16422 ], [ -72.42802, -42.16407 ], [ -72.42939, -42.16371 ], [ -72.43126, -42.16218 ], [ -72.4323, -42.16196 ], [ -72.43327, -42.16215 ], [ -72.43426, -42.16206 ], [ -72.43683, -42.16165 ], [ -72.43971, -42.16218 ], [ -72.44126, -42.162 ], [ -72.44296, -42.1625 ], [ -72.44391, -42.16346 ], [ -72.44516, -42.16133 ], [ -72.44597, -42.16054 ], [ -72.44713, -42.15976 ], [ -72.44871, -42.15909 ], [ -72.45432, -42.15762 ], [ -72.45476, -42.15733 ], [ -72.45672, -42.15496 ], [ -72.45604, -42.15477 ], [ -72.45565, -42.15389 ], [ -72.45576, -42.15293 ], [ -72.45674, -42.15211 ], [ -72.45794, -42.14947 ], [ -72.45862, -42.14709 ], [ -72.45963, -42.14587 ], [ -72.46001, -42.14471 ], [ -72.46218, -42.1434 ], [ -72.46255, -42.14285 ], [ -72.46235, -42.14123 ], [ -72.46155, -42.13977 ], [ -72.46152, -42.13805 ], [ -72.46199, -42.13655 ], [ -72.46377, -42.1353 ], [ -72.46244, -42.13368 ], [ -72.46222, -42.13212 ], [ -72.46269, -42.11833 ], [ -72.46356, -42.11648 ], [ -72.4627, -42.11547 ], [ -72.46268, -42.11331 ], [ -72.46189, -42.11298 ], [ -72.46117, -42.11301 ], [ -72.45972, -42.11367 ], [ -72.45893, -42.11381 ], [ -72.46029, -42.10816 ], [ -72.46106, -42.10825 ], [ -72.46165, -42.10779 ], [ -72.46158, -42.10723 ], [ -72.46108, -42.10586 ], [ -72.46015, -42.10527 ], [ -72.45739, -42.09934 ], [ -72.45649, -42.09808 ], [ -72.45536, -42.09709 ], [ -72.45411, -42.09691 ], [ -72.45269, -42.09538 ], [ -72.45134, -42.0911 ], [ -72.45037, -42.08921 ], [ -72.45014, -42.08925 ], [ -72.44733, -42.08788 ], [ -72.43688, -42.09215 ], [ -72.43049, -42.09347 ], [ -72.42498, -42.09341 ], [ -72.42083, -42.09117 ], [ -72.42187, -42.08954 ], [ -72.42788, -42.09149 ], [ -72.42965, -42.0915 ], [ -72.43048, -42.09125 ], [ -72.43175, -42.09033 ], [ -72.43366, -42.08997 ], [ -72.43458, -42.08943 ], [ -72.4397, -42.09019 ], [ -72.4407, -42.08963 ], [ -72.441, -42.08854 ], [ -72.44087, -42.08807 ], [ -72.44095, -42.08767 ], [ -72.44269, -42.08642 ], [ -72.44313, -42.0843 ], [ -72.44415, -42.08367 ], [ -72.44679, -42.08299 ], [ -72.44826, -42.08284 ], [ -72.45026, -42.08349 ], [ -72.451, -42.08352 ], [ -72.45243, -42.08254 ], [ -72.45301, -42.08193 ], [ -72.45389, -42.08141 ], [ -72.45348, -42.08015 ], [ -72.45364, -42.07842 ], [ -72.45386, -42.07789 ], [ -72.45294, -42.07759 ], [ -72.45079, -42.07779 ], [ -72.44952, -42.07716 ], [ -72.45061, -42.07555 ], [ -72.45162, -42.07459 ], [ -72.45175, -42.07413 ], [ -72.45165, -42.06993 ], [ -72.45345, -42.0695 ], [ -72.45288, -42.06849 ], [ -72.45194, -42.06744 ], [ -72.45159, -42.06613 ], [ -72.45137, -42.06407 ], [ -72.45157, -42.06196 ], [ -72.4521, -42.06128 ], [ -72.45129, -42.05941 ], [ -72.45063, -42.05567 ], [ -72.44906, -42.05177 ], [ -72.44879, -42.05051 ], [ -72.44833, -42.04971 ], [ -72.44742, -42.04561 ], [ -72.44571, -42.04196 ], [ -72.44534, -42.04023 ], [ -72.44456, -42.0395 ], [ -72.44319, -42.03745 ], [ -72.44281, -42.03614 ], [ -72.44277, -42.0349 ], [ -72.44033, -42.0341 ], [ -72.44067, -42.03346 ], [ -72.44026, -42.03174 ], [ -72.43666, -42.03309 ], [ -72.43317, -42.03391 ], [ -72.42894, -42.034 ], [ -72.42629, -42.03475 ], [ -72.42453, -42.03464 ], [ -72.42346, -42.0342 ], [ -72.41954, -42.034 ], [ -72.41325, -42.03428 ], [ -72.40415, -42.03397 ], [ -72.39608, -42.03317 ], [ -72.39473, -42.0329 ], [ -72.39338, -42.03201 ], [ -72.39275, -42.03147 ], [ -72.39194, -42.03028 ], [ -72.39088, -42.02944 ], [ -72.38921, -42.0285 ], [ -72.38778, -42.02815 ], [ -72.387, -42.02766 ], [ -72.38552, -42.02731 ], [ -72.38491, -42.02742 ], [ -72.38436, -42.02784 ], [ -72.38337, -42.02736 ], [ -72.38166, -42.0274 ], [ -72.38009, -42.02784 ], [ -72.37951, -42.02784 ], [ -72.3792, -42.02759 ], [ -72.37926, -42.02716 ], [ -72.37982, -42.02611 ], [ -72.37764, -42.02475 ], [ -72.37548, -42.0243 ], [ -72.37457, -42.02369 ], [ -72.37402, -42.02288 ], [ -72.21897, -42.01915 ], [ -72.21047, -42.02354 ], [ -72.18337, -42.04067 ], [ -72.18842, -42.04068 ], [ -72.1929, -42.0416 ], [ -72.19979, -42.04247 ], [ -72.21461, -42.04053 ], [ -72.233, -42.04263 ], [ -72.23407, -42.04515 ], [ -72.22759, -42.04669 ], [ -72.21617, -42.04547 ], [ -72.20529, -42.04792 ], [ -72.19965, -42.04772 ], [ -72.1763, -42.05156 ], [ -72.16641, -42.0514 ], [ -72.16529, -42.05211 ], [ -72.12404, -42.08382 ], [ -72.08712, -42.11838 ], [ -72.07828, -42.12855 ], [ -72.07883, -42.12899 ], [ -72.07971, -42.13006 ], [ -72.08029, -42.13211 ], [ -72.08019, -42.13254 ], [ -72.07377, -42.13513 ], [ -72.07214, -42.13561 ], [ -72.06676, -42.1418 ], [ -72.06686, -42.14192 ], [ -72.06708, -42.14273 ], [ -72.06707, -42.14363 ], [ -72.06662, -42.14596 ], [ -72.06691, -42.14699 ], [ -72.06727, -42.14743 ], [ -72.07496, -42.14651 ], [ -72.07664, -42.14598 ], [ -72.07776, -42.14539 ], [ -72.07907, -42.14415 ], [ -72.07981, -42.1437 ], [ -72.08276, -42.14318 ], [ -72.08414, -42.14337 ], [ -72.08495, -42.14372 ], [ -72.08638, -42.14544 ], [ -72.08766, -42.14598 ], [ -72.08804, -42.14658 ], [ -72.08921, -42.14765 ], [ -72.09142, -42.14827 ], [ -72.09275, -42.14812 ], [ -72.09418, -42.14827 ], [ -72.09813, -42.14736 ], [ -72.1007, -42.14734 ], [ -72.10467, -42.14534 ], [ -72.10682, -42.14539 ], [ -72.10924, -42.14567 ], [ -72.11074, -42.14646 ], [ -72.11359, -42.14758 ], [ -72.11424, -42.14729 ], [ -72.11488, -42.14629 ], [ -72.11526, -42.14608 ], [ -72.11565, -42.14621 ], [ -72.11737, -42.14904 ], [ -72.11876, -42.15055 ], [ -72.1215, -42.15448 ], [ -72.12195, -42.15472 ], [ -72.12452, -42.1546 ], [ -72.12795, -42.15338 ], [ -72.13142, -42.15138 ], [ -72.13256, -42.15103 ], [ -72.13351, -42.15043 ], [ -72.13432, -42.14948 ], [ -72.13492, -42.14911 ], [ -72.13578, -42.14892 ], [ -72.13694, -42.14903 ], [ -72.13846, -42.14889 ] ] ] ] } },
{ "type": "Feature", "properties": { "nombre": "Parque Nacional Hornopiren", "categoria": "Parque Nacional", "region": "Los Lagos", "superficie_ha": "66195,78", "decreto": "NÂ° 884 de 1988; NÂ° 2 de 2018" }, "geometry": { "type": "Polygon", "coordinates": [ [ [ -72.37154, -42.02272 ], [ -72.37973, -42.02616 ], [ -72.37915, -42.02735 ], [ -72.37944, -42.02776 ], [ -72.3802, -42.02778 ], [ -72.38168, -42.02729 ], [ -72.38328, -42.02727 ], [ -72.38434, -42.0278 ], [ -72.38529, -42.02722 ], [ -72.38597, -42.02709 ], [ -72.38997, -42.02862 ], [ -72.39221, -42.03022 ], [ -72.39286, -42.03126 ], [ -72.39345, -42.03179 ], [ -72.39495, -42.03274 ], [ -72.39555, -42.03292 ], [ -72.39937, -42.03318 ], [ -72.40187, -42.03392 ], [ -72.40402, -42.03373 ], [ -72.40586, -42.03377 ], [ -72.40776, -42.03404 ], [ -72.41465, -42.03407 ], [ -72.4188, -42.03382 ], [ -72.42316, -42.03391 ], [ -72.42392, -42.03403 ], [ -72.42512, -42.03458 ], [ -72.42635, -42.03454 ], [ -72.42766, -42.03422 ], [ -72.42891, -42.03368 ], [ -72.43297, -42.03365 ], [ -72.43482, -42.03317 ], [ -72.4359, -42.03307 ], [ -72.43892, -42.03211 ], [ -72.44025, -42.03122 ], [ -72.43931, -42.03059 ], [ -72.43954, -42.02971 ], [ -72.43984, -42.02663 ], [ -72.43948, -42.02624 ], [ -72.43926, -42.02558 ], [ -72.43894, -42.0242 ], [ -72.43901, -42.02361 ], [ -72.43823, -42.0223 ], [ -72.43821, -42.02187 ], [ -72.43709, -42.02049 ], [ -72.43686, -42.01974 ], [ -72.43649, -42.01941 ], [ -72.43603, -42.01845 ], [ -72.43561, -42.0165 ], [ -72.43401, -42.01697 ], [ -72.42866, -42.01187 ], [ -72.42628, -42.00751 ], [ -72.4266, -42.00629 ], [ -72.42685, -42.0062 ], [ -72.42387, -41.9992 ], [ -72.42405, -41.99883 ], [ -72.42522, -41.99828 ], [ -72.42716, -41.99845 ], [ -72.43042, -41.99828 ], [ -72.43196, -41.99277 ], [ -72.43149, -41.99094 ], [ -72.43133, -41.99095 ], [ -72.43053, -41.98967 ], [ -72.42916, -41.98846 ], [ -72.42917, -41.98765 ], [ -72.42857, -41.98707 ], [ -72.42834, -41.98649 ], [ -72.42848, -41.98503 ], [ -72.42701, -41.98305 ], [ -72.42689, -41.98197 ], [ -72.42639, -41.9812 ], [ -72.42627, -41.98081 ], [ -72.42633, -41.97969 ], [ -72.42595, -41.97811 ], [ -72.426, -41.9769 ], [ -72.42556, -41.97625 ], [ -72.42545, -41.9758 ], [ -72.42538, -41.97321 ], [ -72.42497, -41.97158 ], [ -72.425, -41.97067 ], [ -72.42346, -41.96294 ], [ -72.42303, -41.96278 ], [ -72.42233, -41.96199 ], [ -72.42163, -41.96186 ], [ -72.4212, -41.96113 ], [ -72.42075, -41.95971 ], [ -72.4201, -41.95542 ], [ -72.41655, -41.94683 ], [ -72.36512, -41.95926 ], [ -72.31086, -41.9769 ], [ -72.25915, -41.99839 ], [ -72.21908, -42.01909 ], [ -72.37154, -42.02272 ] ] ] } }
]
}
