{
"type": "FeatureCollection",
"name": "IRR",
"crs": { "type": "name", "properties": { "name": "urn:ogc:def:crs:OGC:1.3:CRS84" } },
"xy_coordinate_resolution": 1e-05,
"features": [
{ "type": "Feature", "properties": { "nombre": "Parque Nacional Salar del Huasco", "categoria": "Parque Nacional", "region": "Tarapaca", "superficie_ha": "110.049,47", "decreto": "NÂ° 66 de 2023" }, "geometry": { "type": "Polygon", "coordinates": [ [ [ -68.6796, -20.29564 ], [ -68.67903, -20.29663 ], [ -68.6788, -20.29956 ], [ -68.67783, -20.30218 ], [ -68.6767, -20.30293 ], [ -68.67416, -20.30413 ], [ -68.67364, -20.30452 ], [ -68.67149, -20.30493 ], [ -68.67035, -20.30552 ], [ -68.66979, -20.30638 ], [ -68.67017, -20.30911 ], [ -68.66908, -20.31342 ], [ -68.66793, -20.31369 ], [ -68.66644, -20.31466 ], [ -68.66528, -20.31588 ], [ -68.66461, -20.3172 ], [ -68.66419, -20.31765 ], [ -68.66258, -20.31793 ], [ -68.66135, -20.31835 ], [ -68.66079, -20.31913 ], [ -68.66093, -20.31961 ], [ -68.66227, -20.32157 ], [ -68.66229, -20.32202 ], [ -68.66188, -20.32285 ], [ -68.66172, -20.32394 ], [ -68.66105, -20.32484 ], [ -68.66099, -20.32544 ], [ -68.66121, -20.32751 ], [ -68.66107, -20.32808 ], [ -68.66127, -20.33093 ], [ -68.66115, -20.33189 ], [ -68.66125, -20.33519 ], [ -68.66124, -20.33549 ], [ -68.6606, -20.33645 ], [ -68.66095, -20.33929 ], [ -68.66167, -20.33993 ], [ -68.66195, -20.3404 ], [ -68.66189, -20.34126 ], [ -68.66227, -20.34288 ], [ -68.6633, -20.34413 ], [ -68.66466, -20.34656 ], [ -68.67162, -20.35404 ], [ -68.67242, -20.35507 ], [ -68.67364, -20.35622 ], [ -68.6752, -20.35725 ], [ -68.67737, -20.3582 ], [ -68.67967, -20.35878 ], [ -68.6858, -20.3591 ], [ -68.68879, -20.35946 ], [ -68.68957, -20.35989 ], [ -68.69065, -20.36115 ], [ -68.69145, -20.36162 ], [ -68.69372, -20.36181 ], [ -68.69679, -20.363 ], [ -68.69797, -20.36311 ], [ -68.69987, -20.36355 ], [ -68.70573, -20.36541 ], [ -68.7099, -20.36627 ], [ -68.71078, -20.36642 ], [ -68.71334, -20.36575 ], [ -68.71418, -20.36533 ], [ -68.71553, -20.36533 ], [ -68.71724, -20.36593 ], [ -68.72186, -20.3669 ], [ -68.72453, -20.36817 ], [ -68.72546, -20.36849 ], [ -68.72686, -20.36861 ], [ -68.72745, -20.36888 ], [ -68.72844, -20.36965 ], [ -68.73083, -20.37282 ], [ -68.73179, -20.37343 ], [ -68.7324, -20.37361 ], [ -68.73436, -20.37345 ], [ -68.73665, -20.37228 ], [ -68.73754, -20.37176 ], [ -68.73814, -20.37109 ], [ -68.73994, -20.37006 ], [ -68.74105, -20.36907 ], [ -68.74154, -20.36834 ], [ -68.74392, -20.37114 ], [ -68.74605, -20.37331 ], [ -68.7474, -20.37636 ], [ -68.74767, -20.37839 ], [ -68.74864, -20.38023 ], [ -68.75022, -20.384 ], [ -68.75117, -20.38453 ], [ -68.7516, -20.38539 ], [ -68.75411, -20.38718 ], [ -68.75515, -20.38756 ], [ -68.75763, -20.38788 ], [ -68.76127, -20.38938 ], [ -68.76256, -20.39121 ], [ -68.76398, -20.39476 ], [ -68.76582, -20.39685 ], [ -68.76945, -20.40043 ], [ -68.77501, -20.41357 ], [ -68.77544, -20.42338 ], [ -68.76977, -20.43497 ], [ -68.76704, -20.43966 ], [ -68.7761, -20.44421 ], [ -68.78356, -20.45019 ], [ -68.789, -20.4519 ], [ -68.79261, -20.46278 ], [ -68.78989, -20.46512 ], [ -68.79116, -20.46939 ], [ -68.79596, -20.4744 ], [ -68.79738, -20.48137 ], [ -68.81168, -20.49137 ], [ -68.81531, -20.48434 ], [ -68.81736, -20.4773 ], [ -68.81779, -20.4723 ], [ -68.81865, -20.47136 ], [ -68.82068, -20.47096 ], [ -68.82124, -20.47032 ], [ -68.82165, -20.46887 ], [ -68.82319, -20.4672 ], [ -68.82429, -20.46637 ], [ -68.82529, -20.46611 ], [ -68.82633, -20.46697 ], [ -68.82886, -20.4681 ], [ -68.8302, -20.46797 ], [ -68.83217, -20.46764 ], [ -68.83442, -20.46625 ], [ -68.83716, -20.46483 ], [ -68.81628, -20.45996 ], [ -68.83977, -20.37061 ], [ -68.81725, -20.35483 ], [ -68.77696, -20.33199 ], [ -68.7345, -20.31297 ], [ -68.69027, -20.29796 ], [ -68.67979, -20.29546 ], [ -68.6796, -20.29564 ] ], [ [ -68.75544, -20.3354 ], [ -68.75161, -20.3354 ], [ -68.75161, -20.33178 ], [ -68.75544, -20.33179 ], [ -68.75544, -20.3354 ] ], [ [ -68.75663, -20.32667 ], [ -68.75279, -20.32666 ], [ -68.7528, -20.32305 ], [ -68.75663, -20.32305 ], [ -68.75663, -20.32667 ] ] ] } }
]
}
