{
"type": "FeatureCollection",
"name": "ISL",
"crs": { "type": "name", "properties": { "name": "urn:ogc:def:crs:OGC:1.3:CRS84" } },
"xy_coordinate_resolution": 1e-05,
"features": [
{ "type": "Feature", "properties": { "nombre": "Parque Nacional Volcan Isluga", "categoria": "Parque Nacional", "region": "Tarapaca", "superficie_ha": "174744", "decreto": "NÂ° 4 de 1967; NÂ° 277 de 1970; NÂ° 680 de 1975; NÂ° 97 de 1985; NÂ° 151 de 1985" }, "geometry": { "type": "Polygon", "coordinates": [ [ [ -68.80617, -19.28652 ], [ -68.80876, -19.28605 ], [ -68.8138, -19.28097 ], [ -68.81514, -19.2802 ], [ -68.81748, -19.28053 ], [ -68.81935, -19.27994 ], [ -68.82229, -19.27686 ], [ -68.82399, -19.27629 ], [ -68.82624, -19.27595 ], [ -68.82789, -19.2755 ], [ -68.83184, -19.27357 ], [ -68.83355, -19.27195 ], [ -68.83581, -19.27038 ], [ -68.83857, -19.26652 ], [ -68.84061, -19.2646 ], [ -68.84234, -19.26339 ], [ -68.84626, -19.26197 ], [ -68.84758, -19.26081 ], [ -68.84737, -19.25891 ], [ -68.84739, -19.25698 ], [ -68.8482, -19.25562 ], [ -68.85041, -19.25459 ], [ -68.85314, -19.25364 ], [ -68.86253, -19.25238 ], [ -68.86404, -19.25077 ], [ -68.86512, -19.25036 ], [ -68.8666, -19.24927 ], [ -68.87168, -19.24707 ], [ -68.8732, -19.24656 ], [ -68.87498, -19.24674 ], [ -68.87578, -19.24843 ], [ -68.87605, -19.24995 ], [ -68.87765, -19.25427 ], [ -68.87889, -19.25698 ], [ -68.88612, -19.25733 ], [ -68.88704, -19.25804 ], [ -68.88728, -19.25902 ], [ -68.8895, -19.26207 ], [ -68.88914, -19.26402 ], [ -68.88798, -19.26588 ], [ -68.88575, -19.26715 ], [ -68.88495, -19.26859 ], [ -68.89182, -19.2691 ], [ -68.89583, -19.27114 ], [ -68.9002, -19.27419 ], [ -68.90688, -19.27538 ], [ -68.91143, -19.27589 ], [ -68.91384, -19.27665 ], [ -68.91678, -19.27886 ], [ -68.92416, -19.28017 ], [ -68.92728, -19.28017 ], [ -68.93192, -19.28051 ], [ -68.9337, -19.28204 ], [ -68.93566, -19.28458 ], [ -68.93709, -19.28593 ], [ -68.93789, -19.28695 ], [ -68.93843, -19.28975 ], [ -68.94101, -19.29407 ], [ -68.94627, -19.29923 ], [ -68.95091, -19.30059 ], [ -68.9518, -19.30135 ], [ -68.95341, -19.30381 ], [ -68.95412, -19.30601 ], [ -68.95421, -19.30847 ], [ -68.95474, -19.30948 ], [ -68.95929, -19.30982 ], [ -68.96152, -19.31169 ], [ -68.96384, -19.3133 ], [ -68.96759, -19.31414 ], [ -68.96883, -19.31482 ], [ -68.96874, -19.31618 ], [ -68.9683, -19.31728 ], [ -68.96553, -19.32134 ], [ -68.96535, -19.32312 ], [ -68.96696, -19.32371 ], [ -68.9716, -19.32448 ], [ -68.97579, -19.3249 ], [ -68.97945, -19.32659 ], [ -68.98025, -19.3282 ], [ -68.98034, -19.33117 ], [ -68.9823, -19.33278 ], [ -68.98926, -19.33405 ], [ -68.9922, -19.33557 ], [ -68.99452, -19.33896 ], [ -68.99675, -19.34074 ], [ -68.99939, -19.34421 ], [ -69.00019, -19.3459 ], [ -69.00242, -19.34946 ], [ -69.00349, -19.352 ], [ -69.00456, -19.35505 ], [ -69.00536, -19.35954 ], [ -69.00536, -19.36597 ], [ -69.00438, -19.37893 ], [ -69.00456, -19.38003 ], [ -69.0051, -19.38079 ], [ -69.00617, -19.38147 ], [ -69.00759, -19.38172 ], [ -69.0092, -19.38147 ], [ -69.01081, -19.38079 ], [ -69.01259, -19.38037 ], [ -69.01545, -19.37986 ], [ -69.0175, -19.3791 ], [ -69.01848, -19.37893 ], [ -69.01964, -19.37901 ], [ -69.0208, -19.37944 ], [ -69.02294, -19.38274 ], [ -69.02357, -19.38503 ], [ -69.02687, -19.38951 ], [ -69.0308, -19.39197 ], [ -69.03589, -19.39612 ], [ -69.04758, -19.39933 ], [ -69.04838, -19.40069 ], [ -69.04829, -19.40238 ], [ -69.04785, -19.40543 ], [ -69.04589, -19.40806 ], [ -69.04562, -19.40823 ], [ -69.04473, -19.41204 ], [ -69.04553, -19.41644 ], [ -69.04732, -19.41856 ], [ -69.05553, -19.42016 ], [ -69.06169, -19.42287 ], [ -69.06178, -19.4244 ], [ -69.0608, -19.42651 ], [ -69.05947, -19.42871 ], [ -69.05885, -19.42866 ], [ -69.05826, -19.42995 ], [ -69.05616, -19.431 ], [ -69.05491, -19.43261 ], [ -69.05437, -19.43829 ], [ -69.05339, -19.44108 ], [ -69.05277, -19.44345 ], [ -69.05232, -19.44667 ], [ -69.05143, -19.4498 ], [ -69.04983, -19.45421 ], [ -69.04983, -19.45675 ], [ -69.05072, -19.45836 ], [ -69.05135, -19.4603 ], [ -69.05215, -19.46183 ], [ -69.05251, -19.46369 ], [ -69.05251, -19.47267 ], [ -69.05224, -19.47428 ], [ -69.05171, -19.4758 ], [ -69.05162, -19.47707 ], [ -69.05162, -19.47834 ], [ -69.05198, -19.47919 ], [ -69.05207, -19.48071 ], [ -69.0518, -19.48198 ], [ -69.05198, -19.48546 ], [ -69.05234, -19.48771 ], [ -69.05211, -19.48918 ], [ -69.10016, -19.48933 ], [ -69.1135, -19.51231 ], [ -69.13193, -19.49933 ], [ -69.16654, -19.46952 ], [ -69.1979, -19.43663 ], [ -69.2257, -19.40098 ], [ -69.24966, -19.36292 ], [ -69.25701, -19.3481 ], [ -69.2559, -19.34499 ], [ -69.25654, -19.33885 ], [ -69.25634, -19.33407 ], [ -69.25553, -19.33211 ], [ -69.25287, -19.33214 ], [ -69.25037, -19.3305 ], [ -69.24687, -19.32956 ], [ -69.24298, -19.32875 ], [ -69.24172, -19.32921 ], [ -69.2378, -19.32703 ], [ -69.23537, -19.32494 ], [ -69.23146, -19.32401 ], [ -69.23072, -19.32295 ], [ -69.22699, -19.32504 ], [ -69.22714, -19.32189 ], [ -69.22593, -19.32257 ], [ -69.22548, -19.31996 ], [ -69.2244, -19.31888 ], [ -69.22307, -19.31494 ], [ -69.22075, -19.31004 ], [ -69.21892, -19.3085 ], [ -69.21893, -19.30667 ], [ -69.22021, -19.3038 ], [ -69.2208, -19.29306 ], [ -69.21975, -19.29156 ], [ -69.2195, -19.28873 ], [ -69.21821, -19.28616 ], [ -69.21666, -19.28547 ], [ -69.21658, -19.27856 ], [ -69.21593, -19.27476 ], [ -69.21465, -19.26919 ], [ -69.21564, -19.26227 ], [ -69.21658, -19.25719 ], [ -69.21611, -19.25575 ], [ -69.21316, -19.25254 ], [ -69.20863, -19.24952 ], [ -69.19649, -19.24285 ], [ -69.19459, -19.24283 ], [ -69.1944, -19.24171 ], [ -69.19089, -19.23881 ], [ -69.18899, -19.23677 ], [ -69.18387, -19.23615 ], [ -69.18172, -19.23353 ], [ -69.17926, -19.23221 ], [ -69.17391, -19.23095 ], [ -69.17375, -19.23001 ], [ -69.17241, -19.22934 ], [ -69.17045, -19.22934 ], [ -69.16769, -19.22892 ], [ -69.16546, -19.22892 ], [ -69.16145, -19.22985 ], [ -69.15833, -19.22816 ], [ -69.15476, -19.22808 ], [ -69.15351, -19.22842 ], [ -69.15387, -19.22918 ], [ -69.15378, -19.23003 ], [ -69.15298, -19.23028 ], [ -69.15155, -19.23029 ], [ -69.15057, -19.23012 ], [ -69.14495, -19.23088 ], [ -69.14308, -19.23004 ], [ -69.13907, -19.22733 ], [ -69.13791, -19.22716 ], [ -69.13523, -19.22717 ], [ -69.13211, -19.22547 ], [ -69.12863, -19.22454 ], [ -69.12248, -19.22226 ], [ -69.11874, -19.22015 ], [ -69.11624, -19.21837 ], [ -69.11419, -19.21778 ], [ -69.11365, -19.21778 ], [ -69.11294, -19.21846 ], [ -69.11294, -19.21922 ], [ -69.11258, -19.22015 ], [ -69.11196, -19.2232 ], [ -69.11045, -19.2249 ], [ -69.10795, -19.22727 ], [ -69.10733, -19.22837 ], [ -69.10617, -19.22989 ], [ -69.10394, -19.23227 ], [ -69.10261, -19.23176 ], [ -69.10243, -19.22939 ], [ -69.10305, -19.22278 ], [ -69.09912, -19.21499 ], [ -69.09751, -19.21313 ], [ -69.09582, -19.21152 ], [ -69.09519, -19.21025 ], [ -69.09475, -19.20881 ], [ -69.09421, -19.20805 ], [ -69.09314, -19.20712 ], [ -69.09064, -19.20577 ], [ -69.08449, -19.20111 ], [ -69.08164, -19.19967 ], [ -69.0803, -19.19976 ], [ -69.07852, -19.20052 ], [ -69.07371, -19.20332 ], [ -69.07059, -19.20459 ], [ -69.06863, -19.20603 ], [ -69.06791, -19.2062 ], [ -69.06693, -19.20595 ], [ -69.06613, -19.20518 ], [ -69.06533, -19.20375 ], [ -69.06497, -19.20214 ], [ -69.06506, -19.1996 ], [ -69.06871, -19.19011 ], [ -69.06907, -19.18867 ], [ -69.06907, -19.18757 ], [ -69.06764, -19.18367 ], [ -69.06541, -19.18096 ], [ -69.0646, -19.17876 ], [ -69.0638, -19.17783 ], [ -69.06193, -19.17631 ], [ -69.06041, -19.17038 ], [ -69.05988, -19.16572 ], [ -69.05836, -19.16369 ], [ -69.05569, -19.16124 ], [ -69.05483, -19.16081 ], [ -69.05089, -19.15708 ], [ -69.04813, -19.15511 ], [ -69.04158, -19.15478 ], [ -69.03809, -19.15439 ], [ -69.03501, -19.15288 ], [ -69.03146, -19.15318 ], [ -69.02879, -19.15423 ], [ -69.02207, -19.1561 ], [ -69.01869, -19.15496 ], [ -69.01595, -19.15353 ], [ -69.01339, -19.15351 ], [ -69.01091, -19.15211 ], [ -69.00817, -19.15025 ], [ -69.00845, -19.14934 ], [ -69.01188, -19.14857 ], [ -69.01259, -19.14804 ], [ -69.01521, -19.14252 ], [ -69.01639, -19.1392 ], [ -69.01775, -19.13475 ], [ -69.01802, -19.13254 ], [ -69.01714, -19.12695 ], [ -69.01553, -19.12212 ], [ -69.01304, -19.11721 ], [ -69.01072, -19.1106 ], [ -69.00948, -19.10628 ], [ -69.00698, -19.0987 ], [ -69.00743, -19.09498 ], [ -69.01117, -19.09057 ], [ -69.01072, -19.08812 ], [ -69.01054, -19.08109 ], [ -69.00956, -19.07787 ], [ -69.00903, -19.07728 ], [ -69.00778, -19.07668 ], [ -69.00529, -19.07702 ], [ -69.00324, -19.07778 ], [ -68.99843, -19.07795 ], [ -68.99647, -19.07728 ], [ -68.99406, -19.07668 ], [ -68.99166, -19.07728 ], [ -68.98765, -19.07855 ], [ -68.98525, -19.07889 ], [ -68.98061, -19.07863 ], [ -68.97349, -19.07778 ], [ -68.9726, -19.07727 ], [ -68.97171, -19.0771 ], [ -68.97046, -19.07727 ], [ -68.96948, -19.0777 ], [ -68.9669, -19.07744 ], [ -68.96449, -19.07549 ], [ -68.96244, -19.07194 ], [ -68.96066, -19.07092 ], [ -68.95826, -19.07067 ], [ -68.95532, -19.0694 ], [ -68.94744, -19.06359 ], [ -68.94405, -19.06308 ], [ -68.93835, -19.06317 ], [ -68.92838, -19.06104 ], [ -68.92713, -19.06037 ], [ -68.91716, -19.05706 ], [ -68.90861, -19.05629 ], [ -68.90095, -19.05697 ], [ -68.89685, -19.05824 ], [ -68.88937, -19.06009 ], [ -68.88759, -19.06009 ], [ -68.8738, -19.05767 ], [ -68.8709, -19.06037 ], [ -68.85233, -19.06424 ], [ -68.80596, -19.08355 ], [ -68.78136, -19.10827 ], [ -68.75091, -19.13298 ], [ -68.73636, -19.15564 ], [ -68.71306, -19.17026 ], [ -68.67985, -19.20192 ], [ -68.68615, -19.21035 ], [ -68.688, -19.21308 ], [ -68.70057, -19.21327 ], [ -68.70141, -19.21763 ], [ -68.69987, -19.22359 ], [ -68.69681, -19.22908 ], [ -68.69628, -19.23537 ], [ -68.69814, -19.24167 ], [ -68.70102, -19.24894 ], [ -68.70407, -19.25201 ], [ -68.71274, -19.25267 ], [ -68.71953, -19.25284 ], [ -68.72327, -19.25446 ], [ -68.72684, -19.25446 ], [ -68.72769, -19.25592 ], [ -68.72819, -19.2564 ], [ -68.73346, -19.25722 ], [ -68.73499, -19.25722 ], [ -68.7372, -19.25755 ], [ -68.73975, -19.25723 ], [ -68.74383, -19.25578 ], [ -68.74689, -19.25417 ], [ -68.74893, -19.25224 ], [ -68.75302, -19.24998 ], [ -68.76168, -19.24983 ], [ -68.76301, -19.27614 ], [ -68.77507, -19.27793 ], [ -68.78102, -19.28101 ], [ -68.78373, -19.28085 ], [ -68.78595, -19.28037 ], [ -68.78935, -19.27908 ], [ -68.79394, -19.27796 ], [ -68.79887, -19.27796 ], [ -68.8009, -19.27958 ], [ -68.80357, -19.28577 ], [ -68.80617, -19.28652 ] ] ] } },
{ "type": "Feature", "properties": { "nombre": "Monumento Natural Salar De Surire", "categoria": "Monumento Natural", "region": "Arica Y Parinacota", "superficie_ha": "11298", "decreto": "NÂ° 29 de 1983" }, "geometry": { "type": "Polygon", "coordinates": [ [ [ -69.05854, -18.84138 ], [ -69.05245, -18.82537 ], [ -69.06864, -18.78871 ], [ -69.07371, -18.77855 ], [ -69.04247, -18.77966 ], [ -69.02283, -18.78 ], [ -69.02318, -18.78629 ], [ -69.0172, -18.78663 ], [ -69.01412, -18.78638 ], [ -69.01288, -18.78587 ], [ -69.01165, -18.78638 ], [ -69.01033, -18.78721 ], [ -69.00861, -18.78767 ], [ -69.00762, -18.78763 ], [ -69.0026, -18.78499 ], [ -69.00188, -18.78499 ], [ -69.00126, -18.7847 ], [ -68.99791, -18.78445 ], [ -68.99527, -18.7857 ], [ -68.99303, -18.78935 ], [ -68.98977, -18.8 ], [ -68.98818, -18.80822 ], [ -68.98386, -18.82516 ], [ -68.98298, -18.8281 ], [ -68.98175, -18.82978 ], [ -68.97336, -18.84403 ], [ -68.96948, -18.84982 ], [ -68.96825, -18.85334 ], [ -68.96825, -18.85678 ], [ -68.96855, -18.85771 ], [ -68.96972, -18.86701 ], [ -68.97106, -18.87201 ], [ -68.97166, -18.87314 ], [ -68.97276, -18.87647 ], [ -68.97459, -18.88073 ], [ -68.97487, -18.88263 ], [ -68.97441, -18.88505 ], [ -68.97349, -18.88765 ], [ -68.97109, -18.89121 ], [ -68.96936, -18.89431 ], [ -68.96795, -18.90035 ], [ -68.96628, -18.90521 ], [ -68.96584, -18.90806 ], [ -68.96645, -18.91075 ], [ -68.96804, -18.91477 ], [ -68.96971, -18.91679 ], [ -68.97359, -18.91586 ], [ -68.98654, -18.91327 ], [ -68.99104, -18.91268 ], [ -69.00069, -18.90916 ], [ -69.00315, -18.90756 ], [ -69.00527, -18.90572 ], [ -69.00791, -18.90245 ], [ -69.01144, -18.89934 ], [ -69.01686, -18.89762 ], [ -69.02113, -18.8959 ], [ -69.02333, -18.89578 ], [ -69.02479, -18.89544 ], [ -69.02966, -18.8928 ], [ -69.03455, -18.89112 ], [ -69.03795, -18.88928 ], [ -69.04226, -18.88659 ], [ -69.04464, -18.88617 ], [ -69.04781, -18.8847 ], [ -69.05156, -18.88244 ], [ -69.05653, -18.88055 ], [ -69.06019, -18.87954 ], [ -69.06226, -18.87921 ], [ -69.06504, -18.87845 ], [ -69.06688, -18.87765 ], [ -69.06869, -18.87736 ], [ -69.07105, -18.87651 ], [ -69.05854, -18.84138 ] ] ] } },
{ "type": "Feature", "properties": { "nombre": "Reserva Nacional Las Vicunas", "categoria": "Reserva Nacional", "region": "Arica Y Parinacota", "superficie_ha": "209131", "decreto": "NÂ° 29 de 1983" }, "geometry": { "type": "MultiPolygon", "coordinates": [ [ [ [ -68.97679, -18.72462 ], [ -68.97696, -18.72734 ], [ -68.97656, -18.72962 ], [ -68.97575, -18.73182 ], [ -68.97548, -18.73323 ], [ -68.97565, -18.73537 ], [ -68.97533, -18.73777 ], [ -68.97568, -18.73836 ], [ -68.97698, -18.73855 ], [ -68.97772, -18.73897 ], [ -68.95435, -18.78541 ], [ -68.95833, -18.78524 ], [ -68.96062, -18.78482 ], [ -68.97004, -18.78474 ], [ -68.97471, -18.78449 ], [ -68.9777, -18.78482 ], [ -68.98123, -18.78566 ], [ -68.98757, -18.78591 ], [ -68.98933, -18.78659 ], [ -68.99171, -18.7865 ], [ -68.99527, -18.7857 ], [ -68.99703, -18.78495 ], [ -68.99756, -18.78453 ], [ -68.99835, -18.78445 ], [ -69.00126, -18.7847 ], [ -69.00188, -18.78499 ], [ -69.0026, -18.78499 ], [ -69.00762, -18.78763 ], [ -69.00861, -18.78767 ], [ -69.01033, -18.78721 ], [ -69.01165, -18.78638 ], [ -69.01288, -18.78587 ], [ -69.01412, -18.78638 ], [ -69.0172, -18.78663 ], [ -69.02318, -18.78629 ], [ -69.02283, -18.78 ], [ -69.04247, -18.77966 ], [ -69.07371, -18.77855 ], [ -69.09988, -18.77851 ], [ -69.09396, -18.77433 ], [ -69.05401, -18.75154 ], [ -69.01193, -18.73259 ], [ -68.97752, -18.72086 ], [ -68.97679, -18.72462 ] ] ], [ [ [ -69.10166, -18.77985 ], [ -69.10228, -18.78153 ], [ -69.10237, -18.78519 ], [ -69.10197, -18.78712 ], [ -69.10202, -18.78897 ], [ -69.10167, -18.79388 ], [ -69.10251, -18.79744 ], [ -69.1026, -18.7987 ], [ -69.10207, -18.801 ], [ -69.10207, -18.8023 ], [ -69.10233, -18.80365 ], [ -69.1033, -18.80566 ], [ -69.10577, -18.80842 ], [ -69.11055, -18.81196 ], [ -69.11482, -18.81439 ], [ -69.12046, -18.81812 ], [ -69.12302, -18.81917 ], [ -69.12394, -18.82009 ], [ -69.12483, -18.8221 ], [ -69.12857, -18.82768 ], [ -69.13007, -18.82914 ], [ -69.13131, -18.83078 ], [ -69.1332, -18.83384 ], [ -69.13541, -18.83795 ], [ -69.13717, -18.84147 ], [ -69.13778, -18.84356 ], [ -69.13818, -18.84763 ], [ -69.13704, -18.8504 ], [ -69.13589, -18.85212 ], [ -69.13259, -18.8585 ], [ -69.13237, -18.85858 ], [ -69.13101, -18.86021 ], [ -69.12687, -18.86343 ], [ -69.12001, -18.86536 ], [ -69.10963, -18.86859 ], [ -69.0967, -18.87132 ], [ -69.09618, -18.87173 ], [ -69.09437, -18.87211 ], [ -69.08979, -18.87244 ], [ -69.08028, -18.87509 ], [ -69.07843, -18.8753 ], [ -69.07677, -18.87517 ], [ -69.07378, -18.87559 ], [ -69.06869, -18.87736 ], [ -69.06688, -18.87765 ], [ -69.06504, -18.87845 ], [ -69.06226, -18.87921 ], [ -69.06019, -18.87954 ], [ -69.05653, -18.88055 ], [ -69.05156, -18.88244 ], [ -69.04781, -18.8847 ], [ -69.04464, -18.88617 ], [ -69.04226, -18.88659 ], [ -69.03795, -18.88928 ], [ -69.03455, -18.89112 ], [ -69.02966, -18.8928 ], [ -69.02479, -18.89544 ], [ -69.02333, -18.89578 ], [ -69.02113, -18.8959 ], [ -69.01477, -18.89831 ], [ -69.01526, -18.91091 ], [ -69.01509, -18.91664 ], [ -69.0142, -18.92231 ], [ -69.01528, -18.9237 ], [ -69.01781, -18.92593 ], [ -69.01945, -18.92833 ], [ -69.02081, -18.93248 ], [ -69.02187, -18.93518 ], [ -69.02307, -18.93608 ], [ -69.02433, -18.93676 ], [ -69.02539, -18.93845 ], [ -69.02376, -18.94377 ], [ -69.02318, -18.94515 ], [ -69.02307, -18.94631 ], [ -69.02281, -18.94656 ], [ -69.02281, -18.94694 ], [ -69.02131, -18.94845 ], [ -69.01911, -18.95004 ], [ -69.02061, -18.9539 ], [ -69.0207, -18.95482 ], [ -69.02017, -18.95583 ], [ -69.01788, -18.95767 ], [ -69.014, -18.96002 ], [ -69.01259, -18.96262 ], [ -69.01144, -18.96547 ], [ -69.00906, -18.96899 ], [ -69.00818, -18.96975 ], [ -69.00527, -18.97084 ], [ -69.00439, -18.97159 ], [ -69.00254, -18.97243 ], [ -69.0021, -18.97319 ], [ -69.00227, -18.97369 ], [ -69.00307, -18.97461 ], [ -69.00739, -18.97847 ], [ -69.00871, -18.9799 ], [ -69.00963, -18.98031 ], [ -69.01021, -18.98086 ], [ -69.0114, -18.98153 ], [ -69.01546, -18.98171 ], [ -69.01717, -18.9825 ], [ -69.02802, -18.98442 ], [ -69.03884, -18.98719 ], [ -69.04351, -18.98861 ], [ -69.0481, -18.98945 ], [ -69.05092, -18.99021 ], [ -69.06582, -18.99087 ], [ -69.07375, -18.99179 ], [ -69.08125, -18.99237 ], [ -69.08654, -18.99237 ], [ -69.09094, -18.99262 ], [ -69.09465, -18.99296 ], [ -69.09773, -18.99404 ], [ -69.10126, -18.99396 ], [ -69.10567, -18.99337 ], [ -69.10849, -18.99161 ], [ -69.10963, -18.99026 ], [ -69.11122, -18.98808 ], [ -69.11342, -18.98422 ], [ -69.11483, -18.98263 ], [ -69.11641, -18.98011 ], [ -69.11673, -18.97518 ], [ -69.11615, -18.97248 ], [ -69.11531, -18.97088 ], [ -69.11552, -18.96943 ], [ -69.11685, -18.96778 ], [ -69.11773, -18.96619 ], [ -69.11834, -18.96443 ], [ -69.11905, -18.96132 ], [ -69.12169, -18.95814 ], [ -69.12953, -18.9531 ], [ -69.13041, -18.95276 ], [ -69.13376, -18.95209 ], [ -69.13763, -18.94798 ], [ -69.13913, -18.94663 ], [ -69.1401, -18.94546 ], [ -69.14036, -18.94462 ], [ -69.14036, -18.94319 ], [ -69.13992, -18.93984 ], [ -69.14036, -18.93749 ], [ -69.14053, -18.93456 ], [ -69.14141, -18.93347 ], [ -69.14476, -18.93195 ], [ -69.14661, -18.93069 ], [ -69.1474, -18.9296 ], [ -69.14819, -18.92792 ], [ -69.14837, -18.92667 ], [ -69.14793, -18.92482 ], [ -69.14775, -18.92096 ], [ -69.14827, -18.91878 ], [ -69.14915, -18.91602 ], [ -69.15091, -18.91232 ], [ -69.15513, -18.90561 ], [ -69.15938, -18.89663 ], [ -69.15981, -18.89286 ], [ -69.15981, -18.89085 ], [ -69.16051, -18.88841 ], [ -69.16765, -18.88296 ], [ -69.1687, -18.88178 ], [ -69.16923, -18.88077 ], [ -69.16984, -18.87759 ], [ -69.17407, -18.87247 ], [ -69.17512, -18.87154 ], [ -69.17618, -18.87121 ], [ -69.17812, -18.8723 ], [ -69.18004, -18.87364 ], [ -69.18101, -18.87397 ], [ -69.18259, -18.87514 ], [ -69.18418, -18.8759 ], [ -69.18585, -18.87589 ], [ -69.18744, -18.87581 ], [ -69.19369, -18.87488 ], [ -69.19616, -18.87354 ], [ -69.19915, -18.87286 ], [ -69.20039, -18.87269 ], [ -69.20471, -18.87289 ], [ -69.19722, -18.8633 ], [ -69.1659, -18.83047 ], [ -69.13137, -18.80072 ], [ -69.10167, -18.77977 ], [ -69.10166, -18.77985 ] ] ] ] } }
]
}
