{
"type": "FeatureCollection",
"name": "LDM",
"crs": { "type": "name", "properties": { "name": "urn:ogc:def:crs:OGC:1.3:CRS84" } },
"xy_coordinate_resolution": 1e-05,
"features": [
{ "type": "Feature", "properties": { "nombre": "Reserva Nacional Los Bellotos Del Melado", "categoria": "Reserva Nacional", "region": "Maule", "superficie_ha": "717", "decreto": "NÂ° 18 de 1995; NÂ° 43 de 2016" }, "geometry": { "type": "MultiPolygon", "coordinates": [ [ [ [ -71.11831, -35.90171 ], [ -71.1182, -35.90517 ], [ -71.12124, -35.91047 ], [ -71.12112, -35.91587 ], [ -71.11739, -35.92178 ], [ -71.12039, -35.92253 ], [ -71.12145, -35.91994 ], [ -71.12338, -35.91811 ], [ -71.12581, -35.91257 ], [ -71.12439, -35.91102 ], [ -71.12287, -35.90874 ], [ -71.12202, -35.90603 ], [ -71.12228, -35.90448 ], [ -71.12211, -35.90252 ], [ -71.12418, -35.90029 ], [ -71.12437, -35.89892 ], [ -71.12406, -35.8968 ], [ -71.12477, -35.89531 ], [ -71.12458, -35.89355 ], [ -71.12352, -35.89188 ], [ -71.12173, -35.89078 ], [ -71.12065, -35.8892 ], [ -71.11862, -35.88773 ], [ -71.1175, -35.88517 ], [ -71.11736, -35.88391 ], [ -71.1175, -35.88159 ], [ -71.11813, -35.8807 ], [ -71.11847, -35.87892 ], [ -71.11774, -35.87635 ], [ -71.11711, -35.87527 ], [ -71.11706, -35.87456 ], [ -71.11863, -35.87378 ], [ -71.11893, -35.87339 ], [ -71.11929, -35.87097 ], [ -71.11811, -35.87071 ], [ -71.11789, -35.87028 ], [ -71.11452, -35.86925 ], [ -71.11402, -35.86951 ], [ -71.11327, -35.86953 ], [ -71.10884, -35.86833 ], [ -71.10789, -35.86845 ], [ -71.10484, -35.86822 ], [ -71.10397, -35.86755 ], [ -71.09919, -35.86574 ], [ -71.09794, -35.86565 ], [ -71.09497, -35.86626 ], [ -71.09614, -35.86662 ], [ -71.09732, -35.86736 ], [ -71.10146, -35.87071 ], [ -71.10796, -35.87251 ], [ -71.10989, -35.87396 ], [ -71.11511, -35.8887 ], [ -71.1204, -35.89441 ], [ -71.12014, -35.89712 ], [ -71.11831, -35.90171 ] ] ], [ [ [ -71.1143, -35.85428 ], [ -71.11364, -35.85364 ], [ -71.1126, -35.8535 ], [ -71.10841, -35.85092 ], [ -71.10683, -35.84619 ], [ -71.10715, -35.8443 ], [ -71.10534, -35.84355 ], [ -71.1049, -35.84353 ], [ -71.10423, -35.84392 ], [ -71.10331, -35.84399 ], [ -71.10187, -35.84329 ], [ -71.10121, -35.84276 ], [ -71.10095, -35.84221 ], [ -71.10036, -35.84188 ], [ -71.09842, -35.842 ], [ -71.09772, -35.84246 ], [ -71.09643, -35.84289 ], [ -71.09491, -35.84413 ], [ -71.09297, -35.84674 ], [ -71.09159, -35.84671 ], [ -71.08965, -35.84713 ], [ -71.08853, -35.84763 ], [ -71.08812, -35.848 ], [ -71.08827, -35.85122 ], [ -71.088, -35.8517 ], [ -71.0877, -35.85188 ], [ -71.09059, -35.85748 ], [ -71.09254, -35.86002 ], [ -71.09309, -35.86007 ], [ -71.0935, -35.86056 ], [ -71.0945, -35.8608 ], [ -71.09564, -35.8607 ], [ -71.09619, -35.86114 ], [ -71.09707, -35.86248 ], [ -71.09834, -35.86301 ], [ -71.09961, -35.86315 ], [ -71.10159, -35.86376 ], [ -71.10578, -35.86408 ], [ -71.10689, -35.8647 ], [ -71.11199, -35.86508 ], [ -71.11353, -35.86475 ], [ -71.11555, -35.86355 ], [ -71.11653, -35.86249 ], [ -71.11663, -35.86203 ], [ -71.11626, -35.86172 ], [ -71.11728, -35.85987 ], [ -71.11476, -35.85451 ], [ -71.1143, -35.85428 ] ] ] ] } }
]
}
