{
"type": "FeatureCollection",
"name": "LLA",
"crs": { "type": "name", "properties": { "name": "urn:ogc:def:crs:OGC:1.3:CRS84" } },
"xy_coordinate_resolution": 1e-05,
"features": [
{ "type": "Feature", "properties": { "nombre": "Reserva Nacional Villarrica", "categoria": "Reserva Nacional", "region": "Araucania", "superficie_ha": "61352", "decreto": "NÂ° 378 de 1925; NÂ° 8129 de 1929; NÂ° 1722 de 1912" }, "geometry": { "type": "MultiPolygon", "coordinates": [ [ [ [ -71.55043, -39.04497 ], [ -71.55163, -39.04449 ], [ -71.55427, -39.04247 ], [ -71.55441, -39.04066 ], [ -71.55408, -39.03809 ], [ -71.55426, -39.03712 ], [ -71.55487, -39.0364 ], [ -71.55808, -39.03611 ], [ -71.56024, -39.0354 ], [ -71.56137, -39.03406 ], [ -71.56193, -39.03211 ], [ -71.56235, -39.03143 ], [ -71.56365, -39.02996 ], [ -71.56349, -39.02819 ], [ -71.56224, -39.02628 ], [ -71.55739, -39.02201 ], [ -71.55718, -39.02119 ], [ -71.55756, -39.0199 ], [ -71.55869, -39.01808 ], [ -71.55953, -39.01337 ], [ -71.55988, -39.01293 ], [ -71.56198, -39.012 ], [ -71.56305, -39.01114 ], [ -71.56333, -39.01072 ], [ -71.56345, -39.00995 ], [ -71.56397, -39.00853 ], [ -71.56383, -39.00767 ], [ -71.56348, -39.00719 ], [ -71.56142, -39.00637 ], [ -71.56066, -39.00566 ], [ -71.56034, -39.00413 ], [ -71.56047, -39.00287 ], [ -71.55665, -39.00246 ], [ -71.55561, -39.00208 ], [ -71.55448, -39.00189 ], [ -71.55256, -39.00208 ], [ -71.55026, -39.00274 ], [ -71.54808, -39.0031 ], [ -71.54474, -39.00358 ], [ -71.54252, -39.00363 ], [ -71.53797, -39.00249 ], [ -71.53499, -39.00244 ], [ -71.5327, -39.00202 ], [ -71.53154, -39.00155 ], [ -71.52997, -39.00054 ], [ -71.52712, -38.99836 ], [ -71.52634, -38.99737 ], [ -71.52591, -38.99626 ], [ -71.52527, -38.99357 ], [ -71.52438, -38.9922 ], [ -71.52342, -38.99183 ], [ -71.52293, -38.99188 ], [ -71.52088, -38.99273 ], [ -71.51975, -38.99291 ], [ -71.51796, -38.99268 ], [ -71.51698, -38.99213 ], [ -71.5149, -38.9917 ], [ -71.51383, -38.9917 ], [ -71.51257, -38.99117 ], [ -71.51118, -38.98936 ], [ -71.51063, -38.9889 ], [ -71.50773, -38.9883 ], [ -71.50505, -38.98724 ], [ -71.50249, -38.98724 ], [ -71.50164, -38.9864 ], [ -71.50033, -38.98462 ], [ -71.49901, -38.98062 ], [ -71.49812, -38.97955 ], [ -71.49679, -38.97825 ], [ -71.49621, -38.97787 ], [ -71.49361, -38.97673 ], [ -71.49109, -38.97517 ], [ -71.48783, -38.97393 ], [ -71.48654, -38.97371 ], [ -71.48476, -38.97374 ], [ -71.48415, -38.9739 ], [ -71.48236, -38.97486 ], [ -71.48035, -38.97534 ], [ -71.47923, -38.97536 ], [ -71.47751, -38.9746 ], [ -71.47286, -38.9718 ], [ -71.47144, -38.97139 ], [ -71.46891, -38.97144 ], [ -71.4629, -38.97289 ], [ -71.45856, -38.97357 ], [ -71.45617, -38.97365 ], [ -71.45061, -38.97313 ], [ -71.44681, -38.97362 ], [ -71.44523, -38.97402 ], [ -71.4442, -38.97461 ], [ -71.4412, -38.97731 ], [ -71.44146, -38.97753 ], [ -71.44132, -38.97967 ], [ -71.44167, -38.98044 ], [ -71.44169, -38.98124 ], [ -71.44147, -38.9815 ], [ -71.4398, -38.98191 ], [ -71.43928, -38.9822 ], [ -71.43734, -38.98393 ], [ -71.43688, -38.98511 ], [ -71.43577, -38.9861 ], [ -71.43535, -38.98759 ], [ -71.43354, -38.98846 ], [ -71.43112, -38.99101 ], [ -71.43061, -38.99133 ], [ -71.42903, -38.99188 ], [ -71.42872, -38.99236 ], [ -71.42869, -38.99301 ], [ -71.42941, -38.9953 ], [ -71.42953, -38.99623 ], [ -71.42932, -38.99768 ], [ -71.42731, -39.00021 ], [ -71.42781, -39.00086 ], [ -71.42577, -39.00258 ], [ -71.42118, -39.00389 ], [ -71.41862, -39.00567 ], [ -71.41528, -39.00677 ], [ -71.41485, -39.00701 ], [ -71.41383, -39.0082 ], [ -71.41351, -39.00956 ], [ -71.41367, -39.01013 ], [ -71.41554, -39.01217 ], [ -71.41559, -39.01375 ], [ -71.41617, -39.01458 ], [ -71.41624, -39.01564 ], [ -71.41648, -39.01593 ], [ -71.41733, -39.01628 ], [ -71.41739, -39.01672 ], [ -71.41771, -39.01712 ], [ -71.41909, -39.01833 ], [ -71.42119, -39.02055 ], [ -71.42134, -39.02279 ], [ -71.422, -39.02518 ], [ -71.42197, -39.0259 ], [ -71.42157, -39.02615 ], [ -71.41897, -39.02663 ], [ -71.41696, -39.02733 ], [ -71.41482, -39.0289 ], [ -71.41309, -39.03091 ], [ -71.41177, -39.03194 ], [ -71.4078, -39.03373 ], [ -71.40639, -39.03413 ], [ -71.40555, -39.03478 ], [ -71.4045, -39.03495 ], [ -71.40278, -39.03593 ], [ -71.40093, -39.03774 ], [ -71.40061, -39.03829 ], [ -71.39999, -39.03961 ], [ -71.39988, -39.04062 ], [ -71.39956, -39.04159 ], [ -71.39811, -39.04509 ], [ -71.3979, -39.0453 ], [ -71.39637, -39.04574 ], [ -71.39639, -39.04599 ], [ -71.39664, -39.04622 ], [ -71.39802, -39.04648 ], [ -71.39878, -39.0468 ], [ -71.39994, -39.04679 ], [ -71.40043, -39.04715 ], [ -71.40207, -39.04777 ], [ -71.40335, -39.04879 ], [ -71.40406, -39.04972 ], [ -71.40779, -39.05184 ], [ -71.40865, -39.05377 ], [ -71.40968, -39.05506 ], [ -71.40895, -39.05702 ], [ -71.40896, -39.05818 ], [ -71.41031, -39.05851 ], [ -71.41124, -39.05893 ], [ -71.41238, -39.06006 ], [ -71.41278, -39.06109 ], [ -71.41461, -39.06299 ], [ -71.41512, -39.06442 ], [ -71.41534, -39.06598 ], [ -71.4159, -39.06712 ], [ -71.42359, -39.07133 ], [ -71.44716, -39.08168 ], [ -71.45106, -39.07358 ], [ -71.4537, -39.07423 ], [ -71.46167, -39.05418 ], [ -71.46151, -39.03992 ], [ -71.46996, -39.04101 ], [ -71.46994, -39.04014 ], [ -71.46966, -39.03985 ], [ -71.46983, -39.03923 ], [ -71.46977, -39.03796 ], [ -71.46961, -39.03779 ], [ -71.47803, -39.03848 ], [ -71.48999, -39.05666 ], [ -71.49193, -39.05902 ], [ -71.49668, -39.05528 ], [ -71.50032, -39.05296 ], [ -71.50141, -39.05448 ], [ -71.50291, -39.05582 ], [ -71.5058, -39.05533 ], [ -71.50557, -39.05464 ], [ -71.50574, -39.05296 ], [ -71.50685, -39.05224 ], [ -71.50672, -39.05139 ], [ -71.50593, -39.05069 ], [ -71.50587, -39.05032 ], [ -71.5069, -39.04809 ], [ -71.50684, -39.04752 ], [ -71.5052, -39.0453 ], [ -71.50434, -39.04302 ], [ -71.50291, -39.04122 ], [ -71.50234, -39.03988 ], [ -71.50631, -39.03892 ], [ -71.50826, -39.03814 ], [ -71.50923, -39.03795 ], [ -71.51916, -39.03274 ], [ -71.52255, -39.0332 ], [ -71.52334, -39.03509 ], [ -71.52474, -39.03528 ], [ -71.52368, -39.04295 ], [ -71.5276, -39.04354 ], [ -71.53981, -39.04373 ], [ -71.5397, -39.04403 ], [ -71.53986, -39.04428 ], [ -71.53965, -39.04473 ], [ -71.54018, -39.0455 ], [ -71.53963, -39.04584 ], [ -71.53948, -39.04661 ], [ -71.53801, -39.04741 ], [ -71.53704, -39.04886 ], [ -71.54436, -39.05105 ], [ -71.5448, -39.04958 ], [ -71.54553, -39.04563 ], [ -71.5463, -39.04509 ], [ -71.55043, -39.04497 ] ] ], [ [ [ -71.44897, -39.08221 ], [ -71.44731, -39.08174 ], [ -71.44889, -39.08244 ], [ -71.44897, -39.08221 ] ] ] ] } },
{ "type": "Feature", "properties": { "nombre": "Parque Nacional Huerquehue", "categoria": "Parque Nacional", "region": "Araucania", "superficie_ha": "12500", "decreto": "NÂ° 347 de 1967; NÂ° 82 de 1985" }, "geometry": { "type": "Polygon", "coordinates": [ [ [ -71.66617, -39.06563 ], [ -71.65713, -39.06948 ], [ -71.65572, -39.07046 ], [ -71.65384, -39.07343 ], [ -71.6449, -39.07375 ], [ -71.63811, -39.0821 ], [ -71.63104, -39.08487 ], [ -71.62387, -39.10125 ], [ -71.64593, -39.10865 ], [ -71.64274, -39.11786 ], [ -71.62589, -39.11363 ], [ -71.60729, -39.11506 ], [ -71.59302, -39.11633 ], [ -71.56966, -39.12026 ], [ -71.56952, -39.12214 ], [ -71.57883, -39.12451 ], [ -71.63424, -39.13402 ], [ -71.69058, -39.13921 ], [ -71.74354, -39.14 ], [ -71.74227, -39.1284 ], [ -71.74389, -39.12682 ], [ -71.73599, -39.11448 ], [ -71.72062, -39.11484 ], [ -71.71022, -39.11526 ], [ -71.69761, -39.1155 ], [ -71.69303, -39.11578 ], [ -71.68675, -39.11569 ], [ -71.6859, -39.11559 ], [ -71.68543, -39.11536 ], [ -71.68415, -39.10579 ], [ -71.68903, -39.09727 ], [ -71.69163, -39.0993 ], [ -71.6941, -39.10186 ], [ -71.6958, -39.10224 ], [ -71.69788, -39.10312 ], [ -71.70745, -39.10483 ], [ -71.71529, -39.10173 ], [ -71.71867, -39.1001 ], [ -71.72139, -39.09914 ], [ -71.72319, -39.09821 ], [ -71.72804, -39.09291 ], [ -71.71974, -39.08416 ], [ -71.71886, -39.08375 ], [ -71.71886, -39.08344 ], [ -71.70674, -39.07808 ], [ -71.69153, -39.07056 ], [ -71.68266, -39.06654 ], [ -71.6718, -39.06303 ], [ -71.66617, -39.06563 ] ] ] } },
{ "type": "Feature", "properties": { "nombre": "Reserva Nacional China Muerta", "categoria": "Reserva Nacional", "region": "Araucania", "superficie_ha": "9887", "decreto": "NÂ° 330 de 1968" }, "geometry": { "type": "MultiPolygon", "coordinates": [ [ [ [ -71.46546, -38.82859 ], [ -71.46608, -38.82816 ], [ -71.46593, -38.82825 ], [ -71.46546, -38.82859 ] ] ], [ [ [ -71.58854, -38.78546 ], [ -71.58987, -38.78312 ], [ -71.5907, -38.78233 ], [ -71.59109, -38.78169 ], [ -71.59162, -38.78139 ], [ -71.59332, -38.7815 ], [ -71.59453, -38.78255 ], [ -71.59631, -38.78377 ], [ -71.59925, -38.78466 ], [ -71.60139, -38.78675 ], [ -71.60271, -38.78729 ], [ -71.6052, -38.78708 ], [ -71.60688, -38.78743 ], [ -71.60855, -38.78658 ], [ -71.61026, -38.78654 ], [ -71.61121, -38.78524 ], [ -71.61206, -38.78486 ], [ -71.61218, -38.78439 ], [ -71.61245, -38.78428 ], [ -71.61706, -38.784 ], [ -71.61405, -38.78291 ], [ -71.61369, -38.78255 ], [ -71.61292, -38.78226 ], [ -71.60954, -38.77924 ], [ -71.59355, -38.76885 ], [ -71.59325, -38.76805 ], [ -71.59118, -38.76781 ], [ -71.58752, -38.76827 ], [ -71.58549, -38.76811 ], [ -71.58373, -38.76841 ], [ -71.58007, -38.76818 ], [ -71.57894, -38.76832 ], [ -71.57489, -38.76937 ], [ -71.57106, -38.77211 ], [ -71.56958, -38.77289 ], [ -71.56793, -38.77335 ], [ -71.56419, -38.77647 ], [ -71.5631, -38.77698 ], [ -71.56024, -38.77916 ], [ -71.5566, -38.78079 ], [ -71.55655, -38.77982 ], [ -71.54063, -38.7857 ], [ -71.53288, -38.78784 ], [ -71.5208, -38.79082 ], [ -71.51017, -38.79081 ], [ -71.509, -38.78714 ], [ -71.51355, -38.78632 ], [ -71.51431, -38.7859 ], [ -71.51492, -38.78499 ], [ -71.51548, -38.78455 ], [ -71.51641, -38.78468 ], [ -71.51766, -38.78397 ], [ -71.51855, -38.78388 ], [ -71.51949, -38.7835 ], [ -71.52321, -38.78353 ], [ -71.52109, -38.78113 ], [ -71.52023, -38.77993 ], [ -71.51957, -38.77936 ], [ -71.51723, -38.77663 ], [ -71.51447, -38.77421 ], [ -71.51508, -38.7734 ], [ -71.51716, -38.77154 ], [ -71.51784, -38.76961 ], [ -71.51983, -38.7683 ], [ -71.5215, -38.7667 ], [ -71.5183, -38.76452 ], [ -71.51417, -38.76329 ], [ -71.51043, -38.75426 ], [ -71.50997, -38.75347 ], [ -71.50476, -38.75611 ], [ -71.50388, -38.75667 ], [ -71.50247, -38.75789 ], [ -71.50174, -38.75796 ], [ -71.50068, -38.75838 ], [ -71.49512, -38.76187 ], [ -71.49263, -38.76253 ], [ -71.491, -38.76241 ], [ -71.49015, -38.76196 ], [ -71.48973, -38.76161 ], [ -71.48762, -38.75839 ], [ -71.48645, -38.75756 ], [ -71.48569, -38.75744 ], [ -71.4826, -38.75757 ], [ -71.47981, -38.75738 ], [ -71.47901, -38.75755 ], [ -71.47815, -38.75797 ], [ -71.47787, -38.75839 ], [ -71.47754, -38.76172 ], [ -71.47641, -38.76437 ], [ -71.47652, -38.76598 ], [ -71.4773, -38.76669 ], [ -71.4777, -38.76728 ], [ -71.47787, -38.76787 ], [ -71.47781, -38.76852 ], [ -71.47749, -38.76924 ], [ -71.47646, -38.77021 ], [ -71.47549, -38.77064 ], [ -71.47267, -38.77101 ], [ -71.46938, -38.77236 ], [ -71.46849, -38.77287 ], [ -71.46718, -38.77387 ], [ -71.4667, -38.77457 ], [ -71.46636, -38.77587 ], [ -71.46566, -38.77673 ], [ -71.46311, -38.77832 ], [ -71.46128, -38.77919 ], [ -71.45971, -38.77959 ], [ -71.45816, -38.77971 ], [ -71.45148, -38.77991 ], [ -71.44947, -38.77971 ], [ -71.44856, -38.78001 ], [ -71.44751, -38.78082 ], [ -71.44628, -38.78102 ], [ -71.44452, -38.78192 ], [ -71.44279, -38.78194 ], [ -71.44174, -38.78147 ], [ -71.44051, -38.78196 ], [ -71.44034, -38.78298 ], [ -71.44212, -38.78453 ], [ -71.44209, -38.78511 ], [ -71.44252, -38.78612 ], [ -71.44241, -38.78744 ], [ -71.4421, -38.78824 ], [ -71.44228, -38.78969 ], [ -71.44171, -38.79157 ], [ -71.44174, -38.7925 ], [ -71.44107, -38.7994 ], [ -71.44266, -38.79938 ], [ -71.44419, -38.79901 ], [ -71.4452, -38.80004 ], [ -71.43703, -38.80889 ], [ -71.43651, -38.80957 ], [ -71.43517, -38.81225 ], [ -71.43346, -38.81597 ], [ -71.43497, -38.81691 ], [ -71.43509, -38.81715 ], [ -71.43553, -38.81728 ], [ -71.43516, -38.81773 ], [ -71.43495, -38.81949 ], [ -71.43497, -38.82386 ], [ -71.43489, -38.82412 ], [ -71.43305, -38.82614 ], [ -71.43629, -38.8282 ], [ -71.43974, -38.8291 ], [ -71.44059, -38.82953 ], [ -71.44202, -38.8299 ], [ -71.44381, -38.82986 ], [ -71.44571, -38.83014 ], [ -71.44647, -38.83061 ], [ -71.44743, -38.83074 ], [ -71.44798, -38.83099 ], [ -71.44954, -38.83117 ], [ -71.45209, -38.83084 ], [ -71.4534, -38.831 ], [ -71.45675, -38.83032 ], [ -71.46092, -38.83024 ], [ -71.46239, -38.8304 ], [ -71.46228, -38.83284 ], [ -71.46286, -38.83287 ], [ -71.4634, -38.83286 ], [ -71.46332, -38.83229 ], [ -71.46397, -38.83123 ], [ -71.46402, -38.83077 ], [ -71.46352, -38.8297 ], [ -71.4636, -38.82919 ], [ -71.46502, -38.82875 ], [ -71.46593, -38.82825 ], [ -71.46596, -38.82822 ], [ -71.46608, -38.82816 ], [ -71.46661, -38.82795 ], [ -71.46715, -38.8275 ], [ -71.46739, -38.82751 ], [ -71.46886, -38.82803 ], [ -71.46949, -38.82795 ], [ -71.47675, -38.83172 ], [ -71.47689, -38.83207 ], [ -71.47766, -38.83252 ], [ -71.47849, -38.83167 ], [ -71.48021, -38.82934 ], [ -71.48229, -38.8271 ], [ -71.48245, -38.82615 ], [ -71.48396, -38.82399 ], [ -71.48399, -38.82342 ], [ -71.48426, -38.82279 ], [ -71.48425, -38.82266 ], [ -71.48372, -38.82249 ], [ -71.4833, -38.82192 ], [ -71.48181, -38.81958 ], [ -71.48131, -38.81853 ], [ -71.48087, -38.81691 ], [ -71.48107, -38.81566 ], [ -71.48404, -38.81389 ], [ -71.49429, -38.80934 ], [ -71.49417, -38.80716 ], [ -71.49502, -38.80187 ], [ -71.49608, -38.80088 ], [ -71.49806, -38.80024 ], [ -71.50483, -38.80005 ], [ -71.51068, -38.79778 ], [ -71.51214, -38.79739 ], [ -71.51422, -38.79835 ], [ -71.51543, -38.80667 ], [ -71.52344, -38.81699 ], [ -71.51693, -38.81917 ], [ -71.50658, -38.82078 ], [ -71.50626, -38.82072 ], [ -71.50594, -38.81971 ], [ -71.50545, -38.81913 ], [ -71.50512, -38.8189 ], [ -71.50413, -38.8188 ], [ -71.50281, -38.8196 ], [ -71.50217, -38.82038 ], [ -71.50118, -38.82076 ], [ -71.49594, -38.82877 ], [ -71.49456, -38.83273 ], [ -71.49439, -38.83402 ], [ -71.49214, -38.83367 ], [ -71.49091, -38.83326 ], [ -71.49027, -38.83329 ], [ -71.48905, -38.83477 ], [ -71.48855, -38.83563 ], [ -71.48817, -38.8368 ], [ -71.48829, -38.83782 ], [ -71.487, -38.83747 ], [ -71.48678, -38.84046 ], [ -71.48712, -38.84043 ], [ -71.48711, -38.84125 ], [ -71.48751, -38.84257 ], [ -71.49477, -38.83887 ], [ -71.49514, -38.83889 ], [ -71.49589, -38.83929 ], [ -71.4991, -38.84126 ], [ -71.49954, -38.8413 ], [ -71.51506, -38.83787 ], [ -71.51506, -38.8375 ], [ -71.51424, -38.83588 ], [ -71.51304, -38.83397 ], [ -71.51312, -38.83203 ], [ -71.51289, -38.83087 ], [ -71.51392, -38.8257 ], [ -71.51698, -38.82056 ], [ -71.52779, -38.82365 ], [ -71.52737, -38.82707 ], [ -71.52742, -38.82892 ], [ -71.52757, -38.8294 ], [ -71.52897, -38.83104 ], [ -71.52794, -38.83189 ], [ -71.52617, -38.83393 ], [ -71.52476, -38.83501 ], [ -71.52401, -38.83589 ], [ -71.52457, -38.83592 ], [ -71.52869, -38.83524 ], [ -71.53058, -38.84175 ], [ -71.53416, -38.84116 ], [ -71.53222, -38.83464 ], [ -71.53595, -38.83405 ], [ -71.53651, -38.83384 ], [ -71.53661, -38.83337 ], [ -71.53682, -38.83323 ], [ -71.54161, -38.83243 ], [ -71.54268, -38.83357 ], [ -71.54463, -38.8347 ], [ -71.54526, -38.83633 ], [ -71.55361, -38.83503 ], [ -71.55305, -38.83284 ], [ -71.55299, -38.83175 ], [ -71.55389, -38.82993 ], [ -71.55595, -38.82818 ], [ -71.55779, -38.82943 ], [ -71.55821, -38.82941 ], [ -71.55833, -38.82894 ], [ -71.55894, -38.82903 ], [ -71.5594, -38.82956 ], [ -71.55963, -38.83021 ], [ -71.55986, -38.83092 ], [ -71.55949, -38.83153 ], [ -71.55921, -38.83253 ], [ -71.55953, -38.83574 ], [ -71.55905, -38.83699 ], [ -71.56552, -38.83396 ], [ -71.56788, -38.83422 ], [ -71.56938, -38.83386 ], [ -71.56954, -38.83343 ], [ -71.56951, -38.83205 ], [ -71.56894, -38.83055 ], [ -71.56844, -38.82994 ], [ -71.57582, -38.82784 ], [ -71.57746, -38.8275 ], [ -71.57802, -38.82915 ], [ -71.57838, -38.82915 ], [ -71.59949, -38.82612 ], [ -71.60076, -38.82528 ], [ -71.60181, -38.82434 ], [ -71.60135, -38.82402 ], [ -71.6045, -38.82057 ], [ -71.60725, -38.81789 ], [ -71.6105, -38.8166 ], [ -71.6117, -38.81678 ], [ -71.61254, -38.81656 ], [ -71.61377, -38.81734 ], [ -71.61454, -38.8176 ], [ -71.61828, -38.81589 ], [ -71.62126, -38.81438 ], [ -71.62157, -38.81409 ], [ -71.62039, -38.81252 ], [ -71.6196, -38.81225 ], [ -71.61844, -38.8114 ], [ -71.61756, -38.80998 ], [ -71.61592, -38.80948 ], [ -71.61515, -38.80946 ], [ -71.61389, -38.80979 ], [ -71.61217, -38.81077 ], [ -71.60929, -38.81088 ], [ -71.60533, -38.81127 ], [ -71.60375, -38.81125 ], [ -71.60268, -38.8108 ], [ -71.60199, -38.8108 ], [ -71.60035, -38.81116 ], [ -71.59928, -38.81197 ], [ -71.59743, -38.81291 ], [ -71.59664, -38.81313 ], [ -71.59424, -38.81331 ], [ -71.59193, -38.81323 ], [ -71.58875, -38.81357 ], [ -71.5873, -38.81352 ], [ -71.58703, -38.81338 ], [ -71.58539, -38.81092 ], [ -71.58511, -38.81076 ], [ -71.58274, -38.81056 ], [ -71.58171, -38.80898 ], [ -71.58431, -38.80677 ], [ -71.58479, -38.80561 ], [ -71.58515, -38.80397 ], [ -71.58456, -38.80191 ], [ -71.58393, -38.80052 ], [ -71.58383, -38.7974 ], [ -71.58372, -38.79714 ], [ -71.58024, -38.79566 ], [ -71.57888, -38.79474 ], [ -71.57839, -38.79421 ], [ -71.5782, -38.79372 ], [ -71.57832, -38.79287 ], [ -71.57907, -38.7919 ], [ -71.5792, -38.79148 ], [ -71.57895, -38.79077 ], [ -71.57824, -38.7902 ], [ -71.57802, -38.78895 ], [ -71.5794, -38.78697 ], [ -71.57962, -38.78656 ], [ -71.58011, -38.78558 ], [ -71.58276, -38.78592 ], [ -71.58355, -38.78584 ], [ -71.58493, -38.78541 ], [ -71.58854, -38.78546 ] ], [ [ -71.57977, -38.78625 ], [ -71.57985, -38.78574 ], [ -71.58011, -38.78558 ], [ -71.57977, -38.78625 ] ] ], [ [ [ -71.53873, -38.76117 ], [ -71.53856, -38.75835 ], [ -71.53642, -38.75656 ], [ -71.53557, -38.75614 ], [ -71.53245, -38.75532 ], [ -71.51992, -38.74645 ], [ -71.52463, -38.76091 ], [ -71.52496, -38.76132 ], [ -71.53251, -38.76341 ], [ -71.53361, -38.76577 ], [ -71.53772, -38.76905 ], [ -71.53796, -38.76966 ], [ -71.54074, -38.77134 ], [ -71.54481, -38.77787 ], [ -71.54437, -38.76955 ], [ -71.5418, -38.76537 ], [ -71.54051, -38.76381 ], [ -71.53873, -38.76117 ] ], [ [ -71.53174, -38.76313 ], [ -71.53231, -38.7633 ], [ -71.53251, -38.76341 ], [ -71.53174, -38.76313 ] ] ], [ [ [ -71.5036, -38.73613 ], [ -71.50281, -38.73505 ], [ -71.50219, -38.73382 ], [ -71.50182, -38.73206 ], [ -71.50071, -38.72976 ], [ -71.49612, -38.72912 ], [ -71.49549, -38.72924 ], [ -71.49517, -38.72953 ], [ -71.49488, -38.73009 ], [ -71.49474, -38.73084 ], [ -71.49482, -38.73343 ], [ -71.49452, -38.73573 ], [ -71.49417, -38.73701 ], [ -71.49426, -38.7375 ], [ -71.49727, -38.74019 ], [ -71.49791, -38.74108 ], [ -71.49947, -38.74476 ], [ -71.50258, -38.74705 ], [ -71.50443, -38.74766 ], [ -71.50657, -38.74991 ], [ -71.50935, -38.75137 ], [ -71.51264, -38.75228 ], [ -71.51992, -38.74645 ], [ -71.51584, -38.74351 ], [ -71.5036, -38.73613 ] ] ] ] } },
{ "type": "Feature", "properties": { "nombre": "Parque Nacional Conguillio", "categoria": "Parque Nacional", "region": "Araucania", "superficie_ha": "60832,8", "decreto": "NÂ° 1117 de 1950; NÂ° 271 de 1970; NÂ° 131 de 1987; NÂ° 133 de 1989" }, "geometry": { "type": "MultiPolygon", "coordinates": [ [ [ [ -71.52727, -38.69897 ], [ -71.52781, -38.6995 ], [ -71.52722, -38.69876 ], [ -71.52727, -38.69897 ] ] ], [ [ [ -71.61722, -38.55607 ], [ -71.61866, -38.5522 ], [ -71.62204, -38.5476 ], [ -71.62225, -38.54546 ], [ -71.62214, -38.54403 ], [ -71.62125, -38.5436 ], [ -71.61432, -38.5423 ], [ -71.61396, -38.54238 ], [ -71.61052, -38.54153 ], [ -71.60591, -38.53908 ], [ -71.60576, -38.53559 ], [ -71.60733, -38.53241 ], [ -71.60872, -38.53089 ], [ -71.60685, -38.52967 ], [ -71.60594, -38.52868 ], [ -71.60568, -38.52702 ], [ -71.60561, -38.52494 ], [ -71.60509, -38.52394 ], [ -71.60445, -38.52184 ], [ -71.6036, -38.52147 ], [ -71.60308, -38.52341 ], [ -71.59959, -38.52714 ], [ -71.59817, -38.52769 ], [ -71.59528, -38.52819 ], [ -71.59554, -38.52861 ], [ -71.59611, -38.52904 ], [ -71.59762, -38.52971 ], [ -71.59711, -38.53376 ], [ -71.5938, -38.53703 ], [ -71.59343, -38.53708 ], [ -71.59183, -38.53856 ], [ -71.59157, -38.53837 ], [ -71.58885, -38.53404 ], [ -71.58865, -38.53396 ], [ -71.58265, -38.53522 ], [ -71.58207, -38.53517 ], [ -71.58201, -38.53376 ], [ -71.58185, -38.53347 ], [ -71.58091, -38.53261 ], [ -71.58048, -38.53155 ], [ -71.57875, -38.52998 ], [ -71.57851, -38.52884 ], [ -71.57871, -38.52626 ], [ -71.57843, -38.52566 ], [ -71.5782, -38.52536 ], [ -71.57593, -38.52589 ], [ -71.56966, -38.49846 ], [ -71.56363, -38.50006 ], [ -71.55719, -38.50146 ], [ -71.5587, -38.50518 ], [ -71.55637, -38.50552 ], [ -71.55711, -38.50895 ], [ -71.55961, -38.51522 ], [ -71.56191, -38.52262 ], [ -71.56256, -38.52233 ], [ -71.56337, -38.52325 ], [ -71.56451, -38.52671 ], [ -71.56466, -38.52766 ], [ -71.56365, -38.53049 ], [ -71.56383, -38.53199 ], [ -71.56323, -38.53234 ], [ -71.56281, -38.53312 ], [ -71.56263, -38.5348 ], [ -71.56228, -38.53564 ], [ -71.56073, -38.53738 ], [ -71.5632, -38.54019 ], [ -71.56385, -38.54073 ], [ -71.56489, -38.54288 ], [ -71.56068, -38.54545 ], [ -71.56037, -38.54611 ], [ -71.55875, -38.54754 ], [ -71.55763, -38.54818 ], [ -71.55643, -38.5483 ], [ -71.55726, -38.55165 ], [ -71.55671, -38.5517 ], [ -71.55543, -38.55108 ], [ -71.55447, -38.55107 ], [ -71.55201, -38.55178 ], [ -71.55058, -38.55269 ], [ -71.54964, -38.55305 ], [ -71.5485, -38.55288 ], [ -71.5467, -38.55366 ], [ -71.54549, -38.55182 ], [ -71.54275, -38.55144 ], [ -71.54097, -38.55056 ], [ -71.54106, -38.54903 ], [ -71.54141, -38.5486 ], [ -71.54279, -38.5456 ], [ -71.5435, -38.54456 ], [ -71.5456, -38.54298 ], [ -71.54602, -38.54216 ], [ -71.54658, -38.54231 ], [ -71.54943, -38.54002 ], [ -71.54942, -38.53955 ], [ -71.54896, -38.53888 ], [ -71.5485, -38.53775 ], [ -71.54701, -38.53553 ], [ -71.54819, -38.53495 ], [ -71.54814, -38.53474 ], [ -71.54614, -38.52809 ], [ -71.54271, -38.51833 ], [ -71.53695, -38.51963 ], [ -71.53728, -38.52161 ], [ -71.53704, -38.52382 ], [ -71.53651, -38.52529 ], [ -71.53491, -38.52722 ], [ -71.53493, -38.52961 ], [ -71.53481, -38.52996 ], [ -71.53493, -38.53082 ], [ -71.53459, -38.53277 ], [ -71.53437, -38.53312 ], [ -71.53323, -38.53402 ], [ -71.53249, -38.53514 ], [ -71.53022, -38.5346 ], [ -71.52814, -38.5348 ], [ -71.52718, -38.5347 ], [ -71.52422, -38.5337 ], [ -71.52315, -38.533 ], [ -71.52301, -38.53256 ], [ -71.52187, -38.5312 ], [ -71.5216, -38.53018 ], [ -71.51975, -38.53123 ], [ -71.51982, -38.53159 ], [ -71.52046, -38.53244 ], [ -71.52064, -38.5337 ], [ -71.52184, -38.53478 ], [ -71.5223, -38.53564 ], [ -71.52499, -38.53773 ], [ -71.52549, -38.53875 ], [ -71.526, -38.53911 ], [ -71.52609, -38.53983 ], [ -71.52806, -38.54183 ], [ -71.52837, -38.54256 ], [ -71.52832, -38.54364 ], [ -71.52904, -38.54432 ], [ -71.52923, -38.54498 ], [ -71.52844, -38.54624 ], [ -71.52864, -38.54697 ], [ -71.52802, -38.5473 ], [ -71.52791, -38.60145 ], [ -71.52679, -38.6065 ], [ -71.52682, -38.60735 ], [ -71.52665, -38.60802 ], [ -71.52564, -38.60899 ], [ -71.52183, -38.61106 ], [ -71.51844, -38.61244 ], [ -71.5122, -38.61449 ], [ -71.50786, -38.61522 ], [ -71.50523, -38.61456 ], [ -71.50188, -38.61289 ], [ -71.49978, -38.61159 ], [ -71.49908, -38.61061 ], [ -71.49775, -38.60806 ], [ -71.49747, -38.60719 ], [ -71.49518, -38.60781 ], [ -71.49297, -38.60913 ], [ -71.49141, -38.60968 ], [ -71.49095, -38.60942 ], [ -71.49017, -38.60978 ], [ -71.491, -38.61166 ], [ -71.49614, -38.61908 ], [ -71.49522, -38.62106 ], [ -71.49381, -38.62244 ], [ -71.49283, -38.6241 ], [ -71.49147, -38.62716 ], [ -71.49113, -38.62816 ], [ -71.49011, -38.63532 ], [ -71.49033, -38.63708 ], [ -71.49087, -38.63819 ], [ -71.49098, -38.64088 ], [ -71.49084, -38.64354 ], [ -71.49229, -38.64607 ], [ -71.49234, -38.64843 ], [ -71.48986, -38.65092 ], [ -71.48828, -38.65309 ], [ -71.48946, -38.65505 ], [ -71.4897, -38.65748 ], [ -71.49011, -38.65822 ], [ -71.49122, -38.65927 ], [ -71.49153, -38.66195 ], [ -71.49249, -38.66566 ], [ -71.49277, -38.6663 ], [ -71.49734, -38.66992 ], [ -71.49839, -38.67096 ], [ -71.50255, -38.67401 ], [ -71.50586, -38.67848 ], [ -71.50617, -38.67958 ], [ -71.50653, -38.68019 ], [ -71.50793, -38.68122 ], [ -71.50851, -38.68204 ], [ -71.51143, -38.684 ], [ -71.51192, -38.6846 ], [ -71.51322, -38.68663 ], [ -71.51398, -38.68858 ], [ -71.51496, -38.68904 ], [ -71.51715, -38.68965 ], [ -71.51863, -38.69052 ], [ -71.52093, -38.69236 ], [ -71.52329, -38.69513 ], [ -71.52627, -38.69618 ], [ -71.52667, -38.69646 ], [ -71.5271, -38.69814 ], [ -71.52781, -38.6995 ], [ -71.52851, -38.70009 ], [ -71.53102, -38.70063 ], [ -71.53257, -38.70137 ], [ -71.53371, -38.7027 ], [ -71.53416, -38.70425 ], [ -71.5359, -38.70614 ], [ -71.53597, -38.70736 ], [ -71.53621, -38.70821 ], [ -71.53705, -38.70955 ], [ -71.53768, -38.71114 ], [ -71.53752, -38.71263 ], [ -71.53661, -38.71455 ], [ -71.53645, -38.71606 ], [ -71.53588, -38.71677 ], [ -71.53498, -38.717 ], [ -71.52979, -38.71521 ], [ -71.52934, -38.71511 ], [ -71.52879, -38.71528 ], [ -71.52864, -38.7155 ], [ -71.52862, -38.71608 ], [ -71.52887, -38.71846 ], [ -71.52863, -38.71994 ], [ -71.52785, -38.72222 ], [ -71.52783, -38.72245 ], [ -71.52818, -38.72297 ], [ -71.5316, -38.72503 ], [ -71.53526, -38.72674 ], [ -71.53581, -38.72728 ], [ -71.53735, -38.72964 ], [ -71.53987, -38.73092 ], [ -71.54044, -38.73162 ], [ -71.54233, -38.73131 ], [ -71.54699, -38.73236 ], [ -71.54911, -38.73333 ], [ -71.55145, -38.73416 ], [ -71.55224, -38.73527 ], [ -71.55344, -38.73615 ], [ -71.56058, -38.73647 ], [ -71.56442, -38.73788 ], [ -71.56643, -38.73886 ], [ -71.56734, -38.74006 ], [ -71.56754, -38.74189 ], [ -71.56941, -38.74499 ], [ -71.56981, -38.74689 ], [ -71.56975, -38.74717 ], [ -71.5689, -38.74792 ], [ -71.56846, -38.74874 ], [ -71.56741, -38.75158 ], [ -71.5636, -38.7518 ], [ -71.56098, -38.75177 ], [ -71.55891, -38.75228 ], [ -71.55786, -38.75304 ], [ -71.55648, -38.75348 ], [ -71.55552, -38.75364 ], [ -71.55391, -38.75339 ], [ -71.55283, -38.75346 ], [ -71.55192, -38.75431 ], [ -71.55103, -38.75597 ], [ -71.55158, -38.75665 ], [ -71.55195, -38.75684 ], [ -71.55397, -38.75718 ], [ -71.55506, -38.7572 ], [ -71.558, -38.7659 ], [ -71.55953, -38.76562 ], [ -71.55984, -38.76608 ], [ -71.5605, -38.76631 ], [ -71.56251, -38.76625 ], [ -71.56393, -38.76576 ], [ -71.56562, -38.76487 ], [ -71.56842, -38.764 ], [ -71.57162, -38.76329 ], [ -71.57442, -38.76229 ], [ -71.57541, -38.76241 ], [ -71.57603, -38.76285 ], [ -71.57678, -38.76299 ], [ -71.57716, -38.76286 ], [ -71.57885, -38.75996 ], [ -71.57921, -38.75978 ], [ -71.57914, -38.75854 ], [ -71.58173, -38.75592 ], [ -71.58336, -38.75539 ], [ -71.5839, -38.75492 ], [ -71.58559, -38.75577 ], [ -71.5867, -38.75592 ], [ -71.58742, -38.75552 ], [ -71.58786, -38.75453 ], [ -71.58793, -38.75368 ], [ -71.58578, -38.75427 ], [ -71.58585, -38.74759 ], [ -71.58607, -38.74437 ], [ -71.58626, -38.74399 ], [ -71.58606, -38.74338 ], [ -71.58464, -38.74273 ], [ -71.58121, -38.73978 ], [ -71.58095, -38.73841 ], [ -71.57503, -38.73261 ], [ -71.57448, -38.73234 ], [ -71.57254, -38.73197 ], [ -71.57005, -38.73076 ], [ -71.56671, -38.73025 ], [ -71.56662, -38.72951 ], [ -71.56713, -38.72725 ], [ -71.56701, -38.72573 ], [ -71.5661, -38.72474 ], [ -71.56602, -38.72445 ], [ -71.56601, -38.72387 ], [ -71.56651, -38.72263 ], [ -71.56696, -38.72254 ], [ -71.56876, -38.72273 ], [ -71.57016, -38.72379 ], [ -71.5712, -38.72516 ], [ -71.57207, -38.72555 ], [ -71.57307, -38.72646 ], [ -71.57899, -38.72549 ], [ -71.58044, -38.72386 ], [ -71.58325, -38.7202 ], [ -71.58553, -38.71895 ], [ -71.58762, -38.71709 ], [ -71.58799, -38.71698 ], [ -71.59136, -38.71783 ], [ -71.60124, -38.71987 ], [ -71.62004, -38.72547 ], [ -71.62062, -38.7236 ], [ -71.62052, -38.7211 ], [ -71.62025, -38.72003 ], [ -71.6192, -38.71813 ], [ -71.61852, -38.71734 ], [ -71.6189, -38.71682 ], [ -71.61929, -38.71663 ], [ -71.62011, -38.71657 ], [ -71.62051, -38.71709 ], [ -71.62159, -38.71706 ], [ -71.62479, -38.71958 ], [ -71.62485, -38.72029 ], [ -71.62428, -38.72166 ], [ -71.62427, -38.72272 ], [ -71.62493, -38.72325 ], [ -71.62546, -38.72425 ], [ -71.6255, -38.72456 ], [ -71.62511, -38.72576 ], [ -71.62524, -38.72614 ], [ -71.62594, -38.72662 ], [ -71.62612, -38.72715 ], [ -71.62563, -38.72982 ], [ -71.62558, -38.73208 ], [ -71.62511, -38.73292 ], [ -71.62515, -38.73415 ], [ -71.62477, -38.73512 ], [ -71.62491, -38.73611 ], [ -71.62467, -38.73709 ], [ -71.62482, -38.73841 ], [ -71.62513, -38.73953 ], [ -71.62543, -38.73999 ], [ -71.62554, -38.74073 ], [ -71.62512, -38.74207 ], [ -71.62466, -38.7425 ], [ -71.62437, -38.74308 ], [ -71.62419, -38.74423 ], [ -71.62416, -38.74662 ], [ -71.62499, -38.74892 ], [ -71.62456, -38.75062 ], [ -71.62388, -38.752 ], [ -71.62372, -38.75346 ], [ -71.62343, -38.75421 ], [ -71.62348, -38.75518 ], [ -71.62402, -38.75662 ], [ -71.6232, -38.75822 ], [ -71.62323, -38.75886 ], [ -71.62306, -38.75937 ], [ -71.62315, -38.76096 ], [ -71.62347, -38.76147 ], [ -71.6247, -38.76197 ], [ -71.62477, -38.76238 ], [ -71.62457, -38.76275 ], [ -71.62487, -38.76351 ], [ -71.62508, -38.76389 ], [ -71.62595, -38.76468 ], [ -71.62608, -38.76503 ], [ -71.62595, -38.76536 ], [ -71.62535, -38.76586 ], [ -71.62485, -38.76657 ], [ -71.62501, -38.76749 ], [ -71.62533, -38.76825 ], [ -71.62587, -38.76892 ], [ -71.62691, -38.76948 ], [ -71.62793, -38.77119 ], [ -71.62787, -38.77231 ], [ -71.6271, -38.77321 ], [ -71.62694, -38.77355 ], [ -71.62705, -38.77389 ], [ -71.62825, -38.77475 ], [ -71.62905, -38.77496 ], [ -71.62979, -38.77496 ], [ -71.63019, -38.77514 ], [ -71.6328, -38.77836 ], [ -71.63269, -38.7789 ], [ -71.63296, -38.77916 ], [ -71.63362, -38.77925 ], [ -71.63446, -38.77841 ], [ -71.63495, -38.77821 ], [ -71.6352, -38.77827 ], [ -71.63598, -38.77922 ], [ -71.63699, -38.77942 ], [ -71.63788, -38.78044 ], [ -71.63897, -38.78267 ], [ -71.64059, -38.78501 ], [ -71.64806, -38.78488 ], [ -71.64782, -38.78425 ], [ -71.64622, -38.78316 ], [ -71.64606, -38.78276 ], [ -71.6463, -38.78168 ], [ -71.64617, -38.78076 ], [ -71.64666, -38.77948 ], [ -71.64679, -38.77834 ], [ -71.64705, -38.77799 ], [ -71.64717, -38.77672 ], [ -71.64562, -38.77381 ], [ -71.64547, -38.77261 ], [ -71.64499, -38.77171 ], [ -71.64531, -38.77119 ], [ -71.64657, -38.76509 ], [ -71.64735, -38.76449 ], [ -71.64985, -38.76315 ], [ -71.65165, -38.76291 ], [ -71.65616, -38.76192 ], [ -71.65798, -38.76174 ], [ -71.66257, -38.78172 ], [ -71.66628, -38.7794 ], [ -71.66858, -38.77844 ], [ -71.67018, -38.77753 ], [ -71.67125, -38.77647 ], [ -71.67362, -38.77727 ], [ -71.67712, -38.77879 ], [ -71.67816, -38.77902 ], [ -71.67723, -38.77439 ], [ -71.67627, -38.77181 ], [ -71.67624, -38.77067 ], [ -71.67729, -38.76783 ], [ -71.67795, -38.76758 ], [ -71.67866, -38.76659 ], [ -71.68225, -38.76581 ], [ -71.68338, -38.76578 ], [ -71.69355, -38.76458 ], [ -71.69658, -38.76619 ], [ -71.69732, -38.77381 ], [ -71.69726, -38.77732 ], [ -71.69755, -38.77872 ], [ -71.69808, -38.78003 ], [ -71.69892, -38.781 ], [ -71.69912, -38.78148 ], [ -71.69905, -38.78176 ], [ -71.69794, -38.78246 ], [ -71.6977, -38.78313 ], [ -71.69333, -38.78771 ], [ -71.69228, -38.78919 ], [ -71.69209, -38.79017 ], [ -71.69224, -38.79076 ], [ -71.69221, -38.79277 ], [ -71.69146, -38.7947 ], [ -71.69047, -38.79645 ], [ -71.68974, -38.79859 ], [ -71.68919, -38.79936 ], [ -71.68918, -38.79966 ], [ -71.69002, -38.80029 ], [ -71.69008, -38.80112 ], [ -71.68932, -38.8023 ], [ -71.68952, -38.80314 ], [ -71.69034, -38.80482 ], [ -71.69052, -38.80492 ], [ -71.69266, -38.80294 ], [ -71.698, -38.80388 ], [ -71.70002, -38.80159 ], [ -71.70331, -38.79908 ], [ -71.70765, -38.79766 ], [ -71.71006, -38.7972 ], [ -71.71122, -38.7975 ], [ -71.71413, -38.7971 ], [ -71.71533, -38.79752 ], [ -71.7181, -38.79916 ], [ -71.71932, -38.80194 ], [ -71.71949, -38.80143 ], [ -71.72058, -38.79998 ], [ -71.72137, -38.79729 ], [ -71.7223, -38.79588 ], [ -71.72368, -38.79306 ], [ -71.72617, -38.79038 ], [ -71.72904, -38.78556 ], [ -71.73006, -38.78485 ], [ -71.7307, -38.78471 ], [ -71.73344, -38.78475 ], [ -71.73381, -38.78501 ], [ -71.73489, -38.78645 ], [ -71.73505, -38.78699 ], [ -71.73485, -38.7881 ], [ -71.73376, -38.79163 ], [ -71.73384, -38.79447 ], [ -71.73338, -38.79499 ], [ -71.73225, -38.79701 ], [ -71.73132, -38.79789 ], [ -71.73024, -38.79963 ], [ -71.7304, -38.80119 ], [ -71.73031, -38.80188 ], [ -71.72997, -38.80251 ], [ -71.72957, -38.80462 ], [ -71.72942, -38.80724 ], [ -71.73298, -38.80627 ], [ -71.73531, -38.80425 ], [ -71.73686, -38.80367 ], [ -71.73806, -38.80295 ], [ -71.73931, -38.80113 ], [ -71.73956, -38.80052 ], [ -71.74076, -38.79547 ], [ -71.74241, -38.79336 ], [ -71.74382, -38.79205 ], [ -71.74447, -38.79116 ], [ -71.74534, -38.78808 ], [ -71.74534, -38.78732 ], [ -71.74666, -38.78477 ], [ -71.75376, -38.78352 ], [ -71.75502, -38.78295 ], [ -71.76235, -38.78035 ], [ -71.76326, -38.78017 ], [ -71.7629, -38.77911 ], [ -71.76316, -38.77763 ], [ -71.76376, -38.77586 ], [ -71.76371, -38.77504 ], [ -71.76306, -38.77329 ], [ -71.76299, -38.7691 ], [ -71.7632, -38.76827 ], [ -71.76354, -38.76811 ], [ -71.77301, -38.76709 ], [ -71.77655, -38.76891 ], [ -71.777, -38.76898 ], [ -71.77975, -38.7691 ], [ -71.78122, -38.76942 ], [ -71.78676, -38.76968 ], [ -71.79705, -38.77106 ], [ -71.79722, -38.77129 ], [ -71.79714, -38.77188 ], [ -71.79601, -38.77618 ], [ -71.79603, -38.77863 ], [ -71.79631, -38.78177 ], [ -71.79673, -38.78274 ], [ -71.79675, -38.78344 ], [ -71.79731, -38.78551 ], [ -71.79743, -38.78692 ], [ -71.79751, -38.79011 ], [ -71.79738, -38.79051 ], [ -71.79633, -38.79202 ], [ -71.79683, -38.79429 ], [ -71.79655, -38.79498 ], [ -71.79659, -38.79582 ], [ -71.79766, -38.80524 ], [ -71.79791, -38.80567 ], [ -71.80637, -38.80553 ], [ -71.81074, -38.80595 ], [ -71.81344, -38.80667 ], [ -71.81715, -38.80813 ], [ -71.81842, -38.80896 ], [ -71.81876, -38.80834 ], [ -71.81865, -38.80794 ], [ -71.81677, -38.80565 ], [ -71.81637, -38.80355 ], [ -71.81376, -38.80115 ], [ -71.83209, -38.80292 ], [ -71.8342, -38.78926 ], [ -71.83273, -38.78512 ], [ -71.8249, -38.76547 ], [ -71.82033, -38.75348 ], [ -71.83804, -38.74889 ], [ -71.86501, -38.7438 ], [ -71.86647, -38.74813 ], [ -71.88837, -38.74375 ], [ -71.88225, -38.72512 ], [ -71.89332, -38.72251 ], [ -71.88755, -38.70638 ], [ -71.87652, -38.7084 ], [ -71.86151, -38.66604 ], [ -71.85355, -38.64505 ], [ -71.82774, -38.65051 ], [ -71.8258, -38.64475 ], [ -71.78186, -38.65329 ], [ -71.77696, -38.64018 ], [ -71.77679, -38.63927 ], [ -71.77698, -38.63906 ], [ -71.7769, -38.63889 ], [ -71.77447, -38.63641 ], [ -71.77221, -38.63341 ], [ -71.77251, -38.63281 ], [ -71.77437, -38.63059 ], [ -71.7743, -38.62987 ], [ -71.7745, -38.62931 ], [ -71.77496, -38.62893 ], [ -71.77639, -38.62707 ], [ -71.77666, -38.62607 ], [ -71.77651, -38.62581 ], [ -71.77665, -38.62559 ], [ -71.77622, -38.62516 ], [ -71.77622, -38.62425 ], [ -71.7784, -38.6221 ], [ -71.77784, -38.62161 ], [ -71.77801, -38.62012 ], [ -71.77878, -38.61851 ], [ -71.7798, -38.6176 ], [ -71.77949, -38.61575 ], [ -71.7797, -38.61409 ], [ -71.7807, -38.61286 ], [ -71.78148, -38.61146 ], [ -71.78441, -38.60856 ], [ -71.7858, -38.60843 ], [ -71.78706, -38.60785 ], [ -71.78864, -38.60674 ], [ -71.79193, -38.60347 ], [ -71.79194, -38.60284 ], [ -71.79143, -38.60204 ], [ -71.79144, -38.60173 ], [ -71.79315, -38.59699 ], [ -71.79472, -38.59443 ], [ -71.79517, -38.59291 ], [ -71.79517, -38.59208 ], [ -71.79558, -38.59084 ], [ -71.79566, -38.58982 ], [ -71.79487, -38.58864 ], [ -71.79406, -38.58812 ], [ -71.7938, -38.58827 ], [ -71.79212, -38.59067 ], [ -71.79152, -38.59069 ], [ -71.791, -38.59035 ], [ -71.7908, -38.59012 ], [ -71.79093, -38.58898 ], [ -71.79053, -38.58803 ], [ -71.79056, -38.58755 ], [ -71.79017, -38.58581 ], [ -71.79115, -38.58492 ], [ -71.79013, -38.58387 ], [ -71.7892, -38.58247 ], [ -71.78794, -38.58129 ], [ -71.78613, -38.58407 ], [ -71.78578, -38.58436 ], [ -71.7863, -38.589 ], [ -71.78615, -38.58965 ], [ -71.78478, -38.59097 ], [ -71.78298, -38.59226 ], [ -71.78236, -38.5926 ], [ -71.78115, -38.59284 ], [ -71.78113, -38.5904 ], [ -71.78179, -38.58962 ], [ -71.78361, -38.58582 ], [ -71.78223, -38.58373 ], [ -71.78237, -38.5836 ], [ -71.78186, -38.58363 ], [ -71.78117, -38.58482 ], [ -71.78033, -38.58581 ], [ -71.77853, -38.58941 ], [ -71.7774, -38.59067 ], [ -71.77668, -38.59176 ], [ -71.77529, -38.59471 ], [ -71.77409, -38.596 ], [ -71.77301, -38.59752 ], [ -71.77179, -38.59872 ], [ -71.7713, -38.59897 ], [ -71.77137, -38.59922 ], [ -71.77241, -38.59978 ], [ -71.77346, -38.60059 ], [ -71.77493, -38.60238 ], [ -71.77704, -38.60417 ], [ -71.77654, -38.60498 ], [ -71.77611, -38.60534 ], [ -71.7734, -38.60663 ], [ -71.77162, -38.60797 ], [ -71.77053, -38.60857 ], [ -71.769, -38.60907 ], [ -71.76827, -38.60889 ], [ -71.76631, -38.60879 ], [ -71.76352, -38.60796 ], [ -71.76227, -38.60715 ], [ -71.75873, -38.60535 ], [ -71.75775, -38.60788 ], [ -71.75663, -38.60885 ], [ -71.75488, -38.61 ], [ -71.75426, -38.61081 ], [ -71.75325, -38.61174 ], [ -71.74998, -38.61327 ], [ -71.74599, -38.61455 ], [ -71.74511, -38.61597 ], [ -71.74314, -38.61754 ], [ -71.73987, -38.61978 ], [ -71.73788, -38.6216 ], [ -71.73604, -38.62275 ], [ -71.73538, -38.62337 ], [ -71.73507, -38.62397 ], [ -71.73476, -38.62406 ], [ -71.73455, -38.62387 ], [ -71.73289, -38.61778 ], [ -71.72342, -38.61988 ], [ -71.71673, -38.60018 ], [ -71.68576, -38.60714 ], [ -71.6853, -38.60507 ], [ -71.68427, -38.60238 ], [ -71.68179, -38.59397 ], [ -71.68149, -38.59092 ], [ -71.68128, -38.59061 ], [ -71.67918, -38.58878 ], [ -71.6787, -38.5879 ], [ -71.6779, -38.58743 ], [ -71.67657, -38.58707 ], [ -71.67404, -38.58436 ], [ -71.67208, -38.58276 ], [ -71.67134, -38.58143 ], [ -71.66533, -38.57364 ], [ -71.66321, -38.57231 ], [ -71.66152, -38.57204 ], [ -71.66097, -38.57131 ], [ -71.64787, -38.58272 ], [ -71.628, -38.58337 ], [ -71.61199, -38.57431 ], [ -71.61305, -38.57316 ], [ -71.61359, -38.57208 ], [ -71.6142, -38.57157 ], [ -71.62475, -38.56602 ], [ -71.63092, -38.55794 ], [ -71.63025, -38.55801 ], [ -71.62266, -38.56051 ], [ -71.61722, -38.55607 ] ], [ [ -71.60617, -38.53938 ], [ -71.60596, -38.53925 ], [ -71.60591, -38.53908 ], [ -71.60617, -38.53938 ] ], [ [ -71.53302, -38.53438 ], [ -71.53265, -38.53494 ], [ -71.53249, -38.53514 ], [ -71.53302, -38.53438 ] ], [ [ -71.79778, -38.68325 ], [ -71.79857, -38.68214 ], [ -71.80056, -38.68306 ], [ -71.79967, -38.68354 ], [ -71.79941, -38.68383 ], [ -71.79938, -38.68419 ], [ -71.79965, -38.68477 ], [ -71.79987, -38.68513 ], [ -71.80024, -38.68535 ], [ -71.801, -38.68575 ], [ -71.80133, -38.68567 ], [ -71.80873, -38.69764 ], [ -71.80622, -38.70019 ], [ -71.78803, -38.70469 ], [ -71.77963, -38.696 ], [ -71.7836, -38.68951 ], [ -71.79853, -38.68632 ], [ -71.79778, -38.68325 ] ], [ [ -71.7514, -38.64094 ], [ -71.7496, -38.64951 ], [ -71.72924, -38.65105 ], [ -71.72802, -38.6431 ], [ -71.7514, -38.64094 ] ], [ [ -71.77836, -38.60242 ], [ -71.77708, -38.60333 ], [ -71.77682, -38.60332 ], [ -71.77637, -38.60242 ], [ -71.77633, -38.60093 ], [ -71.77661, -38.60004 ], [ -71.77819, -38.59864 ], [ -71.78027, -38.59742 ], [ -71.78265, -38.59688 ], [ -71.78334, -38.597 ], [ -71.78309, -38.59819 ], [ -71.7821, -38.5993 ], [ -71.78145, -38.59988 ], [ -71.77912, -38.60083 ], [ -71.77856, -38.60149 ], [ -71.77836, -38.60242 ] ] ], [ [ [ -71.61382, -38.51194 ], [ -71.61616, -38.511 ], [ -71.61699, -38.51085 ], [ -71.61814, -38.51098 ], [ -71.61706, -38.50603 ], [ -71.60523, -38.5084 ], [ -71.60829, -38.51641 ], [ -71.60907, -38.51533 ], [ -71.61102, -38.51324 ], [ -71.61244, -38.51219 ], [ -71.61382, -38.51194 ] ] ] ] } },
{ "type": "Feature", "properties": { "nombre": "Reserva Nacional Malalcahuello", "categoria": "Reserva Nacional", "region": "Araucania", "superficie_ha": "13882", "decreto": "NÂ° 1670 de 1931; NÂ° 131 de 1987" }, "geometry": { "type": "MultiPolygon", "coordinates": [ [ [ [ -71.6004, -38.36405 ], [ -71.59833, -38.367 ], [ -71.59768, -38.36757 ], [ -71.59363, -38.37424 ], [ -71.59049, -38.37862 ], [ -71.59001, -38.37907 ], [ -71.58931, -38.37961 ], [ -71.58894, -38.37944 ], [ -71.58375, -38.38064 ], [ -71.58128, -38.38212 ], [ -71.5748, -38.38337 ], [ -71.57143, -38.38358 ], [ -71.56414, -38.38204 ], [ -71.56005, -38.38065 ], [ -71.55486, -38.37935 ], [ -71.5538, -38.37931 ], [ -71.55252, -38.37949 ], [ -71.54997, -38.38099 ], [ -71.54871, -38.38121 ], [ -71.54807, -38.38098 ], [ -71.54697, -38.38008 ], [ -71.54633, -38.37929 ], [ -71.54299, -38.3778 ], [ -71.54041, -38.37608 ], [ -71.53866, -38.37423 ], [ -71.53777, -38.37224 ], [ -71.53745, -38.36951 ], [ -71.5361, -38.36786 ], [ -71.5355, -38.36758 ], [ -71.52986, -38.36671 ], [ -71.52814, -38.36608 ], [ -71.52878, -38.36708 ], [ -71.52686, -38.36945 ], [ -71.52704, -38.37164 ], [ -71.52627, -38.37302 ], [ -71.52513, -38.37321 ], [ -71.5245, -38.37384 ], [ -71.52267, -38.37647 ], [ -71.52198, -38.38059 ], [ -71.52047, -38.3836 ], [ -71.52052, -38.38568 ], [ -71.5203, -38.38778 ], [ -71.51962, -38.38857 ], [ -71.51965, -38.38904 ], [ -71.51751, -38.39113 ], [ -71.51719, -38.39187 ], [ -71.51696, -38.39324 ], [ -71.51618, -38.39477 ], [ -71.51533, -38.39576 ], [ -71.51234, -38.40058 ], [ -71.5118, -38.40197 ], [ -71.51021, -38.40393 ], [ -71.51006, -38.40502 ], [ -71.50954, -38.4064 ], [ -71.50923, -38.41003 ], [ -71.50871, -38.41082 ], [ -71.50838, -38.41111 ], [ -71.50772, -38.4113 ], [ -71.50759, -38.41153 ], [ -71.50794, -38.41199 ], [ -71.50796, -38.41243 ], [ -71.50781, -38.41346 ], [ -71.50742, -38.41396 ], [ -71.50747, -38.41428 ], [ -71.50816, -38.41539 ], [ -71.5079, -38.41585 ], [ -71.5072, -38.41591 ], [ -71.50654, -38.41644 ], [ -71.5066, -38.4182 ], [ -71.50645, -38.41918 ], [ -71.50671, -38.42166 ], [ -71.5059, -38.42322 ], [ -71.5064, -38.42406 ], [ -71.50603, -38.42422 ], [ -71.50597, -38.42479 ], [ -71.50542, -38.42493 ], [ -71.50526, -38.42519 ], [ -71.50544, -38.42559 ], [ -71.50604, -38.42575 ], [ -71.50626, -38.42632 ], [ -71.50608, -38.42663 ], [ -71.50558, -38.42667 ], [ -71.50598, -38.42729 ], [ -71.50572, -38.42753 ], [ -71.50533, -38.42749 ], [ -71.50535, -38.42811 ], [ -71.50493, -38.4283 ], [ -71.50491, -38.42856 ], [ -71.50556, -38.42903 ], [ -71.50567, -38.42954 ], [ -71.50487, -38.42967 ], [ -71.50473, -38.42984 ], [ -71.50476, -38.43067 ], [ -71.50416, -38.43013 ], [ -71.50374, -38.42943 ], [ -71.50241, -38.42915 ], [ -71.50351, -38.43179 ], [ -71.50129, -38.43187 ], [ -71.50132, -38.432 ], [ -71.50245, -38.43246 ], [ -71.50244, -38.43269 ], [ -71.50154, -38.4326 ], [ -71.5006, -38.43277 ], [ -71.50057, -38.43289 ], [ -71.50095, -38.43304 ], [ -71.50173, -38.43301 ], [ -71.50169, -38.43357 ], [ -71.50234, -38.43407 ], [ -71.50247, -38.43445 ], [ -71.50174, -38.43487 ], [ -71.50095, -38.43509 ], [ -71.50055, -38.43552 ], [ -71.49965, -38.43578 ], [ -71.49864, -38.43577 ], [ -71.49781, -38.43513 ], [ -71.49662, -38.43472 ], [ -71.49606, -38.4347 ], [ -71.49515, -38.43511 ], [ -71.49402, -38.43503 ], [ -71.49347, -38.43537 ], [ -71.49412, -38.43576 ], [ -71.49386, -38.43614 ], [ -71.49325, -38.43629 ], [ -71.49212, -38.43623 ], [ -71.49242, -38.43488 ], [ -71.49199, -38.43443 ], [ -71.49174, -38.43329 ], [ -71.49094, -38.4331 ], [ -71.48958, -38.43326 ], [ -71.48887, -38.43359 ], [ -71.48842, -38.43354 ], [ -71.4885, -38.43283 ], [ -71.48952, -38.43186 ], [ -71.48914, -38.43145 ], [ -71.48713, -38.43071 ], [ -71.48798, -38.43146 ], [ -71.48821, -38.43193 ], [ -71.48699, -38.43295 ], [ -71.48609, -38.43321 ], [ -71.48589, -38.43361 ], [ -71.4858, -38.43315 ], [ -71.48667, -38.43265 ], [ -71.48686, -38.43182 ], [ -71.48656, -38.43161 ], [ -71.48545, -38.43146 ], [ -71.48527, -38.43088 ], [ -71.48502, -38.43063 ], [ -71.48377, -38.43054 ], [ -71.4828, -38.43022 ], [ -71.48189, -38.43011 ], [ -71.48057, -38.43045 ], [ -71.48187, -38.43241 ], [ -71.48321, -38.43494 ], [ -71.48298, -38.4363 ], [ -71.48243, -38.43735 ], [ -71.48167, -38.43825 ], [ -71.48116, -38.43934 ], [ -71.4808, -38.44064 ], [ -71.48041, -38.44337 ], [ -71.47958, -38.44422 ], [ -71.47827, -38.44468 ], [ -71.47403, -38.44521 ], [ -71.47244, -38.44568 ], [ -71.47107, -38.44631 ], [ -71.46985, -38.44757 ], [ -71.46875, -38.44828 ], [ -71.46804, -38.44837 ], [ -71.46596, -38.4477 ], [ -71.46458, -38.44782 ], [ -71.46387, -38.44836 ], [ -71.46358, -38.44906 ], [ -71.46301, -38.44982 ], [ -71.46102, -38.45067 ], [ -71.46027, -38.45149 ], [ -71.45981, -38.45236 ], [ -71.45967, -38.45317 ], [ -71.46018, -38.45405 ], [ -71.46224, -38.45591 ], [ -71.46221, -38.4565 ], [ -71.46184, -38.45691 ], [ -71.45935, -38.45702 ], [ -71.45862, -38.45726 ], [ -71.45787, -38.45779 ], [ -71.45736, -38.45854 ], [ -71.4569, -38.45976 ], [ -71.45678, -38.4614 ], [ -71.45686, -38.46475 ], [ -71.45647, -38.46525 ], [ -71.45443, -38.46636 ], [ -71.45391, -38.46698 ], [ -71.45369, -38.46804 ], [ -71.45193, -38.46941 ], [ -71.45047, -38.47091 ], [ -71.44993, -38.47183 ], [ -71.44969, -38.47294 ], [ -71.44977, -38.47395 ], [ -71.45001, -38.47463 ], [ -71.45385, -38.47972 ], [ -71.4556, -38.48111 ], [ -71.45703, -38.4831 ], [ -71.45938, -38.48549 ], [ -71.4601, -38.48611 ], [ -71.46237, -38.48705 ], [ -71.46331, -38.48798 ], [ -71.46341, -38.48837 ], [ -71.46325, -38.48986 ], [ -71.46271, -38.49124 ], [ -71.46167, -38.49311 ], [ -71.46076, -38.49399 ], [ -71.46, -38.4951 ], [ -71.45989, -38.4957 ], [ -71.46061, -38.49552 ], [ -71.46333, -38.497 ], [ -71.46919, -38.49818 ], [ -71.47004, -38.49907 ], [ -71.47046, -38.49917 ], [ -71.47015, -38.49722 ], [ -71.47056, -38.49684 ], [ -71.47228, -38.49638 ], [ -71.47165, -38.49715 ], [ -71.47172, -38.49799 ], [ -71.47334, -38.50051 ], [ -71.47481, -38.50328 ], [ -71.47641, -38.50648 ], [ -71.47652, -38.50709 ], [ -71.48079, -38.50614 ], [ -71.48292, -38.50478 ], [ -71.48572, -38.50601 ], [ -71.4861, -38.50693 ], [ -71.48781, -38.50791 ], [ -71.48751, -38.50906 ], [ -71.48624, -38.51058 ], [ -71.48668, -38.5114 ], [ -71.4873, -38.51115 ], [ -71.48901, -38.51089 ], [ -71.4907, -38.51033 ], [ -71.4926, -38.51008 ], [ -71.49478, -38.51016 ], [ -71.50007, -38.5112 ], [ -71.50164, -38.51095 ], [ -71.50204, -38.51063 ], [ -71.50454, -38.50605 ], [ -71.50737, -38.50611 ], [ -71.50242, -38.49176 ], [ -71.51804, -38.48147 ], [ -71.51733, -38.48079 ], [ -71.51654, -38.47909 ], [ -71.51608, -38.47633 ], [ -71.51561, -38.47484 ], [ -71.5159, -38.47277 ], [ -71.50985, -38.47411 ], [ -71.5058, -38.46314 ], [ -71.50227, -38.46393 ], [ -71.49869, -38.45986 ], [ -71.49817, -38.45894 ], [ -71.497, -38.45536 ], [ -71.50101, -38.45545 ], [ -71.50171, -38.45839 ], [ -71.51139, -38.45627 ], [ -71.51188, -38.45516 ], [ -71.51204, -38.45399 ], [ -71.51195, -38.45324 ], [ -71.51304, -38.45039 ], [ -71.51099, -38.45017 ], [ -71.50866, -38.44938 ], [ -71.50768, -38.44579 ], [ -71.50579, -38.44454 ], [ -71.49838, -38.44079 ], [ -71.49771, -38.44009 ], [ -71.49613, -38.43892 ], [ -71.49741, -38.43771 ], [ -71.49857, -38.43738 ], [ -71.49937, -38.43655 ], [ -71.50053, -38.43567 ], [ -71.50336, -38.43456 ], [ -71.50479, -38.43367 ], [ -71.50621, -38.43301 ], [ -71.50606, -38.43265 ], [ -71.50642, -38.43285 ], [ -71.50663, -38.4334 ], [ -71.50725, -38.43402 ], [ -71.50749, -38.43467 ], [ -71.50811, -38.43524 ], [ -71.50858, -38.43626 ], [ -71.50877, -38.43644 ], [ -71.51042, -38.437 ], [ -71.51069, -38.43737 ], [ -71.5108, -38.43886 ], [ -71.51116, -38.43952 ], [ -71.51173, -38.44007 ], [ -71.51308, -38.44072 ], [ -71.51357, -38.44122 ], [ -71.51379, -38.44181 ], [ -71.52653, -38.43946 ], [ -71.52267, -38.43677 ], [ -71.5304, -38.42881 ], [ -71.53192, -38.42927 ], [ -71.54317, -38.43645 ], [ -71.534, -38.44486 ], [ -71.53053, -38.44234 ], [ -71.52433, -38.44967 ], [ -71.52186, -38.45537 ], [ -71.51943, -38.45582 ], [ -71.51961, -38.45679 ], [ -71.52064, -38.45733 ], [ -71.52142, -38.45964 ], [ -71.52169, -38.46172 ], [ -71.52291, -38.46383 ], [ -71.52367, -38.46483 ], [ -71.52482, -38.46582 ], [ -71.52739, -38.46743 ], [ -71.52837, -38.46851 ], [ -71.53514, -38.46695 ], [ -71.53291, -38.46595 ], [ -71.53207, -38.46543 ], [ -71.53174, -38.46494 ], [ -71.53302, -38.46329 ], [ -71.53418, -38.46258 ], [ -71.53586, -38.46199 ], [ -71.53834, -38.45963 ], [ -71.53986, -38.46157 ], [ -71.54048, -38.46202 ], [ -71.54094, -38.46229 ], [ -71.54247, -38.46256 ], [ -71.53962, -38.46457 ], [ -71.53985, -38.46524 ], [ -71.53932, -38.46639 ], [ -71.54026, -38.46764 ], [ -71.54167, -38.46797 ], [ -71.54283, -38.46847 ], [ -71.543, -38.46888 ], [ -71.54391, -38.46863 ], [ -71.55142, -38.46853 ], [ -71.56027, -38.46743 ], [ -71.56529, -38.46596 ], [ -71.56807, -38.47166 ], [ -71.57169, -38.47131 ], [ -71.57527, -38.47127 ], [ -71.58027, -38.47068 ], [ -71.58159, -38.47045 ], [ -71.5841, -38.46961 ], [ -71.58917, -38.4684 ], [ -71.58694, -38.4592 ], [ -71.58703, -38.45887 ], [ -71.58678, -38.45766 ], [ -71.58472, -38.45595 ], [ -71.58418, -38.45352 ], [ -71.58388, -38.45095 ], [ -71.58269, -38.44666 ], [ -71.58264, -38.44555 ], [ -71.58292, -38.4434 ], [ -71.58081, -38.43521 ], [ -71.60355, -38.43102 ], [ -71.60606, -38.44177 ], [ -71.60647, -38.44467 ], [ -71.60945, -38.45011 ], [ -71.62231, -38.44211 ], [ -71.61302, -38.41595 ], [ -71.64637, -38.40847 ], [ -71.63064, -38.36504 ], [ -71.64478, -38.33844 ], [ -71.64938, -38.33742 ], [ -71.64918, -38.33449 ], [ -71.64787, -38.33172 ], [ -71.6488, -38.32979 ], [ -71.64876, -38.32867 ], [ -71.64829, -38.32733 ], [ -71.6482, -38.3264 ], [ -71.64839, -38.3251 ], [ -71.64738, -38.32374 ], [ -71.64819, -38.32253 ], [ -71.64792, -38.32125 ], [ -71.64785, -38.31843 ], [ -71.64826, -38.31784 ], [ -71.64822, -38.3167 ], [ -71.64866, -38.31637 ], [ -71.64897, -38.31454 ], [ -71.64715, -38.31456 ], [ -71.64393, -38.31414 ], [ -71.6435, -38.31403 ], [ -71.64305, -38.31367 ], [ -71.64063, -38.31505 ], [ -71.63812, -38.31578 ], [ -71.63504, -38.31734 ], [ -71.63296, -38.31783 ], [ -71.63139, -38.31842 ], [ -71.63049, -38.3197 ], [ -71.62996, -38.32091 ], [ -71.62937, -38.3213 ], [ -71.62642, -38.32204 ], [ -71.62485, -38.32272 ], [ -71.62138, -38.32332 ], [ -71.62021, -38.3238 ], [ -71.61867, -38.32489 ], [ -71.61671, -38.32851 ], [ -71.61391, -38.33107 ], [ -71.61178, -38.33415 ], [ -71.61063, -38.33608 ], [ -71.61043, -38.33673 ], [ -71.60909, -38.3388 ], [ -71.60794, -38.34273 ], [ -71.60701, -38.34459 ], [ -71.60628, -38.34666 ], [ -71.60568, -38.34774 ], [ -71.60411, -38.34918 ], [ -71.60394, -38.34945 ], [ -71.60426, -38.34907 ], [ -71.60354, -38.35007 ], [ -71.60358, -38.35098 ], [ -71.60406, -38.35258 ], [ -71.60389, -38.3555 ], [ -71.6028, -38.35815 ], [ -71.60306, -38.35733 ], [ -71.6004, -38.36405 ] ] ], [ [ [ -71.55052, -38.38056 ], [ -71.55052, -38.38057 ], [ -71.55048, -38.3806 ], [ -71.55052, -38.38056 ] ] ], [ [ [ -71.55196, -38.3797 ], [ -71.5516, -38.37992 ], [ -71.55195, -38.37971 ], [ -71.55252, -38.37949 ], [ -71.55196, -38.3797 ] ] ], [ [ [ -71.55472, -38.37933 ], [ -71.55454, -38.37931 ], [ -71.55443, -38.37931 ], [ -71.55472, -38.37933 ] ] ], [ [ [ -71.60356, -38.35081 ], [ -71.60357, -38.35092 ], [ -71.60358, -38.35098 ], [ -71.60356, -38.35081 ] ] ] ] } },
{ "type": "Feature", "properties": { "nombre": "Reserva Nacional Nalcas", "categoria": "Reserva Nacional", "region": "Araucania", "superficie_ha": "13775", "decreto": "NÂ° 604 de 1967" }, "geometry": { "type": "Polygon", "coordinates": [ [ [ -71.60426, -38.34907 ], [ -71.60394, -38.34945 ], [ -71.60411, -38.34918 ], [ -71.60568, -38.34774 ], [ -71.60628, -38.34666 ], [ -71.60701, -38.34459 ], [ -71.60794, -38.34273 ], [ -71.60909, -38.3388 ], [ -71.61043, -38.33673 ], [ -71.61063, -38.33608 ], [ -71.61178, -38.33415 ], [ -71.61391, -38.33107 ], [ -71.61671, -38.32851 ], [ -71.61867, -38.32489 ], [ -71.62021, -38.3238 ], [ -71.62138, -38.32332 ], [ -71.62485, -38.32272 ], [ -71.62642, -38.32204 ], [ -71.62937, -38.3213 ], [ -71.62996, -38.32091 ], [ -71.63049, -38.3197 ], [ -71.63097, -38.31889 ], [ -71.63139, -38.31842 ], [ -71.63296, -38.31783 ], [ -71.63504, -38.31734 ], [ -71.63812, -38.31578 ], [ -71.64063, -38.31505 ], [ -71.64305, -38.31367 ], [ -71.64198, -38.31269 ], [ -71.64026, -38.30746 ], [ -71.63729, -38.30367 ], [ -71.63653, -38.30122 ], [ -71.63535, -38.29834 ], [ -71.63406, -38.29598 ], [ -71.63383, -38.29506 ], [ -71.63374, -38.29341 ], [ -71.63384, -38.29249 ], [ -71.63477, -38.29 ], [ -71.63483, -38.28728 ], [ -71.63447, -38.28563 ], [ -71.63313, -38.28195 ], [ -71.63294, -38.28063 ], [ -71.63294, -38.27823 ], [ -71.6326, -38.27575 ], [ -71.63187, -38.27341 ], [ -71.63115, -38.27241 ], [ -71.62636, -38.26824 ], [ -71.62531, -38.26706 ], [ -71.62497, -38.26565 ], [ -71.62593, -38.26202 ], [ -71.62577, -38.26078 ], [ -71.62446, -38.26033 ], [ -71.62339, -38.26032 ], [ -71.61906, -38.2609 ], [ -71.61664, -38.26045 ], [ -71.61542, -38.25943 ], [ -71.61526, -38.25908 ], [ -71.61515, -38.25818 ], [ -71.61556, -38.25701 ], [ -71.61522, -38.25633 ], [ -71.61384, -38.25495 ], [ -71.61286, -38.25351 ], [ -71.60984, -38.25133 ], [ -71.60885, -38.25012 ], [ -71.60203, -38.25107 ], [ -71.54806, -38.263 ], [ -71.49581, -38.27902 ], [ -71.47778, -38.28621 ], [ -71.47869, -38.28698 ], [ -71.47877, -38.28838 ], [ -71.47937, -38.28967 ], [ -71.48012, -38.29078 ], [ -71.48218, -38.29201 ], [ -71.48218, -38.29225 ], [ -71.48266, -38.29295 ], [ -71.48207, -38.29478 ], [ -71.48215, -38.29547 ], [ -71.48251, -38.29622 ], [ -71.48245, -38.29814 ], [ -71.48293, -38.30115 ], [ -71.48286, -38.3028 ], [ -71.48258, -38.30337 ], [ -71.48237, -38.30457 ], [ -71.48165, -38.3068 ], [ -71.48081, -38.30818 ], [ -71.48071, -38.30927 ], [ -71.48207, -38.31331 ], [ -71.48335, -38.31514 ], [ -71.48333, -38.31675 ], [ -71.48415, -38.31754 ], [ -71.48499, -38.31974 ], [ -71.4864, -38.32175 ], [ -71.48693, -38.32219 ], [ -71.48794, -38.32347 ], [ -71.48863, -38.32382 ], [ -71.48917, -38.32484 ], [ -71.48929, -38.32561 ], [ -71.48693, -38.32606 ], [ -71.48548, -38.32596 ], [ -71.48326, -38.32844 ], [ -71.48123, -38.33028 ], [ -71.48051, -38.3312 ], [ -71.47836, -38.33166 ], [ -71.47801, -38.33333 ], [ -71.47862, -38.3344 ], [ -71.48065, -38.33656 ], [ -71.48268, -38.33677 ], [ -71.48495, -38.33596 ], [ -71.48865, -38.33681 ], [ -71.49075, -38.3375 ], [ -71.49567, -38.34145 ], [ -71.49853, -38.3423 ], [ -71.50124, -38.34401 ], [ -71.50274, -38.34596 ], [ -71.50306, -38.34918 ], [ -71.50376, -38.35059 ], [ -71.50524, -38.35233 ], [ -71.50773, -38.35324 ], [ -71.50976, -38.35311 ], [ -71.5109, -38.35282 ], [ -71.51038, -38.35438 ], [ -71.51092, -38.35628 ], [ -71.51282, -38.35854 ], [ -71.51578, -38.35914 ], [ -71.51993, -38.36106 ], [ -71.52185, -38.3639 ], [ -71.52298, -38.36393 ], [ -71.52531, -38.3645 ], [ -71.52656, -38.36504 ], [ -71.52814, -38.36608 ], [ -71.52986, -38.36671 ], [ -71.5355, -38.36758 ], [ -71.5361, -38.36786 ], [ -71.53745, -38.36951 ], [ -71.53767, -38.3718 ], [ -71.5383, -38.37357 ], [ -71.53866, -38.37423 ], [ -71.54019, -38.3759 ], [ -71.54299, -38.3778 ], [ -71.54633, -38.37929 ], [ -71.54732, -38.38041 ], [ -71.54807, -38.38098 ], [ -71.54871, -38.38121 ], [ -71.54997, -38.38099 ], [ -71.55252, -38.37949 ], [ -71.5538, -38.37931 ], [ -71.55486, -38.37935 ], [ -71.56005, -38.38065 ], [ -71.56414, -38.38204 ], [ -71.57143, -38.38358 ], [ -71.5748, -38.38337 ], [ -71.58128, -38.38212 ], [ -71.58375, -38.38064 ], [ -71.58894, -38.37944 ], [ -71.58931, -38.37961 ], [ -71.59049, -38.37862 ], [ -71.59363, -38.37424 ], [ -71.59768, -38.36757 ], [ -71.59833, -38.367 ], [ -71.6004, -38.36405 ], [ -71.60389, -38.3555 ], [ -71.60406, -38.35258 ], [ -71.60358, -38.35098 ], [ -71.60354, -38.35007 ], [ -71.60391, -38.34949 ], [ -71.60367, -38.34989 ], [ -71.60426, -38.34907 ] ], [ [ -71.5516, -38.37992 ], [ -71.55195, -38.37971 ], [ -71.55252, -38.37949 ], [ -71.5516, -38.37992 ] ], [ [ -71.60357, -38.35092 ], [ -71.60356, -38.35081 ], [ -71.60358, -38.35098 ], [ -71.60357, -38.35092 ] ], [ [ -71.55052, -38.38057 ], [ -71.55052, -38.38056 ], [ -71.55048, -38.3806 ], [ -71.55052, -38.38057 ] ], [ [ -71.55454, -38.37931 ], [ -71.55472, -38.37933 ], [ -71.55443, -38.37931 ], [ -71.55454, -38.37931 ] ] ] } },
{ "type": "Feature", "properties": { "nombre": "Parque Nacional Tolhuaca", "categoria": "Parque Nacional", "region": "Araucania", "superficie_ha": "6374", "decreto": "NÂ° 2489 de 1935; NÂ° 28 de 1985" }, "geometry": { "type": "Polygon", "coordinates": [ [ [ -71.69105, -38.24247 ], [ -71.69321, -38.24113 ], [ -71.68923, -38.24137 ], [ -71.69105, -38.24247 ] ] ] } }
]
}
