{
"type": "FeatureCollection",
"name": "LLU",
"crs": { "type": "name", "properties": { "name": "urn:ogc:def:crs:OGC:1.3:CRS84" } },
"xy_coordinate_resolution": 1e-05,
"features": [
{ "type": "Feature", "properties": { "nombre": "Parque Nacional Llullaillaco", "categoria": "Parque Nacional", "region": "Antofagasta", "superficie_ha": "268670,61", "decreto": "NÂ° 856 de 1995" }, "geometry": { "type": "Polygon", "coordinates": [ [ [ -68.49499, -24.63229 ], [ -68.49503, -24.63308 ], [ -68.4956, -24.63417 ], [ -68.49556, -24.63462 ], [ -68.49451, -24.63522 ], [ -68.49392, -24.63584 ], [ -68.49365, -24.63681 ], [ -68.4933, -24.63741 ], [ -68.49154, -24.63798 ], [ -68.49042, -24.63812 ], [ -68.48787, -24.639 ], [ -68.48711, -24.63979 ], [ -68.48697, -24.64102 ], [ -68.48704, -24.6421 ], [ -68.48799, -24.64343 ], [ -68.48818, -24.64433 ], [ -68.48813, -24.64683 ], [ -68.48837, -24.64785 ], [ -68.48888, -24.64879 ], [ -68.48904, -24.64995 ], [ -68.49051, -24.65135 ], [ -68.49101, -24.65204 ], [ -68.49118, -24.65259 ], [ -68.4923, -24.65361 ], [ -68.49327, -24.65491 ], [ -68.4933, -24.65573 ], [ -68.49308, -24.65661 ], [ -68.4932, -24.65773 ], [ -68.49249, -24.65951 ], [ -68.49206, -24.66111 ], [ -68.49156, -24.66158 ], [ -68.49144, -24.6637 ], [ -68.49191, -24.66495 ], [ -68.49254, -24.66585 ], [ -68.49461, -24.66818 ], [ -68.4952, -24.66908 ], [ -68.49525, -24.67003 ], [ -68.49506, -24.67077 ], [ -68.49575, -24.67239 ], [ -68.4961, -24.67453 ], [ -68.49653, -24.67541 ], [ -68.49708, -24.676 ], [ -68.49829, -24.67631 ], [ -68.50072, -24.67626 ], [ -68.50158, -24.67641 ], [ -68.50229, -24.67686 ], [ -68.50303, -24.67893 ], [ -68.50315, -24.67976 ], [ -68.5035, -24.68048 ], [ -68.50415, -24.68071 ], [ -68.50464, -24.68133 ], [ -68.50474, -24.68188 ], [ -68.50337, -24.68359 ], [ -68.50348, -24.68443 ], [ -68.50389, -24.6849 ], [ -68.50462, -24.68535 ], [ -68.50708, -24.68779 ], [ -68.5081, -24.68921 ], [ -68.50838, -24.68987 ], [ -68.50895, -24.6904 ], [ -68.50969, -24.69187 ], [ -68.51086, -24.69342 ], [ -68.512, -24.69437 ], [ -68.51259, -24.69611 ], [ -68.51316, -24.69692 ], [ -68.51388, -24.69773 ], [ -68.51457, -24.69796 ], [ -68.51483, -24.69849 ], [ -68.51493, -24.69927 ], [ -68.51485, -24.70234 ], [ -68.51497, -24.70296 ], [ -68.51621, -24.70401 ], [ -68.51785, -24.70615 ], [ -68.51995, -24.70717 ], [ -68.52073, -24.70722 ], [ -68.52145, -24.70746 ], [ -68.52223, -24.70865 ], [ -68.52278, -24.70893 ], [ -68.52437, -24.70922 ], [ -68.52509, -24.70955 ], [ -68.52592, -24.71024 ], [ -68.5268, -24.71053 ], [ -68.52842, -24.7105 ], [ -68.52965, -24.71108 ], [ -68.53194, -24.71141 ], [ -68.53299, -24.71191 ], [ -68.53379, -24.712 ], [ -68.53448, -24.71241 ], [ -68.53498, -24.71326 ], [ -68.53515, -24.71472 ], [ -68.53575, -24.71624 ], [ -68.5357, -24.71679 ], [ -68.53627, -24.71817 ], [ -68.53629, -24.71921 ], [ -68.53651, -24.71969 ], [ -68.53779, -24.72059 ], [ -68.53953, -24.72107 ], [ -68.54036, -24.72152 ], [ -68.54215, -24.72345 ], [ -68.54367, -24.72426 ], [ -68.54396, -24.72478 ], [ -68.54348, -24.72599 ], [ -68.54353, -24.72738 ], [ -68.54493, -24.72978 ], [ -68.54469, -24.73444 ], [ -68.5441, -24.73566 ], [ -68.54388, -24.7368 ], [ -68.54391, -24.73763 ], [ -68.54429, -24.73913 ], [ -68.54472, -24.73991 ], [ -68.54506, -24.74219 ], [ -68.5456, -24.74364 ], [ -68.54575, -24.74452 ], [ -68.54539, -24.74521 ], [ -68.54534, -24.74595 ], [ -68.5456, -24.7464 ], [ -68.54541, -24.74878 ], [ -68.54553, -24.74988 ], [ -68.54598, -24.75061 ], [ -68.5461, -24.75309 ], [ -68.54637, -24.75397 ], [ -68.54784, -24.75616 ], [ -68.54882, -24.75718 ], [ -68.55022, -24.75811 ], [ -68.55479, -24.75956 ], [ -68.55802, -24.76027 ], [ -68.5591, -24.7607 ], [ -68.56136, -24.76246 ], [ -68.56164, -24.76318 ], [ -68.56012, -24.76829 ], [ -68.55995, -24.7697 ], [ -68.56017, -24.77065 ], [ -68.56099, -24.7724 ], [ -68.56083, -24.77408 ], [ -68.5615, -24.77971 ], [ -68.56259, -24.7829 ], [ -68.5624, -24.78509 ], [ -68.56264, -24.78604 ], [ -68.56504, -24.78978 ], [ -68.56697, -24.79166 ], [ -68.56709, -24.79244 ], [ -68.56795, -24.79325 ], [ -68.56833, -24.79404 ], [ -68.56835, -24.79478 ], [ -68.5679, -24.79525 ], [ -68.56709, -24.79582 ], [ -68.56647, -24.79597 ], [ -68.56346, -24.79836 ], [ -68.562, -24.79996 ], [ -68.56235, -24.80184 ], [ -68.56212, -24.80256 ], [ -68.56128, -24.80297 ], [ -68.55969, -24.80429 ], [ -68.55886, -24.80456 ], [ -68.55657, -24.80444 ], [ -68.55417, -24.80503 ], [ -68.5526, -24.80515 ], [ -68.54996, -24.80679 ], [ -68.54832, -24.8071 ], [ -68.54779, -24.80755 ], [ -68.54729, -24.80947 ], [ -68.54648, -24.81015 ], [ -68.54539, -24.81058 ], [ -68.54429, -24.81134 ], [ -68.54313, -24.81296 ], [ -68.54218, -24.81379 ], [ -68.54127, -24.81419 ], [ -68.5403, -24.8151 ], [ -68.53994, -24.81572 ], [ -68.53808, -24.81698 ], [ -68.53751, -24.81881 ], [ -68.53685, -24.81978 ], [ -68.53666, -24.82076 ], [ -68.53742, -24.82231 ], [ -68.53742, -24.82321 ], [ -68.53775, -24.82407 ], [ -68.53763, -24.82481 ], [ -68.53716, -24.82569 ], [ -68.53642, -24.82628 ], [ -68.53532, -24.82652 ], [ -68.53444, -24.82652 ], [ -68.53375, -24.82714 ], [ -68.53301, -24.82821 ], [ -68.53328, -24.83044 ], [ -68.5329, -24.83142 ], [ -68.53285, -24.83259 ], [ -68.53302, -24.83316 ], [ -68.53402, -24.83425 ], [ -68.53402, -24.83511 ], [ -68.53344, -24.83571 ], [ -68.5334, -24.83679 ], [ -68.53237, -24.83824 ], [ -68.53226, -24.84135 ], [ -68.53256, -24.84359 ], [ -68.53309, -24.84442 ], [ -68.53373, -24.84506 ], [ -68.53403, -24.84584 ], [ -68.53392, -24.84678 ], [ -68.53292, -24.84811 ], [ -68.53214, -24.84877 ], [ -68.53197, -24.8492 ], [ -68.53197, -24.84968 ], [ -68.53261, -24.85146 ], [ -68.53226, -24.85258 ], [ -68.53228, -24.8533 ], [ -68.53299, -24.85489 ], [ -68.53309, -24.85565 ], [ -68.53273, -24.85675 ], [ -68.53299, -24.85794 ], [ -68.53271, -24.85836 ], [ -68.5314, -24.85884 ], [ -68.52969, -24.8602 ], [ -68.52815, -24.86056 ], [ -68.52614, -24.86079 ], [ -68.52464, -24.86158 ], [ -68.52362, -24.8631 ], [ -68.5231, -24.86482 ], [ -68.52194, -24.86705 ], [ -68.5217, -24.86808 ], [ -68.52034, -24.87007 ], [ -68.52003, -24.87143 ], [ -68.52003, -24.87274 ], [ -68.51982, -24.87333 ], [ -68.51941, -24.87376 ], [ -68.52467, -24.87763 ], [ -68.54077, -24.88552 ], [ -68.5431, -24.88707 ], [ -68.55161, -24.89577 ], [ -68.57683, -24.90007 ], [ -68.61988, -24.95336 ], [ -68.6552, -24.97463 ], [ -68.64448, -25.03776 ], [ -68.639, -25.11279 ], [ -68.6513, -25.15724 ], [ -68.67237, -25.15249 ], [ -68.71824, -25.13765 ], [ -68.72853, -25.13324 ], [ -68.72981, -25.1058 ], [ -68.76799, -25.09032 ], [ -68.80775, -25.08541 ], [ -68.82466, -25.08219 ], [ -68.84319, -25.06971 ], [ -68.87926, -25.03999 ], [ -68.91195, -25.00718 ], [ -68.94094, -24.9716 ], [ -68.96594, -24.9336 ], [ -68.98202, -24.9026 ], [ -68.93647, -24.90111 ], [ -68.91824, -24.89859 ], [ -68.89315, -24.86293 ], [ -68.8778, -24.82174 ], [ -68.87293, -24.8064 ], [ -68.85943, -24.75388 ], [ -68.8486, -24.6862 ], [ -68.81162, -24.64655 ], [ -68.75357, -24.59764 ], [ -68.72576, -24.54355 ], [ -68.68835, -24.5175 ], [ -68.64493, -24.5436 ], [ -68.63271, -24.54866 ], [ -68.57168, -24.56129 ], [ -68.54842, -24.572 ], [ -68.49517, -24.59989 ], [ -68.49534, -24.60019 ], [ -68.4952, -24.60095 ], [ -68.49427, -24.60243 ], [ -68.49361, -24.60307 ], [ -68.49363, -24.60376 ], [ -68.49406, -24.605 ], [ -68.49444, -24.60536 ], [ -68.4951, -24.60721 ], [ -68.49698, -24.60869 ], [ -68.4977, -24.6095 ], [ -68.4987, -24.61114 ], [ -68.50013, -24.61252 ], [ -68.50027, -24.61304 ], [ -68.50022, -24.61409 ], [ -68.50043, -24.61473 ], [ -68.50265, -24.61668 ], [ -68.50285, -24.61771 ], [ -68.5025, -24.6194 ], [ -68.50212, -24.61985 ], [ -68.50143, -24.62016 ], [ -68.50077, -24.62078 ], [ -68.50072, -24.62223 ], [ -68.50017, -24.62266 ], [ -68.49941, -24.62296 ], [ -68.49853, -24.62427 ], [ -68.49758, -24.62496 ], [ -68.49729, -24.62572 ], [ -68.49748, -24.62677 ], [ -68.49808, -24.62758 ], [ -68.49817, -24.62815 ], [ -68.49767, -24.62891 ], [ -68.49656, -24.62937 ], [ -68.49587, -24.6301 ], [ -68.4953, -24.63103 ], [ -68.49499, -24.63229 ] ] ] } }
]
}
