{
"type": "FeatureCollection",
"name": "LON",
"crs": { "type": "name", "properties": { "name": "urn:ogc:def:crs:OGC:1.3:CRS84" } },
"xy_coordinate_resolution": 1e-05,
"features": [
{ "type": "Feature", "properties": { "nombre": "Reserva Nacional China Muerta", "categoria": "Reserva Nacional", "region": "Araucania", "superficie_ha": "9887", "decreto": "NÂ° 330 de 1968" }, "geometry": { "type": "MultiPolygon", "coordinates": [ [ [ [ -71.58854, -38.78546 ], [ -71.58987, -38.78312 ], [ -71.5907, -38.78233 ], [ -71.59109, -38.78169 ], [ -71.59162, -38.78139 ], [ -71.59332, -38.7815 ], [ -71.59453, -38.78255 ], [ -71.59631, -38.78377 ], [ -71.59925, -38.78466 ], [ -71.60139, -38.78675 ], [ -71.60271, -38.78729 ], [ -71.6052, -38.78708 ], [ -71.60688, -38.78743 ], [ -71.60855, -38.78658 ], [ -71.61026, -38.78654 ], [ -71.61121, -38.78524 ], [ -71.61206, -38.78486 ], [ -71.61218, -38.78439 ], [ -71.61245, -38.78428 ], [ -71.61706, -38.784 ], [ -71.61405, -38.78291 ], [ -71.61369, -38.78255 ], [ -71.61292, -38.78226 ], [ -71.60954, -38.77924 ], [ -71.59355, -38.76885 ], [ -71.59325, -38.76805 ], [ -71.59118, -38.76781 ], [ -71.58752, -38.76827 ], [ -71.58549, -38.76811 ], [ -71.58373, -38.76841 ], [ -71.58007, -38.76818 ], [ -71.57894, -38.76832 ], [ -71.57489, -38.76937 ], [ -71.57106, -38.77211 ], [ -71.56958, -38.77289 ], [ -71.56793, -38.77335 ], [ -71.56419, -38.77647 ], [ -71.5631, -38.77698 ], [ -71.56024, -38.77916 ], [ -71.5566, -38.78079 ], [ -71.55655, -38.77982 ], [ -71.54063, -38.7857 ], [ -71.53288, -38.78784 ], [ -71.5208, -38.79082 ], [ -71.51017, -38.79081 ], [ -71.509, -38.78714 ], [ -71.51355, -38.78632 ], [ -71.51431, -38.7859 ], [ -71.51492, -38.78499 ], [ -71.51548, -38.78455 ], [ -71.51641, -38.78468 ], [ -71.51766, -38.78397 ], [ -71.51855, -38.78388 ], [ -71.51949, -38.7835 ], [ -71.52321, -38.78353 ], [ -71.52109, -38.78113 ], [ -71.52023, -38.77993 ], [ -71.51957, -38.77936 ], [ -71.51723, -38.77663 ], [ -71.51447, -38.77421 ], [ -71.51508, -38.7734 ], [ -71.51716, -38.77154 ], [ -71.51784, -38.76961 ], [ -71.51983, -38.7683 ], [ -71.5215, -38.7667 ], [ -71.5183, -38.76452 ], [ -71.51417, -38.76329 ], [ -71.51043, -38.75426 ], [ -71.50997, -38.75347 ], [ -71.50476, -38.75611 ], [ -71.50388, -38.75667 ], [ -71.50247, -38.75789 ], [ -71.50174, -38.75796 ], [ -71.50068, -38.75838 ], [ -71.49512, -38.76187 ], [ -71.49263, -38.76253 ], [ -71.491, -38.76241 ], [ -71.49015, -38.76196 ], [ -71.48973, -38.76161 ], [ -71.48762, -38.75839 ], [ -71.48645, -38.75756 ], [ -71.48569, -38.75744 ], [ -71.4826, -38.75757 ], [ -71.47981, -38.75738 ], [ -71.47901, -38.75755 ], [ -71.47815, -38.75797 ], [ -71.47787, -38.75839 ], [ -71.47754, -38.76172 ], [ -71.47641, -38.76437 ], [ -71.47652, -38.76598 ], [ -71.4773, -38.76669 ], [ -71.4777, -38.76728 ], [ -71.47787, -38.76787 ], [ -71.47781, -38.76852 ], [ -71.47749, -38.76924 ], [ -71.47646, -38.77021 ], [ -71.47549, -38.77064 ], [ -71.47267, -38.77101 ], [ -71.46938, -38.77236 ], [ -71.46849, -38.77287 ], [ -71.46718, -38.77387 ], [ -71.4667, -38.77457 ], [ -71.46636, -38.77587 ], [ -71.46566, -38.77673 ], [ -71.46311, -38.77832 ], [ -71.46128, -38.77919 ], [ -71.45971, -38.77959 ], [ -71.45816, -38.77971 ], [ -71.45148, -38.77991 ], [ -71.44947, -38.77971 ], [ -71.44856, -38.78001 ], [ -71.44751, -38.78082 ], [ -71.44628, -38.78102 ], [ -71.44452, -38.78192 ], [ -71.44279, -38.78194 ], [ -71.44174, -38.78147 ], [ -71.44051, -38.78196 ], [ -71.44034, -38.78298 ], [ -71.44212, -38.78453 ], [ -71.44209, -38.78511 ], [ -71.44252, -38.78612 ], [ -71.44241, -38.78744 ], [ -71.4421, -38.78824 ], [ -71.44228, -38.78969 ], [ -71.44171, -38.79157 ], [ -71.44174, -38.7925 ], [ -71.44107, -38.7994 ], [ -71.44266, -38.79938 ], [ -71.44419, -38.79901 ], [ -71.4452, -38.80004 ], [ -71.43703, -38.80889 ], [ -71.43651, -38.80957 ], [ -71.43517, -38.81225 ], [ -71.43378, -38.81527 ], [ -71.48361, -38.82393 ], [ -71.48397, -38.82396 ], [ -71.48399, -38.82342 ], [ -71.48426, -38.82279 ], [ -71.48425, -38.82266 ], [ -71.48372, -38.82249 ], [ -71.4833, -38.82192 ], [ -71.48181, -38.81958 ], [ -71.48131, -38.81853 ], [ -71.48087, -38.81691 ], [ -71.48107, -38.81566 ], [ -71.48404, -38.81389 ], [ -71.49429, -38.80934 ], [ -71.49417, -38.80716 ], [ -71.49502, -38.80187 ], [ -71.49608, -38.80088 ], [ -71.49806, -38.80024 ], [ -71.50483, -38.80005 ], [ -71.51068, -38.79778 ], [ -71.51214, -38.79739 ], [ -71.51422, -38.79835 ], [ -71.51543, -38.80667 ], [ -71.52344, -38.81699 ], [ -71.51693, -38.81917 ], [ -71.50658, -38.82078 ], [ -71.50626, -38.82072 ], [ -71.50594, -38.81971 ], [ -71.50545, -38.81913 ], [ -71.50512, -38.8189 ], [ -71.50413, -38.8188 ], [ -71.50281, -38.8196 ], [ -71.50217, -38.82038 ], [ -71.50118, -38.82076 ], [ -71.49821, -38.8253 ], [ -71.51371, -38.82676 ], [ -71.51392, -38.8257 ], [ -71.51698, -38.82056 ], [ -71.52779, -38.82365 ], [ -71.52737, -38.82707 ], [ -71.5274, -38.82805 ], [ -71.5397, -38.82921 ], [ -71.55446, -38.82945 ], [ -71.55595, -38.82818 ], [ -71.55779, -38.82943 ], [ -71.55821, -38.82941 ], [ -71.55833, -38.82894 ], [ -71.55894, -38.82903 ], [ -71.55937, -38.82953 ], [ -71.56928, -38.8297 ], [ -71.57582, -38.82784 ], [ -71.57746, -38.8275 ], [ -71.57802, -38.82915 ], [ -71.57838, -38.82915 ], [ -71.59949, -38.82612 ], [ -71.60076, -38.82528 ], [ -71.60181, -38.82434 ], [ -71.60135, -38.82402 ], [ -71.6045, -38.82057 ], [ -71.60725, -38.81789 ], [ -71.6105, -38.8166 ], [ -71.6117, -38.81678 ], [ -71.61254, -38.81656 ], [ -71.61377, -38.81734 ], [ -71.61454, -38.8176 ], [ -71.61828, -38.81589 ], [ -71.62126, -38.81438 ], [ -71.62157, -38.81409 ], [ -71.62039, -38.81252 ], [ -71.6196, -38.81225 ], [ -71.61844, -38.8114 ], [ -71.61756, -38.80998 ], [ -71.61592, -38.80948 ], [ -71.61515, -38.80946 ], [ -71.61389, -38.80979 ], [ -71.61217, -38.81077 ], [ -71.60929, -38.81088 ], [ -71.60533, -38.81127 ], [ -71.60375, -38.81125 ], [ -71.60268, -38.8108 ], [ -71.60199, -38.8108 ], [ -71.60035, -38.81116 ], [ -71.59928, -38.81197 ], [ -71.59743, -38.81291 ], [ -71.59664, -38.81313 ], [ -71.59424, -38.81331 ], [ -71.59193, -38.81323 ], [ -71.58875, -38.81357 ], [ -71.5873, -38.81352 ], [ -71.58703, -38.81338 ], [ -71.58539, -38.81092 ], [ -71.58511, -38.81076 ], [ -71.58274, -38.81056 ], [ -71.58171, -38.80898 ], [ -71.58431, -38.80677 ], [ -71.58479, -38.80561 ], [ -71.58515, -38.80397 ], [ -71.58456, -38.80191 ], [ -71.58393, -38.80052 ], [ -71.58383, -38.7974 ], [ -71.58372, -38.79714 ], [ -71.58024, -38.79566 ], [ -71.57888, -38.79474 ], [ -71.57839, -38.79421 ], [ -71.5782, -38.79372 ], [ -71.57832, -38.79287 ], [ -71.57907, -38.7919 ], [ -71.5792, -38.79148 ], [ -71.57895, -38.79077 ], [ -71.57824, -38.7902 ], [ -71.57802, -38.78895 ], [ -71.5794, -38.78697 ], [ -71.57962, -38.78656 ], [ -71.58011, -38.78558 ], [ -71.58276, -38.78592 ], [ -71.58355, -38.78584 ], [ -71.58493, -38.78541 ], [ -71.58854, -38.78546 ] ], [ [ -71.57977, -38.78625 ], [ -71.57985, -38.78574 ], [ -71.58011, -38.78558 ], [ -71.57977, -38.78625 ] ] ], [ [ [ -71.53873, -38.76117 ], [ -71.53856, -38.75835 ], [ -71.53642, -38.75656 ], [ -71.53557, -38.75614 ], [ -71.53245, -38.75532 ], [ -71.51992, -38.74645 ], [ -71.52463, -38.76091 ], [ -71.52496, -38.76132 ], [ -71.53251, -38.76341 ], [ -71.53361, -38.76577 ], [ -71.53772, -38.76905 ], [ -71.53796, -38.76966 ], [ -71.54074, -38.77134 ], [ -71.54481, -38.77787 ], [ -71.54437, -38.76955 ], [ -71.5418, -38.76537 ], [ -71.54051, -38.76381 ], [ -71.53873, -38.76117 ] ], [ [ -71.53174, -38.76313 ], [ -71.53231, -38.7633 ], [ -71.53251, -38.76341 ], [ -71.53174, -38.76313 ] ] ], [ [ [ -71.5036, -38.73613 ], [ -71.50281, -38.73505 ], [ -71.50219, -38.73382 ], [ -71.50182, -38.73206 ], [ -71.50071, -38.72976 ], [ -71.49612, -38.72912 ], [ -71.49549, -38.72924 ], [ -71.49517, -38.72953 ], [ -71.49488, -38.73009 ], [ -71.49474, -38.73084 ], [ -71.49482, -38.73343 ], [ -71.49452, -38.73573 ], [ -71.49417, -38.73701 ], [ -71.49426, -38.7375 ], [ -71.49727, -38.74019 ], [ -71.49791, -38.74108 ], [ -71.49947, -38.74476 ], [ -71.50258, -38.74705 ], [ -71.50443, -38.74766 ], [ -71.50657, -38.74991 ], [ -71.50935, -38.75137 ], [ -71.51264, -38.75228 ], [ -71.51992, -38.74645 ], [ -71.51584, -38.74351 ], [ -71.5036, -38.73613 ] ] ] ] } },
{ "type": "Feature", "properties": { "nombre": "Parque Nacional Conguillio", "categoria": "Parque Nacional", "region": "Araucania", "superficie_ha": "60832,8", "decreto": "NÂ° 1117 de 1950; NÂ° 271 de 1970; NÂ° 131 de 1987; NÂ° 133 de 1989" }, "geometry": { "type": "MultiPolygon", "coordinates": [ [ [ [ -71.52727, -38.69897 ], [ -71.52781, -38.6995 ], [ -71.52722, -38.69876 ], [ -71.52727, -38.69897 ] ] ], [ [ [ -71.61722, -38.55607 ], [ -71.61866, -38.5522 ], [ -71.62204, -38.5476 ], [ -71.62225, -38.54546 ], [ -71.62214, -38.54403 ], [ -71.62125, -38.5436 ], [ -71.61432, -38.5423 ], [ -71.61396, -38.54238 ], [ -71.61052, -38.54153 ], [ -71.60591, -38.53908 ], [ -71.60576, -38.53559 ], [ -71.60733, -38.53241 ], [ -71.60872, -38.53089 ], [ -71.60685, -38.52967 ], [ -71.60594, -38.52868 ], [ -71.60568, -38.52702 ], [ -71.60561, -38.52494 ], [ -71.60509, -38.52394 ], [ -71.60445, -38.52184 ], [ -71.6036, -38.52147 ], [ -71.60308, -38.52341 ], [ -71.59959, -38.52714 ], [ -71.59817, -38.52769 ], [ -71.59528, -38.52819 ], [ -71.59554, -38.52861 ], [ -71.59611, -38.52904 ], [ -71.59762, -38.52971 ], [ -71.59711, -38.53376 ], [ -71.5938, -38.53703 ], [ -71.59343, -38.53708 ], [ -71.59183, -38.53856 ], [ -71.59157, -38.53837 ], [ -71.58885, -38.53404 ], [ -71.58865, -38.53396 ], [ -71.58265, -38.53522 ], [ -71.58207, -38.53517 ], [ -71.58201, -38.53376 ], [ -71.58185, -38.53347 ], [ -71.58091, -38.53261 ], [ -71.58048, -38.53155 ], [ -71.57875, -38.52998 ], [ -71.57851, -38.52884 ], [ -71.57871, -38.52626 ], [ -71.57843, -38.52566 ], [ -71.5782, -38.52536 ], [ -71.57593, -38.52589 ], [ -71.56966, -38.49846 ], [ -71.56363, -38.50006 ], [ -71.55719, -38.50146 ], [ -71.5587, -38.50518 ], [ -71.55637, -38.50552 ], [ -71.55711, -38.50895 ], [ -71.55961, -38.51522 ], [ -71.56191, -38.52262 ], [ -71.56256, -38.52233 ], [ -71.56337, -38.52325 ], [ -71.56451, -38.52671 ], [ -71.56466, -38.52766 ], [ -71.56365, -38.53049 ], [ -71.56383, -38.53199 ], [ -71.56323, -38.53234 ], [ -71.56281, -38.53312 ], [ -71.56263, -38.5348 ], [ -71.56228, -38.53564 ], [ -71.56073, -38.53738 ], [ -71.5632, -38.54019 ], [ -71.56385, -38.54073 ], [ -71.56489, -38.54288 ], [ -71.56068, -38.54545 ], [ -71.56037, -38.54611 ], [ -71.55875, -38.54754 ], [ -71.55763, -38.54818 ], [ -71.55643, -38.5483 ], [ -71.55726, -38.55165 ], [ -71.55671, -38.5517 ], [ -71.55543, -38.55108 ], [ -71.55447, -38.55107 ], [ -71.55201, -38.55178 ], [ -71.55058, -38.55269 ], [ -71.54964, -38.55305 ], [ -71.5485, -38.55288 ], [ -71.5467, -38.55366 ], [ -71.54549, -38.55182 ], [ -71.54275, -38.55144 ], [ -71.54097, -38.55056 ], [ -71.54106, -38.54903 ], [ -71.54141, -38.5486 ], [ -71.54279, -38.5456 ], [ -71.5435, -38.54456 ], [ -71.5456, -38.54298 ], [ -71.54602, -38.54216 ], [ -71.54658, -38.54231 ], [ -71.54943, -38.54002 ], [ -71.54942, -38.53955 ], [ -71.54896, -38.53888 ], [ -71.5485, -38.53775 ], [ -71.54701, -38.53553 ], [ -71.54819, -38.53495 ], [ -71.54814, -38.53474 ], [ -71.54614, -38.52809 ], [ -71.54271, -38.51833 ], [ -71.53695, -38.51963 ], [ -71.53728, -38.52161 ], [ -71.53704, -38.52382 ], [ -71.53651, -38.52529 ], [ -71.53491, -38.52722 ], [ -71.53493, -38.52961 ], [ -71.53481, -38.52996 ], [ -71.53493, -38.53082 ], [ -71.53459, -38.53277 ], [ -71.53437, -38.53312 ], [ -71.53323, -38.53402 ], [ -71.53249, -38.53514 ], [ -71.53022, -38.5346 ], [ -71.52814, -38.5348 ], [ -71.52718, -38.5347 ], [ -71.52422, -38.5337 ], [ -71.52315, -38.533 ], [ -71.52301, -38.53256 ], [ -71.52187, -38.5312 ], [ -71.5216, -38.53018 ], [ -71.51975, -38.53123 ], [ -71.51982, -38.53159 ], [ -71.52046, -38.53244 ], [ -71.52064, -38.5337 ], [ -71.52184, -38.53478 ], [ -71.5223, -38.53564 ], [ -71.52499, -38.53773 ], [ -71.52549, -38.53875 ], [ -71.526, -38.53911 ], [ -71.52609, -38.53983 ], [ -71.52806, -38.54183 ], [ -71.52837, -38.54256 ], [ -71.52832, -38.54364 ], [ -71.52904, -38.54432 ], [ -71.52923, -38.54498 ], [ -71.52844, -38.54624 ], [ -71.52864, -38.54697 ], [ -71.52802, -38.5473 ], [ -71.52791, -38.60145 ], [ -71.52679, -38.6065 ], [ -71.52682, -38.60735 ], [ -71.52665, -38.60802 ], [ -71.52564, -38.60899 ], [ -71.52183, -38.61106 ], [ -71.51844, -38.61244 ], [ -71.5122, -38.61449 ], [ -71.50786, -38.61522 ], [ -71.50523, -38.61456 ], [ -71.50188, -38.61289 ], [ -71.49978, -38.61159 ], [ -71.49908, -38.61061 ], [ -71.49775, -38.60806 ], [ -71.49747, -38.60719 ], [ -71.49518, -38.60781 ], [ -71.49297, -38.60913 ], [ -71.49141, -38.60968 ], [ -71.49095, -38.60942 ], [ -71.49017, -38.60978 ], [ -71.491, -38.61166 ], [ -71.49614, -38.61908 ], [ -71.49522, -38.62106 ], [ -71.49381, -38.62244 ], [ -71.49283, -38.6241 ], [ -71.49147, -38.62716 ], [ -71.49113, -38.62816 ], [ -71.49011, -38.63532 ], [ -71.49033, -38.63708 ], [ -71.49087, -38.63819 ], [ -71.49098, -38.64088 ], [ -71.49084, -38.64354 ], [ -71.49229, -38.64607 ], [ -71.49234, -38.64843 ], [ -71.48986, -38.65092 ], [ -71.48828, -38.65309 ], [ -71.48946, -38.65505 ], [ -71.4897, -38.65748 ], [ -71.49011, -38.65822 ], [ -71.49122, -38.65927 ], [ -71.49153, -38.66195 ], [ -71.49249, -38.66566 ], [ -71.49277, -38.6663 ], [ -71.49734, -38.66992 ], [ -71.49839, -38.67096 ], [ -71.50255, -38.67401 ], [ -71.50586, -38.67848 ], [ -71.50617, -38.67958 ], [ -71.50653, -38.68019 ], [ -71.50793, -38.68122 ], [ -71.50851, -38.68204 ], [ -71.51143, -38.684 ], [ -71.51192, -38.6846 ], [ -71.51322, -38.68663 ], [ -71.51398, -38.68858 ], [ -71.51496, -38.68904 ], [ -71.51715, -38.68965 ], [ -71.51863, -38.69052 ], [ -71.52093, -38.69236 ], [ -71.52329, -38.69513 ], [ -71.52627, -38.69618 ], [ -71.52667, -38.69646 ], [ -71.5271, -38.69814 ], [ -71.52781, -38.6995 ], [ -71.52851, -38.70009 ], [ -71.53102, -38.70063 ], [ -71.53257, -38.70137 ], [ -71.53371, -38.7027 ], [ -71.53416, -38.70425 ], [ -71.5359, -38.70614 ], [ -71.53597, -38.70736 ], [ -71.53621, -38.70821 ], [ -71.53705, -38.70955 ], [ -71.53768, -38.71114 ], [ -71.53752, -38.71263 ], [ -71.53661, -38.71455 ], [ -71.53645, -38.71606 ], [ -71.53588, -38.71677 ], [ -71.53498, -38.717 ], [ -71.52979, -38.71521 ], [ -71.52934, -38.71511 ], [ -71.52879, -38.71528 ], [ -71.52864, -38.7155 ], [ -71.52862, -38.71608 ], [ -71.52887, -38.71846 ], [ -71.52863, -38.71994 ], [ -71.52785, -38.72222 ], [ -71.52783, -38.72245 ], [ -71.52818, -38.72297 ], [ -71.5316, -38.72503 ], [ -71.53526, -38.72674 ], [ -71.53581, -38.72728 ], [ -71.53735, -38.72964 ], [ -71.53987, -38.73092 ], [ -71.54044, -38.73162 ], [ -71.54233, -38.73131 ], [ -71.54699, -38.73236 ], [ -71.54911, -38.73333 ], [ -71.55145, -38.73416 ], [ -71.55224, -38.73527 ], [ -71.55344, -38.73615 ], [ -71.56058, -38.73647 ], [ -71.56442, -38.73788 ], [ -71.56643, -38.73886 ], [ -71.56734, -38.74006 ], [ -71.56754, -38.74189 ], [ -71.56941, -38.74499 ], [ -71.56981, -38.74689 ], [ -71.56975, -38.74717 ], [ -71.5689, -38.74792 ], [ -71.56846, -38.74874 ], [ -71.56741, -38.75158 ], [ -71.5636, -38.7518 ], [ -71.56098, -38.75177 ], [ -71.55891, -38.75228 ], [ -71.55786, -38.75304 ], [ -71.55648, -38.75348 ], [ -71.55552, -38.75364 ], [ -71.55391, -38.75339 ], [ -71.55283, -38.75346 ], [ -71.55192, -38.75431 ], [ -71.55103, -38.75597 ], [ -71.55158, -38.75665 ], [ -71.55195, -38.75684 ], [ -71.55397, -38.75718 ], [ -71.55506, -38.7572 ], [ -71.558, -38.7659 ], [ -71.55953, -38.76562 ], [ -71.55984, -38.76608 ], [ -71.5605, -38.76631 ], [ -71.56251, -38.76625 ], [ -71.56393, -38.76576 ], [ -71.56562, -38.76487 ], [ -71.56842, -38.764 ], [ -71.57162, -38.76329 ], [ -71.57442, -38.76229 ], [ -71.57541, -38.76241 ], [ -71.57603, -38.76285 ], [ -71.57678, -38.76299 ], [ -71.57716, -38.76286 ], [ -71.57885, -38.75996 ], [ -71.57921, -38.75978 ], [ -71.57914, -38.75854 ], [ -71.58173, -38.75592 ], [ -71.58336, -38.75539 ], [ -71.5839, -38.75492 ], [ -71.58559, -38.75577 ], [ -71.5867, -38.75592 ], [ -71.58742, -38.75552 ], [ -71.58786, -38.75453 ], [ -71.58793, -38.75368 ], [ -71.58578, -38.75427 ], [ -71.58585, -38.74759 ], [ -71.58607, -38.74437 ], [ -71.58626, -38.74399 ], [ -71.58606, -38.74338 ], [ -71.58464, -38.74273 ], [ -71.58121, -38.73978 ], [ -71.58095, -38.73841 ], [ -71.57503, -38.73261 ], [ -71.57448, -38.73234 ], [ -71.57254, -38.73197 ], [ -71.57005, -38.73076 ], [ -71.56671, -38.73025 ], [ -71.56662, -38.72951 ], [ -71.56713, -38.72725 ], [ -71.56701, -38.72573 ], [ -71.5661, -38.72474 ], [ -71.56602, -38.72445 ], [ -71.56601, -38.72387 ], [ -71.56651, -38.72263 ], [ -71.56696, -38.72254 ], [ -71.56876, -38.72273 ], [ -71.57016, -38.72379 ], [ -71.5712, -38.72516 ], [ -71.57207, -38.72555 ], [ -71.57307, -38.72646 ], [ -71.57899, -38.72549 ], [ -71.58044, -38.72386 ], [ -71.58325, -38.7202 ], [ -71.58553, -38.71895 ], [ -71.58762, -38.71709 ], [ -71.58799, -38.71698 ], [ -71.59136, -38.71783 ], [ -71.60124, -38.71987 ], [ -71.62004, -38.72547 ], [ -71.62062, -38.7236 ], [ -71.62052, -38.7211 ], [ -71.62025, -38.72003 ], [ -71.6192, -38.71813 ], [ -71.61852, -38.71734 ], [ -71.6189, -38.71682 ], [ -71.61929, -38.71663 ], [ -71.62011, -38.71657 ], [ -71.62051, -38.71709 ], [ -71.62159, -38.71706 ], [ -71.62479, -38.71958 ], [ -71.62485, -38.72029 ], [ -71.62428, -38.72166 ], [ -71.62427, -38.72272 ], [ -71.62493, -38.72325 ], [ -71.62546, -38.72425 ], [ -71.6255, -38.72456 ], [ -71.62511, -38.72576 ], [ -71.62524, -38.72614 ], [ -71.62594, -38.72662 ], [ -71.62612, -38.72715 ], [ -71.62563, -38.72982 ], [ -71.62558, -38.73208 ], [ -71.62511, -38.73292 ], [ -71.62515, -38.73415 ], [ -71.62477, -38.73512 ], [ -71.62491, -38.73611 ], [ -71.62467, -38.73709 ], [ -71.62482, -38.73841 ], [ -71.62513, -38.73953 ], [ -71.62543, -38.73999 ], [ -71.62554, -38.74073 ], [ -71.62512, -38.74207 ], [ -71.62466, -38.7425 ], [ -71.62437, -38.74308 ], [ -71.62419, -38.74423 ], [ -71.62416, -38.74662 ], [ -71.62499, -38.74892 ], [ -71.62456, -38.75062 ], [ -71.62388, -38.752 ], [ -71.62372, -38.75346 ], [ -71.62343, -38.75421 ], [ -71.62348, -38.75518 ], [ -71.62402, -38.75662 ], [ -71.6232, -38.75822 ], [ -71.62323, -38.75886 ], [ -71.62306, -38.75937 ], [ -71.62315, -38.76096 ], [ -71.62347, -38.76147 ], [ -71.6247, -38.76197 ], [ -71.62477, -38.76238 ], [ -71.62457, -38.76275 ], [ -71.62487, -38.76351 ], [ -71.62508, -38.76389 ], [ -71.62595, -38.76468 ], [ -71.62608, -38.76503 ], [ -71.62595, -38.76536 ], [ -71.62535, -38.76586 ], [ -71.62485, -38.76657 ], [ -71.62501, -38.76749 ], [ -71.62533, -38.76825 ], [ -71.62587, -38.76892 ], [ -71.62691, -38.76948 ], [ -71.62793, -38.77119 ], [ -71.62787, -38.77231 ], [ -71.6271, -38.77321 ], [ -71.62694, -38.77355 ], [ -71.62705, -38.77389 ], [ -71.62825, -38.77475 ], [ -71.62905, -38.77496 ], [ -71.62979, -38.77496 ], [ -71.63019, -38.77514 ], [ -71.6328, -38.77836 ], [ -71.63269, -38.7789 ], [ -71.63296, -38.77916 ], [ -71.63362, -38.77925 ], [ -71.63446, -38.77841 ], [ -71.63495, -38.77821 ], [ -71.6352, -38.77827 ], [ -71.63598, -38.77922 ], [ -71.63699, -38.77942 ], [ -71.63788, -38.78044 ], [ -71.63897, -38.78267 ], [ -71.64059, -38.78501 ], [ -71.64806, -38.78488 ], [ -71.64782, -38.78425 ], [ -71.64622, -38.78316 ], [ -71.64606, -38.78276 ], [ -71.6463, -38.78168 ], [ -71.64617, -38.78076 ], [ -71.64666, -38.77948 ], [ -71.64679, -38.77834 ], [ -71.64705, -38.77799 ], [ -71.64717, -38.77672 ], [ -71.64562, -38.77381 ], [ -71.64547, -38.77261 ], [ -71.64499, -38.77171 ], [ -71.64531, -38.77119 ], [ -71.64657, -38.76509 ], [ -71.64735, -38.76449 ], [ -71.64985, -38.76315 ], [ -71.65165, -38.76291 ], [ -71.65616, -38.76192 ], [ -71.65798, -38.76174 ], [ -71.66257, -38.78172 ], [ -71.66628, -38.7794 ], [ -71.66858, -38.77844 ], [ -71.67018, -38.77753 ], [ -71.67125, -38.77647 ], [ -71.67362, -38.77727 ], [ -71.67712, -38.77879 ], [ -71.67816, -38.77902 ], [ -71.67723, -38.77439 ], [ -71.67627, -38.77181 ], [ -71.67624, -38.77067 ], [ -71.67729, -38.76783 ], [ -71.67795, -38.76758 ], [ -71.67866, -38.76659 ], [ -71.68225, -38.76581 ], [ -71.68338, -38.76578 ], [ -71.69355, -38.76458 ], [ -71.69658, -38.76619 ], [ -71.69732, -38.77381 ], [ -71.69726, -38.77732 ], [ -71.69755, -38.77872 ], [ -71.69808, -38.78003 ], [ -71.69892, -38.781 ], [ -71.69912, -38.78148 ], [ -71.69905, -38.78176 ], [ -71.69794, -38.78246 ], [ -71.6977, -38.78313 ], [ -71.69333, -38.78771 ], [ -71.69228, -38.78919 ], [ -71.69209, -38.79017 ], [ -71.69224, -38.79076 ], [ -71.69221, -38.79277 ], [ -71.69146, -38.7947 ], [ -71.69047, -38.79645 ], [ -71.68974, -38.79859 ], [ -71.68919, -38.79936 ], [ -71.68918, -38.79966 ], [ -71.69002, -38.80029 ], [ -71.69008, -38.80112 ], [ -71.68932, -38.8023 ], [ -71.68952, -38.80314 ], [ -71.69034, -38.80482 ], [ -71.69052, -38.80492 ], [ -71.69266, -38.80294 ], [ -71.698, -38.80388 ], [ -71.70002, -38.80159 ], [ -71.70331, -38.79908 ], [ -71.70765, -38.79766 ], [ -71.71006, -38.7972 ], [ -71.71122, -38.7975 ], [ -71.71413, -38.7971 ], [ -71.71533, -38.79752 ], [ -71.7181, -38.79916 ], [ -71.71932, -38.80194 ], [ -71.71949, -38.80143 ], [ -71.72058, -38.79998 ], [ -71.72137, -38.79729 ], [ -71.7223, -38.79588 ], [ -71.72368, -38.79306 ], [ -71.72617, -38.79038 ], [ -71.72904, -38.78556 ], [ -71.73006, -38.78485 ], [ -71.7307, -38.78471 ], [ -71.73344, -38.78475 ], [ -71.73381, -38.78501 ], [ -71.73489, -38.78645 ], [ -71.73505, -38.78699 ], [ -71.73485, -38.7881 ], [ -71.73376, -38.79163 ], [ -71.73384, -38.79447 ], [ -71.73338, -38.79499 ], [ -71.73225, -38.79701 ], [ -71.73132, -38.79789 ], [ -71.73024, -38.79963 ], [ -71.7304, -38.80119 ], [ -71.73031, -38.80188 ], [ -71.72997, -38.80251 ], [ -71.72957, -38.80462 ], [ -71.72942, -38.80724 ], [ -71.73298, -38.80627 ], [ -71.73531, -38.80425 ], [ -71.73686, -38.80367 ], [ -71.73806, -38.80295 ], [ -71.73931, -38.80113 ], [ -71.73956, -38.80052 ], [ -71.74076, -38.79547 ], [ -71.74241, -38.79336 ], [ -71.74382, -38.79205 ], [ -71.74447, -38.79116 ], [ -71.74534, -38.78808 ], [ -71.74534, -38.78732 ], [ -71.74666, -38.78477 ], [ -71.75376, -38.78352 ], [ -71.75502, -38.78295 ], [ -71.76235, -38.78035 ], [ -71.76326, -38.78017 ], [ -71.7629, -38.77911 ], [ -71.76316, -38.77763 ], [ -71.76376, -38.77586 ], [ -71.76371, -38.77504 ], [ -71.76306, -38.77329 ], [ -71.76299, -38.7691 ], [ -71.7632, -38.76827 ], [ -71.76354, -38.76811 ], [ -71.77301, -38.76709 ], [ -71.77655, -38.76891 ], [ -71.777, -38.76898 ], [ -71.77975, -38.7691 ], [ -71.78122, -38.76942 ], [ -71.78676, -38.76968 ], [ -71.79705, -38.77106 ], [ -71.79722, -38.77129 ], [ -71.79714, -38.77188 ], [ -71.79601, -38.77618 ], [ -71.79603, -38.77863 ], [ -71.79631, -38.78177 ], [ -71.79673, -38.78274 ], [ -71.79675, -38.78344 ], [ -71.79731, -38.78551 ], [ -71.79743, -38.78692 ], [ -71.79751, -38.79011 ], [ -71.79738, -38.79051 ], [ -71.79633, -38.79202 ], [ -71.79683, -38.79429 ], [ -71.79655, -38.79498 ], [ -71.79659, -38.79582 ], [ -71.79666, -38.79642 ], [ -71.81502, -38.79078 ], [ -71.83224, -38.78388 ], [ -71.8249, -38.76547 ], [ -71.82033, -38.75348 ], [ -71.83804, -38.74889 ], [ -71.86501, -38.7438 ], [ -71.86647, -38.74813 ], [ -71.88837, -38.74375 ], [ -71.88225, -38.72512 ], [ -71.89332, -38.72251 ], [ -71.88755, -38.70638 ], [ -71.87652, -38.7084 ], [ -71.86151, -38.66604 ], [ -71.85355, -38.64505 ], [ -71.82774, -38.65051 ], [ -71.8258, -38.64475 ], [ -71.78186, -38.65329 ], [ -71.77696, -38.64018 ], [ -71.77679, -38.63927 ], [ -71.77698, -38.63906 ], [ -71.7769, -38.63889 ], [ -71.77447, -38.63641 ], [ -71.77221, -38.63341 ], [ -71.77251, -38.63281 ], [ -71.77437, -38.63059 ], [ -71.7743, -38.62987 ], [ -71.7745, -38.62931 ], [ -71.77496, -38.62893 ], [ -71.77639, -38.62707 ], [ -71.77666, -38.62607 ], [ -71.77651, -38.62581 ], [ -71.77665, -38.62559 ], [ -71.77622, -38.62516 ], [ -71.77622, -38.62425 ], [ -71.7784, -38.6221 ], [ -71.77784, -38.62161 ], [ -71.77801, -38.62012 ], [ -71.77878, -38.61851 ], [ -71.7798, -38.6176 ], [ -71.77949, -38.61575 ], [ -71.7797, -38.61409 ], [ -71.7807, -38.61286 ], [ -71.78148, -38.61146 ], [ -71.78441, -38.60856 ], [ -71.7858, -38.60843 ], [ -71.78706, -38.60785 ], [ -71.78864, -38.60674 ], [ -71.79193, -38.60347 ], [ -71.79194, -38.60284 ], [ -71.79143, -38.60204 ], [ -71.79144, -38.60173 ], [ -71.79315, -38.59699 ], [ -71.79472, -38.59443 ], [ -71.79517, -38.59291 ], [ -71.79517, -38.59208 ], [ -71.79558, -38.59084 ], [ -71.79566, -38.58982 ], [ -71.79487, -38.58864 ], [ -71.79406, -38.58812 ], [ -71.7938, -38.58827 ], [ -71.79212, -38.59067 ], [ -71.79152, -38.59069 ], [ -71.791, -38.59035 ], [ -71.7908, -38.59012 ], [ -71.79093, -38.58898 ], [ -71.79053, -38.58803 ], [ -71.79056, -38.58755 ], [ -71.79017, -38.58581 ], [ -71.79115, -38.58492 ], [ -71.79013, -38.58387 ], [ -71.7892, -38.58247 ], [ -71.78794, -38.58129 ], [ -71.78613, -38.58407 ], [ -71.78578, -38.58436 ], [ -71.7863, -38.589 ], [ -71.78615, -38.58965 ], [ -71.78478, -38.59097 ], [ -71.78298, -38.59226 ], [ -71.78236, -38.5926 ], [ -71.78115, -38.59284 ], [ -71.78113, -38.5904 ], [ -71.78179, -38.58962 ], [ -71.78361, -38.58582 ], [ -71.78223, -38.58373 ], [ -71.78237, -38.5836 ], [ -71.78186, -38.58363 ], [ -71.78117, -38.58482 ], [ -71.78033, -38.58581 ], [ -71.77853, -38.58941 ], [ -71.7774, -38.59067 ], [ -71.77668, -38.59176 ], [ -71.77529, -38.59471 ], [ -71.77409, -38.596 ], [ -71.77301, -38.59752 ], [ -71.77179, -38.59872 ], [ -71.7713, -38.59897 ], [ -71.77137, -38.59922 ], [ -71.77241, -38.59978 ], [ -71.77346, -38.60059 ], [ -71.77493, -38.60238 ], [ -71.77704, -38.60417 ], [ -71.77654, -38.60498 ], [ -71.77611, -38.60534 ], [ -71.7734, -38.60663 ], [ -71.77162, -38.60797 ], [ -71.77053, -38.60857 ], [ -71.769, -38.60907 ], [ -71.76827, -38.60889 ], [ -71.76631, -38.60879 ], [ -71.76352, -38.60796 ], [ -71.76227, -38.60715 ], [ -71.75873, -38.60535 ], [ -71.75775, -38.60788 ], [ -71.75663, -38.60885 ], [ -71.75488, -38.61 ], [ -71.75426, -38.61081 ], [ -71.75325, -38.61174 ], [ -71.74998, -38.61327 ], [ -71.74599, -38.61455 ], [ -71.74511, -38.61597 ], [ -71.74314, -38.61754 ], [ -71.73987, -38.61978 ], [ -71.73788, -38.6216 ], [ -71.73604, -38.62275 ], [ -71.73538, -38.62337 ], [ -71.73507, -38.62397 ], [ -71.73476, -38.62406 ], [ -71.73455, -38.62387 ], [ -71.73289, -38.61778 ], [ -71.72342, -38.61988 ], [ -71.71673, -38.60018 ], [ -71.68576, -38.60714 ], [ -71.6853, -38.60507 ], [ -71.68427, -38.60238 ], [ -71.68179, -38.59397 ], [ -71.68149, -38.59092 ], [ -71.68128, -38.59061 ], [ -71.67918, -38.58878 ], [ -71.6787, -38.5879 ], [ -71.6779, -38.58743 ], [ -71.67657, -38.58707 ], [ -71.67404, -38.58436 ], [ -71.67208, -38.58276 ], [ -71.67134, -38.58143 ], [ -71.66533, -38.57364 ], [ -71.66321, -38.57231 ], [ -71.66152, -38.57204 ], [ -71.66097, -38.57131 ], [ -71.64787, -38.58272 ], [ -71.628, -38.58337 ], [ -71.61199, -38.57431 ], [ -71.61305, -38.57316 ], [ -71.61359, -38.57208 ], [ -71.6142, -38.57157 ], [ -71.62475, -38.56602 ], [ -71.63092, -38.55794 ], [ -71.63025, -38.55801 ], [ -71.62266, -38.56051 ], [ -71.61722, -38.55607 ] ], [ [ -71.60617, -38.53938 ], [ -71.60596, -38.53925 ], [ -71.60591, -38.53908 ], [ -71.60617, -38.53938 ] ], [ [ -71.53302, -38.53438 ], [ -71.53265, -38.53494 ], [ -71.53249, -38.53514 ], [ -71.53302, -38.53438 ] ], [ [ -71.79778, -38.68325 ], [ -71.79857, -38.68214 ], [ -71.80056, -38.68306 ], [ -71.79967, -38.68354 ], [ -71.79941, -38.68383 ], [ -71.79938, -38.68419 ], [ -71.79965, -38.68477 ], [ -71.79987, -38.68513 ], [ -71.80024, -38.68535 ], [ -71.801, -38.68575 ], [ -71.80133, -38.68567 ], [ -71.80873, -38.69764 ], [ -71.80622, -38.70019 ], [ -71.78803, -38.70469 ], [ -71.77963, -38.696 ], [ -71.7836, -38.68951 ], [ -71.79853, -38.68632 ], [ -71.79778, -38.68325 ] ], [ [ -71.7514, -38.64094 ], [ -71.7496, -38.64951 ], [ -71.72924, -38.65105 ], [ -71.72802, -38.6431 ], [ -71.7514, -38.64094 ] ], [ [ -71.77836, -38.60242 ], [ -71.77708, -38.60333 ], [ -71.77682, -38.60332 ], [ -71.77637, -38.60242 ], [ -71.77633, -38.60093 ], [ -71.77661, -38.60004 ], [ -71.77819, -38.59864 ], [ -71.78027, -38.59742 ], [ -71.78265, -38.59688 ], [ -71.78334, -38.597 ], [ -71.78309, -38.59819 ], [ -71.7821, -38.5993 ], [ -71.78145, -38.59988 ], [ -71.77912, -38.60083 ], [ -71.77856, -38.60149 ], [ -71.77836, -38.60242 ] ] ], [ [ [ -71.61382, -38.51194 ], [ -71.61616, -38.511 ], [ -71.61699, -38.51085 ], [ -71.61814, -38.51098 ], [ -71.61706, -38.50603 ], [ -71.60523, -38.5084 ], [ -71.60829, -38.51641 ], [ -71.60907, -38.51533 ], [ -71.61102, -38.51324 ], [ -71.61244, -38.51219 ], [ -71.61382, -38.51194 ] ] ] ] } },
{ "type": "Feature", "properties": { "nombre": "Reserva Nacional Malalcahuello", "categoria": "Reserva Nacional", "region": "Araucania", "superficie_ha": "13882", "decreto": "NÂ° 1670 de 1931; NÂ° 131 de 1987" }, "geometry": { "type": "MultiPolygon", "coordinates": [ [ [ [ -71.6004, -38.36405 ], [ -71.59833, -38.367 ], [ -71.59768, -38.36757 ], [ -71.59363, -38.37424 ], [ -71.59049, -38.37862 ], [ -71.59001, -38.37907 ], [ -71.58931, -38.37961 ], [ -71.58894, -38.37944 ], [ -71.58375, -38.38064 ], [ -71.58128, -38.38212 ], [ -71.5748, -38.38337 ], [ -71.57143, -38.38358 ], [ -71.56414, -38.38204 ], [ -71.56005, -38.38065 ], [ -71.55486, -38.37935 ], [ -71.5538, -38.37931 ], [ -71.55252, -38.37949 ], [ -71.54997, -38.38099 ], [ -71.54871, -38.38121 ], [ -71.54807, -38.38098 ], [ -71.54697, -38.38008 ], [ -71.54633, -38.37929 ], [ -71.54299, -38.3778 ], [ -71.54041, -38.37608 ], [ -71.53866, -38.37423 ], [ -71.53777, -38.37224 ], [ -71.53745, -38.36951 ], [ -71.5361, -38.36786 ], [ -71.5355, -38.36758 ], [ -71.52986, -38.36671 ], [ -71.52814, -38.36608 ], [ -71.52878, -38.36708 ], [ -71.52686, -38.36945 ], [ -71.52704, -38.37164 ], [ -71.52627, -38.37302 ], [ -71.52513, -38.37321 ], [ -71.5245, -38.37384 ], [ -71.52267, -38.37647 ], [ -71.52198, -38.38059 ], [ -71.52047, -38.3836 ], [ -71.52052, -38.38568 ], [ -71.5203, -38.38778 ], [ -71.51962, -38.38857 ], [ -71.51965, -38.38904 ], [ -71.51751, -38.39113 ], [ -71.51719, -38.39187 ], [ -71.51696, -38.39324 ], [ -71.51618, -38.39477 ], [ -71.51533, -38.39576 ], [ -71.51234, -38.40058 ], [ -71.5118, -38.40197 ], [ -71.51021, -38.40393 ], [ -71.51006, -38.40502 ], [ -71.50954, -38.4064 ], [ -71.50923, -38.41003 ], [ -71.50871, -38.41082 ], [ -71.50838, -38.41111 ], [ -71.50772, -38.4113 ], [ -71.50759, -38.41153 ], [ -71.50794, -38.41199 ], [ -71.50796, -38.41243 ], [ -71.50781, -38.41346 ], [ -71.50742, -38.41396 ], [ -71.50747, -38.41428 ], [ -71.50816, -38.41539 ], [ -71.5079, -38.41585 ], [ -71.5072, -38.41591 ], [ -71.50654, -38.41644 ], [ -71.5066, -38.4182 ], [ -71.50645, -38.41918 ], [ -71.50671, -38.42166 ], [ -71.5059, -38.42322 ], [ -71.5064, -38.42406 ], [ -71.50603, -38.42422 ], [ -71.50597, -38.42479 ], [ -71.50542, -38.42493 ], [ -71.50526, -38.42519 ], [ -71.50544, -38.42559 ], [ -71.50604, -38.42575 ], [ -71.50626, -38.42632 ], [ -71.50608, -38.42663 ], [ -71.50558, -38.42667 ], [ -71.50598, -38.42729 ], [ -71.50572, -38.42753 ], [ -71.50533, -38.42749 ], [ -71.50535, -38.42811 ], [ -71.50493, -38.4283 ], [ -71.50491, -38.42856 ], [ -71.50556, -38.42903 ], [ -71.50567, -38.42954 ], [ -71.50487, -38.42967 ], [ -71.50473, -38.42984 ], [ -71.50476, -38.43067 ], [ -71.50416, -38.43013 ], [ -71.50374, -38.42943 ], [ -71.50241, -38.42915 ], [ -71.50351, -38.43179 ], [ -71.50129, -38.43187 ], [ -71.50132, -38.432 ], [ -71.50245, -38.43246 ], [ -71.50244, -38.43269 ], [ -71.50154, -38.4326 ], [ -71.5006, -38.43277 ], [ -71.50057, -38.43289 ], [ -71.50095, -38.43304 ], [ -71.50173, -38.43301 ], [ -71.50169, -38.43357 ], [ -71.50234, -38.43407 ], [ -71.50247, -38.43445 ], [ -71.50174, -38.43487 ], [ -71.50095, -38.43509 ], [ -71.50055, -38.43552 ], [ -71.49965, -38.43578 ], [ -71.49864, -38.43577 ], [ -71.49781, -38.43513 ], [ -71.49662, -38.43472 ], [ -71.49606, -38.4347 ], [ -71.49515, -38.43511 ], [ -71.49402, -38.43503 ], [ -71.49347, -38.43537 ], [ -71.49412, -38.43576 ], [ -71.49386, -38.43614 ], [ -71.49325, -38.43629 ], [ -71.49212, -38.43623 ], [ -71.49242, -38.43488 ], [ -71.49199, -38.43443 ], [ -71.49174, -38.43329 ], [ -71.49094, -38.4331 ], [ -71.48958, -38.43326 ], [ -71.48887, -38.43359 ], [ -71.48842, -38.43354 ], [ -71.4885, -38.43283 ], [ -71.48952, -38.43186 ], [ -71.48914, -38.43145 ], [ -71.48713, -38.43071 ], [ -71.48798, -38.43146 ], [ -71.48821, -38.43193 ], [ -71.48699, -38.43295 ], [ -71.48609, -38.43321 ], [ -71.48589, -38.43361 ], [ -71.4858, -38.43315 ], [ -71.48667, -38.43265 ], [ -71.48686, -38.43182 ], [ -71.48656, -38.43161 ], [ -71.48545, -38.43146 ], [ -71.48527, -38.43088 ], [ -71.48502, -38.43063 ], [ -71.48377, -38.43054 ], [ -71.4828, -38.43022 ], [ -71.48189, -38.43011 ], [ -71.48057, -38.43045 ], [ -71.48187, -38.43241 ], [ -71.48321, -38.43494 ], [ -71.48298, -38.4363 ], [ -71.48243, -38.43735 ], [ -71.48167, -38.43825 ], [ -71.48116, -38.43934 ], [ -71.4808, -38.44064 ], [ -71.48041, -38.44337 ], [ -71.47958, -38.44422 ], [ -71.47827, -38.44468 ], [ -71.47403, -38.44521 ], [ -71.47244, -38.44568 ], [ -71.47107, -38.44631 ], [ -71.46985, -38.44757 ], [ -71.46875, -38.44828 ], [ -71.46804, -38.44837 ], [ -71.46596, -38.4477 ], [ -71.46458, -38.44782 ], [ -71.46387, -38.44836 ], [ -71.46358, -38.44906 ], [ -71.46301, -38.44982 ], [ -71.46102, -38.45067 ], [ -71.46027, -38.45149 ], [ -71.45981, -38.45236 ], [ -71.45967, -38.45317 ], [ -71.46018, -38.45405 ], [ -71.46224, -38.45591 ], [ -71.46221, -38.4565 ], [ -71.46184, -38.45691 ], [ -71.45935, -38.45702 ], [ -71.45862, -38.45726 ], [ -71.45787, -38.45779 ], [ -71.45736, -38.45854 ], [ -71.4569, -38.45976 ], [ -71.45678, -38.4614 ], [ -71.45686, -38.46475 ], [ -71.45647, -38.46525 ], [ -71.45443, -38.46636 ], [ -71.45391, -38.46698 ], [ -71.45369, -38.46804 ], [ -71.45193, -38.46941 ], [ -71.45047, -38.47091 ], [ -71.44993, -38.47183 ], [ -71.44969, -38.47294 ], [ -71.44977, -38.47395 ], [ -71.45001, -38.47463 ], [ -71.45385, -38.47972 ], [ -71.4556, -38.48111 ], [ -71.45703, -38.4831 ], [ -71.45938, -38.48549 ], [ -71.4601, -38.48611 ], [ -71.46237, -38.48705 ], [ -71.46331, -38.48798 ], [ -71.46341, -38.48837 ], [ -71.46325, -38.48986 ], [ -71.46271, -38.49124 ], [ -71.46167, -38.49311 ], [ -71.46076, -38.49399 ], [ -71.46, -38.4951 ], [ -71.45989, -38.4957 ], [ -71.46061, -38.49552 ], [ -71.46333, -38.497 ], [ -71.46919, -38.49818 ], [ -71.47004, -38.49907 ], [ -71.47046, -38.49917 ], [ -71.47015, -38.49722 ], [ -71.47056, -38.49684 ], [ -71.47228, -38.49638 ], [ -71.47165, -38.49715 ], [ -71.47172, -38.49799 ], [ -71.47334, -38.50051 ], [ -71.47481, -38.50328 ], [ -71.47641, -38.50648 ], [ -71.47652, -38.50709 ], [ -71.48079, -38.50614 ], [ -71.48292, -38.50478 ], [ -71.48572, -38.50601 ], [ -71.4861, -38.50693 ], [ -71.48781, -38.50791 ], [ -71.48751, -38.50906 ], [ -71.48624, -38.51058 ], [ -71.48668, -38.5114 ], [ -71.4873, -38.51115 ], [ -71.48901, -38.51089 ], [ -71.4907, -38.51033 ], [ -71.4926, -38.51008 ], [ -71.49478, -38.51016 ], [ -71.50007, -38.5112 ], [ -71.50164, -38.51095 ], [ -71.50204, -38.51063 ], [ -71.50454, -38.50605 ], [ -71.50737, -38.50611 ], [ -71.50242, -38.49176 ], [ -71.51804, -38.48147 ], [ -71.51733, -38.48079 ], [ -71.51654, -38.47909 ], [ -71.51608, -38.47633 ], [ -71.51561, -38.47484 ], [ -71.5159, -38.47277 ], [ -71.50985, -38.47411 ], [ -71.5058, -38.46314 ], [ -71.50227, -38.46393 ], [ -71.49869, -38.45986 ], [ -71.49817, -38.45894 ], [ -71.497, -38.45536 ], [ -71.50101, -38.45545 ], [ -71.50171, -38.45839 ], [ -71.51139, -38.45627 ], [ -71.51188, -38.45516 ], [ -71.51204, -38.45399 ], [ -71.51195, -38.45324 ], [ -71.51304, -38.45039 ], [ -71.51099, -38.45017 ], [ -71.50866, -38.44938 ], [ -71.50768, -38.44579 ], [ -71.50579, -38.44454 ], [ -71.49838, -38.44079 ], [ -71.49771, -38.44009 ], [ -71.49613, -38.43892 ], [ -71.49741, -38.43771 ], [ -71.49857, -38.43738 ], [ -71.49937, -38.43655 ], [ -71.50053, -38.43567 ], [ -71.50336, -38.43456 ], [ -71.50479, -38.43367 ], [ -71.50621, -38.43301 ], [ -71.50606, -38.43265 ], [ -71.50642, -38.43285 ], [ -71.50663, -38.4334 ], [ -71.50725, -38.43402 ], [ -71.50749, -38.43467 ], [ -71.50811, -38.43524 ], [ -71.50858, -38.43626 ], [ -71.50877, -38.43644 ], [ -71.51042, -38.437 ], [ -71.51069, -38.43737 ], [ -71.5108, -38.43886 ], [ -71.51116, -38.43952 ], [ -71.51173, -38.44007 ], [ -71.51308, -38.44072 ], [ -71.51357, -38.44122 ], [ -71.51379, -38.44181 ], [ -71.52653, -38.43946 ], [ -71.52267, -38.43677 ], [ -71.5304, -38.42881 ], [ -71.53192, -38.42927 ], [ -71.54317, -38.43645 ], [ -71.534, -38.44486 ], [ -71.53053, -38.44234 ], [ -71.52433, -38.44967 ], [ -71.52186, -38.45537 ], [ -71.51943, -38.45582 ], [ -71.51961, -38.45679 ], [ -71.52064, -38.45733 ], [ -71.52142, -38.45964 ], [ -71.52169, -38.46172 ], [ -71.52291, -38.46383 ], [ -71.52367, -38.46483 ], [ -71.52482, -38.46582 ], [ -71.52739, -38.46743 ], [ -71.52837, -38.46851 ], [ -71.53514, -38.46695 ], [ -71.53291, -38.46595 ], [ -71.53207, -38.46543 ], [ -71.53174, -38.46494 ], [ -71.53302, -38.46329 ], [ -71.53418, -38.46258 ], [ -71.53586, -38.46199 ], [ -71.53834, -38.45963 ], [ -71.53986, -38.46157 ], [ -71.54048, -38.46202 ], [ -71.54094, -38.46229 ], [ -71.54247, -38.46256 ], [ -71.53962, -38.46457 ], [ -71.53985, -38.46524 ], [ -71.53932, -38.46639 ], [ -71.54026, -38.46764 ], [ -71.54167, -38.46797 ], [ -71.54283, -38.46847 ], [ -71.543, -38.46888 ], [ -71.54391, -38.46863 ], [ -71.55142, -38.46853 ], [ -71.56027, -38.46743 ], [ -71.56529, -38.46596 ], [ -71.56807, -38.47166 ], [ -71.57169, -38.47131 ], [ -71.57527, -38.47127 ], [ -71.58027, -38.47068 ], [ -71.58159, -38.47045 ], [ -71.5841, -38.46961 ], [ -71.58917, -38.4684 ], [ -71.58694, -38.4592 ], [ -71.58703, -38.45887 ], [ -71.58678, -38.45766 ], [ -71.58472, -38.45595 ], [ -71.58418, -38.45352 ], [ -71.58388, -38.45095 ], [ -71.58269, -38.44666 ], [ -71.58264, -38.44555 ], [ -71.58292, -38.4434 ], [ -71.58081, -38.43521 ], [ -71.60355, -38.43102 ], [ -71.60606, -38.44177 ], [ -71.60647, -38.44467 ], [ -71.60945, -38.45011 ], [ -71.62231, -38.44211 ], [ -71.61302, -38.41595 ], [ -71.64637, -38.40847 ], [ -71.63064, -38.36504 ], [ -71.64478, -38.33844 ], [ -71.64938, -38.33742 ], [ -71.64918, -38.33449 ], [ -71.64787, -38.33172 ], [ -71.6488, -38.32979 ], [ -71.64876, -38.32867 ], [ -71.64829, -38.32733 ], [ -71.6482, -38.3264 ], [ -71.64839, -38.3251 ], [ -71.64738, -38.32374 ], [ -71.64819, -38.32253 ], [ -71.64792, -38.32125 ], [ -71.64785, -38.31843 ], [ -71.64826, -38.31784 ], [ -71.64822, -38.3167 ], [ -71.64866, -38.31637 ], [ -71.64897, -38.31454 ], [ -71.64715, -38.31456 ], [ -71.64393, -38.31414 ], [ -71.6435, -38.31403 ], [ -71.64305, -38.31367 ], [ -71.64063, -38.31505 ], [ -71.63812, -38.31578 ], [ -71.63504, -38.31734 ], [ -71.63296, -38.31783 ], [ -71.63139, -38.31842 ], [ -71.63049, -38.3197 ], [ -71.62996, -38.32091 ], [ -71.62937, -38.3213 ], [ -71.62642, -38.32204 ], [ -71.62485, -38.32272 ], [ -71.62138, -38.32332 ], [ -71.62021, -38.3238 ], [ -71.61867, -38.32489 ], [ -71.61671, -38.32851 ], [ -71.61391, -38.33107 ], [ -71.61178, -38.33415 ], [ -71.61063, -38.33608 ], [ -71.61043, -38.33673 ], [ -71.60909, -38.3388 ], [ -71.60794, -38.34273 ], [ -71.60701, -38.34459 ], [ -71.60628, -38.34666 ], [ -71.60568, -38.34774 ], [ -71.60411, -38.34918 ], [ -71.60394, -38.34945 ], [ -71.60426, -38.34907 ], [ -71.60354, -38.35007 ], [ -71.60358, -38.35098 ], [ -71.60406, -38.35258 ], [ -71.60389, -38.3555 ], [ -71.6028, -38.35815 ], [ -71.60306, -38.35733 ], [ -71.6004, -38.36405 ] ] ], [ [ [ -71.55052, -38.38056 ], [ -71.55052, -38.38057 ], [ -71.55048, -38.3806 ], [ -71.55052, -38.38056 ] ] ], [ [ [ -71.55196, -38.3797 ], [ -71.5516, -38.37992 ], [ -71.55195, -38.37971 ], [ -71.55252, -38.37949 ], [ -71.55196, -38.3797 ] ] ], [ [ [ -71.55472, -38.37933 ], [ -71.55454, -38.37931 ], [ -71.55443, -38.37931 ], [ -71.55472, -38.37933 ] ] ], [ [ [ -71.60356, -38.35081 ], [ -71.60357, -38.35092 ], [ -71.60358, -38.35098 ], [ -71.60356, -38.35081 ] ] ] ] } },
{ "type": "Feature", "properties": { "nombre": "Reserva Nacional Nalcas", "categoria": "Reserva Nacional", "region": "Araucania", "superficie_ha": "13775", "decreto": "NÂ° 604 de 1967" }, "geometry": { "type": "Polygon", "coordinates": [ [ [ -71.60426, -38.34907 ], [ -71.60394, -38.34945 ], [ -71.60411, -38.34918 ], [ -71.60568, -38.34774 ], [ -71.60628, -38.34666 ], [ -71.60701, -38.34459 ], [ -71.60794, -38.34273 ], [ -71.60909, -38.3388 ], [ -71.61043, -38.33673 ], [ -71.61063, -38.33608 ], [ -71.61178, -38.33415 ], [ -71.61391, -38.33107 ], [ -71.61671, -38.32851 ], [ -71.61867, -38.32489 ], [ -71.62021, -38.3238 ], [ -71.62138, -38.32332 ], [ -71.62485, -38.32272 ], [ -71.62642, -38.32204 ], [ -71.62937, -38.3213 ], [ -71.62996, -38.32091 ], [ -71.63049, -38.3197 ], [ -71.63097, -38.31889 ], [ -71.63139, -38.31842 ], [ -71.63296, -38.31783 ], [ -71.63504, -38.31734 ], [ -71.63812, -38.31578 ], [ -71.64063, -38.31505 ], [ -71.64305, -38.31367 ], [ -71.64198, -38.31269 ], [ -71.64026, -38.30746 ], [ -71.63729, -38.30367 ], [ -71.63653, -38.30122 ], [ -71.63535, -38.29834 ], [ -71.63406, -38.29598 ], [ -71.63383, -38.29506 ], [ -71.63374, -38.29341 ], [ -71.63384, -38.29249 ], [ -71.63477, -38.29 ], [ -71.63483, -38.28728 ], [ -71.63447, -38.28563 ], [ -71.63313, -38.28195 ], [ -71.63294, -38.28063 ], [ -71.63294, -38.27823 ], [ -71.6326, -38.27575 ], [ -71.63187, -38.27341 ], [ -71.63115, -38.27241 ], [ -71.62636, -38.26824 ], [ -71.62531, -38.26706 ], [ -71.62497, -38.26565 ], [ -71.62593, -38.26202 ], [ -71.62577, -38.26078 ], [ -71.62446, -38.26033 ], [ -71.62339, -38.26032 ], [ -71.61906, -38.2609 ], [ -71.61664, -38.26045 ], [ -71.61542, -38.25943 ], [ -71.61526, -38.25908 ], [ -71.61515, -38.25818 ], [ -71.61556, -38.25701 ], [ -71.61522, -38.25633 ], [ -71.61384, -38.25495 ], [ -71.61286, -38.25351 ], [ -71.60984, -38.25133 ], [ -71.60874, -38.24999 ], [ -71.6084, -38.24909 ], [ -71.6084, -38.24831 ], [ -71.61059, -38.24634 ], [ -71.61101, -38.24577 ], [ -71.61132, -38.24511 ], [ -71.61145, -38.24427 ], [ -71.61135, -38.24345 ], [ -71.60978, -38.24211 ], [ -71.60864, -38.24089 ], [ -71.60704, -38.2404 ], [ -71.60622, -38.24045 ], [ -71.60502, -38.24013 ], [ -71.60281, -38.2383 ], [ -71.60079, -38.23721 ], [ -71.60034, -38.23703 ], [ -71.5971, -38.23676 ], [ -71.59623, -38.23656 ], [ -71.59402, -38.23496 ], [ -71.5924, -38.23409 ], [ -71.58999, -38.23328 ], [ -71.58636, -38.23265 ], [ -71.58287, -38.23146 ], [ -71.58127, -38.23106 ], [ -71.5805, -38.23108 ], [ -71.57964, -38.23138 ], [ -71.57798, -38.23346 ], [ -71.57774, -38.23382 ], [ -71.57751, -38.235 ], [ -71.57668, -38.2364 ], [ -71.57459, -38.2372 ], [ -71.57254, -38.23917 ], [ -71.57177, -38.23921 ], [ -71.56806, -38.24088 ], [ -71.56704, -38.24163 ], [ -71.56599, -38.24291 ], [ -71.56465, -38.24376 ], [ -71.5641, -38.24382 ], [ -71.56112, -38.24337 ], [ -71.56003, -38.24352 ], [ -71.55786, -38.24437 ], [ -71.55661, -38.24529 ], [ -71.55531, -38.2459 ], [ -71.55396, -38.24619 ], [ -71.55366, -38.24612 ], [ -71.55281, -38.24561 ], [ -71.55208, -38.2448 ], [ -71.55072, -38.24244 ], [ -71.54953, -38.24084 ], [ -71.54881, -38.24039 ], [ -71.5451, -38.2393 ], [ -71.54291, -38.23837 ], [ -71.5421, -38.23768 ], [ -71.54079, -38.23573 ], [ -71.54036, -38.23478 ], [ -71.53919, -38.23376 ], [ -71.53617, -38.23286 ], [ -71.5339, -38.23174 ], [ -71.53333, -38.23123 ], [ -71.53289, -38.23055 ], [ -71.53225, -38.22916 ], [ -71.53233, -38.22883 ], [ -71.53147, -38.22725 ], [ -71.53096, -38.22698 ], [ -71.53053, -38.22637 ], [ -71.53119, -38.22331 ], [ -71.53234, -38.22277 ], [ -71.53302, -38.22281 ], [ -71.53383, -38.22221 ], [ -71.53348, -38.2212 ], [ -71.53343, -38.21992 ], [ -71.53415, -38.21465 ], [ -71.53425, -38.21436 ], [ -71.53514, -38.21346 ], [ -71.53612, -38.21284 ], [ -71.5361, -38.21253 ], [ -71.53489, -38.21086 ], [ -71.5346, -38.21007 ], [ -71.53441, -38.20848 ], [ -71.53403, -38.20707 ], [ -71.53197, -38.2042 ], [ -71.53136, -38.20399 ], [ -71.5307, -38.20398 ], [ -71.52887, -38.20479 ], [ -71.5256, -38.20575 ], [ -71.52403, -38.20687 ], [ -71.52313, -38.20783 ], [ -71.52134, -38.20851 ], [ -71.51861, -38.20893 ], [ -71.51538, -38.2097 ], [ -71.51227, -38.21003 ], [ -71.51089, -38.21 ], [ -71.5092, -38.20918 ], [ -71.50839, -38.20827 ], [ -71.50833, -38.20791 ], [ -71.50727, -38.20697 ], [ -71.50648, -38.20658 ], [ -71.50494, -38.20508 ], [ -71.50201, -38.2039 ], [ -71.5001, -38.20355 ], [ -71.49871, -38.20315 ], [ -71.49778, -38.20269 ], [ -71.49687, -38.20162 ], [ -71.49531, -38.19772 ], [ -71.49425, -38.19617 ], [ -71.49327, -38.19551 ], [ -71.49147, -38.19464 ], [ -71.48945, -38.19293 ], [ -71.48864, -38.19244 ], [ -71.48616, -38.19177 ], [ -71.4849, -38.1917 ], [ -71.48346, -38.19098 ], [ -71.4828, -38.19085 ], [ -71.48176, -38.19084 ], [ -71.47984, -38.19134 ], [ -71.47853, -38.19128 ], [ -71.47698, -38.19029 ], [ -71.47525, -38.18808 ], [ -71.47434, -38.18728 ], [ -71.47092, -38.18602 ], [ -71.46769, -38.18404 ], [ -71.46646, -38.18364 ], [ -71.46455, -38.18385 ], [ -71.46358, -38.18446 ], [ -71.46275, -38.18476 ], [ -71.46071, -38.18452 ], [ -71.46315, -38.19039 ], [ -71.46287, -38.19124 ], [ -71.46517, -38.19491 ], [ -71.47102, -38.19329 ], [ -71.47799, -38.20039 ], [ -71.48043, -38.20766 ], [ -71.48071, -38.21838 ], [ -71.47903, -38.21936 ], [ -71.47341, -38.22149 ], [ -71.47246, -38.2217 ], [ -71.47003, -38.22201 ], [ -71.46699, -38.22192 ], [ -71.46397, -38.2224 ], [ -71.46379, -38.22107 ], [ -71.46354, -38.22049 ], [ -71.46321, -38.22019 ], [ -71.46194, -38.21972 ], [ -71.46145, -38.21923 ], [ -71.46099, -38.21796 ], [ -71.46073, -38.21775 ], [ -71.4593, -38.21765 ], [ -71.4587, -38.21721 ], [ -71.45848, -38.21669 ], [ -71.45838, -38.21571 ], [ -71.45707, -38.21468 ], [ -71.45694, -38.21411 ], [ -71.45766, -38.21284 ], [ -71.45751, -38.21233 ], [ -71.45719, -38.21215 ], [ -71.45523, -38.2119 ], [ -71.45566, -38.21481 ], [ -71.45627, -38.21526 ], [ -71.45648, -38.21575 ], [ -71.4562, -38.21664 ], [ -71.45631, -38.21736 ], [ -71.45683, -38.21849 ], [ -71.45671, -38.21873 ], [ -71.45595, -38.21914 ], [ -71.45605, -38.21957 ], [ -71.45637, -38.21987 ], [ -71.45639, -38.2203 ], [ -71.45549, -38.22055 ], [ -71.45545, -38.22106 ], [ -71.45559, -38.2219 ], [ -71.45616, -38.22324 ], [ -71.45631, -38.22504 ], [ -71.45649, -38.2253 ], [ -71.45688, -38.22542 ], [ -71.4571, -38.22591 ], [ -71.45696, -38.22828 ], [ -71.45758, -38.23043 ], [ -71.45786, -38.23219 ], [ -71.45782, -38.23282 ], [ -71.45746, -38.23359 ], [ -71.45749, -38.23397 ], [ -71.45846, -38.2351 ], [ -71.45859, -38.2354 ], [ -71.45859, -38.23648 ], [ -71.45937, -38.2371 ], [ -71.45993, -38.23849 ], [ -71.46234, -38.24093 ], [ -71.46288, -38.24267 ], [ -71.46375, -38.24318 ], [ -71.46414, -38.24444 ], [ -71.46396, -38.24566 ], [ -71.46418, -38.24653 ], [ -71.4645, -38.24703 ], [ -71.46595, -38.24848 ], [ -71.46738, -38.24886 ], [ -71.46789, -38.24928 ], [ -71.46845, -38.25001 ], [ -71.46842, -38.25141 ], [ -71.46938, -38.25216 ], [ -71.46926, -38.25284 ], [ -71.46866, -38.254 ], [ -71.46883, -38.25459 ], [ -71.46897, -38.25722 ], [ -71.46942, -38.25883 ], [ -71.4695, -38.26005 ], [ -71.47, -38.26128 ], [ -71.46956, -38.26381 ], [ -71.4697, -38.26559 ], [ -71.47056, -38.26711 ], [ -71.47161, -38.26789 ], [ -71.47181, -38.2682 ], [ -71.47193, -38.26912 ], [ -71.47126, -38.26987 ], [ -71.47136, -38.2704 ], [ -71.47206, -38.27089 ], [ -71.47308, -38.27132 ], [ -71.47357, -38.27194 ], [ -71.47379, -38.27321 ], [ -71.47506, -38.27716 ], [ -71.47498, -38.27877 ], [ -71.4752, -38.28036 ], [ -71.47559, -38.28168 ], [ -71.47631, -38.28288 ], [ -71.47755, -38.28602 ], [ -71.47869, -38.28698 ], [ -71.47877, -38.28838 ], [ -71.47937, -38.28967 ], [ -71.48012, -38.29078 ], [ -71.48218, -38.29201 ], [ -71.48218, -38.29225 ], [ -71.48266, -38.29295 ], [ -71.48207, -38.29478 ], [ -71.48215, -38.29547 ], [ -71.48251, -38.29622 ], [ -71.48245, -38.29814 ], [ -71.48293, -38.30115 ], [ -71.48286, -38.3028 ], [ -71.48258, -38.30337 ], [ -71.48237, -38.30457 ], [ -71.48165, -38.3068 ], [ -71.48081, -38.30818 ], [ -71.48071, -38.30927 ], [ -71.48207, -38.31331 ], [ -71.48335, -38.31514 ], [ -71.48333, -38.31675 ], [ -71.48415, -38.31754 ], [ -71.48499, -38.31974 ], [ -71.4864, -38.32175 ], [ -71.48693, -38.32219 ], [ -71.48794, -38.32347 ], [ -71.48863, -38.32382 ], [ -71.48917, -38.32484 ], [ -71.48929, -38.32561 ], [ -71.48693, -38.32606 ], [ -71.48548, -38.32596 ], [ -71.48326, -38.32844 ], [ -71.48123, -38.33028 ], [ -71.48051, -38.3312 ], [ -71.47836, -38.33166 ], [ -71.47801, -38.33333 ], [ -71.47862, -38.3344 ], [ -71.48065, -38.33656 ], [ -71.48268, -38.33677 ], [ -71.48495, -38.33596 ], [ -71.48865, -38.33681 ], [ -71.49075, -38.3375 ], [ -71.49567, -38.34145 ], [ -71.49853, -38.3423 ], [ -71.50124, -38.34401 ], [ -71.50274, -38.34596 ], [ -71.50306, -38.34918 ], [ -71.50376, -38.35059 ], [ -71.50524, -38.35233 ], [ -71.50773, -38.35324 ], [ -71.50976, -38.35311 ], [ -71.5109, -38.35282 ], [ -71.51038, -38.35438 ], [ -71.51092, -38.35628 ], [ -71.51282, -38.35854 ], [ -71.51578, -38.35914 ], [ -71.51993, -38.36106 ], [ -71.52185, -38.3639 ], [ -71.52298, -38.36393 ], [ -71.52531, -38.3645 ], [ -71.52656, -38.36504 ], [ -71.52814, -38.36608 ], [ -71.52986, -38.36671 ], [ -71.5355, -38.36758 ], [ -71.5361, -38.36786 ], [ -71.53745, -38.36951 ], [ -71.53767, -38.3718 ], [ -71.5383, -38.37357 ], [ -71.53866, -38.37423 ], [ -71.54019, -38.3759 ], [ -71.54299, -38.3778 ], [ -71.54633, -38.37929 ], [ -71.54732, -38.38041 ], [ -71.54807, -38.38098 ], [ -71.54871, -38.38121 ], [ -71.54997, -38.38099 ], [ -71.55252, -38.37949 ], [ -71.5538, -38.37931 ], [ -71.55486, -38.37935 ], [ -71.56005, -38.38065 ], [ -71.56414, -38.38204 ], [ -71.57143, -38.38358 ], [ -71.5748, -38.38337 ], [ -71.58128, -38.38212 ], [ -71.58375, -38.38064 ], [ -71.58894, -38.37944 ], [ -71.58931, -38.37961 ], [ -71.59049, -38.37862 ], [ -71.59363, -38.37424 ], [ -71.59768, -38.36757 ], [ -71.59833, -38.367 ], [ -71.6004, -38.36405 ], [ -71.60389, -38.3555 ], [ -71.60406, -38.35258 ], [ -71.60358, -38.35098 ], [ -71.60354, -38.35007 ], [ -71.60391, -38.34949 ], [ -71.60367, -38.34989 ], [ -71.60426, -38.34907 ] ], [ [ -71.5516, -38.37992 ], [ -71.55195, -38.37971 ], [ -71.55252, -38.37949 ], [ -71.5516, -38.37992 ] ], [ [ -71.60357, -38.35092 ], [ -71.60356, -38.35081 ], [ -71.60358, -38.35098 ], [ -71.60357, -38.35092 ] ], [ [ -71.55052, -38.38057 ], [ -71.55052, -38.38056 ], [ -71.55048, -38.3806 ], [ -71.55052, -38.38057 ] ], [ [ -71.55454, -38.37931 ], [ -71.55472, -38.37933 ], [ -71.55443, -38.37931 ], [ -71.55454, -38.37931 ] ] ] } },
{ "type": "Feature", "properties": { "nombre": "Parque Nacional Tolhuaca", "categoria": "Parque Nacional", "region": "Araucania", "superficie_ha": "6374", "decreto": "NÂ° 2489 de 1935; NÂ° 28 de 1985" }, "geometry": { "type": "Polygon", "coordinates": [ [ [ -71.70698, -38.22309 ], [ -71.70653, -38.22345 ], [ -71.70494, -38.22494 ], [ -71.70444, -38.22611 ], [ -71.70325, -38.22729 ], [ -71.70213, -38.22775 ], [ -71.70113, -38.22844 ], [ -71.69792, -38.22931 ], [ -71.69699, -38.22971 ], [ -71.69712, -38.23077 ], [ -71.69658, -38.23205 ], [ -71.69605, -38.23295 ], [ -71.69379, -38.23587 ], [ -71.69228, -38.23688 ], [ -71.6912, -38.23786 ], [ -71.69074, -38.23862 ], [ -71.68979, -38.2395 ], [ -71.68824, -38.24017 ], [ -71.68808, -38.24068 ], [ -71.69105, -38.24247 ], [ -71.696, -38.23939 ], [ -71.6977, -38.23778 ], [ -71.70034, -38.23613 ], [ -71.70353, -38.23438 ], [ -71.70754, -38.23249 ], [ -71.71211, -38.23131 ], [ -71.71601, -38.23084 ], [ -71.71982, -38.23061 ], [ -71.72651, -38.22894 ], [ -71.7282, -38.22884 ], [ -71.7328, -38.22672 ], [ -71.73671, -38.22442 ], [ -71.74416, -38.2222 ], [ -71.74533, -38.2217 ], [ -71.74723, -38.22162 ], [ -71.75067, -38.22187 ], [ -71.75387, -38.22149 ], [ -71.75706, -38.22198 ], [ -71.75972, -38.2214 ], [ -71.76181, -38.22046 ], [ -71.76444, -38.21974 ], [ -71.76583, -38.21887 ], [ -71.76766, -38.21934 ], [ -71.76836, -38.21989 ], [ -71.76913, -38.21974 ], [ -71.7712, -38.21976 ], [ -71.77152, -38.21949 ], [ -71.77211, -38.21956 ], [ -71.77257, -38.21998 ], [ -71.77311, -38.2197 ], [ -71.77347, -38.22018 ], [ -71.77384, -38.22008 ], [ -71.774, -38.2197 ], [ -71.77441, -38.21972 ], [ -71.77527, -38.22024 ], [ -71.77617, -38.21956 ], [ -71.7777, -38.2194 ], [ -71.77844, -38.21835 ], [ -71.77956, -38.21749 ], [ -71.78093, -38.21777 ], [ -71.78171, -38.21728 ], [ -71.78383, -38.21706 ], [ -71.78437, -38.21682 ], [ -71.78486, -38.21628 ], [ -71.78526, -38.2162 ], [ -71.78562, -38.21629 ], [ -71.78602, -38.21677 ], [ -71.78681, -38.21699 ], [ -71.78728, -38.21688 ], [ -71.78787, -38.2158 ], [ -71.78836, -38.21558 ], [ -71.78919, -38.21571 ], [ -71.78932, -38.21655 ], [ -71.78985, -38.21674 ], [ -71.79076, -38.21674 ], [ -71.79161, -38.21651 ], [ -71.79225, -38.21559 ], [ -71.79268, -38.21557 ], [ -71.79381, -38.2163 ], [ -71.7943, -38.21637 ], [ -71.79495, -38.21574 ], [ -71.79594, -38.21555 ], [ -71.79721, -38.21557 ], [ -71.79782, -38.2154 ], [ -71.79788, -38.21431 ], [ -71.79825, -38.21406 ], [ -71.8009, -38.21405 ], [ -71.80399, -38.21351 ], [ -71.80717, -38.21406 ], [ -71.80777, -38.21453 ], [ -71.80786, -38.21488 ], [ -71.80814, -38.21504 ], [ -71.80948, -38.21509 ], [ -71.81037, -38.21593 ], [ -71.81115, -38.21559 ], [ -71.8116, -38.21571 ], [ -71.81164, -38.21601 ], [ -71.81206, -38.21613 ], [ -71.81331, -38.2157 ], [ -71.81349, -38.21586 ], [ -71.8135, -38.21618 ], [ -71.8141, -38.21641 ], [ -71.81479, -38.21631 ], [ -71.81576, -38.2158 ], [ -71.81608, -38.2159 ], [ -71.81543, -38.21706 ], [ -71.81552, -38.21762 ], [ -71.81521, -38.21828 ], [ -71.81516, -38.2189 ], [ -71.8167, -38.22057 ], [ -71.81828, -38.22059 ], [ -71.81892, -38.22117 ], [ -71.81956, -38.22083 ], [ -71.8197, -38.2198 ], [ -71.81993, -38.21966 ], [ -71.82222, -38.21941 ], [ -71.82262, -38.2191 ], [ -71.82401, -38.21937 ], [ -71.82423, -38.21904 ], [ -71.82399, -38.2182 ], [ -71.82411, -38.21763 ], [ -71.82629, -38.21723 ], [ -71.82799, -38.2177 ], [ -71.82992, -38.21776 ], [ -71.83252, -38.21835 ], [ -71.83341, -38.21836 ], [ -71.83414, -38.21769 ], [ -71.83526, -38.21731 ], [ -71.83622, -38.21731 ], [ -71.8375, -38.21753 ], [ -71.83835, -38.21745 ], [ -71.83906, -38.21806 ], [ -71.8397, -38.21793 ], [ -71.84204, -38.21796 ], [ -71.84222, -38.21817 ], [ -71.84223, -38.21852 ], [ -71.84258, -38.21868 ], [ -71.84428, -38.21831 ], [ -71.84526, -38.21774 ], [ -71.84669, -38.21844 ], [ -71.84847, -38.21729 ], [ -71.84938, -38.21697 ], [ -71.85005, -38.21736 ], [ -71.85098, -38.21728 ], [ -71.85319, -38.21674 ], [ -71.85427, -38.21552 ], [ -71.85478, -38.21545 ], [ -71.85562, -38.2166 ], [ -71.85657, -38.21679 ], [ -71.85749, -38.21672 ], [ -71.8598, -38.21596 ], [ -71.8607, -38.21615 ], [ -71.86213, -38.2176 ], [ -71.86406, -38.21872 ], [ -71.86517, -38.21889 ], [ -71.86664, -38.21863 ], [ -71.86695, -38.21879 ], [ -71.86721, -38.21916 ], [ -71.8674, -38.21978 ], [ -71.86772, -38.21993 ], [ -71.86857, -38.21983 ], [ -71.86976, -38.21861 ], [ -71.87041, -38.21865 ], [ -71.87126, -38.21912 ], [ -71.87255, -38.21879 ], [ -71.87411, -38.21891 ], [ -71.87534, -38.21856 ], [ -71.87697, -38.21895 ], [ -71.88208, -38.21893 ], [ -71.88281, -38.21986 ], [ -71.88401, -38.22002 ], [ -71.88624, -38.21986 ], [ -71.89014, -38.22028 ], [ -71.8927, -38.21965 ], [ -71.89346, -38.21965 ], [ -71.89412, -38.22069 ], [ -71.89524, -38.22129 ], [ -71.89733, -38.22186 ], [ -71.89978, -38.22142 ], [ -71.90303, -38.22207 ], [ -71.90388, -38.22181 ], [ -71.90464, -38.22106 ], [ -71.90511, -38.22172 ], [ -71.90543, -38.2218 ], [ -71.90816, -38.22132 ], [ -71.90916, -38.22143 ], [ -71.91066, -38.22205 ], [ -71.91443, -38.22285 ], [ -71.91609, -38.224 ], [ -71.91702, -38.22397 ], [ -71.9181, -38.2227 ], [ -71.91978, -38.22252 ], [ -71.92099, -38.22085 ], [ -71.92288, -38.2201 ], [ -71.92286, -38.21948 ], [ -71.92256, -38.21884 ], [ -71.92267, -38.21837 ], [ -71.92304, -38.21807 ], [ -71.9229, -38.2172 ], [ -71.92315, -38.21655 ], [ -71.92423, -38.21508 ], [ -71.92499, -38.21455 ], [ -71.92504, -38.21395 ], [ -71.9247, -38.21139 ], [ -71.92501, -38.20973 ], [ -71.92533, -38.20918 ], [ -71.92619, -38.20843 ], [ -71.92631, -38.20785 ], [ -71.92753, -38.20595 ], [ -71.92661, -38.20614 ], [ -71.91923, -38.2095 ], [ -71.91739, -38.20998 ], [ -71.91319, -38.2101 ], [ -71.9115, -38.20987 ], [ -71.91102, -38.20961 ], [ -71.90855, -38.20704 ], [ -71.9187, -38.20205 ], [ -71.93017, -38.19741 ], [ -71.92888, -38.19639 ], [ -71.92816, -38.19622 ], [ -71.92674, -38.1963 ], [ -71.92563, -38.19581 ], [ -71.92477, -38.19578 ], [ -71.92429, -38.19546 ], [ -71.92234, -38.19605 ], [ -71.92047, -38.19687 ], [ -71.91852, -38.19632 ], [ -71.9172, -38.19539 ], [ -71.91743, -38.19535 ], [ -71.91353, -38.19201 ], [ -71.91275, -38.19162 ], [ -71.91209, -38.19152 ], [ -71.91047, -38.19026 ], [ -71.90899, -38.18976 ], [ -71.90737, -38.18802 ], [ -71.9064, -38.18726 ], [ -71.90381, -38.18612 ], [ -71.90028, -38.18541 ], [ -71.89968, -38.1846 ], [ -71.89731, -38.18254 ], [ -71.89491, -38.18105 ], [ -71.89319, -38.18074 ], [ -71.89125, -38.18004 ], [ -71.88886, -38.18004 ], [ -71.88559, -38.1795 ], [ -71.87747, -38.17889 ], [ -71.87336, -38.17898 ], [ -71.87048, -38.17702 ], [ -71.86662, -38.17685 ], [ -71.86174, -38.1775 ], [ -71.85902, -38.17931 ], [ -71.85745, -38.17959 ], [ -71.85593, -38.17858 ], [ -71.85359, -38.17741 ], [ -71.85136, -38.17761 ], [ -71.84769, -38.17875 ], [ -71.84609, -38.17974 ], [ -71.84309, -38.18064 ], [ -71.84111, -38.18071 ], [ -71.83805, -38.17914 ], [ -71.8316, -38.17799 ], [ -71.83113, -38.17739 ], [ -71.82602, -38.17751 ], [ -71.82315, -38.17737 ], [ -71.82091, -38.17588 ], [ -71.81937, -38.17532 ], [ -71.81519, -38.17488 ], [ -71.81327, -38.17555 ], [ -71.81207, -38.17681 ], [ -71.8098, -38.17812 ], [ -71.80856, -38.17808 ], [ -71.8063, -38.17705 ], [ -71.80373, -38.17373 ], [ -71.8008, -38.17677 ], [ -71.79953, -38.17745 ], [ -71.79671, -38.17815 ], [ -71.79513, -38.18213 ], [ -71.7953, -38.18396 ], [ -71.79523, -38.18551 ], [ -71.7942, -38.18646 ], [ -71.79302, -38.18714 ], [ -71.79231, -38.18836 ], [ -71.79216, -38.18985 ], [ -71.79025, -38.19408 ], [ -71.78866, -38.19638 ], [ -71.7865, -38.19878 ], [ -71.78531, -38.20043 ], [ -71.78398, -38.20075 ], [ -71.7828, -38.20135 ], [ -71.7794, -38.20413 ], [ -71.77852, -38.20452 ], [ -71.77645, -38.20475 ], [ -71.77195, -38.20387 ], [ -71.76865, -38.20388 ], [ -71.76567, -38.20345 ], [ -71.76253, -38.20467 ], [ -71.75985, -38.20348 ], [ -71.75805, -38.20226 ], [ -71.75682, -38.20195 ], [ -71.75459, -38.20079 ], [ -71.75355, -38.20046 ], [ -71.75232, -38.20022 ], [ -71.74674, -38.20064 ], [ -71.7458, -38.20049 ], [ -71.74216, -38.19939 ], [ -71.74098, -38.1994 ], [ -71.73866, -38.20036 ], [ -71.73778, -38.20057 ], [ -71.73424, -38.2008 ], [ -71.73342, -38.2012 ], [ -71.7329, -38.20191 ], [ -71.73239, -38.20422 ], [ -71.7318, -38.20482 ], [ -71.73023, -38.20504 ], [ -71.72723, -38.20455 ], [ -71.7247, -38.2045 ], [ -71.7236, -38.20504 ], [ -71.723, -38.20572 ], [ -71.722, -38.20814 ], [ -71.72139, -38.20884 ], [ -71.72075, -38.20927 ], [ -71.71982, -38.2098 ], [ -71.71784, -38.21045 ], [ -71.7171, -38.21057 ], [ -71.71526, -38.21047 ], [ -71.71504, -38.21058 ], [ -71.71332, -38.21398 ], [ -71.71336, -38.21777 ], [ -71.71265, -38.22001 ], [ -71.7091, -38.22248 ], [ -71.70698, -38.22309 ] ] ] } },
{ "type": "Feature", "properties": { "nombre": "Reserva Nacional Malleco", "categoria": "Reserva Nacional", "region": "Araucania", "superficie_ha": "16438", "decreto": "NÂ° 1540 de 1907; NÂ° 2489 de 1935; NÂ° 28 de 1985" }, "geometry": { "type": "Polygon", "coordinates": [ [ [ -71.93017, -38.19741 ], [ -71.93185, -38.19648 ], [ -71.93297, -38.19532 ], [ -71.93518, -38.19462 ], [ -71.93775, -38.19403 ], [ -71.9356, -38.1907 ], [ -71.92976, -38.18927 ], [ -71.92916, -38.18883 ], [ -71.93075, -38.18707 ], [ -71.92858, -38.18579 ], [ -71.92827, -38.1847 ], [ -71.92915, -38.18181 ], [ -71.93108, -38.17829 ], [ -71.92932, -38.17609 ], [ -71.92883, -38.17062 ], [ -71.92632, -38.1692 ], [ -71.92262, -38.16755 ], [ -71.91737, -38.16358 ], [ -71.91298, -38.15716 ], [ -71.90743, -38.15521 ], [ -71.90173, -38.15476 ], [ -71.89846, -38.15597 ], [ -71.89717, -38.15582 ], [ -71.89408, -38.15861 ], [ -71.88973, -38.16064 ], [ -71.87564, -38.1647 ], [ -71.87147, -38.17029 ], [ -71.86795, -38.16397 ], [ -71.85901, -38.16195 ], [ -71.85641, -38.16312 ], [ -71.84984, -38.15982 ], [ -71.84773, -38.15761 ], [ -71.83649, -38.16108 ], [ -71.82926, -38.16166 ], [ -71.82904, -38.15564 ], [ -71.82833, -38.15369 ], [ -71.82725, -38.1492 ], [ -71.82821, -38.14914 ], [ -71.82968, -38.14828 ], [ -71.82988, -38.14799 ], [ -71.82998, -38.14726 ], [ -71.83025, -38.14697 ], [ -71.83062, -38.147 ], [ -71.83089, -38.14753 ], [ -71.83108, -38.14756 ], [ -71.83306, -38.14709 ], [ -71.83397, -38.14722 ], [ -71.83494, -38.14623 ], [ -71.83609, -38.14585 ], [ -71.83011, -38.12883 ], [ -71.84686, -38.12546 ], [ -71.84318, -38.11002 ], [ -71.83871, -38.11194 ], [ -71.83824, -38.11254 ], [ -71.83801, -38.11433 ], [ -71.83806, -38.11559 ], [ -71.83831, -38.1161 ], [ -71.83974, -38.11772 ], [ -71.84024, -38.11911 ], [ -71.83953, -38.12003 ], [ -71.83487, -38.12009 ], [ -71.83407, -38.12061 ], [ -71.83209, -38.12236 ], [ -71.83089, -38.12319 ], [ -71.83003, -38.12344 ], [ -71.82824, -38.11597 ], [ -71.80541, -38.10987 ], [ -71.79607, -38.10436 ], [ -71.76731, -38.0825 ], [ -71.78228, -38.06546 ], [ -71.78047, -38.06548 ], [ -71.77898, -38.06465 ], [ -71.77855, -38.06462 ], [ -71.78271, -38.04814 ], [ -71.78352, -38.03786 ], [ -71.75956, -38.04432 ], [ -71.75952, -38.0437 ], [ -71.7585, -38.04189 ], [ -71.75762, -38.04063 ], [ -71.75617, -38.03924 ], [ -71.75559, -38.03846 ], [ -71.75544, -38.03702 ], [ -71.75576, -38.03621 ], [ -71.75201, -38.03629 ], [ -71.75127, -38.03676 ], [ -71.75032, -38.03799 ], [ -71.74907, -38.0383 ], [ -71.74749, -38.03834 ], [ -71.74683, -38.03854 ], [ -71.74511, -38.03962 ], [ -71.74265, -38.0398 ], [ -71.74203, -38.04 ], [ -71.74045, -38.04127 ], [ -71.73881, -38.04147 ], [ -71.73812, -38.04198 ], [ -71.73754, -38.04294 ], [ -71.73694, -38.04331 ], [ -71.73613, -38.04347 ], [ -71.73545, -38.04334 ], [ -71.73475, -38.04358 ], [ -71.73383, -38.04543 ], [ -71.73285, -38.04675 ], [ -71.73313, -38.04694 ], [ -71.73587, -38.05685 ], [ -71.71449, -38.07854 ], [ -71.71494, -38.0791 ], [ -71.71955, -38.08311 ], [ -71.72018, -38.08417 ], [ -71.7206, -38.08451 ], [ -71.7132, -38.10665 ], [ -71.71284, -38.116 ], [ -71.72096, -38.14548 ], [ -71.72132, -38.1458 ], [ -71.72156, -38.14636 ], [ -71.72154, -38.14725 ], [ -71.72088, -38.14776 ], [ -71.72061, -38.14961 ], [ -71.71842, -38.15114 ], [ -71.71722, -38.1525 ], [ -71.71546, -38.1539 ], [ -71.71493, -38.15484 ], [ -71.7138, -38.15603 ], [ -71.71222, -38.15692 ], [ -71.70723, -38.15804 ], [ -71.70528, -38.15906 ], [ -71.70408, -38.16025 ], [ -71.70272, -38.16193 ], [ -71.69937, -38.16522 ], [ -71.69571, -38.16827 ], [ -71.69444, -38.16969 ], [ -71.69407, -38.17068 ], [ -71.69348, -38.17468 ], [ -71.69349, -38.17637 ], [ -71.6947, -38.17841 ], [ -71.69708, -38.17951 ], [ -71.69832, -38.18086 ], [ -71.70031, -38.1813 ], [ -71.70197, -38.18193 ], [ -71.70294, -38.18303 ], [ -71.70356, -38.18423 ], [ -71.70447, -38.18498 ], [ -71.70729, -38.18535 ], [ -71.70723, -38.18557 ], [ -71.70777, -38.18592 ], [ -71.70775, -38.18628 ], [ -71.70691, -38.18693 ], [ -71.70667, -38.18855 ], [ -71.70702, -38.18875 ], [ -71.70922, -38.19155 ], [ -71.70996, -38.19334 ], [ -71.71005, -38.1957 ], [ -71.70952, -38.1973 ], [ -71.70914, -38.1978 ], [ -71.70839, -38.19817 ], [ -71.70701, -38.19933 ], [ -71.7068, -38.19986 ], [ -71.70691, -38.20174 ], [ -71.7074, -38.20308 ], [ -71.70787, -38.2037 ], [ -71.70987, -38.20455 ], [ -71.71162, -38.20568 ], [ -71.71247, -38.20663 ], [ -71.71372, -38.20762 ], [ -71.71556, -38.21007 ], [ -71.71522, -38.21052 ], [ -71.71784, -38.21045 ], [ -71.71982, -38.2098 ], [ -71.72075, -38.20927 ], [ -71.72139, -38.20884 ], [ -71.722, -38.20814 ], [ -71.72287, -38.20591 ], [ -71.7236, -38.20504 ], [ -71.72406, -38.20475 ], [ -71.7249, -38.20446 ], [ -71.72723, -38.20455 ], [ -71.73023, -38.20504 ], [ -71.7318, -38.20482 ], [ -71.73239, -38.20422 ], [ -71.7329, -38.20191 ], [ -71.73326, -38.20134 ], [ -71.73369, -38.20103 ], [ -71.73468, -38.20073 ], [ -71.73824, -38.20048 ], [ -71.74098, -38.1994 ], [ -71.74216, -38.19939 ], [ -71.7458, -38.20049 ], [ -71.74674, -38.20064 ], [ -71.75232, -38.20022 ], [ -71.75355, -38.20046 ], [ -71.75459, -38.20079 ], [ -71.75682, -38.20195 ], [ -71.75805, -38.20226 ], [ -71.75985, -38.20348 ], [ -71.76253, -38.20467 ], [ -71.76567, -38.20345 ], [ -71.76865, -38.20388 ], [ -71.77195, -38.20387 ], [ -71.77645, -38.20475 ], [ -71.77879, -38.20441 ], [ -71.7794, -38.20413 ], [ -71.7828, -38.20135 ], [ -71.78398, -38.20075 ], [ -71.78531, -38.20043 ], [ -71.7865, -38.19878 ], [ -71.78866, -38.19638 ], [ -71.79025, -38.19408 ], [ -71.79216, -38.18985 ], [ -71.79231, -38.18836 ], [ -71.79302, -38.18714 ], [ -71.7942, -38.18646 ], [ -71.79523, -38.18551 ], [ -71.7953, -38.18396 ], [ -71.79513, -38.18213 ], [ -71.79671, -38.17815 ], [ -71.79953, -38.17745 ], [ -71.8008, -38.17677 ], [ -71.80373, -38.17373 ], [ -71.8063, -38.17705 ], [ -71.80856, -38.17808 ], [ -71.8098, -38.17812 ], [ -71.81207, -38.17681 ], [ -71.81327, -38.17555 ], [ -71.81519, -38.17488 ], [ -71.81937, -38.17532 ], [ -71.82091, -38.17588 ], [ -71.82315, -38.17737 ], [ -71.82602, -38.17751 ], [ -71.83113, -38.17739 ], [ -71.8316, -38.17799 ], [ -71.83805, -38.17914 ], [ -71.84111, -38.18071 ], [ -71.84309, -38.18064 ], [ -71.84609, -38.17974 ], [ -71.84769, -38.17875 ], [ -71.85136, -38.17761 ], [ -71.85359, -38.17741 ], [ -71.85593, -38.17858 ], [ -71.85745, -38.17959 ], [ -71.85902, -38.17931 ], [ -71.86174, -38.1775 ], [ -71.86662, -38.17685 ], [ -71.87048, -38.17702 ], [ -71.87336, -38.17898 ], [ -71.87747, -38.17889 ], [ -71.88559, -38.1795 ], [ -71.88886, -38.18004 ], [ -71.89125, -38.18004 ], [ -71.89319, -38.18074 ], [ -71.89491, -38.18105 ], [ -71.89731, -38.18254 ], [ -71.89968, -38.1846 ], [ -71.90028, -38.18541 ], [ -71.90381, -38.18612 ], [ -71.9064, -38.18726 ], [ -71.90737, -38.18802 ], [ -71.90899, -38.18976 ], [ -71.91047, -38.19026 ], [ -71.91209, -38.19152 ], [ -71.91275, -38.19162 ], [ -71.91353, -38.19201 ], [ -71.91743, -38.19535 ], [ -71.9172, -38.19539 ], [ -71.91852, -38.19632 ], [ -71.92047, -38.19687 ], [ -71.92234, -38.19605 ], [ -71.92429, -38.19546 ], [ -71.92477, -38.19578 ], [ -71.92563, -38.19581 ], [ -71.92674, -38.1963 ], [ -71.92816, -38.19622 ], [ -71.92888, -38.19639 ], [ -71.93017, -38.19741 ] ] ] } },
{ "type": "Feature", "properties": { "nombre": "Reserva Nacional Altos De Pemehue", "categoria": "Reserva Nacional", "region": "Biobio", "superficie_ha": "18855,71", "decreto": "NÂ° 80 de 2009" }, "geometry": { "type": "MultiPolygon", "coordinates": [ [ [ [ -71.61271, -37.93131 ], [ -71.61109, -37.93066 ], [ -71.6096, -37.93107 ], [ -71.60948, -37.93085 ], [ -71.60929, -37.93089 ], [ -71.60928, -37.93114 ], [ -71.60953, -37.93134 ], [ -71.60943, -37.93149 ], [ -71.60822, -37.9309 ], [ -71.60672, -37.93129 ], [ -71.60658, -37.93142 ], [ -71.60668, -37.93159 ], [ -71.6049, -37.93246 ], [ -71.60404, -37.93325 ], [ -71.6041, -37.93361 ], [ -71.60304, -37.93375 ], [ -71.60218, -37.9343 ], [ -71.60099, -37.93476 ], [ -71.60068, -37.9343 ], [ -71.60041, -37.93419 ], [ -71.60038, -37.93438 ], [ -71.59987, -37.93462 ], [ -71.59892, -37.93562 ], [ -71.59789, -37.93556 ], [ -71.59612, -37.93471 ], [ -71.59597, -37.93444 ], [ -71.59411, -37.93409 ], [ -71.59141, -37.93415 ], [ -71.59098, -37.93451 ], [ -71.58982, -37.93474 ], [ -71.58944, -37.93498 ], [ -71.58887, -37.9357 ], [ -71.58891, -37.93666 ], [ -71.58777, -37.93745 ], [ -71.58814, -37.93941 ], [ -71.58885, -37.94065 ], [ -71.58785, -37.94141 ], [ -71.58738, -37.94205 ], [ -71.58716, -37.94312 ], [ -71.58765, -37.94398 ], [ -71.58777, -37.94469 ], [ -71.58837, -37.9451 ], [ -71.58916, -37.94529 ], [ -71.58918, -37.946 ], [ -71.58905, -37.94662 ], [ -71.58808, -37.94713 ], [ -71.58693, -37.94732 ], [ -71.58671, -37.94581 ], [ -71.58591, -37.94417 ], [ -71.58469, -37.94352 ], [ -71.58125, -37.94228 ], [ -71.58004, -37.94101 ], [ -71.57963, -37.93947 ], [ -71.57845, -37.93908 ], [ -71.57576, -37.94036 ], [ -71.57564, -37.94133 ], [ -71.57654, -37.94266 ], [ -71.57752, -37.94452 ], [ -71.57754, -37.94664 ], [ -71.57587, -37.94704 ], [ -71.57498, -37.94762 ], [ -71.57391, -37.94803 ], [ -71.5738, -37.94917 ], [ -71.57519, -37.94894 ], [ -71.57618, -37.9484 ], [ -71.57805, -37.94796 ], [ -71.57868, -37.94812 ], [ -71.57639, -37.95112 ], [ -71.57592, -37.95353 ], [ -71.5753, -37.95492 ], [ -71.57366, -37.95611 ], [ -71.57402, -37.95736 ], [ -71.57332, -37.95892 ], [ -71.57093, -37.96109 ], [ -71.56993, -37.96262 ], [ -71.56998, -37.96405 ], [ -71.57034, -37.96538 ], [ -71.57201, -37.96738 ], [ -71.5727, -37.96855 ], [ -71.57275, -37.96992 ], [ -71.57226, -37.97138 ], [ -71.57017, -37.97305 ], [ -71.56567, -37.97602 ], [ -71.56297, -37.97837 ], [ -71.56161, -37.97882 ], [ -71.56145, -37.98033 ], [ -71.56116, -37.98137 ], [ -71.56312, -37.98384 ], [ -71.56406, -37.98533 ], [ -71.56691, -37.9869 ], [ -71.56781, -37.98758 ], [ -71.56858, -37.98861 ], [ -71.56965, -37.98964 ], [ -71.57112, -37.98972 ], [ -71.57321, -37.99049 ], [ -71.57531, -37.99172 ], [ -71.5765, -37.99216 ], [ -71.57833, -37.99387 ], [ -71.57991, -37.995 ], [ -71.58054, -37.99615 ], [ -71.58073, -37.99731 ], [ -71.58253, -37.99832 ], [ -71.5833, -37.99923 ], [ -71.5842, -37.99991 ], [ -71.58437, -38.00037 ], [ -71.58397, -38.00166 ], [ -71.58417, -38.00305 ], [ -71.5848, -38.0042 ], [ -71.58513, -38.00524 ], [ -71.58502, -38.00653 ], [ -71.58381, -38.0097 ], [ -71.58402, -38.01132 ], [ -71.58509, -38.01258 ], [ -71.58587, -38.01384 ], [ -71.58694, -38.01498 ], [ -71.58805, -38.01717 ], [ -71.5875, -38.01835 ], [ -71.58843, -38.01972 ], [ -71.58899, -38.02111 ], [ -71.58977, -38.02225 ], [ -71.59084, -38.02328 ], [ -71.59102, -38.02432 ], [ -71.59197, -38.02628 ], [ -71.59216, -38.02744 ], [ -71.59337, -38.02846 ], [ -71.59547, -38.02958 ], [ -71.59578, -38.03004 ], [ -71.5957, -38.03179 ], [ -71.59662, -38.03293 ], [ -71.59757, -38.03477 ], [ -71.59719, -38.03641 ], [ -71.59736, -38.03722 ], [ -71.59681, -38.03828 ], [ -71.59694, -38.03991 ], [ -71.5973, -38.04164 ], [ -71.59691, -38.04328 ], [ -71.59725, -38.04432 ], [ -71.59845, -38.04511 ], [ -71.59907, -38.04591 ], [ -71.59883, -38.04743 ], [ -71.59826, -38.04803 ], [ -71.59815, -38.04908 ], [ -71.59774, -38.0499 ], [ -71.59873, -38.0529 ], [ -71.5986, -38.05361 ], [ -71.59906, -38.05406 ], [ -71.59894, -38.05465 ], [ -71.59838, -38.05547 ], [ -71.59946, -38.05685 ], [ -71.59966, -38.05859 ], [ -71.60027, -38.05904 ], [ -71.59991, -38.06138 ], [ -71.60087, -38.06357 ], [ -71.60062, -38.06485 ], [ -71.60008, -38.06615 ], [ -71.60028, -38.06754 ], [ -71.60025, -38.06894 ], [ -71.5997, -38.06988 ], [ -71.59995, -38.0729 ], [ -71.59985, -38.0743 ], [ -71.59902, -38.0756 ], [ -71.59834, -38.07736 ], [ -71.59733, -38.07785 ], [ -71.59633, -38.07868 ], [ -71.5958, -38.08044 ], [ -71.5951, -38.08151 ], [ -71.59347, -38.08527 ], [ -71.59165, -38.08798 ], [ -71.5911, -38.08916 ], [ -71.58995, -38.08988 ], [ -71.58924, -38.0906 ], [ -71.589, -38.09212 ], [ -71.5896, -38.09466 ], [ -71.58893, -38.09666 ], [ -71.58958, -38.09816 ], [ -71.58992, -38.09955 ], [ -71.59055, -38.10081 ], [ -71.59121, -38.10266 ], [ -71.59337, -38.10552 ], [ -71.59598, -38.10849 ], [ -71.60032, -38.11038 ], [ -71.60166, -38.11069 ], [ -71.60653, -38.11082 ], [ -71.61005, -38.11063 ], [ -71.61095, -38.11095 ], [ -71.61347, -38.11136 ], [ -71.61502, -38.11081 ], [ -71.61371, -38.10948 ], [ -71.61296, -38.10831 ], [ -71.61263, -38.1075 ], [ -71.61265, -38.10652 ], [ -71.61361, -38.1043 ], [ -71.6148, -38.10235 ], [ -71.61636, -38.10068 ], [ -71.61776, -38.09981 ], [ -71.61956, -38.09978 ], [ -71.62053, -38.10003 ], [ -71.62108, -38.09987 ], [ -71.62363, -38.09851 ], [ -71.62762, -38.09584 ], [ -71.62891, -38.09537 ], [ -71.63172, -38.09515 ], [ -71.63434, -38.09468 ], [ -71.6355, -38.09405 ], [ -71.63604, -38.09329 ], [ -71.63626, -38.09262 ], [ -71.6363, -38.09017 ], [ -71.63448, -38.0856 ], [ -71.63381, -38.08061 ], [ -71.63356, -38.07992 ], [ -71.63233, -38.07833 ], [ -71.63191, -38.07751 ], [ -71.6319, -38.07668 ], [ -71.63244, -38.07564 ], [ -71.63212, -38.07382 ], [ -71.63294, -38.07209 ], [ -71.63299, -38.07125 ], [ -71.63209, -38.06984 ], [ -71.63064, -38.06826 ], [ -71.62973, -38.06656 ], [ -71.62951, -38.06406 ], [ -71.62909, -38.06316 ], [ -71.62478, -38.05991 ], [ -71.62292, -38.05881 ], [ -71.62244, -38.05818 ], [ -71.62214, -38.05752 ], [ -71.62238, -38.05516 ], [ -71.62296, -38.05378 ], [ -71.62402, -38.05233 ], [ -71.62553, -38.05095 ], [ -71.62649, -38.05032 ], [ -71.6292, -38.04905 ], [ -71.63041, -38.04829 ], [ -71.63175, -38.04605 ], [ -71.63251, -38.04555 ], [ -71.63332, -38.04543 ], [ -71.63543, -38.04549 ], [ -71.6385, -38.04359 ], [ -71.64116, -38.04277 ], [ -71.64369, -38.04358 ], [ -71.64688, -38.04508 ], [ -71.64798, -38.04649 ], [ -71.6504, -38.0486 ], [ -71.65203, -38.04944 ], [ -71.65488, -38.05009 ], [ -71.65846, -38.04989 ], [ -71.66018, -38.04931 ], [ -71.66241, -38.04769 ], [ -71.66404, -38.04591 ], [ -71.66626, -38.04448 ], [ -71.66924, -38.04382 ], [ -71.67045, -38.04281 ], [ -71.67113, -38.04101 ], [ -71.67106, -38.03884 ], [ -71.67149, -38.03705 ], [ -71.67244, -38.03564 ], [ -71.67236, -38.03347 ], [ -71.67349, -38.03008 ], [ -71.67365, -38.0277 ], [ -71.67459, -38.0261 ], [ -71.67501, -38.02372 ], [ -71.67619, -38.02191 ], [ -71.67712, -38.01991 ], [ -71.67683, -38.01893 ], [ -71.67675, -38.01656 ], [ -71.67716, -38.01418 ], [ -71.67784, -38.01218 ], [ -71.67729, -38.01101 ], [ -71.67549, -38.00967 ], [ -71.67594, -38.00807 ], [ -71.67983, -38.00522 ], [ -71.68254, -38.00417 ], [ -71.68374, -38.00275 ], [ -71.68521, -38.00193 ], [ -71.68769, -38.00148 ], [ -71.69019, -38.00142 ], [ -71.69212, -37.9996 ], [ -71.69482, -37.99818 ], [ -71.70445, -37.99812 ], [ -71.70371, -37.99418 ], [ -71.70383, -37.99196 ], [ -71.7049, -37.98861 ], [ -71.70624, -37.98684 ], [ -71.70721, -37.98603 ], [ -71.71136, -37.98467 ], [ -71.71275, -37.98463 ], [ -71.71492, -37.98379 ], [ -71.71588, -37.98266 ], [ -71.71584, -37.98156 ], [ -71.71499, -37.98015 ], [ -71.71313, -37.97861 ], [ -71.71129, -37.97755 ], [ -71.71105, -37.97629 ], [ -71.71274, -37.9734 ], [ -71.71289, -37.97197 ], [ -71.71261, -37.96992 ], [ -71.71177, -37.96884 ], [ -71.71134, -37.9679 ], [ -71.71241, -37.96439 ], [ -71.71389, -37.96135 ], [ -71.71461, -37.95896 ], [ -71.71453, -37.95691 ], [ -71.71623, -37.95665 ], [ -71.72183, -37.95666 ], [ -71.72503, -37.95726 ], [ -71.7266, -37.95716 ], [ -71.73596, -37.95403 ], [ -71.73737, -37.95315 ], [ -71.73735, -37.95257 ], [ -71.73567, -37.95174 ], [ -71.733, -37.94875 ], [ -71.73237, -37.94674 ], [ -71.73197, -37.94603 ], [ -71.72987, -37.94549 ], [ -71.67537, -37.936 ], [ -71.61996, -37.93076 ], [ -71.61325, -37.93065 ], [ -71.61271, -37.93131 ] ] ], [ [ [ -71.57809, -37.93031 ], [ -71.57313, -37.93135 ], [ -71.57154, -37.93209 ], [ -71.57183, -37.93406 ], [ -71.57179, -37.93709 ], [ -71.5728, -37.94102 ], [ -71.57287, -37.94708 ], [ -71.57219, -37.94884 ], [ -71.57194, -37.95001 ], [ -71.57185, -37.95152 ], [ -71.57204, -37.95291 ], [ -71.57165, -37.95432 ], [ -71.57097, -37.95573 ], [ -71.56855, -37.95811 ], [ -71.56723, -37.96035 ], [ -71.56713, -37.96175 ], [ -71.56748, -37.96326 ], [ -71.56825, -37.9644 ], [ -71.56829, -37.96534 ], [ -71.56921, -37.9666 ], [ -71.56867, -37.96777 ], [ -71.56393, -37.97125 ], [ -71.56132, -37.97224 ], [ -71.55915, -37.97333 ], [ -71.55505, -37.97506 ], [ -71.55455, -37.97634 ], [ -71.55584, -37.97748 ], [ -71.55646, -37.9784 ], [ -71.55768, -37.97965 ], [ -71.56021, -37.98041 ], [ -71.56109, -37.98129 ], [ -71.56136, -37.98031 ], [ -71.56153, -37.97877 ], [ -71.56292, -37.97831 ], [ -71.56561, -37.97597 ], [ -71.57011, -37.97299 ], [ -71.57218, -37.97135 ], [ -71.57266, -37.96991 ], [ -71.57261, -37.96857 ], [ -71.57193, -37.96741 ], [ -71.57026, -37.96541 ], [ -71.56989, -37.96406 ], [ -71.56983, -37.96261 ], [ -71.57086, -37.96105 ], [ -71.57324, -37.95888 ], [ -71.57393, -37.95736 ], [ -71.57356, -37.95609 ], [ -71.57523, -37.95487 ], [ -71.57583, -37.95351 ], [ -71.5763, -37.9511 ], [ -71.57854, -37.94816 ], [ -71.57805, -37.94803 ], [ -71.57622, -37.94847 ], [ -71.57523, -37.94901 ], [ -71.5737, -37.94925 ], [ -71.57382, -37.94799 ], [ -71.57493, -37.94755 ], [ -71.57582, -37.94697 ], [ -71.57745, -37.94658 ], [ -71.57743, -37.94454 ], [ -71.57646, -37.94269 ], [ -71.57555, -37.94134 ], [ -71.57567, -37.94031 ], [ -71.57844, -37.93899 ], [ -71.57971, -37.93942 ], [ -71.58012, -37.94098 ], [ -71.58131, -37.94222 ], [ -71.58473, -37.94346 ], [ -71.58598, -37.94412 ], [ -71.5868, -37.9458 ], [ -71.587, -37.94724 ], [ -71.58805, -37.94706 ], [ -71.58897, -37.94658 ], [ -71.58907, -37.94534 ], [ -71.58833, -37.94516 ], [ -71.58769, -37.94472 ], [ -71.58756, -37.944 ], [ -71.58707, -37.94313 ], [ -71.58729, -37.94202 ], [ -71.58778, -37.94136 ], [ -71.58874, -37.94064 ], [ -71.58805, -37.93943 ], [ -71.58768, -37.93742 ], [ -71.58881, -37.93663 ], [ -71.58878, -37.93568 ], [ -71.58937, -37.93493 ], [ -71.58978, -37.93467 ], [ -71.59093, -37.93445 ], [ -71.59137, -37.93408 ], [ -71.59412, -37.93402 ], [ -71.59603, -37.93438 ], [ -71.59619, -37.93466 ], [ -71.59792, -37.93549 ], [ -71.59888, -37.93555 ], [ -71.59982, -37.93455 ], [ -71.6003, -37.93434 ], [ -71.59935, -37.93294 ], [ -71.5991, -37.93132 ], [ -71.59895, -37.93134 ], [ -71.59873, -37.93175 ], [ -71.59862, -37.93293 ], [ -71.59823, -37.9336 ], [ -71.59789, -37.93337 ], [ -71.5965, -37.93142 ], [ -71.59517, -37.93122 ], [ -71.59061, -37.93109 ], [ -71.58911, -37.9303 ], [ -71.58893, -37.93024 ], [ -71.57879, -37.93007 ], [ -71.57809, -37.93031 ] ] ] ] } },
{ "type": "Feature", "properties": { "nombre": "Reserva Nacional Ralco", "categoria": "Reserva Nacional", "region": "Biobio", "superficie_ha": "12421,2", "decreto": "Ley NÂ° 17699 de 1972; NÂ° 429 de 1987; NÂ° 249 de 1989" }, "geometry": { "type": "MultiPolygon", "coordinates": [ [ [ [ -71.4987, -37.93778 ], [ -71.49666, -37.93509 ], [ -71.49665, -37.93484 ], [ -71.45357, -37.94084 ], [ -71.41972, -37.9483 ], [ -71.42145, -37.94825 ], [ -71.42777, -37.95166 ], [ -71.43423, -37.95484 ], [ -71.44156, -37.959 ], [ -71.45144, -37.96037 ], [ -71.45975, -37.96025 ], [ -71.46931, -37.95824 ], [ -71.47786, -37.95543 ], [ -71.48749, -37.95383 ], [ -71.49224, -37.95488 ], [ -71.49465, -37.95606 ], [ -71.49501, -37.95294 ], [ -71.49716, -37.9517 ], [ -71.49923, -37.9483 ], [ -71.49954, -37.94547 ], [ -71.49948, -37.94363 ], [ -71.49913, -37.9421 ], [ -71.4987, -37.93778 ] ] ], [ [ [ -71.35421, -37.9695 ], [ -71.35345, -37.97033 ], [ -71.35238, -37.97092 ], [ -71.34752, -37.97113 ], [ -71.3454, -37.97208 ], [ -71.34298, -37.97359 ], [ -71.34059, -37.97813 ], [ -71.34048, -37.98106 ], [ -71.34095, -37.98295 ], [ -71.3412, -37.98527 ], [ -71.34436, -37.98564 ], [ -71.34638, -37.98644 ], [ -71.34692, -37.9869 ], [ -71.34704, -37.98735 ], [ -71.34789, -37.98738 ], [ -71.3497, -37.98643 ], [ -71.35076, -37.98657 ], [ -71.35232, -37.9864 ], [ -71.35397, -37.98606 ], [ -71.35455, -37.98574 ], [ -71.35662, -37.98547 ], [ -71.36185, -37.98546 ], [ -71.36407, -37.98508 ], [ -71.36555, -37.98518 ], [ -71.3676, -37.9867 ], [ -71.36969, -37.98721 ], [ -71.37404, -37.99515 ], [ -71.37981, -37.99563 ], [ -71.3809, -37.99539 ], [ -71.38257, -37.994 ], [ -71.38371, -37.99349 ], [ -71.38806, -37.99253 ], [ -71.39051, -37.99183 ], [ -71.39186, -37.99121 ], [ -71.39286, -37.99043 ], [ -71.39392, -37.98927 ], [ -71.39734, -37.98736 ], [ -71.39917, -37.98678 ], [ -71.40012, -37.98627 ], [ -71.4036, -37.98376 ], [ -71.40588, -37.98247 ], [ -71.4071, -37.98196 ], [ -71.4081, -37.98129 ], [ -71.40995, -37.97924 ], [ -71.41046, -37.97815 ], [ -71.41062, -37.97663 ], [ -71.40962, -37.97329 ], [ -71.4073, -37.96938 ], [ -71.40641, -37.96672 ], [ -71.40469, -37.96426 ], [ -71.40121, -37.95676 ], [ -71.40011, -37.95262 ], [ -71.3998, -37.95269 ], [ -71.35417, -37.96667 ], [ -71.35421, -37.9695 ] ] ], [ [ [ -71.4135, -37.94997 ], [ -71.41373, -37.94962 ], [ -71.41324, -37.94973 ], [ -71.4135, -37.94997 ] ] ] ] } }
]
}
