{
"type": "FeatureCollection",
"name": "NCH",
"crs": { "type": "name", "properties": { "name": "urn:ogc:def:crs:OGC:1.3:CRS84" } },
"xy_coordinate_resolution": 1e-05,
"features": [
{ "type": "Feature", "properties": { "nombre": "Reserva Nacional Nuble", "categoria": "Reserva Nacional", "region": "Nuble - Biobio", "superficie_ha": "55948", "decreto": "NÂ° 384 de 1978" }, "geometry": { "type": "Polygon", "coordinates": [ [ [ -71.22029, -36.98158 ], [ -71.21972, -36.98179 ], [ -71.21753, -36.9824 ], [ -71.21666, -36.98299 ], [ -71.2154, -36.98442 ], [ -71.21419, -36.98541 ], [ -71.21266, -36.986 ], [ -71.21028, -36.98588 ], [ -71.2059, -36.98512 ], [ -71.20514, -36.98514 ], [ -71.20099, -36.98602 ], [ -71.19833, -36.98695 ], [ -71.19776, -36.98727 ], [ -71.19652, -36.98857 ], [ -71.19512, -36.99046 ], [ -71.19503, -36.99106 ], [ -71.19117, -36.99367 ], [ -71.18856, -36.99626 ], [ -71.18798, -36.99639 ], [ -71.18645, -36.99561 ], [ -71.18538, -36.99542 ], [ -71.18272, -36.99546 ], [ -71.17733, -36.99607 ], [ -71.17006, -36.99637 ], [ -71.16907, -36.99654 ], [ -71.16703, -36.99774 ], [ -71.16675, -36.99877 ], [ -71.16674, -36.99955 ], [ -71.16719, -37.00229 ], [ -71.1671, -37.00359 ], [ -71.16648, -37.00527 ], [ -71.16591, -37.00587 ], [ -71.16502, -37.00726 ], [ -71.16345, -37.00765 ], [ -71.16171, -37.00755 ], [ -71.16067, -37.00793 ], [ -71.16024, -37.00874 ], [ -71.1599, -37.00993 ], [ -71.15741, -37.01136 ], [ -71.15631, -37.0125 ], [ -71.15581, -37.01317 ], [ -71.15467, -37.01657 ], [ -71.15441, -37.01909 ], [ -71.15379, -37.02004 ], [ -71.15184, -37.02059 ], [ -71.15021, -37.02079 ], [ -71.14935, -37.02138 ], [ -71.14894, -37.02205 ], [ -71.14847, -37.02353 ], [ -71.14776, -37.02477 ], [ -71.14741, -37.02671 ], [ -71.1476, -37.02785 ], [ -71.14656, -37.029 ], [ -71.14316, -37.03164 ], [ -71.14319, -37.03554 ], [ -71.14304, -37.03637 ], [ -71.14178, -37.03844 ], [ -71.14194, -37.0398 ], [ -71.14186, -37.04059 ], [ -71.14051, -37.04126 ], [ -71.13823, -37.04945 ], [ -71.13775, -37.0502 ], [ -71.13745, -37.05148 ], [ -71.13676, -37.05231 ], [ -71.13664, -37.05334 ], [ -71.13726, -37.05446 ], [ -71.13868, -37.05517 ], [ -71.14, -37.05667 ], [ -71.14131, -37.05857 ], [ -71.14378, -37.06138 ], [ -71.14409, -37.06202 ], [ -71.14416, -37.06276 ], [ -71.14371, -37.06335 ], [ -71.1428, -37.06375 ], [ -71.14129, -37.06352 ], [ -71.14047, -37.06375 ], [ -71.14015, -37.06432 ], [ -71.14015, -37.06514 ], [ -71.14165, -37.06779 ], [ -71.14162, -37.06859 ], [ -71.14122, -37.06935 ], [ -71.13992, -37.06981 ], [ -71.13939, -37.07019 ], [ -71.13634, -37.07095 ], [ -71.13486, -37.07226 ], [ -71.13355, -37.07249 ], [ -71.13276, -37.07216 ], [ -71.132, -37.07138 ], [ -71.13103, -37.07085 ], [ -71.13003, -37.07004 ], [ -71.12858, -37.06933 ], [ -71.12746, -37.06964 ], [ -71.12432, -37.07135 ], [ -71.12306, -37.07247 ], [ -71.12007, -37.07323 ], [ -71.1196, -37.07427 ], [ -71.11964, -37.07604 ], [ -71.12171, -37.07941 ], [ -71.12175, -37.08055 ], [ -71.12066, -37.08199 ], [ -71.12039, -37.08285 ], [ -71.12085, -37.08405 ], [ -71.12167, -37.08551 ], [ -71.12165, -37.08631 ], [ -71.12121, -37.08757 ], [ -71.12271, -37.08966 ], [ -71.12268, -37.09069 ], [ -71.12203, -37.09146 ], [ -71.12077, -37.09205 ], [ -71.11578, -37.09373 ], [ -71.11275, -37.09402 ], [ -71.1115, -37.09488 ], [ -71.11087, -37.09591 ], [ -71.1111, -37.0975 ], [ -71.11018, -37.09899 ], [ -71.10895, -37.10039 ], [ -71.10853, -37.10156 ], [ -71.10699, -37.10299 ], [ -71.10476, -37.10676 ], [ -71.0999, -37.10664 ], [ -71.09808, -37.10721 ], [ -71.09636, -37.10875 ], [ -71.09477, -37.11203 ], [ -71.09342, -37.11328 ], [ -71.09248, -37.11356 ], [ -71.09199, -37.11406 ], [ -71.09229, -37.11494 ], [ -71.09269, -37.11814 ], [ -71.09256, -37.11976 ], [ -71.09222, -37.12035 ], [ -71.09234, -37.12087 ], [ -71.09267, -37.12125 ], [ -71.09374, -37.1218 ], [ -71.09521, -37.12478 ], [ -71.09555, -37.12587 ], [ -71.10097, -37.12756 ], [ -71.10183, -37.12806 ], [ -71.10297, -37.12922 ], [ -71.10756, -37.13214 ], [ -71.10804, -37.13272 ], [ -71.10905, -37.13335 ], [ -71.11595, -37.13339 ], [ -71.12161, -37.13434 ], [ -71.12343, -37.13494 ], [ -71.12423, -37.13557 ], [ -71.12441, -37.13636 ], [ -71.12427, -37.13731 ], [ -71.12464, -37.13795 ], [ -71.12557, -37.13864 ], [ -71.12591, -37.14026 ], [ -71.12625, -37.14081 ], [ -71.1269, -37.1409 ], [ -71.1278, -37.1413 ], [ -71.1295, -37.1425 ], [ -71.1333, -37.14228 ], [ -71.13331, -37.14257 ], [ -71.13279, -37.14352 ], [ -71.13284, -37.14418 ], [ -71.13461, -37.14581 ], [ -71.13503, -37.1467 ], [ -71.13486, -37.14924 ], [ -71.13507, -37.15109 ], [ -71.13572, -37.15265 ], [ -71.13591, -37.1552 ], [ -71.13516, -37.15756 ], [ -71.13524, -37.1599 ], [ -71.13606, -37.1627 ], [ -71.13602, -37.16438 ], [ -71.13517, -37.16666 ], [ -71.13438, -37.1671 ], [ -71.13183, -37.16971 ], [ -71.13065, -37.1702 ], [ -71.12943, -37.17162 ], [ -71.12861, -37.17328 ], [ -71.12837, -37.17473 ], [ -71.12957, -37.17677 ], [ -71.12948, -37.17741 ], [ -71.12874, -37.17814 ], [ -71.12827, -37.17907 ], [ -71.12841, -37.18059 ], [ -71.12758, -37.18195 ], [ -71.12734, -37.1837 ], [ -71.12782, -37.18512 ], [ -71.12798, -37.1869 ], [ -71.12786, -37.18778 ], [ -71.12738, -37.18887 ], [ -71.12639, -37.18975 ], [ -71.12334, -37.19306 ], [ -71.12149, -37.19307 ], [ -71.12096, -37.19335 ], [ -71.12108, -37.19428 ], [ -71.11961, -37.19558 ], [ -71.11849, -37.19725 ], [ -71.11742, -37.19839 ], [ -71.11663, -37.19956 ], [ -71.11632, -37.20099 ], [ -71.11532, -37.20278 ], [ -71.1143, -37.20392 ], [ -71.11404, -37.20453 ], [ -71.11418, -37.20541 ], [ -71.11499, -37.20687 ], [ -71.11597, -37.208 ], [ -71.1182, -37.2096 ], [ -71.12087, -37.21219 ], [ -71.12233, -37.21339 ], [ -71.12806, -37.21436 ], [ -71.12977, -37.21507 ], [ -71.13264, -37.21712 ], [ -71.14241, -37.22066 ], [ -71.14333, -37.22085 ], [ -71.14547, -37.22093 ], [ -71.14855, -37.22061 ], [ -71.15279, -37.22181 ], [ -71.15749, -37.2239 ], [ -71.16149, -37.22506 ], [ -71.16334, -37.22539 ], [ -71.16566, -37.2255 ], [ -71.16872, -37.22537 ], [ -71.16981, -37.22497 ], [ -71.17416, -37.22449 ], [ -71.18294, -37.22605 ], [ -71.19064, -37.22806 ], [ -71.19771, -37.22886 ], [ -71.20502, -37.22818 ], [ -71.21023, -37.22879 ], [ -71.21408, -37.22986 ], [ -71.21625, -37.23353 ], [ -71.21872, -37.23612 ], [ -71.22362, -37.23844 ], [ -71.23239, -37.236 ], [ -71.23712, -37.23564 ], [ -71.24089, -37.23733 ], [ -71.24526, -37.24159 ], [ -71.24951, -37.24534 ], [ -71.25055, -37.24575 ], [ -71.252, -37.24449 ], [ -71.25317, -37.24264 ], [ -71.25381, -37.23965 ], [ -71.25178, -37.23602 ], [ -71.25016, -37.23182 ], [ -71.24691, -37.22547 ], [ -71.24614, -37.2232 ], [ -71.24376, -37.22009 ], [ -71.24223, -37.21611 ], [ -71.24133, -37.21453 ], [ -71.24006, -37.21283 ], [ -71.23859, -37.2112 ], [ -71.23782, -37.20904 ], [ -71.24047, -37.20928 ], [ -71.24244, -37.21039 ], [ -71.24355, -37.21186 ], [ -71.24586, -37.21525 ], [ -71.2488, -37.22103 ], [ -71.25021, -37.22278 ], [ -71.25308, -37.22553 ], [ -71.25802, -37.23105 ], [ -71.25993, -37.23285 ], [ -71.26184, -37.23436 ], [ -71.26405, -37.23415 ], [ -71.26624, -37.23291 ], [ -71.2684, -37.23327 ], [ -71.26895, -37.2351 ], [ -71.27098, -37.23598 ], [ -71.27307, -37.23634 ], [ -71.27801, -37.23625 ], [ -71.28065, -37.23592 ], [ -71.28314, -37.23508 ], [ -71.28518, -37.23361 ], [ -71.28733, -37.23368 ], [ -71.2883, -37.23522 ], [ -71.29048, -37.23638 ], [ -71.29301, -37.23696 ], [ -71.29489, -37.23784 ], [ -71.29895, -37.23937 ], [ -71.30287, -37.24142 ], [ -71.30503, -37.24178 ], [ -71.30686, -37.24055 ], [ -71.30768, -37.23887 ], [ -71.30819, -37.2368 ], [ -71.308, -37.23487 ], [ -71.30632, -37.23106 ], [ -71.30593, -37.22724 ], [ -71.3055, -37.22473 ], [ -71.30545, -37.22256 ], [ -71.30582, -37.22054 ], [ -71.30648, -37.21853 ], [ -71.30673, -37.21458 ], [ -71.3075, -37.21119 ], [ -71.30773, -37.20901 ], [ -71.30839, -37.20706 ], [ -71.30971, -37.20526 ], [ -71.31105, -37.20192 ], [ -71.31202, -37.19555 ], [ -71.31214, -37.19195 ], [ -71.31151, -37.18978 ], [ -71.30935, -37.18662 ], [ -71.30858, -37.18474 ], [ -71.30903, -37.18296 ], [ -71.31013, -37.18128 ], [ -71.31227, -37.18069 ], [ -71.31247, -37.17924 ], [ -71.31645, -37.17024 ], [ -71.31855, -37.16283 ], [ -71.31925, -37.15804 ], [ -71.32992, -37.15623 ], [ -71.33718, -37.15314 ], [ -71.3411, -37.14831 ], [ -71.34313, -37.14027 ], [ -71.34333, -37.1361 ], [ -71.33841, -37.12938 ], [ -71.33239, -37.12476 ], [ -71.32882, -37.11936 ], [ -71.33014, -37.1108 ], [ -71.33421, -37.10575 ], [ -71.34092, -37.10014 ], [ -71.3479, -37.09579 ], [ -71.35273, -37.09228 ], [ -71.36065, -37.09325 ], [ -71.37363, -37.0942 ], [ -71.37843, -37.0992 ], [ -71.38629, -37.10463 ], [ -71.39235, -37.10564 ], [ -71.40042, -37.10615 ], [ -71.40748, -37.10734 ], [ -71.41517, -37.10916 ], [ -71.42658, -37.11049 ], [ -71.44195, -37.10305 ], [ -71.44776, -37.10125 ], [ -71.45597, -37.10096 ], [ -71.46608, -37.10399 ], [ -71.47228, -37.10563 ], [ -71.4769, -37.10732 ], [ -71.48175, -37.10877 ], [ -71.48592, -37.11103 ], [ -71.48613, -37.10974 ], [ -71.48788, -37.10622 ], [ -71.48878, -37.10522 ], [ -71.49283, -37.10216 ], [ -71.49666, -37.09777 ], [ -71.49959, -37.09405 ], [ -71.50111, -37.09134 ], [ -71.50192, -37.08923 ], [ -71.50316, -37.08836 ], [ -71.50428, -37.08811 ], [ -71.50546, -37.08714 ], [ -71.50664, -37.08661 ], [ -71.51073, -37.08564 ], [ -71.51359, -37.08539 ], [ -71.51447, -37.08478 ], [ -71.5148, -37.08432 ], [ -71.51493, -37.08337 ], [ -71.51442, -37.08075 ], [ -71.51334, -37.07771 ], [ -71.51184, -37.0758 ], [ -71.51167, -37.07502 ], [ -71.51183, -37.07366 ], [ -71.51242, -37.07163 ], [ -71.51267, -37.069 ], [ -71.51386, -37.06728 ], [ -71.51574, -37.06612 ], [ -71.51757, -37.06556 ], [ -71.51885, -37.06547 ], [ -71.52187, -37.06603 ], [ -71.52443, -37.06803 ], [ -71.52706, -37.06784 ], [ -71.5289, -37.06811 ], [ -71.53112, -37.06811 ], [ -71.53264, -37.06729 ], [ -71.53458, -37.06654 ], [ -71.53744, -37.0646 ], [ -71.54188, -37.0633 ], [ -71.54418, -37.06179 ], [ -71.54452, -37.0611 ], [ -71.54548, -37.06031 ], [ -71.54611, -37.05907 ], [ -71.54623, -37.05855 ], [ -71.54561, -37.05714 ], [ -71.54363, -37.05475 ], [ -71.54333, -37.05255 ], [ -71.54221, -37.04946 ], [ -71.54131, -37.04795 ], [ -71.54125, -37.04732 ], [ -71.54184, -37.04575 ], [ -71.54181, -37.04495 ], [ -71.54134, -37.04354 ], [ -71.54086, -37.04087 ], [ -71.54161, -37.03989 ], [ -71.5455, -37.03744 ], [ -71.54744, -37.0339 ], [ -71.54795, -37.03192 ], [ -71.54782, -37.03033 ], [ -71.54908, -37.02781 ], [ -71.5496, -37.02477 ], [ -71.55162, -37.02187 ], [ -71.55122, -37.02084 ], [ -71.55057, -37.02005 ], [ -71.54935, -37.01914 ], [ -71.54485, -37.01734 ], [ -71.5414, -37.0133 ], [ -71.5409, -37.01298 ], [ -71.54089, -37.01277 ], [ -71.53966, -37.01151 ], [ -71.53833, -37.01049 ], [ -71.53687, -37.00968 ], [ -71.53504, -37.00926 ], [ -71.53216, -37.00938 ], [ -71.53032, -37.00874 ], [ -71.52907, -37.0088 ], [ -71.52715, -37.00775 ], [ -71.52559, -37.00756 ], [ -71.52486, -37.0073 ], [ -71.52435, -37.00741 ], [ -71.52293, -37.00711 ], [ -71.52124, -37.00711 ], [ -71.51953, -37.00649 ], [ -71.51753, -37.00668 ], [ -71.51662, -37.00657 ], [ -71.51058, -37.00507 ], [ -71.50975, -37.00505 ], [ -71.50869, -37.00537 ], [ -71.49792, -37.00096 ], [ -71.49201, -37.00111 ], [ -71.47874, -36.99647 ], [ -71.47625, -36.99597 ], [ -71.46956, -36.99879 ], [ -71.46564, -36.99933 ], [ -71.4593, -36.99743 ], [ -71.45424, -36.99564 ], [ -71.44804, -36.99431 ], [ -71.44284, -36.99434 ], [ -71.43878, -36.99521 ], [ -71.4355, -36.9979 ], [ -71.43337, -37.00086 ], [ -71.43194, -37.00379 ], [ -71.43125, -37.0139 ], [ -71.43003, -37.02479 ], [ -71.41, -37.02582 ], [ -71.38802, -37.02556 ], [ -71.37014, -36.99455 ], [ -71.36914, -36.9899 ], [ -71.3707, -36.98507 ], [ -71.37347, -36.97937 ], [ -71.37439, -36.97443 ], [ -71.37332, -36.96955 ], [ -71.37039, -36.96536 ], [ -71.36555, -36.96158 ], [ -71.36077, -36.95933 ], [ -71.35699, -36.95441 ], [ -71.35571, -36.94936 ], [ -71.35392, -36.94358 ], [ -71.35171, -36.93842 ], [ -71.34807, -36.93236 ], [ -71.34366, -36.92648 ], [ -71.3324, -36.91771 ], [ -71.33171, -36.91843 ], [ -71.33058, -36.91893 ], [ -71.32812, -36.91957 ], [ -71.32267, -36.92014 ], [ -71.31898, -36.92075 ], [ -71.31657, -36.92091 ], [ -71.31137, -36.92082 ], [ -71.30209, -36.92327 ], [ -71.3007, -36.92315 ], [ -71.29677, -36.92058 ], [ -71.29326, -36.91872 ], [ -71.29201, -36.91837 ], [ -71.28937, -36.91829 ], [ -71.28772, -36.91777 ], [ -71.28626, -36.9166 ], [ -71.28577, -36.91582 ], [ -71.28536, -36.91453 ], [ -71.28463, -36.91361 ], [ -71.28338, -36.91247 ], [ -71.28108, -36.91102 ], [ -71.27881, -36.90995 ], [ -71.27754, -36.90959 ], [ -71.27668, -36.90951 ], [ -71.27511, -36.9099 ], [ -71.27349, -36.91135 ], [ -71.27082, -36.91269 ], [ -71.26933, -36.91391 ], [ -71.26814, -36.9146 ], [ -71.26618, -36.91513 ], [ -71.26058, -36.91485 ], [ -71.25963, -36.91654 ], [ -71.2585, -36.91921 ], [ -71.25745, -36.92074 ], [ -71.2573, -36.92235 ], [ -71.25791, -36.92465 ], [ -71.25788, -36.92509 ], [ -71.25725, -36.9259 ], [ -71.25616, -36.92651 ], [ -71.25564, -36.92709 ], [ -71.25511, -36.92962 ], [ -71.25516, -36.93058 ], [ -71.25721, -36.93369 ], [ -71.25727, -36.93461 ], [ -71.25695, -36.93496 ], [ -71.25638, -36.93503 ], [ -71.25465, -36.93458 ], [ -71.25422, -36.93467 ], [ -71.25199, -36.93437 ], [ -71.25029, -36.93474 ], [ -71.24887, -36.9358 ], [ -71.24765, -36.93802 ], [ -71.24849, -36.94041 ], [ -71.24867, -36.94356 ], [ -71.24773, -36.94667 ], [ -71.24409, -36.95065 ], [ -71.23988, -36.953 ], [ -71.23873, -36.95467 ], [ -71.23611, -36.96165 ], [ -71.23432, -36.96484 ], [ -71.23125, -36.96826 ], [ -71.22485, -36.97355 ], [ -71.22105, -36.9748 ], [ -71.2218, -36.97717 ], [ -71.22232, -36.97823 ], [ -71.22229, -36.97888 ], [ -71.22151, -36.98044 ], [ -71.22029, -36.98158 ] ] ] } },
{ "type": "Feature", "properties": { "nombre": "Reserva Nacional Los Huemules Del Niblinto", "categoria": "Reserva Nacional", "region": "Nuble", "superficie_ha": "2022,8", "decreto": "NÂ° 32 de 1999" }, "geometry": { "type": "Polygon", "coordinates": [ [ [ -71.52264, -36.73611 ], [ -71.52139, -36.73576 ], [ -71.51852, -36.73558 ], [ -71.51688, -36.73585 ], [ -71.51643, -36.73567 ], [ -71.51525, -36.73565 ], [ -71.51283, -36.73761 ], [ -71.51163, -36.73787 ], [ -71.51019, -36.73882 ], [ -71.50902, -36.739 ], [ -71.50815, -36.73952 ], [ -71.50633, -36.73974 ], [ -71.50531, -36.7403 ], [ -71.50411, -36.74044 ], [ -71.50329, -36.7407 ], [ -71.5024, -36.74129 ], [ -71.4998, -36.74218 ], [ -71.49834, -36.74333 ], [ -71.49714, -36.74395 ], [ -71.49582, -36.74449 ], [ -71.49489, -36.74467 ], [ -71.49421, -36.74512 ], [ -71.49287, -36.74489 ], [ -71.49206, -36.74507 ], [ -71.49143, -36.74556 ], [ -71.48969, -36.74553 ], [ -71.48869, -36.74571 ], [ -71.48715, -36.74644 ], [ -71.48609, -36.74781 ], [ -71.48509, -36.74856 ], [ -71.48416, -36.75072 ], [ -71.4832, -36.75179 ], [ -71.4833, -36.75269 ], [ -71.48296, -36.75399 ], [ -71.48249, -36.755 ], [ -71.48249, -36.75538 ], [ -71.48164, -36.75658 ], [ -71.48121, -36.75795 ], [ -71.48023, -36.75867 ], [ -71.47986, -36.75978 ], [ -71.47923, -36.76302 ], [ -71.47862, -36.76411 ], [ -71.47826, -36.76527 ], [ -71.474, -36.76958 ], [ -71.47085, -36.77244 ], [ -71.46952, -36.77394 ], [ -71.4681, -36.77632 ], [ -71.46719, -36.77835 ], [ -71.46625, -36.77968 ], [ -71.46395, -36.7814 ], [ -71.46156, -36.78282 ], [ -71.45939, -36.78357 ], [ -71.45949, -36.78504 ], [ -71.45937, -36.78569 ], [ -71.4585, -36.78783 ], [ -71.45915, -36.79688 ], [ -71.46424, -36.79653 ], [ -71.47194, -36.79817 ], [ -71.47914, -36.80012 ], [ -71.48073, -36.80045 ], [ -71.48298, -36.80064 ], [ -71.48391, -36.80102 ], [ -71.48569, -36.80111 ], [ -71.48708, -36.80078 ], [ -71.48988, -36.80056 ], [ -71.49202, -36.8002 ], [ -71.49783, -36.79889 ], [ -71.49939, -36.7982 ], [ -71.5048, -36.79506 ], [ -71.50455, -36.76672 ], [ -71.5048, -36.7651 ], [ -71.50822, -36.76043 ], [ -71.51171, -36.75609 ], [ -71.51481, -36.75292 ], [ -71.51724, -36.74972 ], [ -71.51777, -36.74823 ], [ -71.51825, -36.74491 ], [ -71.51813, -36.74343 ], [ -71.51777, -36.74181 ], [ -71.5179, -36.74146 ], [ -71.5196, -36.74012 ], [ -71.52294, -36.73858 ], [ -71.52436, -36.73719 ], [ -71.52264, -36.73611 ] ] ] } }
]
}
