{
"type": "FeatureCollection",
"name": "NTC",
"crs": { "type": "name", "properties": { "name": "urn:ogc:def:crs:OGC:1.3:CRS84" } },
"xy_coordinate_resolution": 1e-05,
"features": [
{ "type": "Feature", "properties": { "nombre": "Parque Nacional Nevado Tres Cruces", "categoria": "Parque Nacional", "region": "Atacama", "superficie_ha": "59081,87", "decreto": "NÂ° 947 de 1994" }, "geometry": { "type": "MultiPolygon", "coordinates": [ [ [ [ -69.10875, -27.40817 ], [ -69.11152, -27.41994 ], [ -69.12424, -27.40963 ], [ -69.10875, -27.40817 ] ] ], [ [ [ -69.07086, -27.05016 ], [ -69.07599, -27.04007 ], [ -69.06005, -27.0003 ], [ -69.03803, -26.96994 ], [ -69.0442, -26.96592 ], [ -69.03387, -26.94973 ], [ -68.90675, -27.02448 ], [ -68.89454, -27.13868 ], [ -68.98789, -27.11705 ], [ -69.09133, -27.13598 ], [ -69.1816, -27.10971 ], [ -69.24867, -27.09878 ], [ -69.21458, -27.05098 ], [ -69.16385, -27.04202 ], [ -69.15516, -26.95942 ], [ -69.09472, -26.97211 ], [ -69.05561, -26.93647 ], [ -69.03481, -26.94911 ], [ -69.04517, -26.96539 ], [ -69.04809, -26.96348 ], [ -69.07046, -26.99508 ], [ -69.06113, -26.99995 ], [ -69.0769, -27.03892 ], [ -69.12025, -27.05907 ], [ -69.11134, -27.06829 ], [ -69.07086, -27.05016 ] ] ] ] } }
]
}
