{
"type": "FeatureCollection",
"name": "PCC",
"crs": { "type": "name", "properties": { "name": "urn:ogc:def:crs:OGC:1.3:CRS84" } },
"xy_coordinate_resolution": 1e-05,
"features": [
{ "type": "Feature", "properties": { "nombre": "Parque Nacional Vicente Perez Rosales", "categoria": "Parque Nacional", "region": "Los Lagos", "superficie_ha": "253568", "decreto": "NÂ° 552 de 1926; NÂ° 338 de 1950; NÂ° 30 de 1982; NÂ° 369 de 1994; NÂ° 92 de 2017" }, "geometry": { "type": "Polygon", "coordinates": [ [ [ -72.35958, -41.00097 ], [ -72.35232, -41.0 ], [ -72.34862, -41.00016 ], [ -72.34643, -41.00061 ], [ -72.34596, -41.0004 ], [ -72.34321, -40.99647 ], [ -72.34071, -40.99359 ], [ -72.33133, -40.99031 ], [ -72.32016, -40.99327 ], [ -72.31927, -40.99321 ], [ -72.31768, -40.99251 ], [ -72.31701, -40.99166 ], [ -72.31677, -40.99106 ], [ -72.31646, -40.99085 ], [ -72.31671, -40.98854 ], [ -72.31667, -40.987 ], [ -72.31662, -40.98628 ], [ -72.31613, -40.98594 ], [ -72.30261, -40.9844 ], [ -72.29839, -40.97774 ], [ -72.29563, -40.9729 ], [ -72.29123, -40.96804 ], [ -72.28982, -40.96504 ], [ -72.28864, -40.96402 ], [ -72.28413, -40.96415 ], [ -72.27291, -40.95999 ], [ -72.26801, -40.9596 ], [ -72.26014, -40.96085 ], [ -72.25758, -40.96151 ], [ -72.2563, -40.95991 ], [ -72.25183, -40.95729 ], [ -72.24287, -40.95567 ], [ -72.23555, -40.95246 ], [ -72.2339, -40.95029 ], [ -72.23228, -40.94873 ], [ -72.23107, -40.94722 ], [ -72.22929, -40.94446 ], [ -72.22847, -40.94364 ], [ -72.22712, -40.9431 ], [ -72.21865, -40.94124 ], [ -72.20715, -40.93443 ], [ -72.19554, -40.92806 ], [ -72.19429, -40.92767 ], [ -72.18976, -40.92756 ], [ -72.1837, -40.92815 ], [ -72.17794, -40.93091 ], [ -72.17707, -40.93153 ], [ -72.17644, -40.934 ], [ -72.17506, -40.93413 ], [ -72.16374, -40.93209 ], [ -72.16244, -40.93045 ], [ -72.16032, -40.927 ], [ -72.15937, -40.92693 ], [ -72.1566, -40.93264 ], [ -72.15688, -40.93449 ], [ -72.15646, -40.9359 ], [ -72.16538, -40.94182 ], [ -72.15845, -40.94469 ], [ -72.15036, -40.94436 ], [ -72.1484, -40.94521 ], [ -72.14769, -40.94567 ], [ -72.14743, -40.94807 ], [ -72.14761, -40.9488 ], [ -72.14708, -40.94998 ], [ -72.14636, -40.95085 ], [ -72.14502, -40.95129 ], [ -72.13877, -40.95158 ], [ -72.13314, -40.95352 ], [ -72.12989, -40.9542 ], [ -72.12609, -40.95539 ], [ -72.12097, -40.95534 ], [ -72.11441, -40.95554 ], [ -72.1064, -40.95674 ], [ -72.10464, -40.95661 ], [ -72.10199, -40.95613 ], [ -72.09841, -40.9548 ], [ -72.09497, -40.95387 ], [ -72.08709, -40.95361 ], [ -72.08548, -40.95326 ], [ -72.08409, -40.95275 ], [ -72.08261, -40.95147 ], [ -72.08135, -40.94896 ], [ -72.07983, -40.94744 ], [ -72.07776, -40.94642 ], [ -72.07361, -40.9451 ], [ -72.07002, -40.94472 ], [ -72.06693, -40.9457 ], [ -72.05961, -40.94592 ], [ -72.05865, -40.94646 ], [ -72.05776, -40.94672 ], [ -72.05683, -40.94674 ], [ -72.05576, -40.947 ], [ -72.04975, -40.94631 ], [ -72.04748, -40.94557 ], [ -72.04577, -40.9444 ], [ -72.04548, -40.94361 ], [ -72.04534, -40.94192 ], [ -72.04541, -40.93962 ], [ -72.04564, -40.93814 ], [ -72.04607, -40.93747 ], [ -72.04682, -40.93693 ], [ -72.04723, -40.9361 ], [ -72.04686, -40.93463 ], [ -72.04678, -40.93282 ], [ -72.0472, -40.93078 ], [ -72.04719, -40.92921 ], [ -72.04693, -40.92756 ], [ -72.04646, -40.92677 ], [ -72.0451, -40.92575 ], [ -72.04297, -40.92505 ], [ -72.0409, -40.92458 ], [ -72.03804, -40.92453 ], [ -72.03733, -40.92435 ], [ -72.03707, -40.92416 ], [ -72.03695, -40.92365 ], [ -72.03705, -40.92332 ], [ -72.03961, -40.91958 ], [ -72.03972, -40.91846 ], [ -72.03945, -40.91737 ], [ -72.03885, -40.91633 ], [ -72.0383, -40.91586 ], [ -72.03801, -40.91521 ], [ -72.03805, -40.91443 ], [ -72.04055, -40.90974 ], [ -72.04126, -40.90808 ], [ -72.04126, -40.90667 ], [ -72.04202, -40.90496 ], [ -72.04298, -40.90218 ], [ -72.04324, -40.89887 ], [ -72.04353, -40.89778 ], [ -72.04392, -40.89722 ], [ -72.04511, -40.89641 ], [ -72.047, -40.89562 ], [ -72.05096, -40.89444 ], [ -72.05467, -40.89285 ], [ -72.05743, -40.8914 ], [ -72.0589, -40.89036 ], [ -72.06052, -40.88952 ], [ -72.062, -40.88839 ], [ -72.06269, -40.88821 ], [ -72.06422, -40.88825 ], [ -72.0674, -40.88797 ], [ -72.07045, -40.8884 ], [ -72.07142, -40.88825 ], [ -72.07365, -40.88693 ], [ -72.07425, -40.88632 ], [ -72.0744, -40.88589 ], [ -72.07418, -40.88497 ], [ -72.07323, -40.88386 ], [ -72.06928, -40.88116 ], [ -72.06832, -40.88033 ], [ -72.06721, -40.87898 ], [ -72.06713, -40.8785 ], [ -72.06742, -40.87787 ], [ -72.07685, -40.86751 ], [ -72.07938, -40.86506 ], [ -72.08133, -40.86402 ], [ -72.08452, -40.86276 ], [ -72.08889, -40.86127 ], [ -72.09519, -40.85885 ], [ -72.09692, -40.85837 ], [ -72.09725, -40.85808 ], [ -72.09758, -40.85715 ], [ -72.0975, -40.85536 ], [ -72.09706, -40.85412 ], [ -72.09613, -40.85233 ], [ -72.09517, -40.84907 ], [ -72.0952, -40.84826 ], [ -72.09543, -40.84795 ], [ -72.09771, -40.84703 ], [ -72.10021, -40.84638 ], [ -72.10262, -40.84531 ], [ -72.10385, -40.8443 ], [ -72.10541, -40.84257 ], [ -72.10611, -40.84093 ], [ -72.1062, -40.84001 ], [ -72.10561, -40.83849 ], [ -72.10393, -40.83589 ], [ -72.10284, -40.83498 ], [ -72.10122, -40.834 ], [ -72.09827, -40.83278 ], [ -72.09578, -40.83122 ], [ -72.09407, -40.82875 ], [ -72.09378, -40.82812 ], [ -72.09434, -40.82548 ], [ -72.09579, -40.82253 ], [ -72.09603, -40.82055 ], [ -72.09585, -40.81929 ], [ -72.09536, -40.81841 ], [ -72.0944, -40.81741 ], [ -72.09115, -40.81588 ], [ -72.09072, -40.81541 ], [ -72.09064, -40.81373 ], [ -72.09112, -40.81288 ], [ -72.0921, -40.8123 ], [ -72.09495, -40.81164 ], [ -72.09868, -40.81127 ], [ -72.10357, -40.81029 ], [ -72.10501, -40.80938 ], [ -72.10537, -40.80897 ], [ -72.10558, -40.80826 ], [ -72.10464, -40.80693 ], [ -72.10178, -40.80362 ], [ -72.10149, -40.80247 ], [ -72.10152, -40.80109 ], [ -72.10185, -40.80015 ], [ -72.10255, -40.79913 ], [ -72.10408, -40.79805 ], [ -72.10697, -40.79682 ], [ -72.11167, -40.79591 ], [ -72.11575, -40.79485 ], [ -72.11728, -40.79266 ], [ -72.11768, -40.79094 ], [ -72.11855, -40.78933 ], [ -72.11904, -40.78681 ], [ -72.11973, -40.7853 ], [ -72.1211, -40.78437 ], [ -72.12316, -40.78354 ], [ -72.12574, -40.78185 ], [ -72.12679, -40.78072 ], [ -72.12852, -40.77817 ], [ -72.12964, -40.77695 ], [ -72.12985, -40.77641 ], [ -72.12518, -40.77503 ], [ -72.12209, -40.77445 ], [ -72.11608, -40.77295 ], [ -72.11378, -40.77205 ], [ -72.10974, -40.76984 ], [ -72.10848, -40.76973 ], [ -72.10465, -40.76996 ], [ -72.10077, -40.77078 ], [ -72.10014, -40.77084 ], [ -72.09967, -40.77067 ], [ -72.09779, -40.769 ], [ -72.09113, -40.7638 ], [ -72.08894, -40.7619 ], [ -72.08351, -40.75881 ], [ -72.07309, -40.75042 ], [ -72.07165, -40.75005 ], [ -72.06998, -40.75108 ], [ -72.06513, -40.75348 ], [ -72.06137, -40.75386 ], [ -72.0588, -40.75364 ], [ -72.04629, -40.75083 ], [ -72.02438, -40.74378 ], [ -72.02312, -40.74375 ], [ -72.02254, -40.74486 ], [ -72.02119, -40.74674 ], [ -72.02037, -40.74744 ], [ -72.01984, -40.74751 ], [ -72.01887, -40.74725 ], [ -72.01041, -40.74314 ], [ -72.00895, -40.74178 ], [ -72.00806, -40.74052 ], [ -72.00711, -40.73709 ], [ -72.00664, -40.73583 ], [ -72.00549, -40.73374 ], [ -72.00499, -40.73203 ], [ -72.0044, -40.73176 ], [ -72.00261, -40.73179 ], [ -71.99946, -40.73296 ], [ -71.99783, -40.733 ], [ -71.99507, -40.73193 ], [ -71.99243, -40.73038 ], [ -71.99145, -40.73019 ], [ -71.99011, -40.73022 ], [ -71.98885, -40.73059 ], [ -71.98723, -40.73158 ], [ -71.98527, -40.73292 ], [ -71.9827, -40.73511 ], [ -71.98094, -40.73617 ], [ -71.97866, -40.73719 ], [ -71.97506, -40.73761 ], [ -71.97337, -40.73833 ], [ -71.9717, -40.73971 ], [ -71.96894, -40.74356 ], [ -71.96799, -40.74434 ], [ -71.96877, -40.74442 ], [ -71.96792, -40.74485 ], [ -71.96614, -40.74532 ], [ -71.96414, -40.7463 ], [ -71.9619, -40.74658 ], [ -71.96122, -40.74636 ], [ -71.96067, -40.74582 ], [ -71.95982, -40.7443 ], [ -71.95904, -40.74432 ], [ -71.95742, -40.7448 ], [ -71.95707, -40.74502 ], [ -71.95734, -40.7459 ], [ -71.95731, -40.7466 ], [ -71.95506, -40.74832 ], [ -71.95477, -40.74929 ], [ -71.95541, -40.75053 ], [ -71.95629, -40.753 ], [ -71.95774, -40.75547 ], [ -71.95864, -40.75645 ], [ -71.95895, -40.75731 ], [ -71.95898, -40.75789 ], [ -71.95877, -40.75858 ], [ -71.95772, -40.75995 ], [ -71.95675, -40.7609 ], [ -71.95513, -40.76197 ], [ -71.95128, -40.76523 ], [ -71.95019, -40.76603 ], [ -71.94929, -40.76645 ], [ -71.94811, -40.76756 ], [ -71.94167, -40.76526 ], [ -71.94192, -40.76583 ], [ -71.94295, -40.76716 ], [ -71.94291, -40.76857 ], [ -71.94283, -40.76936 ], [ -71.94252, -40.7702 ], [ -71.94112, -40.77209 ], [ -71.93945, -40.77327 ], [ -71.93833, -40.77378 ], [ -71.93459, -40.77507 ], [ -71.93084, -40.77609 ], [ -71.93025, -40.77697 ], [ -71.92959, -40.77851 ], [ -71.92713, -40.78003 ], [ -71.92513, -40.78163 ], [ -71.92357, -40.78313 ], [ -71.922, -40.78435 ], [ -71.92126, -40.78514 ], [ -71.92098, -40.78585 ], [ -71.92115, -40.78729 ], [ -71.92203, -40.78881 ], [ -71.92325, -40.79022 ], [ -71.9255, -40.79175 ], [ -71.92656, -40.79294 ], [ -71.9274, -40.79396 ], [ -71.92823, -40.7954 ], [ -71.92846, -40.79646 ], [ -71.92847, -40.79741 ], [ -71.92733, -40.79943 ], [ -71.92664, -40.80014 ], [ -71.92595, -40.80211 ], [ -71.92605, -40.80297 ], [ -71.92735, -40.80519 ], [ -71.92769, -40.80684 ], [ -71.92498, -40.8102 ], [ -71.92493, -40.81066 ], [ -71.92883, -40.81118 ], [ -71.93039, -40.81232 ], [ -71.93083, -40.81364 ], [ -71.93073, -40.81459 ], [ -71.9298, -40.81511 ], [ -71.92943, -40.81563 ], [ -71.9294, -40.81749 ], [ -71.9297, -40.81818 ], [ -71.93031, -40.81925 ], [ -71.93094, -40.81972 ], [ -71.93155, -40.81982 ], [ -71.93395, -40.82086 ], [ -71.93454, -40.82128 ], [ -71.93471, -40.82168 ], [ -71.93452, -40.82225 ], [ -71.93332, -40.82334 ], [ -71.93277, -40.82351 ], [ -71.93193, -40.82339 ], [ -71.93235, -40.8241 ], [ -71.93227, -40.82459 ], [ -71.92959, -40.82475 ], [ -71.92674, -40.82515 ], [ -71.92565, -40.82549 ], [ -71.92443, -40.82665 ], [ -71.92428, -40.82711 ], [ -71.92367, -40.82753 ], [ -71.9235, -40.82827 ], [ -71.92398, -40.82939 ], [ -71.92497, -40.83051 ], [ -71.92557, -40.83091 ], [ -71.92583, -40.83122 ], [ -71.92601, -40.83188 ], [ -71.92643, -40.83229 ], [ -71.92788, -40.83303 ], [ -71.92595, -40.83508 ], [ -71.92462, -40.83581 ], [ -71.91978, -40.83764 ], [ -71.91934, -40.83834 ], [ -71.91838, -40.83869 ], [ -71.91669, -40.83888 ], [ -71.91455, -40.83962 ], [ -71.91417, -40.84014 ], [ -71.91415, -40.84067 ], [ -71.91348, -40.84138 ], [ -71.91346, -40.84236 ], [ -71.9141, -40.84305 ], [ -71.91241, -40.84431 ], [ -71.9092, -40.84609 ], [ -71.90782, -40.84643 ], [ -71.9084, -40.84672 ], [ -71.90984, -40.84809 ], [ -71.91032, -40.84895 ], [ -71.91107, -40.85164 ], [ -71.91096, -40.85264 ], [ -71.91065, -40.8533 ], [ -71.90972, -40.85376 ], [ -71.90944, -40.85464 ], [ -71.90972, -40.85533 ], [ -71.90975, -40.85613 ], [ -71.90937, -40.85699 ], [ -71.90868, -40.85759 ], [ -71.90577, -40.85916 ], [ -71.90437, -40.86044 ], [ -71.90218, -40.86168 ], [ -71.90087, -40.86346 ], [ -71.89994, -40.86434 ], [ -71.89866, -40.86487 ], [ -71.89578, -40.86708 ], [ -71.89485, -40.86877 ], [ -71.89395, -40.86946 ], [ -71.89297, -40.86975 ], [ -71.8924, -40.87029 ], [ -71.8919, -40.87167 ], [ -71.89131, -40.87253 ], [ -71.88964, -40.87379 ], [ -71.88753, -40.8739 ], [ -71.88681, -40.87527 ], [ -71.88562, -40.87617 ], [ -71.88521, -40.877 ], [ -71.8845, -40.87793 ], [ -71.88352, -40.87836 ], [ -71.88238, -40.87855 ], [ -71.88155, -40.87917 ], [ -71.88129, -40.8802 ], [ -71.88074, -40.88107 ], [ -71.88029, -40.88145 ], [ -71.87893, -40.88157 ], [ -71.87665, -40.8815 ], [ -71.87379, -40.88038 ], [ -71.86963, -40.87919 ], [ -71.86841, -40.87903 ], [ -71.86408, -40.87772 ], [ -71.86113, -40.87843 ], [ -71.85939, -40.87943 ], [ -71.85849, -40.88236 ], [ -71.85883, -40.88309 ], [ -71.86056, -40.88483 ], [ -71.86128, -40.88533 ], [ -71.86168, -40.88602 ], [ -71.86137, -40.88719 ], [ -71.86168, -40.88771 ], [ -71.86625, -40.88983 ], [ -71.86868, -40.89159 ], [ -71.86979, -40.89306 ], [ -71.86973, -40.89385 ], [ -71.8692, -40.89475 ], [ -71.86837, -40.89544 ], [ -71.86791, -40.89623 ], [ -71.86746, -40.8972 ], [ -71.86699, -40.89908 ], [ -71.86623, -40.89961 ], [ -71.86546, -40.90106 ], [ -71.86565, -40.90325 ], [ -71.86485, -40.90434 ], [ -71.86477, -40.90553 ], [ -71.86549, -40.90651 ], [ -71.86654, -40.90748 ], [ -71.86637, -40.90832 ], [ -71.86589, -40.90934 ], [ -71.86523, -40.91016 ], [ -71.86444, -40.9106 ], [ -71.86361, -40.91189 ], [ -71.86347, -40.91345 ], [ -71.86261, -40.91453 ], [ -71.86114, -40.91592 ], [ -71.85899, -40.91898 ], [ -71.85773, -40.9205 ], [ -71.85711, -40.92226 ], [ -71.85635, -40.92297 ], [ -71.85842, -40.92293 ], [ -71.85953, -40.92317 ], [ -71.86023, -40.9235 ], [ -71.86046, -40.92383 ], [ -71.86056, -40.9245 ], [ -71.86009, -40.92569 ], [ -71.8594, -40.92673 ], [ -71.85937, -40.9274 ], [ -71.8598, -40.92835 ], [ -71.86087, -40.92923 ], [ -71.8617, -40.93083 ], [ -71.86292, -40.93411 ], [ -71.86175, -40.93451 ], [ -71.8614, -40.93485 ], [ -71.86144, -40.93554 ], [ -71.86104, -40.93625 ], [ -71.85642, -40.93913 ], [ -71.8566, -40.93993 ], [ -71.85785, -40.94111 ], [ -71.85733, -40.9422 ], [ -71.85568, -40.94377 ], [ -71.85449, -40.94424 ], [ -71.85421, -40.94505 ], [ -71.8544, -40.94639 ], [ -71.85499, -40.94817 ], [ -71.85576, -40.94903 ], [ -71.85642, -40.94939 ], [ -71.85699, -40.95073 ], [ -71.85723, -40.95338 ], [ -71.8575, -40.95398 ], [ -71.85748, -40.95481 ], [ -71.85709, -40.95562 ], [ -71.85678, -40.95698 ], [ -71.85664, -40.95833 ], [ -71.85671, -40.95957 ], [ -71.85805, -40.96035 ], [ -71.85931, -40.96054 ], [ -71.86013, -40.96045 ], [ -71.86178, -40.95993 ], [ -71.86745, -40.95972 ], [ -71.87094, -40.95938 ], [ -71.87196, -40.95947 ], [ -71.87465, -40.96043 ], [ -71.87931, -40.96264 ], [ -71.88048, -40.9634 ], [ -71.88114, -40.96433 ], [ -71.88241, -40.96538 ], [ -71.88405, -40.96602 ], [ -71.88525, -40.96625 ], [ -71.88621, -40.96592 ], [ -71.88862, -40.96592 ], [ -71.89009, -40.96564 ], [ -71.89157, -40.96514 ], [ -71.89278, -40.96466 ], [ -71.89313, -40.9641 ], [ -71.89303, -40.96363 ], [ -71.89354, -40.96295 ], [ -71.89678, -40.96173 ], [ -71.89842, -40.96081 ], [ -71.90018, -40.9604 ], [ -71.90244, -40.96119 ], [ -71.90401, -40.96147 ], [ -71.90568, -40.963 ], [ -71.90694, -40.9634 ], [ -71.90622, -40.96433 ], [ -71.9067, -40.96638 ], [ -71.90677, -40.9684 ], [ -71.90715, -40.96985 ], [ -71.90927, -40.97247 ], [ -71.90906, -40.97373 ], [ -71.90818, -40.97406 ], [ -71.90784, -40.97451 ], [ -71.90741, -40.97477 ], [ -71.90689, -40.97592 ], [ -71.90682, -40.97706 ], [ -71.90601, -40.97834 ], [ -71.90525, -40.97899 ], [ -71.90544, -40.98039 ], [ -71.90527, -40.9817 ], [ -71.90546, -40.98308 ], [ -71.90632, -40.9856 ], [ -71.90099, -40.98393 ], [ -71.89959, -40.98403 ], [ -71.89818, -40.98458 ], [ -71.89656, -40.98448 ], [ -71.89585, -40.98474 ], [ -71.89178, -40.98772 ], [ -71.89033, -40.98786 ], [ -71.88966, -40.98812 ], [ -71.88893, -40.98893 ], [ -71.88857, -40.98996 ], [ -71.88776, -40.99055 ], [ -71.88479, -40.99391 ], [ -71.88298, -40.99548 ], [ -71.87891, -40.99721 ], [ -71.87788, -40.99816 ], [ -71.87458, -40.99923 ], [ -71.87455, -40.99959 ], [ -71.87476, -40.99967 ], [ -71.92892, -41.01601 ], [ -71.98496, -41.02823 ], [ -72.04233, -41.03621 ], [ -72.10046, -41.03985 ], [ -72.14478, -41.03931 ], [ -72.1455, -41.03066 ], [ -72.14541, -41.02973 ], [ -72.14307, -41.02871 ], [ -72.13773, -41.02758 ], [ -72.13068, -41.02684 ], [ -72.12511, -41.02346 ], [ -72.11195, -41.02092 ], [ -72.11406, -41.01489 ], [ -72.11889, -41.01585 ], [ -72.13103, -41.01247 ], [ -72.13854, -41.0125 ], [ -72.14712, -41.01339 ], [ -72.15198, -41.01359 ], [ -72.15369, -41.01346 ], [ -72.1596, -41.01094 ], [ -72.1611, -41.01049 ], [ -72.16247, -41.01061 ], [ -72.16509, -41.01115 ], [ -72.16689, -41.0122 ], [ -72.16754, -41.01313 ], [ -72.17077, -41.0205 ], [ -72.173, -41.02648 ], [ -72.17639, -41.03257 ], [ -72.17927, -41.03735 ], [ -72.20858, -41.03478 ], [ -72.20899, -41.03456 ], [ -72.20909, -41.03406 ], [ -72.2086, -41.03333 ], [ -72.2094, -41.03177 ], [ -72.20792, -41.03107 ], [ -72.20715, -41.03009 ], [ -72.20615, -41.02791 ], [ -72.20591, -41.02672 ], [ -72.20772, -41.02598 ], [ -72.20827, -41.02543 ], [ -72.21225, -41.02455 ], [ -72.21493, -41.02365 ], [ -72.21569, -41.02377 ], [ -72.21619, -41.0244 ], [ -72.21694, -41.02416 ], [ -72.21784, -41.0242 ], [ -72.21897, -41.02751 ], [ -72.22051, -41.02985 ], [ -72.22358, -41.03294 ], [ -72.27374, -41.02469 ], [ -72.32924, -41.01111 ], [ -72.35974, -41.00103 ], [ -72.35958, -41.00097 ] ], [ [ -72.1687, -40.99931 ], [ -72.16968, -40.99894 ], [ -72.17196, -40.99875 ], [ -72.17224, -40.99965 ], [ -72.17265, -41.00011 ], [ -72.17288, -41.00029 ], [ -72.17387, -41.00015 ], [ -72.17568, -41.00196 ], [ -72.17313, -41.00448 ], [ -72.17158, -41.00491 ], [ -72.16935, -41.0051 ], [ -72.16754, -41.00459 ], [ -72.16686, -41.00476 ], [ -72.16736, -41.00309 ], [ -72.16539, -41.00221 ], [ -72.16569, -41.0016 ], [ -72.16634, -41.00094 ], [ -72.16683, -40.99969 ], [ -72.1687, -40.99931 ] ], [ [ -72.17309, -40.98779 ], [ -72.17267, -40.98838 ], [ -72.17282, -40.98869 ], [ -72.17154, -40.98889 ], [ -72.17122, -40.99249 ], [ -72.17062, -40.99262 ], [ -72.1685, -40.99158 ], [ -72.16866, -40.991 ], [ -72.16862, -40.99003 ], [ -72.16804, -40.98824 ], [ -72.17064, -40.98585 ], [ -72.17401, -40.98705 ], [ -72.17309, -40.98779 ] ], [ [ -72.16839, -40.99149 ], [ -72.16752, -40.99077 ], [ -72.16664, -40.99097 ], [ -72.16489, -40.99191 ], [ -72.16453, -40.98939 ], [ -72.16472, -40.98839 ], [ -72.16797, -40.98832 ], [ -72.16851, -40.99016 ], [ -72.16855, -40.99093 ], [ -72.16839, -40.99149 ] ], [ [ -72.14095, -40.96468 ], [ -72.13438, -40.9657 ], [ -72.13109, -40.96594 ], [ -72.13027, -40.96588 ], [ -72.12489, -40.96451 ], [ -72.12287, -40.96425 ], [ -72.12103, -40.96423 ], [ -72.11833, -40.96532 ], [ -72.11584, -40.96672 ], [ -72.11507, -40.96678 ], [ -72.1146, -40.96661 ], [ -72.11387, -40.96581 ], [ -72.11303, -40.96463 ], [ -72.11221, -40.96385 ], [ -72.11208, -40.96328 ], [ -72.11226, -40.96293 ], [ -72.11329, -40.96227 ], [ -72.115, -40.96171 ], [ -72.11904, -40.96114 ], [ -72.12318, -40.96084 ], [ -72.12669, -40.95996 ], [ -72.12906, -40.96038 ], [ -72.13033, -40.96038 ], [ -72.13257, -40.95995 ], [ -72.13616, -40.9588 ], [ -72.1369, -40.95874 ], [ -72.13816, -40.95897 ], [ -72.14197, -40.95994 ], [ -72.14355, -40.95994 ], [ -72.14854, -40.9583 ], [ -72.15201, -40.95739 ], [ -72.15348, -40.95771 ], [ -72.15595, -40.95789 ], [ -72.15667, -40.95831 ], [ -72.15762, -40.95833 ], [ -72.1588, -40.95796 ], [ -72.15973, -40.95734 ], [ -72.16122, -40.9569 ], [ -72.1622, -40.95636 ], [ -72.16357, -40.95651 ], [ -72.16458, -40.95626 ], [ -72.16635, -40.95442 ], [ -72.16918, -40.95377 ], [ -72.17175, -40.95415 ], [ -72.17247, -40.95453 ], [ -72.17315, -40.95467 ], [ -72.1751, -40.95475 ], [ -72.18078, -40.96402 ], [ -72.16203, -40.96858 ], [ -72.16206, -40.96949 ], [ -72.16231, -40.96986 ], [ -72.16251, -40.97134 ], [ -72.16452, -40.97368 ], [ -72.16486, -40.97433 ], [ -72.16507, -40.97569 ], [ -72.16606, -40.97712 ], [ -72.16618, -40.97766 ], [ -72.1718, -40.97774 ], [ -72.17937, -40.97737 ], [ -72.18365, -40.97743 ], [ -72.18443, -40.97761 ], [ -72.18536, -40.97807 ], [ -72.18781, -40.98018 ], [ -72.18795, -40.98062 ], [ -72.18895, -40.98189 ], [ -72.18974, -40.98335 ], [ -72.19008, -40.98361 ], [ -72.19025, -40.9844 ], [ -72.18015, -40.98439 ], [ -72.16588, -40.98456 ], [ -72.16381, -40.98471 ], [ -72.16506, -40.98639 ], [ -72.1652, -40.98689 ], [ -72.16515, -40.98727 ], [ -72.16401, -40.9886 ], [ -72.16355, -40.98947 ], [ -72.16353, -40.99007 ], [ -72.16388, -40.99044 ], [ -72.16412, -40.99109 ], [ -72.16454, -40.9923 ], [ -72.16452, -40.99282 ], [ -72.16394, -40.99397 ], [ -72.16317, -40.99471 ], [ -72.16311, -40.99499 ], [ -72.16345, -40.99552 ], [ -72.16519, -40.99692 ], [ -72.16532, -40.99753 ], [ -72.16464, -40.99863 ], [ -72.16462, -40.99903 ], [ -72.16507, -40.99968 ], [ -72.16437, -41.00007 ], [ -72.16159, -41.00068 ], [ -72.15991, -41.00056 ], [ -72.15955, -41.00027 ], [ -72.15953, -40.99951 ], [ -72.15888, -40.99741 ], [ -72.15859, -40.9968 ], [ -72.15798, -40.9961 ], [ -72.15776, -40.9945 ], [ -72.15803, -40.99326 ], [ -72.15789, -40.99262 ], [ -72.15594, -40.98896 ], [ -72.15601, -40.98724 ], [ -72.15631, -40.98653 ], [ -72.15607, -40.98584 ], [ -72.15615, -40.98525 ], [ -72.15681, -40.98454 ], [ -72.15685, -40.98382 ], [ -72.15709, -40.98307 ], [ -72.15863, -40.98034 ], [ -72.15906, -40.97895 ], [ -72.15909, -40.97827 ], [ -72.15854, -40.97637 ], [ -72.15795, -40.97528 ], [ -72.15685, -40.97385 ], [ -72.15699, -40.97309 ], [ -72.15784, -40.97183 ], [ -72.15822, -40.97152 ], [ -72.15836, -40.97076 ], [ -72.15737, -40.96922 ], [ -72.15709, -40.96829 ], [ -72.15664, -40.96772 ], [ -72.15586, -40.96377 ], [ -72.15557, -40.96308 ], [ -72.1548, -40.96258 ], [ -72.15327, -40.9624 ], [ -72.15278, -40.96213 ], [ -72.15197, -40.96199 ], [ -72.14905, -40.96308 ], [ -72.1484, -40.96347 ], [ -72.14759, -40.96371 ], [ -72.14486, -40.96396 ], [ -72.14244, -40.96492 ], [ -72.14095, -40.96468 ] ] ] } },
{ "type": "Feature", "properties": { "nombre": "Parque Nacional Puyehue", "categoria": "Parque Nacional", "region": "Los Rios - Los Lagos", "superficie_ha": "106772", "decreto": "NÂ° 4751 de 1929; NÂ° 4363 de 1931; NÂ° 374 de 1941; NÂ° 338 de 1950; NÂ° 792 de 1961; NÂ° 348 de 1967; NÂ° 113 de 1980; NÂ° 71 de 1980; NÂ° 445 de 1981; NÂ° 33 de 1990; NÂ° 369 de 1994; NÂ° 277 de 2000; NÂ° 145 de 2017" }, "geometry": { "type": "Polygon", "coordinates": [ [ [ -72.08194, -40.76673 ], [ -72.08339, -40.7663 ], [ -72.08566, -40.7659 ], [ -72.09041, -40.76544 ], [ -72.09289, -40.76622 ], [ -72.09298, -40.76643 ], [ -72.09305, -40.76625 ], [ -72.09526, -40.76702 ], [ -72.09676, -40.76819 ], [ -72.09809, -40.76864 ], [ -72.09936, -40.7697 ], [ -72.10344, -40.77014 ], [ -72.10679, -40.76979 ], [ -72.10974, -40.76984 ], [ -72.11289, -40.77161 ], [ -72.11555, -40.77166 ], [ -72.11882, -40.77216 ], [ -72.12733, -40.77578 ], [ -72.13025, -40.77688 ], [ -72.13088, -40.77724 ], [ -72.13226, -40.77868 ], [ -72.1313, -40.77934 ], [ -72.12998, -40.78103 ], [ -72.12822, -40.78148 ], [ -72.12567, -40.78408 ], [ -72.11954, -40.78497 ], [ -72.11875, -40.78649 ], [ -72.11913, -40.78933 ], [ -72.11847, -40.79173 ], [ -72.11698, -40.79275 ], [ -72.11385, -40.7939 ], [ -72.11152, -40.7941 ], [ -72.10998, -40.79379 ], [ -72.10717, -40.79387 ], [ -72.10481, -40.79416 ], [ -72.10426, -40.79486 ], [ -72.10365, -40.79704 ], [ -72.10357, -40.80073 ], [ -72.1031, -40.80176 ], [ -72.10411, -40.80324 ], [ -72.1056, -40.80441 ], [ -72.10648, -40.8053 ], [ -72.10665, -40.80646 ], [ -72.10623, -40.80789 ], [ -72.10355, -40.81234 ], [ -72.1017, -40.81331 ], [ -72.09958, -40.8132 ], [ -72.09609, -40.81424 ], [ -72.09376, -40.8152 ], [ -72.0935, -40.81678 ], [ -72.0944, -40.81741 ], [ -72.09536, -40.81841 ], [ -72.09585, -40.81929 ], [ -72.09603, -40.82055 ], [ -72.09579, -40.82253 ], [ -72.09434, -40.82548 ], [ -72.09393, -40.82697 ], [ -72.09378, -40.82812 ], [ -72.09407, -40.82875 ], [ -72.09578, -40.83122 ], [ -72.09827, -40.83278 ], [ -72.10055, -40.83372 ], [ -72.10427, -40.83636 ], [ -72.10497, -40.83746 ], [ -72.1052, -40.83899 ], [ -72.10516, -40.83986 ], [ -72.10371, -40.84175 ], [ -72.10135, -40.84354 ], [ -72.10023, -40.8448 ], [ -72.09842, -40.8464 ], [ -72.09731, -40.84806 ], [ -72.09749, -40.84878 ], [ -72.09727, -40.85037 ], [ -72.09793, -40.85175 ], [ -72.0979, -40.85307 ], [ -72.09838, -40.85467 ], [ -72.09834, -40.85559 ], [ -72.09712, -40.85723 ], [ -72.09529, -40.85827 ], [ -72.09418, -40.85867 ], [ -72.09254, -40.85987 ], [ -72.08452, -40.86276 ], [ -72.08133, -40.86402 ], [ -72.07938, -40.86506 ], [ -72.07685, -40.86751 ], [ -72.06742, -40.87787 ], [ -72.06713, -40.8785 ], [ -72.06721, -40.87898 ], [ -72.06832, -40.88033 ], [ -72.06928, -40.88116 ], [ -72.07332, -40.88397 ], [ -72.07393, -40.8851 ], [ -72.0736, -40.88741 ], [ -72.07219, -40.88811 ], [ -72.06782, -40.88735 ], [ -72.06504, -40.88816 ], [ -72.06269, -40.88821 ], [ -72.062, -40.88839 ], [ -72.06052, -40.88952 ], [ -72.05893, -40.89034 ], [ -72.05413, -40.89063 ], [ -72.05101, -40.89206 ], [ -72.04581, -40.89344 ], [ -72.04516, -40.8934 ], [ -72.04327, -40.89382 ], [ -72.04115, -40.89458 ], [ -72.0405, -40.89629 ], [ -72.04213, -40.90022 ], [ -72.04228, -40.90252 ], [ -72.04179, -40.904 ], [ -72.04086, -40.91114 ], [ -72.03979, -40.91463 ], [ -72.03979, -40.91539 ], [ -72.04137, -40.91762 ], [ -72.04112, -40.91844 ], [ -72.03968, -40.9192 ], [ -72.03961, -40.91958 ], [ -72.03892, -40.92069 ], [ -72.03908, -40.92095 ], [ -72.04135, -40.92117 ], [ -72.04222, -40.9214 ], [ -72.04431, -40.92342 ], [ -72.0452, -40.92495 ], [ -72.0462, -40.92607 ], [ -72.04653, -40.92704 ], [ -72.04649, -40.92913 ], [ -72.04757, -40.93063 ], [ -72.04659, -40.93605 ], [ -72.04685, -40.93701 ], [ -72.04604, -40.93835 ], [ -72.04487, -40.94123 ], [ -72.04493, -40.94243 ], [ -72.04621, -40.94503 ], [ -72.049, -40.94616 ], [ -72.05176, -40.94641 ], [ -72.05694, -40.94595 ], [ -72.06156, -40.94572 ], [ -72.06359, -40.94588 ], [ -72.06791, -40.94555 ], [ -72.07318, -40.94387 ], [ -72.07533, -40.94349 ], [ -72.07735, -40.94343 ], [ -72.07942, -40.94436 ], [ -72.0802, -40.94566 ], [ -72.07998, -40.95016 ], [ -72.08117, -40.951 ], [ -72.08163, -40.95154 ], [ -72.08147, -40.95191 ], [ -72.08173, -40.95235 ], [ -72.08311, -40.95376 ], [ -72.08639, -40.95456 ], [ -72.08849, -40.95452 ], [ -72.09268, -40.95392 ], [ -72.09703, -40.9538 ], [ -72.10454, -40.95616 ], [ -72.10656, -40.95645 ], [ -72.11031, -40.95615 ], [ -72.11694, -40.95498 ], [ -72.12102, -40.95482 ], [ -72.12544, -40.95495 ], [ -72.12952, -40.9541 ], [ -72.13574, -40.95162 ], [ -72.13926, -40.95084 ], [ -72.14089, -40.95065 ], [ -72.14451, -40.95059 ], [ -72.14541, -40.95029 ], [ -72.14602, -40.94986 ], [ -72.14717, -40.94853 ], [ -72.14737, -40.94772 ], [ -72.14726, -40.94641 ], [ -72.14741, -40.9459 ], [ -72.14809, -40.94522 ], [ -72.15309, -40.94199 ], [ -72.15559, -40.94074 ], [ -72.15361, -40.93632 ], [ -72.15256, -40.93324 ], [ -72.15228, -40.93119 ], [ -72.15233, -40.92948 ], [ -72.1534, -40.92851 ], [ -72.15612, -40.92541 ], [ -72.14044, -40.90826 ], [ -72.137, -40.90766 ], [ -72.13403, -40.90756 ], [ -72.12883, -40.90788 ], [ -72.12814, -40.90865 ], [ -72.12584, -40.90978 ], [ -72.12378, -40.9103 ], [ -72.12232, -40.91205 ], [ -72.12089, -40.91441 ], [ -72.11907, -40.91431 ], [ -72.11473, -40.91345 ], [ -72.11422, -40.912 ], [ -72.11168, -40.91073 ], [ -72.11083, -40.90988 ], [ -72.10832, -40.90826 ], [ -72.1053, -40.90721 ], [ -72.10304, -40.90711 ], [ -72.10209, -40.90639 ], [ -72.10042, -40.90484 ], [ -72.09775, -40.9019 ], [ -72.0934, -40.89815 ], [ -72.09115, -40.89505 ], [ -72.08869, -40.89344 ], [ -72.08549, -40.88988 ], [ -72.08172, -40.88831 ], [ -72.07931, -40.88641 ], [ -72.07886, -40.88432 ], [ -72.08042, -40.88252 ], [ -72.08468, -40.87905 ], [ -72.08643, -40.87703 ], [ -72.0884, -40.8751 ], [ -72.08892, -40.87347 ], [ -72.09027, -40.87126 ], [ -72.09181, -40.87023 ], [ -72.09498, -40.86934 ], [ -72.09944, -40.86852 ], [ -72.10291, -40.8675 ], [ -72.10483, -40.86458 ], [ -72.1061, -40.86405 ], [ -72.10781, -40.86493 ], [ -72.10865, -40.86502 ], [ -72.11249, -40.86347 ], [ -72.11918, -40.85941 ], [ -72.12226, -40.85891 ], [ -72.12765, -40.85894 ], [ -72.13043, -40.85916 ], [ -72.13248, -40.85903 ], [ -72.13446, -40.85847 ], [ -72.13622, -40.85766 ], [ -72.1384, -40.85693 ], [ -72.144, -40.85548 ], [ -72.14618, -40.85403 ], [ -72.14743, -40.85169 ], [ -72.14829, -40.84961 ], [ -72.14982, -40.8483 ], [ -72.15224, -40.84786 ], [ -72.15397, -40.84714 ], [ -72.15859, -40.84291 ], [ -72.15977, -40.83974 ], [ -72.1623, -40.83555 ], [ -72.16309, -40.83214 ], [ -72.16287, -40.82814 ], [ -72.16208, -40.82405 ], [ -72.16184, -40.82048 ], [ -72.16172, -40.81461 ], [ -72.16153, -40.81372 ], [ -72.18025, -40.80998 ], [ -72.20878, -40.82378 ], [ -72.27732, -40.84185 ], [ -72.29508, -40.84264 ], [ -72.28867, -40.8279 ], [ -72.30348, -40.82936 ], [ -72.30357, -40.81999 ], [ -72.29851, -40.81969 ], [ -72.29882, -40.80546 ], [ -72.27986, -40.80474 ], [ -72.27975, -40.79805 ], [ -72.28156, -40.79576 ], [ -72.28449, -40.7937 ], [ -72.29341, -40.79119 ], [ -72.29764, -40.79081 ], [ -72.30369, -40.78914 ], [ -72.30645, -40.78858 ], [ -72.31005, -40.78896 ], [ -72.31208, -40.78824 ], [ -72.30995, -40.78552 ], [ -72.30734, -40.7843 ], [ -72.30422, -40.7835 ], [ -72.30077, -40.78238 ], [ -72.29703, -40.78076 ], [ -72.28477, -40.77662 ], [ -72.27024, -40.77142 ], [ -72.27503, -40.77211 ], [ -72.27894, -40.77169 ], [ -72.282, -40.77164 ], [ -72.28484, -40.77123 ], [ -72.28764, -40.7703 ], [ -72.29109, -40.76818 ], [ -72.29271, -40.76587 ], [ -72.29696, -40.76397 ], [ -72.30051, -40.76146 ], [ -72.303, -40.75877 ], [ -72.30547, -40.75752 ], [ -72.30952, -40.75745 ], [ -72.31728, -40.75636 ], [ -72.32535, -40.75308 ], [ -72.33072, -40.75023 ], [ -72.33042, -40.74954 ], [ -72.33116, -40.7485 ], [ -72.3303, -40.74747 ], [ -72.3258, -40.74481 ], [ -72.325, -40.74318 ], [ -72.32643, -40.74085 ], [ -72.32964, -40.73701 ], [ -72.33177, -40.73638 ], [ -72.33297, -40.73238 ], [ -72.33474, -40.72911 ], [ -72.33529, -40.72752 ], [ -72.33518, -40.72544 ], [ -72.33218, -40.72417 ], [ -72.31906, -40.72007 ], [ -72.31198, -40.71834 ], [ -72.30873, -40.71695 ], [ -72.30926, -40.7157 ], [ -72.30938, -40.71472 ], [ -72.3109, -40.71068 ], [ -72.31002, -40.70815 ], [ -72.30921, -40.70463 ], [ -72.30732, -40.70066 ], [ -72.30563, -40.69807 ], [ -72.30183, -40.69405 ], [ -72.30063, -40.6948 ], [ -72.2994, -40.69361 ], [ -72.29771, -40.69078 ], [ -72.29731, -40.68915 ], [ -72.29641, -40.68082 ], [ -72.29564, -40.67787 ], [ -72.29393, -40.6756 ], [ -72.28994, -40.67449 ], [ -72.2818, -40.67408 ], [ -72.27288, -40.67264 ], [ -72.27155, -40.6731 ], [ -72.2695, -40.67175 ], [ -72.26592, -40.67037 ], [ -72.26388, -40.66883 ], [ -72.25954, -40.66724 ], [ -72.25067, -40.66184 ], [ -72.25, -40.66296 ], [ -72.24995, -40.66352 ], [ -72.24895, -40.66492 ], [ -72.24786, -40.66601 ], [ -72.24587, -40.667 ], [ -72.24376, -40.6673 ], [ -72.2418, -40.66736 ], [ -72.24016, -40.66722 ], [ -72.23499, -40.66482 ], [ -72.23117, -40.662 ], [ -72.22935, -40.66149 ], [ -72.22822, -40.66171 ], [ -72.22468, -40.66287 ], [ -72.22247, -40.66274 ], [ -72.21927, -40.66227 ], [ -72.21821, -40.66236 ], [ -72.21676, -40.66278 ], [ -72.21532, -40.66344 ], [ -72.21362, -40.66367 ], [ -72.21052, -40.66537 ], [ -72.20804, -40.666 ], [ -72.20688, -40.66666 ], [ -72.20633, -40.66718 ], [ -72.20534, -40.6686 ], [ -72.20448, -40.66945 ], [ -72.1995, -40.6714 ], [ -72.19883, -40.67135 ], [ -72.1956, -40.66983 ], [ -72.19075, -40.66864 ], [ -72.18925, -40.66806 ], [ -72.18894, -40.66775 ], [ -72.18869, -40.66713 ], [ -72.18881, -40.66661 ], [ -72.18865, -40.66596 ], [ -72.18832, -40.66576 ], [ -72.20015, -40.64227 ], [ -72.19583, -40.64216 ], [ -72.19282, -40.64119 ], [ -72.1898, -40.63848 ], [ -72.18838, -40.6359 ], [ -72.18675, -40.63082 ], [ -72.1872, -40.62858 ], [ -72.18746, -40.62501 ], [ -72.1871, -40.62239 ], [ -72.1853, -40.6175 ], [ -72.18356, -40.61476 ], [ -72.17811, -40.61057 ], [ -72.17531, -40.60784 ], [ -72.17067, -40.60271 ], [ -72.16748, -40.60027 ], [ -72.16649, -40.59872 ], [ -72.1629, -40.59414 ], [ -72.16141, -40.59189 ], [ -72.15931, -40.5897 ], [ -72.15375, -40.58702 ], [ -72.13229, -40.58114 ], [ -72.127, -40.5794 ], [ -72.12429, -40.57834 ], [ -72.12524, -40.5763 ], [ -72.12588, -40.57554 ], [ -72.1296, -40.57235 ], [ -72.13066, -40.57125 ], [ -72.13171, -40.56978 ], [ -72.13353, -40.56588 ], [ -72.13461, -40.56461 ], [ -72.13721, -40.56304 ], [ -72.13885, -40.56184 ], [ -72.14211, -40.56093 ], [ -72.14481, -40.55957 ], [ -72.14686, -40.55754 ], [ -72.1492, -40.55611 ], [ -72.14921, -40.55441 ], [ -72.14881, -40.55333 ], [ -72.14883, -40.5519 ], [ -72.14971, -40.54977 ], [ -72.1523, -40.54799 ], [ -72.15502, -40.54704 ], [ -72.15812, -40.54641 ], [ -72.16385, -40.54679 ], [ -72.16489, -40.54608 ], [ -72.16741, -40.54295 ], [ -72.17001, -40.54131 ], [ -72.17237, -40.54016 ], [ -72.17796, -40.5396 ], [ -72.18384, -40.53757 ], [ -72.18624, -40.53604 ], [ -72.18705, -40.53486 ], [ -72.18722, -40.53378 ], [ -72.18832, -40.53167 ], [ -72.19022, -40.53055 ], [ -72.19344, -40.52979 ], [ -72.19754, -40.52703 ], [ -72.20068, -40.52454 ], [ -72.2031, -40.52298 ], [ -72.21272, -40.5175 ], [ -72.21764, -40.51595 ], [ -72.22034, -40.51356 ], [ -72.22258, -40.51275 ], [ -72.22329, -40.51173 ], [ -72.22533, -40.51126 ], [ -72.22728, -40.51104 ], [ -72.22978, -40.51114 ], [ -72.23057, -40.51178 ], [ -72.23156, -40.51208 ], [ -72.23191, -40.51265 ], [ -72.23435, -40.51374 ], [ -72.23631, -40.51377 ], [ -72.23836, -40.51347 ], [ -72.24124, -40.51256 ], [ -72.24239, -40.51161 ], [ -72.24387, -40.51083 ], [ -72.24559, -40.51053 ], [ -72.24759, -40.5113 ], [ -72.2504, -40.51122 ], [ -72.25139, -40.51144 ], [ -72.25307, -40.51255 ], [ -72.25504, -40.51275 ], [ -72.2584, -40.51265 ], [ -72.26038, -40.51202 ], [ -72.26127, -40.50989 ], [ -72.26228, -40.50825 ], [ -72.26311, -40.50756 ], [ -72.26366, -40.50656 ], [ -72.26376, -40.50539 ], [ -72.26346, -40.50462 ], [ -72.26208, -40.5042 ], [ -72.26213, -40.50288 ], [ -72.26254, -40.5003 ], [ -72.26364, -40.4994 ], [ -72.26454, -40.49905 ], [ -72.26784, -40.49891 ], [ -72.26969, -40.49807 ], [ -72.2701, -40.49752 ], [ -72.27286, -40.49517 ], [ -72.27332, -40.49462 ], [ -72.27714, -40.49187 ], [ -72.27809, -40.49147 ], [ -72.27939, -40.49143 ], [ -72.28238, -40.49172 ], [ -72.2854, -40.49151 ], [ -72.28997, -40.49072 ], [ -72.29278, -40.49167 ], [ -72.29527, -40.49164 ], [ -72.2966, -40.49127 ], [ -72.29747, -40.49013 ], [ -72.2978, -40.48921 ], [ -72.29896, -40.48807 ], [ -72.29931, -40.48695 ], [ -72.29974, -40.48623 ], [ -72.30044, -40.4856 ], [ -72.30105, -40.48442 ], [ -72.30115, -40.48254 ], [ -72.30156, -40.48131 ], [ -72.30207, -40.48094 ], [ -72.30311, -40.47929 ], [ -72.30444, -40.47799 ], [ -72.30471, -40.47793 ], [ -72.30556, -40.47644 ], [ -72.30559, -40.47563 ], [ -72.30519, -40.47432 ], [ -72.30535, -40.47214 ], [ -72.30644, -40.4715 ], [ -72.30744, -40.47026 ], [ -72.30841, -40.46968 ], [ -72.30845, -40.46912 ], [ -72.30933, -40.46692 ], [ -72.3089, -40.46338 ], [ -72.31082, -40.46012 ], [ -72.31023, -40.45826 ], [ -72.31013, -40.45112 ], [ -72.309, -40.44814 ], [ -72.30861, -40.44515 ], [ -72.30703, -40.44312 ], [ -72.30584, -40.43902 ], [ -72.30551, -40.43715 ], [ -72.30617, -40.43563 ], [ -72.30863, -40.43556 ], [ -72.31054, -40.43437 ], [ -72.31092, -40.43436 ], [ -72.31049, -40.43222 ], [ -72.30945, -40.42938 ], [ -72.30852, -40.4284 ], [ -72.30735, -40.4277 ], [ -72.30434, -40.42752 ], [ -72.30185, -40.42686 ], [ -72.30058, -40.42511 ], [ -72.30083, -40.42368 ], [ -72.30329, -40.42206 ], [ -72.30719, -40.41988 ], [ -72.30867, -40.41937 ], [ -72.31085, -40.41808 ], [ -72.31477, -40.41705 ], [ -72.31727, -40.41596 ], [ -72.32067, -40.41298 ], [ -72.32045, -40.41224 ], [ -72.32318, -40.41056 ], [ -72.32341, -40.40974 ], [ -72.32329, -40.40899 ], [ -72.32192, -40.4078 ], [ -72.31951, -40.40693 ], [ -72.31318, -40.40676 ], [ -72.31077, -40.40735 ], [ -72.30938, -40.40797 ], [ -72.30704, -40.4095 ], [ -72.30483, -40.41034 ], [ -72.30388, -40.41209 ], [ -72.30089, -40.41407 ], [ -72.29937, -40.41549 ], [ -72.29786, -40.41867 ], [ -72.29691, -40.4203 ], [ -72.2929, -40.42023 ], [ -72.2834, -40.41919 ], [ -72.27981, -40.41993 ], [ -72.2731, -40.42196 ], [ -72.26977, -40.42281 ], [ -72.26708, -40.42325 ], [ -72.2654, -40.42375 ], [ -72.26092, -40.42573 ], [ -72.26049, -40.42647 ], [ -72.26099, -40.42811 ], [ -72.26221, -40.43012 ], [ -72.26358, -40.43197 ], [ -72.26466, -40.43317 ], [ -72.26714, -40.43542 ], [ -72.26786, -40.43666 ], [ -72.26783, -40.43778 ], [ -72.1188, -40.47759 ], [ -72.12006, -40.47823 ], [ -72.1229, -40.48018 ], [ -72.1253, -40.48124 ], [ -72.12766, -40.48202 ], [ -72.13517, -40.48535 ], [ -72.13475, -40.48681 ], [ -72.13224, -40.48823 ], [ -72.12426, -40.49195 ], [ -72.11672, -40.49648 ], [ -72.11315, -40.49897 ], [ -72.11095, -40.50127 ], [ -72.10842, -40.5043 ], [ -72.10586, -40.50574 ], [ -72.10134, -40.50755 ], [ -72.09594, -40.50929 ], [ -72.0823, -40.51147 ], [ -72.07639, -40.5117 ], [ -72.06952, -40.51146 ], [ -72.06341, -40.51073 ], [ -72.05165, -40.50828 ], [ -72.04103, -40.50412 ], [ -72.0383, -40.50268 ], [ -72.03422, -40.50125 ], [ -72.03112, -40.49986 ], [ -72.02612, -40.49717 ], [ -72.02133, -40.49176 ], [ -72.01683, -40.48538 ], [ -72.01068, -40.4775 ], [ -72.00991, -40.4768 ], [ -72.0042, -40.47582 ], [ -71.9775, -40.47361 ], [ -71.96989, -40.47334 ], [ -71.96012, -40.47226 ], [ -71.9575, -40.47137 ], [ -71.95388, -40.47051 ], [ -71.9502, -40.47009 ], [ -71.9469, -40.46989 ], [ -71.94358, -40.47019 ], [ -71.93322, -40.43829 ], [ -71.93054, -40.43971 ], [ -71.92673, -40.44228 ], [ -71.91979, -40.44217 ], [ -71.91677, -40.44232 ], [ -71.91351, -40.44273 ], [ -71.90892, -40.44205 ], [ -71.84617, -40.4705 ], [ -71.84533, -40.47171 ], [ -71.84479, -40.47254 ], [ -71.84457, -40.47349 ], [ -71.84491, -40.47435 ], [ -71.84619, -40.47549 ], [ -71.84674, -40.47916 ], [ -71.84645, -40.47963 ], [ -71.84295, -40.4823 ], [ -71.84235, -40.48339 ], [ -71.84222, -40.48434 ], [ -71.84105, -40.48596 ], [ -71.84048, -40.48734 ], [ -71.84027, -40.48844 ], [ -71.84105, -40.48944 ], [ -71.84141, -40.49058 ], [ -71.84248, -40.49113 ], [ -71.84368, -40.49138 ], [ -71.84545, -40.49322 ], [ -71.84598, -40.49417 ], [ -71.84571, -40.4951 ], [ -71.84481, -40.49584 ], [ -71.84452, -40.49643 ], [ -71.84633, -40.49822 ], [ -71.84798, -40.49917 ], [ -71.84828, -40.49979 ], [ -71.84809, -40.50024 ], [ -71.84824, -40.50095 ], [ -71.84909, -40.50169 ], [ -71.85033, -40.50371 ], [ -71.8533, -40.50589 ], [ -71.8545, -40.50641 ], [ -71.85559, -40.5076 ], [ -71.85654, -40.50894 ], [ -71.8564, -40.51132 ], [ -71.8553, -40.51377 ], [ -71.85442, -40.51413 ], [ -71.85351, -40.51565 ], [ -71.85307, -40.51823 ], [ -71.85238, -40.52013 ], [ -71.85197, -40.52061 ], [ -71.85112, -40.52092 ], [ -71.84828, -40.52051 ], [ -71.84571, -40.51989 ], [ -71.84479, -40.5201 ], [ -71.84388, -40.52063 ], [ -71.84365, -40.52145 ], [ -71.8439, -40.52216 ], [ -71.84393, -40.52377 ], [ -71.84305, -40.52437 ], [ -71.84305, -40.52513 ], [ -71.84376, -40.52558 ], [ -71.84636, -40.52615 ], [ -71.84905, -40.52653 ], [ -71.85, -40.52606 ], [ -71.85066, -40.52591 ], [ -71.85195, -40.52613 ], [ -71.853, -40.5271 ], [ -71.85349, -40.52997 ], [ -71.8544, -40.53222 ], [ -71.85592, -40.5331 ], [ -71.85765, -40.53384 ], [ -71.85913, -40.53476 ], [ -71.85944, -40.53557 ], [ -71.85961, -40.53679 ], [ -71.86016, -40.538 ], [ -71.8608, -40.53883 ], [ -71.86111, -40.54014 ], [ -71.86044, -40.54197 ], [ -71.86026, -40.5431 ], [ -71.86028, -40.545 ], [ -71.86061, -40.54581 ], [ -71.86051, -40.54657 ], [ -71.85885, -40.54971 ], [ -71.85868, -40.55047 ], [ -71.85887, -40.55128 ], [ -71.85892, -40.55297 ], [ -71.85856, -40.55428 ], [ -71.85823, -40.55487 ], [ -71.85861, -40.55511 ], [ -71.86, -40.55509 ], [ -71.86127, -40.55547 ], [ -71.86342, -40.55576 ], [ -71.86408, -40.55568 ], [ -71.86492, -40.55629 ], [ -71.86727, -40.55737 ], [ -71.8687, -40.55679 ], [ -71.86925, -40.55639 ], [ -71.87072, -40.55625 ], [ -71.8721, -40.55585 ], [ -71.87536, -40.55401 ], [ -71.87639, -40.55383 ], [ -71.87929, -40.55421 ], [ -71.88065, -40.55406 ], [ -71.88358, -40.55325 ], [ -71.88528, -40.55289 ], [ -71.88624, -40.55285 ], [ -71.88783, -40.55221 ], [ -71.88914, -40.55145 ], [ -71.88929, -40.55176 ], [ -71.88882, -40.5533 ], [ -71.89041, -40.55502 ], [ -71.89051, -40.55552 ], [ -71.89031, -40.55632 ], [ -71.88977, -40.55689 ], [ -71.88738, -40.55854 ], [ -71.88712, -40.55989 ], [ -71.88621, -40.56175 ], [ -71.88659, -40.56299 ], [ -71.88581, -40.56308 ], [ -71.88307, -40.56249 ], [ -71.88214, -40.56287 ], [ -71.88126, -40.56349 ], [ -71.88029, -40.56364 ], [ -71.87772, -40.56365 ], [ -71.87772, -40.56515 ], [ -71.8775, -40.5657 ], [ -71.87608, -40.56694 ], [ -71.87532, -40.56974 ], [ -71.87139, -40.57153 ], [ -71.86956, -40.57291 ], [ -71.86951, -40.57353 ], [ -71.86882, -40.57455 ], [ -71.86784, -40.57493 ], [ -71.8667, -40.57731 ], [ -71.86703, -40.57821 ], [ -71.86763, -40.57912 ], [ -71.86742, -40.58045 ], [ -71.86711, -40.58143 ], [ -71.86656, -40.58243 ], [ -71.86565, -40.58366 ], [ -71.86454, -40.58476 ], [ -71.86332, -40.58528 ], [ -71.86282, -40.58576 ], [ -71.86216, -40.58786 ], [ -71.86087, -40.5894 ], [ -71.85942, -40.59063 ], [ -71.85806, -40.59125 ], [ -71.85682, -40.59212 ], [ -71.85521, -40.59223 ], [ -71.8535, -40.59178 ], [ -71.85069, -40.58873 ], [ -71.84921, -40.58771 ], [ -71.84836, -40.58685 ], [ -71.84795, -40.58507 ], [ -71.8474, -40.5845 ], [ -71.84693, -40.58331 ], [ -71.84656, -40.58281 ], [ -71.84582, -40.58266 ], [ -71.84598, -40.5839 ], [ -71.84574, -40.5849 ], [ -71.84495, -40.58592 ], [ -71.84405, -40.58659 ], [ -71.84208, -40.587 ], [ -71.84027, -40.58705 ], [ -71.82546, -40.57761 ], [ -71.82514, -40.57811 ], [ -71.82593, -40.57994 ], [ -71.82855, -40.5814 ], [ -71.82942, -40.58229 ], [ -71.83106, -40.58475 ], [ -71.83125, -40.58593 ], [ -71.83169, -40.58643 ], [ -71.8323, -40.58776 ], [ -71.8336, -40.58898 ], [ -71.83438, -40.59048 ], [ -71.83487, -40.59065 ], [ -71.83617, -40.59212 ], [ -71.83655, -40.59339 ], [ -71.83607, -40.59381 ], [ -71.83496, -40.5943 ], [ -71.83582, -40.59436 ], [ -71.83679, -40.59473 ], [ -71.8381, -40.59587 ], [ -71.83924, -40.59611 ], [ -71.84105, -40.59751 ], [ -71.84126, -40.59856 ], [ -71.84107, -40.59958 ], [ -71.84115, -40.6003 ], [ -71.84174, -40.60282 ], [ -71.84167, -40.60344 ], [ -71.83984, -40.6061 ], [ -71.83855, -40.60853 ], [ -71.83817, -40.60998 ], [ -71.83865, -40.61086 ], [ -71.83936, -40.61145 ], [ -71.83991, -40.61241 ], [ -71.84029, -40.61276 ], [ -71.84043, -40.61348 ], [ -71.84017, -40.61419 ], [ -71.84165, -40.61698 ], [ -71.84191, -40.61814 ], [ -71.84324, -40.62177 ], [ -71.84388, -40.62246 ], [ -71.84327, -40.62466 ], [ -71.84331, -40.62539 ], [ -71.844, -40.62756 ], [ -71.84428, -40.62792 ], [ -71.84507, -40.62836 ], [ -71.84612, -40.62963 ], [ -71.84632, -40.63076 ], [ -71.84665, -40.63139 ], [ -71.84799, -40.63194 ], [ -71.8492, -40.63218 ], [ -71.85007, -40.63277 ], [ -71.85062, -40.63327 ], [ -71.85119, -40.63468 ], [ -71.85259, -40.63558 ], [ -71.8532, -40.63678 ], [ -71.85345, -40.63765 ], [ -71.85488, -40.63971 ], [ -71.8548, -40.64015 ], [ -71.85388, -40.64189 ], [ -71.85419, -40.64443 ], [ -71.8547, -40.64455 ], [ -71.8603, -40.64287 ], [ -71.86148, -40.64285 ], [ -71.86302, -40.64371 ], [ -71.86565, -40.64575 ], [ -71.86659, -40.64712 ], [ -71.86649, -40.64923 ], [ -71.86539, -40.65015 ], [ -71.86528, -40.65095 ], [ -71.86544, -40.65155 ], [ -71.86792, -40.65299 ], [ -71.86818, -40.65499 ], [ -71.86771, -40.65571 ], [ -71.86705, -40.65626 ], [ -71.86608, -40.65662 ], [ -71.86814, -40.6629 ], [ -71.86877, -40.66353 ], [ -71.87354, -40.6657 ], [ -71.87388, -40.66573 ], [ -71.87428, -40.6652 ], [ -71.87492, -40.66506 ], [ -71.87648, -40.66512 ], [ -71.87892, -40.66466 ], [ -71.87979, -40.66547 ], [ -71.8815, -40.66613 ], [ -71.88434, -40.66619 ], [ -71.88536, -40.66671 ], [ -71.88678, -40.66789 ], [ -71.88727, -40.6685 ], [ -71.88801, -40.67067 ], [ -71.88857, -40.67146 ], [ -71.89012, -40.67282 ], [ -71.89058, -40.67343 ], [ -71.8907, -40.67417 ], [ -71.89131, -40.67463 ], [ -71.89342, -40.67558 ], [ -71.89525, -40.67724 ], [ -71.89594, -40.67821 ], [ -71.89712, -40.6792 ], [ -71.89817, -40.67975 ], [ -71.89859, -40.68022 ], [ -71.89804, -40.68094 ], [ -71.89806, -40.68143 ], [ -71.90413, -40.68348 ], [ -71.90688, -40.68368 ], [ -71.90787, -40.68391 ], [ -71.91002, -40.68547 ], [ -71.91136, -40.68612 ], [ -71.91268, -40.68638 ], [ -71.91453, -40.68709 ], [ -71.91831, -40.68922 ], [ -71.91986, -40.68941 ], [ -71.92048, -40.68931 ], [ -71.92098, -40.68867 ], [ -71.9217, -40.68923 ], [ -71.92231, -40.69076 ], [ -71.92426, -40.69176 ], [ -71.92508, -40.69351 ], [ -71.9251, -40.69453 ], [ -71.92581, -40.69539 ], [ -71.92598, -40.69724 ], [ -71.92645, -40.69786 ], [ -71.92897, -40.69757 ], [ -71.92978, -40.69762 ], [ -71.92993, -40.69817 ], [ -71.93064, -40.69876 ], [ -71.93167, -40.69927 ], [ -71.93256, -40.69936 ], [ -71.93303, -40.70014 ], [ -71.93315, -40.70136 ], [ -71.93351, -40.70164 ], [ -71.93355, -40.70301 ], [ -71.93414, -40.70337 ], [ -71.93487, -40.70343 ], [ -71.93567, -40.70322 ], [ -71.93689, -40.70352 ], [ -71.93811, -40.70418 ], [ -71.94051, -40.70654 ], [ -71.94145, -40.70726 ], [ -71.94177, -40.70794 ], [ -71.94327, -40.7087 ], [ -71.94363, -40.70922 ], [ -71.94384, -40.71089 ], [ -71.94464, -40.71266 ], [ -71.94453, -40.71441 ], [ -71.94606, -40.71577 ], [ -71.94689, -40.71708 ], [ -71.94839, -40.71796 ], [ -71.94886, -40.71879 ], [ -71.94993, -40.71967 ], [ -71.95093, -40.71946 ], [ -71.95143, -40.7191 ], [ -71.95304, -40.71862 ], [ -71.95874, -40.71798 ], [ -71.96106, -40.7182 ], [ -71.96176, -40.71846 ], [ -71.96244, -40.71901 ], [ -71.96336, -40.72046 ], [ -71.96358, -40.72135 ], [ -71.96339, -40.72211 ], [ -71.96152, -40.723 ], [ -71.9605, -40.72327 ], [ -71.95902, -40.72336 ], [ -71.95886, -40.7238 ], [ -71.95917, -40.72429 ], [ -71.96003, -40.7245 ], [ -71.96113, -40.72515 ], [ -71.96355, -40.7262 ], [ -71.96526, -40.72728 ], [ -71.96473, -40.72791 ], [ -71.96224, -40.72945 ], [ -71.96176, -40.7299 ], [ -71.96182, -40.73044 ], [ -71.96164, -40.73098 ], [ -71.96299, -40.7329 ], [ -71.96399, -40.73472 ], [ -71.96448, -40.73796 ], [ -71.96395, -40.7399 ], [ -71.96334, -40.74101 ], [ -71.96319, -40.7424 ], [ -71.96334, -40.74318 ], [ -71.96402, -40.74408 ], [ -71.96606, -40.74435 ], [ -71.96685, -40.74428 ], [ -71.96709, -40.74385 ], [ -71.96877, -40.74442 ], [ -71.97055, -40.74208 ], [ -71.9729, -40.74111 ], [ -71.97416, -40.741 ], [ -71.9762, -40.73991 ], [ -71.97789, -40.73928 ], [ -71.97919, -40.73787 ], [ -71.98299, -40.73541 ], [ -71.98978, -40.73475 ], [ -71.99337, -40.73348 ], [ -71.99612, -40.73275 ], [ -71.99778, -40.73267 ], [ -71.99895, -40.73639 ], [ -72.00178, -40.73986 ], [ -72.00351, -40.74136 ], [ -72.00904, -40.7452 ], [ -72.01377, -40.7468 ], [ -72.01867, -40.74748 ], [ -72.01896, -40.74727 ], [ -72.01984, -40.74751 ], [ -72.02037, -40.74744 ], [ -72.02119, -40.74674 ], [ -72.02254, -40.74486 ], [ -72.02312, -40.74375 ], [ -72.02438, -40.74378 ], [ -72.04629, -40.75083 ], [ -72.0588, -40.75364 ], [ -72.06137, -40.75386 ], [ -72.06513, -40.75348 ], [ -72.06998, -40.75108 ], [ -72.07165, -40.75004 ], [ -72.07517, -40.75446 ], [ -72.07826, -40.75708 ], [ -72.07996, -40.7622 ], [ -72.08111, -40.76632 ], [ -72.08194, -40.76673 ] ], [ [ -72.18393, -40.6677 ], [ -72.18403, -40.6677 ], [ -72.18395, -40.66771 ], [ -72.18393, -40.6677 ] ], [ [ -72.18503, -40.66752 ], [ -72.18511, -40.66747 ], [ -72.18506, -40.66752 ], [ -72.18503, -40.66752 ] ] ] } }
]
}
