{
"type": "FeatureCollection",
"name": "PLP",
"crs": { "type": "name", "properties": { "name": "urn:ogc:def:crs:OGC:1.3:CRS84" } },
"xy_coordinate_resolution": 1e-05,
"features": [
{ "type": "Feature", "properties": { "nombre": "Parque Nacional Radal Siete Tazas", "categoria": "Parque Nacional", "region": "Maule", "superficie_ha": "4138,24", "decreto": "NÂ° 208 de 2008" }, "geometry": { "type": "MultiPolygon", "coordinates": [ [ [ [ -70.99289, -35.46664 ], [ -70.99222, -35.46316 ], [ -70.99151, -35.45603 ], [ -70.99185, -35.45354 ], [ -70.99064, -35.45362 ], [ -70.98975, -35.45387 ], [ -70.98592, -35.45594 ], [ -70.98544, -35.45658 ], [ -70.98414, -35.45696 ], [ -70.98114, -35.45677 ], [ -70.97825, -35.45725 ], [ -70.97734, -35.45757 ], [ -70.97395, -35.45748 ], [ -70.97113, -35.45692 ], [ -70.96901, -35.45609 ], [ -70.96535, -35.45613 ], [ -70.96365, -35.45635 ], [ -70.96231, -35.45692 ], [ -70.95955, -35.45601 ], [ -70.95812, -35.45676 ], [ -70.95355, -35.45775 ], [ -70.9517, -35.4572 ], [ -70.94943, -35.45587 ], [ -70.94662, -35.45457 ], [ -70.94486, -35.45436 ], [ -70.94356, -35.45393 ], [ -70.94228, -35.45321 ], [ -70.9412, -35.45372 ], [ -70.94061, -35.45447 ], [ -70.93824, -35.45542 ], [ -70.93637, -35.45574 ], [ -70.93469, -35.45689 ], [ -70.93418, -35.45755 ], [ -70.93304, -35.45816 ], [ -70.9327, -35.46021 ], [ -70.93182, -35.4599 ], [ -70.92915, -35.45942 ], [ -70.92719, -35.45933 ], [ -70.92532, -35.46026 ], [ -70.92367, -35.46188 ], [ -70.92355, -35.46249 ], [ -70.92319, -35.46284 ], [ -70.92229, -35.46338 ], [ -70.92132, -35.46343 ], [ -70.91892, -35.46457 ], [ -70.91694, -35.46416 ], [ -70.91428, -35.46498 ], [ -70.91158, -35.46457 ], [ -70.91028, -35.4646 ], [ -70.90948, -35.46474 ], [ -70.90854, -35.46544 ], [ -70.90776, -35.4657 ], [ -70.90627, -35.46559 ], [ -70.90326, -35.46606 ], [ -70.89943, -35.46741 ], [ -70.8989, -35.46851 ], [ -70.89853, -35.47029 ], [ -70.89759, -35.47164 ], [ -70.89758, -35.47225 ], [ -70.89637, -35.47292 ], [ -70.89455, -35.47311 ], [ -70.89258, -35.47409 ], [ -70.89014, -35.47671 ], [ -70.88925, -35.47741 ], [ -70.88635, -35.47894 ], [ -70.88566, -35.47985 ], [ -70.8841, -35.47995 ], [ -70.88233, -35.48038 ], [ -70.87911, -35.48205 ], [ -70.87302, -35.48384 ], [ -70.87097, -35.48398 ], [ -70.86898, -35.48554 ], [ -70.86661, -35.48547 ], [ -70.86352, -35.48503 ], [ -70.86258, -35.4845 ], [ -70.86073, -35.48501 ], [ -70.8571, -35.48669 ], [ -70.85466, -35.48734 ], [ -70.85337, -35.48745 ], [ -70.8526, -35.48794 ], [ -70.84861, -35.48827 ], [ -70.8465, -35.48819 ], [ -70.84301, -35.48763 ], [ -70.84199, -35.48798 ], [ -70.84131, -35.48799 ], [ -70.83788, -35.48715 ], [ -70.83374, -35.48761 ], [ -70.82915, -35.48887 ], [ -70.83172, -35.49198 ], [ -70.83285, -35.49313 ], [ -70.83416, -35.49407 ], [ -70.83136, -35.4934 ], [ -70.83022, -35.49347 ], [ -70.82939, -35.49437 ], [ -70.82874, -35.49544 ], [ -70.82867, -35.49612 ], [ -70.82902, -35.49708 ], [ -70.82717, -35.4978 ], [ -70.82576, -35.499 ], [ -70.82693, -35.49925 ], [ -70.82802, -35.5001 ], [ -70.82869, -35.50031 ], [ -70.83119, -35.50055 ], [ -70.83186, -35.50088 ], [ -70.83437, -35.50113 ], [ -70.83648, -35.50108 ], [ -70.83809, -35.50076 ], [ -70.83926, -35.50089 ], [ -70.84006, -35.5008 ], [ -70.84128, -35.50117 ], [ -70.8422, -35.50122 ], [ -70.84305, -35.50171 ], [ -70.84361, -35.50185 ], [ -70.84414, -35.50225 ], [ -70.84554, -35.50245 ], [ -70.84683, -35.50209 ], [ -70.84753, -35.50224 ], [ -70.84823, -35.50198 ], [ -70.85068, -35.50188 ], [ -70.85119, -35.5015 ], [ -70.8515, -35.50089 ], [ -70.85197, -35.50053 ], [ -70.85255, -35.50051 ], [ -70.85337, -35.50023 ], [ -70.85408, -35.49989 ], [ -70.85459, -35.49939 ], [ -70.85688, -35.49886 ], [ -70.85757, -35.49829 ], [ -70.8579, -35.49824 ], [ -70.85917, -35.49746 ], [ -70.86073, -35.49737 ], [ -70.86091, -35.49751 ], [ -70.86179, -35.49754 ], [ -70.86214, -35.49725 ], [ -70.86283, -35.49714 ], [ -70.86357, -35.49735 ], [ -70.8639, -35.49774 ], [ -70.86438, -35.49798 ], [ -70.86497, -35.49765 ], [ -70.86607, -35.49796 ], [ -70.86663, -35.49789 ], [ -70.86704, -35.49817 ], [ -70.86758, -35.49775 ], [ -70.86867, -35.49778 ], [ -70.86972, -35.49718 ], [ -70.87191, -35.49686 ], [ -70.87262, -35.4962 ], [ -70.87376, -35.49619 ], [ -70.87421, -35.49689 ], [ -70.87451, -35.49687 ], [ -70.87483, -35.4965 ], [ -70.87511, -35.49643 ], [ -70.87594, -35.49688 ], [ -70.87684, -35.49658 ], [ -70.87719, -35.49675 ], [ -70.87803, -35.49659 ], [ -70.87912, -35.49674 ], [ -70.87946, -35.49666 ], [ -70.87997, -35.49623 ], [ -70.8806, -35.49662 ], [ -70.8809, -35.49597 ], [ -70.88242, -35.49629 ], [ -70.88273, -35.49656 ], [ -70.88361, -35.49589 ], [ -70.88428, -35.4962 ], [ -70.88467, -35.49708 ], [ -70.88508, -35.49733 ], [ -70.88513, -35.49792 ], [ -70.88529, -35.49812 ], [ -70.8859, -35.49801 ], [ -70.88703, -35.49937 ], [ -70.88888, -35.49856 ], [ -70.88929, -35.49854 ], [ -70.88963, -35.4988 ], [ -70.89006, -35.4988 ], [ -70.89088, -35.4979 ], [ -70.8915, -35.49778 ], [ -70.89209, -35.49806 ], [ -70.89241, -35.49759 ], [ -70.89283, -35.4974 ], [ -70.89321, -35.49757 ], [ -70.89334, -35.4982 ], [ -70.89466, -35.49821 ], [ -70.89665, -35.49915 ], [ -70.89838, -35.49923 ], [ -70.89873, -35.49919 ], [ -70.89908, -35.49886 ], [ -70.90007, -35.4989 ], [ -70.90101, -35.4987 ], [ -70.90119, -35.49912 ], [ -70.90179, -35.4992 ], [ -70.90209, -35.4991 ], [ -70.90285, -35.49832 ], [ -70.90344, -35.49843 ], [ -70.90472, -35.49777 ], [ -70.90512, -35.49689 ], [ -70.90571, -35.49677 ], [ -70.90685, -35.49765 ], [ -70.90821, -35.49797 ], [ -70.90899, -35.49788 ], [ -70.90986, -35.49818 ], [ -70.91119, -35.49821 ], [ -70.91182, -35.4985 ], [ -70.91342, -35.49819 ], [ -70.91381, -35.49846 ], [ -70.91411, -35.49922 ], [ -70.91462, -35.49932 ], [ -70.91495, -35.49928 ], [ -70.91543, -35.49889 ], [ -70.91594, -35.49888 ], [ -70.91642, -35.49932 ], [ -70.91761, -35.49944 ], [ -70.9184, -35.49875 ], [ -70.91935, -35.49863 ], [ -70.91986, -35.49828 ], [ -70.92088, -35.49831 ], [ -70.92176, -35.49871 ], [ -70.92233, -35.49873 ], [ -70.92305, -35.49913 ], [ -70.92401, -35.49997 ], [ -70.92523, -35.50015 ], [ -70.92693, -35.50082 ], [ -70.92919, -35.5004 ], [ -70.92999, -35.49997 ], [ -70.93339, -35.49998 ], [ -70.93464, -35.49962 ], [ -70.93579, -35.49905 ], [ -70.93606, -35.4986 ], [ -70.93595, -35.49809 ], [ -70.93633, -35.49782 ], [ -70.93644, -35.49717 ], [ -70.93773, -35.49617 ], [ -70.93948, -35.49559 ], [ -70.94016, -35.49519 ], [ -70.94275, -35.49474 ], [ -70.94385, -35.49409 ], [ -70.94471, -35.49405 ], [ -70.94557, -35.4937 ], [ -70.94617, -35.49292 ], [ -70.94685, -35.49233 ], [ -70.94773, -35.49196 ], [ -70.95013, -35.48959 ], [ -70.95215, -35.48843 ], [ -70.95318, -35.48654 ], [ -70.95419, -35.48573 ], [ -70.9548, -35.48489 ], [ -70.95697, -35.48553 ], [ -70.9575, -35.48522 ], [ -70.95772, -35.48481 ], [ -70.95862, -35.48457 ], [ -70.95988, -35.48468 ], [ -70.96157, -35.48419 ], [ -70.96335, -35.48394 ], [ -70.96381, -35.48375 ], [ -70.96421, -35.48329 ], [ -70.96498, -35.48322 ], [ -70.96731, -35.48197 ], [ -70.96779, -35.48121 ], [ -70.96849, -35.48099 ], [ -70.96864, -35.48051 ], [ -70.96901, -35.48035 ], [ -70.97119, -35.48045 ], [ -70.97215, -35.4809 ], [ -70.97466, -35.48089 ], [ -70.97644, -35.48053 ], [ -70.97978, -35.47891 ], [ -70.98056, -35.47899 ], [ -70.98195, -35.47851 ], [ -70.98312, -35.47834 ], [ -70.98406, -35.47847 ], [ -70.98688, -35.47798 ], [ -70.98783, -35.47703 ], [ -70.98884, -35.47694 ], [ -70.98847, -35.47523 ], [ -70.99114, -35.47501 ], [ -70.99318, -35.47391 ], [ -70.99478, -35.47389 ], [ -70.99431, -35.47546 ], [ -70.99435, -35.4758 ], [ -70.99455, -35.47624 ], [ -70.99518, -35.47632 ], [ -70.99657, -35.47584 ], [ -70.9971, -35.47518 ], [ -70.99924, -35.47468 ], [ -70.99954, -35.47412 ], [ -71.00027, -35.47365 ], [ -71.00098, -35.47348 ], [ -70.99536, -35.46976 ], [ -70.99391, -35.46822 ], [ -70.99289, -35.46664 ] ] ], [ [ [ -71.03273, -35.45894 ], [ -71.03307, -35.45919 ], [ -71.03479, -35.45916 ], [ -71.03534, -35.4584 ], [ -71.03573, -35.45817 ], [ -71.03612, -35.45752 ], [ -71.02928, -35.45491 ], [ -71.02758, -35.45666 ], [ -71.02632, -35.45741 ], [ -71.02552, -35.45878 ], [ -71.02498, -35.45928 ], [ -71.02288, -35.46078 ], [ -71.02124, -35.46124 ], [ -71.01971, -35.46205 ], [ -71.01708, -35.46248 ], [ -71.01602, -35.46231 ], [ -71.01474, -35.46277 ], [ -71.01335, -35.46367 ], [ -71.01231, -35.46411 ], [ -71.01034, -35.46551 ], [ -71.00658, -35.46666 ], [ -71.00494, -35.46812 ], [ -71.00364, -35.4685 ], [ -71.00202, -35.46861 ], [ -71.00142, -35.46943 ], [ -71.00062, -35.47 ], [ -71.00228, -35.47106 ], [ -71.00439, -35.47212 ], [ -71.0047, -35.47181 ], [ -71.00546, -35.47152 ], [ -71.00687, -35.47191 ], [ -71.00715, -35.4718 ], [ -71.00885, -35.47188 ], [ -71.00912, -35.47175 ], [ -71.00967, -35.47092 ], [ -71.00967, -35.47029 ], [ -71.00942, -35.46971 ], [ -71.00948, -35.46906 ], [ -71.0104, -35.46711 ], [ -71.01103, -35.46639 ], [ -71.01213, -35.46608 ], [ -71.01254, -35.46571 ], [ -71.01356, -35.46524 ], [ -71.01409, -35.46468 ], [ -71.01552, -35.46436 ], [ -71.01664, -35.46362 ], [ -71.01792, -35.46311 ], [ -71.01907, -35.46307 ], [ -71.02044, -35.46218 ], [ -71.02145, -35.46198 ], [ -71.02264, -35.46144 ], [ -71.02436, -35.46113 ], [ -71.02572, -35.46115 ], [ -71.02703, -35.46093 ], [ -71.02832, -35.45947 ], [ -71.02913, -35.45934 ], [ -71.02971, -35.459 ], [ -71.03042, -35.45896 ], [ -71.03167, -35.45837 ], [ -71.03227, -35.45834 ], [ -71.03273, -35.45869 ], [ -71.03273, -35.45894 ] ] ], [ [ [ -71.0483, -35.41819 ], [ -71.04844, -35.41843 ], [ -71.04905, -35.41839 ], [ -71.04814, -35.41883 ], [ -71.04787, -35.41915 ], [ -71.0478, -35.4196 ], [ -71.04853, -35.42004 ], [ -71.049, -35.42008 ], [ -71.05022, -35.41939 ], [ -71.05167, -35.41747 ], [ -71.05301, -35.41655 ], [ -71.05312, -35.41624 ], [ -71.0528, -35.41591 ], [ -71.05097, -35.41708 ], [ -71.04844, -35.41797 ], [ -71.0483, -35.41819 ] ] ], [ [ [ -71.05428, -35.41365 ], [ -71.05423, -35.41412 ], [ -71.05516, -35.4139 ], [ -71.05621, -35.41452 ], [ -71.05645, -35.41367 ], [ -71.05721, -35.41316 ], [ -71.05748, -35.41264 ], [ -71.05599, -35.41276 ], [ -71.05428, -35.41365 ] ] ] ] } },
{ "type": "Feature", "properties": { "nombre": "Reserva Nacional Radal Siete Tazas", "categoria": "Reserva Nacional", "region": "Maule", "superficie_ha": "1009,34", "decreto": "NÂ° 89 de 1996; NÂ° 15 de 2008" }, "geometry": { "type": "MultiPolygon", "coordinates": [ [ [ [ -71.02124, -35.46124 ], [ -71.02288, -35.46078 ], [ -71.02498, -35.45928 ], [ -71.02552, -35.45878 ], [ -71.02632, -35.45741 ], [ -71.02758, -35.45666 ], [ -71.03006, -35.45408 ], [ -71.03107, -35.45365 ], [ -71.03135, -35.45335 ], [ -71.03155, -35.45305 ], [ -71.03154, -35.4523 ], [ -71.03174, -35.45196 ], [ -71.03443, -35.45051 ], [ -71.0346, -35.45022 ], [ -71.03436, -35.44956 ], [ -71.03449, -35.44873 ], [ -71.03485, -35.44808 ], [ -71.03522, -35.44784 ], [ -71.03524, -35.4476 ], [ -71.03399, -35.44724 ], [ -71.03362, -35.44675 ], [ -71.0336, -35.44643 ], [ -71.03576, -35.44637 ], [ -71.03615, -35.44569 ], [ -71.03589, -35.44489 ], [ -71.036, -35.44473 ], [ -71.03675, -35.44454 ], [ -71.03721, -35.44361 ], [ -71.041, -35.44162 ], [ -71.04141, -35.44094 ], [ -71.04134, -35.44041 ], [ -71.04224, -35.44032 ], [ -71.04228, -35.43916 ], [ -71.04343, -35.43755 ], [ -71.0441, -35.43591 ], [ -71.04377, -35.43525 ], [ -71.04382, -35.43503 ], [ -71.0443, -35.43503 ], [ -71.04489, -35.43443 ], [ -71.04508, -35.43416 ], [ -71.04492, -35.43346 ], [ -71.04571, -35.43284 ], [ -71.04589, -35.43252 ], [ -71.04614, -35.43171 ], [ -71.04524, -35.4314 ], [ -71.04577, -35.43041 ], [ -71.04673, -35.43017 ], [ -71.04672, -35.42923 ], [ -71.04737, -35.42698 ], [ -71.04763, -35.4267 ], [ -71.04704, -35.42642 ], [ -71.0465, -35.42654 ], [ -71.04616, -35.42605 ], [ -71.04528, -35.42594 ], [ -71.04425, -35.42492 ], [ -71.04535, -35.42444 ], [ -71.04621, -35.42346 ], [ -71.04842, -35.42427 ], [ -71.0504, -35.42151 ], [ -71.05073, -35.42168 ], [ -71.05178, -35.41965 ], [ -71.05171, -35.41936 ], [ -71.04991, -35.41955 ], [ -71.04943, -35.41984 ], [ -71.04976, -35.4204 ], [ -71.04881, -35.42104 ], [ -71.04801, -35.42095 ], [ -71.04572, -35.41999 ], [ -71.04417, -35.41991 ], [ -71.04325, -35.4202 ], [ -71.04105, -35.41933 ], [ -71.04016, -35.41745 ], [ -71.03956, -35.41698 ], [ -71.0396, -35.41667 ], [ -71.03368, -35.41586 ], [ -71.03334, -35.41603 ], [ -71.0318, -35.41778 ], [ -71.02709, -35.42128 ], [ -71.0261, -35.42326 ], [ -71.02453, -35.42534 ], [ -71.02393, -35.42681 ], [ -71.02336, -35.42939 ], [ -71.02268, -35.43033 ], [ -71.02166, -35.43107 ], [ -71.02166, -35.4321 ], [ -71.02122, -35.43302 ], [ -71.02144, -35.43351 ], [ -71.02194, -35.434 ], [ -71.02191, -35.43429 ], [ -71.02178, -35.43458 ], [ -71.02092, -35.43475 ], [ -71.02076, -35.43491 ], [ -71.02095, -35.43595 ], [ -71.02092, -35.43694 ], [ -71.02205, -35.43809 ], [ -71.02269, -35.4396 ], [ -71.02258, -35.44071 ], [ -71.02225, -35.44176 ], [ -71.02347, -35.44228 ], [ -71.02463, -35.44254 ], [ -71.02589, -35.44347 ], [ -71.02758, -35.44344 ], [ -71.02723, -35.44392 ], [ -71.0263, -35.44439 ], [ -71.02659, -35.44556 ], [ -71.02664, -35.44677 ], [ -71.02314, -35.452 ], [ -71.0213, -35.45334 ], [ -71.02063, -35.45461 ], [ -71.02023, -35.45585 ], [ -71.02028, -35.45687 ], [ -71.01883, -35.45644 ], [ -71.01668, -35.45632 ], [ -71.01565, -35.45609 ], [ -71.01357, -35.45673 ], [ -71.01054, -35.45664 ], [ -71.00971, -35.45597 ], [ -71.00854, -35.4554 ], [ -71.00743, -35.45423 ], [ -71.00533, -35.45418 ], [ -71.00346, -35.45285 ], [ -71.00251, -35.45251 ], [ -71.00109, -35.45275 ], [ -71.00008, -35.45225 ], [ -70.9993, -35.45217 ], [ -70.99839, -35.45523 ], [ -70.99828, -35.45927 ], [ -70.99734, -35.46293 ], [ -70.99749, -35.46459 ], [ -70.99719, -35.4657 ], [ -70.99782, -35.46851 ], [ -71.00062, -35.47 ], [ -71.00142, -35.46943 ], [ -71.00202, -35.46861 ], [ -71.00364, -35.4685 ], [ -71.00494, -35.46812 ], [ -71.00658, -35.46666 ], [ -71.01034, -35.46551 ], [ -71.01231, -35.46411 ], [ -71.01335, -35.46367 ], [ -71.01474, -35.46277 ], [ -71.01602, -35.46231 ], [ -71.01708, -35.46248 ], [ -71.01971, -35.46205 ], [ -71.02124, -35.46124 ] ] ], [ [ [ -71.04517, -35.43667 ], [ -71.04449, -35.43635 ], [ -71.04452, -35.4371 ], [ -71.04517, -35.43667 ] ] ] ] } }
]
}
