{
"type": "FeatureCollection",
"name": "SJO",
"crs": { "type": "name", "properties": { "name": "urn:ogc:def:crs:OGC:1.3:CRS84" } },
"xy_coordinate_resolution": 1e-05,
"features": [
{ "type": "Feature", "properties": { "nombre": "Monumento Natural El Morado", "categoria": "Monumento Natural", "region": "Metropolitana", "superficie_ha": "2900", "decreto": "NÂ° 162 de 1974; NÂ° 2581 de 1994; NÂ° 121 de 2017" }, "geometry": { "type": "Polygon", "coordinates": [ [ [ -70.05054, -33.81018 ], [ -70.05046, -33.81115 ], [ -70.0493, -33.81226 ], [ -70.04857, -33.81352 ], [ -70.04849, -33.81529 ], [ -70.04938, -33.81914 ], [ -70.04946, -33.82015 ], [ -70.04927, -33.82113 ], [ -70.0515, -33.82103 ], [ -70.05425, -33.81999 ], [ -70.057, -33.81993 ], [ -70.05783, -33.81977 ], [ -70.05954, -33.81864 ], [ -70.06189, -33.81857 ], [ -70.06262, -33.81836 ], [ -70.06375, -33.81775 ], [ -70.06428, -33.81577 ], [ -70.06451, -33.81777 ], [ -70.06429, -33.81849 ], [ -70.06328, -33.82013 ], [ -70.06313, -33.82084 ], [ -70.06328, -33.82233 ], [ -70.06316, -33.82317 ], [ -70.06329, -33.82383 ], [ -70.06386, -33.82471 ], [ -70.06396, -33.8257 ], [ -70.06489, -33.82675 ], [ -70.06819, -33.82702 ], [ -70.06974, -33.8267 ], [ -70.07068, -33.8267 ], [ -70.0723, -33.8263 ], [ -70.07326, -33.8263 ], [ -70.07504, -33.82645 ], [ -70.07704, -33.82719 ], [ -70.07768, -33.82439 ], [ -70.07865, -33.82118 ], [ -70.07874, -33.82066 ], [ -70.07859, -33.81942 ], [ -70.08002, -33.81795 ], [ -70.08078, -33.81686 ], [ -70.08123, -33.81539 ], [ -70.08197, -33.81058 ], [ -70.08199, -33.80991 ], [ -70.08179, -33.80929 ], [ -70.08207, -33.80762 ], [ -70.08351, -33.80295 ], [ -70.08457, -33.80143 ], [ -70.08518, -33.80015 ], [ -70.08562, -33.79688 ], [ -70.08566, -33.79485 ], [ -70.08662, -33.79129 ], [ -70.08747, -33.79042 ], [ -70.08853, -33.78983 ], [ -70.09122, -33.78934 ], [ -70.09253, -33.78721 ], [ -70.09301, -33.78544 ], [ -70.09314, -33.78461 ], [ -70.09164, -33.78208 ], [ -70.09152, -33.78115 ], [ -70.09177, -33.78011 ], [ -70.09175, -33.77925 ], [ -70.09129, -33.77684 ], [ -70.09081, -33.77544 ], [ -70.0906, -33.77341 ], [ -70.09054, -33.77177 ], [ -70.09093, -33.76962 ], [ -70.09164, -33.76756 ], [ -70.0922, -33.76675 ], [ -70.09309, -33.76605 ], [ -70.09415, -33.76569 ], [ -70.09544, -33.76553 ], [ -70.09597, -33.76513 ], [ -70.09657, -33.76465 ], [ -70.0971, -33.76387 ], [ -70.09709, -33.76325 ], [ -70.09737, -33.7627 ], [ -70.0971, -33.7611 ], [ -70.09654, -33.75967 ], [ -70.09535, -33.75831 ], [ -70.09409, -33.75655 ], [ -70.09333, -33.75406 ], [ -70.09255, -33.75228 ], [ -70.09197, -33.75112 ], [ -70.09093, -33.7499 ], [ -70.09046, -33.74897 ], [ -70.08879, -33.74795 ], [ -70.0879, -33.74681 ], [ -70.08663, -33.74592 ], [ -70.08489, -33.74488 ], [ -70.08345, -33.74428 ], [ -70.08211, -33.74181 ], [ -70.08147, -33.741 ], [ -70.08037, -33.73985 ], [ -70.07862, -33.73856 ], [ -70.07753, -33.73805 ], [ -70.07426, -33.73696 ], [ -70.07352, -33.73692 ], [ -70.07288, -33.73694 ], [ -70.07214, -33.73721 ], [ -70.07126, -33.73779 ], [ -70.07105, -33.73837 ], [ -70.06967, -33.73979 ], [ -70.06921, -33.74203 ], [ -70.0697, -33.74642 ], [ -70.06919, -33.74696 ], [ -70.06858, -33.74725 ], [ -70.06763, -33.74684 ], [ -70.06676, -33.74674 ], [ -70.06614, -33.74689 ], [ -70.06512, -33.74744 ], [ -70.0637, -33.74979 ], [ -70.0631, -33.7501 ], [ -70.0608, -33.75187 ], [ -70.06005, -33.75267 ], [ -70.05686, -33.75387 ], [ -70.05612, -33.75435 ], [ -70.05498, -33.75561 ], [ -70.05466, -33.7574 ], [ -70.05501, -33.75859 ], [ -70.05458, -33.76006 ], [ -70.055, -33.76093 ], [ -70.05464, -33.7624 ], [ -70.05535, -33.76436 ], [ -70.0556, -33.76618 ], [ -70.05637, -33.76726 ], [ -70.05538, -33.76817 ], [ -70.05459, -33.76849 ], [ -70.05387, -33.76921 ], [ -70.05366, -33.77028 ], [ -70.05424, -33.77129 ], [ -70.05451, -33.77281 ], [ -70.05443, -33.77598 ], [ -70.05395, -33.77735 ], [ -70.05384, -33.7792 ], [ -70.05347, -33.78024 ], [ -70.05295, -33.78079 ], [ -70.05305, -33.78154 ], [ -70.05196, -33.78433 ], [ -70.05133, -33.78531 ], [ -70.05008, -33.7865 ], [ -70.05002, -33.78753 ], [ -70.05077, -33.78985 ], [ -70.05077, -33.79147 ], [ -70.05108, -33.79307 ], [ -70.05079, -33.79465 ], [ -70.05097, -33.79536 ], [ -70.04986, -33.79636 ], [ -70.0502, -33.80115 ], [ -70.04956, -33.80233 ], [ -70.04976, -33.80545 ], [ -70.04971, -33.80755 ], [ -70.05054, -33.81018 ] ] ] } },
{ "type": "Feature", "properties": { "nombre": "Parque Nacional Rio Clarillo", "categoria": "Parque Nacional", "region": "Metropolitana", "superficie_ha": "13134,15", "decreto": "NÂ° 19 de 1982; NÂ° 30 de 2019" }, "geometry": { "type": "Polygon", "coordinates": [ [ [ -70.4262, -33.69783 ], [ -70.41988, -33.70033 ], [ -70.41772, -33.70094 ], [ -70.41421, -33.70162 ], [ -70.4103, -33.70302 ], [ -70.40742, -33.70417 ], [ -70.4065, -33.70471 ], [ -70.40472, -33.70612 ], [ -70.40143, -33.70833 ], [ -70.40114, -33.70911 ], [ -70.40098, -33.71169 ], [ -70.40154, -33.71327 ], [ -70.40295, -33.71601 ], [ -70.40323, -33.7169 ], [ -70.40333, -33.71862 ], [ -70.40206, -33.72459 ], [ -70.40185, -33.72629 ], [ -70.4022, -33.72721 ], [ -70.40319, -33.72878 ], [ -70.40361, -33.73006 ], [ -70.40259, -33.7365 ], [ -70.40282, -33.74056 ], [ -70.39664, -33.74557 ], [ -70.39635, -33.74618 ], [ -70.39663, -33.74704 ], [ -70.40563, -33.75769 ], [ -70.40497, -33.75999 ], [ -70.40382, -33.76134 ], [ -70.40341, -33.76287 ], [ -70.40345, -33.7651 ], [ -70.40425, -33.7669 ], [ -70.40544, -33.77078 ], [ -70.40707, -33.77463 ], [ -70.40677, -33.77632 ], [ -70.40688, -33.77721 ], [ -70.4065, -33.78041 ], [ -70.40616, -33.78195 ], [ -70.40386, -33.78813 ], [ -70.4031, -33.79245 ], [ -70.40293, -33.79416 ], [ -70.40327, -33.79622 ], [ -70.40266, -33.80416 ], [ -70.4023, -33.80633 ], [ -70.40285, -33.81352 ], [ -70.40444, -33.81712 ], [ -70.40666, -33.82024 ], [ -70.40687, -33.82107 ], [ -70.40731, -33.82338 ], [ -70.4076, -33.82677 ], [ -70.40775, -33.82947 ], [ -70.40724, -33.83101 ], [ -70.40749, -33.83245 ], [ -70.40818, -33.83383 ], [ -70.41129, -33.83836 ], [ -70.41174, -33.83925 ], [ -70.41181, -33.84131 ], [ -70.41269, -33.84561 ], [ -70.41345, -33.84749 ], [ -70.41427, -33.84871 ], [ -70.41774, -33.85243 ], [ -70.41982, -33.85343 ], [ -70.42385, -33.85478 ], [ -70.42709, -33.85524 ], [ -70.42939, -33.85485 ], [ -70.43245, -33.8539 ], [ -70.43805, -33.8191 ], [ -70.43991, -33.77488 ], [ -70.43658, -33.73072 ], [ -70.42999, -33.69686 ], [ -70.4262, -33.69783 ] ] ] } },
{ "type": "Feature", "properties": { "nombre": "Parque Nacional Glaciares de Santiago", "categoria": "Parque Nacional", "region": "Metropolitana", "superficie_ha": "75.114,63", "decreto": "NÂ° 25 de 2023" }, "geometry": { "type": "MultiPolygon", "coordinates": [ [ [ [ -69.77049, -33.34296 ], [ -69.7698, -33.34496 ], [ -69.77007, -33.35053 ], [ -69.77047, -33.35257 ], [ -69.77095, -33.35388 ], [ -69.77091, -33.35457 ], [ -69.77025, -33.35594 ], [ -69.77036, -33.35752 ], [ -69.771, -33.36024 ], [ -69.77309, -33.36533 ], [ -69.7736, -33.37057 ], [ -69.77428, -33.37372 ], [ -69.77475, -33.37482 ], [ -69.77521, -33.37686 ], [ -69.77565, -33.37785 ], [ -69.77672, -33.37882 ], [ -69.77735, -33.37962 ], [ -69.77837, -33.38381 ], [ -69.78101, -33.38656 ], [ -69.78737, -33.39256 ], [ -69.78961, -33.39397 ], [ -69.79283, -33.39458 ], [ -69.79398, -33.39512 ], [ -69.7952, -33.39627 ], [ -69.81606, -33.391 ], [ -69.81556, -33.3915 ], [ -69.81359, -33.39242 ], [ -69.81072, -33.39426 ], [ -69.8097, -33.39523 ], [ -69.80888, -33.39578 ], [ -69.80821, -33.396 ], [ -69.80721, -33.39683 ], [ -69.80673, -33.39768 ], [ -69.80507, -33.39902 ], [ -69.80317, -33.40294 ], [ -69.80005, -33.40484 ], [ -69.79973, -33.40541 ], [ -69.79857, -33.40967 ], [ -69.79711, -33.41269 ], [ -69.79707, -33.41535 ], [ -69.79773, -33.41728 ], [ -69.79684, -33.4189 ], [ -69.79622, -33.41963 ], [ -69.79572, -33.42195 ], [ -69.796, -33.42298 ], [ -69.797, -33.42422 ], [ -69.79761, -33.4246 ], [ -69.79862, -33.4247 ], [ -69.80119, -33.42447 ], [ -69.80311, -33.42479 ], [ -69.80424, -33.42434 ], [ -69.80696, -33.42428 ], [ -69.80777, -33.42455 ], [ -69.81073, -33.42658 ], [ -69.81328, -33.4278 ], [ -69.81497, -33.42812 ], [ -69.81735, -33.429 ], [ -69.81872, -33.43026 ], [ -69.81977, -33.43071 ], [ -69.82008, -33.43123 ], [ -69.82007, -33.43199 ], [ -69.82053, -33.43265 ], [ -69.82027, -33.43338 ], [ -69.81848, -33.43602 ], [ -69.8172, -33.43749 ], [ -69.81699, -33.43802 ], [ -69.81549, -33.43966 ], [ -69.8149, -33.4401 ], [ -69.81453, -33.44219 ], [ -69.81474, -33.44339 ], [ -69.81513, -33.4443 ], [ -69.81767, -33.44818 ], [ -69.81879, -33.45053 ], [ -69.81953, -33.45132 ], [ -69.82189, -33.45292 ], [ -69.82241, -33.45435 ], [ -69.82126, -33.45599 ], [ -69.82092, -33.45709 ], [ -69.82142, -33.45957 ], [ -69.82121, -33.46149 ], [ -69.82141, -33.46203 ], [ -69.82104, -33.46269 ], [ -69.8201, -33.46356 ], [ -69.81982, -33.46365 ], [ -69.81921, -33.4635 ], [ -69.81862, -33.46378 ], [ -69.81819, -33.46445 ], [ -69.81799, -33.46527 ], [ -69.81577, -33.46981 ], [ -69.81585, -33.47021 ], [ -69.81682, -33.47116 ], [ -69.81733, -33.47231 ], [ -69.81857, -33.47275 ], [ -69.82091, -33.47319 ], [ -69.82233, -33.47379 ], [ -69.82738, -33.47505 ], [ -69.82825, -33.47621 ], [ -69.82977, -33.47916 ], [ -69.83011, -33.4803 ], [ -69.82986, -33.48373 ], [ -69.82995, -33.48432 ], [ -69.83074, -33.48715 ], [ -69.83195, -33.48954 ], [ -69.83207, -33.49037 ], [ -69.83197, -33.49202 ], [ -69.83243, -33.49377 ], [ -69.83243, -33.49548 ], [ -69.8319, -33.49707 ], [ -69.83233, -33.49913 ], [ -69.83172, -33.50129 ], [ -69.83232, -33.50228 ], [ -69.83263, -33.50371 ], [ -69.8327, -33.50586 ], [ -69.83239, -33.50661 ], [ -69.83275, -33.50844 ], [ -69.8332, -33.50924 ], [ -69.83354, -33.51071 ], [ -69.83474, -33.51328 ], [ -69.83537, -33.51545 ], [ -69.83658, -33.51635 ], [ -69.83853, -33.5182 ], [ -69.83929, -33.51848 ], [ -69.84045, -33.51851 ], [ -69.84122, -33.51876 ], [ -69.84597, -33.52083 ], [ -69.84683, -33.52102 ], [ -69.84782, -33.52101 ], [ -69.84838, -33.52129 ], [ -69.84951, -33.52247 ], [ -69.85091, -33.52322 ], [ -69.85264, -33.5236 ], [ -69.85444, -33.52442 ], [ -69.85591, -33.52577 ], [ -69.85637, -33.52647 ], [ -69.85715, -33.52884 ], [ -69.86016, -33.53301 ], [ -69.86326, -33.53375 ], [ -69.86603, -33.53504 ], [ -69.86769, -33.53611 ], [ -69.87024, -33.53808 ], [ -69.87166, -33.53889 ], [ -69.87194, -33.53952 ], [ -69.87196, -33.54306 ], [ -69.87279, -33.54334 ], [ -69.87759, -33.54342 ], [ -69.87853, -33.54326 ], [ -69.88014, -33.54264 ], [ -69.88124, -33.54247 ], [ -69.88169, -33.54193 ], [ -69.88298, -33.54195 ], [ -69.88331, -33.54181 ], [ -69.88362, -33.5414 ], [ -69.88419, -33.54111 ], [ -69.88533, -33.54008 ], [ -69.88553, -33.54006 ], [ -69.88613, -33.53935 ], [ -69.88657, -33.53912 ], [ -69.88648, -33.53889 ], [ -69.88748, -33.53857 ], [ -69.8883, -33.53798 ], [ -69.88895, -33.53787 ], [ -69.88989, -33.53818 ], [ -69.89056, -33.53822 ], [ -69.89192, -33.53786 ], [ -69.89311, -33.53806 ], [ -69.89443, -33.53774 ], [ -69.89526, -33.53721 ], [ -69.89771, -33.53709 ], [ -69.89797, -33.53713 ], [ -69.89908, -33.53814 ], [ -69.90006, -33.53848 ], [ -69.90351, -33.53693 ], [ -69.90435, -33.53644 ], [ -69.90489, -33.53584 ], [ -69.90516, -33.53587 ], [ -69.90566, -33.53561 ], [ -69.90661, -33.53567 ], [ -69.90822, -33.5339 ], [ -69.90863, -33.53368 ], [ -69.90892, -33.53266 ], [ -69.90935, -33.53208 ], [ -69.90945, -33.5317 ], [ -69.91005, -33.53164 ], [ -69.90997, -33.5315 ], [ -69.91024, -33.5312 ], [ -69.91113, -33.53091 ], [ -69.91148, -33.53041 ], [ -69.91208, -33.53023 ], [ -69.91219, -33.52978 ], [ -69.91278, -33.52956 ], [ -69.9129, -33.52901 ], [ -69.91356, -33.52892 ], [ -69.91466, -33.52758 ], [ -69.91489, -33.5275 ], [ -69.91496, -33.52638 ], [ -69.91545, -33.52611 ], [ -69.91571, -33.52551 ], [ -69.91605, -33.5253 ], [ -69.91635, -33.52453 ], [ -69.9169, -33.52414 ], [ -69.91703, -33.52356 ], [ -69.9176, -33.52328 ], [ -69.91772, -33.52263 ], [ -69.91819, -33.5226 ], [ -69.91943, -33.52204 ], [ -69.92052, -33.52201 ], [ -69.92313, -33.52139 ], [ -69.92674, -33.52 ], [ -69.92915, -33.51999 ], [ -69.93133, -33.51972 ], [ -69.933, -33.52001 ], [ -69.93301, -33.51883 ], [ -69.9326, -33.51797 ], [ -69.93245, -33.51708 ], [ -69.93367, -33.51598 ], [ -69.93459, -33.51593 ], [ -69.93518, -33.51563 ], [ -69.93528, -33.51539 ], [ -69.93705, -33.51461 ], [ -69.93806, -33.51443 ], [ -69.93966, -33.51446 ], [ -69.94058, -33.51382 ], [ -69.94134, -33.51376 ], [ -69.94182, -33.51327 ], [ -69.94236, -33.51309 ], [ -69.9428, -33.51256 ], [ -69.94319, -33.51248 ], [ -69.94436, -33.51116 ], [ -69.94455, -33.5112 ], [ -69.94528, -33.51054 ], [ -69.94576, -33.51035 ], [ -69.94587, -33.50978 ], [ -69.94697, -33.50865 ], [ -69.94703, -33.50803 ], [ -69.94728, -33.50793 ], [ -69.94908, -33.5089 ], [ -69.95081, -33.51054 ], [ -69.95119, -33.51127 ], [ -69.95162, -33.51356 ], [ -69.95226, -33.51354 ], [ -69.95292, -33.51404 ], [ -69.9551, -33.51493 ], [ -69.95522, -33.51512 ], [ -69.95882, -33.51593 ], [ -69.96042, -33.51757 ], [ -69.9625, -33.51872 ], [ -69.96461, -33.5203 ], [ -69.96488, -33.52064 ], [ -69.96474, -33.52155 ], [ -69.96433, -33.52196 ], [ -69.96433, -33.52245 ], [ -69.96364, -33.52374 ], [ -69.96299, -33.52559 ], [ -69.96233, -33.52652 ], [ -69.96238, -33.52686 ], [ -69.9629, -33.52757 ], [ -69.96279, -33.52764 ], [ -69.96348, -33.52788 ], [ -69.96461, -33.52878 ], [ -69.96544, -33.52911 ], [ -69.96649, -33.52926 ], [ -69.96764, -33.5288 ], [ -69.968, -33.52886 ], [ -69.9689, -33.52946 ], [ -69.9695, -33.52961 ], [ -69.9702, -33.52952 ], [ -69.9708, -33.52971 ], [ -69.97094, -33.53022 ], [ -69.9717, -33.53025 ], [ -69.97331, -33.52928 ], [ -69.97546, -33.52883 ], [ -69.97666, -33.52902 ], [ -69.97855, -33.52994 ], [ -69.97984, -33.53018 ], [ -69.98083, -33.52993 ], [ -69.98144, -33.52957 ], [ -69.9836, -33.53029 ], [ -69.98495, -33.53105 ], [ -69.9859, -33.53122 ], [ -69.98678, -33.53159 ], [ -69.9883, -33.53161 ], [ -69.98854, -33.53174 ], [ -69.98899, -33.53308 ], [ -69.9891, -33.53438 ], [ -69.98949, -33.5349 ], [ -69.98984, -33.53665 ], [ -69.99003, -33.53695 ], [ -69.99107, -33.53754 ], [ -69.99146, -33.53814 ], [ -69.99131, -33.53836 ], [ -69.99154, -33.53911 ], [ -69.99136, -33.54054 ], [ -69.99162, -33.54069 ], [ -69.99181, -33.5412 ], [ -69.99158, -33.54335 ], [ -69.99182, -33.54351 ], [ -69.9919, -33.54399 ], [ -69.9931, -33.54446 ], [ -69.99623, -33.54503 ], [ -69.99716, -33.54589 ], [ -69.99771, -33.54596 ], [ -69.99802, -33.54625 ], [ -69.99815, -33.5462 ], [ -69.9994, -33.5491 ], [ -69.99927, -33.54957 ], [ -69.99994, -33.55061 ], [ -70.00027, -33.55155 ], [ -70.00093, -33.55224 ], [ -70.00219, -33.55255 ], [ -70.00305, -33.55298 ], [ -70.0063, -33.55322 ], [ -70.00674, -33.55341 ], [ -70.00764, -33.5543 ], [ -70.0082, -33.55432 ], [ -70.00919, -33.55499 ], [ -70.01146, -33.555 ], [ -70.01202, -33.55526 ], [ -70.01364, -33.5568 ], [ -70.01372, -33.55832 ], [ -70.01448, -33.55911 ], [ -70.01552, -33.55966 ], [ -70.01578, -33.55995 ], [ -70.01523, -33.56123 ], [ -70.01563, -33.56203 ], [ -70.01848, -33.56195 ], [ -70.02168, -33.56115 ], [ -70.023, -33.5617 ], [ -70.02354, -33.56165 ], [ -70.02565, -33.5621 ], [ -70.02609, -33.56206 ], [ -70.02667, -33.56127 ], [ -70.02755, -33.56103 ], [ -70.02893, -33.55971 ], [ -70.02958, -33.55834 ], [ -70.02963, -33.55783 ], [ -70.02943, -33.55698 ], [ -70.03015, -33.55603 ], [ -70.03096, -33.55581 ], [ -70.03202, -33.55584 ], [ -70.03383, -33.55497 ], [ -70.03658, -33.55284 ], [ -70.03746, -33.55182 ], [ -70.03776, -33.55078 ], [ -70.03917, -33.54995 ], [ -70.04039, -33.54865 ], [ -70.04081, -33.54836 ], [ -70.04397, -33.5471 ], [ -70.04599, -33.5455 ], [ -70.04747, -33.54557 ], [ -70.04847, -33.54498 ], [ -70.05042, -33.5447 ], [ -70.05175, -33.54477 ], [ -70.05279, -33.54511 ], [ -70.0541, -33.54492 ], [ -70.0546, -33.5455 ], [ -70.05496, -33.54565 ], [ -70.05598, -33.54559 ], [ -70.05654, -33.54529 ], [ -70.05674, -33.54558 ], [ -70.057, -33.54783 ], [ -70.05721, -33.54811 ], [ -70.05677, -33.54872 ], [ -70.05682, -33.54904 ], [ -70.05719, -33.54925 ], [ -70.05827, -33.54926 ], [ -70.05858, -33.54975 ], [ -70.05966, -33.5506 ], [ -70.06079, -33.55185 ], [ -70.06106, -33.55257 ], [ -70.06166, -33.55295 ], [ -70.06213, -33.55347 ], [ -70.06306, -33.55386 ], [ -70.06424, -33.55506 ], [ -70.06421, -33.55519 ], [ -70.06475, -33.55585 ], [ -70.06644, -33.55694 ], [ -70.06731, -33.55778 ], [ -70.06731, -33.55899 ], [ -70.06796, -33.55967 ], [ -70.06815, -33.56036 ], [ -70.06806, -33.5622 ], [ -70.06873, -33.56187 ], [ -70.06941, -33.5611 ], [ -70.07035, -33.56056 ], [ -70.07132, -33.56047 ], [ -70.07198, -33.56001 ], [ -70.07338, -33.5597 ], [ -70.07443, -33.55867 ], [ -70.07534, -33.55841 ], [ -70.07581, -33.55774 ], [ -70.07628, -33.55747 ], [ -70.07636, -33.5571 ], [ -70.07668, -33.55717 ], [ -70.07709, -33.55634 ], [ -70.0774, -33.5565 ], [ -70.07761, -33.55636 ], [ -70.07753, -33.55569 ], [ -70.07771, -33.55547 ], [ -70.07767, -33.55509 ], [ -70.07839, -33.55492 ], [ -70.07831, -33.55447 ], [ -70.07861, -33.55429 ], [ -70.0796, -33.55433 ], [ -70.08029, -33.55489 ], [ -70.08314, -33.55501 ], [ -70.08346, -33.55534 ], [ -70.08383, -33.55523 ], [ -70.08516, -33.55568 ], [ -70.08646, -33.55573 ], [ -70.09046, -33.55564 ], [ -70.0907, -33.55543 ], [ -70.09075, -33.555 ], [ -70.0916, -33.55501 ], [ -70.09224, -33.5543 ], [ -70.09336, -33.55426 ], [ -70.0942, -33.55501 ], [ -70.09513, -33.55556 ], [ -70.09739, -33.55574 ], [ -70.09781, -33.55592 ], [ -70.09824, -33.55642 ], [ -70.09893, -33.55657 ], [ -70.10003, -33.55633 ], [ -70.10198, -33.5564 ], [ -70.10292, -33.55654 ], [ -70.10471, -33.5572 ], [ -70.10821, -33.55738 ], [ -70.11018, -33.55781 ], [ -70.11409, -33.55813 ], [ -70.11423, -33.55836 ], [ -70.11418, -33.55868 ], [ -70.11507, -33.56023 ], [ -70.11498, -33.56162 ], [ -70.11523, -33.56204 ], [ -70.11568, -33.56222 ], [ -70.11758, -33.56393 ], [ -70.11938, -33.56449 ], [ -70.12093, -33.56598 ], [ -70.12631, -33.56598 ], [ -70.12708, -33.56663 ], [ -70.12768, -33.56664 ], [ -70.12791, -33.56678 ], [ -70.12909, -33.56819 ], [ -70.1291, -33.56956 ], [ -70.1289, -33.57012 ], [ -70.12864, -33.57016 ], [ -70.12848, -33.57049 ], [ -70.12853, -33.57075 ], [ -70.12917, -33.57153 ], [ -70.12925, -33.57224 ], [ -70.13119, -33.57416 ], [ -70.1312, -33.57474 ], [ -70.13161, -33.57493 ], [ -70.13235, -33.57597 ], [ -70.13414, -33.57767 ], [ -70.13588, -33.57844 ], [ -70.13688, -33.57928 ], [ -70.13811, -33.57984 ], [ -70.13903, -33.58073 ], [ -70.13989, -33.58094 ], [ -70.14083, -33.58167 ], [ -70.14188, -33.58195 ], [ -70.14337, -33.58564 ], [ -70.14433, -33.58653 ], [ -70.14546, -33.58705 ], [ -70.14567, -33.58734 ], [ -70.14569, -33.58946 ], [ -70.14693, -33.58999 ], [ -70.14784, -33.59008 ], [ -70.14925, -33.59084 ], [ -70.14979, -33.59138 ], [ -70.15022, -33.59135 ], [ -70.15047, -33.59152 ], [ -70.15109, -33.59108 ], [ -70.15105, -33.59074 ], [ -70.15315, -33.59068 ], [ -70.15463, -33.59003 ], [ -70.15575, -33.59015 ], [ -70.15685, -33.59002 ], [ -70.1606, -33.59003 ], [ -70.16133, -33.59039 ], [ -70.16338, -33.59007 ], [ -70.16739, -33.59204 ], [ -70.16824, -33.59212 ], [ -70.16918, -33.59267 ], [ -70.17504, -33.59278 ], [ -70.17622, -33.59244 ], [ -70.1779, -33.59347 ], [ -70.17951, -33.59372 ], [ -70.17978, -33.59393 ], [ -70.18021, -33.59476 ], [ -70.18196, -33.59494 ], [ -70.1825, -33.59541 ], [ -70.18407, -33.59552 ], [ -70.18488, -33.59531 ], [ -70.1855, -33.59489 ], [ -70.1865, -33.59468 ], [ -70.18712, -33.59408 ], [ -70.18792, -33.59384 ], [ -70.1882, -33.59348 ], [ -70.1888, -33.59327 ], [ -70.1889, -33.59285 ], [ -70.18956, -33.59275 ], [ -70.1896, -33.59215 ], [ -70.19016, -33.59176 ], [ -70.19031, -33.59144 ], [ -70.19018, -33.59119 ], [ -70.19044, -33.59072 ], [ -70.19248, -33.59083 ], [ -70.19445, -33.59072 ], [ -70.19462, -33.59069 ], [ -70.19474, -33.59037 ], [ -70.19549, -33.59005 ], [ -70.19592, -33.59016 ], [ -70.19604, -33.5905 ], [ -70.19649, -33.59069 ], [ -70.1992, -33.59066 ], [ -70.19776, -33.58981 ], [ -70.19502, -33.58915 ], [ -70.19474, -33.5888 ], [ -70.19483, -33.58821 ], [ -70.19467, -33.58728 ], [ -70.19434, -33.58694 ], [ -70.19364, -33.58673 ], [ -70.19226, -33.58688 ], [ -70.19153, -33.5868 ], [ -70.1908, -33.58658 ], [ -70.19003, -33.58601 ], [ -70.18897, -33.58552 ], [ -70.18779, -33.58578 ], [ -70.18707, -33.58631 ], [ -70.18684, -33.58682 ], [ -70.18656, -33.5884 ], [ -70.18589, -33.58969 ], [ -70.18529, -33.5904 ], [ -70.18446, -33.59066 ], [ -70.17929, -33.58962 ], [ -70.17792, -33.58829 ], [ -70.17709, -33.58784 ], [ -70.17615, -33.58759 ], [ -70.17525, -33.58757 ], [ -70.17236, -33.58874 ], [ -70.17105, -33.58887 ], [ -70.16955, -33.58856 ], [ -70.16796, -33.58788 ], [ -70.16407, -33.58753 ], [ -70.16209, -33.58645 ], [ -70.16005, -33.5863 ], [ -70.15843, -33.58551 ], [ -70.15728, -33.58464 ], [ -70.15627, -33.58344 ], [ -70.15609, -33.58287 ], [ -70.1562, -33.5788 ], [ -70.15652, -33.5782 ], [ -70.15785, -33.57681 ], [ -70.15874, -33.57643 ], [ -70.15887, -33.57614 ], [ -70.15847, -33.57586 ], [ -70.15667, -33.57578 ], [ -70.15579, -33.57552 ], [ -70.15497, -33.57484 ], [ -70.15456, -33.5739 ], [ -70.15404, -33.57362 ], [ -70.15397, -33.57335 ], [ -70.15489, -33.57199 ], [ -70.15491, -33.57112 ], [ -70.15469, -33.5702 ], [ -70.15476, -33.56882 ], [ -70.15498, -33.56807 ], [ -70.15548, -33.5673 ], [ -70.15575, -33.56553 ], [ -70.1561, -33.56503 ], [ -70.15666, -33.56465 ], [ -70.15701, -33.56388 ], [ -70.15785, -33.56298 ], [ -70.15801, -33.56203 ], [ -70.15827, -33.56157 ], [ -70.15952, -33.56042 ], [ -70.16091, -33.55962 ], [ -70.16165, -33.55891 ], [ -70.16397, -33.55745 ], [ -70.16713, -33.55386 ], [ -70.1699, -33.5514 ], [ -70.17127, -33.55081 ], [ -70.17399, -33.55039 ], [ -70.17673, -33.54938 ], [ -70.17744, -33.54941 ], [ -70.17819, -33.54969 ], [ -70.17868, -33.54963 ], [ -70.18013, -33.54874 ], [ -70.18053, -33.54818 ], [ -70.1833, -33.54644 ], [ -70.18539, -33.54582 ], [ -70.18641, -33.54477 ], [ -70.18644, -33.54441 ], [ -70.18588, -33.54374 ], [ -70.18424, -33.5428 ], [ -70.18226, -33.5421 ], [ -70.17707, -33.54116 ], [ -70.17395, -33.53985 ], [ -70.17075, -33.53889 ], [ -70.16973, -33.53783 ], [ -70.1691, -33.5377 ], [ -70.16774, -33.53779 ], [ -70.16696, -33.53761 ], [ -70.16527, -33.53641 ], [ -70.16052, -33.53479 ], [ -70.15943, -33.53468 ], [ -70.1588, -33.53478 ], [ -70.15837, -33.53495 ], [ -70.15797, -33.53535 ], [ -70.15795, -33.53573 ], [ -70.1582, -33.53626 ], [ -70.15933, -33.53732 ], [ -70.15938, -33.53796 ], [ -70.15901, -33.53854 ], [ -70.15827, -33.53886 ], [ -70.15757, -33.53888 ], [ -70.15643, -33.53861 ], [ -70.15596, -33.53831 ], [ -70.15321, -33.53773 ], [ -70.15166, -33.5367 ], [ -70.15002, -33.53607 ], [ -70.14906, -33.53626 ], [ -70.14866, -33.5366 ], [ -70.14843, -33.53791 ], [ -70.14862, -33.53917 ], [ -70.14795, -33.54035 ], [ -70.14787, -33.54165 ], [ -70.1472, -33.5436 ], [ -70.1472, -33.54413 ], [ -70.14766, -33.54478 ], [ -70.14894, -33.54539 ], [ -70.14931, -33.54583 ], [ -70.14956, -33.54661 ], [ -70.1497, -33.5483 ], [ -70.14873, -33.54995 ], [ -70.14868, -33.5505 ], [ -70.14955, -33.55197 ], [ -70.14981, -33.55452 ], [ -70.14819, -33.55728 ], [ -70.14735, -33.558 ], [ -70.14627, -33.55844 ], [ -70.14556, -33.55851 ], [ -70.14352, -33.55796 ], [ -70.1422, -33.5587 ], [ -70.14223, -33.55893 ], [ -70.1437, -33.56013 ], [ -70.14553, -33.5601 ], [ -70.14597, -33.56017 ], [ -70.14664, -33.56055 ], [ -70.14699, -33.56113 ], [ -70.147, -33.56179 ], [ -70.14593, -33.56377 ], [ -70.14569, -33.56641 ], [ -70.14507, -33.56763 ], [ -70.14454, -33.56916 ], [ -70.14196, -33.57179 ], [ -70.14042, -33.57269 ], [ -70.13826, -33.57216 ], [ -70.13737, -33.57172 ], [ -70.13712, -33.57136 ], [ -70.13696, -33.56988 ], [ -70.13707, -33.56956 ], [ -70.13759, -33.56896 ], [ -70.13769, -33.56847 ], [ -70.13854, -33.56781 ], [ -70.13864, -33.5668 ], [ -70.13889, -33.5663 ], [ -70.13882, -33.56574 ], [ -70.13813, -33.56482 ], [ -70.13706, -33.56419 ], [ -70.13594, -33.56406 ], [ -70.13532, -33.56423 ], [ -70.13486, -33.56492 ], [ -70.13273, -33.56452 ], [ -70.13172, -33.56368 ], [ -70.12985, -33.56286 ], [ -70.12918, -33.56221 ], [ -70.12762, -33.56211 ], [ -70.12689, -33.56185 ], [ -70.12642, -33.56145 ], [ -70.12569, -33.56033 ], [ -70.12523, -33.55887 ], [ -70.12471, -33.55843 ], [ -70.12471, -33.55818 ], [ -70.12566, -33.55731 ], [ -70.12637, -33.55639 ], [ -70.12644, -33.55434 ], [ -70.12598, -33.55405 ], [ -70.12399, -33.55405 ], [ -70.12358, -33.55344 ], [ -70.12235, -33.55313 ], [ -70.12211, -33.55291 ], [ -70.12191, -33.55242 ], [ -70.12192, -33.55 ], [ -70.12248, -33.54899 ], [ -70.12234, -33.5474 ], [ -70.12182, -33.54696 ], [ -70.11962, -33.54605 ], [ -70.11903, -33.54553 ], [ -70.11879, -33.54486 ], [ -70.11884, -33.54443 ], [ -70.11939, -33.54376 ], [ -70.11973, -33.543 ], [ -70.12055, -33.54222 ], [ -70.12133, -33.54106 ], [ -70.12339, -33.53924 ], [ -70.12341, -33.53888 ], [ -70.12225, -33.539 ], [ -70.12076, -33.53971 ], [ -70.11855, -33.54019 ], [ -70.11721, -33.54102 ], [ -70.11665, -33.5416 ], [ -70.11615, -33.54248 ], [ -70.1159, -33.5436 ], [ -70.11586, -33.54478 ], [ -70.11564, -33.54539 ], [ -70.11362, -33.54678 ], [ -70.113, -33.54751 ], [ -70.11189, -33.54805 ], [ -70.11122, -33.54925 ], [ -70.11025, -33.54993 ], [ -70.10996, -33.55039 ], [ -70.10986, -33.55124 ], [ -70.10953, -33.5516 ], [ -70.10845, -33.55224 ], [ -70.10753, -33.55343 ], [ -70.10686, -33.5553 ], [ -70.10578, -33.55617 ], [ -70.1051, -33.55646 ], [ -70.10429, -33.55624 ], [ -70.10339, -33.55629 ], [ -70.10196, -33.55547 ], [ -70.10038, -33.55521 ], [ -70.09938, -33.55454 ], [ -70.09691, -33.55417 ], [ -70.09569, -33.55369 ], [ -70.09539, -33.55344 ], [ -70.09489, -33.55244 ], [ -70.09381, -33.55185 ], [ -70.09338, -33.55181 ], [ -70.09271, -33.55201 ], [ -70.09177, -33.55277 ], [ -70.09158, -33.55317 ], [ -70.0902, -33.55416 ], [ -70.08963, -33.55489 ], [ -70.08915, -33.55506 ], [ -70.08584, -33.55364 ], [ -70.08485, -33.55259 ], [ -70.08318, -33.55133 ], [ -70.08118, -33.55132 ], [ -70.07996, -33.55096 ], [ -70.07809, -33.55117 ], [ -70.07738, -33.5511 ], [ -70.07375, -33.5504 ], [ -70.07331, -33.55021 ], [ -70.07264, -33.5496 ], [ -70.0714, -33.54926 ], [ -70.07116, -33.54905 ], [ -70.07111, -33.54838 ], [ -70.0723, -33.54737 ], [ -70.0727, -33.54657 ], [ -70.0734, -33.54586 ], [ -70.07357, -33.54508 ], [ -70.0734, -33.54413 ], [ -70.07377, -33.54266 ], [ -70.07469, -33.54148 ], [ -70.07482, -33.54019 ], [ -70.07518, -33.53958 ], [ -70.0754, -33.53868 ], [ -70.07601, -33.53772 ], [ -70.07658, -33.53717 ], [ -70.07679, -33.53676 ], [ -70.07678, -33.53638 ], [ -70.07524, -33.53499 ], [ -70.07182, -33.53512 ], [ -70.06866, -33.535 ], [ -70.06756, -33.53469 ], [ -70.06429, -33.53423 ], [ -70.06322, -33.53383 ], [ -70.06294, -33.53353 ], [ -70.06303, -33.53324 ], [ -70.06389, -33.53239 ], [ -70.06472, -33.53202 ], [ -70.0657, -33.53134 ], [ -70.06583, -33.53105 ], [ -70.06581, -33.53071 ], [ -70.0656, -33.53051 ], [ -70.06473, -33.53039 ], [ -70.06432, -33.53008 ], [ -70.0637, -33.53001 ], [ -70.06349, -33.52984 ], [ -70.06334, -33.52781 ], [ -70.06375, -33.52605 ], [ -70.06492, -33.52495 ], [ -70.06525, -33.52399 ], [ -70.06572, -33.52326 ], [ -70.06704, -33.52206 ], [ -70.06772, -33.52025 ], [ -70.06815, -33.51986 ], [ -70.06854, -33.51912 ], [ -70.06888, -33.51892 ], [ -70.07004, -33.51879 ], [ -70.07069, -33.51843 ], [ -70.07056, -33.51783 ], [ -70.06981, -33.51667 ], [ -70.06926, -33.51612 ], [ -70.06859, -33.51481 ], [ -70.06817, -33.51452 ], [ -70.06625, -33.51466 ], [ -70.06539, -33.51574 ], [ -70.06403, -33.51657 ], [ -70.06368, -33.51664 ], [ -70.06322, -33.51629 ], [ -70.06279, -33.51555 ], [ -70.06256, -33.51446 ], [ -70.06237, -33.51427 ], [ -70.06175, -33.51395 ], [ -70.06097, -33.51394 ], [ -70.06058, -33.51415 ], [ -70.06038, -33.5154 ], [ -70.05842, -33.51576 ], [ -70.05732, -33.5163 ], [ -70.05658, -33.51645 ], [ -70.05593, -33.51673 ], [ -70.05491, -33.51764 ], [ -70.05435, -33.51741 ], [ -70.05399, -33.51672 ], [ -70.05392, -33.51584 ], [ -70.05374, -33.51558 ], [ -70.0535, -33.51556 ], [ -70.05279, -33.51631 ], [ -70.05225, -33.51657 ], [ -70.05215, -33.51696 ], [ -70.05186, -33.51717 ], [ -70.04967, -33.51798 ], [ -70.04892, -33.51919 ], [ -70.04825, -33.51968 ], [ -70.04793, -33.52057 ], [ -70.04731, -33.52142 ], [ -70.04708, -33.52224 ], [ -70.04701, -33.52402 ], [ -70.04652, -33.52504 ], [ -70.04644, -33.52584 ], [ -70.04612, -33.52637 ], [ -70.04447, -33.52768 ], [ -70.04416, -33.52866 ], [ -70.04365, -33.5293 ], [ -70.04323, -33.53087 ], [ -70.04194, -33.53227 ], [ -70.04196, -33.53264 ], [ -70.04281, -33.53305 ], [ -70.04308, -33.53355 ], [ -70.04389, -33.53432 ], [ -70.04441, -33.53667 ], [ -70.04427, -33.53744 ], [ -70.04152, -33.5387 ], [ -70.04068, -33.53973 ], [ -70.0396, -33.53955 ], [ -70.0385, -33.53971 ], [ -70.03779, -33.53956 ], [ -70.03723, -33.53905 ], [ -70.03668, -33.53787 ], [ -70.03531, -33.53682 ], [ -70.03436, -33.53651 ], [ -70.03414, -33.53676 ], [ -70.03419, -33.53734 ], [ -70.03396, -33.53776 ], [ -70.03289, -33.53881 ], [ -70.03216, -33.53989 ], [ -70.03002, -33.54145 ], [ -70.02972, -33.54193 ], [ -70.02926, -33.54452 ], [ -70.02881, -33.5455 ], [ -70.02806, -33.54642 ], [ -70.02714, -33.54796 ], [ -70.02731, -33.54922 ], [ -70.02717, -33.54954 ], [ -70.02626, -33.55033 ], [ -70.02555, -33.55057 ], [ -70.02503, -33.55118 ], [ -70.02475, -33.55121 ], [ -70.02321, -33.55056 ], [ -70.02308, -33.55045 ], [ -70.02314, -33.55017 ], [ -70.02392, -33.54952 ], [ -70.02392, -33.54919 ], [ -70.02201, -33.54753 ], [ -70.02091, -33.54682 ], [ -70.02066, -33.546 ], [ -70.02018, -33.54549 ], [ -70.02052, -33.54469 ], [ -70.02059, -33.54331 ], [ -70.02017, -33.54205 ], [ -70.01958, -33.54166 ], [ -70.01841, -33.54167 ], [ -70.0167, -33.54132 ], [ -70.01605, -33.54104 ], [ -70.01511, -33.54095 ], [ -70.01474, -33.54079 ], [ -70.01471, -33.54051 ], [ -70.01488, -33.54039 ], [ -70.01478, -33.54 ], [ -70.01602, -33.5397 ], [ -70.01634, -33.53938 ], [ -70.01635, -33.53893 ], [ -70.01577, -33.53827 ], [ -70.01576, -33.53805 ], [ -70.01622, -33.53739 ], [ -70.01618, -33.53683 ], [ -70.01633, -33.5365 ], [ -70.01734, -33.5358 ], [ -70.01917, -33.53407 ], [ -70.02024, -33.53346 ], [ -70.02092, -33.5327 ], [ -70.02243, -33.5317 ], [ -70.02286, -33.53091 ], [ -70.02278, -33.53012 ], [ -70.02229, -33.52995 ], [ -70.02136, -33.53019 ], [ -70.01957, -33.53014 ], [ -70.01773, -33.53041 ], [ -70.01692, -33.5301 ], [ -70.01625, -33.52943 ], [ -70.01452, -33.52829 ], [ -70.01296, -33.52785 ], [ -70.01192, -33.52705 ], [ -70.01203, -33.52612 ], [ -70.01168, -33.52482 ], [ -70.01174, -33.52422 ], [ -70.01257, -33.52332 ], [ -70.01267, -33.52234 ], [ -70.01289, -33.52185 ], [ -70.01326, -33.52156 ], [ -70.01466, -33.52102 ], [ -70.01502, -33.52062 ], [ -70.01539, -33.51839 ], [ -70.01525, -33.5182 ], [ -70.01471, -33.51821 ], [ -70.01371, -33.51882 ], [ -70.01284, -33.5188 ], [ -70.01126, -33.51834 ], [ -70.0079, -33.51871 ], [ -70.00602, -33.51866 ], [ -70.00621, -33.5173 ], [ -70.00564, -33.51681 ], [ -70.00542, -33.51633 ], [ -70.00562, -33.51453 ], [ -70.00549, -33.51327 ], [ -70.00602, -33.51264 ], [ -70.00612, -33.51124 ], [ -70.00637, -33.51083 ], [ -69.97102, -33.51111 ], [ -69.97012, -33.42995 ], [ -69.95302, -33.43008 ], [ -69.95281, -33.4304 ], [ -69.95279, -33.43083 ], [ -69.95311, -33.43255 ], [ -69.95365, -33.43379 ], [ -69.95395, -33.43407 ], [ -69.95395, -33.43438 ], [ -69.95296, -33.4356 ], [ -69.95204, -33.43597 ], [ -69.95195, -33.4368 ], [ -69.95278, -33.43735 ], [ -69.95266, -33.43801 ], [ -69.95322, -33.43856 ], [ -69.95319, -33.43909 ], [ -69.95395, -33.4396 ], [ -69.95373, -33.44042 ], [ -69.95383, -33.44096 ], [ -69.9551, -33.44143 ], [ -69.95578, -33.44225 ], [ -69.95647, -33.44265 ], [ -69.95615, -33.44302 ], [ -69.95629, -33.44352 ], [ -69.95622, -33.44437 ], [ -69.95533, -33.44452 ], [ -69.95519, -33.44498 ], [ -69.95454, -33.44508 ], [ -69.95409, -33.44574 ], [ -69.95366, -33.4457 ], [ -69.95311, -33.44531 ], [ -69.95262, -33.44524 ], [ -69.95145, -33.4458 ], [ -69.95123, -33.44605 ], [ -69.95128, -33.44749 ], [ -69.95109, -33.44776 ], [ -69.94895, -33.44731 ], [ -69.94814, -33.44749 ], [ -69.94794, -33.44798 ], [ -69.94849, -33.44858 ], [ -69.9484, -33.44942 ], [ -69.94869, -33.44976 ], [ -69.94873, -33.45035 ], [ -69.9481, -33.45141 ], [ -69.94802, -33.45264 ], [ -69.94811, -33.45291 ], [ -69.94942, -33.45399 ], [ -69.94943, -33.45421 ], [ -69.94907, -33.45443 ], [ -69.94919, -33.45535 ], [ -69.94842, -33.45579 ], [ -69.94818, -33.45662 ], [ -69.94791, -33.45694 ], [ -69.94653, -33.45748 ], [ -69.94537, -33.45825 ], [ -69.94488, -33.45912 ], [ -69.94464, -33.4614 ], [ -69.94414, -33.46222 ], [ -69.94374, -33.46232 ], [ -69.94266, -33.46199 ], [ -69.94146, -33.46087 ], [ -69.94098, -33.461 ], [ -69.94066, -33.46141 ], [ -69.94002, -33.46328 ], [ -69.93997, -33.46418 ], [ -69.94019, -33.46535 ], [ -69.94082, -33.4664 ], [ -69.94135, -33.46817 ], [ -69.94225, -33.46952 ], [ -69.94288, -33.47016 ], [ -69.94344, -33.47136 ], [ -69.94427, -33.47199 ], [ -69.94425, -33.47233 ], [ -69.94351, -33.4735 ], [ -69.94347, -33.47525 ], [ -69.94262, -33.47589 ], [ -69.9422, -33.47758 ], [ -69.94132, -33.47819 ], [ -69.94083, -33.47882 ], [ -69.94024, -33.47868 ], [ -69.93965, -33.47817 ], [ -69.93937, -33.47721 ], [ -69.93907, -33.47684 ], [ -69.93823, -33.47646 ], [ -69.93746, -33.47579 ], [ -69.93653, -33.47526 ], [ -69.93606, -33.47474 ], [ -69.93492, -33.47412 ], [ -69.93417, -33.47332 ], [ -69.93357, -33.47298 ], [ -69.93211, -33.47143 ], [ -69.93135, -33.47141 ], [ -69.92977, -33.4724 ], [ -69.92925, -33.47316 ], [ -69.92824, -33.47393 ], [ -69.92604, -33.47525 ], [ -69.92412, -33.47825 ], [ -69.92387, -33.4789 ], [ -69.92382, -33.48006 ], [ -69.92455, -33.48166 ], [ -69.92483, -33.48299 ], [ -69.92465, -33.48331 ], [ -69.92393, -33.48374 ], [ -69.92304, -33.48481 ], [ -69.92282, -33.48616 ], [ -69.92191, -33.48632 ], [ -69.9208, -33.48607 ], [ -69.91998, -33.48636 ], [ -69.91902, -33.48586 ], [ -69.91822, -33.48613 ], [ -69.91768, -33.48696 ], [ -69.91747, -33.48788 ], [ -69.91709, -33.48863 ], [ -69.91604, -33.4892 ], [ -69.91535, -33.49115 ], [ -69.91369, -33.49284 ], [ -69.91325, -33.49271 ], [ -69.91309, -33.49245 ], [ -69.91339, -33.49076 ], [ -69.91252, -33.4897 ], [ -69.91263, -33.48799 ], [ -69.91212, -33.48673 ], [ -69.91206, -33.48545 ], [ -69.91245, -33.48374 ], [ -69.91341, -33.4826 ], [ -69.91393, -33.48094 ], [ -69.9146, -33.48013 ], [ -69.91472, -33.47866 ], [ -69.91502, -33.47767 ], [ -69.91542, -33.47698 ], [ -69.91532, -33.47641 ], [ -69.91403, -33.47542 ], [ -69.91381, -33.47477 ], [ -69.91391, -33.47367 ], [ -69.91442, -33.47182 ], [ -69.91465, -33.46928 ], [ -69.91485, -33.46855 ], [ -69.91482, -33.4665 ], [ -69.91457, -33.46634 ], [ -69.91379, -33.4664 ], [ -69.91199, -33.46732 ], [ -69.91012, -33.46785 ], [ -69.90842, -33.46894 ], [ -69.90686, -33.46942 ], [ -69.9052, -33.47064 ], [ -69.90083, -33.47249 ], [ -69.89978, -33.47311 ], [ -69.89817, -33.47326 ], [ -69.89715, -33.47291 ], [ -69.89638, -33.47288 ], [ -69.89496, -33.47342 ], [ -69.89477, -33.47341 ], [ -69.89463, -33.47318 ], [ -69.89478, -33.47266 ], [ -69.89579, -33.47206 ], [ -69.89611, -33.47168 ], [ -69.89576, -33.47106 ], [ -69.89618, -33.47077 ], [ -69.89597, -33.4701 ], [ -69.8969, -33.46783 ], [ -69.89792, -33.46725 ], [ -69.89841, -33.46659 ], [ -69.89923, -33.46604 ], [ -69.8998, -33.46487 ], [ -69.90189, -33.4636 ], [ -69.90308, -33.46208 ], [ -69.90435, -33.46135 ], [ -69.90468, -33.46105 ], [ -69.90491, -33.4605 ], [ -69.90637, -33.45957 ], [ -69.90665, -33.4584 ], [ -69.90713, -33.45799 ], [ -69.90745, -33.45741 ], [ -69.90888, -33.45647 ], [ -69.90931, -33.45559 ], [ -69.91244, -33.45415 ], [ -69.91265, -33.45397 ], [ -69.91262, -33.45374 ], [ -69.91213, -33.45357 ], [ -69.91008, -33.4537 ], [ -69.90835, -33.45303 ], [ -69.90786, -33.45304 ], [ -69.90685, -33.45343 ], [ -69.90542, -33.45337 ], [ -69.90405, -33.45265 ], [ -69.90282, -33.45278 ], [ -69.90201, -33.45222 ], [ -69.90135, -33.45209 ], [ -69.90033, -33.45229 ], [ -69.89951, -33.4532 ], [ -69.89848, -33.4537 ], [ -69.89611, -33.4533 ], [ -69.89532, -33.45353 ], [ -69.89473, -33.45393 ], [ -69.89382, -33.45359 ], [ -69.8918, -33.45597 ], [ -69.88999, -33.4569 ], [ -69.88925, -33.45754 ], [ -69.88838, -33.45791 ], [ -69.88805, -33.45782 ], [ -69.88646, -33.45598 ], [ -69.8856, -33.45555 ], [ -69.88457, -33.45536 ], [ -69.88328, -33.45551 ], [ -69.88227, -33.45666 ], [ -69.88198, -33.4565 ], [ -69.88195, -33.45562 ], [ -69.88152, -33.45553 ], [ -69.87995, -33.45685 ], [ -69.87935, -33.45693 ], [ -69.87921, -33.45677 ], [ -69.87922, -33.45627 ], [ -69.87963, -33.45558 ], [ -69.88208, -33.45363 ], [ -69.88229, -33.45325 ], [ -69.88216, -33.45279 ], [ -69.88168, -33.45232 ], [ -69.88179, -33.4512 ], [ -69.88094, -33.45012 ], [ -69.88123, -33.44949 ], [ -69.88108, -33.4488 ], [ -69.88121, -33.44796 ], [ -69.88113, -33.44617 ], [ -69.8814, -33.44551 ], [ -69.8814, -33.44504 ], [ -69.87983, -33.4432 ], [ -69.8772, -33.44182 ], [ -69.87646, -33.44093 ], [ -69.87658, -33.44058 ], [ -69.87865, -33.44011 ], [ -69.88204, -33.44122 ], [ -69.8832, -33.44204 ], [ -69.88381, -33.44207 ], [ -69.88424, -33.4418 ], [ -69.88481, -33.4418 ], [ -69.88505, -33.44147 ], [ -69.88501, -33.4403 ], [ -69.88455, -33.43982 ], [ -69.88287, -33.43883 ], [ -69.88252, -33.43833 ], [ -69.88248, -33.43797 ], [ -69.88403, -33.43728 ], [ -69.88503, -33.43657 ], [ -69.88583, -33.4363 ], [ -69.88675, -33.43628 ], [ -69.88844, -33.43683 ], [ -69.88925, -33.43656 ], [ -69.89004, -33.4353 ], [ -69.89068, -33.43338 ], [ -69.89076, -33.43228 ], [ -69.89143, -33.4316 ], [ -69.89144, -33.43053 ], [ -69.89264, -33.43039 ], [ -69.89403, -33.42966 ], [ -69.89459, -33.42968 ], [ -69.89529, -33.43016 ], [ -69.89603, -33.43014 ], [ -69.89689, -33.42887 ], [ -69.89744, -33.4291 ], [ -69.89801, -33.42904 ], [ -69.89935, -33.43037 ], [ -69.89992, -33.43233 ], [ -69.90103, -33.43403 ], [ -69.90111, -33.43509 ], [ -69.90141, -33.4361 ], [ -69.90186, -33.43674 ], [ -69.90266, -33.43724 ], [ -69.90182, -33.43817 ], [ -69.90182, -33.43888 ], [ -69.9022, -33.43907 ], [ -69.90344, -33.43893 ], [ -69.90423, -33.43956 ], [ -69.90447, -33.43955 ], [ -69.90477, -33.43923 ], [ -69.90529, -33.43902 ], [ -69.90566, -33.43845 ], [ -69.90674, -33.43826 ], [ -69.90704, -33.43779 ], [ -69.90805, -33.43755 ], [ -69.90827, -33.4373 ], [ -69.90838, -33.43677 ], [ -69.90913, -33.43642 ], [ -69.90921, -33.43608 ], [ -69.9097, -33.43576 ], [ -69.91027, -33.43478 ], [ -69.91205, -33.4334 ], [ -69.913, -33.43297 ], [ -69.91351, -33.43236 ], [ -69.91519, -33.43179 ], [ -69.91586, -33.43116 ], [ -69.91709, -33.43075 ], [ -69.91776, -33.43035 ], [ -69.90558, -33.43044 ], [ -69.9052, -33.39371 ], [ -69.90479, -33.39369 ], [ -69.90435, -33.39395 ], [ -69.90256, -33.39688 ], [ -69.90124, -33.39757 ], [ -69.90089, -33.39761 ], [ -69.9008, -33.39733 ], [ -69.90102, -33.39676 ], [ -69.90115, -33.39449 ], [ -69.90068, -33.39261 ], [ -69.90051, -33.39229 ], [ -69.90005, -33.39197 ], [ -69.8993, -33.39181 ], [ -69.89924, -33.39128 ], [ -69.89868, -33.39073 ], [ -69.89917, -33.39015 ], [ -69.89942, -33.38939 ], [ -69.89947, -33.38799 ], [ -69.89983, -33.38731 ], [ -69.90001, -33.38594 ], [ -69.90029, -33.3856 ], [ -69.90153, -33.3852 ], [ -69.90188, -33.38427 ], [ -69.90238, -33.38364 ], [ -69.90207, -33.38266 ], [ -69.90231, -33.38093 ], [ -69.90166, -33.37923 ], [ -69.90132, -33.37894 ], [ -69.90038, -33.37895 ], [ -69.90012, -33.37837 ], [ -69.89968, -33.37809 ], [ -69.89914, -33.37814 ], [ -69.89744, -33.37894 ], [ -69.89713, -33.37873 ], [ -69.89642, -33.37755 ], [ -69.89543, -33.37701 ], [ -69.89501, -33.37702 ], [ -69.89447, -33.37801 ], [ -69.89227, -33.38012 ], [ -69.89185, -33.3802 ], [ -69.89046, -33.37848 ], [ -69.89051, -33.37742 ], [ -69.8904, -33.37727 ], [ -69.88978, -33.37692 ], [ -69.88833, -33.37652 ], [ -69.88901, -33.3747 ], [ -69.88947, -33.37423 ], [ -69.88953, -33.37397 ], [ -69.88939, -33.37378 ], [ -69.88849, -33.37346 ], [ -69.88797, -33.37301 ], [ -69.88795, -33.3727 ], [ -69.88892, -33.37231 ], [ -69.88891, -33.37116 ], [ -69.88984, -33.37047 ], [ -69.88998, -33.36952 ], [ -69.89036, -33.36892 ], [ -69.89045, -33.36759 ], [ -69.89096, -33.36684 ], [ -69.89083, -33.36602 ], [ -69.89335, -33.36596 ], [ -69.8933, -33.36558 ], [ -69.89291, -33.36508 ], [ -69.89167, -33.36422 ], [ -69.89113, -33.36328 ], [ -69.89062, -33.36316 ], [ -69.88888, -33.36347 ], [ -69.88862, -33.36313 ], [ -69.88845, -33.36233 ], [ -69.88821, -33.3621 ], [ -69.88768, -33.36207 ], [ -69.88733, -33.3623 ], [ -69.88694, -33.36318 ], [ -69.88642, -33.36358 ], [ -69.88614, -33.36357 ], [ -69.88496, -33.36257 ], [ -69.88375, -33.36237 ], [ -69.88377, -33.36088 ], [ -69.88364, -33.36026 ], [ -69.88345, -33.36005 ], [ -69.88286, -33.3601 ], [ -69.88122, -33.36074 ], [ -69.88076, -33.36026 ], [ -69.87993, -33.36028 ], [ -69.87951, -33.36013 ], [ -69.87853, -33.35937 ], [ -69.87785, -33.35924 ], [ -69.87651, -33.35929 ], [ -69.87452, -33.36002 ], [ -69.87199, -33.36058 ], [ -69.87139, -33.36048 ], [ -69.87071, -33.36002 ], [ -69.87008, -33.35871 ], [ -69.86986, -33.35858 ], [ -69.86928, -33.35898 ], [ -69.8684, -33.35922 ], [ -69.86751, -33.36055 ], [ -69.86589, -33.3615 ], [ -69.86537, -33.36158 ], [ -69.86509, -33.36123 ], [ -69.86517, -33.36075 ], [ -69.86617, -33.36017 ], [ -69.86616, -33.36 ], [ -69.86464, -33.35973 ], [ -69.86351, -33.36013 ], [ -69.86299, -33.3595 ], [ -69.86178, -33.35938 ], [ -69.86173, -33.35878 ], [ -69.86257, -33.35784 ], [ -69.86271, -33.35711 ], [ -69.86238, -33.35681 ], [ -69.86169, -33.35691 ], [ -69.86133, -33.35725 ], [ -69.86097, -33.35713 ], [ -69.86091, -33.35651 ], [ -69.86115, -33.35523 ], [ -69.86104, -33.35496 ], [ -69.86028, -33.35506 ], [ -69.85984, -33.35472 ], [ -69.85917, -33.35512 ], [ -69.85884, -33.35509 ], [ -69.85867, -33.3549 ], [ -69.85881, -33.35389 ], [ -69.85857, -33.35359 ], [ -69.85816, -33.35343 ], [ -69.85739, -33.35344 ], [ -69.85664, -33.35308 ], [ -69.8551, -33.35288 ], [ -69.85415, -33.35256 ], [ -69.85401, -33.35245 ], [ -69.85412, -33.35175 ], [ -69.85357, -33.35145 ], [ -69.85269, -33.35154 ], [ -69.8516, -33.35242 ], [ -69.85119, -33.35256 ], [ -69.85042, -33.35172 ], [ -69.84795, -33.35107 ], [ -69.84691, -33.35103 ], [ -69.84658, -33.35084 ], [ -69.84684, -33.35035 ], [ -69.84743, -33.35009 ], [ -69.84773, -33.34973 ], [ -69.84885, -33.35023 ], [ -69.84999, -33.35027 ], [ -69.85068, -33.35001 ], [ -69.85125, -33.35015 ], [ -69.85267, -33.34906 ], [ -69.85479, -33.3492 ], [ -69.85944, -33.3481 ], [ -69.85951, -33.34781 ], [ -69.85907, -33.34741 ], [ -69.85913, -33.34679 ], [ -69.85892, -33.34642 ], [ -69.85903, -33.34582 ], [ -69.85873, -33.34523 ], [ -69.85914, -33.34411 ], [ -69.85871, -33.3434 ], [ -69.85859, -33.34256 ], [ -69.85802, -33.34165 ], [ -69.85802, -33.34131 ], [ -69.85841, -33.34108 ], [ -69.85839, -33.34087 ], [ -69.85818, -33.34058 ], [ -69.85616, -33.33928 ], [ -69.85591, -33.33874 ], [ -69.85516, -33.33811 ], [ -69.85422, -33.33668 ], [ -69.85281, -33.33572 ], [ -69.85209, -33.33452 ], [ -69.85071, -33.33446 ], [ -69.85059, -33.33418 ], [ -69.85066, -33.3336 ], [ -69.85011, -33.33317 ], [ -69.85033, -33.3328 ], [ -69.85018, -33.33219 ], [ -69.85025, -33.33141 ], [ -69.8501, -33.33126 ], [ -69.84747, -33.33139 ], [ -69.84727, -33.33148 ], [ -69.84721, -33.3314 ], [ -69.8427, -33.33162 ], [ -69.84034, -33.33193 ], [ -69.83971, -33.33208 ], [ -69.83938, -33.33205 ], [ -69.79061, -33.33845 ], [ -69.77062, -33.34279 ], [ -69.77049, -33.34296 ] ] ], [ [ [ -69.87021, -33.33055 ], [ -69.8715, -33.3319 ], [ -69.87276, -33.33214 ], [ -69.87295, -33.33247 ], [ -69.87339, -33.33275 ], [ -69.87356, -33.33317 ], [ -69.87398, -33.33341 ], [ -69.8741, -33.33415 ], [ -69.8749, -33.33447 ], [ -69.87543, -33.33519 ], [ -69.87562, -33.33579 ], [ -69.87658, -33.33642 ], [ -69.87752, -33.33828 ], [ -69.87828, -33.33861 ], [ -69.87878, -33.3393 ], [ -69.87939, -33.3394 ], [ -69.88034, -33.34065 ], [ -69.88235, -33.34178 ], [ -69.88531, -33.3439 ], [ -69.88624, -33.34471 ], [ -69.88665, -33.34545 ], [ -69.88742, -33.34586 ], [ -69.88785, -33.34591 ], [ -69.88847, -33.345 ], [ -69.88843, -33.34455 ], [ -69.88716, -33.3407 ], [ -69.88714, -33.34022 ], [ -69.88735, -33.3398 ], [ -69.88729, -33.3393 ], [ -69.88678, -33.33851 ], [ -69.88667, -33.33792 ], [ -69.88622, -33.33742 ], [ -69.88649, -33.33631 ], [ -69.88607, -33.33532 ], [ -69.88557, -33.33326 ], [ -69.88516, -33.33237 ], [ -69.88514, -33.33065 ], [ -69.8854, -33.32984 ], [ -69.8852, -33.32957 ], [ -69.86955, -33.33032 ], [ -69.87021, -33.33055 ] ] ], [ [ [ -69.9034, -33.33011 ], [ -69.90364, -33.33075 ], [ -69.90355, -33.33182 ], [ -69.90443, -33.33209 ], [ -69.90501, -33.33258 ], [ -69.90648, -33.33275 ], [ -69.90706, -33.33338 ], [ -69.90707, -33.3337 ], [ -69.90669, -33.33452 ], [ -69.90591, -33.33534 ], [ -69.90591, -33.33573 ], [ -69.90605, -33.33594 ], [ -69.90693, -33.33633 ], [ -69.90825, -33.3366 ], [ -69.90895, -33.33722 ], [ -69.90953, -33.33831 ], [ -69.90936, -33.3393 ], [ -69.90897, -33.3401 ], [ -69.90897, -33.34086 ], [ -69.90921, -33.34106 ], [ -69.90984, -33.34236 ], [ -69.91034, -33.34246 ], [ -69.91075, -33.34225 ], [ -69.91158, -33.34044 ], [ -69.91262, -33.3394 ], [ -69.91489, -33.33654 ], [ -69.91532, -33.33636 ], [ -69.91634, -33.33657 ], [ -69.91696, -33.33647 ], [ -69.9176, -33.33518 ], [ -69.91964, -33.3327 ], [ -69.92006, -33.33158 ], [ -69.92145, -33.33129 ], [ -69.92246, -33.3307 ], [ -69.92309, -33.33002 ], [ -69.90409, -33.32938 ], [ -69.9034, -33.33011 ] ] ], [ [ [ -69.94139, -33.33131 ], [ -69.94017, -33.33201 ], [ -69.93812, -33.33392 ], [ -69.93654, -33.3345 ], [ -69.9354, -33.3353 ], [ -69.93371, -33.3353 ], [ -69.93319, -33.33542 ], [ -69.93286, -33.33571 ], [ -69.9332, -33.33704 ], [ -69.93244, -33.33854 ], [ -69.93246, -33.33934 ], [ -69.93269, -33.33988 ], [ -69.93265, -33.34112 ], [ -69.93101, -33.34567 ], [ -69.93054, -33.34763 ], [ -69.93071, -33.34809 ], [ -69.93066, -33.34951 ], [ -69.9311, -33.3504 ], [ -69.93132, -33.3521 ], [ -69.93191, -33.35361 ], [ -69.93185, -33.3545 ], [ -69.93119, -33.35593 ], [ -69.93116, -33.35755 ], [ -69.93101, -33.35809 ], [ -69.93415, -33.35807 ], [ -69.93448, -33.35625 ], [ -69.93453, -33.35455 ], [ -69.93483, -33.35317 ], [ -69.93466, -33.35124 ], [ -69.93521, -33.34947 ], [ -69.93547, -33.34776 ], [ -69.9379, -33.34103 ], [ -69.93792, -33.33968 ], [ -69.93868, -33.33884 ], [ -69.93946, -33.3366 ], [ -69.94015, -33.3353 ], [ -69.94071, -33.33477 ], [ -69.94103, -33.33362 ], [ -69.94183, -33.33251 ], [ -69.94367, -33.33071 ], [ -69.94209, -33.33066 ], [ -69.94139, -33.33131 ] ] ], [ [ [ -69.96116, -33.33308 ], [ -69.96125, -33.33329 ], [ -69.96186, -33.33352 ], [ -69.9621, -33.33382 ], [ -69.96193, -33.33403 ], [ -69.9612, -33.3342 ], [ -69.96107, -33.33434 ], [ -69.96116, -33.33486 ], [ -69.96088, -33.33514 ], [ -69.95996, -33.33556 ], [ -69.95973, -33.33584 ], [ -69.9598, -33.33667 ], [ -69.9583, -33.33659 ], [ -69.95787, -33.33746 ], [ -69.95662, -33.33768 ], [ -69.95636, -33.33795 ], [ -69.95571, -33.33986 ], [ -69.95377, -33.34023 ], [ -69.95275, -33.34138 ], [ -69.95272, -33.34202 ], [ -69.95297, -33.34286 ], [ -69.95237, -33.34455 ], [ -69.95231, -33.34534 ], [ -69.95281, -33.34628 ], [ -69.95229, -33.34693 ], [ -69.9522, -33.34762 ], [ -69.95284, -33.34829 ], [ -69.95285, -33.34848 ], [ -69.95188, -33.34897 ], [ -69.95145, -33.3504 ], [ -69.95179, -33.35081 ], [ -69.9527, -33.35135 ], [ -69.95456, -33.3541 ], [ -69.95335, -33.35517 ], [ -69.95241, -33.35562 ], [ -69.95155, -33.35642 ], [ -69.95112, -33.35729 ], [ -69.95132, -33.35794 ], [ -69.98353, -33.35769 ], [ -69.98336, -33.35694 ], [ -69.98365, -33.35631 ], [ -69.98346, -33.3558 ], [ -69.98407, -33.35538 ], [ -69.98417, -33.35472 ], [ -69.98468, -33.3543 ], [ -69.9848, -33.35378 ], [ -69.98649, -33.35186 ], [ -69.98669, -33.35018 ], [ -69.98696, -33.34939 ], [ -69.98765, -33.34852 ], [ -69.98849, -33.34812 ], [ -69.98871, -33.34767 ], [ -69.98966, -33.34677 ], [ -69.99119, -33.34674 ], [ -69.99199, -33.34632 ], [ -69.99228, -33.34634 ], [ -69.99329, -33.34713 ], [ -69.99385, -33.3478 ], [ -69.99446, -33.34904 ], [ -69.99459, -33.35022 ], [ -69.99515, -33.35157 ], [ -69.99542, -33.35323 ], [ -69.9957, -33.35361 ], [ -69.99601, -33.35363 ], [ -69.99654, -33.3532 ], [ -69.9976, -33.35098 ], [ -69.99795, -33.35054 ], [ -69.99921, -33.34986 ], [ -70.00005, -33.34968 ], [ -70.0003, -33.34943 ], [ -70.00057, -33.34614 ], [ -70.00093, -33.34525 ], [ -70.00168, -33.34483 ], [ -70.00309, -33.34451 ], [ -70.00405, -33.34451 ], [ -70.00521, -33.34508 ], [ -70.00653, -33.3452 ], [ -70.00804, -33.34631 ], [ -70.00904, -33.34784 ], [ -70.00939, -33.34899 ], [ -70.01041, -33.3506 ], [ -70.01066, -33.3513 ], [ -70.01075, -33.35666 ], [ -70.01054, -33.35747 ], [ -70.01874, -33.3574 ], [ -70.01919, -33.35655 ], [ -70.01958, -33.35467 ], [ -70.01951, -33.35271 ], [ -70.02018, -33.35163 ], [ -70.02165, -33.3506 ], [ -70.02212, -33.35014 ], [ -70.02242, -33.34956 ], [ -70.02228, -33.34873 ], [ -70.02154, -33.34785 ], [ -70.02123, -33.34719 ], [ -70.02133, -33.34636 ], [ -70.02191, -33.34551 ], [ -70.02174, -33.34458 ], [ -70.02179, -33.34376 ], [ -70.02222, -33.343 ], [ -70.02298, -33.34229 ], [ -70.02341, -33.34161 ], [ -70.00023, -33.33694 ], [ -69.96285, -33.33259 ], [ -69.96116, -33.33308 ] ] ], [ [ [ -70.05811, -33.34966 ], [ -70.05728, -33.35066 ], [ -70.05511, -33.35153 ], [ -70.05344, -33.35249 ], [ -70.04955, -33.35385 ], [ -70.04856, -33.35433 ], [ -70.04763, -33.35506 ], [ -70.04672, -33.35672 ], [ -70.04642, -33.35775 ], [ -70.04607, -33.35917 ], [ -70.04605, -33.36063 ], [ -70.0462, -33.36119 ], [ -70.04671, -33.36173 ], [ -70.0474, -33.36181 ], [ -70.0483, -33.36145 ], [ -70.04875, -33.36104 ], [ -70.04996, -33.36039 ], [ -70.0505, -33.35941 ], [ -70.05272, -33.3569 ], [ -70.05444, -33.35607 ], [ -70.05592, -33.35561 ], [ -70.0585, -33.35523 ], [ -70.05922, -33.35538 ], [ -70.06135, -33.35634 ], [ -70.06132, -33.3578 ], [ -70.06191, -33.35843 ], [ -70.06218, -33.35943 ], [ -70.06284, -33.35997 ], [ -70.06185, -33.36158 ], [ -70.0611, -33.36377 ], [ -70.06016, -33.36575 ], [ -70.0598, -33.36819 ], [ -70.05945, -33.36911 ], [ -70.0594, -33.37004 ], [ -70.05956, -33.37071 ], [ -70.06004, -33.37133 ], [ -70.06106, -33.3719 ], [ -70.06766, -33.37451 ], [ -70.06901, -33.37704 ], [ -70.06907, -33.37788 ], [ -70.06894, -33.37846 ], [ -70.0684, -33.37892 ], [ -70.06566, -33.37897 ], [ -70.06454, -33.37922 ], [ -70.06286, -33.37999 ], [ -70.06224, -33.38057 ], [ -70.05853, -33.38196 ], [ -70.05895, -33.38223 ], [ -70.06375, -33.38283 ], [ -70.06588, -33.38332 ], [ -70.06682, -33.38376 ], [ -70.06753, -33.3843 ], [ -70.06827, -33.38515 ], [ -70.06825, -33.38549 ], [ -70.06776, -33.38589 ], [ -70.06255, -33.38821 ], [ -70.06013, -33.39022 ], [ -70.05874, -33.39165 ], [ -70.05859, -33.3921 ], [ -70.0587, -33.39296 ], [ -70.06041, -33.39514 ], [ -70.0605, -33.39594 ], [ -70.06118, -33.39713 ], [ -70.06105, -33.39803 ], [ -70.05907, -33.39849 ], [ -70.05786, -33.39849 ], [ -70.05723, -33.39833 ], [ -70.05421, -33.39689 ], [ -70.05295, -33.39579 ], [ -70.05182, -33.39549 ], [ -70.05057, -33.39432 ], [ -70.04965, -33.39397 ], [ -70.04897, -33.39398 ], [ -70.0472, -33.39474 ], [ -70.04645, -33.39481 ], [ -70.04545, -33.39515 ], [ -70.04524, -33.39546 ], [ -70.04522, -33.39614 ], [ -70.0457, -33.39676 ], [ -70.04626, -33.39704 ], [ -70.05128, -33.39802 ], [ -70.05282, -33.39861 ], [ -70.05486, -33.40013 ], [ -70.05542, -33.40081 ], [ -70.05593, -33.40184 ], [ -70.05594, -33.40287 ], [ -70.05293, -33.40698 ], [ -70.05267, -33.40765 ], [ -70.0529, -33.40826 ], [ -70.05389, -33.40834 ], [ -70.0552, -33.40807 ], [ -70.05633, -33.40753 ], [ -70.05838, -33.40598 ], [ -70.05925, -33.40563 ], [ -70.06358, -33.40539 ], [ -70.06578, -33.40558 ], [ -70.06745, -33.40608 ], [ -70.06895, -33.40697 ], [ -70.06993, -33.40838 ], [ -70.07045, -33.40872 ], [ -70.07055, -33.40906 ], [ -70.0704, -33.40938 ], [ -70.06887, -33.41043 ], [ -70.06821, -33.41135 ], [ -70.06573, -33.41401 ], [ -70.06429, -33.41681 ], [ -70.06384, -33.41813 ], [ -70.06307, -33.41925 ], [ -70.06254, -33.42106 ], [ -70.06269, -33.42128 ], [ -70.06339, -33.42131 ], [ -70.06495, -33.42063 ], [ -70.06611, -33.42035 ], [ -70.0691, -33.42053 ], [ -70.07037, -33.42092 ], [ -70.07305, -33.4225 ], [ -70.07379, -33.42416 ], [ -70.07404, -33.42441 ], [ -70.0749, -33.42455 ], [ -70.07504, -33.42507 ], [ -70.07278, -33.42709 ], [ -70.0711, -33.42808 ], [ -70.07079, -33.42876 ], [ -70.07085, -33.42971 ], [ -70.07022, -33.43057 ], [ -70.06904, -33.43118 ], [ -70.06663, -33.43169 ], [ -70.0659, -33.43227 ], [ -70.0648, -33.43426 ], [ -70.06388, -33.43518 ], [ -70.06368, -33.43586 ], [ -70.06373, -33.43659 ], [ -70.06398, -33.43684 ], [ -70.06666, -33.43759 ], [ -70.06787, -33.43758 ], [ -70.0695, -33.43712 ], [ -70.07272, -33.43755 ], [ -70.07533, -33.43839 ], [ -70.07631, -33.4391 ], [ -70.07697, -33.43931 ], [ -70.07723, -33.43996 ], [ -70.07814, -33.44114 ], [ -70.07854, -33.44225 ], [ -70.07866, -33.44286 ], [ -70.0786, -33.44409 ], [ -70.07811, -33.44519 ], [ -70.07592, -33.44738 ], [ -70.07566, -33.44839 ], [ -70.07556, -33.45062 ], [ -70.07571, -33.45138 ], [ -70.07613, -33.45182 ], [ -70.07699, -33.45198 ], [ -70.07963, -33.4513 ], [ -70.08201, -33.45104 ], [ -70.08356, -33.45127 ], [ -70.08604, -33.45203 ], [ -70.08675, -33.45204 ], [ -70.08781, -33.45176 ], [ -70.08797, -33.45159 ], [ -70.0878, -33.45096 ], [ -70.08637, -33.44961 ], [ -70.08604, -33.44875 ], [ -70.086, -33.44807 ], [ -70.08622, -33.44745 ], [ -70.08692, -33.44644 ], [ -70.08793, -33.44534 ], [ -70.09176, -33.44218 ], [ -70.09394, -33.44122 ], [ -70.0959, -33.44081 ], [ -70.09635, -33.44029 ], [ -70.0961, -33.43943 ], [ -70.09625, -33.43822 ], [ -70.09482, -33.43658 ], [ -70.09413, -33.43486 ], [ -70.09312, -33.43397 ], [ -70.09284, -33.43342 ], [ -70.09285, -33.43246 ], [ -70.09374, -33.43053 ], [ -70.09455, -33.42962 ], [ -70.09596, -33.42906 ], [ -70.1018, -33.42928 ], [ -70.10224, -33.42913 ], [ -70.10242, -33.42877 ], [ -70.10126, -33.42717 ], [ -70.10066, -33.42576 ], [ -70.10046, -33.42369 ], [ -70.09994, -33.4228 ], [ -70.09901, -33.42175 ], [ -70.09889, -33.42117 ], [ -70.09966, -33.41971 ], [ -70.09995, -33.41857 ], [ -70.10008, -33.41674 ], [ -70.10102, -33.41555 ], [ -70.10114, -33.4147 ], [ -70.1021, -33.4147 ], [ -70.10306, -33.41406 ], [ -70.1037, -33.41396 ], [ -70.10447, -33.4141 ], [ -70.1049, -33.41383 ], [ -70.10433, -33.41064 ], [ -70.10398, -33.41 ], [ -70.10269, -33.40849 ], [ -70.10244, -33.40754 ], [ -70.10235, -33.40577 ], [ -70.10181, -33.40502 ], [ -70.10176, -33.40462 ], [ -70.10259, -33.40382 ], [ -70.10296, -33.40284 ], [ -70.10333, -33.40244 ], [ -70.10382, -33.40222 ], [ -70.10534, -33.40203 ], [ -70.106, -33.40144 ], [ -70.10624, -33.40088 ], [ -70.10625, -33.40046 ], [ -70.10595, -33.39971 ], [ -70.1049, -33.39857 ], [ -70.10419, -33.39746 ], [ -70.10383, -33.39708 ], [ -70.10313, -33.39673 ], [ -70.10216, -33.39568 ], [ -70.10248, -33.39341 ], [ -70.10376, -33.39105 ], [ -70.10452, -33.38906 ], [ -70.10443, -33.38781 ], [ -70.1036, -33.38703 ], [ -70.1033, -33.38635 ], [ -70.10337, -33.38489 ], [ -70.10292, -33.38392 ], [ -70.10333, -33.38301 ], [ -70.10367, -33.37964 ], [ -70.10393, -33.37907 ], [ -70.10516, -33.37742 ], [ -70.10563, -33.37632 ], [ -70.10584, -33.37522 ], [ -70.10554, -33.3739 ], [ -70.10475, -33.37331 ], [ -70.10526, -33.37243 ], [ -70.10547, -33.37168 ], [ -70.10549, -33.36995 ], [ -70.1049, -33.36948 ], [ -70.10541, -33.3685 ], [ -70.10531, -33.36771 ], [ -70.10597, -33.36741 ], [ -70.10791, -33.36574 ], [ -70.10883, -33.3653 ], [ -70.10929, -33.36482 ], [ -70.10133, -33.36175 ], [ -70.05825, -33.34923 ], [ -70.05811, -33.34966 ] ] ], [ [ [ -70.16279, -33.38689 ], [ -70.16271, -33.38807 ], [ -70.16239, -33.38896 ], [ -70.16155, -33.39019 ], [ -70.16146, -33.39131 ], [ -70.16145, -33.39158 ], [ -70.16174, -33.392 ], [ -70.16204, -33.39196 ], [ -70.16283, -33.39051 ], [ -70.16341, -33.39037 ], [ -70.16401, -33.39078 ], [ -70.16465, -33.39189 ], [ -70.16508, -33.39196 ], [ -70.16548, -33.39168 ], [ -70.16641, -33.3902 ], [ -70.16712, -33.39022 ], [ -70.16774, -33.38994 ], [ -70.16872, -33.38993 ], [ -70.16885, -33.38984 ], [ -70.1628, -33.38688 ], [ -70.16279, -33.38689 ] ] ], [ [ [ -70.18734, -33.39936 ], [ -70.18692, -33.40003 ], [ -70.1868, -33.40105 ], [ -70.18694, -33.40132 ], [ -70.18986, -33.40244 ], [ -70.19013, -33.4027 ], [ -70.19085, -33.4044 ], [ -70.19076, -33.40547 ], [ -70.19012, -33.40594 ], [ -70.19016, -33.40684 ], [ -70.18856, -33.4074 ], [ -70.18816, -33.40783 ], [ -70.18785, -33.40904 ], [ -70.18742, -33.40952 ], [ -70.18699, -33.41071 ], [ -70.18707, -33.41135 ], [ -70.18742, -33.41179 ], [ -70.18913, -33.41272 ], [ -70.1893, -33.41303 ], [ -70.18931, -33.41361 ], [ -70.18896, -33.41406 ], [ -70.18807, -33.41446 ], [ -70.18687, -33.41457 ], [ -70.18638, -33.41487 ], [ -70.18674, -33.4155 ], [ -70.18672, -33.41616 ], [ -70.18643, -33.41647 ], [ -70.18633, -33.41708 ], [ -70.18678, -33.41762 ], [ -70.18677, -33.418 ], [ -70.18543, -33.41959 ], [ -70.18417, -33.41972 ], [ -70.18401, -33.42001 ], [ -70.18404, -33.42074 ], [ -70.18386, -33.42133 ], [ -70.18272, -33.42205 ], [ -70.18248, -33.42325 ], [ -70.18178, -33.42386 ], [ -70.18131, -33.42498 ], [ -70.18055, -33.42611 ], [ -70.18056, -33.42625 ], [ -70.1809, -33.42627 ], [ -70.18263, -33.42489 ], [ -70.18333, -33.42462 ], [ -70.18389, -33.42465 ], [ -70.18445, -33.42483 ], [ -70.18547, -33.42548 ], [ -70.18734, -33.42716 ], [ -70.18758, -33.42761 ], [ -70.18763, -33.42867 ], [ -70.18717, -33.43009 ], [ -70.18701, -33.43162 ], [ -70.18649, -33.4321 ], [ -70.18639, -33.43258 ], [ -70.18656, -33.43327 ], [ -70.18725, -33.43391 ], [ -70.18723, -33.43425 ], [ -70.18611, -33.43514 ], [ -70.1858, -33.43559 ], [ -70.18482, -33.43976 ], [ -70.18453, -33.44013 ], [ -70.18331, -33.44063 ], [ -70.1831, -33.44099 ], [ -70.18315, -33.44126 ], [ -70.18376, -33.44177 ], [ -70.18415, -33.44241 ], [ -70.18402, -33.44389 ], [ -70.18542, -33.44486 ], [ -70.18602, -33.44579 ], [ -70.18592, -33.44704 ], [ -70.18488, -33.44919 ], [ -70.18638, -33.44965 ], [ -70.18717, -33.45016 ], [ -70.18758, -33.45022 ], [ -70.18786, -33.45006 ], [ -70.1884, -33.44896 ], [ -70.18914, -33.44808 ], [ -70.189, -33.44737 ], [ -70.18908, -33.44696 ], [ -70.1899, -33.44597 ], [ -70.19018, -33.44537 ], [ -70.19014, -33.44488 ], [ -70.18969, -33.44414 ], [ -70.18963, -33.44305 ], [ -70.18923, -33.44154 ], [ -70.18916, -33.43945 ], [ -70.18963, -33.43807 ], [ -70.19008, -33.43769 ], [ -70.19159, -33.43727 ], [ -70.19297, -33.43737 ], [ -70.19401, -33.43707 ], [ -70.19479, -33.43704 ], [ -70.19704, -33.43738 ], [ -70.19747, -33.43717 ], [ -70.19745, -33.43657 ], [ -70.19655, -33.43447 ], [ -70.19518, -33.43277 ], [ -70.19472, -33.43176 ], [ -70.19416, -33.43098 ], [ -70.19407, -33.42982 ], [ -70.19419, -33.42876 ], [ -70.19482, -33.42712 ], [ -70.19457, -33.42598 ], [ -70.19459, -33.42536 ], [ -70.19519, -33.42374 ], [ -70.19584, -33.4228 ], [ -70.19611, -33.4219 ], [ -70.19698, -33.42099 ], [ -70.19727, -33.42042 ], [ -70.19732, -33.41732 ], [ -70.19777, -33.41642 ], [ -70.19873, -33.41529 ], [ -70.20064, -33.41411 ], [ -70.20103, -33.4137 ], [ -70.20151, -33.41261 ], [ -70.20186, -33.41103 ], [ -70.20222, -33.41037 ], [ -70.20386, -33.40828 ], [ -70.20397, -33.40812 ], [ -70.1948, -33.40256 ], [ -70.18774, -33.3991 ], [ -70.18734, -33.39936 ] ] ] ] } }
]
}
