{
"type": "FeatureCollection",
"name": "SOL",
"crs": { "type": "name", "properties": { "name": "urn:ogc:def:crs:OGC:1.3:CRS84" } },
"xy_coordinate_resolution": 1e-05,
"features": [
{ "type": "Feature", "properties": { "nombre": "Parque Nacional Villarrica", "categoria": "Parque Nacional", "region": "Araucania - Los Rios", "superficie_ha": "53158", "decreto": "NÂ° 3654 de 1929; NÂ° 2236 de 1940; NÂ° 398 de 1983" }, "geometry": { "type": "Polygon", "coordinates": [ [ [ -71.85728, -39.33454 ], [ -71.85685, -39.33411 ], [ -71.8564, -39.33418 ], [ -71.85584, -39.33475 ], [ -71.85544, -39.33594 ], [ -71.85566, -39.33663 ], [ -71.85763, -39.33542 ], [ -71.85728, -39.33454 ] ] ] } },
{ "type": "Feature", "properties": { "nombre": "Reserva Nacional Villarrica", "categoria": "Reserva Nacional", "region": "Araucania", "superficie_ha": "61352", "decreto": "NÂ° 378 de 1925; NÂ° 8129 de 1929; NÂ° 1722 de 1912" }, "geometry": { "type": "Polygon", "coordinates": [ [ [ -71.55043, -39.04497 ], [ -71.55163, -39.04449 ], [ -71.55427, -39.04247 ], [ -71.55441, -39.04066 ], [ -71.55408, -39.03809 ], [ -71.55426, -39.03712 ], [ -71.55487, -39.0364 ], [ -71.55808, -39.03611 ], [ -71.56024, -39.0354 ], [ -71.56137, -39.03406 ], [ -71.56193, -39.03211 ], [ -71.56235, -39.03143 ], [ -71.56365, -39.02996 ], [ -71.56349, -39.02819 ], [ -71.56224, -39.02628 ], [ -71.55739, -39.02201 ], [ -71.55718, -39.02119 ], [ -71.55756, -39.0199 ], [ -71.55869, -39.01808 ], [ -71.55953, -39.01337 ], [ -71.55988, -39.01293 ], [ -71.56198, -39.012 ], [ -71.56305, -39.01114 ], [ -71.56333, -39.01072 ], [ -71.56345, -39.00995 ], [ -71.56397, -39.00853 ], [ -71.56383, -39.00767 ], [ -71.56348, -39.00719 ], [ -71.56142, -39.00637 ], [ -71.56066, -39.00566 ], [ -71.56034, -39.00413 ], [ -71.56047, -39.00287 ], [ -71.55665, -39.00246 ], [ -71.55561, -39.00208 ], [ -71.55448, -39.00189 ], [ -71.55256, -39.00208 ], [ -71.55026, -39.00274 ], [ -71.54808, -39.0031 ], [ -71.54474, -39.00358 ], [ -71.54252, -39.00363 ], [ -71.53797, -39.00249 ], [ -71.53499, -39.00244 ], [ -71.5327, -39.00202 ], [ -71.53154, -39.00155 ], [ -71.52997, -39.00054 ], [ -71.52712, -38.99836 ], [ -71.52634, -38.99737 ], [ -71.52591, -38.99626 ], [ -71.52527, -38.99357 ], [ -71.52438, -38.9922 ], [ -71.52342, -38.99183 ], [ -71.52293, -38.99188 ], [ -71.52088, -38.99273 ], [ -71.51975, -38.99291 ], [ -71.51796, -38.99268 ], [ -71.51698, -38.99213 ], [ -71.5149, -38.9917 ], [ -71.51383, -38.9917 ], [ -71.51257, -38.99117 ], [ -71.51118, -38.98936 ], [ -71.51063, -38.9889 ], [ -71.50773, -38.9883 ], [ -71.50505, -38.98724 ], [ -71.50249, -38.98724 ], [ -71.50164, -38.9864 ], [ -71.50033, -38.98462 ], [ -71.49901, -38.98062 ], [ -71.49812, -38.97955 ], [ -71.49679, -38.97825 ], [ -71.49621, -38.97787 ], [ -71.49361, -38.97673 ], [ -71.49109, -38.97517 ], [ -71.48783, -38.97393 ], [ -71.48654, -38.97371 ], [ -71.48476, -38.97374 ], [ -71.48415, -38.9739 ], [ -71.48236, -38.97486 ], [ -71.48035, -38.97534 ], [ -71.47923, -38.97536 ], [ -71.47751, -38.9746 ], [ -71.47286, -38.9718 ], [ -71.47144, -38.97139 ], [ -71.46891, -38.97144 ], [ -71.4629, -38.97289 ], [ -71.45856, -38.97357 ], [ -71.45617, -38.97365 ], [ -71.45061, -38.97313 ], [ -71.44681, -38.97362 ], [ -71.44523, -38.97402 ], [ -71.4442, -38.97461 ], [ -71.4412, -38.97731 ], [ -71.44146, -38.97753 ], [ -71.44132, -38.97967 ], [ -71.44167, -38.98044 ], [ -71.44169, -38.98124 ], [ -71.44147, -38.9815 ], [ -71.4398, -38.98191 ], [ -71.43928, -38.9822 ], [ -71.43734, -38.98393 ], [ -71.43688, -38.98511 ], [ -71.43577, -38.9861 ], [ -71.43535, -38.98759 ], [ -71.43354, -38.98846 ], [ -71.43112, -38.99101 ], [ -71.43061, -38.99133 ], [ -71.42903, -38.99188 ], [ -71.42872, -38.99236 ], [ -71.42869, -38.99301 ], [ -71.42941, -38.9953 ], [ -71.42953, -38.99623 ], [ -71.42932, -38.99768 ], [ -71.42731, -39.00021 ], [ -71.42781, -39.00086 ], [ -71.42577, -39.00258 ], [ -71.42118, -39.00389 ], [ -71.41862, -39.00567 ], [ -71.41528, -39.00677 ], [ -71.41485, -39.00701 ], [ -71.41383, -39.0082 ], [ -71.41351, -39.00956 ], [ -71.41367, -39.01013 ], [ -71.41554, -39.01217 ], [ -71.41559, -39.01375 ], [ -71.41617, -39.01458 ], [ -71.41624, -39.01564 ], [ -71.41648, -39.01593 ], [ -71.41733, -39.01628 ], [ -71.41739, -39.01672 ], [ -71.41771, -39.01712 ], [ -71.41909, -39.01833 ], [ -71.42119, -39.02055 ], [ -71.42134, -39.02279 ], [ -71.422, -39.02518 ], [ -71.42197, -39.0259 ], [ -71.42157, -39.02615 ], [ -71.41897, -39.02663 ], [ -71.41696, -39.02733 ], [ -71.41482, -39.0289 ], [ -71.41309, -39.03091 ], [ -71.41177, -39.03194 ], [ -71.4078, -39.03373 ], [ -71.40639, -39.03413 ], [ -71.40555, -39.03478 ], [ -71.4045, -39.03495 ], [ -71.40278, -39.03593 ], [ -71.40093, -39.03774 ], [ -71.40061, -39.03829 ], [ -71.39999, -39.03961 ], [ -71.39988, -39.04062 ], [ -71.39956, -39.04159 ], [ -71.39811, -39.04509 ], [ -71.3979, -39.0453 ], [ -71.39637, -39.04574 ], [ -71.39639, -39.04599 ], [ -71.39664, -39.04622 ], [ -71.39802, -39.04648 ], [ -71.39878, -39.0468 ], [ -71.39994, -39.04679 ], [ -71.40043, -39.04715 ], [ -71.40207, -39.04777 ], [ -71.40335, -39.04879 ], [ -71.40406, -39.04972 ], [ -71.40779, -39.05184 ], [ -71.40865, -39.05377 ], [ -71.40968, -39.05506 ], [ -71.40895, -39.05702 ], [ -71.40896, -39.05818 ], [ -71.41031, -39.05851 ], [ -71.41124, -39.05893 ], [ -71.41238, -39.06006 ], [ -71.41278, -39.06109 ], [ -71.41461, -39.06299 ], [ -71.41512, -39.06442 ], [ -71.41534, -39.06598 ], [ -71.41615, -39.06764 ], [ -71.41685, -39.06848 ], [ -71.41836, -39.0696 ], [ -71.4185, -39.06985 ], [ -71.41522, -39.07438 ], [ -71.41453, -39.07495 ], [ -71.41383, -39.07593 ], [ -71.41258, -39.07838 ], [ -71.4124, -39.07982 ], [ -71.41253, -39.08336 ], [ -71.41215, -39.0858 ], [ -71.41135, -39.08828 ], [ -71.41094, -39.0888 ], [ -71.41082, -39.0896 ], [ -71.41029, -39.09015 ], [ -71.40924, -39.09205 ], [ -71.40914, -39.09268 ], [ -71.40807, -39.09466 ], [ -71.40783, -39.0956 ], [ -71.40782, -39.09664 ], [ -71.40843, -39.09826 ], [ -71.40877, -39.09873 ], [ -71.41017, -39.09974 ], [ -71.4107, -39.10031 ], [ -71.41254, -39.10279 ], [ -71.41313, -39.10393 ], [ -71.41324, -39.10478 ], [ -71.41303, -39.10594 ], [ -71.41408, -39.1074 ], [ -71.41407, -39.10808 ], [ -71.41457, -39.10879 ], [ -71.41457, -39.10999 ], [ -71.41486, -39.11134 ], [ -71.41519, -39.11194 ], [ -71.4163, -39.11302 ], [ -71.41751, -39.11369 ], [ -71.41813, -39.11473 ], [ -71.41843, -39.11647 ], [ -71.41774, -39.11727 ], [ -71.41542, -39.11932 ], [ -71.41514, -39.12008 ], [ -71.41651, -39.12097 ], [ -71.41758, -39.12215 ], [ -71.41903, -39.12292 ], [ -71.4195, -39.12334 ], [ -71.4198, -39.12383 ], [ -71.42034, -39.12552 ], [ -71.42033, -39.12622 ], [ -71.41914, -39.12744 ], [ -71.41564, -39.1333 ], [ -71.41539, -39.13517 ], [ -71.41345, -39.13668 ], [ -71.41245, -39.13782 ], [ -71.41206, -39.13847 ], [ -71.41196, -39.13964 ], [ -71.41271, -39.14198 ], [ -71.41435, -39.14436 ], [ -71.4161, -39.14598 ], [ -71.42051, -39.14889 ], [ -71.42149, -39.15034 ], [ -71.42147, -39.15122 ], [ -71.42105, -39.15204 ], [ -71.42034, -39.1528 ], [ -71.41985, -39.15389 ], [ -71.41971, -39.15451 ], [ -71.42017, -39.15545 ], [ -71.4202, -39.15606 ], [ -71.41951, -39.1566 ], [ -71.41813, -39.15728 ], [ -71.41586, -39.15916 ], [ -71.414, -39.16119 ], [ -71.41348, -39.16194 ], [ -71.41291, -39.16345 ], [ -71.41222, -39.16424 ], [ -71.41179, -39.16433 ], [ -71.41008, -39.16418 ], [ -71.40919, -39.16439 ], [ -71.4085, -39.16478 ], [ -71.40652, -39.16517 ], [ -71.40404, -39.16515 ], [ -71.40197, -39.1647 ], [ -71.40148, -39.16491 ], [ -71.40217, -39.16612 ], [ -71.40217, -39.16693 ], [ -71.40205, -39.16738 ], [ -71.4015, -39.16774 ], [ -71.40102, -39.16834 ], [ -71.40034, -39.1693 ], [ -71.40019, -39.16976 ], [ -71.40055, -39.1725 ], [ -71.39794, -39.17442 ], [ -71.39738, -39.17506 ], [ -71.39716, -39.17577 ], [ -71.39726, -39.17763 ], [ -71.39897, -39.18146 ], [ -71.39907, -39.18299 ], [ -71.40001, -39.18503 ], [ -71.40009, -39.18568 ], [ -71.39852, -39.18684 ], [ -71.39476, -39.18844 ], [ -71.39464, -39.18888 ], [ -71.39472, -39.18919 ], [ -71.39588, -39.19045 ], [ -71.39593, -39.19087 ], [ -71.3954, -39.19225 ], [ -71.3958, -39.19335 ], [ -71.39404, -39.19457 ], [ -71.39351, -39.19623 ], [ -71.39275, -39.19688 ], [ -71.39116, -39.19793 ], [ -71.38885, -39.19893 ], [ -71.38531, -39.20221 ], [ -71.38493, -39.20464 ], [ -71.38378, -39.20829 ], [ -71.38217, -39.21023 ], [ -71.38104, -39.21224 ], [ -71.38136, -39.21392 ], [ -71.3813, -39.21514 ], [ -71.38102, -39.21567 ], [ -71.38099, -39.21612 ], [ -71.38125, -39.21676 ], [ -71.38251, -39.2169 ], [ -71.384, -39.21674 ], [ -71.38527, -39.21682 ], [ -71.38722, -39.21642 ], [ -71.38972, -39.21652 ], [ -71.39129, -39.21545 ], [ -71.39155, -39.21545 ], [ -71.39203, -39.21598 ], [ -71.39206, -39.21654 ], [ -71.39181, -39.21752 ], [ -71.39162, -39.22144 ], [ -71.39086, -39.22253 ], [ -71.391, -39.22349 ], [ -71.3909, -39.22401 ], [ -71.39013, -39.22505 ], [ -71.39004, -39.22545 ], [ -71.38851, -39.2268 ], [ -71.38815, -39.23016 ], [ -71.38843, -39.23116 ], [ -71.38881, -39.23174 ], [ -71.38881, -39.23208 ], [ -71.38853, -39.23234 ], [ -71.38758, -39.23463 ], [ -71.38573, -39.23586 ], [ -71.38299, -39.23679 ], [ -71.38234, -39.23737 ], [ -71.38229, -39.23791 ], [ -71.38268, -39.23871 ], [ -71.38347, -39.23961 ], [ -71.38354, -39.24262 ], [ -71.38472, -39.24376 ], [ -71.38534, -39.24481 ], [ -71.38687, -39.24637 ], [ -71.38766, -39.24756 ], [ -71.38844, -39.24795 ], [ -71.38955, -39.24801 ], [ -71.39045, -39.24872 ], [ -71.39145, -39.249 ], [ -71.39236, -39.24955 ], [ -71.39236, -39.25047 ], [ -71.39169, -39.25151 ], [ -71.39107, -39.25211 ], [ -71.39103, -39.25337 ], [ -71.39061, -39.25443 ], [ -71.3906, -39.2549 ], [ -71.39105, -39.25593 ], [ -71.39174, -39.25876 ], [ -71.39142, -39.26002 ], [ -71.39, -39.26137 ], [ -71.38978, -39.26181 ], [ -71.38944, -39.26303 ], [ -71.38907, -39.26352 ], [ -71.38897, -39.2651 ], [ -71.3866, -39.26568 ], [ -71.38475, -39.26641 ], [ -71.38371, -39.26626 ], [ -71.38167, -39.26709 ], [ -71.38061, -39.26731 ], [ -71.37916, -39.26809 ], [ -71.37768, -39.26767 ], [ -71.37587, -39.26812 ], [ -71.37542, -39.26897 ], [ -71.37574, -39.27058 ], [ -71.37517, -39.2735 ], [ -71.37499, -39.27611 ], [ -71.37415, -39.2792 ], [ -71.37427, -39.28029 ], [ -71.37407, -39.28166 ], [ -71.37416, -39.28291 ], [ -71.37517, -39.28496 ], [ -71.37569, -39.28534 ], [ -71.37665, -39.28519 ], [ -71.37796, -39.28425 ], [ -71.37923, -39.28389 ], [ -71.38094, -39.28376 ], [ -71.38297, -39.28392 ], [ -71.38445, -39.28451 ], [ -71.38532, -39.28527 ], [ -71.3868, -39.28588 ], [ -71.38756, -39.28647 ], [ -71.38842, -39.28743 ], [ -71.3894, -39.28922 ], [ -71.39085, -39.29292 ], [ -71.39196, -39.29409 ], [ -71.39254, -39.2953 ], [ -71.39328, -39.29777 ], [ -71.39367, -39.29836 ], [ -71.39406, -39.30018 ], [ -71.39511, -39.3018 ], [ -71.39506, -39.30252 ], [ -71.39407, -39.30499 ], [ -71.39108, -39.31037 ], [ -71.38792, -39.31343 ], [ -71.38698, -39.31469 ], [ -71.38658, -39.31553 ], [ -71.38585, -39.3184 ], [ -71.38673, -39.31906 ], [ -71.38983, -39.31997 ], [ -71.39269, -39.32101 ], [ -71.39382, -39.32175 ], [ -71.39467, -39.32314 ], [ -71.39615, -39.32652 ], [ -71.39622, -39.32792 ], [ -71.39544, -39.33012 ], [ -71.39542, -39.33143 ], [ -71.3956, -39.33277 ], [ -71.39544, -39.33425 ], [ -71.39485, -39.33545 ], [ -71.3947, -39.33612 ], [ -71.39456, -39.34052 ], [ -71.39472, -39.341 ], [ -71.39581, -39.34268 ], [ -71.39588, -39.34342 ], [ -71.39653, -39.34477 ], [ -71.39935, -39.34715 ], [ -71.39946, -39.34959 ], [ -71.39967, -39.3503 ], [ -71.40156, -39.35174 ], [ -71.40337, -39.3524 ], [ -71.40528, -39.35246 ], [ -71.40603, -39.35215 ], [ -71.40795, -39.35211 ], [ -71.41036, -39.35272 ], [ -71.41089, -39.35323 ], [ -71.4114, -39.3542 ], [ -71.4122, -39.35502 ], [ -71.41253, -39.35669 ], [ -71.41309, -39.35796 ], [ -71.41356, -39.3587 ], [ -71.41415, -39.35922 ], [ -71.41795, -39.36093 ], [ -71.41956, -39.36182 ], [ -71.42014, -39.36242 ], [ -71.42072, -39.36349 ], [ -71.42249, -39.36569 ], [ -71.42319, -39.366 ], [ -71.42525, -39.36589 ], [ -71.42768, -39.36504 ], [ -71.4281, -39.36513 ], [ -71.43224, -39.36901 ], [ -71.43259, -39.36956 ], [ -71.43275, -39.37136 ], [ -71.43314, -39.37198 ], [ -71.43381, -39.37183 ], [ -71.43564, -39.37077 ], [ -71.43825, -39.37 ], [ -71.43901, -39.36922 ], [ -71.44023, -39.36905 ], [ -71.44147, -39.36853 ], [ -71.44249, -39.3687 ], [ -71.44471, -39.37019 ], [ -71.44633, -39.37102 ], [ -71.44893, -39.37162 ], [ -71.45174, -39.37113 ], [ -71.45441, -39.37018 ], [ -71.45625, -39.36977 ], [ -71.45663, -39.3698 ], [ -71.45683, -39.37001 ], [ -71.45697, -39.37059 ], [ -71.4569, -39.37132 ], [ -71.45725, -39.3723 ], [ -71.4572, -39.3739 ], [ -71.4579, -39.37595 ], [ -71.4576, -39.37739 ], [ -71.45627, -39.37996 ], [ -71.45527, -39.38242 ], [ -71.45395, -39.38893 ], [ -71.45397, -39.38924 ], [ -71.45446, -39.38988 ], [ -71.45443, -39.39014 ], [ -71.45404, -39.39061 ], [ -71.4525, -39.39176 ], [ -71.44953, -39.39481 ], [ -71.44686, -39.39588 ], [ -71.44598, -39.3968 ], [ -71.44498, -39.39965 ], [ -71.44425, -39.40109 ], [ -71.44446, -39.40182 ], [ -71.44449, -39.40367 ], [ -71.44544, -39.40611 ], [ -71.445, -39.4082 ], [ -71.44577, -39.40919 ], [ -71.4467, -39.40949 ], [ -71.44821, -39.40957 ], [ -71.45201, -39.40914 ], [ -71.45311, -39.4095 ], [ -71.45358, -39.40981 ], [ -71.45421, -39.4106 ], [ -71.45525, -39.41258 ], [ -71.45555, -39.41268 ], [ -71.45762, -39.41248 ], [ -71.45857, -39.4127 ], [ -71.46045, -39.41363 ], [ -71.46086, -39.41401 ], [ -71.46104, -39.41444 ], [ -71.46102, -39.41585 ], [ -71.46303, -39.41766 ], [ -71.47568, -39.41884 ], [ -71.47621, -39.41576 ], [ -71.4764, -39.41364 ], [ -71.47698, -39.41174 ], [ -71.4771, -39.41096 ], [ -71.47698, -39.41014 ], [ -71.47713, -39.40965 ], [ -71.47795, -39.40845 ], [ -71.47346, -39.4061 ], [ -71.46847, -39.3997 ], [ -71.46909, -39.399 ], [ -71.46965, -39.39907 ], [ -71.47407, -39.40018 ], [ -71.47599, -39.40092 ], [ -71.47773, -39.40124 ], [ -71.47877, -39.39862 ], [ -71.47976, -39.39893 ], [ -71.48275, -39.39852 ], [ -71.48414, -39.39986 ], [ -71.48503, -39.39914 ], [ -71.48694, -39.39679 ], [ -71.48677, -39.39614 ], [ -71.48633, -39.39578 ], [ -71.48635, -39.39513 ], [ -71.48611, -39.39469 ], [ -71.48501, -39.39351 ], [ -71.48625, -39.39292 ], [ -71.48754, -39.39197 ], [ -71.4878, -39.39148 ], [ -71.48719, -39.3898 ], [ -71.48828, -39.38896 ], [ -71.49073, -39.38891 ], [ -71.49248, -39.38965 ], [ -71.49411, -39.38913 ], [ -71.49498, -39.38919 ], [ -71.49643, -39.38891 ], [ -71.49673, -39.38838 ], [ -71.49767, -39.38744 ], [ -71.49787, -39.38693 ], [ -71.49763, -39.38614 ], [ -71.49828, -39.38577 ], [ -71.50053, -39.38605 ], [ -71.50131, -39.3858 ], [ -71.50234, -39.38593 ], [ -71.50505, -39.38448 ], [ -71.50622, -39.38358 ], [ -71.50649, -39.38393 ], [ -71.50959, -39.38564 ], [ -71.50949, -39.38592 ], [ -71.5102, -39.38597 ], [ -71.51122, -39.38653 ], [ -71.51289, -39.38882 ], [ -71.52439, -39.38928 ], [ -71.52555, -39.38875 ], [ -71.52837, -39.38578 ], [ -71.53009, -39.38643 ], [ -71.5316, -39.38746 ], [ -71.53215, -39.38716 ], [ -71.53218, -39.38653 ], [ -71.53206, -39.38572 ], [ -71.53107, -39.38471 ], [ -71.531, -39.38403 ], [ -71.52568, -39.38067 ], [ -71.52445, -39.37949 ], [ -71.52361, -39.37801 ], [ -71.52318, -39.37786 ], [ -71.52315, -39.37728 ], [ -71.52247, -39.37526 ], [ -71.52117, -39.37524 ], [ -71.52055, -39.37568 ], [ -71.5193, -39.37606 ], [ -71.51857, -39.37735 ], [ -71.51827, -39.37748 ], [ -71.51788, -39.37854 ], [ -71.51667, -39.37871 ], [ -71.51529, -39.3793 ], [ -71.51396, -39.37924 ], [ -71.51262, -39.37959 ], [ -71.51199, -39.38032 ], [ -71.51197, -39.38059 ], [ -71.51133, -39.38053 ], [ -71.50944, -39.37977 ], [ -71.50656, -39.38082 ], [ -71.50441, -39.38094 ], [ -71.50265, -39.38139 ], [ -71.50161, -39.38142 ], [ -71.50053, -39.38125 ], [ -71.49877, -39.38059 ], [ -71.49741, -39.37808 ], [ -71.49735, -39.37982 ], [ -71.49614, -39.38163 ], [ -71.49542, -39.38226 ], [ -71.494, -39.38301 ], [ -71.49208, -39.38375 ], [ -71.48979, -39.38407 ], [ -71.48698, -39.38508 ], [ -71.48599, -39.38525 ], [ -71.48517, -39.38507 ], [ -71.48324, -39.38562 ], [ -71.48288, -39.38585 ], [ -71.48192, -39.38598 ], [ -71.47949, -39.38373 ], [ -71.47777, -39.38179 ], [ -71.47907, -39.38094 ], [ -71.4836, -39.37969 ], [ -71.48408, -39.3798 ], [ -71.48465, -39.37964 ], [ -71.4857, -39.37902 ], [ -71.4864, -39.37807 ], [ -71.48559, -39.37531 ], [ -71.48493, -39.37447 ], [ -71.48467, -39.37433 ], [ -71.48425, -39.3744 ], [ -71.48424, -39.3741 ], [ -71.4845, -39.3738 ], [ -71.48448, -39.37338 ], [ -71.48375, -39.37082 ], [ -71.48341, -39.36735 ], [ -71.48342, -39.36673 ], [ -71.48368, -39.36638 ], [ -71.4844, -39.36602 ], [ -71.48502, -39.36545 ], [ -71.48474, -39.36424 ], [ -71.48551, -39.36199 ], [ -71.48505, -39.35975 ], [ -71.48501, -39.35798 ], [ -71.47984, -39.36057 ], [ -71.46111, -39.35784 ], [ -71.45985, -39.3564 ], [ -71.45927, -39.35459 ], [ -71.45965, -39.35439 ], [ -71.46118, -39.35458 ], [ -71.46426, -39.35422 ], [ -71.46645, -39.35414 ], [ -71.46747, -39.35426 ], [ -71.46798, -39.35454 ], [ -71.47043, -39.35465 ], [ -71.47183, -39.35499 ], [ -71.47177, -39.35342 ], [ -71.47251, -39.35297 ], [ -71.47311, -39.35231 ], [ -71.47478, -39.3512 ], [ -71.45486, -39.35071 ], [ -71.456, -39.34978 ], [ -71.45629, -39.34931 ], [ -71.45711, -39.34499 ], [ -71.45776, -39.34276 ], [ -71.4612, -39.3419 ], [ -71.46124, -39.33975 ], [ -71.46063, -39.33787 ], [ -71.46253, -39.33705 ], [ -71.46401, -39.33613 ], [ -71.46839, -39.33631 ], [ -71.46856, -39.33546 ], [ -71.46844, -39.33437 ], [ -71.4688, -39.33246 ], [ -71.46874, -39.33122 ], [ -71.46585, -39.33145 ], [ -71.46421, -39.33187 ], [ -71.45744, -39.33246 ], [ -71.4574, -39.33449 ], [ -71.45785, -39.33692 ], [ -71.45835, -39.33799 ], [ -71.45681, -39.33812 ], [ -71.455, -39.33781 ], [ -71.45332, -39.33807 ], [ -71.45095, -39.33759 ], [ -71.44941, -39.33745 ], [ -71.44873, -39.33671 ], [ -71.44583, -39.33506 ], [ -71.44514, -39.33445 ], [ -71.4431, -39.33348 ], [ -71.4479, -39.32383 ], [ -71.44709, -39.32322 ], [ -71.44605, -39.32292 ], [ -71.4414, -39.32336 ], [ -71.44111, -39.32524 ], [ -71.4403, -39.32724 ], [ -71.44021, -39.32846 ], [ -71.44032, -39.32882 ], [ -71.44202, -39.32906 ], [ -71.44225, -39.32929 ], [ -71.44226, -39.3297 ], [ -71.44218, -39.33011 ], [ -71.44186, -39.33029 ], [ -71.44149, -39.33273 ], [ -71.44091, -39.33349 ], [ -71.4379, -39.33251 ], [ -71.43647, -39.33141 ], [ -71.43403, -39.32996 ], [ -71.43241, -39.32944 ], [ -71.4334, -39.32831 ], [ -71.43456, -39.3253 ], [ -71.43511, -39.3233 ], [ -71.43312, -39.32285 ], [ -71.43366, -39.32279 ], [ -71.43399, -39.32256 ], [ -71.43053, -39.32025 ], [ -71.4299, -39.31905 ], [ -71.42938, -39.31886 ], [ -71.42976, -39.31988 ], [ -71.43009, -39.32175 ], [ -71.43, -39.32262 ], [ -71.43243, -39.3249 ], [ -71.42855, -39.33603 ], [ -71.42831, -39.33638 ], [ -71.42684, -39.33679 ], [ -71.42709, -39.33729 ], [ -71.4279, -39.33807 ], [ -71.4293, -39.33863 ], [ -71.43014, -39.33965 ], [ -71.43111, -39.34 ], [ -71.43136, -39.34074 ], [ -71.43273, -39.34219 ], [ -71.43279, -39.34294 ], [ -71.43418, -39.3445 ], [ -71.43458, -39.34566 ], [ -71.43457, -39.34623 ], [ -71.4367, -39.34626 ], [ -71.43341, -39.35372 ], [ -71.42551, -39.35202 ], [ -71.42805, -39.3446 ], [ -71.42269, -39.3409 ], [ -71.4186, -39.34012 ], [ -71.4189, -39.33781 ], [ -71.41867, -39.33579 ], [ -71.41707, -39.33481 ], [ -71.41396, -39.33483 ], [ -71.41157, -39.33405 ], [ -71.41052, -39.33339 ], [ -71.40921, -39.33193 ], [ -71.40988, -39.33018 ], [ -71.41027, -39.32997 ], [ -71.41334, -39.33009 ], [ -71.41718, -39.3306 ], [ -71.41548, -39.32538 ], [ -71.41602, -39.32418 ], [ -71.41595, -39.32311 ], [ -71.41643, -39.32224 ], [ -71.41842, -39.31542 ], [ -71.41396, -39.31776 ], [ -71.41025, -39.31663 ], [ -71.40937, -39.31683 ], [ -71.40907, -39.31668 ], [ -71.40859, -39.31605 ], [ -71.40701, -39.31522 ], [ -71.40697, -39.31476 ], [ -71.40715, -39.31431 ], [ -71.40819, -39.31347 ], [ -71.40844, -39.31298 ], [ -71.40694, -39.31404 ], [ -71.40624, -39.31581 ], [ -71.40493, -39.31505 ], [ -71.40356, -39.31399 ], [ -71.40243, -39.3128 ], [ -71.39908, -39.31169 ], [ -71.40522, -39.30786 ], [ -71.40742, -39.30475 ], [ -71.39686, -39.28775 ], [ -71.40319, -39.28744 ], [ -71.40307, -39.28696 ], [ -71.40269, -39.28665 ], [ -71.40287, -39.28575 ], [ -71.40276, -39.28542 ], [ -71.40331, -39.28435 ], [ -71.40205, -39.2835 ], [ -71.4019, -39.28187 ], [ -71.40756, -39.28204 ], [ -71.40744, -39.28426 ], [ -71.40752, -39.28474 ], [ -71.40809, -39.28564 ], [ -71.40928, -39.28586 ], [ -71.41269, -39.28578 ], [ -71.414, -39.28547 ], [ -71.41671, -39.27301 ], [ -71.42019, -39.27543 ], [ -71.42207, -39.27643 ], [ -71.42289, -39.27662 ], [ -71.42438, -39.27661 ], [ -71.42535, -39.27688 ], [ -71.4265, -39.27743 ], [ -71.4288, -39.27443 ], [ -71.42913, -39.27253 ], [ -71.42917, -39.2711 ], [ -71.42956, -39.26968 ], [ -71.43223, -39.26982 ], [ -71.43182, -39.26954 ], [ -71.43116, -39.26859 ], [ -71.43027, -39.26645 ], [ -71.42969, -39.26563 ], [ -71.42964, -39.26514 ], [ -71.43005, -39.26334 ], [ -71.42927, -39.26113 ], [ -71.4293, -39.25967 ], [ -71.4214, -39.26113 ], [ -71.41985, -39.25768 ], [ -71.41544, -39.26175 ], [ -71.4124, -39.25579 ], [ -71.41345, -39.25592 ], [ -71.41508, -39.2558 ], [ -71.41906, -39.25454 ], [ -71.41949, -39.25415 ], [ -71.42112, -39.25353 ], [ -71.42141, -39.25321 ], [ -71.42246, -39.253 ], [ -71.424, -39.25345 ], [ -71.42575, -39.25326 ], [ -71.42804, -39.25188 ], [ -71.42836, -39.25148 ], [ -71.42924, -39.25109 ], [ -71.42933, -39.25086 ], [ -71.43114, -39.25035 ], [ -71.4307, -39.24958 ], [ -71.43078, -39.24869 ], [ -71.43182, -39.24548 ], [ -71.43289, -39.24133 ], [ -71.43317, -39.23803 ], [ -71.43418, -39.23625 ], [ -71.4336, -39.23543 ], [ -71.43376, -39.23502 ], [ -71.43368, -39.23421 ], [ -71.43387, -39.23358 ], [ -71.43262, -39.23306 ], [ -71.43164, -39.23306 ], [ -71.4299, -39.23391 ], [ -71.43029, -39.23396 ], [ -71.4305, -39.23471 ], [ -71.42968, -39.23817 ], [ -71.42933, -39.24137 ], [ -71.4289, -39.24255 ], [ -71.42794, -39.24339 ], [ -71.42637, -39.24414 ], [ -71.42485, -39.24451 ], [ -71.42164, -39.24479 ], [ -71.41969, -39.24458 ], [ -71.41586, -39.24617 ], [ -71.41559, -39.24811 ], [ -71.41405, -39.24834 ], [ -71.40696, -39.23704 ], [ -71.40919, -39.2328 ], [ -71.41562, -39.23344 ], [ -71.4163, -39.22662 ], [ -71.41931, -39.22611 ], [ -71.42213, -39.21091 ], [ -71.4191, -39.21087 ], [ -71.41231, -39.20629 ], [ -71.41616, -39.19875 ], [ -71.41894, -39.19793 ], [ -71.42287, -39.19722 ], [ -71.42512, -39.19866 ], [ -71.42721, -39.19957 ], [ -71.43077, -39.19958 ], [ -71.43288, -39.20036 ], [ -71.43481, -39.19925 ], [ -71.43638, -39.19921 ], [ -71.43955, -39.19858 ], [ -71.44148, -39.19871 ], [ -71.44377, -39.19828 ], [ -71.44569, -39.19829 ], [ -71.44558, -39.19798 ], [ -71.45437, -39.1904 ], [ -71.45241, -39.18932 ], [ -71.45701, -39.18465 ], [ -71.44943, -39.17902 ], [ -71.44894, -39.17735 ], [ -71.44896, -39.17522 ], [ -71.44869, -39.17451 ], [ -71.44815, -39.17392 ], [ -71.44604, -39.17321 ], [ -71.44031, -39.16904 ], [ -71.44518, -39.16659 ], [ -71.44645, -39.16617 ], [ -71.44936, -39.16916 ], [ -71.45189, -39.16764 ], [ -71.45257, -39.16706 ], [ -71.45309, -39.16692 ], [ -71.45511, -39.16526 ], [ -71.45611, -39.1639 ], [ -71.45742, -39.1625 ], [ -71.45859, -39.16223 ], [ -71.45905, -39.16191 ], [ -71.45951, -39.16152 ], [ -71.46019, -39.15982 ], [ -71.46049, -39.15959 ], [ -71.46094, -39.15959 ], [ -71.46228, -39.16014 ], [ -71.46365, -39.16126 ], [ -71.46388, -39.16166 ], [ -71.46565, -39.16249 ], [ -71.46609, -39.1631 ], [ -71.46674, -39.16327 ], [ -71.46717, -39.16372 ], [ -71.47199, -39.16048 ], [ -71.47454, -39.15644 ], [ -71.47662, -39.15207 ], [ -71.48114, -39.15182 ], [ -71.49028, -39.1507 ], [ -71.49023, -39.14839 ], [ -71.48981, -39.14666 ], [ -71.48965, -39.14473 ], [ -71.49001, -39.14423 ], [ -71.49061, -39.1439 ], [ -71.49123, -39.14311 ], [ -71.49114, -39.14208 ], [ -71.49018, -39.14033 ], [ -71.48918, -39.13979 ], [ -71.4893, -39.13951 ], [ -71.48825, -39.13891 ], [ -71.48611, -39.13827 ], [ -71.48558, -39.13789 ], [ -71.48556, -39.13683 ], [ -71.48597, -39.13641 ], [ -71.48619, -39.13587 ], [ -71.48622, -39.13538 ], [ -71.48598, -39.13494 ], [ -71.48102, -39.13343 ], [ -71.481, -39.13231 ], [ -71.48107, -39.13193 ], [ -71.48139, -39.13151 ], [ -71.48139, -39.13096 ], [ -71.4812, -39.13051 ], [ -71.48041, -39.12981 ], [ -71.48009, -39.12912 ], [ -71.47999, -39.12664 ], [ -71.47943, -39.12528 ], [ -71.47722, -39.12296 ], [ -71.47579, -39.12255 ], [ -71.474, -39.12167 ], [ -71.47349, -39.12113 ], [ -71.47307, -39.11993 ], [ -71.47182, -39.11835 ], [ -71.47095, -39.11663 ], [ -71.47085, -39.11503 ], [ -71.47061, -39.11469 ], [ -71.47185, -39.11323 ], [ -71.47213, -39.11266 ], [ -71.47212, -39.11236 ], [ -71.47103, -39.11063 ], [ -71.4707, -39.10924 ], [ -71.47059, -39.10772 ], [ -71.47036, -39.10745 ], [ -71.46669, -39.10746 ], [ -71.46502, -39.10798 ], [ -71.46396, -39.10789 ], [ -71.46321, -39.10764 ], [ -71.46179, -39.10798 ], [ -71.46078, -39.10779 ], [ -71.45976, -39.10802 ], [ -71.45977, -39.10767 ], [ -71.45956, -39.10776 ], [ -71.45891, -39.10749 ], [ -71.45855, -39.10766 ], [ -71.45798, -39.10836 ], [ -71.45679, -39.10901 ], [ -71.45567, -39.10926 ], [ -71.45427, -39.10921 ], [ -71.45274, -39.10958 ], [ -71.44988, -39.11136 ], [ -71.44896, -39.11235 ], [ -71.44864, -39.11233 ], [ -71.44736, -39.11289 ], [ -71.44703, -39.11286 ], [ -71.44546, -39.11343 ], [ -71.44512, -39.11365 ], [ -71.44502, -39.11452 ], [ -71.4447, -39.11501 ], [ -71.4441, -39.11549 ], [ -71.44259, -39.11619 ], [ -71.44178, -39.11701 ], [ -71.4398, -39.11795 ], [ -71.43945, -39.1184 ], [ -71.43844, -39.11863 ], [ -71.43757, -39.11848 ], [ -71.43572, -39.11884 ], [ -71.43526, -39.1191 ], [ -71.4326, -39.11909 ], [ -71.43172, -39.11888 ], [ -71.426, -39.10101 ], [ -71.42743, -39.09977 ], [ -71.43152, -39.09459 ], [ -71.43372, -39.09306 ], [ -71.44411, -39.0958 ], [ -71.44897, -39.08221 ], [ -71.44716, -39.0817 ], [ -71.45106, -39.07358 ], [ -71.4537, -39.07423 ], [ -71.46167, -39.05418 ], [ -71.46151, -39.03992 ], [ -71.46996, -39.04101 ], [ -71.46994, -39.04014 ], [ -71.46966, -39.03985 ], [ -71.46983, -39.03923 ], [ -71.46977, -39.03796 ], [ -71.46961, -39.03779 ], [ -71.47803, -39.03848 ], [ -71.48999, -39.05666 ], [ -71.49193, -39.05902 ], [ -71.49668, -39.05528 ], [ -71.50032, -39.05296 ], [ -71.50141, -39.05448 ], [ -71.50291, -39.05582 ], [ -71.5058, -39.05533 ], [ -71.50557, -39.05464 ], [ -71.50574, -39.05296 ], [ -71.50685, -39.05224 ], [ -71.50672, -39.05139 ], [ -71.50593, -39.05069 ], [ -71.50587, -39.05032 ], [ -71.5069, -39.04809 ], [ -71.50684, -39.04752 ], [ -71.5052, -39.0453 ], [ -71.50434, -39.04302 ], [ -71.50291, -39.04122 ], [ -71.50234, -39.03988 ], [ -71.50631, -39.03892 ], [ -71.50826, -39.03814 ], [ -71.50923, -39.03795 ], [ -71.51916, -39.03274 ], [ -71.52255, -39.0332 ], [ -71.52334, -39.03509 ], [ -71.52474, -39.03528 ], [ -71.52368, -39.04295 ], [ -71.5276, -39.04354 ], [ -71.53981, -39.04373 ], [ -71.5397, -39.04403 ], [ -71.53986, -39.04428 ], [ -71.53965, -39.04473 ], [ -71.54018, -39.0455 ], [ -71.53963, -39.04584 ], [ -71.53948, -39.04661 ], [ -71.53801, -39.04741 ], [ -71.53704, -39.04886 ], [ -71.54436, -39.05105 ], [ -71.5448, -39.04958 ], [ -71.54553, -39.04563 ], [ -71.5463, -39.04509 ], [ -71.55043, -39.04497 ] ] ] } },
{ "type": "Feature", "properties": { "nombre": "Parque Nacional Huerquehue", "categoria": "Parque Nacional", "region": "Araucania", "superficie_ha": "12500", "decreto": "NÂ° 347 de 1967; NÂ° 82 de 1985" }, "geometry": { "type": "Polygon", "coordinates": [ [ [ -71.66617, -39.06563 ], [ -71.65713, -39.06948 ], [ -71.65572, -39.07046 ], [ -71.65384, -39.07343 ], [ -71.6449, -39.07375 ], [ -71.63811, -39.0821 ], [ -71.63104, -39.08487 ], [ -71.62387, -39.10125 ], [ -71.64593, -39.10865 ], [ -71.64274, -39.11786 ], [ -71.62589, -39.11363 ], [ -71.60729, -39.11506 ], [ -71.59302, -39.11633 ], [ -71.56966, -39.12026 ], [ -71.56875, -39.13289 ], [ -71.56831, -39.14147 ], [ -71.5948, -39.13886 ], [ -71.60529, -39.13762 ], [ -71.62212, -39.14363 ], [ -71.61072, -39.15496 ], [ -71.60387, -39.16214 ], [ -71.60336, -39.18003 ], [ -71.60786, -39.18499 ], [ -71.61189, -39.18506 ], [ -71.61579, -39.17938 ], [ -71.62129, -39.18581 ], [ -71.61618, -39.1954 ], [ -71.61685, -39.19592 ], [ -71.63015, -39.20221 ], [ -71.63344, -39.20065 ], [ -71.64532, -39.20725 ], [ -71.64754, -39.21167 ], [ -71.64838, -39.21229 ], [ -71.66468, -39.20899 ], [ -71.66103, -39.20246 ], [ -71.6581, -39.19788 ], [ -71.6545, -39.19182 ], [ -71.65469, -39.18257 ], [ -71.66814, -39.16956 ], [ -71.67555, -39.16928 ], [ -71.68025, -39.17174 ], [ -71.6804, -39.17197 ], [ -71.70004, -39.18069 ], [ -71.70555, -39.18057 ], [ -71.71279, -39.18743 ], [ -71.7145, -39.18817 ], [ -71.71603, -39.18813 ], [ -71.72317, -39.18659 ], [ -71.72646, -39.18848 ], [ -71.72886, -39.18908 ], [ -71.72946, -39.18877 ], [ -71.72936, -39.18406 ], [ -71.72969, -39.17672 ], [ -71.72803, -39.1736 ], [ -71.72619, -39.1715 ], [ -71.72399, -39.16797 ], [ -71.72449, -39.16707 ], [ -71.72544, -39.16591 ], [ -71.72282, -39.16365 ], [ -71.72196, -39.16313 ], [ -71.72155, -39.16231 ], [ -71.72107, -39.1619 ], [ -71.7196, -39.1614 ], [ -71.71858, -39.16083 ], [ -71.71667, -39.15908 ], [ -71.71608, -39.15945 ], [ -71.71481, -39.16097 ], [ -71.71324, -39.16179 ], [ -71.71048, -39.16388 ], [ -71.70821, -39.16459 ], [ -71.70752, -39.1646 ], [ -71.70698, -39.16438 ], [ -71.70163, -39.1527 ], [ -71.71401, -39.14597 ], [ -71.71758, -39.14726 ], [ -71.71945, -39.14829 ], [ -71.73814, -39.15614 ], [ -71.73898, -39.15612 ], [ -71.74499, -39.15323 ], [ -71.74227, -39.1284 ], [ -71.74389, -39.12682 ], [ -71.73599, -39.11448 ], [ -71.72062, -39.11484 ], [ -71.71022, -39.11526 ], [ -71.69761, -39.1155 ], [ -71.69303, -39.11578 ], [ -71.68675, -39.11569 ], [ -71.6859, -39.11559 ], [ -71.68543, -39.11536 ], [ -71.68415, -39.10579 ], [ -71.68903, -39.09727 ], [ -71.69163, -39.0993 ], [ -71.6941, -39.10186 ], [ -71.6958, -39.10224 ], [ -71.69788, -39.10312 ], [ -71.70745, -39.10483 ], [ -71.71529, -39.10173 ], [ -71.71867, -39.1001 ], [ -71.72139, -39.09914 ], [ -71.72319, -39.09821 ], [ -71.72804, -39.09291 ], [ -71.71974, -39.08416 ], [ -71.71886, -39.08375 ], [ -71.71886, -39.08344 ], [ -71.70674, -39.07808 ], [ -71.69153, -39.07056 ], [ -71.68266, -39.06654 ], [ -71.6718, -39.06303 ], [ -71.66617, -39.06563 ] ] ] } },
{ "type": "Feature", "properties": { "nombre": "Reserva Nacional China Muerta", "categoria": "Reserva Nacional", "region": "Araucania", "superficie_ha": "9887", "decreto": "NÂ° 330 de 1968" }, "geometry": { "type": "MultiPolygon", "coordinates": [ [ [ [ -71.46546, -38.82859 ], [ -71.46608, -38.82816 ], [ -71.46593, -38.82825 ], [ -71.46546, -38.82859 ] ] ], [ [ [ -71.58854, -38.78546 ], [ -71.58987, -38.78312 ], [ -71.5907, -38.78233 ], [ -71.59109, -38.78169 ], [ -71.59162, -38.78139 ], [ -71.59332, -38.7815 ], [ -71.59453, -38.78255 ], [ -71.59631, -38.78377 ], [ -71.59925, -38.78466 ], [ -71.60139, -38.78675 ], [ -71.60271, -38.78729 ], [ -71.6052, -38.78708 ], [ -71.60688, -38.78743 ], [ -71.60855, -38.78658 ], [ -71.61026, -38.78654 ], [ -71.61121, -38.78524 ], [ -71.61206, -38.78486 ], [ -71.61218, -38.78439 ], [ -71.61245, -38.78428 ], [ -71.61706, -38.784 ], [ -71.61405, -38.78291 ], [ -71.61369, -38.78255 ], [ -71.61292, -38.78226 ], [ -71.60954, -38.77924 ], [ -71.59355, -38.76885 ], [ -71.59325, -38.76805 ], [ -71.59118, -38.76781 ], [ -71.58752, -38.76827 ], [ -71.58549, -38.76811 ], [ -71.58373, -38.76841 ], [ -71.58007, -38.76818 ], [ -71.57894, -38.76832 ], [ -71.57489, -38.76937 ], [ -71.57106, -38.77211 ], [ -71.56958, -38.77289 ], [ -71.56793, -38.77335 ], [ -71.56419, -38.77647 ], [ -71.5631, -38.77698 ], [ -71.56024, -38.77916 ], [ -71.5566, -38.78079 ], [ -71.55655, -38.77982 ], [ -71.54063, -38.7857 ], [ -71.53288, -38.78784 ], [ -71.5208, -38.79082 ], [ -71.51017, -38.79081 ], [ -71.509, -38.78714 ], [ -71.51355, -38.78632 ], [ -71.51431, -38.7859 ], [ -71.51492, -38.78499 ], [ -71.51548, -38.78455 ], [ -71.51641, -38.78468 ], [ -71.51766, -38.78397 ], [ -71.51855, -38.78388 ], [ -71.51949, -38.7835 ], [ -71.52321, -38.78353 ], [ -71.52109, -38.78113 ], [ -71.52023, -38.77993 ], [ -71.51957, -38.77936 ], [ -71.51723, -38.77663 ], [ -71.51447, -38.77421 ], [ -71.51508, -38.7734 ], [ -71.51716, -38.77154 ], [ -71.51784, -38.76961 ], [ -71.51983, -38.7683 ], [ -71.5215, -38.7667 ], [ -71.5183, -38.76452 ], [ -71.51417, -38.76329 ], [ -71.51043, -38.75426 ], [ -71.50997, -38.75347 ], [ -71.50476, -38.75611 ], [ -71.50388, -38.75667 ], [ -71.50247, -38.75789 ], [ -71.50174, -38.75796 ], [ -71.50068, -38.75838 ], [ -71.49512, -38.76187 ], [ -71.49263, -38.76253 ], [ -71.491, -38.76241 ], [ -71.49015, -38.76196 ], [ -71.48973, -38.76161 ], [ -71.48762, -38.75839 ], [ -71.48645, -38.75756 ], [ -71.48569, -38.75744 ], [ -71.4826, -38.75757 ], [ -71.47981, -38.75738 ], [ -71.47901, -38.75755 ], [ -71.47815, -38.75797 ], [ -71.47787, -38.75839 ], [ -71.47754, -38.76172 ], [ -71.47641, -38.76437 ], [ -71.47652, -38.76598 ], [ -71.4773, -38.76669 ], [ -71.4777, -38.76728 ], [ -71.47787, -38.76787 ], [ -71.47781, -38.76852 ], [ -71.47749, -38.76924 ], [ -71.47646, -38.77021 ], [ -71.47549, -38.77064 ], [ -71.47267, -38.77101 ], [ -71.46938, -38.77236 ], [ -71.46849, -38.77287 ], [ -71.46718, -38.77387 ], [ -71.4667, -38.77457 ], [ -71.46636, -38.77587 ], [ -71.46566, -38.77673 ], [ -71.46311, -38.77832 ], [ -71.46128, -38.77919 ], [ -71.45971, -38.77959 ], [ -71.45816, -38.77971 ], [ -71.45148, -38.77991 ], [ -71.44947, -38.77971 ], [ -71.44856, -38.78001 ], [ -71.44751, -38.78082 ], [ -71.44628, -38.78102 ], [ -71.44452, -38.78192 ], [ -71.44279, -38.78194 ], [ -71.44174, -38.78147 ], [ -71.44051, -38.78196 ], [ -71.44034, -38.78298 ], [ -71.44212, -38.78453 ], [ -71.44209, -38.78511 ], [ -71.44252, -38.78612 ], [ -71.44241, -38.78744 ], [ -71.4421, -38.78824 ], [ -71.44228, -38.78969 ], [ -71.44171, -38.79157 ], [ -71.44174, -38.7925 ], [ -71.44107, -38.7994 ], [ -71.44266, -38.79938 ], [ -71.44419, -38.79901 ], [ -71.4452, -38.80004 ], [ -71.43703, -38.80889 ], [ -71.43651, -38.80957 ], [ -71.43517, -38.81225 ], [ -71.43346, -38.81597 ], [ -71.43497, -38.81691 ], [ -71.43509, -38.81715 ], [ -71.43553, -38.81728 ], [ -71.43516, -38.81773 ], [ -71.43495, -38.81949 ], [ -71.43497, -38.82386 ], [ -71.43489, -38.82412 ], [ -71.43305, -38.82614 ], [ -71.43629, -38.8282 ], [ -71.43974, -38.8291 ], [ -71.44059, -38.82953 ], [ -71.44202, -38.8299 ], [ -71.44381, -38.82986 ], [ -71.44571, -38.83014 ], [ -71.44647, -38.83061 ], [ -71.44743, -38.83074 ], [ -71.44798, -38.83099 ], [ -71.44954, -38.83117 ], [ -71.45209, -38.83084 ], [ -71.4534, -38.831 ], [ -71.45675, -38.83032 ], [ -71.46092, -38.83024 ], [ -71.46239, -38.8304 ], [ -71.46228, -38.83284 ], [ -71.46286, -38.83287 ], [ -71.4634, -38.83286 ], [ -71.46332, -38.83229 ], [ -71.46397, -38.83123 ], [ -71.46402, -38.83077 ], [ -71.46352, -38.8297 ], [ -71.4636, -38.82919 ], [ -71.46502, -38.82875 ], [ -71.46593, -38.82825 ], [ -71.46596, -38.82822 ], [ -71.46608, -38.82816 ], [ -71.46661, -38.82795 ], [ -71.46715, -38.8275 ], [ -71.46739, -38.82751 ], [ -71.46886, -38.82803 ], [ -71.46949, -38.82795 ], [ -71.47675, -38.83172 ], [ -71.47689, -38.83207 ], [ -71.47766, -38.83252 ], [ -71.47849, -38.83167 ], [ -71.48021, -38.82934 ], [ -71.48229, -38.8271 ], [ -71.48245, -38.82615 ], [ -71.48396, -38.82399 ], [ -71.48399, -38.82342 ], [ -71.48426, -38.82279 ], [ -71.48425, -38.82266 ], [ -71.48372, -38.82249 ], [ -71.4833, -38.82192 ], [ -71.48181, -38.81958 ], [ -71.48131, -38.81853 ], [ -71.48087, -38.81691 ], [ -71.48107, -38.81566 ], [ -71.48404, -38.81389 ], [ -71.49429, -38.80934 ], [ -71.49417, -38.80716 ], [ -71.49502, -38.80187 ], [ -71.49608, -38.80088 ], [ -71.49806, -38.80024 ], [ -71.50483, -38.80005 ], [ -71.51068, -38.79778 ], [ -71.51214, -38.79739 ], [ -71.51422, -38.79835 ], [ -71.51543, -38.80667 ], [ -71.52344, -38.81699 ], [ -71.51693, -38.81917 ], [ -71.50658, -38.82078 ], [ -71.50626, -38.82072 ], [ -71.50594, -38.81971 ], [ -71.50545, -38.81913 ], [ -71.50512, -38.8189 ], [ -71.50413, -38.8188 ], [ -71.50281, -38.8196 ], [ -71.50217, -38.82038 ], [ -71.50118, -38.82076 ], [ -71.49594, -38.82877 ], [ -71.49456, -38.83273 ], [ -71.49439, -38.83402 ], [ -71.49214, -38.83367 ], [ -71.49091, -38.83326 ], [ -71.49027, -38.83329 ], [ -71.48905, -38.83477 ], [ -71.48855, -38.83563 ], [ -71.48817, -38.8368 ], [ -71.48829, -38.83782 ], [ -71.487, -38.83747 ], [ -71.48678, -38.84046 ], [ -71.48712, -38.84043 ], [ -71.48711, -38.84125 ], [ -71.48751, -38.84257 ], [ -71.49477, -38.83887 ], [ -71.49514, -38.83889 ], [ -71.49589, -38.83929 ], [ -71.4991, -38.84126 ], [ -71.49954, -38.8413 ], [ -71.51506, -38.83787 ], [ -71.51506, -38.8375 ], [ -71.51424, -38.83588 ], [ -71.51304, -38.83397 ], [ -71.51312, -38.83203 ], [ -71.51289, -38.83087 ], [ -71.51392, -38.8257 ], [ -71.51698, -38.82056 ], [ -71.52779, -38.82365 ], [ -71.52737, -38.82707 ], [ -71.52742, -38.82892 ], [ -71.52757, -38.8294 ], [ -71.52897, -38.83104 ], [ -71.52794, -38.83189 ], [ -71.52617, -38.83393 ], [ -71.52476, -38.83501 ], [ -71.52401, -38.83589 ], [ -71.52457, -38.83592 ], [ -71.52869, -38.83524 ], [ -71.53058, -38.84175 ], [ -71.53416, -38.84116 ], [ -71.53222, -38.83464 ], [ -71.53595, -38.83405 ], [ -71.53651, -38.83384 ], [ -71.53661, -38.83337 ], [ -71.53682, -38.83323 ], [ -71.54161, -38.83243 ], [ -71.54268, -38.83357 ], [ -71.54463, -38.8347 ], [ -71.54526, -38.83633 ], [ -71.55361, -38.83503 ], [ -71.55305, -38.83284 ], [ -71.55299, -38.83175 ], [ -71.55389, -38.82993 ], [ -71.55595, -38.82818 ], [ -71.55779, -38.82943 ], [ -71.55821, -38.82941 ], [ -71.55833, -38.82894 ], [ -71.55894, -38.82903 ], [ -71.5594, -38.82956 ], [ -71.55963, -38.83021 ], [ -71.55986, -38.83092 ], [ -71.55949, -38.83153 ], [ -71.55921, -38.83253 ], [ -71.55953, -38.83574 ], [ -71.55905, -38.83699 ], [ -71.56552, -38.83396 ], [ -71.56788, -38.83422 ], [ -71.56938, -38.83386 ], [ -71.56954, -38.83343 ], [ -71.56951, -38.83205 ], [ -71.56894, -38.83055 ], [ -71.56844, -38.82994 ], [ -71.57582, -38.82784 ], [ -71.57746, -38.8275 ], [ -71.57802, -38.82915 ], [ -71.57838, -38.82915 ], [ -71.59949, -38.82612 ], [ -71.60076, -38.82528 ], [ -71.60181, -38.82434 ], [ -71.60135, -38.82402 ], [ -71.6045, -38.82057 ], [ -71.60725, -38.81789 ], [ -71.6105, -38.8166 ], [ -71.6117, -38.81678 ], [ -71.61254, -38.81656 ], [ -71.61377, -38.81734 ], [ -71.61454, -38.8176 ], [ -71.61828, -38.81589 ], [ -71.62126, -38.81438 ], [ -71.62157, -38.81409 ], [ -71.62039, -38.81252 ], [ -71.6196, -38.81225 ], [ -71.61844, -38.8114 ], [ -71.61756, -38.80998 ], [ -71.61592, -38.80948 ], [ -71.61515, -38.80946 ], [ -71.61389, -38.80979 ], [ -71.61217, -38.81077 ], [ -71.60929, -38.81088 ], [ -71.60533, -38.81127 ], [ -71.60375, -38.81125 ], [ -71.60268, -38.8108 ], [ -71.60199, -38.8108 ], [ -71.60035, -38.81116 ], [ -71.59928, -38.81197 ], [ -71.59743, -38.81291 ], [ -71.59664, -38.81313 ], [ -71.59424, -38.81331 ], [ -71.59193, -38.81323 ], [ -71.58875, -38.81357 ], [ -71.5873, -38.81352 ], [ -71.58703, -38.81338 ], [ -71.58539, -38.81092 ], [ -71.58511, -38.81076 ], [ -71.58274, -38.81056 ], [ -71.58171, -38.80898 ], [ -71.58431, -38.80677 ], [ -71.58479, -38.80561 ], [ -71.58515, -38.80397 ], [ -71.58456, -38.80191 ], [ -71.58393, -38.80052 ], [ -71.58383, -38.7974 ], [ -71.58372, -38.79714 ], [ -71.58024, -38.79566 ], [ -71.57888, -38.79474 ], [ -71.57839, -38.79421 ], [ -71.5782, -38.79372 ], [ -71.57832, -38.79287 ], [ -71.57907, -38.7919 ], [ -71.5792, -38.79148 ], [ -71.57895, -38.79077 ], [ -71.57824, -38.7902 ], [ -71.57802, -38.78895 ], [ -71.5794, -38.78697 ], [ -71.57962, -38.78656 ], [ -71.58011, -38.78558 ], [ -71.58276, -38.78592 ], [ -71.58355, -38.78584 ], [ -71.58493, -38.78541 ], [ -71.58854, -38.78546 ] ], [ [ -71.57977, -38.78625 ], [ -71.57985, -38.78574 ], [ -71.58011, -38.78558 ], [ -71.57977, -38.78625 ] ] ], [ [ [ -71.53873, -38.76117 ], [ -71.53856, -38.75835 ], [ -71.53642, -38.75656 ], [ -71.53557, -38.75614 ], [ -71.53245, -38.75532 ], [ -71.51992, -38.74645 ], [ -71.52463, -38.76091 ], [ -71.52496, -38.76132 ], [ -71.53251, -38.76341 ], [ -71.53361, -38.76577 ], [ -71.53772, -38.76905 ], [ -71.53796, -38.76966 ], [ -71.54074, -38.77134 ], [ -71.54481, -38.77787 ], [ -71.54437, -38.76955 ], [ -71.5418, -38.76537 ], [ -71.54051, -38.76381 ], [ -71.53873, -38.76117 ] ], [ [ -71.53174, -38.76313 ], [ -71.53231, -38.7633 ], [ -71.53251, -38.76341 ], [ -71.53174, -38.76313 ] ] ], [ [ [ -71.5036, -38.73613 ], [ -71.50281, -38.73505 ], [ -71.50219, -38.73382 ], [ -71.50182, -38.73206 ], [ -71.50071, -38.72976 ], [ -71.49612, -38.72912 ], [ -71.49549, -38.72924 ], [ -71.49517, -38.72953 ], [ -71.49488, -38.73009 ], [ -71.49474, -38.73084 ], [ -71.49482, -38.73343 ], [ -71.49452, -38.73573 ], [ -71.49417, -38.73701 ], [ -71.49426, -38.7375 ], [ -71.49727, -38.74019 ], [ -71.49791, -38.74108 ], [ -71.49947, -38.74476 ], [ -71.50258, -38.74705 ], [ -71.50443, -38.74766 ], [ -71.50657, -38.74991 ], [ -71.50935, -38.75137 ], [ -71.51264, -38.75228 ], [ -71.51992, -38.74645 ], [ -71.51584, -38.74351 ], [ -71.5036, -38.73613 ] ] ] ] } },
{ "type": "Feature", "properties": { "nombre": "Parque Nacional Conguillio", "categoria": "Parque Nacional", "region": "Araucania", "superficie_ha": "60832,8", "decreto": "NÂ° 1117 de 1950; NÂ° 271 de 1970; NÂ° 131 de 1987; NÂ° 133 de 1989" }, "geometry": { "type": "MultiPolygon", "coordinates": [ [ [ [ -71.52727, -38.69897 ], [ -71.52781, -38.6995 ], [ -71.52722, -38.69876 ], [ -71.52727, -38.69897 ] ] ], [ [ [ -71.61722, -38.55607 ], [ -71.61866, -38.5522 ], [ -71.62204, -38.5476 ], [ -71.62225, -38.54546 ], [ -71.62214, -38.54403 ], [ -71.62125, -38.5436 ], [ -71.61432, -38.5423 ], [ -71.61396, -38.54238 ], [ -71.61052, -38.54153 ], [ -71.60591, -38.53908 ], [ -71.60576, -38.53559 ], [ -71.60733, -38.53241 ], [ -71.60872, -38.53089 ], [ -71.60685, -38.52967 ], [ -71.60594, -38.52868 ], [ -71.60568, -38.52702 ], [ -71.60562, -38.52504 ], [ -71.60188, -38.52469 ], [ -71.59959, -38.52714 ], [ -71.59817, -38.52769 ], [ -71.59528, -38.52819 ], [ -71.59554, -38.52861 ], [ -71.59611, -38.52904 ], [ -71.59762, -38.52971 ], [ -71.59711, -38.53376 ], [ -71.5938, -38.53703 ], [ -71.59343, -38.53708 ], [ -71.59183, -38.53856 ], [ -71.59157, -38.53837 ], [ -71.58885, -38.53404 ], [ -71.58865, -38.53396 ], [ -71.58265, -38.53522 ], [ -71.58207, -38.53517 ], [ -71.58201, -38.53376 ], [ -71.58185, -38.53347 ], [ -71.58091, -38.53261 ], [ -71.58048, -38.53155 ], [ -71.57875, -38.52998 ], [ -71.57851, -38.52884 ], [ -71.57871, -38.52626 ], [ -71.57843, -38.52566 ], [ -71.5782, -38.52536 ], [ -71.57593, -38.52589 ], [ -71.57508, -38.52217 ], [ -71.56138, -38.52089 ], [ -71.56191, -38.52262 ], [ -71.56256, -38.52233 ], [ -71.56337, -38.52325 ], [ -71.56451, -38.52671 ], [ -71.56466, -38.52766 ], [ -71.56365, -38.53049 ], [ -71.56383, -38.53199 ], [ -71.56323, -38.53234 ], [ -71.56281, -38.53312 ], [ -71.56263, -38.5348 ], [ -71.56228, -38.53564 ], [ -71.56073, -38.53738 ], [ -71.5632, -38.54019 ], [ -71.56385, -38.54073 ], [ -71.56489, -38.54288 ], [ -71.56068, -38.54545 ], [ -71.56037, -38.54611 ], [ -71.55875, -38.54754 ], [ -71.55763, -38.54818 ], [ -71.55643, -38.5483 ], [ -71.55726, -38.55165 ], [ -71.55671, -38.5517 ], [ -71.55543, -38.55108 ], [ -71.55447, -38.55107 ], [ -71.55201, -38.55178 ], [ -71.55058, -38.55269 ], [ -71.54964, -38.55305 ], [ -71.5485, -38.55288 ], [ -71.5467, -38.55366 ], [ -71.54549, -38.55182 ], [ -71.54275, -38.55144 ], [ -71.54097, -38.55056 ], [ -71.54106, -38.54903 ], [ -71.54141, -38.5486 ], [ -71.54279, -38.5456 ], [ -71.5435, -38.54456 ], [ -71.5456, -38.54298 ], [ -71.54602, -38.54216 ], [ -71.54658, -38.54231 ], [ -71.54943, -38.54002 ], [ -71.54942, -38.53955 ], [ -71.54896, -38.53888 ], [ -71.5485, -38.53775 ], [ -71.54701, -38.53553 ], [ -71.54819, -38.53495 ], [ -71.54814, -38.53474 ], [ -71.54614, -38.52809 ], [ -71.54348, -38.52051 ], [ -71.53708, -38.52041 ], [ -71.53728, -38.52161 ], [ -71.53704, -38.52382 ], [ -71.53651, -38.52529 ], [ -71.53491, -38.52722 ], [ -71.53493, -38.52961 ], [ -71.53481, -38.52996 ], [ -71.53493, -38.53082 ], [ -71.53459, -38.53277 ], [ -71.53437, -38.53312 ], [ -71.53323, -38.53402 ], [ -71.53249, -38.53514 ], [ -71.53022, -38.5346 ], [ -71.52814, -38.5348 ], [ -71.52718, -38.5347 ], [ -71.52422, -38.5337 ], [ -71.52315, -38.533 ], [ -71.52301, -38.53256 ], [ -71.52187, -38.5312 ], [ -71.5216, -38.53018 ], [ -71.51975, -38.53123 ], [ -71.51982, -38.53159 ], [ -71.52046, -38.53244 ], [ -71.52064, -38.5337 ], [ -71.52184, -38.53478 ], [ -71.5223, -38.53564 ], [ -71.52499, -38.53773 ], [ -71.52549, -38.53875 ], [ -71.526, -38.53911 ], [ -71.52609, -38.53983 ], [ -71.52806, -38.54183 ], [ -71.52837, -38.54256 ], [ -71.52832, -38.54364 ], [ -71.52904, -38.54432 ], [ -71.52923, -38.54498 ], [ -71.52844, -38.54624 ], [ -71.52864, -38.54697 ], [ -71.52802, -38.5473 ], [ -71.52791, -38.60145 ], [ -71.52679, -38.6065 ], [ -71.52682, -38.60735 ], [ -71.52665, -38.60802 ], [ -71.52564, -38.60899 ], [ -71.52183, -38.61106 ], [ -71.51844, -38.61244 ], [ -71.5122, -38.61449 ], [ -71.50786, -38.61522 ], [ -71.50523, -38.61456 ], [ -71.50188, -38.61289 ], [ -71.49978, -38.61159 ], [ -71.49908, -38.61061 ], [ -71.49775, -38.60806 ], [ -71.49747, -38.60719 ], [ -71.49518, -38.60781 ], [ -71.49297, -38.60913 ], [ -71.49141, -38.60968 ], [ -71.49095, -38.60942 ], [ -71.49017, -38.60978 ], [ -71.491, -38.61166 ], [ -71.49614, -38.61908 ], [ -71.49522, -38.62106 ], [ -71.49381, -38.62244 ], [ -71.49283, -38.6241 ], [ -71.49147, -38.62716 ], [ -71.49113, -38.62816 ], [ -71.49011, -38.63532 ], [ -71.49033, -38.63708 ], [ -71.49087, -38.63819 ], [ -71.49098, -38.64088 ], [ -71.49084, -38.64354 ], [ -71.49229, -38.64607 ], [ -71.49234, -38.64843 ], [ -71.48986, -38.65092 ], [ -71.48828, -38.65309 ], [ -71.48946, -38.65505 ], [ -71.4897, -38.65748 ], [ -71.49011, -38.65822 ], [ -71.49122, -38.65927 ], [ -71.49153, -38.66195 ], [ -71.49249, -38.66566 ], [ -71.49277, -38.6663 ], [ -71.49734, -38.66992 ], [ -71.49839, -38.67096 ], [ -71.50255, -38.67401 ], [ -71.50586, -38.67848 ], [ -71.50617, -38.67958 ], [ -71.50653, -38.68019 ], [ -71.50793, -38.68122 ], [ -71.50851, -38.68204 ], [ -71.51143, -38.684 ], [ -71.51192, -38.6846 ], [ -71.51322, -38.68663 ], [ -71.51398, -38.68858 ], [ -71.51496, -38.68904 ], [ -71.51715, -38.68965 ], [ -71.51863, -38.69052 ], [ -71.52093, -38.69236 ], [ -71.52329, -38.69513 ], [ -71.52627, -38.69618 ], [ -71.52667, -38.69646 ], [ -71.5271, -38.69814 ], [ -71.52781, -38.6995 ], [ -71.52851, -38.70009 ], [ -71.53102, -38.70063 ], [ -71.53257, -38.70137 ], [ -71.53371, -38.7027 ], [ -71.53416, -38.70425 ], [ -71.5359, -38.70614 ], [ -71.53597, -38.70736 ], [ -71.53621, -38.70821 ], [ -71.53705, -38.70955 ], [ -71.53768, -38.71114 ], [ -71.53752, -38.71263 ], [ -71.53661, -38.71455 ], [ -71.53645, -38.71606 ], [ -71.53588, -38.71677 ], [ -71.53498, -38.717 ], [ -71.52979, -38.71521 ], [ -71.52934, -38.71511 ], [ -71.52879, -38.71528 ], [ -71.52864, -38.7155 ], [ -71.52862, -38.71608 ], [ -71.52887, -38.71846 ], [ -71.52863, -38.71994 ], [ -71.52785, -38.72222 ], [ -71.52783, -38.72245 ], [ -71.52818, -38.72297 ], [ -71.5316, -38.72503 ], [ -71.53526, -38.72674 ], [ -71.53581, -38.72728 ], [ -71.53735, -38.72964 ], [ -71.53987, -38.73092 ], [ -71.54044, -38.73162 ], [ -71.54233, -38.73131 ], [ -71.54699, -38.73236 ], [ -71.54911, -38.73333 ], [ -71.55145, -38.73416 ], [ -71.55224, -38.73527 ], [ -71.55344, -38.73615 ], [ -71.56058, -38.73647 ], [ -71.56442, -38.73788 ], [ -71.56643, -38.73886 ], [ -71.56734, -38.74006 ], [ -71.56754, -38.74189 ], [ -71.56941, -38.74499 ], [ -71.56981, -38.74689 ], [ -71.56975, -38.74717 ], [ -71.5689, -38.74792 ], [ -71.56846, -38.74874 ], [ -71.56741, -38.75158 ], [ -71.5636, -38.7518 ], [ -71.56098, -38.75177 ], [ -71.55891, -38.75228 ], [ -71.55786, -38.75304 ], [ -71.55648, -38.75348 ], [ -71.55552, -38.75364 ], [ -71.55391, -38.75339 ], [ -71.55283, -38.75346 ], [ -71.55192, -38.75431 ], [ -71.55103, -38.75597 ], [ -71.55158, -38.75665 ], [ -71.55195, -38.75684 ], [ -71.55397, -38.75718 ], [ -71.55506, -38.7572 ], [ -71.558, -38.7659 ], [ -71.55953, -38.76562 ], [ -71.55984, -38.76608 ], [ -71.5605, -38.76631 ], [ -71.56251, -38.76625 ], [ -71.56393, -38.76576 ], [ -71.56562, -38.76487 ], [ -71.56842, -38.764 ], [ -71.57162, -38.76329 ], [ -71.57442, -38.76229 ], [ -71.57541, -38.76241 ], [ -71.57603, -38.76285 ], [ -71.57678, -38.76299 ], [ -71.57716, -38.76286 ], [ -71.57885, -38.75996 ], [ -71.57921, -38.75978 ], [ -71.57914, -38.75854 ], [ -71.58173, -38.75592 ], [ -71.58336, -38.75539 ], [ -71.5839, -38.75492 ], [ -71.58559, -38.75577 ], [ -71.5867, -38.75592 ], [ -71.58742, -38.75552 ], [ -71.58786, -38.75453 ], [ -71.58793, -38.75368 ], [ -71.58578, -38.75427 ], [ -71.58585, -38.74759 ], [ -71.58607, -38.74437 ], [ -71.58626, -38.74399 ], [ -71.58606, -38.74338 ], [ -71.58464, -38.74273 ], [ -71.58121, -38.73978 ], [ -71.58095, -38.73841 ], [ -71.57503, -38.73261 ], [ -71.57448, -38.73234 ], [ -71.57254, -38.73197 ], [ -71.57005, -38.73076 ], [ -71.56671, -38.73025 ], [ -71.56662, -38.72951 ], [ -71.56713, -38.72725 ], [ -71.56701, -38.72573 ], [ -71.5661, -38.72474 ], [ -71.56602, -38.72445 ], [ -71.56601, -38.72387 ], [ -71.56651, -38.72263 ], [ -71.56696, -38.72254 ], [ -71.56876, -38.72273 ], [ -71.57016, -38.72379 ], [ -71.5712, -38.72516 ], [ -71.57207, -38.72555 ], [ -71.57307, -38.72646 ], [ -71.57899, -38.72549 ], [ -71.58044, -38.72386 ], [ -71.58325, -38.7202 ], [ -71.58553, -38.71895 ], [ -71.58762, -38.71709 ], [ -71.58799, -38.71698 ], [ -71.59136, -38.71783 ], [ -71.60124, -38.71987 ], [ -71.62004, -38.72547 ], [ -71.62062, -38.7236 ], [ -71.62052, -38.7211 ], [ -71.62025, -38.72003 ], [ -71.6192, -38.71813 ], [ -71.61852, -38.71734 ], [ -71.6189, -38.71682 ], [ -71.61929, -38.71663 ], [ -71.62011, -38.71657 ], [ -71.62051, -38.71709 ], [ -71.62159, -38.71706 ], [ -71.62479, -38.71958 ], [ -71.62485, -38.72029 ], [ -71.62428, -38.72166 ], [ -71.62427, -38.72272 ], [ -71.62493, -38.72325 ], [ -71.62546, -38.72425 ], [ -71.6255, -38.72456 ], [ -71.62511, -38.72576 ], [ -71.62524, -38.72614 ], [ -71.62594, -38.72662 ], [ -71.62612, -38.72715 ], [ -71.62563, -38.72982 ], [ -71.62558, -38.73208 ], [ -71.62511, -38.73292 ], [ -71.62515, -38.73415 ], [ -71.62477, -38.73512 ], [ -71.62491, -38.73611 ], [ -71.62467, -38.73709 ], [ -71.62482, -38.73841 ], [ -71.62513, -38.73953 ], [ -71.62543, -38.73999 ], [ -71.62554, -38.74073 ], [ -71.62512, -38.74207 ], [ -71.62466, -38.7425 ], [ -71.62437, -38.74308 ], [ -71.62419, -38.74423 ], [ -71.62416, -38.74662 ], [ -71.62499, -38.74892 ], [ -71.62456, -38.75062 ], [ -71.62388, -38.752 ], [ -71.62372, -38.75346 ], [ -71.62343, -38.75421 ], [ -71.62348, -38.75518 ], [ -71.62402, -38.75662 ], [ -71.6232, -38.75822 ], [ -71.62323, -38.75886 ], [ -71.62306, -38.75937 ], [ -71.62315, -38.76096 ], [ -71.62347, -38.76147 ], [ -71.6247, -38.76197 ], [ -71.62477, -38.76238 ], [ -71.62457, -38.76275 ], [ -71.62487, -38.76351 ], [ -71.62508, -38.76389 ], [ -71.62595, -38.76468 ], [ -71.62608, -38.76503 ], [ -71.62595, -38.76536 ], [ -71.62535, -38.76586 ], [ -71.62485, -38.76657 ], [ -71.62501, -38.76749 ], [ -71.62533, -38.76825 ], [ -71.62587, -38.76892 ], [ -71.62691, -38.76948 ], [ -71.62793, -38.77119 ], [ -71.62787, -38.77231 ], [ -71.6271, -38.77321 ], [ -71.62694, -38.77355 ], [ -71.62705, -38.77389 ], [ -71.62825, -38.77475 ], [ -71.62905, -38.77496 ], [ -71.62979, -38.77496 ], [ -71.63019, -38.77514 ], [ -71.6328, -38.77836 ], [ -71.63269, -38.7789 ], [ -71.63296, -38.77916 ], [ -71.63362, -38.77925 ], [ -71.63446, -38.77841 ], [ -71.63495, -38.77821 ], [ -71.6352, -38.77827 ], [ -71.63598, -38.77922 ], [ -71.63699, -38.77942 ], [ -71.63788, -38.78044 ], [ -71.63897, -38.78267 ], [ -71.64059, -38.78501 ], [ -71.64806, -38.78488 ], [ -71.64782, -38.78425 ], [ -71.64622, -38.78316 ], [ -71.64606, -38.78276 ], [ -71.6463, -38.78168 ], [ -71.64617, -38.78076 ], [ -71.64666, -38.77948 ], [ -71.64679, -38.77834 ], [ -71.64705, -38.77799 ], [ -71.64717, -38.77672 ], [ -71.64562, -38.77381 ], [ -71.64547, -38.77261 ], [ -71.64499, -38.77171 ], [ -71.64531, -38.77119 ], [ -71.64657, -38.76509 ], [ -71.64735, -38.76449 ], [ -71.64985, -38.76315 ], [ -71.65165, -38.76291 ], [ -71.65616, -38.76192 ], [ -71.65798, -38.76174 ], [ -71.66257, -38.78172 ], [ -71.66628, -38.7794 ], [ -71.66858, -38.77844 ], [ -71.67018, -38.77753 ], [ -71.67125, -38.77647 ], [ -71.67362, -38.77727 ], [ -71.67712, -38.77879 ], [ -71.67816, -38.77902 ], [ -71.67723, -38.77439 ], [ -71.67627, -38.77181 ], [ -71.67624, -38.77067 ], [ -71.67729, -38.76783 ], [ -71.67795, -38.76758 ], [ -71.67866, -38.76659 ], [ -71.68225, -38.76581 ], [ -71.68338, -38.76578 ], [ -71.69355, -38.76458 ], [ -71.69658, -38.76619 ], [ -71.69732, -38.77381 ], [ -71.69726, -38.77732 ], [ -71.69755, -38.77872 ], [ -71.69808, -38.78003 ], [ -71.69892, -38.781 ], [ -71.69912, -38.78148 ], [ -71.69905, -38.78176 ], [ -71.69794, -38.78246 ], [ -71.6977, -38.78313 ], [ -71.69333, -38.78771 ], [ -71.69228, -38.78919 ], [ -71.69209, -38.79017 ], [ -71.69224, -38.79076 ], [ -71.69221, -38.79277 ], [ -71.69146, -38.7947 ], [ -71.69047, -38.79645 ], [ -71.68974, -38.79859 ], [ -71.68919, -38.79936 ], [ -71.68918, -38.79966 ], [ -71.69002, -38.80029 ], [ -71.69008, -38.80112 ], [ -71.68932, -38.8023 ], [ -71.68952, -38.80314 ], [ -71.69034, -38.80482 ], [ -71.69052, -38.80492 ], [ -71.69266, -38.80294 ], [ -71.698, -38.80388 ], [ -71.70002, -38.80159 ], [ -71.70331, -38.79908 ], [ -71.70765, -38.79766 ], [ -71.71006, -38.7972 ], [ -71.71122, -38.7975 ], [ -71.71413, -38.7971 ], [ -71.71533, -38.79752 ], [ -71.7181, -38.79916 ], [ -71.71932, -38.80194 ], [ -71.71949, -38.80143 ], [ -71.72058, -38.79998 ], [ -71.72137, -38.79729 ], [ -71.7223, -38.79588 ], [ -71.72368, -38.79306 ], [ -71.72617, -38.79038 ], [ -71.72904, -38.78556 ], [ -71.73006, -38.78485 ], [ -71.7307, -38.78471 ], [ -71.73344, -38.78475 ], [ -71.73381, -38.78501 ], [ -71.73489, -38.78645 ], [ -71.73505, -38.78699 ], [ -71.73485, -38.7881 ], [ -71.73376, -38.79163 ], [ -71.73384, -38.79447 ], [ -71.73338, -38.79499 ], [ -71.73225, -38.79701 ], [ -71.73132, -38.79789 ], [ -71.73024, -38.79963 ], [ -71.7304, -38.80119 ], [ -71.73031, -38.80188 ], [ -71.72997, -38.80251 ], [ -71.72957, -38.80462 ], [ -71.72942, -38.80724 ], [ -71.73298, -38.80627 ], [ -71.73531, -38.80425 ], [ -71.73686, -38.80367 ], [ -71.73806, -38.80295 ], [ -71.73931, -38.80113 ], [ -71.73956, -38.80052 ], [ -71.74076, -38.79547 ], [ -71.74241, -38.79336 ], [ -71.74382, -38.79205 ], [ -71.74447, -38.79116 ], [ -71.74534, -38.78808 ], [ -71.74534, -38.78732 ], [ -71.74666, -38.78477 ], [ -71.75376, -38.78352 ], [ -71.75502, -38.78295 ], [ -71.76235, -38.78035 ], [ -71.76326, -38.78017 ], [ -71.7629, -38.77911 ], [ -71.76316, -38.77763 ], [ -71.76376, -38.77586 ], [ -71.76371, -38.77504 ], [ -71.76306, -38.77329 ], [ -71.76299, -38.7691 ], [ -71.7632, -38.76827 ], [ -71.76354, -38.76811 ], [ -71.77301, -38.76709 ], [ -71.77655, -38.76891 ], [ -71.777, -38.76898 ], [ -71.77975, -38.7691 ], [ -71.78122, -38.76942 ], [ -71.78676, -38.76968 ], [ -71.79705, -38.77106 ], [ -71.79722, -38.77129 ], [ -71.79714, -38.77188 ], [ -71.79601, -38.77618 ], [ -71.79603, -38.77863 ], [ -71.79631, -38.78177 ], [ -71.79673, -38.78274 ], [ -71.79675, -38.78344 ], [ -71.79731, -38.78551 ], [ -71.79743, -38.78692 ], [ -71.79751, -38.79011 ], [ -71.79738, -38.79051 ], [ -71.79633, -38.79202 ], [ -71.79683, -38.79429 ], [ -71.79655, -38.79498 ], [ -71.79659, -38.79582 ], [ -71.79766, -38.80524 ], [ -71.79791, -38.80567 ], [ -71.80637, -38.80553 ], [ -71.81074, -38.80595 ], [ -71.81344, -38.80667 ], [ -71.81715, -38.80813 ], [ -71.81842, -38.80896 ], [ -71.81876, -38.80834 ], [ -71.81865, -38.80794 ], [ -71.81677, -38.80565 ], [ -71.81637, -38.80355 ], [ -71.81376, -38.80115 ], [ -71.83209, -38.80292 ], [ -71.8342, -38.78926 ], [ -71.83273, -38.78512 ], [ -71.8249, -38.76547 ], [ -71.82033, -38.75348 ], [ -71.83804, -38.74889 ], [ -71.86501, -38.7438 ], [ -71.86647, -38.74813 ], [ -71.88837, -38.74375 ], [ -71.88225, -38.72512 ], [ -71.89332, -38.72251 ], [ -71.88755, -38.70638 ], [ -71.87652, -38.7084 ], [ -71.86151, -38.66604 ], [ -71.85355, -38.64505 ], [ -71.82774, -38.65051 ], [ -71.8258, -38.64475 ], [ -71.78186, -38.65329 ], [ -71.77696, -38.64018 ], [ -71.77679, -38.63927 ], [ -71.77698, -38.63906 ], [ -71.7769, -38.63889 ], [ -71.77447, -38.63641 ], [ -71.77221, -38.63341 ], [ -71.77251, -38.63281 ], [ -71.77437, -38.63059 ], [ -71.7743, -38.62987 ], [ -71.7745, -38.62931 ], [ -71.77496, -38.62893 ], [ -71.77639, -38.62707 ], [ -71.77666, -38.62607 ], [ -71.77651, -38.62581 ], [ -71.77665, -38.62559 ], [ -71.77622, -38.62516 ], [ -71.77622, -38.62425 ], [ -71.7784, -38.6221 ], [ -71.77784, -38.62161 ], [ -71.77801, -38.62012 ], [ -71.77878, -38.61851 ], [ -71.7798, -38.6176 ], [ -71.77949, -38.61575 ], [ -71.7797, -38.61409 ], [ -71.7807, -38.61286 ], [ -71.78148, -38.61146 ], [ -71.78441, -38.60856 ], [ -71.7858, -38.60843 ], [ -71.78706, -38.60785 ], [ -71.78864, -38.60674 ], [ -71.79193, -38.60347 ], [ -71.79194, -38.60284 ], [ -71.79143, -38.60204 ], [ -71.79144, -38.60173 ], [ -71.79315, -38.59699 ], [ -71.79472, -38.59443 ], [ -71.79517, -38.59291 ], [ -71.79517, -38.59208 ], [ -71.79558, -38.59084 ], [ -71.79566, -38.58982 ], [ -71.79487, -38.58864 ], [ -71.79406, -38.58812 ], [ -71.7938, -38.58827 ], [ -71.79212, -38.59067 ], [ -71.79152, -38.59069 ], [ -71.791, -38.59035 ], [ -71.7908, -38.59012 ], [ -71.79093, -38.58898 ], [ -71.79053, -38.58803 ], [ -71.79056, -38.58755 ], [ -71.79017, -38.58581 ], [ -71.79115, -38.58492 ], [ -71.79013, -38.58387 ], [ -71.7892, -38.58247 ], [ -71.78794, -38.58129 ], [ -71.78613, -38.58407 ], [ -71.78578, -38.58436 ], [ -71.7863, -38.589 ], [ -71.78615, -38.58965 ], [ -71.78478, -38.59097 ], [ -71.78298, -38.59226 ], [ -71.78236, -38.5926 ], [ -71.78115, -38.59284 ], [ -71.78113, -38.5904 ], [ -71.78179, -38.58962 ], [ -71.78361, -38.58582 ], [ -71.78223, -38.58373 ], [ -71.78237, -38.5836 ], [ -71.78186, -38.58363 ], [ -71.78117, -38.58482 ], [ -71.78033, -38.58581 ], [ -71.77853, -38.58941 ], [ -71.7774, -38.59067 ], [ -71.77668, -38.59176 ], [ -71.77529, -38.59471 ], [ -71.77409, -38.596 ], [ -71.77301, -38.59752 ], [ -71.77179, -38.59872 ], [ -71.7713, -38.59897 ], [ -71.77137, -38.59922 ], [ -71.77241, -38.59978 ], [ -71.77346, -38.60059 ], [ -71.77493, -38.60238 ], [ -71.77704, -38.60417 ], [ -71.77654, -38.60498 ], [ -71.77611, -38.60534 ], [ -71.7734, -38.60663 ], [ -71.77162, -38.60797 ], [ -71.77053, -38.60857 ], [ -71.769, -38.60907 ], [ -71.76827, -38.60889 ], [ -71.76631, -38.60879 ], [ -71.76352, -38.60796 ], [ -71.76227, -38.60715 ], [ -71.75873, -38.60535 ], [ -71.75775, -38.60788 ], [ -71.75663, -38.60885 ], [ -71.75488, -38.61 ], [ -71.75426, -38.61081 ], [ -71.75325, -38.61174 ], [ -71.74998, -38.61327 ], [ -71.74599, -38.61455 ], [ -71.74511, -38.61597 ], [ -71.74314, -38.61754 ], [ -71.73987, -38.61978 ], [ -71.73788, -38.6216 ], [ -71.73604, -38.62275 ], [ -71.73538, -38.62337 ], [ -71.73507, -38.62397 ], [ -71.73476, -38.62406 ], [ -71.73455, -38.62387 ], [ -71.73289, -38.61778 ], [ -71.72342, -38.61988 ], [ -71.71673, -38.60018 ], [ -71.68576, -38.60714 ], [ -71.6853, -38.60507 ], [ -71.68427, -38.60238 ], [ -71.68179, -38.59397 ], [ -71.68149, -38.59092 ], [ -71.68128, -38.59061 ], [ -71.67918, -38.58878 ], [ -71.6787, -38.5879 ], [ -71.6779, -38.58743 ], [ -71.67657, -38.58707 ], [ -71.67404, -38.58436 ], [ -71.67208, -38.58276 ], [ -71.67134, -38.58143 ], [ -71.66533, -38.57364 ], [ -71.66321, -38.57231 ], [ -71.66152, -38.57204 ], [ -71.66097, -38.57131 ], [ -71.64787, -38.58272 ], [ -71.628, -38.58337 ], [ -71.61199, -38.57431 ], [ -71.61305, -38.57316 ], [ -71.61359, -38.57208 ], [ -71.6142, -38.57157 ], [ -71.62475, -38.56602 ], [ -71.63092, -38.55794 ], [ -71.63025, -38.55801 ], [ -71.62266, -38.56051 ], [ -71.61722, -38.55607 ] ], [ [ -71.60617, -38.53938 ], [ -71.60596, -38.53925 ], [ -71.60591, -38.53908 ], [ -71.60617, -38.53938 ] ], [ [ -71.53302, -38.53438 ], [ -71.53265, -38.53494 ], [ -71.53249, -38.53514 ], [ -71.53302, -38.53438 ] ], [ [ -71.79778, -38.68325 ], [ -71.79857, -38.68214 ], [ -71.80056, -38.68306 ], [ -71.79967, -38.68354 ], [ -71.79941, -38.68383 ], [ -71.79938, -38.68419 ], [ -71.79965, -38.68477 ], [ -71.79987, -38.68513 ], [ -71.80024, -38.68535 ], [ -71.801, -38.68575 ], [ -71.80133, -38.68567 ], [ -71.80873, -38.69764 ], [ -71.80622, -38.70019 ], [ -71.78803, -38.70469 ], [ -71.77963, -38.696 ], [ -71.7836, -38.68951 ], [ -71.79853, -38.68632 ], [ -71.79778, -38.68325 ] ], [ [ -71.7514, -38.64094 ], [ -71.7496, -38.64951 ], [ -71.72924, -38.65105 ], [ -71.72802, -38.6431 ], [ -71.7514, -38.64094 ] ], [ [ -71.77836, -38.60242 ], [ -71.77708, -38.60333 ], [ -71.77682, -38.60332 ], [ -71.77637, -38.60242 ], [ -71.77633, -38.60093 ], [ -71.77661, -38.60004 ], [ -71.77819, -38.59864 ], [ -71.78027, -38.59742 ], [ -71.78265, -38.59688 ], [ -71.78334, -38.597 ], [ -71.78309, -38.59819 ], [ -71.7821, -38.5993 ], [ -71.78145, -38.59988 ], [ -71.77912, -38.60083 ], [ -71.77856, -38.60149 ], [ -71.77836, -38.60242 ] ] ] ] } },
{ "type": "Feature", "properties": { "nombre": "Reserva Nacional Alto Bio Bio", "categoria": "Reserva Nacional", "region": "Araucania", "superficie_ha": "31444", "decreto": "NÂ° 1935 de 1912; NÂ° 10234 de 1929; NÂ° 133 de 1989" }, "geometry": { "type": "MultiPolygon", "coordinates": [ [ [ [ -71.00723, -38.76574 ], [ -71.00724, -38.76502 ], [ -71.00565, -38.76721 ], [ -71.00723, -38.76574 ] ] ], [ [ [ -71.01062, -38.76178 ], [ -71.01209, -38.76102 ], [ -71.0144, -38.76049 ], [ -71.01527, -38.75998 ], [ -71.0167, -38.75947 ], [ -71.01724, -38.75862 ], [ -71.02054, -38.75738 ], [ -71.02214, -38.75637 ], [ -71.02277, -38.75611 ], [ -71.02472, -38.75613 ], [ -71.02546, -38.75587 ], [ -71.02937, -38.75383 ], [ -71.0325, -38.75353 ], [ -71.03314, -38.75371 ], [ -71.03321, -38.75406 ], [ -71.0338, -38.75469 ], [ -71.03499, -38.75477 ], [ -71.03526, -38.75525 ], [ -71.0359, -38.75559 ], [ -71.03697, -38.75586 ], [ -71.03811, -38.75594 ], [ -71.03991, -38.75512 ], [ -71.04077, -38.75447 ], [ -71.04185, -38.75484 ], [ -71.04254, -38.75483 ], [ -71.0436, -38.75447 ], [ -71.04429, -38.7545 ], [ -71.04613, -38.75501 ], [ -71.04689, -38.755 ], [ -71.04862, -38.75418 ], [ -71.04949, -38.75358 ], [ -71.05055, -38.75341 ], [ -71.05322, -38.75435 ], [ -71.0579, -38.75525 ], [ -71.05835, -38.75554 ], [ -71.05849, -38.75598 ], [ -71.05828, -38.75746 ], [ -71.05854, -38.75785 ], [ -71.05943, -38.75808 ], [ -71.06014, -38.75866 ], [ -71.06067, -38.75963 ], [ -71.06131, -38.75997 ], [ -71.06302, -38.76033 ], [ -71.06366, -38.76064 ], [ -71.06457, -38.7615 ], [ -71.06493, -38.76249 ], [ -71.06777, -38.76369 ], [ -71.06856, -38.76421 ], [ -71.06993, -38.76246 ], [ -71.07042, -38.76216 ], [ -71.07143, -38.76197 ], [ -71.07363, -38.762 ], [ -71.07593, -38.76119 ], [ -71.07705, -38.76058 ], [ -71.07815, -38.7597 ], [ -71.07932, -38.75735 ], [ -71.07968, -38.75696 ], [ -71.08046, -38.75661 ], [ -71.08225, -38.75506 ], [ -71.08253, -38.75456 ], [ -71.08244, -38.75415 ], [ -71.08287, -38.7538 ], [ -71.08686, -38.75181 ], [ -71.08832, -38.75039 ], [ -71.0885, -38.74964 ], [ -71.0897, -38.74874 ], [ -71.09054, -38.74852 ], [ -71.09168, -38.74871 ], [ -71.09361, -38.74853 ], [ -71.09369, -38.74745 ], [ -71.09539, -38.74558 ], [ -71.08979, -38.74385 ], [ -71.08915, -38.7418 ], [ -71.09501, -38.73254 ], [ -71.09297, -38.73281 ], [ -71.09248, -38.72595 ], [ -71.09789, -38.72104 ], [ -71.06939, -38.72567 ], [ -71.05013, -38.71058 ], [ -71.0333, -38.72921 ], [ -71.00937, -38.7621 ], [ -71.01062, -38.76178 ] ] ] ] } }
]
}
