{
"type": "FeatureCollection",
"name": "TAA",
"crs": { "type": "name", "properties": { "name": "urn:ogc:def:crs:OGC:1.3:CRS84" } },
"xy_coordinate_resolution": 1e-05,
"features": [
{ "type": "Feature", "properties": { "nombre": "Reserva Nacional Las Vicunas", "categoria": "Reserva Nacional", "region": "Arica Y Parinacota", "superficie_ha": "209131", "decreto": "NÂ° 29 de 1983" }, "geometry": { "type": "Polygon", "coordinates": [ [ [ -69.44383, -18.44358 ], [ -69.44366, -18.44314 ], [ -69.44197, -18.44196 ], [ -69.44096, -18.44106 ], [ -69.43537, -18.43876 ], [ -69.43117, -18.43658 ], [ -69.43029, -18.43559 ], [ -69.42831, -18.43402 ], [ -69.42652, -18.4338 ], [ -69.42326, -18.43451 ], [ -69.42302, -18.40755 ], [ -69.42256, -18.40748 ], [ -69.42155, -18.40774 ], [ -69.41622, -18.4096 ], [ -69.41512, -18.40913 ], [ -69.41336, -18.4092 ], [ -69.41279, -18.4089 ], [ -69.41112, -18.40861 ], [ -69.40906, -18.40867 ], [ -69.40612, -18.40843 ], [ -69.4044, -18.40769 ], [ -69.40224, -18.40592 ], [ -69.39978, -18.40337 ], [ -69.39424, -18.39983 ], [ -69.39115, -18.39851 ], [ -69.38989, -18.39756 ], [ -69.38768, -18.3965 ], [ -69.38438, -18.39401 ], [ -69.38371, -18.3937 ], [ -69.38039, -18.39091 ], [ -69.37856, -18.39015 ], [ -69.3755, -18.38953 ], [ -69.37387, -18.38904 ], [ -69.37148, -18.38758 ], [ -69.37049, -18.38715 ], [ -69.36986, -18.38652 ], [ -69.3691, -18.385 ], [ -69.36713, -18.38459 ], [ -69.36692, -18.3844 ], [ -69.36676, -18.38374 ], [ -69.36647, -18.38356 ], [ -69.36625, -18.38312 ], [ -69.36368, -18.38327 ], [ -69.36288, -18.38382 ], [ -69.35985, -18.38388 ], [ -69.35832, -18.38314 ], [ -69.35739, -18.38324 ], [ -69.35668, -18.38287 ], [ -69.35623, -18.38299 ], [ -69.35563, -18.38261 ], [ -69.35434, -18.38264 ], [ -69.35227, -18.38237 ], [ -69.34989, -18.3815 ], [ -69.34844, -18.38056 ], [ -69.34927, -18.38027 ], [ -69.34917, -18.37909 ], [ -69.34951, -18.37831 ], [ -69.34995, -18.37794 ], [ -69.35131, -18.37742 ], [ -69.35086, -18.37637 ], [ -69.35084, -18.37591 ], [ -69.35135, -18.37517 ], [ -69.35299, -18.37407 ], [ -69.35297, -18.37377 ], [ -69.35264, -18.37332 ], [ -69.35274, -18.37308 ], [ -69.35313, -18.37295 ], [ -69.35379, -18.37325 ], [ -69.35451, -18.37242 ], [ -69.35479, -18.37236 ], [ -69.35536, -18.37299 ], [ -69.3556, -18.37205 ], [ -69.35609, -18.37176 ], [ -69.35653, -18.37104 ], [ -69.35744, -18.37067 ], [ -69.35793, -18.37008 ], [ -69.35871, -18.36972 ], [ -69.3592, -18.36917 ], [ -69.35927, -18.36879 ], [ -69.35848, -18.36798 ], [ -69.35839, -18.36763 ], [ -69.35862, -18.36718 ], [ -69.35913, -18.36684 ], [ -69.35909, -18.36573 ], [ -69.35922, -18.36524 ], [ -69.36002, -18.36459 ], [ -69.36007, -18.36429 ], [ -69.35913, -18.36349 ], [ -69.35906, -18.36319 ], [ -69.35942, -18.36284 ], [ -69.36006, -18.3629 ], [ -69.36047, -18.36277 ], [ -69.3615, -18.36208 ], [ -69.36146, -18.36189 ], [ -69.36061, -18.36162 ], [ -69.36045, -18.36139 ], [ -69.36041, -18.36108 ], [ -69.36099, -18.36024 ], [ -69.36108, -18.35962 ], [ -69.36095, -18.35861 ], [ -69.36049, -18.35727 ], [ -69.36045, -18.356 ], [ -69.35993, -18.35514 ], [ -69.35994, -18.35368 ], [ -69.35923, -18.35287 ], [ -69.35923, -18.35161 ], [ -69.35814, -18.35001 ], [ -69.35728, -18.34978 ], [ -69.35684, -18.3494 ], [ -69.35669, -18.34902 ], [ -69.35696, -18.34744 ], [ -69.35686, -18.34706 ], [ -69.35626, -18.34648 ], [ -69.35522, -18.34436 ], [ -69.35517, -18.34406 ], [ -69.35588, -18.34344 ], [ -69.35599, -18.34313 ], [ -69.35561, -18.34235 ], [ -69.35554, -18.34132 ], [ -69.35458, -18.34096 ], [ -69.35446, -18.34053 ], [ -69.35381, -18.34043 ], [ -69.35328, -18.33977 ], [ -69.35331, -18.33884 ], [ -69.35388, -18.33829 ], [ -69.35385, -18.33808 ], [ -69.35294, -18.33751 ], [ -69.35286, -18.33708 ], [ -69.35246, -18.33656 ], [ -69.35198, -18.33537 ], [ -69.35116, -18.33479 ], [ -69.35027, -18.33446 ], [ -69.34968, -18.33388 ], [ -69.34904, -18.33236 ], [ -69.34873, -18.33229 ], [ -69.34822, -18.33165 ], [ -69.34782, -18.33157 ], [ -69.34684, -18.33192 ], [ -69.3463, -18.33128 ], [ -69.34593, -18.33046 ], [ -69.34554, -18.33009 ], [ -69.34548, -18.32919 ], [ -69.34561, -18.32859 ], [ -69.34605, -18.32789 ], [ -69.34607, -18.32747 ], [ -69.34534, -18.32689 ], [ -69.34508, -18.32631 ], [ -69.34562, -18.32425 ], [ -69.34055, -18.32493 ], [ -69.33905, -18.325 ], [ -69.33729, -18.32447 ], [ -69.33661, -18.32442 ], [ -69.33571, -18.32384 ], [ -69.33454, -18.32353 ], [ -69.33214, -18.3233 ], [ -69.33115, -18.32283 ], [ -69.32978, -18.32157 ], [ -69.32907, -18.32044 ], [ -69.32761, -18.32009 ], [ -69.32662, -18.31851 ], [ -69.32476, -18.31764 ], [ -69.32232, -18.31617 ], [ -69.32028, -18.31483 ], [ -69.31996, -18.31439 ], [ -69.31937, -18.3143 ], [ -69.31817, -18.31302 ], [ -69.31386, -18.31132 ], [ -69.31355, -18.31103 ], [ -69.30868, -18.30974 ], [ -69.30749, -18.30846 ], [ -69.30553, -18.30513 ], [ -69.30482, -18.30446 ], [ -69.30345, -18.30377 ], [ -69.30098, -18.30292 ], [ -69.29993, -18.30286 ], [ -69.29864, -18.3031 ], [ -69.29769, -18.30356 ], [ -69.29554, -18.30555 ], [ -69.29442, -18.30626 ], [ -69.29295, -18.3062 ], [ -69.28884, -18.30693 ], [ -69.28761, -18.30697 ], [ -69.28549, -18.3066 ], [ -69.28437, -18.3059 ], [ -69.28233, -18.30528 ], [ -69.28004, -18.30514 ], [ -69.26947, -18.30125 ], [ -69.26873, -18.30079 ], [ -69.26783, -18.29889 ], [ -69.26778, -18.29711 ], [ -69.26757, -18.29612 ], [ -69.26717, -18.29534 ], [ -69.26703, -18.29518 ], [ -69.26666, -18.29527 ], [ -69.26601, -18.29506 ], [ -69.26531, -18.29468 ], [ -69.26348, -18.29301 ], [ -69.26244, -18.29267 ], [ -69.26158, -18.29262 ], [ -69.25981, -18.29349 ], [ -69.25888, -18.29375 ], [ -69.25807, -18.29326 ], [ -69.25726, -18.2925 ], [ -69.25679, -18.29233 ], [ -69.25486, -18.29234 ], [ -69.25317, -18.29188 ], [ -69.24828, -18.29217 ], [ -69.246, -18.29105 ], [ -69.24304, -18.29054 ], [ -69.24001, -18.28939 ], [ -69.23942, -18.28933 ], [ -69.23846, -18.28874 ], [ -69.23905, -18.28654 ], [ -69.23973, -18.28293 ], [ -69.23785, -18.28312 ], [ -69.23499, -18.28264 ], [ -69.23141, -18.2827 ], [ -69.23098, -18.28253 ], [ -69.22979, -18.28157 ], [ -69.22778, -18.28079 ], [ -69.22682, -18.28021 ], [ -69.22427, -18.27928 ], [ -69.22176, -18.2787 ], [ -69.21731, -18.27614 ], [ -69.21494, -18.27536 ], [ -69.21405, -18.27484 ], [ -69.2124, -18.273 ], [ -69.21304, -18.27498 ], [ -69.21304, -18.27556 ], [ -69.21294, -18.27615 ], [ -69.21147, -18.27957 ], [ -69.21119, -18.27988 ], [ -69.20975, -18.27981 ], [ -69.20789, -18.27947 ], [ -69.20523, -18.27961 ], [ -69.20366, -18.27948 ], [ -69.20151, -18.27897 ], [ -69.19878, -18.27887 ], [ -69.19767, -18.27907 ], [ -69.19606, -18.2801 ], [ -69.19434, -18.28074 ], [ -69.19267, -18.28339 ], [ -69.19205, -18.2841 ], [ -69.18805, -18.28622 ], [ -69.18596, -18.28667 ], [ -69.18424, -18.28749 ], [ -69.18374, -18.2884 ], [ -69.1827, -18.28938 ], [ -69.18228, -18.29003 ], [ -69.18127, -18.29361 ], [ -69.18129, -18.29424 ], [ -69.18009, -18.29659 ], [ -69.17545, -18.29793 ], [ -69.17432, -18.29908 ], [ -69.17371, -18.30018 ], [ -69.17374, -18.30055 ], [ -69.17342, -18.30134 ], [ -69.17278, -18.30179 ], [ -69.17149, -18.30233 ], [ -69.16884, -18.30275 ], [ -69.16758, -18.30395 ], [ -69.16694, -18.3057 ], [ -69.164, -18.30844 ], [ -69.16282, -18.30882 ], [ -69.15927, -18.3108 ], [ -69.15787, -18.31207 ], [ -69.15648, -18.31293 ], [ -69.15493, -18.3131 ], [ -69.1543, -18.31351 ], [ -69.1546, -18.32059 ], [ -69.14333, -18.33136 ], [ -69.1412, -18.34624 ], [ -69.13261, -18.3463 ], [ -69.13195, -18.34699 ], [ -69.12976, -18.34759 ], [ -69.12922, -18.34865 ], [ -69.12874, -18.35041 ], [ -69.12829, -18.35073 ], [ -69.12685, -18.3507 ], [ -69.12632, -18.35089 ], [ -69.1257, -18.35143 ], [ -69.12388, -18.35424 ], [ -69.12352, -18.35453 ], [ -69.12175, -18.35505 ], [ -69.12065, -18.356 ], [ -69.1186, -18.35645 ], [ -69.11788, -18.35681 ], [ -69.11693, -18.35755 ], [ -69.11647, -18.35812 ], [ -69.11348, -18.35972 ], [ -69.13492, -18.3873 ], [ -69.16615, -18.42013 ], [ -69.20061, -18.44988 ], [ -69.23797, -18.47626 ], [ -69.27787, -18.499 ], [ -69.31992, -18.51789 ], [ -69.36372, -18.53276 ], [ -69.39553, -18.54029 ], [ -69.396, -18.53918 ], [ -69.3967, -18.53607 ], [ -69.39758, -18.53498 ], [ -69.39863, -18.53297 ], [ -69.39889, -18.53213 ], [ -69.39933, -18.53162 ], [ -69.39985, -18.53154 ], [ -69.40403, -18.53233 ], [ -69.40518, -18.53291 ], [ -69.40729, -18.53299 ], [ -69.40843, -18.53349 ], [ -69.40931, -18.53349 ], [ -69.40992, -18.53038 ], [ -69.41088, -18.52812 ], [ -69.41202, -18.52677 ], [ -69.41246, -18.5256 ], [ -69.41272, -18.52342 ], [ -69.41324, -18.52149 ], [ -69.41368, -18.52056 ], [ -69.4163, -18.5167 ], [ -69.41674, -18.51385 ], [ -69.41541, -18.50865 ], [ -69.41785, -18.50328 ], [ -69.41846, -18.50101 ], [ -69.41969, -18.49875 ], [ -69.4225, -18.49631 ], [ -69.42355, -18.49446 ], [ -69.42337, -18.4932 ], [ -69.42249, -18.49228 ], [ -69.42116, -18.48868 ], [ -69.42185, -18.48591 ], [ -69.42378, -18.4833 ], [ -69.42518, -18.48003 ], [ -69.42605, -18.47592 ], [ -69.42842, -18.47432 ], [ -69.4329, -18.47272 ], [ -69.43624, -18.47271 ], [ -69.43879, -18.47404 ], [ -69.44019, -18.47396 ], [ -69.44142, -18.47286 ], [ -69.44195, -18.4711 ], [ -69.44202, -18.46649 ], [ -69.44386, -18.46397 ], [ -69.44543, -18.46019 ], [ -69.44551, -18.45776 ], [ -69.44604, -18.45574 ], [ -69.4484, -18.45306 ], [ -69.44883, -18.44953 ], [ -69.44786, -18.44651 ], [ -69.44718, -18.44377 ], [ -69.44383, -18.44358 ] ] ] } },
{ "type": "Feature", "properties": { "nombre": "Monumento Natural Quebrada De Cardones", "categoria": "Monumento Natural", "region": "Arica Y Parinacota", "superficie_ha": "11325,71", "decreto": "NÂ° 64 de 2009" }, "geometry": { "type": "MultiPolygon", "coordinates": [ [ [ [ -69.785, -18.45889 ], [ -69.78421, -18.45867 ], [ -69.77987, -18.45901 ], [ -69.77578, -18.45758 ], [ -69.77356, -18.45758 ], [ -69.77038, -18.45655 ], [ -69.76803, -18.45636 ], [ -69.76698, -18.45602 ], [ -69.76625, -18.4557 ], [ -69.76439, -18.45421 ], [ -69.76239, -18.45197 ], [ -69.76192, -18.45068 ], [ -69.76191, -18.44689 ], [ -69.76137, -18.4451 ], [ -69.75917, -18.44207 ], [ -69.75774, -18.44128 ], [ -69.75522, -18.4407 ], [ -69.75389, -18.44088 ], [ -69.75308, -18.44075 ], [ -69.74987, -18.44176 ], [ -69.74883, -18.44164 ], [ -69.74801, -18.44104 ], [ -69.74776, -18.44022 ], [ -69.74736, -18.43974 ], [ -69.74529, -18.43902 ], [ -69.7443, -18.43792 ], [ -69.74149, -18.43779 ], [ -69.73915, -18.43862 ], [ -69.73826, -18.4387 ], [ -69.73589, -18.43738 ], [ -69.73333, -18.43663 ], [ -69.73185, -18.43408 ], [ -69.72992, -18.43294 ], [ -69.72925, -18.4324 ], [ -69.72841, -18.43134 ], [ -69.72573, -18.43064 ], [ -69.72315, -18.43133 ], [ -69.72198, -18.43137 ], [ -69.71376, -18.42722 ], [ -69.71115, -18.42671 ], [ -69.70994, -18.42626 ], [ -69.70715, -18.42405 ], [ -69.70255, -18.42199 ], [ -69.69694, -18.42148 ], [ -69.6947, -18.42012 ], [ -69.69327, -18.42009 ], [ -69.69237, -18.4205 ], [ -69.69119, -18.42062 ], [ -69.68928, -18.41988 ], [ -69.68495, -18.41951 ], [ -69.66963, -18.41419 ], [ -69.65923, -18.44293 ], [ -69.66034, -18.44323 ], [ -69.66088, -18.44384 ], [ -69.66161, -18.44404 ], [ -69.66235, -18.44454 ], [ -69.66349, -18.44486 ], [ -69.66413, -18.44535 ], [ -69.66497, -18.44559 ], [ -69.66508, -18.44621 ], [ -69.66687, -18.44821 ], [ -69.66746, -18.44837 ], [ -69.66794, -18.44872 ], [ -69.66957, -18.44896 ], [ -69.67006, -18.44956 ], [ -69.67067, -18.44997 ], [ -69.67113, -18.45006 ], [ -69.67132, -18.4499 ], [ -69.67172, -18.4499 ], [ -69.67185, -18.45017 ], [ -69.67219, -18.45033 ], [ -69.67445, -18.45016 ], [ -69.67583, -18.45042 ], [ -69.67652, -18.45016 ], [ -69.67695, -18.44982 ], [ -69.6774, -18.44979 ], [ -69.67837, -18.45141 ], [ -69.67848, -18.45259 ], [ -69.67869, -18.45309 ], [ -69.67948, -18.45403 ], [ -69.68091, -18.45463 ], [ -69.68128, -18.45503 ], [ -69.68203, -18.45524 ], [ -69.68217, -18.45576 ], [ -69.6827, -18.45578 ], [ -69.68421, -18.45489 ], [ -69.68465, -18.45493 ], [ -69.68469, -18.45611 ], [ -69.68525, -18.45694 ], [ -69.68605, -18.45756 ], [ -69.68581, -18.45827 ], [ -69.68637, -18.45841 ], [ -69.68675, -18.45832 ], [ -69.68691, -18.45849 ], [ -69.68692, -18.45889 ], [ -69.68664, -18.45947 ], [ -69.6867, -18.46013 ], [ -69.68692, -18.4604 ], [ -69.68759, -18.46061 ], [ -69.6882, -18.46042 ], [ -69.68858, -18.46008 ], [ -69.689, -18.46011 ], [ -69.68885, -18.46216 ], [ -69.68916, -18.46292 ], [ -69.68968, -18.46322 ], [ -69.69031, -18.46334 ], [ -69.69127, -18.46324 ], [ -69.69151, -18.46331 ], [ -69.69164, -18.46366 ], [ -69.6925, -18.46358 ], [ -69.69273, -18.46392 ], [ -69.69332, -18.46401 ], [ -69.69336, -18.4642 ], [ -69.69305, -18.46469 ], [ -69.69327, -18.46482 ], [ -69.69329, -18.4651 ], [ -69.69214, -18.46529 ], [ -69.69212, -18.46594 ], [ -69.69311, -18.46741 ], [ -69.69394, -18.46777 ], [ -69.69522, -18.46788 ], [ -69.69557, -18.46805 ], [ -69.69561, -18.46825 ], [ -69.69545, -18.4684 ], [ -69.69482, -18.46869 ], [ -69.69482, -18.4691 ], [ -69.69546, -18.46955 ], [ -69.69588, -18.4701 ], [ -69.69641, -18.4704 ], [ -69.69648, -18.47106 ], [ -69.69676, -18.47148 ], [ -69.69863, -18.4729 ], [ -69.6993, -18.4732 ], [ -69.69986, -18.47307 ], [ -69.70023, -18.47274 ], [ -69.70111, -18.47252 ], [ -69.70154, -18.47177 ], [ -69.70192, -18.4718 ], [ -69.70218, -18.47234 ], [ -69.70218, -18.47278 ], [ -69.70187, -18.47323 ], [ -69.70184, -18.47381 ], [ -69.70289, -18.47433 ], [ -69.70335, -18.4743 ], [ -69.70357, -18.47401 ], [ -69.70393, -18.47401 ], [ -69.7039, -18.47482 ], [ -69.70464, -18.47544 ], [ -69.70533, -18.47576 ], [ -69.706, -18.47566 ], [ -69.71009, -18.47406 ], [ -69.73822, -18.46668 ], [ -69.74202, -18.46287 ], [ -69.76222, -18.46168 ], [ -69.77607, -18.46637 ], [ -69.78578, -18.45944 ], [ -69.785, -18.45889 ] ] ], [ [ [ -69.69106, -18.41991 ], [ -69.69207, -18.4198 ], [ -69.69367, -18.4193 ], [ -69.69482, -18.41938 ], [ -69.69579, -18.41992 ], [ -69.6969, -18.42086 ], [ -69.70267, -18.42146 ], [ -69.70738, -18.42343 ], [ -69.70987, -18.42542 ], [ -69.71059, -18.42578 ], [ -69.71199, -18.42623 ], [ -69.71334, -18.42635 ], [ -69.71386, -18.42654 ], [ -69.71873, -18.42899 ], [ -69.72124, -18.43046 ], [ -69.72223, -18.43076 ], [ -69.72264, -18.43078 ], [ -69.7254, -18.42997 ], [ -69.7261, -18.43001 ], [ -69.72854, -18.43069 ], [ -69.72974, -18.432 ], [ -69.73234, -18.43369 ], [ -69.73375, -18.43607 ], [ -69.73622, -18.43681 ], [ -69.73832, -18.43799 ], [ -69.73897, -18.43799 ], [ -69.74152, -18.43714 ], [ -69.74454, -18.43743 ], [ -69.74494, -18.43758 ], [ -69.74576, -18.43854 ], [ -69.747, -18.43884 ], [ -69.74797, -18.43937 ], [ -69.74838, -18.43986 ], [ -69.74856, -18.44064 ], [ -69.74949, -18.44106 ], [ -69.75016, -18.44106 ], [ -69.75266, -18.44016 ], [ -69.75381, -18.44028 ], [ -69.75504, -18.44006 ], [ -69.75877, -18.44097 ], [ -69.75963, -18.44161 ], [ -69.76135, -18.44369 ], [ -69.76187, -18.4447 ], [ -69.76254, -18.44702 ], [ -69.76253, -18.45047 ], [ -69.7631, -18.45173 ], [ -69.76376, -18.45265 ], [ -69.76496, -18.4539 ], [ -69.76697, -18.45533 ], [ -69.76853, -18.45578 ], [ -69.77103, -18.45613 ], [ -69.77318, -18.4569 ], [ -69.77584, -18.45699 ], [ -69.77978, -18.45839 ], [ -69.78046, -18.45849 ], [ -69.78436, -18.45802 ], [ -69.7854, -18.45841 ], [ -69.78639, -18.459 ], [ -69.80138, -18.44829 ], [ -69.81163, -18.43935 ], [ -69.81065, -18.43694 ], [ -69.80191, -18.43418 ], [ -69.7967, -18.42941 ], [ -69.79807, -18.42082 ], [ -69.79857, -18.41877 ], [ -69.8014, -18.41611 ], [ -69.80302, -18.4138 ], [ -69.80968, -18.41049 ], [ -69.8052, -18.40251 ], [ -69.79691, -18.39928 ], [ -69.78668, -18.39165 ], [ -69.78572, -18.37795 ], [ -69.75967, -18.37656 ], [ -69.75508, -18.37998 ], [ -69.75038, -18.39205 ], [ -69.75162, -18.41052 ], [ -69.75478, -18.4173 ], [ -69.75269, -18.41872 ], [ -69.74266, -18.41906 ], [ -69.73445, -18.41675 ], [ -69.71998, -18.41054 ], [ -69.70825, -18.40125 ], [ -69.69747, -18.39713 ], [ -69.67757, -18.39504 ], [ -69.67651, -18.39517 ], [ -69.66987, -18.41353 ], [ -69.68516, -18.41894 ], [ -69.68919, -18.4192 ], [ -69.69106, -18.41991 ] ] ] ] } },
{ "type": "Feature", "properties": { "nombre": "Parque Nacional Lauca", "categoria": "Parque Nacional", "region": "Arica Y Parinacota", "superficie_ha": "137883", "decreto": "NÂ° 284 de 1965; NÂ° 270 de 1970; NÂ° 29 de 1983; NÂ° 36 de 1986; NÂ° 12 de 1989" }, "geometry": { "type": "Polygon", "coordinates": [ [ [ -69.32283, -18.12774 ], [ -69.32282, -18.13072 ], [ -69.32249, -18.13211 ], [ -69.32278, -18.13327 ], [ -69.32153, -18.13348 ], [ -69.3201, -18.13536 ], [ -69.31938, -18.13607 ], [ -69.31492, -18.13902 ], [ -69.31019, -18.14292 ], [ -69.30433, -18.1469 ], [ -69.30335, -18.14724 ], [ -69.30137, -18.14671 ], [ -69.29966, -18.14605 ], [ -69.29774, -18.14605 ], [ -69.29732, -18.14589 ], [ -69.29647, -18.145 ], [ -69.29593, -18.14467 ], [ -69.29485, -18.14445 ], [ -69.29396, -18.1446 ], [ -69.29376, -18.14504 ], [ -69.29428, -18.15077 ], [ -69.29546, -18.15404 ], [ -69.27194, -18.15369 ], [ -69.24617, -18.14153 ], [ -69.2243, -18.13376 ], [ -69.20316, -18.13526 ], [ -69.17753, -18.13602 ], [ -69.14997, -18.12589 ], [ -69.12798, -18.12844 ], [ -69.12798, -18.12892 ], [ -69.12663, -18.13224 ], [ -69.12738, -18.13539 ], [ -69.12859, -18.13748 ], [ -69.12936, -18.13837 ], [ -69.13258, -18.14039 ], [ -69.13441, -18.14093 ], [ -69.13513, -18.14099 ], [ -69.13536, -18.14122 ], [ -69.13541, -18.142 ], [ -69.13621, -18.14333 ], [ -69.14051, -18.14487 ], [ -69.14103, -18.14758 ], [ -69.14163, -18.14871 ], [ -69.14165, -18.15095 ], [ -69.14187, -18.15241 ], [ -69.14164, -18.15574 ], [ -69.14203, -18.15672 ], [ -69.14238, -18.1583 ], [ -69.14237, -18.16051 ], [ -69.14373, -18.16042 ], [ -69.1442, -18.16057 ], [ -69.14539, -18.16122 ], [ -69.14595, -18.16181 ], [ -69.14623, -18.16317 ], [ -69.14561, -18.1654 ], [ -69.14529, -18.16585 ], [ -69.14421, -18.16659 ], [ -69.1424, -18.16668 ], [ -69.14174, -18.16744 ], [ -69.14164, -18.16821 ], [ -69.1396, -18.17244 ], [ -69.13838, -18.17424 ], [ -69.13649, -18.17635 ], [ -69.13261, -18.17879 ], [ -69.13001, -18.18005 ], [ -69.12847, -18.18114 ], [ -69.12627, -18.18198 ], [ -69.12513, -18.18293 ], [ -69.12293, -18.18571 ], [ -69.11906, -18.18841 ], [ -69.11816, -18.18998 ], [ -69.11777, -18.19126 ], [ -69.11774, -18.19243 ], [ -69.11706, -18.19365 ], [ -69.115, -18.1958 ], [ -69.11331, -18.19838 ], [ -69.11197, -18.19936 ], [ -69.10964, -18.20174 ], [ -69.10727, -18.20484 ], [ -69.10584, -18.20712 ], [ -69.1043, -18.20875 ], [ -69.10252, -18.21019 ], [ -69.10019, -18.21049 ], [ -69.09727, -18.21042 ], [ -69.0924, -18.21157 ], [ -69.09042, -18.2126 ], [ -69.08719, -18.21374 ], [ -69.08093, -18.21772 ], [ -69.07931, -18.2185 ], [ -69.07818, -18.2195 ], [ -69.07725, -18.21984 ], [ -69.07609, -18.22069 ], [ -69.075, -18.22199 ], [ -69.07373, -18.2222 ], [ -69.07322, -18.22255 ], [ -69.07153, -18.22509 ], [ -69.07127, -18.22589 ], [ -69.06824, -18.22887 ], [ -69.06602, -18.23013 ], [ -69.06428, -18.23054 ], [ -69.06398, -18.2316 ], [ -69.06396, -18.23351 ], [ -69.06314, -18.23428 ], [ -69.06284, -18.23533 ], [ -69.06296, -18.23691 ], [ -69.06525, -18.23957 ], [ -69.0652, -18.24029 ], [ -69.06458, -18.24188 ], [ -69.06455, -18.244 ], [ -69.06591, -18.24613 ], [ -69.06782, -18.24846 ], [ -69.06921, -18.25081 ], [ -69.06983, -18.25156 ], [ -69.07002, -18.25208 ], [ -69.0699, -18.25311 ], [ -69.07073, -18.25491 ], [ -69.07093, -18.2558 ], [ -69.07067, -18.25763 ], [ -69.07118, -18.25931 ], [ -69.07162, -18.26007 ], [ -69.07169, -18.262 ], [ -69.0724, -18.26661 ], [ -69.07282, -18.27229 ], [ -69.07333, -18.27416 ], [ -69.07374, -18.27766 ], [ -69.07406, -18.28369 ], [ -69.07444, -18.28662 ], [ -69.0736, -18.28955 ], [ -69.07254, -18.29189 ], [ -69.08333, -18.31366 ], [ -69.10723, -18.35169 ], [ -69.11348, -18.35972 ], [ -69.11647, -18.35812 ], [ -69.11693, -18.35755 ], [ -69.11788, -18.35681 ], [ -69.1186, -18.35645 ], [ -69.12065, -18.356 ], [ -69.12175, -18.35505 ], [ -69.12352, -18.35453 ], [ -69.12388, -18.35424 ], [ -69.1257, -18.35143 ], [ -69.12632, -18.35089 ], [ -69.12685, -18.3507 ], [ -69.12829, -18.35073 ], [ -69.12874, -18.35041 ], [ -69.12922, -18.34865 ], [ -69.12976, -18.34759 ], [ -69.13195, -18.34699 ], [ -69.13261, -18.3463 ], [ -69.1412, -18.34624 ], [ -69.14333, -18.33136 ], [ -69.1546, -18.32059 ], [ -69.1543, -18.31351 ], [ -69.15493, -18.3131 ], [ -69.15648, -18.31293 ], [ -69.15787, -18.31207 ], [ -69.15927, -18.3108 ], [ -69.16282, -18.30882 ], [ -69.164, -18.30844 ], [ -69.16694, -18.3057 ], [ -69.16758, -18.30395 ], [ -69.16884, -18.30275 ], [ -69.17149, -18.30233 ], [ -69.17278, -18.30179 ], [ -69.17342, -18.30134 ], [ -69.17374, -18.30055 ], [ -69.17371, -18.30018 ], [ -69.17432, -18.29908 ], [ -69.17545, -18.29793 ], [ -69.18009, -18.29659 ], [ -69.18129, -18.29424 ], [ -69.18127, -18.29361 ], [ -69.18228, -18.29003 ], [ -69.1827, -18.28938 ], [ -69.18374, -18.2884 ], [ -69.18424, -18.28749 ], [ -69.18596, -18.28667 ], [ -69.18805, -18.28622 ], [ -69.19205, -18.2841 ], [ -69.19267, -18.28339 ], [ -69.19434, -18.28074 ], [ -69.19606, -18.2801 ], [ -69.19767, -18.27907 ], [ -69.19878, -18.27887 ], [ -69.20151, -18.27897 ], [ -69.20366, -18.27948 ], [ -69.20523, -18.27961 ], [ -69.20789, -18.27947 ], [ -69.20975, -18.27981 ], [ -69.21119, -18.27988 ], [ -69.21147, -18.27957 ], [ -69.21294, -18.27615 ], [ -69.21304, -18.27556 ], [ -69.21304, -18.27498 ], [ -69.2124, -18.273 ], [ -69.21405, -18.27484 ], [ -69.21494, -18.27536 ], [ -69.21731, -18.27614 ], [ -69.22176, -18.2787 ], [ -69.22427, -18.27928 ], [ -69.22682, -18.28021 ], [ -69.22778, -18.28079 ], [ -69.22979, -18.28157 ], [ -69.23098, -18.28253 ], [ -69.23141, -18.2827 ], [ -69.23499, -18.28264 ], [ -69.23785, -18.28312 ], [ -69.23973, -18.28293 ], [ -69.23905, -18.28654 ], [ -69.23846, -18.28874 ], [ -69.23942, -18.28933 ], [ -69.24001, -18.28939 ], [ -69.24304, -18.29054 ], [ -69.246, -18.29105 ], [ -69.24828, -18.29217 ], [ -69.25317, -18.29188 ], [ -69.25486, -18.29234 ], [ -69.25679, -18.29233 ], [ -69.25726, -18.2925 ], [ -69.25807, -18.29326 ], [ -69.25888, -18.29375 ], [ -69.25981, -18.29349 ], [ -69.26158, -18.29262 ], [ -69.26244, -18.29267 ], [ -69.26348, -18.29301 ], [ -69.26531, -18.29468 ], [ -69.26601, -18.29506 ], [ -69.26666, -18.29527 ], [ -69.26703, -18.29518 ], [ -69.26717, -18.29534 ], [ -69.26757, -18.29612 ], [ -69.26778, -18.29711 ], [ -69.26783, -18.29889 ], [ -69.26873, -18.30079 ], [ -69.26947, -18.30125 ], [ -69.28004, -18.30514 ], [ -69.28233, -18.30528 ], [ -69.28437, -18.3059 ], [ -69.28549, -18.3066 ], [ -69.28761, -18.30697 ], [ -69.28884, -18.30693 ], [ -69.29295, -18.3062 ], [ -69.29442, -18.30626 ], [ -69.29554, -18.30555 ], [ -69.29769, -18.30356 ], [ -69.29864, -18.3031 ], [ -69.29993, -18.30286 ], [ -69.30098, -18.30292 ], [ -69.30345, -18.30377 ], [ -69.30482, -18.30446 ], [ -69.30553, -18.30513 ], [ -69.30749, -18.30846 ], [ -69.30868, -18.30974 ], [ -69.31355, -18.31103 ], [ -69.31386, -18.31132 ], [ -69.31817, -18.31302 ], [ -69.31937, -18.3143 ], [ -69.31996, -18.31439 ], [ -69.32028, -18.31483 ], [ -69.32232, -18.31617 ], [ -69.32476, -18.31764 ], [ -69.32662, -18.31851 ], [ -69.32761, -18.32009 ], [ -69.32907, -18.32044 ], [ -69.32978, -18.32157 ], [ -69.33115, -18.32283 ], [ -69.33214, -18.3233 ], [ -69.33454, -18.32353 ], [ -69.33571, -18.32384 ], [ -69.33661, -18.32442 ], [ -69.33729, -18.32447 ], [ -69.33905, -18.325 ], [ -69.34055, -18.32493 ], [ -69.34562, -18.32425 ], [ -69.34508, -18.32631 ], [ -69.34534, -18.32689 ], [ -69.34607, -18.32747 ], [ -69.34605, -18.32789 ], [ -69.34561, -18.32859 ], [ -69.34548, -18.32919 ], [ -69.34554, -18.33009 ], [ -69.34593, -18.33046 ], [ -69.3463, -18.33128 ], [ -69.34684, -18.33192 ], [ -69.34782, -18.33157 ], [ -69.34822, -18.33165 ], [ -69.34873, -18.33229 ], [ -69.34904, -18.33236 ], [ -69.34968, -18.33388 ], [ -69.35027, -18.33446 ], [ -69.35116, -18.33479 ], [ -69.35198, -18.33537 ], [ -69.35246, -18.33656 ], [ -69.35286, -18.33708 ], [ -69.35294, -18.33751 ], [ -69.35385, -18.33808 ], [ -69.35388, -18.33829 ], [ -69.35331, -18.33884 ], [ -69.35328, -18.33977 ], [ -69.35381, -18.34043 ], [ -69.35446, -18.34053 ], [ -69.35458, -18.34096 ], [ -69.35554, -18.34132 ], [ -69.35561, -18.34235 ], [ -69.35599, -18.34313 ], [ -69.35588, -18.34344 ], [ -69.35517, -18.34406 ], [ -69.35522, -18.34436 ], [ -69.35626, -18.34648 ], [ -69.35686, -18.34706 ], [ -69.35696, -18.34744 ], [ -69.35669, -18.34902 ], [ -69.35684, -18.3494 ], [ -69.35728, -18.34978 ], [ -69.35814, -18.35001 ], [ -69.35923, -18.35161 ], [ -69.35923, -18.35287 ], [ -69.35994, -18.35368 ], [ -69.35993, -18.35514 ], [ -69.36045, -18.356 ], [ -69.36049, -18.35727 ], [ -69.36095, -18.35861 ], [ -69.36108, -18.35962 ], [ -69.36099, -18.36024 ], [ -69.36041, -18.36108 ], [ -69.36045, -18.36139 ], [ -69.36061, -18.36162 ], [ -69.36146, -18.36189 ], [ -69.3615, -18.36208 ], [ -69.36047, -18.36277 ], [ -69.36006, -18.3629 ], [ -69.35942, -18.36284 ], [ -69.35906, -18.36319 ], [ -69.35913, -18.36349 ], [ -69.36007, -18.36429 ], [ -69.36002, -18.36459 ], [ -69.35922, -18.36524 ], [ -69.35909, -18.36573 ], [ -69.35913, -18.36684 ], [ -69.35862, -18.36718 ], [ -69.35839, -18.36763 ], [ -69.35848, -18.36798 ], [ -69.35927, -18.36879 ], [ -69.3592, -18.36917 ], [ -69.35871, -18.36972 ], [ -69.35793, -18.37008 ], [ -69.35744, -18.37067 ], [ -69.35653, -18.37104 ], [ -69.35609, -18.37176 ], [ -69.3556, -18.37205 ], [ -69.35536, -18.37299 ], [ -69.35479, -18.37236 ], [ -69.35451, -18.37242 ], [ -69.35379, -18.37325 ], [ -69.35313, -18.37295 ], [ -69.35274, -18.37308 ], [ -69.35264, -18.37332 ], [ -69.35297, -18.37377 ], [ -69.35299, -18.37407 ], [ -69.35135, -18.37517 ], [ -69.35084, -18.37591 ], [ -69.35086, -18.37637 ], [ -69.35131, -18.37742 ], [ -69.34995, -18.37794 ], [ -69.34951, -18.37831 ], [ -69.34917, -18.37909 ], [ -69.34927, -18.38027 ], [ -69.34844, -18.38056 ], [ -69.34989, -18.3815 ], [ -69.35227, -18.38237 ], [ -69.35434, -18.38264 ], [ -69.35563, -18.38261 ], [ -69.35623, -18.38299 ], [ -69.35668, -18.38287 ], [ -69.35739, -18.38324 ], [ -69.35832, -18.38314 ], [ -69.35985, -18.38388 ], [ -69.36288, -18.38382 ], [ -69.36368, -18.38327 ], [ -69.36625, -18.38312 ], [ -69.36647, -18.38356 ], [ -69.36676, -18.38374 ], [ -69.36692, -18.3844 ], [ -69.36713, -18.38459 ], [ -69.3691, -18.385 ], [ -69.36986, -18.38652 ], [ -69.37049, -18.38715 ], [ -69.37148, -18.38758 ], [ -69.37387, -18.38904 ], [ -69.3755, -18.38953 ], [ -69.37856, -18.39015 ], [ -69.38039, -18.39091 ], [ -69.38371, -18.3937 ], [ -69.38438, -18.39401 ], [ -69.38768, -18.3965 ], [ -69.38989, -18.39756 ], [ -69.39115, -18.39851 ], [ -69.39424, -18.39983 ], [ -69.39978, -18.40337 ], [ -69.40224, -18.40592 ], [ -69.4044, -18.40769 ], [ -69.40612, -18.40843 ], [ -69.40906, -18.40867 ], [ -69.41112, -18.40861 ], [ -69.41279, -18.4089 ], [ -69.41336, -18.4092 ], [ -69.41512, -18.40913 ], [ -69.41622, -18.4096 ], [ -69.42155, -18.40774 ], [ -69.42256, -18.40748 ], [ -69.42302, -18.40755 ], [ -69.42326, -18.43451 ], [ -69.42652, -18.4338 ], [ -69.42831, -18.43402 ], [ -69.43029, -18.43559 ], [ -69.43117, -18.43658 ], [ -69.43537, -18.43876 ], [ -69.44096, -18.44106 ], [ -69.44197, -18.44196 ], [ -69.44366, -18.44314 ], [ -69.44383, -18.44358 ], [ -69.45914, -18.44443 ], [ -69.45993, -18.44517 ], [ -69.4608, -18.44558 ], [ -69.46121, -18.4463 ], [ -69.46312, -18.44778 ], [ -69.46437, -18.44771 ], [ -69.46518, -18.4479 ], [ -69.46602, -18.44743 ], [ -69.47003, -18.44783 ], [ -69.47103, -18.44762 ], [ -69.47389, -18.44789 ], [ -69.47639, -18.44894 ], [ -69.47764, -18.44967 ], [ -69.47817, -18.45013 ], [ -69.47875, -18.45139 ], [ -69.47948, -18.45205 ], [ -69.48059, -18.45251 ], [ -69.48144, -18.45329 ], [ -69.48227, -18.45449 ], [ -69.48348, -18.45546 ], [ -69.48658, -18.45544 ], [ -69.48683, -18.45558 ], [ -69.48805, -18.4574 ], [ -69.48876, -18.45819 ], [ -69.48976, -18.45848 ], [ -69.49145, -18.45868 ], [ -69.49358, -18.45821 ], [ -69.49581, -18.45891 ], [ -69.49828, -18.45875 ], [ -69.4989, -18.45891 ], [ -69.49984, -18.45961 ], [ -69.50051, -18.4597 ], [ -69.50114, -18.45966 ], [ -69.50204, -18.4592 ], [ -69.50402, -18.46027 ], [ -69.50527, -18.46244 ], [ -69.50614, -18.46114 ], [ -69.50595, -18.45946 ], [ -69.50547, -18.45871 ], [ -69.50592, -18.45816 ], [ -69.50591, -18.45731 ], [ -69.50618, -18.45675 ], [ -69.50642, -18.45673 ], [ -69.50715, -18.45735 ], [ -69.50913, -18.45642 ], [ -69.51051, -18.45638 ], [ -69.51073, -18.4562 ], [ -69.51111, -18.45489 ], [ -69.51076, -18.45446 ], [ -69.51127, -18.4539 ], [ -69.51169, -18.45401 ], [ -69.51261, -18.45479 ], [ -69.51367, -18.45407 ], [ -69.51469, -18.45284 ], [ -69.51552, -18.45133 ], [ -69.51583, -18.44983 ], [ -69.51664, -18.44951 ], [ -69.51678, -18.44928 ], [ -69.51657, -18.44891 ], [ -69.5158, -18.4485 ], [ -69.51565, -18.44743 ], [ -69.51412, -18.44714 ], [ -69.5137, -18.44647 ], [ -69.51294, -18.44651 ], [ -69.51225, -18.44583 ], [ -69.51151, -18.44611 ], [ -69.51123, -18.44605 ], [ -69.51013, -18.44455 ], [ -69.50893, -18.44403 ], [ -69.50892, -18.44338 ], [ -69.50863, -18.44299 ], [ -69.50746, -18.4424 ], [ -69.50758, -18.44107 ], [ -69.50831, -18.44104 ], [ -69.50877, -18.44023 ], [ -69.50824, -18.43891 ], [ -69.50653, -18.43783 ], [ -69.50662, -18.43764 ], [ -69.50723, -18.43765 ], [ -69.50731, -18.43745 ], [ -69.50679, -18.43713 ], [ -69.50614, -18.43639 ], [ -69.50572, -18.43555 ], [ -69.50577, -18.43504 ], [ -69.5055, -18.43459 ], [ -69.50555, -18.43442 ], [ -69.5065, -18.43487 ], [ -69.50747, -18.43436 ], [ -69.5077, -18.43398 ], [ -69.50662, -18.43272 ], [ -69.50585, -18.43223 ], [ -69.50572, -18.43149 ], [ -69.50591, -18.43131 ], [ -69.50656, -18.43171 ], [ -69.50696, -18.43148 ], [ -69.50799, -18.43163 ], [ -69.50894, -18.43132 ], [ -69.50901, -18.4298 ], [ -69.5075, -18.42687 ], [ -69.50751, -18.42538 ], [ -69.50807, -18.42496 ], [ -69.50813, -18.42462 ], [ -69.50734, -18.42336 ], [ -69.50602, -18.42283 ], [ -69.50618, -18.42229 ], [ -69.50692, -18.42223 ], [ -69.50723, -18.42199 ], [ -69.50671, -18.42129 ], [ -69.50654, -18.42057 ], [ -69.50606, -18.41966 ], [ -69.5051, -18.41871 ], [ -69.50535, -18.41791 ], [ -69.50497, -18.41748 ], [ -69.50568, -18.4169 ], [ -69.50618, -18.41582 ], [ -69.50692, -18.41572 ], [ -69.5068, -18.41467 ], [ -69.50803, -18.41338 ], [ -69.50864, -18.41225 ], [ -69.50928, -18.4117 ], [ -69.51, -18.41181 ], [ -69.51078, -18.41162 ], [ -69.51055, -18.41045 ], [ -69.51071, -18.41009 ], [ -69.51155, -18.40997 ], [ -69.51274, -18.41031 ], [ -69.51388, -18.41025 ], [ -69.5144, -18.40975 ], [ -69.51512, -18.4095 ], [ -69.51551, -18.40875 ], [ -69.51676, -18.40761 ], [ -69.51704, -18.40712 ], [ -69.51759, -18.40684 ], [ -69.51808, -18.40619 ], [ -69.51847, -18.4049 ], [ -69.51836, -18.40302 ], [ -69.51808, -18.40251 ], [ -69.51817, -18.3997 ], [ -69.51895, -18.39766 ], [ -69.51944, -18.39718 ], [ -69.51925, -18.39712 ], [ -69.51844, -18.39778 ], [ -69.51876, -18.39732 ], [ -69.51223, -18.37974 ], [ -69.50243, -18.35183 ], [ -69.51243, -18.32261 ], [ -69.50921, -18.29174 ], [ -69.51084, -18.26342 ], [ -69.51056, -18.22723 ], [ -69.50468, -18.20663 ], [ -69.50315, -18.2001 ], [ -69.50272, -18.17783 ], [ -69.50178, -18.17665 ], [ -69.5025, -18.1767 ], [ -69.50266, -18.17585 ], [ -69.50311, -18.17512 ], [ -69.5058, -18.17368 ], [ -69.50667, -18.17298 ], [ -69.50742, -18.17207 ], [ -69.50742, -18.17128 ], [ -69.50712, -18.17055 ], [ -69.50706, -18.16975 ], [ -69.50726, -18.16878 ], [ -69.50718, -18.16658 ], [ -69.50787, -18.16694 ], [ -69.50913, -18.16682 ], [ -69.50949, -18.16667 ], [ -69.50999, -18.16611 ], [ -69.51068, -18.16637 ], [ -69.51153, -18.16579 ], [ -69.51228, -18.16599 ], [ -69.51376, -18.167 ], [ -69.51533, -18.16756 ], [ -69.51588, -18.16756 ], [ -69.51658, -18.16782 ], [ -69.51737, -18.16846 ], [ -69.51806, -18.1686 ], [ -69.51884, -18.16853 ], [ -69.51942, -18.1688 ], [ -69.52006, -18.16847 ], [ -69.57018, -18.16827 ], [ -69.58964, -18.18181 ], [ -69.60377, -18.19703 ], [ -69.6039, -18.20615 ], [ -69.60441, -18.20611 ], [ -69.60498, -18.20641 ], [ -69.60566, -18.20642 ], [ -69.60685, -18.20602 ], [ -69.6076, -18.206 ], [ -69.60908, -18.20532 ], [ -69.611, -18.20524 ], [ -69.61075, -18.20629 ], [ -69.61095, -18.20671 ], [ -69.61173, -18.20689 ], [ -69.61238, -18.20736 ], [ -69.6128, -18.20732 ], [ -69.61351, -18.20771 ], [ -69.61404, -18.20827 ], [ -69.61468, -18.21067 ], [ -69.61571, -18.21109 ], [ -69.61599, -18.21326 ], [ -69.61617, -18.21369 ], [ -69.6176, -18.21443 ], [ -69.61777, -18.21466 ], [ -69.61818, -18.21575 ], [ -69.61809, -18.21747 ], [ -69.61824, -18.21778 ], [ -69.61976, -18.21866 ], [ -69.61999, -18.21901 ], [ -69.6201, -18.21953 ], [ -69.6199, -18.22171 ], [ -69.62005, -18.2222 ], [ -69.62031, -18.22247 ], [ -69.62066, -18.22274 ], [ -69.62207, -18.22306 ], [ -69.62359, -18.22439 ], [ -69.62561, -18.22698 ], [ -69.62818, -18.22881 ], [ -69.62879, -18.22907 ], [ -69.63034, -18.22925 ], [ -69.63088, -18.22948 ], [ -69.63177, -18.2302 ], [ -69.63268, -18.23102 ], [ -69.63358, -18.23233 ], [ -69.63425, -18.23372 ], [ -69.635, -18.23456 ], [ -69.63647, -18.23504 ], [ -69.63762, -18.23568 ], [ -69.63861, -18.23569 ], [ -69.63914, -18.23587 ], [ -69.6399, -18.23633 ], [ -69.64033, -18.23639 ], [ -69.64155, -18.23611 ], [ -69.64145, -18.23581 ], [ -69.64183, -18.235 ], [ -69.64178, -18.23419 ], [ -69.64202, -18.23364 ], [ -69.64225, -18.23024 ], [ -69.64269, -18.22908 ], [ -69.64365, -18.22761 ], [ -69.64388, -18.22488 ], [ -69.64447, -18.22311 ], [ -69.64515, -18.22237 ], [ -69.64628, -18.21901 ], [ -69.64705, -18.21804 ], [ -69.64744, -18.21716 ], [ -69.6483, -18.21653 ], [ -69.64847, -18.21557 ], [ -69.64962, -18.21452 ], [ -69.64975, -18.21338 ], [ -69.65041, -18.21243 ], [ -69.65043, -18.21107 ], [ -69.65065, -18.21085 ], [ -69.65189, -18.2106 ], [ -69.65205, -18.21022 ], [ -69.65101, -18.20762 ], [ -69.6508, -18.20732 ], [ -69.65004, -18.20711 ], [ -69.64959, -18.20649 ], [ -69.64944, -18.20588 ], [ -69.64945, -18.20411 ], [ -69.64705, -18.20275 ], [ -69.64628, -18.20129 ], [ -69.64492, -18.20061 ], [ -69.64435, -18.20014 ], [ -69.64368, -18.19895 ], [ -69.64353, -18.1985 ], [ -69.64354, -18.19763 ], [ -69.64373, -18.19666 ], [ -69.64455, -18.19441 ], [ -69.64448, -18.19406 ], [ -69.64386, -18.19313 ], [ -69.64288, -18.19236 ], [ -69.6419, -18.19218 ], [ -69.64147, -18.19193 ], [ -69.64091, -18.19078 ], [ -69.64082, -18.18977 ], [ -69.64195, -18.18849 ], [ -69.64209, -18.1873 ], [ -69.64171, -18.18592 ], [ -69.64042, -18.18483 ], [ -69.64021, -18.18435 ], [ -69.64049, -18.18263 ], [ -69.64041, -18.18238 ], [ -69.63989, -18.18183 ], [ -69.63927, -18.18014 ], [ -69.63853, -18.17951 ], [ -69.63753, -18.17821 ], [ -69.63605, -18.17727 ], [ -69.6352, -18.17645 ], [ -69.63482, -18.17565 ], [ -69.63507, -18.17459 ], [ -69.63497, -18.17422 ], [ -69.6337, -18.17245 ], [ -69.63335, -18.1716 ], [ -69.63324, -18.17095 ], [ -69.63341, -18.17037 ], [ -69.63475, -18.16902 ], [ -69.63509, -18.16841 ], [ -69.63512, -18.16802 ], [ -69.63489, -18.16726 ], [ -69.63392, -18.16587 ], [ -69.63376, -18.16538 ], [ -69.6338, -18.16461 ], [ -69.63497, -18.162 ], [ -69.63562, -18.16124 ], [ -69.63619, -18.16084 ], [ -69.63632, -18.15982 ], [ -69.63749, -18.15856 ], [ -69.63825, -18.15723 ], [ -69.63829, -18.15654 ], [ -69.63732, -18.15508 ], [ -69.63734, -18.15347 ], [ -69.63704, -18.15263 ], [ -69.63783, -18.15116 ], [ -69.63867, -18.15008 ], [ -69.63878, -18.14978 ], [ -69.63871, -18.14883 ], [ -69.63897, -18.14789 ], [ -69.63937, -18.14747 ], [ -69.63961, -18.14744 ], [ -69.64063, -18.14815 ], [ -69.64118, -18.14816 ], [ -69.64153, -18.1478 ], [ -69.64165, -18.14679 ], [ -69.64201, -18.14566 ], [ -69.64261, -18.14512 ], [ -69.64405, -18.14449 ], [ -69.64484, -18.14434 ], [ -69.64579, -18.14358 ], [ -69.64678, -18.14369 ], [ -69.64791, -18.14331 ], [ -69.64856, -18.1427 ], [ -69.64974, -18.1411 ], [ -69.65121, -18.14025 ], [ -69.65242, -18.13926 ], [ -69.65276, -18.13879 ], [ -69.65278, -18.137 ], [ -69.65327, -18.13617 ], [ -69.65437, -18.13534 ], [ -69.65488, -18.13527 ], [ -69.6554, -18.1349 ], [ -69.65592, -18.13365 ], [ -69.65619, -18.13338 ], [ -69.6565, -18.13321 ], [ -69.65762, -18.13319 ], [ -69.65773, -18.13305 ], [ -69.65778, -18.13272 ], [ -69.65736, -18.13208 ], [ -69.65763, -18.13133 ], [ -69.6576, -18.13058 ], [ -69.65778, -18.13024 ], [ -69.65864, -18.12981 ], [ -69.65911, -18.12885 ], [ -69.6591, -18.12854 ], [ -69.65802, -18.12651 ], [ -69.65769, -18.12548 ], [ -69.65767, -18.12448 ], [ -69.65789, -18.12405 ], [ -69.65784, -18.12332 ], [ -69.65797, -18.12303 ], [ -69.65909, -18.12197 ], [ -69.65933, -18.12084 ], [ -69.65983, -18.11973 ], [ -69.65962, -18.1193 ], [ -69.65848, -18.11842 ], [ -69.65669, -18.11745 ], [ -69.65579, -18.1158 ], [ -69.65508, -18.11531 ], [ -69.65404, -18.1151 ], [ -69.65365, -18.11486 ], [ -69.65346, -18.11453 ], [ -69.65356, -18.11263 ], [ -69.65298, -18.11166 ], [ -69.65277, -18.10966 ], [ -69.6525, -18.10935 ], [ -69.65179, -18.10899 ], [ -69.6516, -18.10798 ], [ -69.65109, -18.1074 ], [ -69.65089, -18.10616 ], [ -69.65045, -18.10487 ], [ -69.65054, -18.10432 ], [ -69.6514, -18.10285 ], [ -69.65168, -18.09892 ], [ -69.65107, -18.0974 ], [ -69.65082, -18.09497 ], [ -69.65061, -18.09463 ], [ -69.6493, -18.09391 ], [ -69.64884, -18.09339 ], [ -69.64953, -18.08835 ], [ -69.64911, -18.08776 ], [ -69.64815, -18.08705 ], [ -69.64795, -18.0867 ], [ -69.64812, -18.08632 ], [ -69.64926, -18.08577 ], [ -69.64949, -18.08509 ], [ -69.64937, -18.08483 ], [ -69.64833, -18.0843 ], [ -69.64786, -18.08386 ], [ -69.64745, -18.08247 ], [ -69.64649, -18.0812 ], [ -69.6464, -18.08085 ], [ -69.64676, -18.07971 ], [ -69.64679, -18.07884 ], [ -69.64714, -18.07817 ], [ -69.64685, -18.07715 ], [ -69.64736, -18.07678 ], [ -69.64753, -18.07636 ], [ -69.64666, -18.07561 ], [ -69.64737, -18.07405 ], [ -69.64752, -18.07314 ], [ -69.64737, -18.0726 ], [ -69.64669, -18.07181 ], [ -69.64642, -18.071 ], [ -69.64643, -18.06852 ], [ -69.64516, -18.06781 ], [ -69.64467, -18.06776 ], [ -69.64398, -18.06707 ], [ -69.64321, -18.06667 ], [ -69.64176, -18.06639 ], [ -69.6415, -18.06651 ], [ -69.64079, -18.06628 ], [ -69.63969, -18.06664 ], [ -69.63863, -18.06824 ], [ -69.63689, -18.06953 ], [ -69.63499, -18.07057 ], [ -69.63419, -18.0706 ], [ -69.63314, -18.07013 ], [ -69.63189, -18.06992 ], [ -69.63052, -18.06992 ], [ -69.6292, -18.07013 ], [ -69.62828, -18.06915 ], [ -69.62773, -18.06889 ], [ -69.62678, -18.06908 ], [ -69.62538, -18.06888 ], [ -69.62446, -18.06789 ], [ -69.62302, -18.06736 ], [ -69.62109, -18.06595 ], [ -69.62044, -18.06517 ], [ -69.62043, -18.06488 ], [ -69.61996, -18.06456 ], [ -69.61986, -18.06415 ], [ -69.61929, -18.06346 ], [ -69.61882, -18.06315 ], [ -69.61818, -18.06301 ], [ -69.61578, -18.06133 ], [ -69.61533, -18.06031 ], [ -69.61393, -18.05932 ], [ -69.61327, -18.05855 ], [ -69.61274, -18.05836 ], [ -69.61231, -18.05799 ], [ -69.61188, -18.05779 ], [ -69.60949, -18.05766 ], [ -69.60861, -18.05699 ], [ -69.60828, -18.05643 ], [ -69.60782, -18.05613 ], [ -69.6063, -18.05608 ], [ -69.60489, -18.05653 ], [ -69.6036, -18.05643 ], [ -69.60342, -18.05593 ], [ -69.60343, -18.05512 ], [ -69.60329, -18.05501 ], [ -69.60261, -18.05501 ], [ -69.60227, -18.05521 ], [ -69.60084, -18.05503 ], [ -69.59889, -18.05701 ], [ -69.59611, -18.05769 ], [ -69.59399, -18.05848 ], [ -69.59246, -18.05856 ], [ -69.59136, -18.05882 ], [ -69.58961, -18.0597 ], [ -69.58819, -18.06092 ], [ -69.58632, -18.0619 ], [ -69.58559, -18.06202 ], [ -69.58426, -18.06192 ], [ -69.58314, -18.06264 ], [ -69.58245, -18.06331 ], [ -69.58174, -18.06368 ], [ -69.58025, -18.06426 ], [ -69.57839, -18.06436 ], [ -69.57762, -18.06464 ], [ -69.57603, -18.06548 ], [ -69.57484, -18.06576 ], [ -69.57361, -18.06674 ], [ -69.57266, -18.06701 ], [ -69.57019, -18.06661 ], [ -69.56861, -18.06679 ], [ -69.56754, -18.0675 ], [ -69.56544, -18.06822 ], [ -69.56454, -18.06943 ], [ -69.56335, -18.07037 ], [ -69.56253, -18.07139 ], [ -69.56136, -18.07211 ], [ -69.55948, -18.07248 ], [ -69.55735, -18.07243 ], [ -69.55551, -18.07311 ], [ -69.55348, -18.07347 ], [ -69.55207, -18.07439 ], [ -69.55102, -18.0755 ], [ -69.54653, -18.07752 ], [ -69.54614, -18.07789 ], [ -69.5451, -18.07977 ], [ -69.54358, -18.08099 ], [ -69.53872, -18.08266 ], [ -69.53763, -18.0829 ], [ -69.53631, -18.0839 ], [ -69.53553, -18.08408 ], [ -69.53539, -18.08388 ], [ -69.53085, -18.0868 ], [ -69.53013, -18.08693 ], [ -69.52893, -18.08826 ], [ -69.52825, -18.08872 ], [ -69.52674, -18.09055 ], [ -69.5241, -18.09292 ], [ -69.52323, -18.09314 ], [ -69.52187, -18.09385 ], [ -69.51995, -18.09433 ], [ -69.51718, -18.09582 ], [ -69.51579, -18.09586 ], [ -69.51165, -18.0968 ], [ -69.51058, -18.09726 ], [ -69.50998, -18.09788 ], [ -69.50898, -18.09853 ], [ -69.50621, -18.09474 ], [ -69.5047, -18.09491 ], [ -69.50155, -18.09569 ], [ -69.50024, -18.09568 ], [ -69.49887, -18.09529 ], [ -69.49535, -18.09388 ], [ -69.49466, -18.09387 ], [ -69.49311, -18.09459 ], [ -69.49185, -18.09635 ], [ -69.49071, -18.09708 ], [ -69.48586, -18.09655 ], [ -69.48494, -18.09622 ], [ -69.48379, -18.09557 ], [ -69.4809, -18.09448 ], [ -69.47872, -18.09329 ], [ -69.47771, -18.09233 ], [ -69.47652, -18.09054 ], [ -69.4743, -18.08958 ], [ -69.47319, -18.0888 ], [ -69.47277, -18.08804 ], [ -69.47268, -18.08687 ], [ -69.47239, -18.08613 ], [ -69.4705, -18.08648 ], [ -69.46765, -18.08645 ], [ -69.46569, -18.08666 ], [ -69.46423, -18.08581 ], [ -69.46247, -18.08525 ], [ -69.46055, -18.0852 ], [ -69.46011, -18.08495 ], [ -69.45799, -18.08282 ], [ -69.45612, -18.08278 ], [ -69.45354, -18.08317 ], [ -69.4527, -18.08439 ], [ -69.45214, -18.08639 ], [ -69.45152, -18.08684 ], [ -69.44841, -18.08734 ], [ -69.44542, -18.08822 ], [ -69.44441, -18.08897 ], [ -69.44359, -18.09017 ], [ -69.44278, -18.09021 ], [ -69.44127, -18.08969 ], [ -69.44036, -18.08972 ], [ -69.43623, -18.09048 ], [ -69.43511, -18.0915 ], [ -69.43222, -18.09511 ], [ -69.43003, -18.09619 ], [ -69.42934, -18.09669 ], [ -69.42858, -18.09697 ], [ -69.42612, -18.09732 ], [ -69.42415, -18.09732 ], [ -69.42203, -18.09804 ], [ -69.42094, -18.09896 ], [ -69.42023, -18.10095 ], [ -69.41971, -18.10151 ], [ -69.41405, -18.10276 ], [ -69.4124, -18.10345 ], [ -69.41125, -18.10442 ], [ -69.41031, -18.10495 ], [ -69.40484, -18.10692 ], [ -69.40374, -18.10755 ], [ -69.40277, -18.1084 ], [ -69.40102, -18.10954 ], [ -69.39861, -18.11076 ], [ -69.3977, -18.11096 ], [ -69.39567, -18.11177 ], [ -69.39108, -18.11199 ], [ -69.38974, -18.11295 ], [ -69.38905, -18.1141 ], [ -69.38829, -18.11625 ], [ -69.38796, -18.11666 ], [ -69.38453, -18.11921 ], [ -69.3841, -18.1194 ], [ -69.38082, -18.11999 ], [ -69.37635, -18.12204 ], [ -69.37454, -18.12235 ], [ -69.3742, -18.12287 ], [ -69.37408, -18.12643 ], [ -69.37282, -18.12811 ], [ -69.37246, -18.12848 ], [ -69.37191, -18.12867 ], [ -69.34927, -18.12705 ], [ -69.32299, -18.12703 ], [ -69.32283, -18.12774 ] ] ] } }
]
}
