{
"type": "FeatureCollection",
"name": "TAT",
"crs": { "type": "name", "properties": { "name": "urn:ogc:def:crs:OGC:1.3:CRS84" } },
"xy_coordinate_resolution": 1e-05,
"features": [
{ "type": "Feature", "properties": { "nombre": "Parque Nacional Volcan Isluga", "categoria": "Parque Nacional", "region": "Tarapaca", "superficie_ha": "174744", "decreto": "NÂ° 4 de 1967; NÂ° 277 de 1970; NÂ° 680 de 1975; NÂ° 97 de 1985; NÂ° 151 de 1985" }, "geometry": { "type": "Polygon", "coordinates": [ [ [ -68.80617, -19.28652 ], [ -68.80876, -19.28605 ], [ -68.8138, -19.28097 ], [ -68.81514, -19.2802 ], [ -68.81748, -19.28053 ], [ -68.81935, -19.27994 ], [ -68.82229, -19.27686 ], [ -68.82399, -19.27629 ], [ -68.82624, -19.27595 ], [ -68.82789, -19.2755 ], [ -68.83184, -19.27357 ], [ -68.83355, -19.27195 ], [ -68.83581, -19.27038 ], [ -68.83857, -19.26652 ], [ -68.84061, -19.2646 ], [ -68.84234, -19.26339 ], [ -68.84626, -19.26197 ], [ -68.84758, -19.26081 ], [ -68.84737, -19.25891 ], [ -68.84739, -19.25698 ], [ -68.8482, -19.25562 ], [ -68.85041, -19.25459 ], [ -68.85314, -19.25364 ], [ -68.86253, -19.25238 ], [ -68.86404, -19.25077 ], [ -68.86512, -19.25036 ], [ -68.8666, -19.24927 ], [ -68.87168, -19.24707 ], [ -68.8732, -19.24656 ], [ -68.87498, -19.24674 ], [ -68.87578, -19.24843 ], [ -68.87605, -19.24995 ], [ -68.87765, -19.25427 ], [ -68.87889, -19.25698 ], [ -68.88612, -19.25733 ], [ -68.88704, -19.25804 ], [ -68.88728, -19.25902 ], [ -68.8895, -19.26207 ], [ -68.88914, -19.26402 ], [ -68.88798, -19.26588 ], [ -68.88575, -19.26715 ], [ -68.88495, -19.26859 ], [ -68.89182, -19.2691 ], [ -68.89583, -19.27114 ], [ -68.9002, -19.27419 ], [ -68.90688, -19.27538 ], [ -68.91143, -19.27589 ], [ -68.91384, -19.27665 ], [ -68.91678, -19.27886 ], [ -68.92416, -19.28017 ], [ -68.92728, -19.28017 ], [ -68.93192, -19.28051 ], [ -68.9337, -19.28204 ], [ -68.93566, -19.28458 ], [ -68.93709, -19.28593 ], [ -68.93789, -19.28695 ], [ -68.93843, -19.28975 ], [ -68.94101, -19.29407 ], [ -68.94627, -19.29923 ], [ -68.95091, -19.30059 ], [ -68.9518, -19.30135 ], [ -68.95341, -19.30381 ], [ -68.95412, -19.30601 ], [ -68.95421, -19.30847 ], [ -68.95474, -19.30948 ], [ -68.95929, -19.30982 ], [ -68.96053, -19.31086 ], [ -68.96918, -19.29352 ], [ -68.98491, -19.25177 ], [ -68.99626, -19.20876 ], [ -69.00311, -19.16489 ], [ -69.0054, -19.1206 ], [ -69.00319, -19.07779 ], [ -68.99843, -19.07795 ], [ -68.99647, -19.07728 ], [ -68.99406, -19.07668 ], [ -68.99166, -19.07728 ], [ -68.98765, -19.07855 ], [ -68.98525, -19.07889 ], [ -68.98061, -19.07863 ], [ -68.97349, -19.07778 ], [ -68.9726, -19.07727 ], [ -68.97171, -19.0771 ], [ -68.97046, -19.07727 ], [ -68.96948, -19.0777 ], [ -68.9669, -19.07744 ], [ -68.96449, -19.07549 ], [ -68.96244, -19.07194 ], [ -68.96066, -19.07092 ], [ -68.95826, -19.07067 ], [ -68.95532, -19.0694 ], [ -68.94744, -19.06359 ], [ -68.94405, -19.06308 ], [ -68.93835, -19.06317 ], [ -68.92838, -19.06104 ], [ -68.92713, -19.06037 ], [ -68.91716, -19.05706 ], [ -68.90861, -19.05629 ], [ -68.90095, -19.05697 ], [ -68.89685, -19.05824 ], [ -68.88937, -19.06009 ], [ -68.88759, -19.06009 ], [ -68.8738, -19.05767 ], [ -68.8709, -19.06037 ], [ -68.85233, -19.06424 ], [ -68.80596, -19.08355 ], [ -68.78136, -19.10827 ], [ -68.75091, -19.13298 ], [ -68.73636, -19.15564 ], [ -68.71306, -19.17026 ], [ -68.67985, -19.20192 ], [ -68.68615, -19.21035 ], [ -68.688, -19.21308 ], [ -68.70057, -19.21327 ], [ -68.70141, -19.21763 ], [ -68.69987, -19.22359 ], [ -68.69681, -19.22908 ], [ -68.69628, -19.23537 ], [ -68.69814, -19.24167 ], [ -68.70102, -19.24894 ], [ -68.70407, -19.25201 ], [ -68.71274, -19.25267 ], [ -68.71953, -19.25284 ], [ -68.72327, -19.25446 ], [ -68.72684, -19.25446 ], [ -68.72769, -19.25592 ], [ -68.72819, -19.2564 ], [ -68.73346, -19.25722 ], [ -68.73499, -19.25722 ], [ -68.7372, -19.25755 ], [ -68.73975, -19.25723 ], [ -68.74383, -19.25578 ], [ -68.74689, -19.25417 ], [ -68.74893, -19.25224 ], [ -68.75302, -19.24998 ], [ -68.76168, -19.24983 ], [ -68.76301, -19.27614 ], [ -68.77507, -19.27793 ], [ -68.78102, -19.28101 ], [ -68.78373, -19.28085 ], [ -68.78595, -19.28037 ], [ -68.78935, -19.27908 ], [ -68.79394, -19.27796 ], [ -68.79887, -19.27796 ], [ -68.8009, -19.27958 ], [ -68.80357, -19.28577 ], [ -68.80617, -19.28652 ] ] ] } }
]
}
