{
"type": "FeatureCollection",
"name": "TIN",
"crs": { "type": "name", "properties": { "name": "urn:ogc:def:crs:OGC:1.3:CRS84" } },
"xy_coordinate_resolution": 1e-05,
"features": [
{ "type": "Feature", "properties": { "nombre": "Reserva Nacional Rio Los Cipreses", "categoria": "Reserva Nacional", "region": "O Higgins", "superficie_ha": "38582", "decreto": "NÂ° 127 de 1985" }, "geometry": { "type": "Polygon", "coordinates": [ [ [ -70.52875, -34.48208 ], [ -70.52738, -34.47964 ], [ -70.52574, -34.47577 ], [ -70.52423, -34.47343 ], [ -70.52233, -34.46963 ], [ -70.5212, -34.46804 ], [ -70.51978, -34.46639 ], [ -70.51818, -34.46507 ], [ -70.51597, -34.46278 ], [ -70.5121, -34.45949 ], [ -70.50995, -34.45651 ], [ -70.50763, -34.45372 ], [ -70.50499, -34.45142 ], [ -70.50047, -34.44853 ], [ -70.49899, -34.44731 ], [ -70.4982, -34.44622 ], [ -70.49793, -34.44559 ], [ -70.49735, -34.44191 ], [ -70.49628, -34.43913 ], [ -70.49626, -34.43798 ], [ -70.4967, -34.43619 ], [ -70.49657, -34.43498 ], [ -70.49567, -34.43386 ], [ -70.49332, -34.42913 ], [ -70.49227, -34.42355 ], [ -70.49144, -34.42262 ], [ -70.48759, -34.41975 ], [ -70.48568, -34.41726 ], [ -70.48497, -34.41429 ], [ -70.48326, -34.41113 ], [ -70.48125, -34.40937 ], [ -70.48025, -34.40826 ], [ -70.4793, -34.40623 ], [ -70.47855, -34.40521 ], [ -70.47609, -34.40312 ], [ -70.47457, -34.40156 ], [ -70.47356, -34.40039 ], [ -70.47273, -34.39891 ], [ -70.47228, -34.39862 ], [ -70.47009, -34.3987 ], [ -70.46879, -34.39851 ], [ -70.46775, -34.39803 ], [ -70.46661, -34.39723 ], [ -70.46491, -34.39646 ], [ -70.46342, -34.39496 ], [ -70.46169, -34.39289 ], [ -70.45972, -34.38912 ], [ -70.45929, -34.38518 ], [ -70.46015, -34.38017 ], [ -70.46073, -34.37546 ], [ -70.46071, -34.37416 ], [ -70.46035, -34.37279 ], [ -70.45934, -34.37141 ], [ -70.4577, -34.36982 ], [ -70.45654, -34.36838 ], [ -70.4565, -34.36815 ], [ -70.44892, -34.36667 ], [ -70.39604, -34.3608 ], [ -70.34273, -34.35922 ], [ -70.3371, -34.35951 ], [ -70.33583, -34.36037 ], [ -70.33453, -34.36166 ], [ -70.33455, -34.36293 ], [ -70.33494, -34.36445 ], [ -70.33762, -34.36727 ], [ -70.34184, -34.37062 ], [ -70.34594, -34.37257 ], [ -70.34814, -34.3734 ], [ -70.34859, -34.37388 ], [ -70.35143, -34.37755 ], [ -70.35183, -34.37979 ], [ -70.35365, -34.38341 ], [ -70.3578, -34.38725 ], [ -70.35789, -34.38822 ], [ -70.35711, -34.38962 ], [ -70.35692, -34.39114 ], [ -70.3574, -34.39374 ], [ -70.35692, -34.39575 ], [ -70.35723, -34.39714 ], [ -70.35753, -34.39756 ], [ -70.35998, -34.39942 ], [ -70.35985, -34.40057 ], [ -70.35892, -34.40161 ], [ -70.35777, -34.4035 ], [ -70.35753, -34.4066 ], [ -70.35784, -34.40763 ], [ -70.35787, -34.40927 ], [ -70.35717, -34.41128 ], [ -70.35726, -34.41225 ], [ -70.35809, -34.41418 ], [ -70.35849, -34.41593 ], [ -70.35822, -34.41733 ], [ -70.35715, -34.41928 ], [ -70.35646, -34.42184 ], [ -70.35732, -34.42492 ], [ -70.35704, -34.4259 ], [ -70.35633, -34.42712 ], [ -70.35627, -34.42827 ], [ -70.35741, -34.43056 ], [ -70.36083, -34.43417 ], [ -70.36063, -34.43544 ], [ -70.35991, -34.43624 ], [ -70.35985, -34.43672 ], [ -70.36007, -34.43703 ], [ -70.36344, -34.43693 ], [ -70.36535, -34.43739 ], [ -70.37056, -34.43818 ], [ -70.37108, -34.43854 ], [ -70.37175, -34.43938 ], [ -70.37348, -34.44185 ], [ -70.37378, -34.44245 ], [ -70.37343, -34.44325 ], [ -70.37214, -34.44484 ], [ -70.37137, -34.44697 ], [ -70.37132, -34.44867 ], [ -70.37457, -34.45506 ], [ -70.37461, -34.457 ], [ -70.37405, -34.45877 ], [ -70.37226, -34.46164 ], [ -70.37106, -34.46402 ], [ -70.36811, -34.46866 ], [ -70.36806, -34.46982 ], [ -70.36844, -34.47102 ], [ -70.3684, -34.47266 ], [ -70.36543, -34.47506 ], [ -70.36108, -34.47772 ], [ -70.35993, -34.47919 ], [ -70.36036, -34.48307 ], [ -70.3603, -34.48355 ], [ -70.35895, -34.48624 ], [ -70.3595, -34.48853 ], [ -70.3588, -34.4903 ], [ -70.35743, -34.49195 ], [ -70.35651, -34.49415 ], [ -70.35638, -34.49512 ], [ -70.35649, -34.4973 ], [ -70.3568, -34.49839 ], [ -70.35847, -34.50207 ], [ -70.35872, -34.50377 ], [ -70.35821, -34.50829 ], [ -70.35927, -34.51059 ], [ -70.35871, -34.51235 ], [ -70.35866, -34.51375 ], [ -70.35905, -34.51484 ], [ -70.36225, -34.5179 ], [ -70.36351, -34.52346 ], [ -70.36387, -34.5274 ], [ -70.36, -34.52841 ], [ -70.35687, -34.52984 ], [ -70.35354, -34.53219 ], [ -70.34993, -34.53587 ], [ -70.34842, -34.53974 ], [ -70.34851, -34.54101 ], [ -70.34826, -34.54368 ], [ -70.3474, -34.54448 ], [ -70.34397, -34.54591 ], [ -70.34141, -34.5463 ], [ -70.33591, -34.5463 ], [ -70.33026, -34.54582 ], [ -70.32639, -34.54653 ], [ -70.32028, -34.54963 ], [ -70.31891, -34.55122 ], [ -70.31873, -34.55383 ], [ -70.31888, -34.55874 ], [ -70.31919, -34.55947 ], [ -70.31898, -34.56038 ], [ -70.31726, -34.56307 ], [ -70.31692, -34.56459 ], [ -70.31621, -34.56617 ], [ -70.31277, -34.57082 ], [ -70.31257, -34.5721 ], [ -70.31303, -34.57336 ], [ -70.3131, -34.57831 ], [ -70.31268, -34.57946 ], [ -70.3108, -34.58124 ], [ -70.31052, -34.58204 ], [ -70.31082, -34.58234 ], [ -70.3117, -34.58251 ], [ -70.31456, -34.58236 ], [ -70.31508, -34.58259 ], [ -70.3153, -34.58289 ], [ -70.3151, -34.58417 ], [ -70.31445, -34.58454 ], [ -70.31273, -34.58686 ], [ -70.31196, -34.58978 ], [ -70.3122, -34.59075 ], [ -70.31417, -34.59498 ], [ -70.31441, -34.59595 ], [ -70.31405, -34.59644 ], [ -70.31369, -34.59662 ], [ -70.30541, -34.5975 ], [ -70.30082, -34.59979 ], [ -70.29519, -34.6058 ], [ -70.2948, -34.60841 ], [ -70.29639, -34.61203 ], [ -70.29819, -34.61432 ], [ -70.30161, -34.61701 ], [ -70.30551, -34.61788 ], [ -70.30969, -34.61808 ], [ -70.31528, -34.61887 ], [ -70.32494, -34.61731 ], [ -70.32649, -34.61747 ], [ -70.33102, -34.61851 ], [ -70.33183, -34.61905 ], [ -70.33244, -34.62008 ], [ -70.33238, -34.62123 ], [ -70.33291, -34.62232 ], [ -70.33714, -34.6253 ], [ -70.34494, -34.63122 ], [ -70.34518, -34.63237 ], [ -70.34484, -34.63413 ], [ -70.3462, -34.63642 ], [ -70.34665, -34.64158 ], [ -70.34733, -34.64266 ], [ -70.35159, -34.64747 ], [ -70.35419, -34.64914 ], [ -70.35795, -34.65019 ], [ -70.36001, -34.65047 ], [ -70.36491, -34.64956 ], [ -70.36987, -34.64775 ], [ -70.36996, -34.64725 ], [ -70.36824, -34.64546 ], [ -70.36659, -34.64345 ], [ -70.3658, -34.64203 ], [ -70.36571, -34.6413 ], [ -70.36701, -34.63948 ], [ -70.37028, -34.63735 ], [ -70.37088, -34.63613 ], [ -70.37112, -34.6348 ], [ -70.37342, -34.63278 ], [ -70.37376, -34.63226 ], [ -70.37391, -34.63166 ], [ -70.37368, -34.62748 ], [ -70.37396, -34.62661 ], [ -70.37406, -34.62354 ], [ -70.37432, -34.62145 ], [ -70.37433, -34.61793 ], [ -70.37455, -34.61667 ], [ -70.37448, -34.61592 ], [ -70.37425, -34.61541 ], [ -70.37443, -34.61373 ], [ -70.37486, -34.61239 ], [ -70.37504, -34.61104 ], [ -70.37533, -34.61039 ], [ -70.37677, -34.6089 ], [ -70.37965, -34.60846 ], [ -70.38158, -34.60775 ], [ -70.38245, -34.60629 ], [ -70.38315, -34.60432 ], [ -70.38391, -34.60312 ], [ -70.38531, -34.60183 ], [ -70.38565, -34.60131 ], [ -70.38917, -34.59843 ], [ -70.39454, -34.59685 ], [ -70.39582, -34.5967 ], [ -70.39668, -34.59681 ], [ -70.40063, -34.59836 ], [ -70.40159, -34.59846 ], [ -70.40288, -34.59829 ], [ -70.4039, -34.59758 ], [ -70.40659, -34.594 ], [ -70.40856, -34.59217 ], [ -70.41091, -34.59069 ], [ -70.41273, -34.589 ], [ -70.41413, -34.58801 ], [ -70.41636, -34.58681 ], [ -70.41932, -34.5858 ], [ -70.42061, -34.58557 ], [ -70.42338, -34.5856 ], [ -70.42585, -34.58609 ], [ -70.42702, -34.58597 ], [ -70.43255, -34.58361 ], [ -70.43638, -34.58324 ], [ -70.44254, -34.58366 ], [ -70.44502, -34.58451 ], [ -70.44901, -34.58652 ], [ -70.45035, -34.5868 ], [ -70.45201, -34.5869 ], [ -70.45517, -34.58659 ], [ -70.46571, -34.58642 ], [ -70.46686, -34.58377 ], [ -70.46698, -34.58189 ], [ -70.46656, -34.57712 ], [ -70.46572, -34.57267 ], [ -70.46575, -34.57126 ], [ -70.46645, -34.5688 ], [ -70.46748, -34.56697 ], [ -70.46827, -34.56611 ], [ -70.47103, -34.56494 ], [ -70.47167, -34.56446 ], [ -70.4727, -34.56414 ], [ -70.47421, -34.56334 ], [ -70.4755, -34.56302 ], [ -70.47768, -34.56274 ], [ -70.48047, -34.56322 ], [ -70.48495, -34.56334 ], [ -70.48537, -34.56318 ], [ -70.48578, -34.56259 ], [ -70.48612, -34.56099 ], [ -70.48603, -34.55993 ], [ -70.48639, -34.55654 ], [ -70.48724, -34.55377 ], [ -70.48765, -34.55143 ], [ -70.48842, -34.54997 ], [ -70.48877, -34.54716 ], [ -70.48846, -34.54609 ], [ -70.48509, -34.54175 ], [ -70.48368, -34.53954 ], [ -70.48242, -34.53567 ], [ -70.48213, -34.53361 ], [ -70.48248, -34.53174 ], [ -70.48207, -34.53014 ], [ -70.48222, -34.5276 ], [ -70.4835, -34.52609 ], [ -70.48386, -34.525 ], [ -70.48394, -34.52288 ], [ -70.48248, -34.51808 ], [ -70.48237, -34.51676 ], [ -70.48105, -34.5149 ], [ -70.47941, -34.5131 ], [ -70.4788, -34.51196 ], [ -70.47877, -34.51014 ], [ -70.47897, -34.50935 ], [ -70.47895, -34.50814 ], [ -70.47802, -34.50505 ], [ -70.47864, -34.50292 ], [ -70.47994, -34.50157 ], [ -70.48115, -34.49992 ], [ -70.48069, -34.49847 ], [ -70.48103, -34.49737 ], [ -70.48287, -34.49371 ], [ -70.48461, -34.4926 ], [ -70.48695, -34.49233 ], [ -70.48817, -34.49098 ], [ -70.48938, -34.48884 ], [ -70.4904, -34.48822 ], [ -70.49274, -34.48807 ], [ -70.49882, -34.48806 ], [ -70.50248, -34.48826 ], [ -70.50887, -34.48909 ], [ -70.51234, -34.49032 ], [ -70.51561, -34.49295 ], [ -70.51723, -34.49335 ], [ -70.51899, -34.49357 ], [ -70.52089, -34.49343 ], [ -70.52198, -34.49262 ], [ -70.52307, -34.4913 ], [ -70.52608, -34.48849 ], [ -70.52666, -34.48817 ], [ -70.52759, -34.48676 ], [ -70.52861, -34.48478 ], [ -70.52885, -34.48267 ], [ -70.52875, -34.48208 ] ] ] } }
]
}
