{
"type": "FeatureCollection",
"name": "TIP",
"crs": { "type": "name", "properties": { "name": "urn:ogc:def:crs:OGC:1.3:CRS84" } },
"xy_coordinate_resolution": 1e-05,
"features": [
{ "type": "Feature", "properties": { "nombre": "Parque Nacional Nevado Tres Cruces", "categoria": "Parque Nacional", "region": "Atacama", "superficie_ha": "59081,87", "decreto": "NÂ° 947 de 1994" }, "geometry": { "type": "MultiPolygon", "coordinates": [ [ [ [ -69.10875, -27.40817 ], [ -69.11136, -27.41925 ], [ -69.11546, -27.41313 ], [ -69.11764, -27.40901 ], [ -69.10875, -27.40817 ] ] ], [ [ [ -69.07086, -27.05016 ], [ -69.07599, -27.04007 ], [ -69.06005, -27.0003 ], [ -69.03803, -26.96994 ], [ -69.0442, -26.96592 ], [ -69.03387, -26.94973 ], [ -68.90675, -27.02448 ], [ -68.89454, -27.13868 ], [ -68.98789, -27.11705 ], [ -69.09133, -27.13598 ], [ -69.16539, -27.11443 ], [ -69.16502, -27.11222 ], [ -69.15293, -27.06926 ], [ -69.13621, -27.02757 ], [ -69.11502, -26.98754 ], [ -69.10345, -26.97028 ], [ -69.09472, -26.97211 ], [ -69.05561, -26.93647 ], [ -69.03481, -26.94911 ], [ -69.04517, -26.96539 ], [ -69.04809, -26.96348 ], [ -69.07046, -26.99508 ], [ -69.06113, -26.99995 ], [ -69.0769, -27.03892 ], [ -69.12025, -27.05907 ], [ -69.11134, -27.06829 ], [ -69.07086, -27.05016 ] ] ] ] } }
]
}
