{
"type": "FeatureCollection",
"name": "VIL",
"crs": { "type": "name", "properties": { "name": "urn:ogc:def:crs:OGC:1.3:CRS84" } },
"xy_coordinate_resolution": 1e-05,
"features": [
{ "type": "Feature", "properties": { "nombre": "Parque Nacional Villarrica", "categoria": "Parque Nacional", "region": "Araucania - Los Rios", "superficie_ha": "53158", "decreto": "NÂ° 3654 de 1929; NÂ° 2236 de 1940; NÂ° 398 de 1983" }, "geometry": { "type": "MultiPolygon", "coordinates": [ [ [ [ -71.76646, -39.5145 ], [ -71.76658, -39.5145 ], [ -71.76673, -39.51449 ], [ -71.76681, -39.51449 ], [ -71.76704, -39.51449 ], [ -71.76728, -39.51448 ], [ -71.76797, -39.51447 ], [ -71.76975, -39.51485 ], [ -71.77417, -39.51474 ], [ -71.77596, -39.51504 ], [ -71.78186, -39.514 ], [ -71.78438, -39.51371 ], [ -71.78569, -39.51407 ], [ -71.78885, -39.5156 ], [ -71.79035, -39.51608 ], [ -71.79129, -39.5166 ], [ -71.7924, -39.51689 ], [ -71.79351, -39.51756 ], [ -71.79455, -39.51796 ], [ -71.79614, -39.51822 ], [ -71.79963, -39.51803 ], [ -71.80024, -39.51823 ], [ -71.80598, -39.50435 ], [ -71.80825, -39.50403 ], [ -71.8122, -39.50416 ], [ -71.81449, -39.5038 ], [ -71.81553, -39.50343 ], [ -71.8167, -39.50271 ], [ -71.83545, -39.48798 ], [ -71.83603, -39.48978 ], [ -71.83724, -39.49109 ], [ -71.8374, -39.49235 ], [ -71.83839, -39.49391 ], [ -71.85658, -39.49613 ], [ -71.85765, -39.4954 ], [ -71.85932, -39.49477 ], [ -71.86033, -39.49378 ], [ -71.86227, -39.4925 ], [ -71.86304, -39.49159 ], [ -71.8634, -39.49037 ], [ -71.86455, -39.4888 ], [ -71.86713, -39.491 ], [ -71.86827, -39.49279 ], [ -71.86885, -39.4933 ], [ -71.86894, -39.49401 ], [ -71.86963, -39.49493 ], [ -71.86954, -39.49584 ], [ -71.87004, -39.49693 ], [ -71.875, -39.49209 ], [ -71.898, -39.50518 ], [ -71.89846, -39.50488 ], [ -71.92741, -39.51683 ], [ -71.9357, -39.51524 ], [ -71.93967, -39.51388 ], [ -71.94158, -39.51367 ], [ -71.94258, -39.51333 ], [ -71.94248, -39.51117 ], [ -71.94294, -39.51088 ], [ -71.94479, -39.51136 ], [ -71.94619, -39.51081 ], [ -71.94732, -39.51134 ], [ -71.9474, -39.51176 ], [ -71.94935, -39.51279 ], [ -71.95015, -39.51426 ], [ -71.95104, -39.51469 ], [ -71.95111, -39.51545 ], [ -71.95141, -39.51551 ], [ -71.95153, -39.51522 ], [ -71.95342, -39.51455 ], [ -71.95487, -39.51358 ], [ -71.95582, -39.5133 ], [ -71.95728, -39.51315 ], [ -71.95878, -39.5127 ], [ -71.96062, -39.51172 ], [ -71.96998, -39.50833 ], [ -71.97645, -39.50541 ], [ -71.98678, -39.50467 ], [ -71.99874, -39.50282 ], [ -72.00389, -39.50174 ], [ -72.00133, -39.49508 ], [ -72.00835, -39.49329 ], [ -71.98642, -39.48539 ], [ -71.98571, -39.48433 ], [ -71.98228, -39.4839 ], [ -71.97955, -39.48293 ], [ -71.97923, -39.48266 ], [ -71.97902, -39.48206 ], [ -71.97858, -39.47902 ], [ -71.97809, -39.47864 ], [ -71.97698, -39.47835 ], [ -71.97559, -39.47708 ], [ -71.97444, -39.47573 ], [ -71.97365, -39.47462 ], [ -71.97325, -39.47358 ], [ -71.9726, -39.47263 ], [ -71.97162, -39.47022 ], [ -71.97063, -39.46901 ], [ -71.97377, -39.44276 ], [ -71.97555, -39.44358 ], [ -71.97977, -39.44436 ], [ -71.99197, -39.44365 ], [ -71.9953, -39.44401 ], [ -71.9991, -39.44489 ], [ -72.00234, -39.44543 ], [ -72.00274, -39.44497 ], [ -72.00365, -39.44485 ], [ -72.00679, -39.44494 ], [ -72.00869, -39.44543 ], [ -72.01072, -39.44646 ], [ -72.00899, -39.44192 ], [ -71.99988, -39.4288 ], [ -71.99716, -39.42505 ], [ -71.99608, -39.42404 ], [ -71.99316, -39.42295 ], [ -71.99224, -39.42286 ], [ -71.99133, -39.423 ], [ -71.98947, -39.42373 ], [ -71.9888, -39.42385 ], [ -71.98433, -39.42401 ], [ -71.98198, -39.42445 ], [ -71.98132, -39.42423 ], [ -71.98125, -39.4236 ], [ -71.98167, -39.42314 ], [ -71.98391, -39.42206 ], [ -71.98454, -39.42155 ], [ -71.98464, -39.42115 ], [ -71.98428, -39.42078 ], [ -71.98251, -39.42051 ], [ -71.98198, -39.42009 ], [ -71.98258, -39.41944 ], [ -71.98404, -39.41868 ], [ -71.98416, -39.41814 ], [ -71.98383, -39.41749 ], [ -71.98056, -39.41505 ], [ -71.97921, -39.41349 ], [ -71.98607, -39.41254 ], [ -71.98542, -39.3962 ], [ -71.98803, -39.39564 ], [ -71.98895, -39.39509 ], [ -71.99043, -39.39457 ], [ -71.99426, -39.39119 ], [ -71.99851, -39.38844 ], [ -71.9957, -39.38231 ], [ -71.98996, -39.38574 ], [ -71.98497, -39.38765 ], [ -71.98403, -39.3885 ], [ -71.98323, -39.38959 ], [ -71.97896, -39.39264 ], [ -71.97678, -39.39367 ], [ -71.97376, -39.39462 ], [ -71.97328, -39.39498 ], [ -71.97284, -39.39581 ], [ -71.9716, -39.39665 ], [ -71.96871, -39.39679 ], [ -71.96684, -39.39465 ], [ -71.96579, -39.39383 ], [ -71.96036, -39.39053 ], [ -71.95975, -39.39026 ], [ -71.95669, -39.39011 ], [ -71.95525, -39.38988 ], [ -71.95285, -39.38925 ], [ -71.952, -39.3888 ], [ -71.95159, -39.38814 ], [ -71.95147, -39.38731 ], [ -71.95261, -39.38599 ], [ -71.95284, -39.38531 ], [ -71.95289, -39.38449 ], [ -71.95266, -39.38368 ], [ -71.95226, -39.38324 ], [ -71.95232, -39.38248 ], [ -71.95298, -39.38038 ], [ -71.95378, -39.37851 ], [ -71.95505, -39.37679 ], [ -71.95566, -39.37562 ], [ -71.95759, -39.37382 ], [ -71.95873, -39.37247 ], [ -71.95961, -39.3706 ], [ -71.96048, -39.36953 ], [ -71.96075, -39.36829 ], [ -71.96107, -39.36762 ], [ -71.96166, -39.36684 ], [ -71.96328, -39.36531 ], [ -71.96378, -39.36393 ], [ -71.96537, -39.36132 ], [ -71.96674, -39.36011 ], [ -71.96796, -39.35858 ], [ -71.96865, -39.35724 ], [ -71.96932, -39.35477 ], [ -71.97092, -39.35278 ], [ -71.96899, -39.35038 ], [ -71.96829, -39.35066 ], [ -71.96745, -39.35249 ], [ -71.96557, -39.35561 ], [ -71.96424, -39.35724 ], [ -71.96299, -39.36083 ], [ -71.96235, -39.36158 ], [ -71.96111, -39.36252 ], [ -71.95835, -39.36388 ], [ -71.95679, -39.36511 ], [ -71.95515, -39.36573 ], [ -71.95346, -39.36716 ], [ -71.95176, -39.36899 ], [ -71.94769, -39.37224 ], [ -71.94521, -39.37349 ], [ -71.94333, -39.37372 ], [ -71.94254, -39.37556 ], [ -71.94228, -39.37659 ], [ -71.93678, -39.37974 ], [ -71.93444, -39.37928 ], [ -71.93412, -39.37858 ], [ -71.93338, -39.37778 ], [ -71.93226, -39.37777 ], [ -71.93615, -39.37389 ], [ -71.93831, -39.37306 ], [ -71.94129, -39.37146 ], [ -71.94203, -39.37036 ], [ -71.94416, -39.36871 ], [ -71.94442, -39.3682 ], [ -71.94456, -39.36731 ], [ -71.94449, -39.36694 ], [ -71.94216, -39.36776 ], [ -71.9406, -39.36806 ], [ -71.93961, -39.36783 ], [ -71.93798, -39.36775 ], [ -71.93722, -39.36644 ], [ -71.93687, -39.36499 ], [ -71.93749, -39.36433 ], [ -71.93791, -39.36329 ], [ -71.93868, -39.36313 ], [ -71.93897, -39.36271 ], [ -71.93902, -39.36013 ], [ -71.9399, -39.35948 ], [ -71.94052, -39.35853 ], [ -71.94103, -39.3583 ], [ -71.94265, -39.35658 ], [ -71.94209, -39.35422 ], [ -71.94105, -39.35261 ], [ -71.94194, -39.34997 ], [ -71.94149, -39.34925 ], [ -71.94141, -39.34873 ], [ -71.93989, -39.34759 ], [ -71.93915, -39.34805 ], [ -71.93882, -39.34808 ], [ -71.9386, -39.34763 ], [ -71.93777, -39.34806 ], [ -71.93292, -39.34079 ], [ -71.93103, -39.34073 ], [ -71.93051, -39.34028 ], [ -71.92923, -39.3401 ], [ -71.92858, -39.33965 ], [ -71.9281, -39.33868 ], [ -71.92745, -39.3363 ], [ -71.9279, -39.33541 ], [ -71.92798, -39.33461 ], [ -71.92784, -39.33383 ], [ -71.92623, -39.33295 ], [ -71.92577, -39.33144 ], [ -71.92321, -39.32958 ], [ -71.92301, -39.32935 ], [ -71.92305, -39.3287 ], [ -71.92227, -39.32819 ], [ -71.92204, -39.32772 ], [ -71.92196, -39.32682 ], [ -71.92332, -39.32661 ], [ -71.9244, -39.32591 ], [ -71.92511, -39.32521 ], [ -71.92593, -39.32372 ], [ -71.92762, -39.32248 ], [ -71.92791, -39.322 ], [ -71.92778, -39.32111 ], [ -71.92841, -39.32036 ], [ -71.92829, -39.32003 ], [ -71.9276, -39.31954 ], [ -71.92753, -39.31899 ], [ -71.92696, -39.31844 ], [ -71.92695, -39.31791 ], [ -71.92656, -39.31745 ], [ -71.92663, -39.31655 ], [ -71.92606, -39.31556 ], [ -71.92584, -39.31432 ], [ -71.92348, -39.31374 ], [ -71.92348, -39.31518 ], [ -71.9238, -39.31566 ], [ -71.92398, -39.31654 ], [ -71.92378, -39.318 ], [ -71.8992, -39.31715 ], [ -71.89841, -39.31617 ], [ -71.89747, -39.31538 ], [ -71.89367, -39.31573 ], [ -71.89508, -39.31703 ], [ -71.89599, -39.31816 ], [ -71.89381, -39.31984 ], [ -71.89372, -39.32006 ], [ -71.89337, -39.32215 ], [ -71.89361, -39.32284 ], [ -71.89342, -39.32394 ], [ -71.89364, -39.3246 ], [ -71.89444, -39.32549 ], [ -71.89502, -39.32598 ], [ -71.89661, -39.32656 ], [ -71.89834, -39.3269 ], [ -71.89979, -39.32743 ], [ -71.90006, -39.32744 ], [ -71.90053, -39.32717 ], [ -71.90155, -39.32637 ], [ -71.9038, -39.32663 ], [ -71.90417, -39.32683 ], [ -71.90525, -39.32671 ], [ -71.90562, -39.32715 ], [ -71.91056, -39.33018 ], [ -71.9107, -39.33239 ], [ -71.91049, -39.33306 ], [ -71.91063, -39.33396 ], [ -71.91218, -39.33467 ], [ -71.91302, -39.33551 ], [ -71.90992, -39.33676 ], [ -71.90427, -39.33781 ], [ -71.89796, -39.33757 ], [ -71.89848, -39.33734 ], [ -71.89881, -39.33686 ], [ -71.89896, -39.33578 ], [ -71.89981, -39.33392 ], [ -71.89985, -39.33284 ], [ -71.89894, -39.33336 ], [ -71.89756, -39.33496 ], [ -71.89627, -39.33354 ], [ -71.89473, -39.33239 ], [ -71.89337, -39.33173 ], [ -71.89293, -39.33128 ], [ -71.89134, -39.33087 ], [ -71.88838, -39.332 ], [ -71.88761, -39.3347 ], [ -71.88732, -39.33502 ], [ -71.88745, -39.34011 ], [ -71.88691, -39.34132 ], [ -71.88891, -39.34302 ], [ -71.89317, -39.34444 ], [ -71.89618, -39.34446 ], [ -71.89964, -39.34394 ], [ -71.90206, -39.34435 ], [ -71.90383, -39.34343 ], [ -71.9053, -39.34291 ], [ -71.90838, -39.34289 ], [ -71.90943, -39.34666 ], [ -71.90907, -39.34737 ], [ -71.90919, -39.34839 ], [ -71.90895, -39.34891 ], [ -71.90928, -39.34974 ], [ -71.91028, -39.34987 ], [ -71.91149, -39.35039 ], [ -71.91241, -39.35041 ], [ -71.91385, -39.34948 ], [ -71.91488, -39.34948 ], [ -71.91578, -39.34905 ], [ -71.91721, -39.3492 ], [ -71.91742, -39.3509 ], [ -71.9204, -39.35069 ], [ -71.92134, -39.35045 ], [ -71.92372, -39.35129 ], [ -71.924, -39.35313 ], [ -71.92442, -39.35389 ], [ -71.92516, -39.35466 ], [ -71.9257, -39.35494 ], [ -71.92821, -39.35535 ], [ -71.92951, -39.35607 ], [ -71.93007, -39.35665 ], [ -71.93023, -39.35745 ], [ -71.9301, -39.3579 ], [ -71.92964, -39.35841 ], [ -71.92961, -39.35893 ], [ -71.93032, -39.35973 ], [ -71.93075, -39.3612 ], [ -71.93193, -39.36299 ], [ -71.93226, -39.36401 ], [ -71.93344, -39.36631 ], [ -71.93419, -39.36852 ], [ -71.93423, -39.36999 ], [ -71.93416, -39.37024 ], [ -71.9328, -39.37009 ], [ -71.93167, -39.36957 ], [ -71.93156, -39.3715 ], [ -71.93101, -39.37206 ], [ -71.93045, -39.37338 ], [ -71.93, -39.37386 ], [ -71.92994, -39.37485 ], [ -71.92964, -39.37541 ], [ -71.92821, -39.37703 ], [ -71.92784, -39.37794 ], [ -71.92779, -39.37889 ], [ -71.92972, -39.38072 ], [ -71.92907, -39.38158 ], [ -71.92807, -39.38344 ], [ -71.92756, -39.38393 ], [ -71.92684, -39.38432 ], [ -71.92634, -39.38431 ], [ -71.92279, -39.38354 ], [ -71.9222, -39.3831 ], [ -71.92133, -39.38287 ], [ -71.92127, -39.38101 ], [ -71.91973, -39.37819 ], [ -71.91851, -39.37668 ], [ -71.91793, -39.37704 ], [ -71.91696, -39.37839 ], [ -71.91655, -39.38012 ], [ -71.91529, -39.38081 ], [ -71.91476, -39.3813 ], [ -71.91494, -39.38174 ], [ -71.91322, -39.38262 ], [ -71.91109, -39.383 ], [ -71.90892, -39.38182 ], [ -71.9071, -39.38042 ], [ -71.90744, -39.38025 ], [ -71.90768, -39.3797 ], [ -71.90716, -39.37801 ], [ -71.90682, -39.37748 ], [ -71.90579, -39.37646 ], [ -71.90379, -39.37494 ], [ -71.90504, -39.37309 ], [ -71.90537, -39.37228 ], [ -71.90525, -39.3707 ], [ -71.90545, -39.37024 ], [ -71.90615, -39.37055 ], [ -71.90829, -39.37237 ], [ -71.90962, -39.37271 ], [ -71.91219, -39.37296 ], [ -71.9121, -39.37201 ], [ -71.91266, -39.37179 ], [ -71.91229, -39.37044 ], [ -71.91263, -39.36924 ], [ -71.91327, -39.36903 ], [ -71.91409, -39.3684 ], [ -71.91522, -39.36811 ], [ -71.91586, -39.36727 ], [ -71.91569, -39.36558 ], [ -71.91532, -39.36481 ], [ -71.91512, -39.3631 ], [ -71.91342, -39.36065 ], [ -71.91387, -39.35966 ], [ -71.91386, -39.35898 ], [ -71.9142, -39.35806 ], [ -71.91395, -39.35576 ], [ -71.91243, -39.3549 ], [ -71.91031, -39.35301 ], [ -71.90953, -39.35188 ], [ -71.90862, -39.35166 ], [ -71.90626, -39.35161 ], [ -71.90222, -39.35295 ], [ -71.90121, -39.3536 ], [ -71.89853, -39.35412 ], [ -71.89765, -39.355 ], [ -71.89745, -39.35618 ], [ -71.89883, -39.35751 ], [ -71.89907, -39.3585 ], [ -71.8974, -39.35833 ], [ -71.89593, -39.3584 ], [ -71.89582, -39.35796 ], [ -71.89472, -39.35636 ], [ -71.89235, -39.35802 ], [ -71.89437, -39.36169 ], [ -71.89282, -39.36228 ], [ -71.89176, -39.36234 ], [ -71.88905, -39.35979 ], [ -71.88771, -39.35923 ], [ -71.88723, -39.3585 ], [ -71.88534, -39.35666 ], [ -71.8855, -39.35524 ], [ -71.88469, -39.35448 ], [ -71.88431, -39.35385 ], [ -71.88358, -39.35339 ], [ -71.88278, -39.35423 ], [ -71.8814, -39.35455 ], [ -71.88038, -39.35535 ], [ -71.87976, -39.35538 ], [ -71.87967, -39.35516 ], [ -71.87918, -39.35495 ], [ -71.87907, -39.35452 ], [ -71.87872, -39.35434 ], [ -71.87806, -39.35309 ], [ -71.87818, -39.35264 ], [ -71.87809, -39.3524 ], [ -71.8777, -39.35206 ], [ -71.87579, -39.35127 ], [ -71.87559, -39.35066 ], [ -71.8747, -39.34963 ], [ -71.87446, -39.34898 ], [ -71.87312, -39.3485 ], [ -71.87205, -39.34762 ], [ -71.87146, -39.34747 ], [ -71.87087, -39.3493 ], [ -71.87003, -39.3505 ], [ -71.86923, -39.35387 ], [ -71.86943, -39.35652 ], [ -71.87058, -39.35783 ], [ -71.87165, -39.35768 ], [ -71.87308, -39.35655 ], [ -71.87535, -39.35647 ], [ -71.87639, -39.35609 ], [ -71.87752, -39.35598 ], [ -71.87811, -39.3556 ], [ -71.88057, -39.35763 ], [ -71.87902, -39.35915 ], [ -71.8775, -39.36013 ], [ -71.87713, -39.36017 ], [ -71.87332, -39.36176 ], [ -71.87044, -39.35985 ], [ -71.86989, -39.35925 ], [ -71.8693, -39.35808 ], [ -71.86483, -39.35619 ], [ -71.86328, -39.3551 ], [ -71.86249, -39.35421 ], [ -71.86199, -39.35245 ], [ -71.86134, -39.3517 ], [ -71.86063, -39.34979 ], [ -71.85946, -39.34869 ], [ -71.85919, -39.3482 ], [ -71.85893, -39.34677 ], [ -71.85824, -39.34486 ], [ -71.85855, -39.34273 ], [ -71.85803, -39.34172 ], [ -71.85797, -39.33975 ], [ -71.85739, -39.33877 ], [ -71.85778, -39.337 ], [ -71.85776, -39.33574 ], [ -71.85728, -39.33454 ], [ -71.85685, -39.33411 ], [ -71.8564, -39.33418 ], [ -71.85584, -39.33475 ], [ -71.85544, -39.33594 ], [ -71.85572, -39.33682 ], [ -71.85557, -39.33716 ], [ -71.85579, -39.3386 ], [ -71.85647, -39.33952 ], [ -71.85663, -39.34024 ], [ -71.85655, -39.34095 ], [ -71.85581, -39.34161 ], [ -71.85611, -39.34286 ], [ -71.85616, -39.34457 ], [ -71.85653, -39.34598 ], [ -71.85652, -39.34689 ], [ -71.85686, -39.34793 ], [ -71.85852, -39.3501 ], [ -71.85897, -39.35092 ], [ -71.86005, -39.3546 ], [ -71.85971, -39.35506 ], [ -71.85823, -39.35557 ], [ -71.85804, -39.35652 ], [ -71.85297, -39.35635 ], [ -71.85332, -39.3568 ], [ -71.85332, -39.35749 ], [ -71.85302, -39.35875 ], [ -71.85333, -39.35981 ], [ -71.85343, -39.36089 ], [ -71.85344, -39.36178 ], [ -71.85314, -39.36279 ], [ -71.85325, -39.36333 ], [ -71.85408, -39.36439 ], [ -71.85505, -39.36695 ], [ -71.85499, -39.3684 ], [ -71.85565, -39.36931 ], [ -71.85571, -39.36992 ], [ -71.86251, -39.36814 ], [ -71.86418, -39.36926 ], [ -71.86656, -39.36998 ], [ -71.86713, -39.3703 ], [ -71.86849, -39.37198 ], [ -71.869, -39.37354 ], [ -71.86978, -39.37464 ], [ -71.87067, -39.3749 ], [ -71.87225, -39.37509 ], [ -71.87522, -39.37709 ], [ -71.87564, -39.37774 ], [ -71.87586, -39.37899 ], [ -71.87635, -39.37961 ], [ -71.87644, -39.38031 ], [ -71.87627, -39.38121 ], [ -71.8756, -39.38275 ], [ -71.87555, -39.3849 ], [ -71.87509, -39.38592 ], [ -71.87475, -39.38752 ], [ -71.87434, -39.388 ], [ -71.87276, -39.38828 ], [ -71.87107, -39.38887 ], [ -71.86912, -39.39171 ], [ -71.86892, -39.39269 ], [ -71.86716, -39.3929 ], [ -71.86594, -39.39243 ], [ -71.86524, -39.39169 ], [ -71.86371, -39.39113 ], [ -71.86045, -39.39107 ], [ -71.85955, -39.38907 ], [ -71.85989, -39.38843 ], [ -71.85868, -39.38854 ], [ -71.85743, -39.3891 ], [ -71.85611, -39.3894 ], [ -71.85452, -39.38928 ], [ -71.85278, -39.3894 ], [ -71.84935, -39.38912 ], [ -71.84709, -39.38777 ], [ -71.84534, -39.38796 ], [ -71.84315, -39.3873 ], [ -71.84274, -39.38734 ], [ -71.84029, -39.38842 ], [ -71.83462, -39.39154 ], [ -71.83159, -39.39296 ], [ -71.82744, -39.39451 ], [ -71.82557, -39.38465 ], [ -71.81362, -39.38702 ], [ -71.81404, -39.38772 ], [ -71.81373, -39.38849 ], [ -71.81474, -39.39161 ], [ -71.80431, -39.39354 ], [ -71.80384, -39.39446 ], [ -71.80332, -39.40013 ], [ -71.80202, -39.39953 ], [ -71.80102, -39.39879 ], [ -71.80168, -39.40082 ], [ -71.80198, -39.40268 ], [ -71.80275, -39.40521 ], [ -71.80323, -39.40622 ], [ -71.80336, -39.40698 ], [ -71.80263, -39.41046 ], [ -71.80074, -39.41162 ], [ -71.79965, -39.41207 ], [ -71.79648, -39.41269 ], [ -71.79729, -39.41701 ], [ -71.79838, -39.41872 ], [ -71.79829, -39.41952 ], [ -71.79942, -39.42068 ], [ -71.79935, -39.42123 ], [ -71.80154, -39.42205 ], [ -71.80242, -39.42289 ], [ -71.80351, -39.42323 ], [ -71.80451, -39.42411 ], [ -71.80579, -39.42559 ], [ -71.8058, -39.42638 ], [ -71.80634, -39.42777 ], [ -71.80811, -39.42808 ], [ -71.80964, -39.42882 ], [ -71.81133, -39.42992 ], [ -71.81406, -39.43089 ], [ -71.81421, -39.43146 ], [ -71.81942, -39.43974 ], [ -71.82189, -39.44067 ], [ -71.82231, -39.44152 ], [ -71.82231, -39.44213 ], [ -71.8236, -39.44466 ], [ -71.82368, -39.44517 ], [ -71.82273, -39.44968 ], [ -71.82203, -39.45019 ], [ -71.81837, -39.45134 ], [ -71.81606, -39.45153 ], [ -71.81451, -39.45113 ], [ -71.81358, -39.45108 ], [ -71.81151, -39.45185 ], [ -71.80989, -39.45191 ], [ -71.80988, -39.45434 ], [ -71.80849, -39.45794 ], [ -71.80764, -39.45891 ], [ -71.80655, -39.45842 ], [ -71.80586, -39.45788 ], [ -71.80445, -39.45743 ], [ -71.80345, -39.45743 ], [ -71.80091, -39.46082 ], [ -71.80075, -39.46164 ], [ -71.79455, -39.46065 ], [ -71.79562, -39.46216 ], [ -71.79584, -39.46529 ], [ -71.79567, -39.46671 ], [ -71.79534, -39.46784 ], [ -71.79448, -39.46978 ], [ -71.79359, -39.47128 ], [ -71.79304, -39.47203 ], [ -71.79188, -39.47292 ], [ -71.7908, -39.47307 ], [ -71.78859, -39.47464 ], [ -71.78668, -39.47634 ], [ -71.78317, -39.47828 ], [ -71.78132, -39.48021 ], [ -71.78179, -39.48889 ], [ -71.78075, -39.48849 ], [ -71.77999, -39.48796 ], [ -71.77799, -39.4873 ], [ -71.77613, -39.48642 ], [ -71.77138, -39.48767 ], [ -71.7649, -39.48298 ], [ -71.76556, -39.47717 ], [ -71.76655, -39.47668 ], [ -71.76921, -39.47353 ], [ -71.77241, -39.47177 ], [ -71.77671, -39.47083 ], [ -71.77765, -39.47027 ], [ -71.77974, -39.468 ], [ -71.78034, -39.46694 ], [ -71.78035, -39.46571 ], [ -71.77999, -39.46519 ], [ -71.77981, -39.46443 ], [ -71.77764, -39.46029 ], [ -71.7765, -39.45885 ], [ -71.77654, -39.45843 ], [ -71.77584, -39.45557 ], [ -71.77593, -39.45415 ], [ -71.77487, -39.45322 ], [ -71.77653, -39.44982 ], [ -71.77676, -39.44891 ], [ -71.77822, -39.44655 ], [ -71.77831, -39.44601 ], [ -71.77815, -39.44363 ], [ -71.77941, -39.43072 ], [ -71.77928, -39.43019 ], [ -71.78122, -39.42995 ], [ -71.78199, -39.43014 ], [ -71.78408, -39.43012 ], [ -71.78356, -39.42933 ], [ -71.7835, -39.4289 ], [ -71.78265, -39.42822 ], [ -71.78186, -39.42703 ], [ -71.78114, -39.42539 ], [ -71.78139, -39.42322 ], [ -71.78028, -39.42189 ], [ -71.77964, -39.42135 ], [ -71.77754, -39.42048 ], [ -71.77719, -39.42049 ], [ -71.77506, -39.42135 ], [ -71.77315, -39.42154 ], [ -71.77002, -39.42295 ], [ -71.76947, -39.42286 ], [ -71.76917, -39.42328 ], [ -71.76869, -39.42408 ], [ -71.76888, -39.42552 ], [ -71.76879, -39.42638 ], [ -71.76792, -39.42854 ], [ -71.76738, -39.42909 ], [ -71.76748, -39.43103 ], [ -71.76821, -39.4332 ], [ -71.76822, -39.43364 ], [ -71.76465, -39.43391 ], [ -71.76509, -39.43443 ], [ -71.76521, -39.43605 ], [ -71.76569, -39.4368 ], [ -71.75067, -39.44063 ], [ -71.75602, -39.4436 ], [ -71.75561, -39.44389 ], [ -71.75512, -39.44472 ], [ -71.75519, -39.44613 ], [ -71.755, -39.4472 ], [ -71.75438, -39.44858 ], [ -71.75428, -39.45008 ], [ -71.7544, -39.45125 ], [ -71.75388, -39.45339 ], [ -71.75439, -39.4543 ], [ -71.75566, -39.45558 ], [ -71.75595, -39.45724 ], [ -71.75687, -39.45885 ], [ -71.75678, -39.46017 ], [ -71.75661, -39.46033 ], [ -71.75579, -39.4607 ], [ -71.7526, -39.46112 ], [ -71.74889, -39.46338 ], [ -71.74804, -39.46373 ], [ -71.74664, -39.46392 ], [ -71.74619, -39.46207 ], [ -71.74637, -39.46174 ], [ -71.74465, -39.46045 ], [ -71.7442, -39.45982 ], [ -71.74283, -39.45692 ], [ -71.74014, -39.45643 ], [ -71.73791, -39.45655 ], [ -71.7366, -39.45581 ], [ -71.73625, -39.45434 ], [ -71.73591, -39.45457 ], [ -71.736, -39.45681 ], [ -71.73524, -39.45856 ], [ -71.73072, -39.45741 ], [ -71.72625, -39.45566 ], [ -71.68943, -39.46391 ], [ -71.68979, -39.46462 ], [ -71.68975, -39.46492 ], [ -71.68914, -39.46616 ], [ -71.68803, -39.46719 ], [ -71.68653, -39.46814 ], [ -71.68605, -39.4688 ], [ -71.6866, -39.47011 ], [ -71.68727, -39.47121 ], [ -71.6873, -39.47175 ], [ -71.68668, -39.47354 ], [ -71.65469, -39.48942 ], [ -71.64896, -39.47729 ], [ -71.65048, -39.49109 ], [ -71.64823, -39.49159 ], [ -71.64338, -39.49763 ], [ -71.6365, -39.50179 ], [ -71.63521, -39.49935 ], [ -71.63292, -39.49805 ], [ -71.62969, -39.49471 ], [ -71.62579, -39.48447 ], [ -71.62524, -39.47561 ], [ -71.62688, -39.46228 ], [ -71.62807, -39.45465 ], [ -71.62621, -39.45576 ], [ -71.62449, -39.45725 ], [ -71.62236, -39.458 ], [ -71.62065, -39.4584 ], [ -71.62369, -39.46012 ], [ -71.62451, -39.46083 ], [ -71.62405, -39.46197 ], [ -71.62418, -39.46305 ], [ -71.62402, -39.46324 ], [ -71.62338, -39.46325 ], [ -71.62183, -39.46289 ], [ -71.62151, -39.46387 ], [ -71.62263, -39.46503 ], [ -71.62224, -39.46689 ], [ -71.62143, -39.46812 ], [ -71.62197, -39.46921 ], [ -71.62225, -39.47088 ], [ -71.62285, -39.4713 ], [ -71.6229, -39.47153 ], [ -71.62237, -39.47176 ], [ -71.62183, -39.47177 ], [ -71.62169, -39.47204 ], [ -71.62249, -39.47266 ], [ -71.62277, -39.47433 ], [ -71.62222, -39.47559 ], [ -71.62214, -39.47659 ], [ -71.62147, -39.47694 ], [ -71.61585, -39.48191 ], [ -71.61372, -39.48135 ], [ -71.61154, -39.47531 ], [ -71.60756, -39.47334 ], [ -71.60037, -39.47177 ], [ -71.59755, -39.46835 ], [ -71.59694, -39.46838 ], [ -71.59297, -39.4655 ], [ -71.5906, -39.46529 ], [ -71.58555, -39.4658 ], [ -71.57837, -39.4689 ], [ -71.57468, -39.47085 ], [ -71.57424, -39.47135 ], [ -71.57435, -39.47342 ], [ -71.57513, -39.47399 ], [ -71.57514, -39.475 ], [ -71.5745, -39.47709 ], [ -71.5745, -39.47861 ], [ -71.5718, -39.48029 ], [ -71.57087, -39.48116 ], [ -71.57185, -39.48242 ], [ -71.57198, -39.48323 ], [ -71.57309, -39.48433 ], [ -71.57312, -39.48488 ], [ -71.57129, -39.48993 ], [ -71.57057, -39.49057 ], [ -71.57233, -39.51161 ], [ -71.57773, -39.51214 ], [ -71.56779, -39.52156 ], [ -71.56734, -39.52623 ], [ -71.57017, -39.52746 ], [ -71.57317, -39.52912 ], [ -71.57943, -39.53373 ], [ -71.57986, -39.5349 ], [ -71.5799, -39.53567 ], [ -71.58188, -39.5374 ], [ -71.58299, -39.53785 ], [ -71.58423, -39.53772 ], [ -71.58608, -39.53802 ], [ -71.5876, -39.53794 ], [ -71.58828, -39.53774 ], [ -71.59204, -39.53785 ], [ -71.59336, -39.53816 ], [ -71.59478, -39.54108 ], [ -71.59519, -39.54312 ], [ -71.5935, -39.54297 ], [ -71.58881, -39.54195 ], [ -71.58811, -39.54198 ], [ -71.58528, -39.54384 ], [ -71.58384, -39.54501 ], [ -71.58271, -39.54518 ], [ -71.58134, -39.5451 ], [ -71.58035, -39.54461 ], [ -71.57995, -39.54397 ], [ -71.57874, -39.54314 ], [ -71.57687, -39.54244 ], [ -71.5741, -39.53979 ], [ -71.57287, -39.53912 ], [ -71.57142, -39.53794 ], [ -71.56726, -39.53636 ], [ -71.56567, -39.53481 ], [ -71.56521, -39.53488 ], [ -71.56448, -39.53532 ], [ -71.56359, -39.53547 ], [ -71.56106, -39.53444 ], [ -71.55689, -39.53611 ], [ -71.55673, -39.53566 ], [ -71.55668, -39.53453 ], [ -71.55716, -39.53231 ], [ -71.55709, -39.53167 ], [ -71.55547, -39.53121 ], [ -71.55403, -39.53004 ], [ -71.55331, -39.52964 ], [ -71.55288, -39.52974 ], [ -71.55315, -39.53157 ], [ -71.55433, -39.53349 ], [ -71.55598, -39.53565 ], [ -71.55585, -39.53746 ], [ -71.55638, -39.53863 ], [ -71.55619, -39.54061 ], [ -71.55637, -39.54186 ], [ -71.55721, -39.54294 ], [ -71.55814, -39.54354 ], [ -71.56029, -39.54712 ], [ -71.56096, -39.54866 ], [ -71.56119, -39.55119 ], [ -71.56117, -39.55134 ], [ -71.56058, -39.55158 ], [ -71.55854, -39.55199 ], [ -71.55778, -39.55288 ], [ -71.55709, -39.55299 ], [ -71.55543, -39.55396 ], [ -71.55498, -39.55403 ], [ -71.55445, -39.55368 ], [ -71.554, -39.55362 ], [ -71.55183, -39.55464 ], [ -71.55024, -39.55487 ], [ -71.54819, -39.55454 ], [ -71.54665, -39.55384 ], [ -71.54725, -39.55278 ], [ -71.54783, -39.55214 ], [ -71.55066, -39.55007 ], [ -71.55106, -39.54954 ], [ -71.55128, -39.54884 ], [ -71.55115, -39.54806 ], [ -71.55049, -39.54633 ], [ -71.55055, -39.54451 ], [ -71.55041, -39.54378 ], [ -71.55008, -39.54313 ], [ -71.54797, -39.54049 ], [ -71.54794, -39.54026 ], [ -71.5481, -39.54004 ], [ -71.5493, -39.54016 ], [ -71.55066, -39.53995 ], [ -71.55163, -39.53955 ], [ -71.55284, -39.53867 ], [ -71.55189, -39.5375 ], [ -71.55038, -39.53619 ], [ -71.54889, -39.53361 ], [ -71.54493, -39.52975 ], [ -71.54399, -39.52763 ], [ -71.54277, -39.52162 ], [ -71.54179, -39.52078 ], [ -71.5401, -39.52014 ], [ -71.53682, -39.51647 ], [ -71.53552, -39.51387 ], [ -71.53486, -39.51317 ], [ -71.53401, -39.51079 ], [ -71.53309, -39.50981 ], [ -71.53269, -39.50896 ], [ -71.5332, -39.50818 ], [ -71.53333, -39.50689 ], [ -71.53322, -39.50596 ], [ -71.53375, -39.50464 ], [ -71.53382, -39.50404 ], [ -71.53458, -39.50211 ], [ -71.53492, -39.50069 ], [ -71.53669, -39.49631 ], [ -71.54185, -39.48865 ], [ -71.541, -39.48599 ], [ -71.5394, -39.47546 ], [ -71.52719, -39.47583 ], [ -71.52674, -39.47949 ], [ -71.52848, -39.4814 ], [ -71.52935, -39.48212 ], [ -71.52988, -39.48291 ], [ -71.52987, -39.48472 ], [ -71.53031, -39.48653 ], [ -71.53016, -39.4873 ], [ -71.52978, -39.48785 ], [ -71.52857, -39.48879 ], [ -71.52204, -39.48882 ], [ -71.52115, -39.48903 ], [ -71.51788, -39.49057 ], [ -71.5158, -39.49124 ], [ -71.51442, -39.49148 ], [ -71.51379, -39.49115 ], [ -71.51206, -39.49067 ], [ -71.50937, -39.49045 ], [ -71.50784, -39.49049 ], [ -71.50633, -39.49084 ], [ -71.50428, -39.49168 ], [ -71.50153, -39.49201 ], [ -71.49927, -39.49288 ], [ -71.49804, -39.49317 ], [ -71.49391, -39.49315 ], [ -71.49362, -39.49504 ], [ -71.49381, -39.49633 ], [ -71.49662, -39.49717 ], [ -71.49912, -39.49836 ], [ -71.50314, -39.49995 ], [ -71.50427, -39.50029 ], [ -71.50684, -39.50009 ], [ -71.50904, -39.50022 ], [ -71.51036, -39.50105 ], [ -71.5112, -39.5012 ], [ -71.51361, -39.50089 ], [ -71.51431, -39.50098 ], [ -71.51682, -39.50172 ], [ -71.51863, -39.5032 ], [ -71.51991, -39.5048 ], [ -71.51902, -39.50555 ], [ -71.51893, -39.50606 ], [ -71.51911, -39.50634 ], [ -71.51909, -39.50669 ], [ -71.51892, -39.50704 ], [ -71.51895, -39.50769 ], [ -71.51865, -39.50852 ], [ -71.51879, -39.50982 ], [ -71.51862, -39.51097 ], [ -71.51875, -39.51117 ], [ -71.52017, -39.51259 ], [ -71.52341, -39.51445 ], [ -71.52543, -39.51594 ], [ -71.52629, -39.5164 ], [ -71.5297, -39.517 ], [ -71.53013, -39.51802 ], [ -71.53068, -39.52017 ], [ -71.53077, -39.52089 ], [ -71.53054, -39.52204 ], [ -71.5306, -39.52324 ], [ -71.5312, -39.52398 ], [ -71.53155, -39.52516 ], [ -71.53187, -39.52549 ], [ -71.53315, -39.52649 ], [ -71.53416, -39.52681 ], [ -71.53464, -39.52724 ], [ -71.53472, -39.53145 ], [ -71.53425, -39.5335 ], [ -71.53381, -39.5343 ], [ -71.53301, -39.53515 ], [ -71.5321, -39.53673 ], [ -71.53062, -39.53731 ], [ -71.52599, -39.53829 ], [ -71.52523, -39.53898 ], [ -71.52506, -39.53958 ], [ -71.52427, -39.54048 ], [ -71.52313, -39.54128 ], [ -71.52156, -39.54181 ], [ -71.51525, -39.54342 ], [ -71.51497, -39.5439 ], [ -71.51484, -39.54458 ], [ -71.51387, -39.54537 ], [ -71.51271, -39.54586 ], [ -71.512, -39.54634 ], [ -71.51136, -39.54729 ], [ -71.51135, -39.54804 ], [ -71.51184, -39.55053 ], [ -71.51145, -39.55125 ], [ -71.5104, -39.55208 ], [ -71.50888, -39.55296 ], [ -71.50843, -39.55362 ], [ -71.50794, -39.55377 ], [ -71.50744, -39.55419 ], [ -71.50567, -39.55649 ], [ -71.50502, -39.55827 ], [ -71.50448, -39.55861 ], [ -71.5032, -39.55886 ], [ -71.50153, -39.55878 ], [ -71.5004, -39.55851 ], [ -71.49943, -39.55794 ], [ -71.49913, -39.55759 ], [ -71.49841, -39.55587 ], [ -71.49778, -39.55547 ], [ -71.49666, -39.55522 ], [ -71.4958, -39.55484 ], [ -71.49471, -39.55493 ], [ -71.49376, -39.55419 ], [ -71.4923, -39.55372 ], [ -71.48891, -39.55391 ], [ -71.48839, -39.5538 ], [ -71.4881, -39.55369 ], [ -71.48605, -39.55139 ], [ -71.48546, -39.55105 ], [ -71.48292, -39.55086 ], [ -71.4814, -39.55058 ], [ -71.47853, -39.55083 ], [ -71.47588, -39.55068 ], [ -71.47141, -39.55121 ], [ -71.47082, -39.5517 ], [ -71.46929, -39.55371 ], [ -71.46924, -39.55425 ], [ -71.46886, -39.55481 ], [ -71.46882, -39.55548 ], [ -71.46852, -39.55584 ], [ -71.46803, -39.55593 ], [ -71.46769, -39.55621 ], [ -71.46759, -39.55664 ], [ -71.46785, -39.55798 ], [ -71.46782, -39.55873 ], [ -71.46797, -39.55891 ], [ -71.46881, -39.55926 ], [ -71.47098, -39.55974 ], [ -71.47259, -39.5604 ], [ -71.47311, -39.56076 ], [ -71.47374, -39.56135 ], [ -71.47415, -39.56208 ], [ -71.47456, -39.56372 ], [ -71.47497, -39.56418 ], [ -71.4756, -39.56454 ], [ -71.47595, -39.56541 ], [ -71.47595, -39.56641 ], [ -71.47534, -39.56778 ], [ -71.47551, -39.56824 ], [ -71.47524, -39.569 ], [ -71.47526, -39.5703 ], [ -71.47547, -39.57086 ], [ -71.47381, -39.57453 ], [ -71.47283, -39.57574 ], [ -71.47104, -39.57641 ], [ -71.46912, -39.57666 ], [ -71.46795, -39.57724 ], [ -71.46636, -39.57845 ], [ -71.46588, -39.57902 ], [ -71.46299, -39.58048 ], [ -71.46193, -39.58155 ], [ -71.46204, -39.58218 ], [ -71.46243, -39.5828 ], [ -71.46455, -39.58397 ], [ -71.46658, -39.58544 ], [ -71.46816, -39.58636 ], [ -71.46871, -39.58732 ], [ -71.47134, -39.58975 ], [ -71.47186, -39.59065 ], [ -71.47204, -39.59212 ], [ -71.47267, -39.59329 ], [ -71.47426, -39.59542 ], [ -71.47502, -39.59693 ], [ -71.477, -39.59863 ], [ -71.47841, -39.60137 ], [ -71.47896, -39.60266 ], [ -71.48015, -39.60694 ], [ -71.48122, -39.60768 ], [ -71.48331, -39.6086 ], [ -71.48583, -39.60919 ], [ -71.48736, -39.60975 ], [ -71.48832, -39.61035 ], [ -71.48956, -39.61152 ], [ -71.49023, -39.61291 ], [ -71.492, -39.61402 ], [ -71.49439, -39.615 ], [ -71.49676, -39.61665 ], [ -71.49724, -39.61739 ], [ -71.49745, -39.61804 ], [ -71.49759, -39.61946 ], [ -71.49861, -39.62191 ], [ -71.49921, -39.62412 ], [ -71.49877, -39.62607 ], [ -71.4989, -39.62742 ], [ -71.50203, -39.63388 ], [ -71.50195, -39.63586 ], [ -71.50248, -39.63623 ], [ -71.50473, -39.63562 ], [ -71.50572, -39.63521 ], [ -71.5064, -39.63472 ], [ -71.50737, -39.63326 ], [ -71.50856, -39.632 ], [ -71.51193, -39.62937 ], [ -71.51303, -39.62893 ], [ -71.5146, -39.62856 ], [ -71.51629, -39.62847 ], [ -71.51743, -39.62814 ], [ -71.51839, -39.62753 ], [ -71.51931, -39.62731 ], [ -71.52213, -39.62613 ], [ -71.5232, -39.62543 ], [ -71.52605, -39.62478 ], [ -71.5278, -39.6247 ], [ -71.52873, -39.62445 ], [ -71.53514, -39.62434 ], [ -71.53861, -39.6235 ], [ -71.54053, -39.62287 ], [ -71.54248, -39.62263 ], [ -71.54604, -39.62268 ], [ -71.55024, -39.62326 ], [ -71.55416, -39.62452 ], [ -71.55672, -39.62496 ], [ -71.55924, -39.62633 ], [ -71.56147, -39.62847 ], [ -71.56282, -39.63027 ], [ -71.56393, -39.63129 ], [ -71.56639, -39.63195 ], [ -71.57105, -39.63401 ], [ -71.57309, -39.63382 ], [ -71.57553, -39.634 ], [ -71.5771, -39.63444 ], [ -71.57914, -39.63401 ], [ -71.58066, -39.63327 ], [ -71.58159, -39.63261 ], [ -71.58301, -39.6322 ], [ -71.58349, -39.63153 ], [ -71.58413, -39.631 ], [ -71.58731, -39.6311 ], [ -71.5886, -39.63085 ], [ -71.59065, -39.62954 ], [ -71.59208, -39.6294 ], [ -71.59384, -39.62872 ], [ -71.59444, -39.62868 ], [ -71.59551, -39.62901 ], [ -71.59633, -39.62949 ], [ -71.59722, -39.63043 ], [ -71.59792, -39.63047 ], [ -71.59924, -39.62969 ], [ -71.59987, -39.62877 ], [ -71.60037, -39.62757 ], [ -71.60108, -39.62692 ], [ -71.60158, -39.62678 ], [ -71.60255, -39.62683 ], [ -71.60387, -39.62726 ], [ -71.60675, -39.6261 ], [ -71.60826, -39.62594 ], [ -71.60969, -39.62639 ], [ -71.61058, -39.62738 ], [ -71.61263, -39.62547 ], [ -71.61273, -39.62492 ], [ -71.61306, -39.62451 ], [ -71.61368, -39.6227 ], [ -71.6149, -39.62146 ], [ -71.61494, -39.62084 ], [ -71.61424, -39.6194 ], [ -71.61418, -39.61615 ], [ -71.61338, -39.61508 ], [ -71.61259, -39.6144 ], [ -71.61196, -39.61416 ], [ -71.61338, -39.61246 ], [ -71.61502, -39.61119 ], [ -71.6154, -39.6098 ], [ -71.6158, -39.60947 ], [ -71.61618, -39.60823 ], [ -71.61606, -39.60792 ], [ -71.61615, -39.6073 ], [ -71.61689, -39.60461 ], [ -71.61656, -39.60381 ], [ -71.61671, -39.60317 ], [ -71.61628, -39.60059 ], [ -71.61638, -39.59972 ], [ -71.61859, -39.59762 ], [ -71.61922, -39.59746 ], [ -71.62077, -39.59744 ], [ -71.62123, -39.59727 ], [ -71.62202, -39.59655 ], [ -71.62437, -39.59625 ], [ -71.62513, -39.596 ], [ -71.62449, -39.59254 ], [ -71.62452, -39.59112 ], [ -71.62469, -39.59087 ], [ -71.62669, -39.59073 ], [ -71.62733, -39.59037 ], [ -71.62821, -39.59023 ], [ -71.62988, -39.5891 ], [ -71.63156, -39.58848 ], [ -71.63228, -39.58721 ], [ -71.63318, -39.58652 ], [ -71.63674, -39.5847 ], [ -71.64022, -39.58543 ], [ -71.64194, -39.58548 ], [ -71.64445, -39.58686 ], [ -71.64504, -39.58697 ], [ -71.64814, -39.58628 ], [ -71.65006, -39.58626 ], [ -71.65397, -39.58683 ], [ -71.65671, -39.58656 ], [ -71.65737, -39.58374 ], [ -71.65847, -39.5824 ], [ -71.65867, -39.58193 ], [ -71.65872, -39.58158 ], [ -71.65846, -39.58114 ], [ -71.65834, -39.58038 ], [ -71.65893, -39.57928 ], [ -71.66198, -39.57636 ], [ -71.66266, -39.57589 ], [ -71.66444, -39.57551 ], [ -71.66495, -39.57496 ], [ -71.66594, -39.57327 ], [ -71.66644, -39.5728 ], [ -71.66986, -39.57123 ], [ -71.67054, -39.57068 ], [ -71.6726, -39.56825 ], [ -71.67304, -39.56753 ], [ -71.67366, -39.56597 ], [ -71.67417, -39.56372 ], [ -71.67458, -39.56334 ], [ -71.67465, -39.56279 ], [ -71.67501, -39.56263 ], [ -71.67554, -39.56254 ], [ -71.67699, -39.56332 ], [ -71.68258, -39.56528 ], [ -71.68333, -39.56559 ], [ -71.68475, -39.56667 ], [ -71.68559, -39.56778 ], [ -71.68672, -39.57021 ], [ -71.68958, -39.57301 ], [ -71.6904, -39.57436 ], [ -71.69035, -39.57519 ], [ -71.6902, -39.57545 ], [ -71.6903, -39.57614 ], [ -71.68993, -39.5773 ], [ -71.68986, -39.57824 ], [ -71.69039, -39.57969 ], [ -71.69041, -39.58068 ], [ -71.69072, -39.58118 ], [ -71.69235, -39.58187 ], [ -71.69358, -39.58264 ], [ -71.69508, -39.58401 ], [ -71.69672, -39.58457 ], [ -71.71333, -39.58411 ], [ -71.71337, -39.58312 ], [ -71.71309, -39.58226 ], [ -71.71288, -39.58046 ], [ -71.71299, -39.58011 ], [ -71.71395, -39.57889 ], [ -71.71378, -39.57619 ], [ -71.71456, -39.57477 ], [ -71.71723, -39.57206 ], [ -71.71779, -39.56995 ], [ -71.7183, -39.56916 ], [ -71.71952, -39.56784 ], [ -71.7211, -39.56678 ], [ -71.72409, -39.56582 ], [ -71.72429, -39.56531 ], [ -71.72417, -39.56479 ], [ -71.72357, -39.56423 ], [ -71.72341, -39.56354 ], [ -71.72222, -39.56227 ], [ -71.72204, -39.56121 ], [ -71.72128, -39.56053 ], [ -71.72131, -39.56018 ], [ -71.72193, -39.55998 ], [ -71.72195, -39.55967 ], [ -71.72063, -39.5595 ], [ -71.71997, -39.55854 ], [ -71.71987, -39.55765 ], [ -71.72029, -39.55552 ], [ -71.72014, -39.5548 ], [ -71.71941, -39.55391 ], [ -71.71665, -39.55209 ], [ -71.71631, -39.55104 ], [ -71.71648, -39.54997 ], [ -71.7164, -39.54963 ], [ -71.71581, -39.54885 ], [ -71.71575, -39.5484 ], [ -71.71474, -39.54645 ], [ -71.71315, -39.54469 ], [ -71.71352, -39.54424 ], [ -71.71422, -39.54042 ], [ -71.75075, -39.53908 ], [ -71.75127, -39.53956 ], [ -71.75179, -39.53977 ], [ -71.75231, -39.53977 ], [ -71.75323, -39.54017 ], [ -71.7491, -39.51268 ], [ -71.74952, -39.51233 ], [ -71.75146, -39.51124 ], [ -71.75396, -39.51027 ], [ -71.75584, -39.51011 ], [ -71.75667, -39.51097 ], [ -71.75827, -39.51177 ], [ -71.76012, -39.51304 ], [ -71.76035, -39.51339 ], [ -71.76061, -39.51464 ], [ -71.76176, -39.51479 ], [ -71.76379, -39.51458 ], [ -71.76588, -39.51451 ], [ -71.76611, -39.51451 ], [ -71.76646, -39.5145 ] ], [ [ -71.92858, -39.38267 ], [ -71.92842, -39.38301 ], [ -71.92807, -39.38344 ], [ -71.92858, -39.38267 ] ], [ [ -71.54713, -39.55416 ], [ -71.54796, -39.55447 ], [ -71.54754, -39.55434 ], [ -71.54713, -39.55416 ] ], [ [ -71.62047, -39.54902 ], [ -71.61855, -39.54964 ], [ -71.61763, -39.54955 ], [ -71.61559, -39.5487 ], [ -71.61311, -39.54824 ], [ -71.61249, -39.54799 ], [ -71.61139, -39.54733 ], [ -71.61011, -39.54605 ], [ -71.60792, -39.54503 ], [ -71.60532, -39.54425 ], [ -71.60362, -39.54329 ], [ -71.6028, -39.54303 ], [ -71.60264, -39.54215 ], [ -71.60304, -39.54174 ], [ -71.60416, -39.54153 ], [ -71.60612, -39.54041 ], [ -71.60699, -39.54017 ], [ -71.60891, -39.53915 ], [ -71.61018, -39.53872 ], [ -71.62086, -39.53327 ], [ -71.62233, -39.53453 ], [ -71.62401, -39.53637 ], [ -71.62464, -39.5373 ], [ -71.62497, -39.53742 ], [ -71.62552, -39.53839 ], [ -71.62362, -39.54111 ], [ -71.62367, -39.5434 ], [ -71.62334, -39.54481 ], [ -71.62367, -39.54615 ], [ -71.62354, -39.54653 ], [ -71.62134, -39.54907 ], [ -71.62047, -39.54902 ] ], [ [ -71.89426, -39.37179 ], [ -71.89453, -39.37285 ], [ -71.89481, -39.37354 ], [ -71.89551, -39.37448 ], [ -71.89577, -39.37573 ], [ -71.8961, -39.37639 ], [ -71.89801, -39.37907 ], [ -71.89824, -39.37977 ], [ -71.89868, -39.38025 ], [ -71.89776, -39.38077 ], [ -71.89644, -39.38208 ], [ -71.89533, -39.38215 ], [ -71.8937, -39.38162 ], [ -71.89387, -39.38015 ], [ -71.89427, -39.37943 ], [ -71.89458, -39.37812 ], [ -71.89421, -39.37757 ], [ -71.89334, -39.37711 ], [ -71.89288, -39.37705 ], [ -71.89143, -39.37786 ], [ -71.88641, -39.37694 ], [ -71.88609, -39.37597 ], [ -71.88535, -39.37551 ], [ -71.8864, -39.37554 ], [ -71.88781, -39.37602 ], [ -71.88846, -39.37608 ], [ -71.88795, -39.37549 ], [ -71.88791, -39.37525 ], [ -71.88806, -39.37491 ], [ -71.88855, -39.37451 ], [ -71.88845, -39.37391 ], [ -71.88957, -39.37291 ], [ -71.89062, -39.37239 ], [ -71.89038, -39.37103 ], [ -71.89112, -39.36958 ], [ -71.89192, -39.3687 ], [ -71.89251, -39.36777 ], [ -71.89308, -39.3674 ], [ -71.89481, -39.36741 ], [ -71.89437, -39.36855 ], [ -71.89417, -39.37053 ], [ -71.89426, -39.37179 ] ] ], [ [ [ -71.96953, -39.39672 ], [ -71.9693, -39.39672 ], [ -71.96871, -39.39679 ], [ -71.96953, -39.39672 ] ] ] ] } },
{ "type": "Feature", "properties": { "nombre": "Reserva Nacional Villarrica", "categoria": "Reserva Nacional", "region": "Araucania", "superficie_ha": "61352", "decreto": "NÂ° 378 de 1925; NÂ° 8129 de 1929; NÂ° 1722 de 1912" }, "geometry": { "type": "MultiPolygon", "coordinates": [ [ [ [ -71.39105, -39.25593 ], [ -71.39174, -39.25876 ], [ -71.39142, -39.26002 ], [ -71.39, -39.26137 ], [ -71.38978, -39.26181 ], [ -71.38944, -39.26303 ], [ -71.38907, -39.26352 ], [ -71.38897, -39.2651 ], [ -71.3866, -39.26568 ], [ -71.38541, -39.26615 ], [ -71.37767, -39.28446 ], [ -71.37796, -39.28425 ], [ -71.37923, -39.28389 ], [ -71.38094, -39.28376 ], [ -71.38297, -39.28392 ], [ -71.38445, -39.28451 ], [ -71.38532, -39.28527 ], [ -71.3868, -39.28588 ], [ -71.38756, -39.28647 ], [ -71.38842, -39.28743 ], [ -71.3894, -39.28922 ], [ -71.39085, -39.29292 ], [ -71.39196, -39.29409 ], [ -71.39254, -39.2953 ], [ -71.39328, -39.29777 ], [ -71.39367, -39.29836 ], [ -71.39406, -39.30018 ], [ -71.39511, -39.3018 ], [ -71.39506, -39.30252 ], [ -71.39407, -39.30499 ], [ -71.39108, -39.31037 ], [ -71.38792, -39.31343 ], [ -71.38698, -39.31469 ], [ -71.38658, -39.31553 ], [ -71.38585, -39.3184 ], [ -71.38673, -39.31906 ], [ -71.38983, -39.31997 ], [ -71.39269, -39.32101 ], [ -71.39382, -39.32175 ], [ -71.39467, -39.32314 ], [ -71.39615, -39.32652 ], [ -71.39622, -39.32792 ], [ -71.39544, -39.33012 ], [ -71.39542, -39.33143 ], [ -71.3956, -39.33277 ], [ -71.39544, -39.33425 ], [ -71.39485, -39.33545 ], [ -71.3947, -39.33612 ], [ -71.39456, -39.34052 ], [ -71.39472, -39.341 ], [ -71.39581, -39.34268 ], [ -71.39588, -39.34342 ], [ -71.39653, -39.34477 ], [ -71.39935, -39.34715 ], [ -71.39946, -39.34959 ], [ -71.39967, -39.3503 ], [ -71.40156, -39.35174 ], [ -71.40337, -39.3524 ], [ -71.40528, -39.35246 ], [ -71.40603, -39.35215 ], [ -71.40795, -39.35211 ], [ -71.41036, -39.35272 ], [ -71.41089, -39.35323 ], [ -71.4114, -39.3542 ], [ -71.4122, -39.35502 ], [ -71.41253, -39.35669 ], [ -71.41309, -39.35796 ], [ -71.41356, -39.3587 ], [ -71.41415, -39.35922 ], [ -71.41795, -39.36093 ], [ -71.41956, -39.36182 ], [ -71.42014, -39.36242 ], [ -71.42072, -39.36349 ], [ -71.42249, -39.36569 ], [ -71.42319, -39.366 ], [ -71.42525, -39.36589 ], [ -71.42768, -39.36504 ], [ -71.4281, -39.36513 ], [ -71.43224, -39.36901 ], [ -71.43259, -39.36956 ], [ -71.43275, -39.37136 ], [ -71.43314, -39.37198 ], [ -71.43381, -39.37183 ], [ -71.43564, -39.37077 ], [ -71.43825, -39.37 ], [ -71.43901, -39.36922 ], [ -71.44023, -39.36905 ], [ -71.44147, -39.36853 ], [ -71.44249, -39.3687 ], [ -71.44471, -39.37019 ], [ -71.44633, -39.37102 ], [ -71.44893, -39.37162 ], [ -71.45174, -39.37113 ], [ -71.45441, -39.37018 ], [ -71.45625, -39.36977 ], [ -71.45663, -39.3698 ], [ -71.45683, -39.37001 ], [ -71.45697, -39.37059 ], [ -71.4569, -39.37132 ], [ -71.45725, -39.3723 ], [ -71.4572, -39.3739 ], [ -71.4579, -39.37595 ], [ -71.4576, -39.37739 ], [ -71.45627, -39.37996 ], [ -71.45527, -39.38242 ], [ -71.45395, -39.38893 ], [ -71.45397, -39.38924 ], [ -71.45446, -39.38988 ], [ -71.45443, -39.39014 ], [ -71.45404, -39.39061 ], [ -71.4525, -39.39176 ], [ -71.44953, -39.39481 ], [ -71.44686, -39.39588 ], [ -71.44598, -39.3968 ], [ -71.44498, -39.39965 ], [ -71.44425, -39.40109 ], [ -71.44446, -39.40182 ], [ -71.44449, -39.40367 ], [ -71.44544, -39.40611 ], [ -71.445, -39.4082 ], [ -71.44577, -39.40919 ], [ -71.4467, -39.40949 ], [ -71.44821, -39.40957 ], [ -71.45201, -39.40914 ], [ -71.45311, -39.4095 ], [ -71.45358, -39.40981 ], [ -71.45421, -39.4106 ], [ -71.45525, -39.41258 ], [ -71.45555, -39.41268 ], [ -71.45762, -39.41248 ], [ -71.45857, -39.4127 ], [ -71.46045, -39.41363 ], [ -71.46086, -39.41401 ], [ -71.46104, -39.41444 ], [ -71.46102, -39.41585 ], [ -71.46344, -39.41803 ], [ -71.4639, -39.4188 ], [ -71.46377, -39.41967 ], [ -71.46282, -39.42078 ], [ -71.46231, -39.4219 ], [ -71.46202, -39.42299 ], [ -71.46157, -39.42333 ], [ -71.4609, -39.42367 ], [ -71.45903, -39.42411 ], [ -71.45417, -39.42386 ], [ -71.45197, -39.424 ], [ -71.45079, -39.42515 ], [ -71.45028, -39.42611 ], [ -71.45036, -39.42819 ], [ -71.4498, -39.43026 ], [ -71.44954, -39.4333 ], [ -71.45015, -39.43521 ], [ -71.45134, -39.43671 ], [ -71.45097, -39.43792 ], [ -71.45096, -39.43879 ], [ -71.45124, -39.43996 ], [ -71.45088, -39.44082 ], [ -71.44967, -39.44234 ], [ -71.44891, -39.44303 ], [ -71.44889, -39.44407 ], [ -71.4495, -39.44677 ], [ -71.44945, -39.44737 ], [ -71.44868, -39.44869 ], [ -71.4474, -39.44999 ], [ -71.44735, -39.45067 ], [ -71.44758, -39.45091 ], [ -71.44879, -39.451 ], [ -71.45452, -39.45074 ], [ -71.45696, -39.45151 ], [ -71.45813, -39.45318 ], [ -71.45906, -39.45393 ], [ -71.4609, -39.45378 ], [ -71.46163, -39.45413 ], [ -71.46224, -39.45589 ], [ -71.46275, -39.45644 ], [ -71.46358, -39.45693 ], [ -71.46529, -39.45971 ], [ -71.46533, -39.46094 ], [ -71.46505, -39.46263 ], [ -71.46459, -39.46344 ], [ -71.4641, -39.465 ], [ -71.46431, -39.46818 ], [ -71.46414, -39.4691 ], [ -71.4632, -39.47056 ], [ -71.46325, -39.47113 ], [ -71.46399, -39.47204 ], [ -71.46475, -39.4736 ], [ -71.46629, -39.4748 ], [ -71.4667, -39.47562 ], [ -71.4668, -39.47649 ], [ -71.46701, -39.47697 ], [ -71.46901, -39.47898 ], [ -71.46899, -39.48006 ], [ -71.46997, -39.48187 ], [ -71.47048, -39.48394 ], [ -71.4705, -39.48493 ], [ -71.47011, -39.48673 ], [ -71.47251, -39.49006 ], [ -71.47272, -39.49219 ], [ -71.47324, -39.49369 ], [ -71.47365, -39.49407 ], [ -71.47492, -39.49453 ], [ -71.47821, -39.49508 ], [ -71.47909, -39.49539 ], [ -71.48003, -39.49532 ], [ -71.48102, -39.49426 ], [ -71.48139, -39.4942 ], [ -71.48365, -39.49492 ], [ -71.48688, -39.49508 ], [ -71.48931, -39.49578 ], [ -71.49074, -39.49661 ], [ -71.49085, -39.49583 ], [ -71.49108, -39.4961 ], [ -71.49235, -39.49672 ], [ -71.49421, -39.49722 ], [ -71.49401, -39.49512 ], [ -71.49429, -39.49383 ], [ -71.49298, -39.49325 ], [ -71.49284, -39.49266 ], [ -71.49248, -39.49211 ], [ -71.48709, -39.49311 ], [ -71.485, -39.48933 ], [ -71.48967, -39.48731 ], [ -71.49088, -39.48354 ], [ -71.48924, -39.48357 ], [ -71.4892, -39.48277 ], [ -71.48979, -39.48167 ], [ -71.4927, -39.48105 ], [ -71.49407, -39.48048 ], [ -71.49525, -39.47966 ], [ -71.49594, -39.47855 ], [ -71.49454, -39.47782 ], [ -71.49422, -39.47742 ], [ -71.49348, -39.47706 ], [ -71.49176, -39.47673 ], [ -71.49002, -39.47857 ], [ -71.48916, -39.47799 ], [ -71.48913, -39.47777 ], [ -71.48833, -39.47714 ], [ -71.48659, -39.47666 ], [ -71.48531, -39.47608 ], [ -71.48187, -39.47379 ], [ -71.4773, -39.47036 ], [ -71.47967, -39.46736 ], [ -71.48728, -39.46439 ], [ -71.49331, -39.46442 ], [ -71.4944, -39.46471 ], [ -71.49585, -39.4636 ], [ -71.49559, -39.46234 ], [ -71.49665, -39.45988 ], [ -71.49582, -39.45226 ], [ -71.49926, -39.45201 ], [ -71.48974, -39.44677 ], [ -71.48732, -39.44593 ], [ -71.4881, -39.44891 ], [ -71.48679, -39.44967 ], [ -71.48629, -39.44985 ], [ -71.48488, -39.44991 ], [ -71.4818, -39.44947 ], [ -71.47827, -39.45045 ], [ -71.47721, -39.45104 ], [ -71.47565, -39.45118 ], [ -71.4732, -39.45105 ], [ -71.47265, -39.44781 ], [ -71.47178, -39.43639 ], [ -71.47115, -39.43523 ], [ -71.47104, -39.43451 ], [ -71.47228, -39.43287 ], [ -71.47275, -39.43183 ], [ -71.47277, -39.43101 ], [ -71.47262, -39.43045 ], [ -71.4739, -39.42942 ], [ -71.47265, -39.42922 ], [ -71.47303, -39.42898 ], [ -71.47236, -39.42753 ], [ -71.47316, -39.42528 ], [ -71.47536, -39.42235 ], [ -71.47509, -39.42233 ], [ -71.47621, -39.41576 ], [ -71.4764, -39.41364 ], [ -71.47698, -39.41174 ], [ -71.4771, -39.41096 ], [ -71.47698, -39.41014 ], [ -71.47713, -39.40965 ], [ -71.47795, -39.40845 ], [ -71.47346, -39.4061 ], [ -71.46847, -39.3997 ], [ -71.46909, -39.399 ], [ -71.46965, -39.39907 ], [ -71.47407, -39.40018 ], [ -71.47599, -39.40092 ], [ -71.47773, -39.40124 ], [ -71.47877, -39.39862 ], [ -71.47976, -39.39893 ], [ -71.48275, -39.39852 ], [ -71.48414, -39.39986 ], [ -71.48503, -39.39914 ], [ -71.48694, -39.39679 ], [ -71.48677, -39.39614 ], [ -71.48633, -39.39578 ], [ -71.48635, -39.39513 ], [ -71.48611, -39.39469 ], [ -71.48501, -39.39351 ], [ -71.48625, -39.39292 ], [ -71.48754, -39.39197 ], [ -71.4878, -39.39148 ], [ -71.48719, -39.3898 ], [ -71.48828, -39.38896 ], [ -71.49073, -39.38891 ], [ -71.49248, -39.38965 ], [ -71.49411, -39.38913 ], [ -71.49498, -39.38919 ], [ -71.49643, -39.38891 ], [ -71.49673, -39.38838 ], [ -71.49767, -39.38744 ], [ -71.49787, -39.38693 ], [ -71.49763, -39.38614 ], [ -71.49828, -39.38577 ], [ -71.50053, -39.38605 ], [ -71.50131, -39.3858 ], [ -71.50234, -39.38593 ], [ -71.50505, -39.38448 ], [ -71.50622, -39.38358 ], [ -71.50649, -39.38393 ], [ -71.50959, -39.38564 ], [ -71.50949, -39.38592 ], [ -71.5102, -39.38597 ], [ -71.51122, -39.38653 ], [ -71.51289, -39.38882 ], [ -71.52439, -39.38928 ], [ -71.52555, -39.38875 ], [ -71.52837, -39.38578 ], [ -71.53009, -39.38643 ], [ -71.5316, -39.38746 ], [ -71.53215, -39.38716 ], [ -71.53218, -39.38653 ], [ -71.53206, -39.38572 ], [ -71.53107, -39.38471 ], [ -71.531, -39.38403 ], [ -71.52568, -39.38067 ], [ -71.52445, -39.37949 ], [ -71.52361, -39.37801 ], [ -71.52318, -39.37786 ], [ -71.52315, -39.37728 ], [ -71.52247, -39.37526 ], [ -71.52117, -39.37524 ], [ -71.52055, -39.37568 ], [ -71.5193, -39.37606 ], [ -71.51857, -39.37735 ], [ -71.51827, -39.37748 ], [ -71.51788, -39.37854 ], [ -71.51667, -39.37871 ], [ -71.51529, -39.3793 ], [ -71.51396, -39.37924 ], [ -71.51262, -39.37959 ], [ -71.51199, -39.38032 ], [ -71.51197, -39.38059 ], [ -71.51133, -39.38053 ], [ -71.50944, -39.37977 ], [ -71.50656, -39.38082 ], [ -71.50441, -39.38094 ], [ -71.50265, -39.38139 ], [ -71.50161, -39.38142 ], [ -71.50053, -39.38125 ], [ -71.49877, -39.38059 ], [ -71.49741, -39.37808 ], [ -71.49735, -39.37982 ], [ -71.49614, -39.38163 ], [ -71.49542, -39.38226 ], [ -71.494, -39.38301 ], [ -71.49208, -39.38375 ], [ -71.48979, -39.38407 ], [ -71.48698, -39.38508 ], [ -71.48599, -39.38525 ], [ -71.48517, -39.38507 ], [ -71.48324, -39.38562 ], [ -71.48288, -39.38585 ], [ -71.48192, -39.38598 ], [ -71.47949, -39.38373 ], [ -71.47777, -39.38179 ], [ -71.47907, -39.38094 ], [ -71.4836, -39.37969 ], [ -71.48408, -39.3798 ], [ -71.48465, -39.37964 ], [ -71.4857, -39.37902 ], [ -71.4864, -39.37807 ], [ -71.48559, -39.37531 ], [ -71.48493, -39.37447 ], [ -71.48467, -39.37433 ], [ -71.48425, -39.3744 ], [ -71.48424, -39.3741 ], [ -71.4845, -39.3738 ], [ -71.48448, -39.37338 ], [ -71.48375, -39.37082 ], [ -71.48341, -39.36735 ], [ -71.48342, -39.36673 ], [ -71.48368, -39.36638 ], [ -71.4844, -39.36602 ], [ -71.48502, -39.36545 ], [ -71.48474, -39.36424 ], [ -71.48551, -39.36199 ], [ -71.48505, -39.35975 ], [ -71.48501, -39.35798 ], [ -71.47984, -39.36057 ], [ -71.46111, -39.35784 ], [ -71.45985, -39.3564 ], [ -71.45927, -39.35459 ], [ -71.45965, -39.35439 ], [ -71.46118, -39.35458 ], [ -71.46426, -39.35422 ], [ -71.46645, -39.35414 ], [ -71.46747, -39.35426 ], [ -71.46798, -39.35454 ], [ -71.47043, -39.35465 ], [ -71.47183, -39.35499 ], [ -71.47177, -39.35342 ], [ -71.47251, -39.35297 ], [ -71.47311, -39.35231 ], [ -71.47478, -39.3512 ], [ -71.45486, -39.35071 ], [ -71.456, -39.34978 ], [ -71.45629, -39.34931 ], [ -71.45711, -39.34499 ], [ -71.45776, -39.34276 ], [ -71.4612, -39.3419 ], [ -71.46124, -39.33975 ], [ -71.46063, -39.33787 ], [ -71.46253, -39.33705 ], [ -71.46401, -39.33613 ], [ -71.46839, -39.33631 ], [ -71.46856, -39.33546 ], [ -71.46844, -39.33437 ], [ -71.4688, -39.33246 ], [ -71.46874, -39.33122 ], [ -71.46585, -39.33145 ], [ -71.46421, -39.33187 ], [ -71.45744, -39.33246 ], [ -71.4574, -39.33449 ], [ -71.45785, -39.33692 ], [ -71.45835, -39.33799 ], [ -71.45681, -39.33812 ], [ -71.455, -39.33781 ], [ -71.45332, -39.33807 ], [ -71.45095, -39.33759 ], [ -71.44941, -39.33745 ], [ -71.44873, -39.33671 ], [ -71.44583, -39.33506 ], [ -71.44514, -39.33445 ], [ -71.4431, -39.33348 ], [ -71.4479, -39.32383 ], [ -71.44709, -39.32322 ], [ -71.44605, -39.32292 ], [ -71.4414, -39.32336 ], [ -71.44111, -39.32524 ], [ -71.4403, -39.32724 ], [ -71.44021, -39.32846 ], [ -71.44032, -39.32882 ], [ -71.44202, -39.32906 ], [ -71.44225, -39.32929 ], [ -71.44226, -39.3297 ], [ -71.44218, -39.33011 ], [ -71.44186, -39.33029 ], [ -71.44149, -39.33273 ], [ -71.44091, -39.33349 ], [ -71.4379, -39.33251 ], [ -71.43647, -39.33141 ], [ -71.43403, -39.32996 ], [ -71.43241, -39.32944 ], [ -71.4334, -39.32831 ], [ -71.43456, -39.3253 ], [ -71.43511, -39.3233 ], [ -71.43312, -39.32285 ], [ -71.43366, -39.32279 ], [ -71.43399, -39.32256 ], [ -71.43053, -39.32025 ], [ -71.4299, -39.31905 ], [ -71.42938, -39.31886 ], [ -71.42976, -39.31988 ], [ -71.43009, -39.32175 ], [ -71.43, -39.32262 ], [ -71.43243, -39.3249 ], [ -71.42855, -39.33603 ], [ -71.42831, -39.33638 ], [ -71.42684, -39.33679 ], [ -71.42709, -39.33729 ], [ -71.4279, -39.33807 ], [ -71.4293, -39.33863 ], [ -71.43014, -39.33965 ], [ -71.43111, -39.34 ], [ -71.43136, -39.34074 ], [ -71.43273, -39.34219 ], [ -71.43279, -39.34294 ], [ -71.43418, -39.3445 ], [ -71.43458, -39.34566 ], [ -71.43457, -39.34623 ], [ -71.4367, -39.34626 ], [ -71.43341, -39.35372 ], [ -71.42551, -39.35202 ], [ -71.42805, -39.3446 ], [ -71.42269, -39.3409 ], [ -71.4186, -39.34012 ], [ -71.4189, -39.33781 ], [ -71.41867, -39.33579 ], [ -71.41707, -39.33481 ], [ -71.41396, -39.33483 ], [ -71.41157, -39.33405 ], [ -71.41052, -39.33339 ], [ -71.40921, -39.33193 ], [ -71.40988, -39.33018 ], [ -71.41027, -39.32997 ], [ -71.41334, -39.33009 ], [ -71.41718, -39.3306 ], [ -71.41548, -39.32538 ], [ -71.41602, -39.32418 ], [ -71.41595, -39.32311 ], [ -71.41643, -39.32224 ], [ -71.41842, -39.31542 ], [ -71.41396, -39.31776 ], [ -71.41025, -39.31663 ], [ -71.40937, -39.31683 ], [ -71.40907, -39.31668 ], [ -71.40859, -39.31605 ], [ -71.40701, -39.31522 ], [ -71.40697, -39.31476 ], [ -71.40715, -39.31431 ], [ -71.40819, -39.31347 ], [ -71.40844, -39.31298 ], [ -71.40694, -39.31404 ], [ -71.40624, -39.31581 ], [ -71.40493, -39.31505 ], [ -71.40356, -39.31399 ], [ -71.40243, -39.3128 ], [ -71.39908, -39.31169 ], [ -71.40522, -39.30786 ], [ -71.40742, -39.30475 ], [ -71.39686, -39.28775 ], [ -71.40319, -39.28744 ], [ -71.40307, -39.28696 ], [ -71.40269, -39.28665 ], [ -71.40287, -39.28575 ], [ -71.40276, -39.28542 ], [ -71.40331, -39.28435 ], [ -71.40205, -39.2835 ], [ -71.4019, -39.28187 ], [ -71.40756, -39.28204 ], [ -71.40744, -39.28426 ], [ -71.40752, -39.28474 ], [ -71.40809, -39.28564 ], [ -71.40928, -39.28586 ], [ -71.41269, -39.28578 ], [ -71.414, -39.28547 ], [ -71.41671, -39.27301 ], [ -71.42019, -39.27543 ], [ -71.42207, -39.27643 ], [ -71.42289, -39.27662 ], [ -71.42438, -39.27661 ], [ -71.42535, -39.27688 ], [ -71.4265, -39.27743 ], [ -71.4288, -39.27443 ], [ -71.42913, -39.27253 ], [ -71.42917, -39.2711 ], [ -71.42956, -39.26968 ], [ -71.43223, -39.26982 ], [ -71.43182, -39.26954 ], [ -71.43116, -39.26859 ], [ -71.43027, -39.26645 ], [ -71.42969, -39.26563 ], [ -71.42964, -39.26514 ], [ -71.43005, -39.26334 ], [ -71.42927, -39.26113 ], [ -71.4293, -39.25967 ], [ -71.4214, -39.26113 ], [ -71.41985, -39.25768 ], [ -71.41544, -39.26175 ], [ -71.4124, -39.25579 ], [ -71.41345, -39.25592 ], [ -71.41508, -39.2558 ], [ -71.41906, -39.25454 ], [ -71.41949, -39.25415 ], [ -71.42112, -39.25353 ], [ -71.42141, -39.25321 ], [ -71.42246, -39.253 ], [ -71.424, -39.25345 ], [ -71.42575, -39.25326 ], [ -71.42804, -39.25188 ], [ -71.42836, -39.25148 ], [ -71.42924, -39.25109 ], [ -71.42933, -39.25086 ], [ -71.43114, -39.25035 ], [ -71.4307, -39.24958 ], [ -71.43078, -39.24869 ], [ -71.43182, -39.24548 ], [ -71.43289, -39.24133 ], [ -71.43317, -39.23803 ], [ -71.43418, -39.23625 ], [ -71.4336, -39.23543 ], [ -71.43376, -39.23502 ], [ -71.43368, -39.23421 ], [ -71.43387, -39.23358 ], [ -71.43262, -39.23306 ], [ -71.43164, -39.23306 ], [ -71.4299, -39.23391 ], [ -71.43029, -39.23396 ], [ -71.4305, -39.23471 ], [ -71.42968, -39.23817 ], [ -71.42933, -39.24137 ], [ -71.4289, -39.24255 ], [ -71.42794, -39.24339 ], [ -71.42637, -39.24414 ], [ -71.42485, -39.24451 ], [ -71.42164, -39.24479 ], [ -71.41969, -39.24458 ], [ -71.41586, -39.24617 ], [ -71.41559, -39.24811 ], [ -71.41405, -39.24834 ], [ -71.40696, -39.23704 ], [ -71.40919, -39.2328 ], [ -71.41562, -39.23344 ], [ -71.4163, -39.22662 ], [ -71.41931, -39.22611 ], [ -71.42213, -39.21091 ], [ -71.4191, -39.21087 ], [ -71.41785, -39.21003 ], [ -71.41093, -39.21958 ], [ -71.39073, -39.25519 ], [ -71.39105, -39.25593 ] ] ], [ [ [ -71.42721, -39.19957 ], [ -71.43077, -39.19958 ], [ -71.43288, -39.20036 ], [ -71.43481, -39.19925 ], [ -71.43638, -39.19921 ], [ -71.43955, -39.19858 ], [ -71.44148, -39.19871 ], [ -71.44377, -39.19828 ], [ -71.44569, -39.19829 ], [ -71.44558, -39.19798 ], [ -71.45437, -39.1904 ], [ -71.45241, -39.18932 ], [ -71.45701, -39.18465 ], [ -71.44943, -39.17902 ], [ -71.44894, -39.17735 ], [ -71.44896, -39.17522 ], [ -71.44869, -39.17451 ], [ -71.44815, -39.17392 ], [ -71.44604, -39.17321 ], [ -71.44596, -39.17315 ], [ -71.43882, -39.18108 ], [ -71.42586, -39.19898 ], [ -71.42721, -39.19957 ] ] ], [ [ [ -71.45189, -39.16764 ], [ -71.45257, -39.16706 ], [ -71.45309, -39.16692 ], [ -71.45511, -39.16526 ], [ -71.45611, -39.1639 ], [ -71.45742, -39.1625 ], [ -71.45859, -39.16223 ], [ -71.45905, -39.16191 ], [ -71.45951, -39.16152 ], [ -71.46019, -39.15982 ], [ -71.46049, -39.15959 ], [ -71.46094, -39.15959 ], [ -71.46228, -39.16014 ], [ -71.46365, -39.16126 ], [ -71.46388, -39.16166 ], [ -71.46565, -39.16249 ], [ -71.46609, -39.1631 ], [ -71.46674, -39.16327 ], [ -71.46717, -39.16372 ], [ -71.47199, -39.16048 ], [ -71.47454, -39.15644 ], [ -71.47662, -39.15207 ], [ -71.48114, -39.15182 ], [ -71.49028, -39.1507 ], [ -71.49023, -39.14839 ], [ -71.48981, -39.14666 ], [ -71.48965, -39.14473 ], [ -71.49001, -39.14423 ], [ -71.49061, -39.1439 ], [ -71.49123, -39.14311 ], [ -71.49114, -39.14208 ], [ -71.49018, -39.14033 ], [ -71.48918, -39.13979 ], [ -71.4893, -39.13951 ], [ -71.48825, -39.13891 ], [ -71.48611, -39.13827 ], [ -71.48558, -39.13789 ], [ -71.48556, -39.13683 ], [ -71.48597, -39.13641 ], [ -71.48619, -39.13587 ], [ -71.48622, -39.13538 ], [ -71.48598, -39.13494 ], [ -71.48326, -39.13411 ], [ -71.47139, -39.14489 ], [ -71.44976, -39.16892 ], [ -71.45189, -39.16764 ] ] ] ] } },
{ "type": "Feature", "properties": { "nombre": "Parque Nacional Huerquehue", "categoria": "Parque Nacional", "region": "Araucania", "superficie_ha": "12500", "decreto": "NÂ° 347 de 1967; NÂ° 82 de 1985" }, "geometry": { "type": "Polygon", "coordinates": [ [ [ -71.66617, -39.06563 ], [ -71.65713, -39.06948 ], [ -71.65572, -39.07046 ], [ -71.65384, -39.07343 ], [ -71.6449, -39.07375 ], [ -71.63811, -39.0821 ], [ -71.63104, -39.08487 ], [ -71.62387, -39.10125 ], [ -71.64593, -39.10865 ], [ -71.64274, -39.11786 ], [ -71.62589, -39.11363 ], [ -71.60729, -39.11506 ], [ -71.59302, -39.11633 ], [ -71.56966, -39.12026 ], [ -71.56875, -39.13289 ], [ -71.56831, -39.14147 ], [ -71.5948, -39.13886 ], [ -71.60529, -39.13762 ], [ -71.62212, -39.14363 ], [ -71.61072, -39.15496 ], [ -71.60387, -39.16214 ], [ -71.60336, -39.18003 ], [ -71.60786, -39.18499 ], [ -71.61189, -39.18506 ], [ -71.61579, -39.17938 ], [ -71.62129, -39.18581 ], [ -71.61618, -39.1954 ], [ -71.61685, -39.19592 ], [ -71.63015, -39.20221 ], [ -71.63344, -39.20065 ], [ -71.64532, -39.20725 ], [ -71.64754, -39.21167 ], [ -71.64838, -39.21229 ], [ -71.66468, -39.20899 ], [ -71.66103, -39.20246 ], [ -71.6581, -39.19788 ], [ -71.6545, -39.19182 ], [ -71.65469, -39.18257 ], [ -71.66814, -39.16956 ], [ -71.67555, -39.16928 ], [ -71.68025, -39.17174 ], [ -71.6804, -39.17197 ], [ -71.70004, -39.18069 ], [ -71.70555, -39.18057 ], [ -71.71279, -39.18743 ], [ -71.7145, -39.18817 ], [ -71.71603, -39.18813 ], [ -71.72317, -39.18659 ], [ -71.72646, -39.18848 ], [ -71.72886, -39.18908 ], [ -71.72946, -39.18877 ], [ -71.72936, -39.18406 ], [ -71.72969, -39.17672 ], [ -71.72803, -39.1736 ], [ -71.72619, -39.1715 ], [ -71.72399, -39.16797 ], [ -71.72449, -39.16707 ], [ -71.72544, -39.16591 ], [ -71.72282, -39.16365 ], [ -71.72196, -39.16313 ], [ -71.72155, -39.16231 ], [ -71.72107, -39.1619 ], [ -71.7196, -39.1614 ], [ -71.71858, -39.16083 ], [ -71.71667, -39.15908 ], [ -71.71608, -39.15945 ], [ -71.71481, -39.16097 ], [ -71.71324, -39.16179 ], [ -71.71048, -39.16388 ], [ -71.70821, -39.16459 ], [ -71.70752, -39.1646 ], [ -71.70698, -39.16438 ], [ -71.70163, -39.1527 ], [ -71.71401, -39.14597 ], [ -71.71758, -39.14726 ], [ -71.71945, -39.14829 ], [ -71.73814, -39.15614 ], [ -71.73898, -39.15612 ], [ -71.74499, -39.15323 ], [ -71.74227, -39.1284 ], [ -71.74389, -39.12682 ], [ -71.73599, -39.11448 ], [ -71.72062, -39.11484 ], [ -71.71022, -39.11526 ], [ -71.69761, -39.1155 ], [ -71.69303, -39.11578 ], [ -71.68675, -39.11569 ], [ -71.6859, -39.11559 ], [ -71.68543, -39.11536 ], [ -71.68415, -39.10579 ], [ -71.68903, -39.09727 ], [ -71.69163, -39.0993 ], [ -71.6941, -39.10186 ], [ -71.6958, -39.10224 ], [ -71.69788, -39.10312 ], [ -71.70745, -39.10483 ], [ -71.71529, -39.10173 ], [ -71.71867, -39.1001 ], [ -71.72139, -39.09914 ], [ -71.72319, -39.09821 ], [ -71.72804, -39.09291 ], [ -71.71974, -39.08416 ], [ -71.71886, -39.08375 ], [ -71.71886, -39.08344 ], [ -71.70674, -39.07808 ], [ -71.69153, -39.07056 ], [ -71.68266, -39.06654 ], [ -71.6718, -39.06303 ], [ -71.66617, -39.06563 ] ] ] } }
]
}
