{
"type": "FeatureCollection",
"name": "ACA",
"crs": { "type": "name", "properties": { "name": "urn:ogc:def:crs:OGC:1.3:CRS84" } },
"xy_coordinate_resolution": 1e-05,
"features": [
{ "type": "Feature", "properties": { "objectid": 689, "volcan": "Osorno", "Shape__Length": 0.11100819084281814 }, "geometry": { "type": "LineString", "coordinates": [ [ -72.59428, -40.97413 ], [ -72.59653, -40.97395 ], [ -72.60368, -40.97222 ], [ -72.60475, -40.97207 ], [ -72.61154, -40.97298 ], [ -72.61603, -40.9733 ], [ -72.6297, -40.9747 ], [ -72.63311, -40.97589 ], [ -72.63493, -40.97577 ], [ -72.63827, -40.97579 ], [ -72.64625, -40.97381 ], [ -72.64731, -40.9736 ], [ -72.6481, -40.97352 ], [ -72.65273, -40.97345 ], [ -72.66431, -40.97264 ], [ -72.67237, -40.97163 ], [ -72.67247, -40.97174 ], [ -72.6725, -40.97196 ], [ -72.67341, -40.98432 ], [ -72.67357, -40.98491 ], [ -72.68213, -40.99015 ], [ -72.68555, -40.99154 ], [ -72.68629, -40.99212 ], [ -72.68972, -40.99396 ] ] } },
{ "type": "Feature", "properties": { "objectid": 690, "volcan": "Osorno", "Shape__Length": 0.088303796800025633 }, "geometry": { "type": "LineString", "coordinates": [ [ -72.57324, -41.00801 ], [ -72.57406, -41.00814 ], [ -72.57447, -41.00811 ], [ -72.575, -41.00793 ], [ -72.57539, -41.00792 ], [ -72.5758, -41.00803 ], [ -72.57644, -41.00853 ], [ -72.57811, -41.0103 ], [ -72.57929, -41.01111 ], [ -72.58151, -41.01179 ], [ -72.58251, -41.01193 ], [ -72.58323, -41.01214 ], [ -72.5836, -41.01216 ], [ -72.58428, -41.01186 ], [ -72.58613, -41.01173 ], [ -72.59287, -41.01206 ], [ -72.60423, -41.0143 ], [ -72.60534, -41.01566 ], [ -72.60778, -41.01744 ], [ -72.61034, -41.01918 ], [ -72.6174, -41.02306 ], [ -72.61912, -41.02481 ], [ -72.61995, -41.02595 ], [ -72.62011, -41.02623 ], [ -72.62006, -41.02756 ], [ -72.62031, -41.02795 ], [ -72.62078, -41.02828 ], [ -72.62093, -41.02855 ], [ -72.62103, -41.02932 ], [ -72.62124, -41.02947 ], [ -72.62154, -41.02943 ], [ -72.62198, -41.02881 ], [ -72.62222, -41.0287 ], [ -72.62252, -41.02873 ], [ -72.62401, -41.02922 ], [ -72.62445, -41.02922 ], [ -72.62568, -41.02817 ], [ -72.62786, -41.02704 ], [ -72.62811, -41.02682 ], [ -72.62847, -41.02628 ], [ -72.62874, -41.02613 ], [ -72.6323, -41.02589 ], [ -72.63306, -41.02576 ], [ -72.63423, -41.02537 ], [ -72.63523, -41.02457 ], [ -72.63763, -41.02389 ], [ -72.64442, -41.02399 ], [ -72.64512, -41.02408 ], [ -72.64878, -41.02496 ], [ -72.65085, -41.02485 ] ] } },
{ "type": "Feature", "properties": { "objectid": 691, "volcan": "Osorno", "Shape__Length": 0.064469519381849805 }, "geometry": { "type": "LineString", "coordinates": [ [ -72.45615, -41.17558 ], [ -72.45408, -41.17422 ], [ -72.45181, -41.1733 ], [ -72.45043, -41.17244 ], [ -72.44622, -41.16783 ], [ -72.44392, -41.16573 ], [ -72.43812, -41.15943 ], [ -72.43669, -41.15837 ], [ -72.43575, -41.15777 ], [ -72.43471, -41.15724 ], [ -72.4343, -41.15692 ], [ -72.43354, -41.1559 ], [ -72.43332, -41.15521 ], [ -72.43333, -41.15461 ], [ -72.43397, -41.15354 ], [ -72.43398, -41.15335 ], [ -72.43384, -41.153 ], [ -72.4313, -41.14994 ], [ -72.43032, -41.14909 ], [ -72.42974, -41.14872 ], [ -72.4289, -41.14832 ], [ -72.42698, -41.14749 ], [ -72.42622, -41.14725 ], [ -72.41951, -41.14611 ], [ -72.41774, -41.14558 ], [ -72.416, -41.14487 ], [ -72.41271, -41.14285 ], [ -72.41204, -41.14252 ], [ -72.41107, -41.14219 ], [ -72.40908, -41.14168 ], [ -72.40728, -41.14102 ], [ -72.40635, -41.14059 ] ] } },
{ "type": "Feature", "properties": { "objectid": 698, "volcan": "Osorno", "Shape__Length": 0.084657135277532949 }, "geometry": { "type": "LineString", "coordinates": [ [ -72.39432, -41.13567 ], [ -72.35149, -41.12259 ], [ -72.31182, -41.11862 ] ] } },
{ "type": "Feature", "properties": { "objectid": 699, "volcan": "Osorno", "Shape__Length": 0.083423245764540882 }, "geometry": { "type": "LineString", "coordinates": [ [ -72.30534, -41.11797 ], [ -72.28011, -41.11545 ], [ -72.22457, -41.09849 ] ] } },
{ "type": "Feature", "properties": { "objectid": 700, "volcan": "Osorno", "Shape__Length": 0.082254160987661321 }, "geometry": { "type": "LineString", "coordinates": [ [ -72.22004, -41.09665 ], [ -72.1879, -41.08273 ], [ -72.16768, -41.07262 ], [ -72.15221, -41.07143 ], [ -72.14322, -41.07285 ] ] } },
{ "type": "Feature", "properties": { "objectid": 701, "volcan": "Osorno", "Shape__Length": 0.067739726178994569 }, "geometry": { "type": "LineString", "coordinates": [ [ -72.13893, -41.07533 ], [ -72.13258, -41.08213 ], [ -72.12485, -41.09641 ], [ -72.11771, -41.10771 ], [ -72.10938, -41.11307 ], [ -72.09808, -41.11902 ], [ -72.09198, -41.11985 ] ] } },
{ "type": "Feature", "properties": { "objectid": 702, "volcan": "Osorno", "Shape__Length": 0.067996394867323132 }, "geometry": { "type": "LineString", "coordinates": [ [ -72.08722, -41.1205 ], [ -72.08499, -41.1208 ], [ -72.0725, -41.11723 ], [ -72.05882, -41.10771 ], [ -72.04097, -41.09701 ], [ -72.02612, -41.09346 ] ] } },
{ "type": "Feature", "properties": { "objectid": 717, "volcan": "Osorno", "Shape__Length": 0.062804840931176387 }, "geometry": { "type": "LineString", "coordinates": [ [ -72.53351, -40.95982 ], [ -72.54586, -40.96342 ], [ -72.55821, -40.97045 ], [ -72.55786, -40.97388 ], [ -72.56164, -40.97286 ], [ -72.56284, -40.97028 ], [ -72.56507, -40.97097 ], [ -72.56781, -40.97903 ], [ -72.56935, -40.97834 ], [ -72.56935, -40.97577 ], [ -72.57964, -40.97406 ] ] } },
{ "type": "Feature", "properties": { "objectid": 743, "volcan": "Puyehue-Caulle", "Shape__Length": 0.13049048815489378 }, "geometry": { "type": "LineString", "coordinates": [ [ -72.47141, -40.44648 ], [ -72.47159, -40.44661 ], [ -72.47239, -40.4467 ], [ -72.47279, -40.44659 ], [ -72.47307, -40.44665 ], [ -72.4733, -40.4466 ], [ -72.47337, -40.44646 ], [ -72.47392, -40.44615 ], [ -72.47422, -40.4461 ], [ -72.47452, -40.4463 ], [ -72.475, -40.44617 ], [ -72.47517, -40.446 ], [ -72.47608, -40.44553 ], [ -72.47629, -40.44499 ], [ -72.4762, -40.44458 ], [ -72.47637, -40.44442 ], [ -72.4766, -40.44439 ], [ -72.47693, -40.44456 ], [ -72.47768, -40.4445 ], [ -72.47833, -40.44385 ], [ -72.4788, -40.44353 ], [ -72.47905, -40.44347 ], [ -72.48124, -40.44343 ], [ -72.48421, -40.44281 ], [ -72.48545, -40.44231 ], [ -72.48645, -40.44139 ], [ -72.48696, -40.44123 ], [ -72.48755, -40.44116 ], [ -72.49113, -40.44143 ], [ -72.49151, -40.44139 ], [ -72.49261, -40.44104 ], [ -72.49375, -40.44099 ], [ -72.4952, -40.44115 ], [ -72.49622, -40.44115 ], [ -72.49679, -40.44139 ], [ -72.50141, -40.44189 ], [ -72.50212, -40.44207 ], [ -72.50364, -40.44301 ], [ -72.50434, -40.44334 ], [ -72.50726, -40.44435 ], [ -72.50829, -40.44463 ], [ -72.51082, -40.44515 ], [ -72.51183, -40.44519 ], [ -72.5129, -40.44509 ], [ -72.51328, -40.44489 ], [ -72.51379, -40.44438 ], [ -72.51445, -40.44331 ], [ -72.51468, -40.44307 ], [ -72.51621, -40.44231 ], [ -72.5172, -40.4415 ], [ -72.5183, -40.44101 ], [ -72.51911, -40.44074 ], [ -72.5221, -40.44057 ], [ -72.52424, -40.44033 ], [ -72.52523, -40.44011 ], [ -72.52827, -40.43819 ], [ -72.52868, -40.43788 ], [ -72.52932, -40.43705 ], [ -72.53074, -40.43621 ], [ -72.53089, -40.43586 ], [ -72.53097, -40.43529 ], [ -72.53121, -40.43496 ], [ -72.53453, -40.43304 ], [ -72.53604, -40.4326 ], [ -72.53856, -40.43265 ], [ -72.54151, -40.43283 ], [ -72.54571, -40.43227 ], [ -72.54806, -40.4301 ], [ -72.5491, -40.42949 ], [ -72.55019, -40.42926 ], [ -72.55277, -40.42936 ], [ -72.55447, -40.42974 ], [ -72.55518, -40.42982 ], [ -72.55593, -40.4297 ], [ -72.55823, -40.42909 ], [ -72.55992, -40.42886 ], [ -72.56149, -40.4287 ], [ -72.56342, -40.42875 ], [ -72.5641, -40.4289 ], [ -72.56964, -40.43083 ], [ -72.57567, -40.43146 ], [ -72.57952, -40.43213 ], [ -72.58628, -40.4319 ], [ -72.59094, -40.43161 ], [ -72.59176, -40.43143 ], [ -72.59234, -40.43116 ] ] } },
{ "type": "Feature", "properties": { "objectid": 744, "volcan": "Puyehue-Caulle", "Shape__Length": 0.17588949288021369 }, "geometry": { "type": "LineString", "coordinates": [ [ -72.40102, -40.56787 ], [ -72.40339, -40.56829 ], [ -72.40674, -40.56908 ], [ -72.40767, -40.5694 ], [ -72.40844, -40.56947 ], [ -72.41658, -40.56817 ], [ -72.41706, -40.56799 ], [ -72.41821, -40.56727 ], [ -72.41918, -40.56678 ], [ -72.42659, -40.56427 ], [ -72.43131, -40.5638 ], [ -72.4328, -40.56375 ], [ -72.43389, -40.56349 ], [ -72.43454, -40.56308 ], [ -72.43559, -40.5622 ], [ -72.43799, -40.55887 ], [ -72.43847, -40.55854 ], [ -72.43977, -40.55791 ], [ -72.44077, -40.55769 ], [ -72.44481, -40.55875 ], [ -72.45065, -40.561 ], [ -72.45212, -40.5617 ], [ -72.45613, -40.56202 ], [ -72.46362, -40.56123 ], [ -72.46859, -40.56092 ], [ -72.47608, -40.56058 ], [ -72.47828, -40.56061 ], [ -72.48024, -40.56044 ], [ -72.48121, -40.56047 ], [ -72.48299, -40.5607 ], [ -72.48898, -40.5621 ], [ -72.49586, -40.56555 ], [ -72.50288, -40.56835 ], [ -72.50412, -40.56869 ], [ -72.50442, -40.56887 ], [ -72.5047, -40.56933 ], [ -72.50496, -40.56942 ], [ -72.5062, -40.56943 ], [ -72.50894, -40.56889 ], [ -72.51312, -40.56836 ], [ -72.51863, -40.56808 ], [ -72.52506, -40.5679 ], [ -72.53224, -40.56758 ], [ -72.54232, -40.5673 ], [ -72.54342, -40.56741 ], [ -72.55436, -40.56948 ], [ -72.56139, -40.57111 ], [ -72.57007, -40.57075 ] ] } },
{ "type": "Feature", "properties": { "objectid": 745, "volcan": "Puyehue-Caulle", "Shape__Length": 0.098425387717948162 }, "geometry": { "type": "LineString", "coordinates": [ [ -72.40177, -40.60384 ], [ -72.40452, -40.60836 ], [ -72.4084, -40.60804 ], [ -72.41066, -40.60577 ], [ -72.41211, -40.60561 ], [ -72.41325, -40.60464 ], [ -72.4168, -40.60513 ], [ -72.42892, -40.60529 ], [ -72.43296, -40.60448 ], [ -72.43829, -40.60125 ], [ -72.44072, -40.60125 ], [ -72.44379, -40.60044 ], [ -72.44605, -40.60157 ], [ -72.45154, -40.6019 ], [ -72.45736, -40.60319 ], [ -72.45994, -40.60464 ], [ -72.46479, -40.604 ], [ -72.4656, -40.60319 ], [ -72.46899, -40.60513 ], [ -72.46964, -40.60464 ], [ -72.47029, -40.60513 ], [ -72.47045, -40.6061 ], [ -72.47255, -40.60755 ], [ -72.47739, -40.60933 ], [ -72.47885, -40.61062 ], [ -72.48208, -40.6124 ], [ -72.48402, -40.61579 ], [ -72.4858, -40.61741 ], [ -72.48564, -40.61967 ] ] } },
{ "type": "Feature", "properties": { "objectid": 746, "volcan": "Puyehue-Caulle", "Shape__Length": 0.13127445294059656 }, "geometry": { "type": "LineString", "coordinates": [ [ -72.44832, -40.38501 ], [ -72.45969, -40.38311 ], [ -72.46247, -40.38254 ], [ -72.46348, -40.38196 ], [ -72.46536, -40.38106 ], [ -72.46767, -40.3805 ], [ -72.46807, -40.3797 ], [ -72.46906, -40.37874 ], [ -72.47031, -40.37854 ], [ -72.47087, -40.3781 ], [ -72.4725, -40.37765 ], [ -72.47327, -40.37733 ], [ -72.47356, -40.3773 ], [ -72.47414, -40.3775 ], [ -72.47504, -40.37812 ], [ -72.47579, -40.3782 ], [ -72.47634, -40.37816 ], [ -72.47861, -40.37745 ], [ -72.48195, -40.37722 ], [ -72.48291, -40.37691 ], [ -72.48904, -40.37408 ], [ -72.49064, -40.3736 ], [ -72.49215, -40.3728 ], [ -72.49262, -40.37262 ], [ -72.49421, -40.37265 ], [ -72.49547, -40.37305 ], [ -72.49601, -40.37312 ], [ -72.49627, -40.37298 ], [ -72.4965, -40.37264 ], [ -72.49673, -40.37193 ], [ -72.49582, -40.36986 ], [ -72.49577, -40.36909 ], [ -72.49587, -40.36882 ], [ -72.49615, -40.36863 ], [ -72.49792, -40.36802 ], [ -72.49871, -40.36763 ], [ -72.50033, -40.36618 ], [ -72.50164, -40.36523 ], [ -72.50335, -40.36494 ], [ -72.50409, -40.36473 ], [ -72.50725, -40.36314 ], [ -72.50871, -40.36212 ], [ -72.5108, -40.36144 ], [ -72.51409, -40.36046 ], [ -72.52052, -40.35917 ], [ -72.52449, -40.35721 ], [ -72.52871, -40.35641 ], [ -72.53009, -40.35593 ], [ -72.53228, -40.35481 ], [ -72.53363, -40.354 ], [ -72.53685, -40.35147 ], [ -72.54002, -40.34963 ], [ -72.54023, -40.34931 ], [ -72.54035, -40.34884 ], [ -72.54036, -40.34558 ], [ -72.54041, -40.34533 ], [ -72.54068, -40.3449 ], [ -72.54231, -40.34442 ], [ -72.54601, -40.3431 ], [ -72.54694, -40.34256 ], [ -72.54772, -40.34196 ], [ -72.54785, -40.34172 ], [ -72.54804, -40.33983 ], [ -72.55042, -40.33656 ], [ -72.55066, -40.33609 ], [ -72.55128, -40.33455 ], [ -72.55134, -40.33421 ], [ -72.55128, -40.33339 ], [ -72.55138, -40.33311 ], [ -72.55178, -40.3328 ], [ -72.55317, -40.33222 ], [ -72.55473, -40.33086 ] ] } },
{ "type": "Feature", "properties": { "objectid": 747, "volcan": "Puyehue-Caulle", "Shape__Length": 0.097740886642216043 }, "geometry": { "type": "LineString", "coordinates": [ [ -72.48568, -40.62028 ], [ -72.48935, -40.62029 ], [ -72.50291, -40.62184 ], [ -72.50552, -40.6223 ], [ -72.50933, -40.62315 ], [ -72.51236, -40.62294 ], [ -72.5138, -40.62302 ], [ -72.54134, -40.62922 ], [ -72.54274, -40.62943 ], [ -72.54661, -40.62935 ], [ -72.55153, -40.62945 ], [ -72.55678, -40.62943 ], [ -72.55824, -40.62959 ], [ -72.56465, -40.63075 ], [ -72.56516, -40.63077 ], [ -72.57899, -40.62759 ], [ -72.57973, -40.62752 ], [ -72.5814, -40.62755 ], [ -72.5817, -40.62765 ], [ -72.58186, -40.62783 ] ] } },
{ "type": "Feature", "properties": { "objectid": 749, "volcan": "Puyehue-Caulle", "Shape__Length": 0.11838421195411589 }, "geometry": { "type": "LineString", "coordinates": [ [ -72.44522, -40.58377 ], [ -72.44545, -40.58371 ], [ -72.44792, -40.58393 ], [ -72.44996, -40.58394 ], [ -72.4512, -40.58404 ], [ -72.45241, -40.58393 ], [ -72.45429, -40.58347 ], [ -72.45637, -40.58335 ], [ -72.45832, -40.58343 ], [ -72.46285, -40.58404 ], [ -72.46432, -40.584 ], [ -72.46542, -40.58419 ], [ -72.46778, -40.5848 ], [ -72.46952, -40.58509 ], [ -72.47102, -40.58594 ], [ -72.47286, -40.58664 ], [ -72.47394, -40.58714 ], [ -72.47582, -40.58764 ], [ -72.4765, -40.58757 ], [ -72.48013, -40.58643 ], [ -72.48061, -40.58636 ], [ -72.4834, -40.58674 ], [ -72.48514, -40.58719 ], [ -72.4862, -40.58725 ], [ -72.4869, -40.5875 ], [ -72.489, -40.58739 ], [ -72.48971, -40.58775 ], [ -72.49036, -40.58793 ], [ -72.49285, -40.58835 ], [ -72.49366, -40.58894 ], [ -72.4947, -40.58943 ], [ -72.4966, -40.59058 ], [ -72.49692, -40.59085 ], [ -72.49887, -40.59554 ], [ -72.49924, -40.59595 ], [ -72.49994, -40.59627 ], [ -72.50075, -40.59644 ], [ -72.50333, -40.59631 ], [ -72.50476, -40.59652 ], [ -72.506, -40.59656 ], [ -72.5068, -40.59834 ], [ -72.50907, -40.59899 ], [ -72.51456, -40.60093 ], [ -72.51876, -40.60658 ], [ -72.5186, -40.60836 ], [ -72.52054, -40.61175 ], [ -72.53944, -40.62581 ], [ -72.54445, -40.62856 ] ] } },
{ "type": "Feature", "properties": { "objectid": 750, "volcan": "Puyehue-Caulle", "Shape__Length": 0.13024002678401184 }, "geometry": { "type": "LineString", "coordinates": [ [ -72.50046, -40.50789 ], [ -72.50593, -40.50707 ], [ -72.50976, -40.50556 ], [ -72.51127, -40.50584 ], [ -72.51332, -40.50679 ], [ -72.51428, -40.50693 ], [ -72.51523, -40.50611 ], [ -72.5166, -40.50625 ], [ -72.52071, -40.50721 ], [ -72.52208, -40.50543 ], [ -72.5255, -40.50392 ], [ -72.52659, -40.50392 ], [ -72.52933, -40.50173 ], [ -72.52974, -40.50064 ], [ -72.53548, -40.49626 ], [ -72.55368, -40.49421 ], [ -72.56039, -40.49133 ], [ -72.56271, -40.49188 ], [ -72.57338, -40.49229 ], [ -72.57776, -40.49298 ], [ -72.58679, -40.49147 ], [ -72.59117, -40.49202 ], [ -72.59582, -40.49325 ], [ -72.5976, -40.49311 ], [ -72.60212, -40.49147 ], [ -72.61033, -40.48928 ], [ -72.61594, -40.48696 ], [ -72.62292, -40.48463 ] ] } },
{ "type": "Feature", "properties": { "objectid": 754, "volcan": "Puyehue-Caulle", "Shape__Length": 0.038290952126843018 }, "geometry": { "type": "LineString", "coordinates": [ [ -72.12416, -40.34394 ], [ -72.12783, -40.34387 ], [ -72.1283, -40.34374 ], [ -72.12871, -40.34348 ], [ -72.12912, -40.34291 ], [ -72.13279, -40.34144 ], [ -72.1344, -40.34122 ], [ -72.13569, -40.34066 ], [ -72.13639, -40.34017 ], [ -72.13704, -40.33957 ], [ -72.13792, -40.33902 ], [ -72.13839, -40.33854 ], [ -72.13922, -40.33829 ], [ -72.14061, -40.33704 ], [ -72.14308, -40.33512 ], [ -72.14334, -40.33431 ], [ -72.14354, -40.33414 ], [ -72.14431, -40.33387 ], [ -72.14491, -40.33302 ], [ -72.14582, -40.33252 ], [ -72.14683, -40.33133 ], [ -72.14741, -40.32978 ], [ -72.14763, -40.32947 ], [ -72.14901, -40.32823 ], [ -72.1501, -40.32744 ], [ -72.15186, -40.32596 ], [ -72.15259, -40.32517 ], [ -72.15358, -40.32379 ], [ -72.15419, -40.32335 ] ] } },
{ "type": "Feature", "properties": { "objectid": 755, "volcan": "Puyehue-Caulle", "Shape__Length": 0.054874583624449316 }, "geometry": { "type": "LineString", "coordinates": [ [ -72.16396, -40.33433 ], [ -72.18106, -40.32768 ], [ -72.18218, -40.32595 ], [ -72.18372, -40.32402 ], [ -72.18537, -40.32378 ], [ -72.18834, -40.3238 ], [ -72.19091, -40.32401 ], [ -72.19329, -40.32335 ], [ -72.19738, -40.32256 ], [ -72.1984, -40.322 ], [ -72.20001, -40.32137 ], [ -72.20176, -40.32087 ], [ -72.20364, -40.32131 ], [ -72.2045, -40.32122 ], [ -72.20606, -40.3207 ], [ -72.207, -40.32028 ], [ -72.19927, -40.31834 ] ] } },
{ "type": "Feature", "properties": { "objectid": 756, "volcan": "Puyehue-Caulle", "Shape__Length": 0.16066375884969769 }, "geometry": { "type": "LineString", "coordinates": [ [ -72.25939, -40.33555 ], [ -72.2622, -40.33479 ], [ -72.2636, -40.33474 ], [ -72.26637, -40.3337 ], [ -72.26725, -40.33367 ], [ -72.26866, -40.33312 ], [ -72.26974, -40.33322 ], [ -72.27299, -40.33314 ], [ -72.27639, -40.33357 ], [ -72.27706, -40.33359 ], [ -72.27884, -40.33347 ], [ -72.28061, -40.33301 ], [ -72.28118, -40.33293 ], [ -72.28375, -40.33297 ], [ -72.28464, -40.33314 ], [ -72.28605, -40.33394 ], [ -72.28644, -40.33406 ], [ -72.28692, -40.33408 ], [ -72.28996, -40.33335 ], [ -72.29157, -40.33315 ], [ -72.29334, -40.33311 ], [ -72.2944, -40.3328 ], [ -72.29555, -40.33267 ], [ -72.29862, -40.3319 ], [ -72.30157, -40.33137 ], [ -72.30374, -40.33144 ], [ -72.3055, -40.33091 ], [ -72.30604, -40.3301 ], [ -72.30657, -40.33002 ], [ -72.30721, -40.33005 ], [ -72.30753, -40.33017 ], [ -72.30771, -40.33033 ], [ -72.30819, -40.33047 ], [ -72.30906, -40.33092 ], [ -72.31024, -40.33091 ], [ -72.31111, -40.33121 ], [ -72.31258, -40.33121 ], [ -72.31414, -40.33076 ], [ -72.3154, -40.33071 ], [ -72.31587, -40.33055 ], [ -72.32082, -40.32654 ], [ -72.32162, -40.32624 ], [ -72.32408, -40.32609 ], [ -72.32945, -40.3255 ], [ -72.33095, -40.32527 ], [ -72.33286, -40.32475 ], [ -72.33402, -40.32495 ], [ -72.33849, -40.32625 ], [ -72.33987, -40.32639 ], [ -72.3407, -40.3263 ], [ -72.34169, -40.32598 ], [ -72.34241, -40.32556 ], [ -72.34308, -40.32537 ], [ -72.34614, -40.32537 ], [ -72.34673, -40.32531 ], [ -72.35076, -40.323 ], [ -72.35118, -40.3228 ], [ -72.35161, -40.32272 ], [ -72.35483, -40.32309 ], [ -72.35724, -40.32282 ], [ -72.36243, -40.32288 ], [ -72.36726, -40.32202 ], [ -72.36826, -40.32196 ], [ -72.37851, -40.32344 ], [ -72.38119, -40.32317 ], [ -72.38281, -40.32338 ], [ -72.38669, -40.32339 ], [ -72.38707, -40.32349 ], [ -72.38963, -40.32508 ], [ -72.38999, -40.32517 ], [ -72.39408, -40.3248 ], [ -72.40829, -40.32755 ], [ -72.41043, -40.32712 ], [ -72.41426, -40.3262 ] ] } },
{ "type": "Feature", "properties": { "objectid": 760, "volcan": "Puyehue-Caulle", "Shape__Length": 0.0085133185737501192 }, "geometry": { "type": "LineString", "coordinates": [ [ -72.15585, -40.31474 ], [ -72.15665, -40.31655 ], [ -72.15702, -40.31849 ], [ -72.15659, -40.31964 ], [ -72.1557, -40.32118 ], [ -72.15571, -40.32153 ], [ -72.15641, -40.32252 ] ] } },
{ "type": "Feature", "properties": { "objectid": 762, "volcan": "Puyehue-Caulle", "Shape__Length": 0.03517488364091223 }, "geometry": { "type": "LineString", "coordinates": [ [ -72.22604, -40.33136 ], [ -72.22772, -40.33246 ], [ -72.22935, -40.33317 ], [ -72.23167, -40.33364 ], [ -72.23472, -40.33445 ], [ -72.2398, -40.33639 ], [ -72.2437, -40.33679 ], [ -72.24473, -40.33726 ], [ -72.24514, -40.33735 ], [ -72.24604, -40.33707 ], [ -72.24702, -40.33649 ], [ -72.24755, -40.3364 ], [ -72.24818, -40.33661 ], [ -72.24884, -40.3367 ], [ -72.24981, -40.33641 ], [ -72.25059, -40.33593 ], [ -72.25105, -40.33591 ], [ -72.25265, -40.3363 ], [ -72.25402, -40.33622 ], [ -72.2555, -40.33582 ], [ -72.25591, -40.33585 ], [ -72.2567, -40.33619 ], [ -72.25702, -40.3362 ], [ -72.25939, -40.33555 ] ] } },
{ "type": "Feature", "properties": { "objectid": 763, "volcan": "Puyehue-Caulle", "Shape__Length": 0.016522374392338394 }, "geometry": { "type": "LineString", "coordinates": [ [ -72.15419, -40.32335 ], [ -72.15524, -40.32291 ], [ -72.15643, -40.32259 ], [ -72.1568, -40.32302 ], [ -72.15703, -40.32369 ], [ -72.157, -40.32463 ], [ -72.15711, -40.32482 ], [ -72.16396, -40.33433 ] ] } },
{ "type": "Feature", "properties": { "objectid": 764, "volcan": "Puyehue-Caulle", "Shape__Length": 0.055314446404711996 }, "geometry": { "type": "LineString", "coordinates": [ [ -72.13722, -40.32393 ], [ -72.13759, -40.32362 ], [ -72.13897, -40.32126 ], [ -72.13965, -40.31954 ], [ -72.14005, -40.31908 ], [ -72.14083, -40.31848 ], [ -72.14653, -40.3148 ], [ -72.14804, -40.31396 ], [ -72.14983, -40.31346 ], [ -72.1509, -40.31303 ], [ -72.15395, -40.31228 ], [ -72.15499, -40.31185 ], [ -72.15582, -40.31132 ], [ -72.15745, -40.30995 ], [ -72.15854, -40.30839 ], [ -72.15901, -40.30758 ], [ -72.16027, -40.30636 ], [ -72.16072, -40.30606 ], [ -72.16194, -40.30561 ], [ -72.16254, -40.30523 ], [ -72.16362, -40.30439 ], [ -72.16539, -40.30258 ], [ -72.16591, -40.30199 ], [ -72.16636, -40.30111 ], [ -72.16669, -40.29882 ], [ -72.1673, -40.29748 ], [ -72.16788, -40.29583 ], [ -72.16807, -40.2936 ], [ -72.16843, -40.29248 ], [ -72.16912, -40.29111 ], [ -72.17, -40.29 ], [ -72.17036, -40.28925 ], [ -72.17073, -40.28757 ], [ -72.17131, -40.28605 ], [ -72.17169, -40.28537 ] ] } },
{ "type": "Feature", "properties": { "objectid": 765, "volcan": "Puyehue-Caulle", "Shape__Length": 0.027170652795125552 }, "geometry": { "type": "LineString", "coordinates": [ [ -72.10364, -40.35005 ], [ -72.10426, -40.34963 ], [ -72.10458, -40.34925 ], [ -72.10547, -40.34767 ], [ -72.10587, -40.34725 ], [ -72.10571, -40.34684 ], [ -72.10595, -40.34613 ], [ -72.10713, -40.34503 ], [ -72.10771, -40.34454 ], [ -72.10881, -40.34398 ], [ -72.11096, -40.34239 ], [ -72.11345, -40.34128 ], [ -72.11427, -40.34025 ], [ -72.11524, -40.3399 ], [ -72.11572, -40.33957 ], [ -72.11619, -40.33936 ], [ -72.1166, -40.33927 ], [ -72.11731, -40.33942 ], [ -72.11793, -40.33965 ], [ -72.11923, -40.34089 ], [ -72.12023, -40.34156 ], [ -72.12066, -40.34251 ], [ -72.12111, -40.3428 ], [ -72.12196, -40.34294 ], [ -72.12315, -40.34294 ], [ -72.12415, -40.34394 ] ] } },
{ "type": "Feature", "properties": { "objectid": 768, "volcan": "Puyehue-Caulle", "Shape__Length": 0.065152354797867282 }, "geometry": { "type": "LineString", "coordinates": [ [ -72.42104, -40.62337 ], [ -72.42174, -40.62344 ], [ -72.43049, -40.62342 ], [ -72.43822, -40.62312 ], [ -72.44299, -40.62203 ], [ -72.4534, -40.61946 ], [ -72.45422, -40.61934 ], [ -72.45548, -40.61936 ], [ -72.47085, -40.62041 ], [ -72.48568, -40.62028 ] ] } },
{ "type": "Feature", "properties": { "objectid": 769, "volcan": "Puyehue-Caulle", "Shape__Length": 0.019142388677737317 }, "geometry": { "type": "LineString", "coordinates": [ [ -71.98733, -40.36211 ], [ -71.98618, -40.3612 ], [ -71.98615, -40.36108 ], [ -71.98643, -40.36094 ], [ -71.98662, -40.36058 ], [ -71.98663, -40.36038 ], [ -71.98638, -40.35981 ], [ -71.98595, -40.3593 ], [ -71.98578, -40.35925 ], [ -71.98527, -40.35932 ], [ -71.98475, -40.35955 ], [ -71.98444, -40.35956 ], [ -71.98425, -40.35943 ], [ -71.98441, -40.35895 ], [ -71.98469, -40.3587 ], [ -71.98566, -40.35831 ], [ -71.986, -40.35798 ], [ -71.98611, -40.35771 ], [ -71.98596, -40.35733 ], [ -71.9855, -40.35688 ], [ -71.98382, -40.35639 ], [ -71.98316, -40.35632 ], [ -71.98266, -40.35636 ], [ -71.98241, -40.35645 ], [ -71.98172, -40.3571 ], [ -71.9804, -40.35753 ], [ -71.98007, -40.35773 ], [ -71.98028, -40.35699 ], [ -71.97971, -40.35666 ], [ -71.98084, -40.356 ], [ -71.98089, -40.35542 ], [ -71.98102, -40.355 ] ] } },
{ "type": "Feature", "properties": { "objectid": 770, "volcan": "Puyehue-Caulle", "Shape__Length": 0.021781657137232714 }, "geometry": { "type": "LineString", "coordinates": [ [ -71.99746, -40.37651 ], [ -71.99737, -40.37652 ], [ -71.9964, -40.37558 ], [ -71.99547, -40.37496 ], [ -71.99519, -40.3745 ], [ -71.99476, -40.37403 ], [ -71.99487, -40.37349 ], [ -71.99449, -40.37273 ], [ -71.99421, -40.37055 ], [ -71.9942, -40.37027 ], [ -71.99436, -40.37007 ], [ -71.99435, -40.36996 ], [ -71.99403, -40.3696 ], [ -71.99411, -40.36886 ], [ -71.99397, -40.36826 ], [ -71.99381, -40.36817 ], [ -71.99354, -40.36824 ], [ -71.99327, -40.36906 ], [ -71.99308, -40.36921 ], [ -71.99303, -40.36934 ], [ -71.99275, -40.36945 ], [ -71.99206, -40.36942 ], [ -71.9915, -40.36922 ], [ -71.99072, -40.36856 ], [ -71.99013, -40.36788 ], [ -71.98991, -40.36739 ], [ -71.98993, -40.36681 ], [ -71.98983, -40.36591 ], [ -71.98925, -40.36438 ], [ -71.9885, -40.3631 ], [ -71.98733, -40.36211 ] ] } },
{ "type": "Feature", "properties": { "objectid": 771, "volcan": "Puyehue-Caulle", "Shape__Length": 0.01621098360384024 }, "geometry": { "type": "MultiLineString", "coordinates": [ [ [ -71.98102, -40.355 ], [ -71.98108, -40.35482 ], [ -71.98147, -40.35442 ], [ -71.98167, -40.35383 ], [ -71.98131, -40.35349 ], [ -71.98121, -40.35413 ], [ -71.98075, -40.35436 ], [ -71.9796, -40.35465 ], [ -71.97866, -40.35532 ], [ -71.97811, -40.35542 ], [ -71.97779, -40.35559 ], [ -71.97769, -40.35618 ], [ -71.97735, -40.3564 ], [ -71.97647, -40.3567 ], [ -71.97631, -40.35661 ], [ -71.97671, -40.35593 ], [ -71.97717, -40.35577 ], [ -71.9774, -40.35484 ], [ -71.97789, -40.35454 ], [ -71.97798, -40.35409 ], [ -71.97758, -40.35342 ], [ -71.97723, -40.35315 ], [ -71.97681, -40.35305 ], [ -71.97649, -40.35309 ] ], [ [ -71.97648, -40.35312 ], [ -71.97621, -40.35318 ], [ -71.97589, -40.35341 ], [ -71.97518, -40.35337 ], [ -71.97411, -40.35289 ] ] ] } }
]
}
