{
"type": "FeatureCollection",
"name": "ANT",
"crs": { "type": "name", "properties": { "name": "urn:ogc:def:crs:OGC:1.3:CRS84" } },
"xy_coordinate_resolution": 1e-05,
"features": [
{ "type": "Feature", "properties": { "objectid": 718, "volcan": "Antuco", "Shape__Length": 0.012519270162400073 }, "geometry": { "type": "LineString", "coordinates": [ [ -71.48725, -37.36856 ], [ -71.48752, -37.36859 ], [ -71.48877, -37.3692 ], [ -71.49399, -37.37196 ], [ -71.49431, -37.37217 ], [ -71.49439, -37.37232 ], [ -71.49437, -37.37252 ], [ -71.49652, -37.37173 ], [ -71.49786, -37.37099 ], [ -71.49809, -37.3713 ] ] } },
{ "type": "Feature", "properties": { "objectid": 719, "volcan": "Antuco", "Shape__Length": 0.011949624909175035 }, "geometry": { "type": "LineString", "coordinates": [ [ -71.46822, -37.38845 ], [ -71.46883, -37.38763 ], [ -71.46937, -37.38727 ], [ -71.46973, -37.38717 ], [ -71.47068, -37.38712 ], [ -71.47197, -37.38714 ], [ -71.47275, -37.38677 ], [ -71.47372, -37.38601 ], [ -71.47498, -37.38487 ], [ -71.47511, -37.38561 ], [ -71.47536, -37.38609 ], [ -71.47565, -37.38641 ], [ -71.47569, -37.38666 ], [ -71.47561, -37.38689 ], [ -71.47525, -37.38697 ], [ -71.47414, -37.38761 ] ] } },
{ "type": "Feature", "properties": { "objectid": 720, "volcan": "Antuco", "Shape__Length": 0.0054291285850217091 }, "geometry": { "type": "LineString", "coordinates": [ [ -71.40554, -37.39292 ], [ -71.40629, -37.39307 ], [ -71.40815, -37.39224 ], [ -71.40938, -37.39227 ], [ -71.40966, -37.39323 ], [ -71.40931, -37.39336 ] ] } },
{ "type": "Feature", "properties": { "objectid": 721, "volcan": "Antuco", "Shape__Length": 0.006179287160304049 }, "geometry": { "type": "LineString", "coordinates": [ [ -71.41517, -37.39425 ], [ -71.41397, -37.39419 ], [ -71.41211, -37.39431 ], [ -71.41133, -37.39446 ], [ -71.41083, -37.39426 ], [ -71.41013, -37.39422 ], [ -71.40966, -37.39325 ] ] } },
{ "type": "Feature", "properties": { "objectid": 722, "volcan": "Antuco", "Shape__Length": 0.006710033421463959 }, "geometry": { "type": "LineString", "coordinates": [ [ -71.53503, -37.35395 ], [ -71.53555, -37.35767 ], [ -71.53436, -37.358 ], [ -71.53482, -37.35909 ], [ -71.53484, -37.35936 ], [ -71.53474, -37.35962 ] ] } },
{ "type": "Feature", "properties": { "objectid": 730, "volcan": "Callaqui", "Shape__Length": 0.07628449103718779 }, "geometry": { "type": "LineString", "coordinates": [ [ -71.55997, -37.81965 ], [ -71.56032, -37.81961 ], [ -71.56251, -37.81999 ], [ -71.56328, -37.8204 ], [ -71.56367, -37.82073 ], [ -71.56395, -37.82115 ], [ -71.56463, -37.82262 ], [ -71.56535, -37.8235 ], [ -71.56542, -37.82398 ], [ -71.56472, -37.82663 ], [ -71.5644, -37.82746 ], [ -71.56434, -37.82783 ], [ -71.56437, -37.82821 ], [ -71.56458, -37.82888 ], [ -71.56628, -37.83078 ], [ -71.57209, -37.83181 ], [ -71.57226, -37.832 ], [ -71.57216, -37.83253 ], [ -71.57312, -37.83308 ], [ -71.57518, -37.83462 ], [ -71.57577, -37.83534 ], [ -71.57606, -37.83558 ], [ -71.57752, -37.83601 ], [ -71.57802, -37.83608 ], [ -71.57962, -37.8367 ], [ -71.58, -37.8369 ], [ -71.58056, -37.83769 ], [ -71.58169, -37.83764 ], [ -71.58606, -37.83871 ], [ -71.58638, -37.83885 ], [ -71.58783, -37.84044 ], [ -71.59126, -37.84082 ], [ -71.59148, -37.84118 ], [ -71.59146, -37.84153 ], [ -71.59042, -37.8432 ], [ -71.58981, -37.84382 ], [ -71.58987, -37.84553 ], [ -71.59001, -37.8458 ], [ -71.59009, -37.84686 ], [ -71.59001, -37.84724 ], [ -71.59066, -37.84784 ], [ -71.59068, -37.84878 ], [ -71.59149, -37.85019 ], [ -71.59201, -37.8503 ], [ -71.5925, -37.85065 ], [ -71.59308, -37.85157 ], [ -71.59343, -37.8524 ], [ -71.5942, -37.85311 ], [ -71.59494, -37.85329 ], [ -71.59552, -37.85392 ], [ -71.59553, -37.85403 ], [ -71.59482, -37.85444 ], [ -71.59459, -37.85465 ], [ -71.59601, -37.85572 ], [ -71.59614, -37.85596 ], [ -71.59584, -37.85649 ], [ -71.59795, -37.85759 ], [ -71.60198, -37.85895 ], [ -71.60545, -37.86131 ], [ -71.60651, -37.86231 ] ] } }
]
}
