{
"type": "FeatureCollection",
"name": "CAL",
"crs": { "type": "name", "properties": { "name": "urn:ogc:def:crs:OGC:1.3:CRS84" } },
"xy_coordinate_resolution": 1e-05,
"features": [
{ "type": "Feature", "properties": { "objectid": 723, "volcan": "Callaqui", "Shape__Length": 0.062839273741060672 }, "geometry": { "type": "LineString", "coordinates": [ [ -71.66679, -37.85945 ], [ -71.66891, -37.85676 ], [ -71.66961, -37.85575 ], [ -71.67021, -37.85464 ], [ -71.67195, -37.8529 ], [ -71.6753, -37.8501 ], [ -71.67974, -37.84543 ], [ -71.68285, -37.84179 ], [ -71.68274, -37.84119 ], [ -71.68089, -37.83695 ], [ -71.68104, -37.83694 ], [ -71.6775, -37.83009 ], [ -71.67732, -37.82981 ], [ -71.67614, -37.8286 ], [ -71.67617, -37.82832 ], [ -71.6769, -37.82715 ], [ -71.67836, -37.82357 ], [ -71.67824, -37.82269 ], [ -71.67488, -37.8194 ], [ -71.67223, -37.81615 ], [ -71.6733, -37.81445 ], [ -71.67374, -37.81315 ], [ -71.67377, -37.81266 ], [ -71.67394, -37.81243 ], [ -71.67447, -37.81097 ], [ -71.67447, -37.8107 ], [ -71.67584, -37.80873 ] ] } },
{ "type": "Feature", "properties": { "objectid": 724, "volcan": "Callaqui", "Shape__Length": 0.05165692424830029 }, "geometry": { "type": "LineString", "coordinates": [ [ -71.59655, -37.89905 ], [ -71.59891, -37.89804 ], [ -71.6016, -37.89758 ], [ -71.60564, -37.89628 ], [ -71.60644, -37.89624 ], [ -71.60796, -37.89635 ], [ -71.60857, -37.89625 ], [ -71.61117, -37.89553 ], [ -71.61172, -37.89553 ], [ -71.61263, -37.89532 ], [ -71.61454, -37.89541 ], [ -71.61528, -37.89552 ], [ -71.61593, -37.8958 ], [ -71.61805, -37.89621 ], [ -71.62195, -37.89642 ], [ -71.62463, -37.89625 ], [ -71.62897, -37.89395 ], [ -71.63028, -37.89351 ], [ -71.63167, -37.89169 ], [ -71.63208, -37.89093 ], [ -71.63246, -37.89051 ], [ -71.63281, -37.89039 ], [ -71.63371, -37.89033 ], [ -71.63566, -37.88962 ], [ -71.63688, -37.88883 ], [ -71.63712, -37.88832 ], [ -71.63743, -37.88814 ], [ -71.63852, -37.88698 ], [ -71.63872, -37.88572 ], [ -71.63904, -37.88524 ], [ -71.63879, -37.88447 ], [ -71.63875, -37.88362 ], [ -71.63943, -37.88176 ] ] } },
{ "type": "Feature", "properties": { "objectid": 725, "volcan": "Callaqui", "Shape__Length": 0.069953911526210541 }, "geometry": { "type": "LineString", "coordinates": [ [ -71.53685, -37.9857 ], [ -71.53751, -37.98535 ], [ -71.53807, -37.98527 ], [ -71.5416, -37.98545 ], [ -71.54235, -37.98539 ], [ -71.54387, -37.98491 ], [ -71.54483, -37.98478 ], [ -71.54564, -37.9842 ], [ -71.54624, -37.98162 ], [ -71.54633, -37.98146 ], [ -71.54652, -37.98137 ], [ -71.54677, -37.98139 ], [ -71.54692, -37.98155 ], [ -71.54751, -37.98297 ], [ -71.54796, -37.98314 ], [ -71.54843, -37.98304 ], [ -71.54877, -37.98257 ], [ -71.54902, -37.98138 ], [ -71.54944, -37.98104 ], [ -71.54954, -37.98085 ], [ -71.5502, -37.97568 ], [ -71.55033, -37.97542 ], [ -71.55079, -37.97512 ], [ -71.55247, -37.97367 ], [ -71.55381, -37.97328 ], [ -71.55409, -37.97293 ], [ -71.55447, -37.97272 ], [ -71.55561, -37.97242 ], [ -71.55668, -37.97228 ], [ -71.55722, -37.97193 ], [ -71.55785, -37.97119 ], [ -71.55907, -37.97065 ], [ -71.55932, -37.97007 ], [ -71.56026, -37.96908 ], [ -71.56084, -37.9689 ], [ -71.56163, -37.9681 ], [ -71.56252, -37.96756 ], [ -71.56382, -37.96731 ], [ -71.56429, -37.96691 ], [ -71.56436, -37.96679 ], [ -71.56367, -37.96465 ], [ -71.5633, -37.96417 ], [ -71.56304, -37.96277 ], [ -71.5632, -37.96176 ], [ -71.56357, -37.96131 ], [ -71.56383, -37.96016 ], [ -71.56436, -37.95932 ], [ -71.56431, -37.95913 ], [ -71.56395, -37.95879 ], [ -71.56422, -37.95784 ], [ -71.56502, -37.9571 ], [ -71.56517, -37.9567 ], [ -71.56507, -37.95648 ], [ -71.56488, -37.95635 ], [ -71.56424, -37.95627 ], [ -71.56343, -37.95589 ], [ -71.56359, -37.95565 ], [ -71.56412, -37.95526 ], [ -71.5653, -37.95462 ], [ -71.56633, -37.95333 ], [ -71.5668, -37.95236 ], [ -71.56834, -37.94217 ], [ -71.56822, -37.94175 ], [ -71.56801, -37.94141 ] ] } },
{ "type": "Feature", "properties": { "objectid": 726, "volcan": "Callaqui", "Shape__Length": 0.11628050833583906 }, "geometry": { "type": "LineString", "coordinates": [ [ -71.40302, -38.08802 ], [ -71.40691, -38.08739 ], [ -71.40749, -38.08707 ], [ -71.40791, -38.08664 ], [ -71.40868, -38.08488 ], [ -71.40876, -38.08437 ], [ -71.40867, -38.08385 ], [ -71.40774, -38.08253 ], [ -71.40737, -38.08235 ], [ -71.40619, -38.08206 ], [ -71.40599, -38.08185 ], [ -71.40564, -38.08114 ], [ -71.40567, -38.08098 ], [ -71.4058, -38.08083 ], [ -71.40648, -38.08064 ], [ -71.40674, -38.08044 ], [ -71.40681, -38.08021 ], [ -71.40682, -38.07972 ], [ -71.40696, -38.07948 ], [ -71.40817, -38.07915 ], [ -71.40971, -38.07915 ], [ -71.41093, -38.07859 ], [ -71.41215, -38.07845 ], [ -71.41357, -38.07806 ], [ -71.41477, -38.07792 ], [ -71.41704, -38.07719 ], [ -71.41986, -38.0751 ], [ -71.42022, -38.07455 ], [ -71.42032, -38.07423 ], [ -71.42024, -38.07381 ], [ -71.41952, -38.0732 ], [ -71.41939, -38.07296 ], [ -71.41947, -38.07252 ], [ -71.41975, -38.07211 ], [ -71.42049, -38.07187 ], [ -71.42167, -38.07176 ], [ -71.42182, -38.07163 ], [ -71.42194, -38.07113 ], [ -71.42224, -38.07092 ], [ -71.42252, -38.07088 ], [ -71.42297, -38.07103 ], [ -71.42375, -38.07197 ], [ -71.42396, -38.07209 ], [ -71.42413, -38.07209 ], [ -71.42432, -38.07196 ], [ -71.42437, -38.07145 ], [ -71.42471, -38.07095 ], [ -71.42588, -38.07026 ], [ -71.42643, -38.06959 ], [ -71.4264, -38.06938 ], [ -71.42576, -38.0681 ], [ -71.42598, -38.06778 ], [ -71.42675, -38.06724 ], [ -71.42672, -38.06698 ], [ -71.42559, -38.0666 ], [ -71.42531, -38.06642 ], [ -71.42511, -38.06601 ], [ -71.42529, -38.06534 ], [ -71.42526, -38.06514 ], [ -71.42449, -38.06487 ], [ -71.42439, -38.06467 ], [ -71.42435, -38.06421 ], [ -71.42417, -38.06384 ], [ -71.42331, -38.06314 ], [ -71.42259, -38.06278 ], [ -71.42237, -38.0625 ], [ -71.42249, -38.06226 ], [ -71.42262, -38.06221 ], [ -71.4242, -38.06222 ], [ -71.42448, -38.06212 ], [ -71.4251, -38.06213 ], [ -71.42533, -38.06204 ], [ -71.42541, -38.06174 ], [ -71.42464, -38.06018 ], [ -71.42446, -38.05998 ], [ -71.42374, -38.05962 ], [ -71.42362, -38.05942 ], [ -71.42358, -38.05905 ], [ -71.42347, -38.05893 ], [ -71.42273, -38.05878 ], [ -71.42252, -38.05861 ], [ -71.42229, -38.05782 ], [ -71.42184, -38.05738 ], [ -71.4216, -38.05664 ], [ -71.42132, -38.05627 ], [ -71.42137, -38.0556 ], [ -71.42086, -38.05497 ], [ -71.42063, -38.05481 ], [ -71.42017, -38.05466 ], [ -71.41953, -38.05376 ], [ -71.41897, -38.05334 ], [ -71.41789, -38.05288 ], [ -71.41737, -38.05252 ], [ -71.41758, -38.05208 ], [ -71.41887, -38.05201 ], [ -71.4194, -38.05178 ], [ -71.41974, -38.05176 ], [ -71.42031, -38.05197 ], [ -71.42078, -38.05201 ], [ -71.4216, -38.05228 ], [ -71.42249, -38.05285 ], [ -71.42275, -38.05273 ], [ -71.42288, -38.05222 ], [ -71.4231, -38.05207 ], [ -71.42327, -38.05208 ], [ -71.42337, -38.05218 ], [ -71.42346, -38.05264 ], [ -71.42396, -38.05374 ], [ -71.42458, -38.05388 ], [ -71.42488, -38.05429 ], [ -71.42511, -38.05442 ], [ -71.42578, -38.05433 ], [ -71.42596, -38.05439 ], [ -71.42621, -38.05502 ], [ -71.42661, -38.05532 ], [ -71.427, -38.05579 ], [ -71.42748, -38.05602 ], [ -71.42792, -38.05605 ], [ -71.42817, -38.05593 ], [ -71.4283, -38.0557 ], [ -71.42841, -38.05519 ], [ -71.42857, -38.05494 ], [ -71.429, -38.05455 ], [ -71.42939, -38.05459 ], [ -71.42951, -38.05486 ], [ -71.42937, -38.05543 ], [ -71.42983, -38.05637 ], [ -71.42982, -38.0572 ], [ -71.43043, -38.05748 ], [ -71.43088, -38.05799 ], [ -71.43139, -38.05808 ], [ -71.43161, -38.05819 ], [ -71.43166, -38.05837 ], [ -71.43153, -38.05876 ], [ -71.43153, -38.059 ], [ -71.43205, -38.05986 ], [ -71.43239, -38.06014 ], [ -71.43293, -38.06038 ], [ -71.43396, -38.06134 ], [ -71.43424, -38.06143 ], [ -71.43441, -38.06132 ], [ -71.43444, -38.06119 ], [ -71.4341, -38.0598 ], [ -71.43425, -38.05959 ], [ -71.43477, -38.0592 ], [ -71.43499, -38.0586 ], [ -71.43486, -38.05832 ], [ -71.43435, -38.05806 ], [ -71.43426, -38.05779 ], [ -71.43473, -38.05724 ], [ -71.43471, -38.05653 ], [ -71.43533, -38.05604 ], [ -71.43583, -38.05594 ], [ -71.43592, -38.05574 ], [ -71.43587, -38.05538 ], [ -71.43599, -38.05517 ], [ -71.43638, -38.05509 ], [ -71.43738, -38.05526 ], [ -71.43816, -38.0551 ], [ -71.43871, -38.0552 ], [ -71.43951, -38.05486 ], [ -71.43982, -38.05463 ], [ -71.44048, -38.05467 ], [ -71.44086, -38.05458 ], [ -71.44122, -38.05431 ], [ -71.44132, -38.05395 ], [ -71.44155, -38.05382 ], [ -71.44376, -38.05364 ], [ -71.44427, -38.05339 ], [ -71.44453, -38.05314 ], [ -71.4452, -38.05226 ], [ -71.44565, -38.05133 ], [ -71.44602, -38.05111 ], [ -71.44679, -38.0509 ], [ -71.4473, -38.0502 ] ] } },
{ "type": "Feature", "properties": { "objectid": 727, "volcan": "Callaqui", "Shape__Length": 0.055297057177413088 }, "geometry": { "type": "LineString", "coordinates": [ [ -71.47084, -38.03759 ], [ -71.47172, -38.03724 ], [ -71.47208, -38.03699 ], [ -71.47371, -38.03532 ], [ -71.47391, -38.03493 ], [ -71.47381, -38.03435 ], [ -71.47382, -38.0337 ], [ -71.4737, -38.03354 ], [ -71.47091, -38.03244 ], [ -71.47022, -38.03194 ], [ -71.46888, -38.03151 ], [ -71.46849, -38.0312 ], [ -71.46835, -38.03085 ], [ -71.46825, -38.02941 ], [ -71.46787, -38.02869 ], [ -71.46801, -38.02812 ], [ -71.46799, -38.02784 ], [ -71.4676, -38.02726 ], [ -71.46745, -38.02654 ], [ -71.46703, -38.02598 ], [ -71.46706, -38.0253 ], [ -71.46631, -38.02402 ], [ -71.46631, -38.02391 ], [ -71.46639, -38.02372 ], [ -71.46662, -38.02353 ], [ -71.46754, -38.02329 ], [ -71.47002, -38.0212 ], [ -71.47131, -38.01962 ], [ -71.47136, -38.019 ], [ -71.47083, -38.01672 ], [ -71.47059, -38.01634 ], [ -71.46973, -38.0156 ], [ -71.46971, -38.01538 ], [ -71.46978, -38.01521 ], [ -71.47012, -38.01502 ], [ -71.47095, -38.01493 ], [ -71.4722, -38.01401 ], [ -71.47255, -38.01362 ], [ -71.4748, -38.01278 ], [ -71.47502, -38.01262 ], [ -71.47513, -38.01239 ], [ -71.47506, -38.01209 ], [ -71.47484, -38.0119 ], [ -71.47396, -38.01175 ], [ -71.47104, -38.01036 ], [ -71.4707, -38.01007 ], [ -71.47033, -38.0089 ], [ -71.47111, -38.00767 ], [ -71.47119, -38.00735 ], [ -71.4711, -38.00703 ], [ -71.47036, -38.00599 ], [ -71.47039, -38.00566 ], [ -71.47063, -38.00515 ], [ -71.47108, -38.00463 ], [ -71.4714, -38.00449 ], [ -71.47175, -38.00447 ], [ -71.47224, -38.00463 ], [ -71.47273, -38.00522 ], [ -71.47301, -38.00535 ], [ -71.47726, -38.00556 ] ] } },
{ "type": "Feature", "properties": { "objectid": 728, "volcan": "Callaqui", "Shape__Length": 0.071326566293768004 }, "geometry": { "type": "LineString", "coordinates": [ [ -71.47726, -38.00556 ], [ -71.47831, -38.00538 ], [ -71.4812, -38.00376 ], [ -71.48146, -38.00341 ], [ -71.48213, -38.0021 ], [ -71.48269, -38.00155 ], [ -71.48304, -38.0015 ], [ -71.4845, -38.0016 ], [ -71.48757, -38.00082 ], [ -71.48871, -38.00073 ], [ -71.48963, -38.00084 ], [ -71.49017, -38.00116 ], [ -71.4911, -38.00151 ], [ -71.49201, -38.0021 ], [ -71.49284, -38.00232 ], [ -71.49487, -38.00389 ], [ -71.49723, -38.00634 ], [ -71.49753, -38.00646 ], [ -71.49791, -38.00644 ], [ -71.49873, -38.00602 ], [ -71.50035, -38.00465 ], [ -71.50087, -38.00432 ], [ -71.50133, -38.00386 ], [ -71.50433, -38.00244 ], [ -71.50771, -38.00179 ], [ -71.50921, -38.00196 ], [ -71.51013, -38.00174 ], [ -71.51066, -38.00149 ], [ -71.51181, -38.00124 ], [ -71.51231, -38.0007 ], [ -71.51256, -38.00029 ], [ -71.51291, -37.99769 ], [ -71.51371, -37.99621 ], [ -71.51384, -37.99612 ], [ -71.51775, -37.99489 ], [ -71.52152, -37.99221 ], [ -71.52226, -37.99203 ], [ -71.52422, -37.99119 ], [ -71.52463, -37.99108 ], [ -71.52791, -37.9907 ], [ -71.52879, -37.99046 ], [ -71.52971, -37.9895 ], [ -71.53072, -37.98868 ], [ -71.5319, -37.9885 ], [ -71.53357, -37.98782 ], [ -71.53434, -37.98762 ], [ -71.53504, -37.98704 ], [ -71.53534, -37.9865 ], [ -71.53685, -37.9857 ] ] } },
{ "type": "Feature", "properties": { "objectid": 729, "volcan": "Callaqui", "Shape__Length": 0.074138276371768147 }, "geometry": { "type": "LineString", "coordinates": [ [ -71.57693, -37.92466 ], [ -71.57907, -37.92381 ], [ -71.57939, -37.92377 ], [ -71.59228, -37.92427 ], [ -71.5929, -37.9241 ], [ -71.59477, -37.92304 ], [ -71.59505, -37.9227 ], [ -71.59597, -37.92025 ], [ -71.59533, -37.91694 ], [ -71.59523, -37.91675 ], [ -71.59487, -37.91645 ], [ -71.59483, -37.91627 ], [ -71.59516, -37.91602 ], [ -71.5952, -37.9156 ], [ -71.59531, -37.91547 ], [ -71.59605, -37.91539 ], [ -71.59627, -37.91527 ], [ -71.59674, -37.91431 ], [ -71.59723, -37.914 ], [ -71.59746, -37.91304 ], [ -71.59724, -37.91265 ], [ -71.59724, -37.9125 ], [ -71.59736, -37.91232 ], [ -71.59759, -37.91221 ], [ -71.5981, -37.9122 ], [ -71.59973, -37.91174 ], [ -71.59986, -37.91157 ], [ -71.59997, -37.91113 ], [ -71.60024, -37.91101 ], [ -71.60124, -37.9113 ], [ -71.60196, -37.91115 ], [ -71.60279, -37.91156 ], [ -71.60302, -37.9115 ], [ -71.60344, -37.91123 ], [ -71.60367, -37.91122 ], [ -71.60387, -37.91138 ], [ -71.60461, -37.91252 ], [ -71.605, -37.91275 ], [ -71.60591, -37.91243 ], [ -71.60664, -37.91142 ], [ -71.60705, -37.9114 ], [ -71.60731, -37.91128 ], [ -71.60854, -37.91032 ], [ -71.61079, -37.90824 ], [ -71.6131, -37.90654 ], [ -71.61412, -37.9052 ], [ -71.61424, -37.9049 ], [ -71.61427, -37.90448 ], [ -71.6139, -37.9036 ], [ -71.61441, -37.90325 ], [ -71.6149, -37.90236 ], [ -71.6155, -37.9019 ], [ -71.61576, -37.9009 ], [ -71.61569, -37.90072 ], [ -71.61556, -37.90052 ], [ -71.61211, -37.89981 ], [ -71.6112, -37.89978 ], [ -71.61066, -37.89962 ], [ -71.61037, -37.89926 ], [ -71.61016, -37.89744 ], [ -71.6108, -37.89703 ], [ -71.61402, -37.89624 ], [ -71.61471, -37.89634 ], [ -71.61742, -37.89737 ], [ -71.61789, -37.89725 ], [ -71.61789, -37.89667 ] ] } },
{ "type": "Feature", "properties": { "objectid": 730, "volcan": "Callaqui", "Shape__Length": 0.07628449103718779 }, "geometry": { "type": "LineString", "coordinates": [ [ -71.55997, -37.81965 ], [ -71.56032, -37.81961 ], [ -71.56251, -37.81999 ], [ -71.56328, -37.8204 ], [ -71.56367, -37.82073 ], [ -71.56395, -37.82115 ], [ -71.56463, -37.82262 ], [ -71.56535, -37.8235 ], [ -71.56542, -37.82398 ], [ -71.56472, -37.82663 ], [ -71.5644, -37.82746 ], [ -71.56434, -37.82783 ], [ -71.56437, -37.82821 ], [ -71.56458, -37.82888 ], [ -71.56628, -37.83078 ], [ -71.57209, -37.83181 ], [ -71.57226, -37.832 ], [ -71.57216, -37.83253 ], [ -71.57312, -37.83308 ], [ -71.57518, -37.83462 ], [ -71.57577, -37.83534 ], [ -71.57606, -37.83558 ], [ -71.57752, -37.83601 ], [ -71.57802, -37.83608 ], [ -71.57962, -37.8367 ], [ -71.58, -37.8369 ], [ -71.58056, -37.83769 ], [ -71.58169, -37.83764 ], [ -71.58606, -37.83871 ], [ -71.58638, -37.83885 ], [ -71.58783, -37.84044 ], [ -71.59126, -37.84082 ], [ -71.59148, -37.84118 ], [ -71.59146, -37.84153 ], [ -71.59042, -37.8432 ], [ -71.58981, -37.84382 ], [ -71.58987, -37.84553 ], [ -71.59001, -37.8458 ], [ -71.59009, -37.84686 ], [ -71.59001, -37.84724 ], [ -71.59066, -37.84784 ], [ -71.59068, -37.84878 ], [ -71.59149, -37.85019 ], [ -71.59201, -37.8503 ], [ -71.5925, -37.85065 ], [ -71.59308, -37.85157 ], [ -71.59343, -37.8524 ], [ -71.5942, -37.85311 ], [ -71.59494, -37.85329 ], [ -71.59552, -37.85392 ], [ -71.59553, -37.85403 ], [ -71.59482, -37.85444 ], [ -71.59459, -37.85465 ], [ -71.59601, -37.85572 ], [ -71.59614, -37.85596 ], [ -71.59584, -37.85649 ], [ -71.59795, -37.85759 ], [ -71.60198, -37.85895 ], [ -71.60545, -37.86131 ], [ -71.60651, -37.86231 ] ] } },
{ "type": "Feature", "properties": { "objectid": 731, "volcan": "Callaqui", "Shape__Length": 0.048100989819201904 }, "geometry": { "type": "LineString", "coordinates": [ [ -71.60651, -37.86231 ], [ -71.60684, -37.86292 ], [ -71.60759, -37.8639 ], [ -71.60793, -37.86412 ], [ -71.60816, -37.86441 ], [ -71.60836, -37.86485 ], [ -71.60991, -37.86667 ], [ -71.61063, -37.86733 ], [ -71.61112, -37.86791 ], [ -71.61078, -37.86929 ], [ -71.60919, -37.87031 ], [ -71.60931, -37.87086 ], [ -71.60967, -37.87089 ], [ -71.61218, -37.86998 ], [ -71.61248, -37.87004 ], [ -71.61289, -37.87043 ], [ -71.61376, -37.87211 ], [ -71.61485, -37.8726 ], [ -71.61551, -37.87368 ], [ -71.61833, -37.87635 ], [ -71.62099, -37.87797 ], [ -71.6213, -37.87823 ], [ -71.62159, -37.87863 ], [ -71.62502, -37.88006 ], [ -71.62668, -37.8817 ], [ -71.62692, -37.88185 ], [ -71.62857, -37.88272 ], [ -71.63325, -37.88308 ], [ -71.63485, -37.88362 ], [ -71.63533, -37.88369 ], [ -71.63563, -37.8836 ], [ -71.6379, -37.88223 ], [ -71.63952, -37.8814 ], [ -71.63979, -37.8806 ] ] } },
{ "type": "Feature", "properties": { "objectid": 732, "volcan": "Callaqui", "Shape__Length": 0.038471397058912712 }, "geometry": { "type": "LineString", "coordinates": [ [ -71.67584, -37.80873 ], [ -71.67616, -37.80829 ], [ -71.67664, -37.80815 ], [ -71.67752, -37.80804 ], [ -71.67867, -37.80737 ], [ -71.68046, -37.8055 ], [ -71.68364, -37.80408 ], [ -71.68402, -37.80372 ], [ -71.68485, -37.80263 ], [ -71.68824, -37.79937 ], [ -71.68957, -37.79885 ], [ -71.69099, -37.79751 ], [ -71.69334, -37.79028 ], [ -71.69728, -37.78251 ], [ -71.69733, -37.78173 ], [ -71.69703, -37.77971 ] ] } },
{ "type": "Feature", "properties": { "objectid": 733, "volcan": "Callaqui", "Shape__Length": 0.040987927565807415 }, "geometry": { "type": "LineString", "coordinates": [ [ -71.4473, -38.0502 ], [ -71.44802, -38.0492 ], [ -71.44789, -38.04895 ], [ -71.44745, -38.0487 ], [ -71.44737, -38.04845 ], [ -71.44841, -38.04788 ], [ -71.4486, -38.04768 ], [ -71.4486, -38.04713 ], [ -71.44876, -38.04669 ], [ -71.44859, -38.04632 ], [ -71.44857, -38.04601 ], [ -71.44863, -38.04578 ], [ -71.44875, -38.0457 ], [ -71.4513, -38.04606 ], [ -71.45181, -38.04601 ], [ -71.45228, -38.04582 ], [ -71.45275, -38.0459 ], [ -71.4531, -38.04554 ], [ -71.4534, -38.04535 ], [ -71.45406, -38.04526 ], [ -71.45432, -38.04513 ], [ -71.45513, -38.04449 ], [ -71.45574, -38.04374 ], [ -71.45648, -38.04323 ], [ -71.45678, -38.04312 ], [ -71.45702, -38.04324 ], [ -71.45725, -38.04379 ], [ -71.45715, -38.04493 ], [ -71.45725, -38.04513 ], [ -71.45792, -38.04506 ], [ -71.45855, -38.04514 ], [ -71.45922, -38.04486 ], [ -71.4603, -38.04491 ], [ -71.46109, -38.04503 ], [ -71.46189, -38.04563 ], [ -71.46266, -38.04564 ], [ -71.4642, -38.04517 ], [ -71.46438, -38.045 ], [ -71.46461, -38.04452 ], [ -71.46545, -38.04401 ], [ -71.46566, -38.04381 ], [ -71.46625, -38.04292 ], [ -71.46597, -38.04271 ], [ -71.4654, -38.04302 ], [ -71.46508, -38.04298 ], [ -71.46501, -38.04285 ], [ -71.46508, -38.04262 ], [ -71.46551, -38.04221 ], [ -71.4662, -38.04208 ], [ -71.46701, -38.04226 ], [ -71.46766, -38.04252 ], [ -71.46889, -38.0425 ], [ -71.46946, -38.04226 ], [ -71.47019, -38.04209 ], [ -71.4709, -38.04163 ], [ -71.47111, -38.04134 ], [ -71.47098, -38.04104 ], [ -71.47047, -38.04072 ], [ -71.4701, -38.04037 ], [ -71.4699, -38.03983 ], [ -71.46997, -38.03937 ], [ -71.47035, -38.03845 ], [ -71.4703, -38.03781 ], [ -71.47047, -38.03768 ], [ -71.47084, -38.03759 ] ] } },
{ "type": "Feature", "properties": { "objectid": 734, "volcan": "Callaqui", "Shape__Length": 0.05589336866068103 }, "geometry": { "type": "LineString", "coordinates": [ [ -71.35871, -38.06394 ], [ -71.35941, -38.06424 ], [ -71.36111, -38.06466 ], [ -71.36145, -38.06493 ], [ -71.36217, -38.06463 ], [ -71.36285, -38.0648 ], [ -71.36331, -38.06454 ], [ -71.36368, -38.06453 ], [ -71.36378, -38.06467 ], [ -71.36331, -38.06556 ], [ -71.36341, -38.06579 ], [ -71.36484, -38.06684 ], [ -71.36566, -38.06733 ], [ -71.36592, -38.06805 ], [ -71.36718, -38.06914 ], [ -71.36762, -38.06934 ], [ -71.36831, -38.0694 ], [ -71.3702, -38.06985 ], [ -71.37377, -38.07154 ], [ -71.37502, -38.07135 ], [ -71.37518, -38.07151 ], [ -71.37498, -38.07193 ], [ -71.37504, -38.0721 ], [ -71.37631, -38.07238 ], [ -71.37689, -38.07268 ], [ -71.37743, -38.07316 ], [ -71.37814, -38.07335 ], [ -71.3794, -38.07445 ], [ -71.38005, -38.0747 ], [ -71.38014, -38.07483 ], [ -71.38018, -38.07519 ], [ -71.38207, -38.0766 ], [ -71.38264, -38.07731 ], [ -71.38352, -38.07765 ], [ -71.38466, -38.07893 ], [ -71.38582, -38.07948 ], [ -71.38731, -38.08069 ], [ -71.38769, -38.08116 ], [ -71.38844, -38.08148 ], [ -71.38893, -38.08179 ], [ -71.39054, -38.08357 ], [ -71.39091, -38.08454 ], [ -71.39404, -38.08665 ], [ -71.39508, -38.08811 ], [ -71.39531, -38.08828 ], [ -71.3959, -38.08842 ], [ -71.39643, -38.08842 ], [ -71.39787, -38.08872 ], [ -71.39992, -38.08845 ], [ -71.40086, -38.0885 ], [ -71.4022, -38.08813 ], [ -71.40302, -38.08802 ] ] } },
{ "type": "Feature", "properties": { "objectid": 735, "volcan": "Callaqui", "Shape__Length": 0.029141519003605204 }, "geometry": { "type": "LineString", "coordinates": [ [ -71.56801, -37.94141 ], [ -71.56704, -37.94032 ], [ -71.56702, -37.93986 ], [ -71.56733, -37.93906 ], [ -71.56719, -37.93855 ], [ -71.56689, -37.93601 ], [ -71.56658, -37.93523 ], [ -71.56629, -37.93478 ], [ -71.56584, -37.93438 ], [ -71.56531, -37.93369 ], [ -71.56486, -37.93365 ], [ -71.56356, -37.93284 ], [ -71.56323, -37.93275 ], [ -71.56316, -37.93265 ], [ -71.56318, -37.93251 ], [ -71.56334, -37.93243 ], [ -71.56477, -37.93264 ], [ -71.56497, -37.9326 ], [ -71.56601, -37.93195 ], [ -71.56616, -37.93171 ], [ -71.56614, -37.93137 ], [ -71.56639, -37.93117 ], [ -71.56654, -37.93082 ], [ -71.56711, -37.93044 ], [ -71.56734, -37.93032 ], [ -71.56916, -37.93023 ], [ -71.56944, -37.93013 ], [ -71.57005, -37.92941 ], [ -71.57, -37.929 ], [ -71.57006, -37.92885 ], [ -71.57084, -37.92869 ], [ -71.57187, -37.92785 ], [ -71.57191, -37.9274 ], [ -71.57206, -37.92719 ], [ -71.5727, -37.92712 ], [ -71.57318, -37.92695 ], [ -71.5757, -37.92527 ], [ -71.57576, -37.92481 ], [ -71.5759, -37.9247 ], [ -71.57618, -37.92463 ], [ -71.57693, -37.92466 ] ] } },
{ "type": "Feature", "properties": { "objectid": 736, "volcan": "Callaqui", "Shape__Length": 0.041352510758263163 }, "geometry": { "type": "LineString", "coordinates": [ [ -71.55583, -37.90299 ], [ -71.55666, -37.90289 ], [ -71.56749, -37.90024 ], [ -71.57817, -37.90169 ], [ -71.59318, -37.89945 ], [ -71.59514, -37.89929 ], [ -71.59638, -37.89913 ], [ -71.59655, -37.89905 ] ] } },
{ "type": "Feature", "properties": { "objectid": 737, "volcan": "Callaqui", "Shape__Length": 0.035742423104572922 }, "geometry": { "type": "LineString", "coordinates": [ [ -71.63979, -37.8806 ], [ -71.64033, -37.87937 ], [ -71.64154, -37.87751 ], [ -71.64198, -37.87709 ], [ -71.64269, -37.87666 ], [ -71.645, -37.87466 ], [ -71.64606, -37.87412 ], [ -71.64679, -37.87384 ], [ -71.65157, -37.87242 ], [ -71.65329, -37.87161 ], [ -71.65435, -37.87091 ], [ -71.65656, -37.86882 ], [ -71.65969, -37.86667 ], [ -71.66068, -37.86606 ], [ -71.66422, -37.86427 ], [ -71.66526, -37.86322 ], [ -71.66631, -37.86018 ], [ -71.66679, -37.85945 ] ] } },
{ "type": "Feature", "properties": { "objectid": 738, "volcan": "Callaqui", "Shape__Length": 0.091485371866285164 }, "geometry": { "type": "LineString", "coordinates": [ [ -71.91747, -37.68921 ], [ -71.92232, -37.68776 ], [ -71.92482, -37.68669 ], [ -71.92827, -37.68562 ], [ -71.94564, -37.68098 ], [ -71.94957, -37.68003 ], [ -71.95207, -37.67967 ], [ -71.97527, -37.67491 ], [ -71.97872, -37.67408 ], [ -71.99168, -37.67253 ], [ -71.99347, -37.67253 ], [ -71.99537, -37.67289 ], [ -71.99632, -37.67289 ], [ -71.99751, -37.67277 ], [ -72.00311, -37.67087 ], [ -72.00656, -37.67039 ] ] } },
{ "type": "Feature", "properties": { "objectid": 739, "volcan": "Callaqui", "Shape__Length": 0.092567893175466681 }, "geometry": { "type": "LineString", "coordinates": [ [ -71.69704, -37.77958 ], [ -71.6971, -37.77917 ], [ -71.70007, -37.77667 ], [ -71.70091, -37.77536 ], [ -71.70168, -37.77488 ], [ -71.70246, -37.77476 ], [ -71.70359, -37.77476 ], [ -71.70519, -37.7744 ], [ -71.70811, -37.77244 ], [ -71.70877, -37.77184 ], [ -71.70972, -37.77155 ], [ -71.71043, -37.77101 ], [ -71.71192, -37.77095 ], [ -71.71287, -37.77071 ], [ -71.71454, -37.77065 ], [ -71.7152, -37.77024 ], [ -71.71758, -37.77 ], [ -71.72127, -37.77018 ], [ -71.72288, -37.77041 ], [ -71.7252, -37.7703 ], [ -71.72651, -37.77012 ], [ -71.7299, -37.7694 ], [ -71.73496, -37.7669 ], [ -71.73574, -37.76666 ], [ -71.74258, -37.76535 ], [ -71.74359, -37.765 ], [ -71.74514, -37.76416 ], [ -71.75044, -37.76095 ], [ -71.75848, -37.75339 ], [ -71.76253, -37.7522 ], [ -71.76556, -37.75095 ], [ -71.76928, -37.74968 ], [ -71.77937, -37.74464 ] ] } },
{ "type": "Feature", "properties": { "objectid": 740, "volcan": "Callaqui", "Shape__Length": 0.09564065497226977 }, "geometry": { "type": "LineString", "coordinates": [ [ -71.77937, -37.74464 ], [ -71.78643, -37.74075 ], [ -71.78905, -37.73879 ], [ -71.79024, -37.73837 ], [ -71.79089, -37.73766 ], [ -71.79131, -37.73611 ], [ -71.79191, -37.73569 ], [ -71.79292, -37.73557 ], [ -71.79381, -37.73557 ], [ -71.79465, -37.73605 ], [ -71.80185, -37.74284 ], [ -71.80256, -37.74314 ], [ -71.8034, -37.74314 ], [ -71.80447, -37.74299 ], [ -71.80519, -37.74269 ], [ -71.80584, -37.74228 ], [ -71.80638, -37.74127 ], [ -71.80656, -37.7365 ], [ -71.80674, -37.73579 ], [ -71.80709, -37.73531 ], [ -71.81019, -37.73251 ], [ -71.81084, -37.73174 ], [ -71.81514, -37.72507 ], [ -71.81543, -37.72448 ], [ -71.81609, -37.71852 ], [ -71.81651, -37.71745 ], [ -71.8171, -37.71656 ], [ -71.8193, -37.71418 ], [ -71.82014, -37.71233 ], [ -71.82169, -37.71084 ], [ -71.82216, -37.70858 ], [ -71.82317, -37.70816 ], [ -71.82431, -37.70733 ], [ -71.82508, -37.70727 ], [ -71.82579, -37.70757 ], [ -71.82806, -37.70757 ], [ -71.83621, -37.70543 ], [ -71.83949, -37.70447 ], [ -71.84508, -37.70405 ] ] } },
{ "type": "Feature", "properties": { "objectid": 741, "volcan": "Callaqui", "Shape__Length": 0.075428212726377342 }, "geometry": { "type": "LineString", "coordinates": [ [ -71.84508, -37.70405 ], [ -71.84956, -37.70381 ], [ -71.85147, -37.70357 ], [ -71.85236, -37.70333 ], [ -71.85403, -37.70327 ], [ -71.85539, -37.70309 ], [ -71.85653, -37.70273 ], [ -71.85938, -37.70119 ], [ -71.8601, -37.70113 ], [ -71.8626, -37.70125 ], [ -71.86432, -37.70208 ], [ -71.86492, -37.70226 ], [ -71.87433, -37.70113 ], [ -71.88028, -37.70119 ], [ -71.88516, -37.70083 ], [ -71.88629, -37.70065 ], [ -71.8971, -37.69692 ], [ -71.90162, -37.69585 ], [ -71.90305, -37.69514 ], [ -71.90483, -37.69383 ], [ -71.90757, -37.69276 ], [ -71.91078, -37.69121 ], [ -71.91747, -37.68921 ] ] } }
]
}
