{
"type": "FeatureCollection",
"name": "CLB",
"crs": { "type": "name", "properties": { "name": "urn:ogc:def:crs:OGC:1.3:CRS84" } },
"xy_coordinate_resolution": 1e-05,
"features": [
{ "type": "Feature", "properties": { "objectid": 688, "volcan": "Osorno", "Shape__Length": 0.13579403673723064 }, "geometry": { "type": "LineString", "coordinates": [ [ -72.76503, -40.96116 ], [ -72.78087, -40.95267 ], [ -72.7921, -40.93973 ], [ -72.79279, -40.93914 ], [ -72.80415, -40.9341 ], [ -72.82523, -40.92913 ], [ -72.82664, -40.92864 ], [ -72.8487, -40.91713 ], [ -72.87199, -40.90481 ], [ -72.8811, -40.8956 ] ] } },
{ "type": "Feature", "properties": { "objectid": 689, "volcan": "Osorno", "Shape__Length": 0.11100819084281814 }, "geometry": { "type": "LineString", "coordinates": [ [ -72.59428, -40.97413 ], [ -72.59653, -40.97395 ], [ -72.60368, -40.97222 ], [ -72.60475, -40.97207 ], [ -72.61154, -40.97298 ], [ -72.61603, -40.9733 ], [ -72.6297, -40.9747 ], [ -72.63311, -40.97589 ], [ -72.63493, -40.97577 ], [ -72.63827, -40.97579 ], [ -72.64625, -40.97381 ], [ -72.64731, -40.9736 ], [ -72.6481, -40.97352 ], [ -72.65273, -40.97345 ], [ -72.66431, -40.97264 ], [ -72.67237, -40.97163 ], [ -72.67247, -40.97174 ], [ -72.6725, -40.97196 ], [ -72.67341, -40.98432 ], [ -72.67357, -40.98491 ], [ -72.68213, -40.99015 ], [ -72.68555, -40.99154 ], [ -72.68629, -40.99212 ], [ -72.68972, -40.99396 ] ] } },
{ "type": "Feature", "properties": { "objectid": 690, "volcan": "Osorno", "Shape__Length": 0.088303796800025633 }, "geometry": { "type": "LineString", "coordinates": [ [ -72.57324, -41.00801 ], [ -72.57406, -41.00814 ], [ -72.57447, -41.00811 ], [ -72.575, -41.00793 ], [ -72.57539, -41.00792 ], [ -72.5758, -41.00803 ], [ -72.57644, -41.00853 ], [ -72.57811, -41.0103 ], [ -72.57929, -41.01111 ], [ -72.58151, -41.01179 ], [ -72.58251, -41.01193 ], [ -72.58323, -41.01214 ], [ -72.5836, -41.01216 ], [ -72.58428, -41.01186 ], [ -72.58613, -41.01173 ], [ -72.59287, -41.01206 ], [ -72.60423, -41.0143 ], [ -72.60534, -41.01566 ], [ -72.60778, -41.01744 ], [ -72.61034, -41.01918 ], [ -72.6174, -41.02306 ], [ -72.61912, -41.02481 ], [ -72.61995, -41.02595 ], [ -72.62011, -41.02623 ], [ -72.62006, -41.02756 ], [ -72.62031, -41.02795 ], [ -72.62078, -41.02828 ], [ -72.62093, -41.02855 ], [ -72.62103, -41.02932 ], [ -72.62124, -41.02947 ], [ -72.62154, -41.02943 ], [ -72.62198, -41.02881 ], [ -72.62222, -41.0287 ], [ -72.62252, -41.02873 ], [ -72.62401, -41.02922 ], [ -72.62445, -41.02922 ], [ -72.62568, -41.02817 ], [ -72.62786, -41.02704 ], [ -72.62811, -41.02682 ], [ -72.62847, -41.02628 ], [ -72.62874, -41.02613 ], [ -72.6323, -41.02589 ], [ -72.63306, -41.02576 ], [ -72.63423, -41.02537 ], [ -72.63523, -41.02457 ], [ -72.63763, -41.02389 ], [ -72.64442, -41.02399 ], [ -72.64512, -41.02408 ], [ -72.64878, -41.02496 ], [ -72.65085, -41.02485 ] ] } },
{ "type": "Feature", "properties": { "objectid": 691, "volcan": "Osorno", "Shape__Length": 0.064469519381849805 }, "geometry": { "type": "LineString", "coordinates": [ [ -72.45615, -41.17558 ], [ -72.45408, -41.17422 ], [ -72.45181, -41.1733 ], [ -72.45043, -41.17244 ], [ -72.44622, -41.16783 ], [ -72.44392, -41.16573 ], [ -72.43812, -41.15943 ], [ -72.43669, -41.15837 ], [ -72.43575, -41.15777 ], [ -72.43471, -41.15724 ], [ -72.4343, -41.15692 ], [ -72.43354, -41.1559 ], [ -72.43332, -41.15521 ], [ -72.43333, -41.15461 ], [ -72.43397, -41.15354 ], [ -72.43398, -41.15335 ], [ -72.43384, -41.153 ], [ -72.4313, -41.14994 ], [ -72.43032, -41.14909 ], [ -72.42974, -41.14872 ], [ -72.4289, -41.14832 ], [ -72.42698, -41.14749 ], [ -72.42622, -41.14725 ], [ -72.41951, -41.14611 ], [ -72.41774, -41.14558 ], [ -72.416, -41.14487 ], [ -72.41271, -41.14285 ], [ -72.41204, -41.14252 ], [ -72.41107, -41.14219 ], [ -72.40908, -41.14168 ], [ -72.40728, -41.14102 ], [ -72.40635, -41.14059 ] ] } },
{ "type": "Feature", "properties": { "objectid": 692, "volcan": "Osorno", "Shape__Length": 0.030855190827675297 }, "geometry": { "type": "LineString", "coordinates": [ [ -72.50902, -41.21855 ], [ -72.51165, -41.21645 ], [ -72.51241, -41.21606 ], [ -72.51662, -41.21505 ], [ -72.51915, -41.21436 ], [ -72.53787, -41.20832 ] ] } },
{ "type": "Feature", "properties": { "objectid": 693, "volcan": "Osorno", "Shape__Length": 0.019517900229176651 }, "geometry": { "type": "LineString", "coordinates": [ [ -72.58294, -41.22991 ], [ -72.59865, -41.23364 ], [ -72.60031, -41.23377 ], [ -72.602, -41.23358 ] ] } },
{ "type": "Feature", "properties": { "objectid": 694, "volcan": "Osorno", "Shape__Length": 0.054719159657129937 }, "geometry": { "type": "LineString", "coordinates": [ [ -72.61069, -41.23219 ], [ -72.61864, -41.23093 ], [ -72.61974, -41.23068 ], [ -72.62981, -41.22713 ], [ -72.63074, -41.22687 ], [ -72.63221, -41.22678 ], [ -72.63598, -41.22723 ], [ -72.6373, -41.22722 ], [ -72.64412, -41.22544 ], [ -72.64578, -41.22507 ], [ -72.66409, -41.22215 ] ] } },
{ "type": "Feature", "properties": { "objectid": 695, "volcan": "Osorno", "Shape__Length": 0.061980619747224977 }, "geometry": { "type": "LineString", "coordinates": [ [ -72.66375, -41.22221 ], [ -72.66535, -41.2219 ], [ -72.66639, -41.22159 ], [ -72.67168, -41.21951 ], [ -72.67401, -41.2185 ], [ -72.67503, -41.21831 ], [ -72.67715, -41.21827 ], [ -72.67799, -41.21816 ], [ -72.68066, -41.21724 ], [ -72.68216, -41.21653 ], [ -72.68279, -41.21642 ], [ -72.68508, -41.21635 ], [ -72.68623, -41.21596 ], [ -72.68777, -41.21561 ], [ -72.68943, -41.21491 ], [ -72.69149, -41.21442 ], [ -72.69212, -41.21445 ], [ -72.69394, -41.21487 ], [ -72.69486, -41.21498 ], [ -72.7055, -41.2151 ], [ -72.70701, -41.21494 ], [ -72.71104, -41.21425 ], [ -72.71194, -41.2142 ], [ -72.71285, -41.21425 ], [ -72.7145, -41.2146 ], [ -72.72385, -41.21723 ] ] } },
{ "type": "Feature", "properties": { "objectid": 696, "volcan": "Osorno", "Shape__Length": 0.10140477251947126 }, "geometry": { "type": "LineString", "coordinates": [ [ -72.58683, -41.14437 ], [ -72.58681, -41.14476 ], [ -72.58669, -41.14493 ], [ -72.58563, -41.14537 ], [ -72.58472, -41.1461 ], [ -72.58337, -41.14667 ], [ -72.58278, -41.14672 ], [ -72.5823, -41.1465 ], [ -72.58162, -41.1469 ], [ -72.58053, -41.14714 ], [ -72.58009, -41.14713 ], [ -72.57931, -41.1469 ], [ -72.57901, -41.14703 ], [ -72.57879, -41.14746 ], [ -72.57848, -41.1477 ], [ -72.5772, -41.14771 ], [ -72.57659, -41.1481 ], [ -72.57621, -41.14878 ], [ -72.57573, -41.14936 ], [ -72.57457, -41.15027 ], [ -72.57447, -41.15063 ], [ -72.57464, -41.151 ], [ -72.57611, -41.15199 ], [ -72.57651, -41.15252 ], [ -72.57654, -41.15287 ], [ -72.57643, -41.15324 ], [ -72.57555, -41.15422 ], [ -72.5754, -41.15462 ], [ -72.57557, -41.155 ], [ -72.57645, -41.15577 ], [ -72.57661, -41.15613 ], [ -72.57664, -41.15642 ], [ -72.57605, -41.1593 ], [ -72.57585, -41.15981 ], [ -72.5753, -41.16033 ], [ -72.5737, -41.16117 ], [ -72.57338, -41.16152 ], [ -72.57322, -41.16188 ], [ -72.57318, -41.16224 ], [ -72.57326, -41.16269 ], [ -72.57396, -41.16535 ], [ -72.57388, -41.16592 ], [ -72.57355, -41.16641 ], [ -72.57307, -41.16674 ], [ -72.5717, -41.1673 ], [ -72.57134, -41.16753 ], [ -72.57101, -41.16787 ], [ -72.57023, -41.16918 ], [ -72.56948, -41.16981 ], [ -72.56875, -41.17013 ], [ -72.56644, -41.17081 ], [ -72.56546, -41.17127 ], [ -72.56524, -41.17147 ], [ -72.56477, -41.17234 ], [ -72.56448, -41.17252 ], [ -72.56345, -41.17289 ], [ -72.56293, -41.17371 ], [ -72.56261, -41.17396 ], [ -72.56196, -41.17407 ], [ -72.56068, -41.17367 ], [ -72.56014, -41.17366 ], [ -72.5598, -41.17379 ], [ -72.55871, -41.17455 ], [ -72.55811, -41.17475 ], [ -72.55723, -41.17491 ], [ -72.55675, -41.17513 ], [ -72.55651, -41.17535 ], [ -72.55634, -41.17565 ], [ -72.55619, -41.1772 ], [ -72.55609, -41.17751 ], [ -72.55587, -41.17779 ], [ -72.55529, -41.17812 ], [ -72.55374, -41.17842 ], [ -72.55333, -41.17857 ], [ -72.55178, -41.18019 ], [ -72.5514, -41.18049 ], [ -72.5509, -41.18066 ], [ -72.54904, -41.18096 ], [ -72.54871, -41.18116 ], [ -72.54816, -41.18177 ], [ -72.54785, -41.18197 ], [ -72.5462, -41.18229 ], [ -72.54581, -41.18246 ], [ -72.54564, -41.18263 ], [ -72.54525, -41.18337 ], [ -72.54453, -41.18409 ], [ -72.54446, -41.18437 ], [ -72.54453, -41.1851 ], [ -72.54433, -41.18546 ], [ -72.5431, -41.18681 ], [ -72.54169, -41.18771 ], [ -72.54094, -41.18887 ], [ -72.5399, -41.18941 ], [ -72.53963, -41.18963 ], [ -72.53934, -41.1904 ], [ -72.53951, -41.19121 ], [ -72.53953, -41.19203 ], [ -72.53982, -41.19241 ], [ -72.54083, -41.19291 ], [ -72.54103, -41.19319 ], [ -72.54105, -41.19351 ], [ -72.54084, -41.19414 ], [ -72.54065, -41.1944 ], [ -72.5397, -41.19485 ], [ -72.53962, -41.19594 ], [ -72.53937, -41.19681 ], [ -72.53913, -41.19705 ], [ -72.53781, -41.19786 ], [ -72.53744, -41.19819 ], [ -72.53738, -41.1984 ], [ -72.53752, -41.1989 ], [ -72.5375, -41.19916 ], [ -72.53698, -41.20003 ], [ -72.53687, -41.20059 ], [ -72.53717, -41.2017 ], [ -72.53712, -41.20226 ], [ -72.53718, -41.20248 ], [ -72.53864, -41.20403 ], [ -72.53843, -41.20473 ], [ -72.5376, -41.20607 ], [ -72.53815, -41.2078 ] ] } },
{ "type": "Feature", "properties": { "objectid": 697, "volcan": "Osorno", "Shape__Length": 0.12577035027428415 }, "geometry": { "type": "LineString", "coordinates": [ [ -72.52977, -41.12806 ], [ -72.52967, -41.12825 ], [ -72.52973, -41.12845 ], [ -72.53081, -41.12969 ], [ -72.53142, -41.13019 ], [ -72.53262, -41.13093 ], [ -72.5334, -41.13127 ], [ -72.53498, -41.13169 ], [ -72.5361, -41.1315 ], [ -72.53646, -41.13161 ], [ -72.53657, -41.13177 ], [ -72.53655, -41.13188 ], [ -72.53604, -41.13253 ], [ -72.53535, -41.13298 ], [ -72.53532, -41.1331 ], [ -72.53539, -41.13319 ], [ -72.5356, -41.13317 ], [ -72.53604, -41.13287 ], [ -72.53703, -41.13259 ], [ -72.53721, -41.13243 ], [ -72.5374, -41.13193 ], [ -72.53761, -41.13189 ], [ -72.53766, -41.13203 ], [ -72.53758, -41.13272 ], [ -72.53733, -41.13329 ], [ -72.53742, -41.13336 ], [ -72.5376, -41.13332 ], [ -72.53832, -41.13268 ], [ -72.53852, -41.13268 ], [ -72.53829, -41.13305 ], [ -72.53841, -41.13371 ], [ -72.53819, -41.13402 ], [ -72.53835, -41.13411 ], [ -72.53866, -41.13401 ], [ -72.53895, -41.13355 ], [ -72.53908, -41.13358 ], [ -72.5391, -41.13422 ], [ -72.53883, -41.13443 ], [ -72.53846, -41.13456 ], [ -72.53838, -41.13472 ], [ -72.5385, -41.13488 ], [ -72.53925, -41.13536 ], [ -72.53926, -41.13558 ], [ -72.53847, -41.13629 ], [ -72.53818, -41.1367 ], [ -72.53764, -41.13719 ], [ -72.53711, -41.13801 ], [ -72.53622, -41.13855 ], [ -72.5361, -41.13891 ], [ -72.53627, -41.13934 ], [ -72.53624, -41.13954 ], [ -72.53586, -41.14012 ], [ -72.53494, -41.14076 ], [ -72.53458, -41.14085 ], [ -72.53381, -41.14088 ], [ -72.53221, -41.14124 ], [ -72.53141, -41.14112 ], [ -72.52979, -41.14214 ], [ -72.52937, -41.14209 ], [ -72.52888, -41.14173 ], [ -72.52847, -41.1416 ], [ -72.5272, -41.14165 ], [ -72.52669, -41.14178 ], [ -72.52624, -41.14205 ], [ -72.52484, -41.14323 ], [ -72.5241, -41.14421 ], [ -72.52403, -41.14453 ], [ -72.52441, -41.14524 ], [ -72.52428, -41.1454 ], [ -72.52238, -41.14516 ], [ -72.5215, -41.14457 ], [ -72.5212, -41.1445 ], [ -72.52049, -41.14491 ], [ -72.52024, -41.14528 ], [ -72.52016, -41.1457 ], [ -72.51999, -41.14581 ], [ -72.5187, -41.14583 ], [ -72.51772, -41.14602 ], [ -72.5173, -41.14621 ], [ -72.51654, -41.14609 ], [ -72.51631, -41.14619 ], [ -72.51589, -41.14663 ], [ -72.51398, -41.14683 ], [ -72.51396, -41.14695 ], [ -72.51442, -41.14729 ], [ -72.5153, -41.14732 ], [ -72.51567, -41.14789 ], [ -72.51664, -41.14852 ], [ -72.51703, -41.149 ], [ -72.5179, -41.14913 ], [ -72.51809, -41.14923 ], [ -72.51816, -41.14939 ], [ -72.5178, -41.14997 ], [ -72.5177, -41.15031 ], [ -72.51729, -41.1506 ], [ -72.51703, -41.15108 ], [ -72.51708, -41.15161 ], [ -72.51734, -41.15217 ], [ -72.51725, -41.1525 ], [ -72.51637, -41.1532 ], [ -72.51593, -41.15392 ], [ -72.51537, -41.15423 ], [ -72.51492, -41.15465 ], [ -72.51492, -41.15496 ], [ -72.51534, -41.15543 ], [ -72.51503, -41.15592 ], [ -72.51478, -41.15651 ], [ -72.51459, -41.15663 ], [ -72.51401, -41.15673 ], [ -72.51339, -41.15665 ], [ -72.51295, -41.15643 ], [ -72.51269, -41.15652 ], [ -72.51212, -41.15715 ], [ -72.51177, -41.1577 ], [ -72.51115, -41.15796 ], [ -72.51118, -41.15844 ], [ -72.5111, -41.159 ], [ -72.51055, -41.16022 ], [ -72.51116, -41.16071 ], [ -72.51192, -41.16104 ], [ -72.51225, -41.16132 ], [ -72.51309, -41.16179 ], [ -72.51342, -41.16212 ], [ -72.51369, -41.16323 ], [ -72.51389, -41.16367 ], [ -72.51315, -41.16409 ], [ -72.51293, -41.16439 ], [ -72.51292, -41.16455 ], [ -72.51311, -41.16482 ], [ -72.5135, -41.1651 ], [ -72.51397, -41.1665 ], [ -72.51492, -41.16872 ], [ -72.5152, -41.16966 ], [ -72.51917, -41.17919 ], [ -72.51937, -41.17952 ], [ -72.52087, -41.18069 ], [ -72.52193, -41.18215 ], [ -72.52318, -41.18335 ], [ -72.52365, -41.18418 ], [ -72.52397, -41.18429 ], [ -72.52488, -41.18418 ], [ -72.52548, -41.18466 ], [ -72.52602, -41.18553 ], [ -72.52681, -41.18611 ], [ -72.52717, -41.18713 ], [ -72.52723, -41.18753 ], [ -72.5274, -41.18778 ], [ -72.53059, -41.19015 ], [ -72.53259, -41.19087 ], [ -72.53465, -41.19125 ], [ -72.53587, -41.19176 ], [ -72.53871, -41.19231 ], [ -72.5397, -41.19294 ], [ -72.54073, -41.19336 ] ] } },
{ "type": "Feature", "properties": { "objectid": 698, "volcan": "Osorno", "Shape__Length": 0.084657135277532949 }, "geometry": { "type": "LineString", "coordinates": [ [ -72.39432, -41.13567 ], [ -72.35149, -41.12259 ], [ -72.31182, -41.11862 ] ] } },
{ "type": "Feature", "properties": { "objectid": 699, "volcan": "Osorno", "Shape__Length": 0.083423245764540882 }, "geometry": { "type": "LineString", "coordinates": [ [ -72.30534, -41.11797 ], [ -72.28011, -41.11545 ], [ -72.22457, -41.09849 ] ] } },
{ "type": "Feature", "properties": { "objectid": 700, "volcan": "Osorno", "Shape__Length": 0.082254160987661321 }, "geometry": { "type": "LineString", "coordinates": [ [ -72.22004, -41.09665 ], [ -72.1879, -41.08273 ], [ -72.16768, -41.07262 ], [ -72.15221, -41.07143 ], [ -72.14322, -41.07285 ] ] } },
{ "type": "Feature", "properties": { "objectid": 701, "volcan": "Osorno", "Shape__Length": 0.067739726178994569 }, "geometry": { "type": "LineString", "coordinates": [ [ -72.13893, -41.07533 ], [ -72.13258, -41.08213 ], [ -72.12485, -41.09641 ], [ -72.11771, -41.10771 ], [ -72.10938, -41.11307 ], [ -72.09808, -41.11902 ], [ -72.09198, -41.11985 ] ] } },
{ "type": "Feature", "properties": { "objectid": 702, "volcan": "Osorno", "Shape__Length": 0.067996394867323132 }, "geometry": { "type": "LineString", "coordinates": [ [ -72.08722, -41.1205 ], [ -72.08499, -41.1208 ], [ -72.0725, -41.11723 ], [ -72.05882, -41.10771 ], [ -72.04097, -41.09701 ], [ -72.02612, -41.09346 ] ] } },
{ "type": "Feature", "properties": { "objectid": 703, "volcan": "Osorno", "Shape__Length": 0.07865239422274338 }, "geometry": { "type": "LineString", "coordinates": [ [ -72.64691, -41.07227 ], [ -72.65112, -41.06723 ], [ -72.65501, -41.06352 ], [ -72.65627, -41.06254 ], [ -72.65964, -41.06044 ], [ -72.66043, -41.0597 ], [ -72.66085, -41.05908 ], [ -72.66122, -41.0582 ], [ -72.66323, -41.05125 ], [ -72.66328, -41.05038 ], [ -72.66237, -41.04679 ], [ -72.66208, -41.04514 ], [ -72.66191, -41.04356 ], [ -72.66193, -41.04068 ], [ -72.66245, -41.03658 ], [ -72.6624, -41.03611 ], [ -72.66225, -41.03574 ], [ -72.66195, -41.03533 ], [ -72.66151, -41.03496 ], [ -72.65925, -41.03353 ], [ -72.65615, -41.032 ], [ -72.65252, -41.03063 ], [ -72.65207, -41.03025 ], [ -72.65189, -41.02975 ], [ -72.65269, -41.02619 ], [ -72.65293, -41.0256 ], [ -72.65382, -41.02479 ], [ -72.65426, -41.02375 ], [ -72.65525, -41.02321 ], [ -72.65537, -41.02293 ], [ -72.65545, -41.02211 ], [ -72.65621, -41.02106 ], [ -72.65658, -41.02078 ], [ -72.65798, -41.02016 ], [ -72.65832, -41.01984 ], [ -72.659, -41.01842 ], [ -72.65902, -41.01809 ], [ -72.6589, -41.01719 ], [ -72.65898, -41.01663 ], [ -72.65939, -41.01549 ], [ -72.65984, -41.01473 ], [ -72.66052, -41.01398 ], [ -72.66348, -41.01141 ] ] } },
{ "type": "Feature", "properties": { "objectid": 704, "volcan": "Osorno", "Shape__Length": 0.11621081662024095 }, "geometry": { "type": "LineString", "coordinates": [ [ -72.66348, -41.01141 ], [ -72.66491, -41.0102 ], [ -72.66596, -41.00961 ], [ -72.68188, -41.00336 ], [ -72.68307, -41.00277 ], [ -72.68429, -41.0019 ], [ -72.68757, -40.99875 ], [ -72.68795, -40.99809 ], [ -72.68857, -40.99633 ], [ -72.68893, -40.9959 ], [ -72.68951, -40.99553 ], [ -72.69944, -40.99153 ], [ -72.7005, -40.99144 ], [ -72.70265, -40.99194 ], [ -72.70351, -40.99186 ], [ -72.71713, -40.98662 ], [ -72.71773, -40.98619 ], [ -72.71913, -40.98416 ], [ -72.71951, -40.98346 ], [ -72.7198, -40.98314 ], [ -72.72025, -40.98291 ], [ -72.72187, -40.98247 ], [ -72.72433, -40.98156 ], [ -72.72784, -40.97854 ], [ -72.72843, -40.97811 ], [ -72.72923, -40.97785 ], [ -72.73542, -40.9769 ], [ -72.73678, -40.97646 ], [ -72.74607, -40.97159 ], [ -72.75486, -40.96663 ], [ -72.76503, -40.96116 ] ] } },
{ "type": "Feature", "properties": { "objectid": 705, "volcan": "Osorno", "Shape__Length": 0.031089713974959365 }, "geometry": { "type": "LineString", "coordinates": [ [ -72.60914, -41.13 ], [ -72.60854, -41.13065 ], [ -72.60744, -41.13126 ], [ -72.60526, -41.13396 ], [ -72.60484, -41.13429 ], [ -72.60448, -41.1344 ], [ -72.60402, -41.13439 ], [ -72.60369, -41.13428 ], [ -72.60273, -41.13369 ], [ -72.60197, -41.13361 ], [ -72.60153, -41.13365 ], [ -72.60128, -41.13375 ], [ -72.60082, -41.13421 ], [ -72.60059, -41.13432 ], [ -72.59967, -41.13453 ], [ -72.59885, -41.13489 ], [ -72.59784, -41.13504 ], [ -72.59725, -41.13533 ], [ -72.59644, -41.13532 ], [ -72.59584, -41.13545 ], [ -72.59565, -41.13556 ], [ -72.59555, -41.13573 ], [ -72.59532, -41.13671 ], [ -72.59495, -41.13697 ], [ -72.5946, -41.13701 ], [ -72.59335, -41.13685 ], [ -72.59317, -41.13706 ], [ -72.59296, -41.13836 ], [ -72.59181, -41.13898 ], [ -72.59136, -41.13947 ], [ -72.59099, -41.13954 ], [ -72.58959, -41.13927 ], [ -72.58939, -41.13979 ], [ -72.58903, -41.14014 ], [ -72.5891, -41.14064 ], [ -72.58898, -41.14083 ], [ -72.58841, -41.14097 ], [ -72.58735, -41.14159 ], [ -72.58738, -41.14174 ], [ -72.58817, -41.14207 ], [ -72.5882, -41.14227 ], [ -72.58799, -41.14271 ], [ -72.58711, -41.1431 ] ] } },
{ "type": "Feature", "properties": { "objectid": 706, "volcan": "Osorno", "Shape__Length": 0.055486286719802963 }, "geometry": { "type": "LineString", "coordinates": [ [ -72.46921, -41.18869 ], [ -72.47674, -41.19491 ], [ -72.47781, -41.19556 ], [ -72.48369, -41.19878 ], [ -72.48496, -41.19958 ], [ -72.48604, -41.20046 ], [ -72.49294, -41.20669 ], [ -72.49409, -41.20749 ], [ -72.49534, -41.20802 ], [ -72.51506, -41.21428 ], [ -72.51713, -41.21465 ] ] } },
{ "type": "Feature", "properties": { "objectid": 707, "volcan": "Osorno", "Shape__Length": 0.019936447177144989 }, "geometry": { "type": "LineString", "coordinates": [ [ -72.53972, -41.20878 ], [ -72.54018, -41.20926 ], [ -72.54065, -41.20993 ], [ -72.54108, -41.21035 ], [ -72.54646, -41.21425 ], [ -72.54774, -41.21495 ], [ -72.55103, -41.2163 ], [ -72.55183, -41.21682 ], [ -72.55259, -41.21768 ], [ -72.55462, -41.22122 ] ] } },
{ "type": "Feature", "properties": { "objectid": 708, "volcan": "Osorno", "Shape__Length": 0.010441666755128023 }, "geometry": { "type": "LineString", "coordinates": [ [ -72.55515, -41.22202 ], [ -72.55596, -41.22274 ], [ -72.55708, -41.22329 ], [ -72.56486, -41.22554 ] ] } },
{ "type": "Feature", "properties": { "objectid": 709, "volcan": "Osorno", "Shape__Length": 0.016227047138749753 }, "geometry": { "type": "LineString", "coordinates": [ [ -72.56612, -41.22586 ], [ -72.5819, -41.22966 ] ] } },
{ "type": "Feature", "properties": { "objectid": 710, "volcan": "Osorno", "Shape__Length": 0.053761844990646693 }, "geometry": { "type": "LineString", "coordinates": [ [ -72.478, -41.2599 ], [ -72.48095, -41.24165 ], [ -72.48119, -41.24086 ], [ -72.48158, -41.24021 ], [ -72.48247, -41.23938 ], [ -72.508, -41.21935 ] ] } },
{ "type": "Feature", "properties": { "objectid": 711, "volcan": "Osorno", "Shape__Length": 0.036306069689634089 }, "geometry": { "type": "LineString", "coordinates": [ [ -72.61878, -41.11688 ], [ -72.61853, -41.11602 ], [ -72.61853, -41.11573 ], [ -72.61869, -41.11536 ], [ -72.61904, -41.11507 ], [ -72.61971, -41.11489 ], [ -72.62208, -41.11488 ], [ -72.62288, -41.11467 ], [ -72.62356, -41.11416 ], [ -72.62414, -41.11291 ], [ -72.62469, -41.11236 ], [ -72.62535, -41.1121 ], [ -72.62767, -41.11162 ], [ -72.62895, -41.11119 ], [ -72.63031, -41.11043 ], [ -72.63135, -41.10964 ], [ -72.63173, -41.10921 ], [ -72.63212, -41.10785 ], [ -72.63216, -41.1073 ], [ -72.63209, -41.1067 ], [ -72.63086, -41.10279 ], [ -72.63022, -41.10119 ], [ -72.63013, -41.10072 ], [ -72.63008, -41.09954 ], [ -72.62962, -41.0982 ], [ -72.6296, -41.09762 ], [ -72.62981, -41.09695 ], [ -72.63292, -41.09106 ] ] } },
{ "type": "Feature", "properties": { "objectid": 712, "volcan": "Osorno", "Shape__Length": 0.0040070119742140232 }, "geometry": { "type": "LineString", "coordinates": [ [ -72.64435, -41.07535 ], [ -72.64691, -41.07227 ] ] } },
{ "type": "Feature", "properties": { "objectid": 713, "volcan": "Osorno", "Shape__Length": 0.0071142375209518379 }, "geometry": { "type": "LineString", "coordinates": [ [ -72.60366, -41.23331 ], [ -72.61069, -41.23219 ] ] } },
{ "type": "Feature", "properties": { "objectid": 714, "volcan": "Osorno", "Shape__Length": 0.018644516718438382 }, "geometry": { "type": "LineString", "coordinates": [ [ -72.46921, -41.18869 ], [ -72.46795, -41.18758 ], [ -72.46709, -41.18668 ], [ -72.46155, -41.17979 ], [ -72.46086, -41.17903 ], [ -72.46016, -41.1784 ], [ -72.45615, -41.17558 ] ] } },
{ "type": "Feature", "properties": { "objectid": 715, "volcan": "Osorno", "Shape__Length": 0.017194203259052153 }, "geometry": { "type": "LineString", "coordinates": [ [ -72.61886, -41.11718 ], [ -72.61895, -41.11774 ], [ -72.61884, -41.11815 ], [ -72.61635, -41.12235 ], [ -72.61445, -41.12651 ], [ -72.61409, -41.12712 ], [ -72.61368, -41.12748 ], [ -72.61314, -41.12773 ], [ -72.61125, -41.12801 ], [ -72.61066, -41.12824 ], [ -72.61025, -41.1286 ], [ -72.60914, -41.13 ] ] } },
{ "type": "Feature", "properties": { "objectid": 716, "volcan": "Osorno", "Shape__Length": 0.020703594758662486 }, "geometry": { "type": "LineString", "coordinates": [ [ -72.63292, -41.09106 ], [ -72.63478, -41.08738 ], [ -72.63482, -41.08694 ], [ -72.63438, -41.08488 ], [ -72.63442, -41.08447 ], [ -72.63462, -41.08406 ], [ -72.63509, -41.08361 ], [ -72.63922, -41.08073 ], [ -72.64051, -41.07973 ], [ -72.64166, -41.07858 ], [ -72.64435, -41.07535 ] ] } },
{ "type": "Feature", "properties": { "objectid": 717, "volcan": "Osorno", "Shape__Length": 0.062804840931176387 }, "geometry": { "type": "LineString", "coordinates": [ [ -72.53351, -40.95982 ], [ -72.54586, -40.96342 ], [ -72.55821, -40.97045 ], [ -72.55786, -40.97388 ], [ -72.56164, -40.97286 ], [ -72.56284, -40.97028 ], [ -72.56507, -40.97097 ], [ -72.56781, -40.97903 ], [ -72.56935, -40.97834 ], [ -72.56935, -40.97577 ], [ -72.57964, -40.97406 ] ] } }
]
}
