{
"type": "FeatureCollection",
"name": "GUA",
"crs": { "type": "name", "properties": { "name": "urn:ogc:def:crs:OGC:1.3:CRS84" } },
"xy_coordinate_resolution": 1e-05,
"features": [
{ "type": "Feature", "properties": { "objectid": 786, "volcan": "Taapacá", "Shape__Length": 0.079557141996284331 }, "geometry": { "type": "LineString", "coordinates": [ [ -69.48491, -18.16382 ], [ -69.48297, -18.1631 ], [ -69.48093, -18.16188 ], [ -69.47827, -18.15902 ], [ -69.47745, -18.15881 ], [ -69.47572, -18.15942 ], [ -69.47296, -18.16065 ], [ -69.47009, -18.16382 ], [ -69.46549, -18.1629 ], [ -69.46396, -18.1629 ], [ -69.46202, -18.16413 ], [ -69.4611, -18.16525 ], [ -69.46049, -18.16545 ], [ -69.45742, -18.16525 ], [ -69.45446, -18.16556 ], [ -69.45251, -18.16413 ], [ -69.45129, -18.1631 ], [ -69.44975, -18.163 ], [ -69.4473, -18.16351 ], [ -69.44567, -18.16341 ], [ -69.44301, -18.16423 ], [ -69.44137, -18.16505 ], [ -69.4379, -18.16402 ], [ -69.43667, -18.16505 ], [ -69.43493, -18.16668 ], [ -69.43258, -18.1675 ], [ -69.43054, -18.16924 ], [ -69.42921, -18.17067 ], [ -69.42655, -18.1723 ], [ -69.42533, -18.17353 ], [ -69.41848, -18.18171 ] ] } }
]
}
