{
"type": "FeatureCollection",
"name": "LAN",
"crs": { "type": "name", "properties": { "name": "urn:ogc:def:crs:OGC:1.3:CRS84" } },
"xy_coordinate_resolution": 1e-05,
"features": [
{ "type": "Feature", "properties": { "objectid": 792, "volcan": "Villarrica", "Shape__Length": 0.041920200018395679 }, "geometry": { "type": "LineString", "coordinates": [ [ -72.00666, -39.56783 ], [ -71.99873, -39.5758 ], [ -72.00203, -39.57812 ], [ -72.00283, -39.57938 ], [ -72.00592, -39.5898 ], [ -72.00628, -39.58984 ], [ -72.01229, -39.58639 ], [ -72.01319, -39.58639 ], [ -72.01889, -39.58855 ] ] } }
]
}
