{
"type": "FeatureCollection",
"name": "LDM",
"crs": { "type": "name", "properties": { "name": "urn:ogc:def:crs:OGC:1.3:CRS84" } },
"xy_coordinate_resolution": 1e-05,
"features": [
{ "type": "Feature", "properties": { "objectid": 800, "volcan": "Descabezado", "Shape__Length": 0.0031369057011270576 }, "geometry": { "type": "LineString", "coordinates": [ [ -70.99629, -35.76257 ], [ -70.99681, -35.76269 ], [ -70.99787, -35.76319 ], [ -70.99925, -35.76353 ] ] } },
{ "type": "Feature", "properties": { "objectid": 807, "volcan": "Descabezado", "Shape__Length": 0.61229575469858377 }, "geometry": { "type": "LineString", "coordinates": [ [ -70.82052, -35.81727 ], [ -70.82118, -35.81693 ], [ -70.82304, -35.81662 ], [ -70.82451, -35.816 ], [ -70.82689, -35.81458 ], [ -70.82736, -35.81453 ], [ -70.82778, -35.81438 ], [ -70.82861, -35.81434 ], [ -70.82983, -35.81438 ], [ -70.83035, -35.81453 ], [ -70.83054, -35.8145 ], [ -70.83077, -35.81429 ], [ -70.83097, -35.81355 ], [ -70.83115, -35.81351 ], [ -70.83142, -35.81362 ], [ -70.83152, -35.81475 ], [ -70.8324, -35.81515 ], [ -70.83249, -35.81532 ], [ -70.83236, -35.81594 ], [ -70.83209, -35.8164 ], [ -70.83274, -35.81689 ], [ -70.83473, -35.81734 ], [ -70.83598, -35.81704 ], [ -70.8398, -35.81694 ], [ -70.84876, -35.81429 ], [ -70.85133, -35.8138 ], [ -70.85457, -35.81365 ], [ -70.86824, -35.81195 ], [ -70.87009, -35.81235 ], [ -70.87216, -35.81231 ], [ -70.874, -35.812 ], [ -70.8762, -35.81014 ], [ -70.88014, -35.80857 ], [ -70.88288, -35.80763 ], [ -70.88425, -35.80681 ], [ -70.88741, -35.80576 ], [ -70.88927, -35.8053 ], [ -70.89231, -35.80332 ], [ -70.89299, -35.80269 ], [ -70.89462, -35.80149 ], [ -70.89593, -35.80105 ], [ -70.89765, -35.80127 ], [ -70.90107, -35.80143 ], [ -70.9046, -35.80067 ], [ -70.91124, -35.80049 ], [ -70.91515, -35.80067 ], [ -70.92674, -35.80393 ], [ -70.92979, -35.80461 ], [ -70.93196, -35.80368 ], [ -70.93424, -35.80427 ], [ -70.93649, -35.80512 ], [ -70.93856, -35.8056 ], [ -70.94068, -35.80596 ], [ -70.94378, -35.80747 ], [ -70.9453, -35.80783 ], [ -70.94726, -35.8068 ], [ -70.95002, -35.80716 ], [ -70.95128, -35.80682 ], [ -70.95514, -35.80644 ], [ -70.96211, -35.80667 ], [ -70.9722, -35.80018 ], [ -70.97384, -35.79976 ], [ -70.98301, -35.79492 ], [ -70.98526, -35.7941 ], [ -70.98636, -35.79338 ], [ -70.98804, -35.79182 ], [ -70.99139, -35.78689 ], [ -70.99171, -35.78592 ], [ -70.99243, -35.78438 ], [ -70.9916, -35.78205 ], [ -70.99392, -35.77531 ], [ -70.99628, -35.77172 ], [ -70.99794, -35.76833 ], [ -70.99806, -35.76692 ], [ -70.99917, -35.76395 ], [ -71.00044, -35.76174 ], [ -71.00201, -35.75835 ], [ -71.00364, -35.75525 ], [ -71.0052, -35.75101 ], [ -71.00591, -35.74958 ], [ -71.00875, -35.74164 ], [ -71.01096, -35.73795 ], [ -71.01175, -35.73515 ], [ -71.01217, -35.73399 ], [ -71.0126, -35.73341 ], [ -71.01393, -35.73208 ], [ -71.01567, -35.73006 ], [ -71.01726, -35.7284 ], [ -71.01794, -35.7278 ], [ -71.025, -35.72449 ], [ -71.03462, -35.71825 ], [ -71.03663, -35.71661 ], [ -71.03756, -35.71631 ], [ -71.03861, -35.71624 ], [ -71.03914, -35.71613 ], [ -71.04495, -35.71421 ], [ -71.0492, -35.71399 ], [ -71.05082, -35.71382 ], [ -71.05535, -35.71255 ], [ -71.05807, -35.712 ], [ -71.06056, -35.71183 ], [ -71.06405, -35.7109 ], [ -71.0678, -35.71017 ], [ -71.07037, -35.71008 ], [ -71.07137, -35.71014 ], [ -71.07861, -35.70981 ], [ -71.07956, -35.70951 ], [ -71.08028, -35.70905 ], [ -71.08123, -35.70863 ], [ -71.09165, -35.70906 ], [ -71.09295, -35.70895 ], [ -71.10009, -35.70732 ], [ -71.10186, -35.70748 ], [ -71.10876, -35.71033 ], [ -71.10965, -35.71084 ], [ -71.11375, -35.71383 ], [ -71.11729, -35.71628 ], [ -71.11805, -35.71638 ], [ -71.11877, -35.71624 ], [ -71.12042, -35.71561 ], [ -71.12403, -35.713 ], [ -71.1274, -35.71464 ], [ -71.13051, -35.71523 ], [ -71.13179, -35.7153 ], [ -71.13603, -35.71526 ], [ -71.13915, -35.71591 ], [ -71.14191, -35.71774 ], [ -71.14256, -35.71831 ], [ -71.14445, -35.7188 ], [ -71.14832, -35.72017 ], [ -71.15066, -35.72111 ], [ -71.15323, -35.72144 ], [ -71.16132, -35.72209 ], [ -71.16711, -35.72249 ], [ -71.17, -35.72251 ], [ -71.1727, -35.72229 ], [ -71.17517, -35.72156 ], [ -71.1771, -35.72112 ], [ -71.18034, -35.72091 ], [ -71.18218, -35.72097 ], [ -71.18697, -35.72213 ], [ -71.1887, -35.72238 ], [ -71.19441, -35.7204 ], [ -71.19661, -35.72038 ], [ -71.19825, -35.72013 ], [ -71.20439, -35.71727 ], [ -71.20591, -35.71634 ], [ -71.2186, -35.70461 ], [ -71.21926, -35.7035 ], [ -71.21977, -35.7016 ], [ -71.22038, -35.70071 ], [ -71.22211, -35.69972 ], [ -71.22326, -35.69821 ], [ -71.22363, -35.69718 ], [ -71.22372, -35.69585 ], [ -71.22336, -35.69365 ], [ -71.22252, -35.69175 ], [ -71.22164, -35.68999 ], [ -71.22142, -35.68889 ], [ -71.22123, -35.68686 ], [ -71.22013, -35.68417 ], [ -71.21962, -35.68022 ], [ -71.21913, -35.67879 ], [ -71.21907, -35.67779 ], [ -71.21936, -35.67695 ], [ -71.22019, -35.67592 ], [ -71.22104, -35.67508 ], [ -71.2223, -35.67352 ], [ -71.22312, -35.67272 ], [ -71.22401, -35.67225 ], [ -71.22612, -35.67137 ], [ -71.2333, -35.66877 ], [ -71.23425, -35.66823 ], [ -71.23829, -35.66532 ], [ -71.2392, -35.66485 ], [ -71.24064, -35.66388 ], [ -71.24137, -35.66327 ], [ -71.24149, -35.66293 ], [ -71.2418, -35.66266 ], [ -71.24438, -35.65948 ], [ -71.24508, -35.65883 ], [ -71.2474, -35.65773 ], [ -71.24918, -35.65523 ], [ -71.24968, -35.65375 ], [ -71.25034, -35.65291 ], [ -71.25543, -35.64798 ], [ -71.25703, -35.64688 ], [ -71.25749, -35.646 ], [ -71.25799, -35.64532 ], [ -71.26177, -35.64333 ], [ -71.26228, -35.64287 ], [ -71.26252, -35.64227 ], [ -71.26253, -35.64055 ], [ -71.26415, -35.63628 ], [ -71.26753, -35.63232 ], [ -71.27095, -35.6303 ], [ -71.28053, -35.62113 ], [ -71.28912, -35.61305 ], [ -71.2994, -35.60315 ] ] } }
]
}
