{
"type": "FeatureCollection",
"name": "LLA",
"crs": { "type": "name", "properties": { "name": "urn:ogc:def:crs:OGC:1.3:CRS84" } },
"xy_coordinate_resolution": 1e-05,
"features": [
{ "type": "Feature", "properties": { "objectid": 641, "volcan": "Llaima", "Shape__Length": 0.042438978698705283 }, "geometry": { "type": "LineString", "coordinates": [ [ -71.63781, -38.77847 ], [ -71.63962, -38.78085 ], [ -71.64075, -38.78176 ], [ -71.64183, -38.7832 ], [ -71.64321, -38.78396 ], [ -71.64412, -38.78494 ], [ -71.645, -38.78718 ], [ -71.64764, -38.78779 ], [ -71.64721, -38.78948 ], [ -71.64757, -38.79246 ], [ -71.64747, -38.79429 ], [ -71.64802, -38.79462 ], [ -71.64953, -38.79716 ], [ -71.64902, -38.79967 ], [ -71.65592, -38.80738 ], [ -71.65666, -38.80747 ], [ -71.65786, -38.80854 ], [ -71.65913, -38.81096 ] ] } },
{ "type": "Feature", "properties": { "objectid": 642, "volcan": "Llaima", "Shape__Length": 0.015173251038587812 }, "geometry": { "type": "LineString", "coordinates": [ [ -71.64859, -38.83779 ], [ -71.65416, -38.83938 ], [ -71.65613, -38.83938 ], [ -71.6583, -38.83921 ], [ -71.66091, -38.83919 ], [ -71.66347, -38.83977 ] ] } },
{ "type": "Feature", "properties": { "objectid": 643, "volcan": "Llaima", "Shape__Length": 0.12812227793353184 }, "geometry": { "type": "LineString", "coordinates": [ [ -71.80161, -38.85288 ], [ -71.81596, -38.8579 ], [ -71.82586, -38.86084 ], [ -71.83001, -38.86236 ], [ -71.8465, -38.87063 ], [ -71.85267, -38.87481 ], [ -71.86214, -38.87877 ], [ -71.86492, -38.87935 ], [ -71.87897, -38.88357 ], [ -71.88161, -38.88304 ], [ -71.88518, -38.88211 ], [ -71.88832, -38.88152 ], [ -71.89005, -38.8813 ], [ -71.89135, -38.88165 ], [ -71.89498, -38.88308 ], [ -71.91678, -38.89614 ], [ -71.91748, -38.89674 ], [ -71.91837, -38.89806 ] ] } },
{ "type": "Feature", "properties": { "objectid": 644, "volcan": "Llaima", "Shape__Length": 0.022906509505313824 }, "geometry": { "type": "LineString", "coordinates": [ [ -71.74901, -38.83907 ], [ -71.74611, -38.83909 ], [ -71.74516, -38.84078 ], [ -71.74409, -38.84179 ], [ -71.74412, -38.84226 ], [ -71.74466, -38.8426 ], [ -71.7475, -38.84389 ], [ -71.74978, -38.84425 ], [ -71.75015, -38.84471 ], [ -71.75092, -38.84647 ], [ -71.75163, -38.8493 ], [ -71.75217, -38.85023 ], [ -71.75232, -38.85078 ], [ -71.7526, -38.85098 ], [ -71.75349, -38.851 ], [ -71.75388, -38.8527 ] ] } },
{ "type": "Feature", "properties": { "objectid": 645, "volcan": "Llaima", "Shape__Length": 0.0087355616901598973 }, "geometry": { "type": "LineString", "coordinates": [ [ -71.69086, -38.84938 ], [ -71.69936, -38.8514 ] ] } },
{ "type": "Feature", "properties": { "objectid": 646, "volcan": "Llaima", "Shape__Length": 0.024849624389183162 }, "geometry": { "type": "LineString", "coordinates": [ [ -71.68784, -38.83253 ], [ -71.68794, -38.83321 ], [ -71.68878, -38.83383 ], [ -71.68905, -38.83412 ], [ -71.68927, -38.83461 ], [ -71.6903, -38.83571 ], [ -71.69112, -38.83634 ], [ -71.69266, -38.83706 ], [ -71.69433, -38.83754 ], [ -71.69539, -38.83876 ], [ -71.69621, -38.83949 ], [ -71.697, -38.83975 ], [ -71.6977, -38.84382 ], [ -71.69795, -38.84428 ], [ -71.69626, -38.84432 ], [ -71.696, -38.84461 ], [ -71.69596, -38.84536 ], [ -71.69581, -38.84552 ], [ -71.69543, -38.84567 ], [ -71.69521, -38.8457 ], [ -71.69503, -38.84557 ], [ -71.69416, -38.84562 ], [ -71.69348, -38.84556 ], [ -71.69345, -38.84572 ], [ -71.69364, -38.84632 ], [ -71.69315, -38.84663 ], [ -71.69278, -38.84675 ], [ -71.69218, -38.84721 ] ] } },
{ "type": "Feature", "properties": { "objectid": 647, "volcan": "Llaima", "Shape__Length": 0.016172628112427957 }, "geometry": { "type": "LineString", "coordinates": [ [ -71.7128, -38.84142 ], [ -71.71246, -38.842 ], [ -71.71224, -38.84203 ], [ -71.71194, -38.84237 ], [ -71.71151, -38.84363 ], [ -71.71088, -38.84397 ], [ -71.70996, -38.84472 ], [ -71.70849, -38.84509 ], [ -71.70802, -38.84495 ], [ -71.70762, -38.84495 ], [ -71.70595, -38.84414 ], [ -71.69879, -38.84561 ] ] } },
{ "type": "Feature", "properties": { "objectid": 648, "volcan": "Llaima", "Shape__Length": 0.011787951537683698 }, "geometry": { "type": "LineString", "coordinates": [ [ -71.68388, -38.83281 ], [ -71.67761, -38.8335 ], [ -71.67645, -38.83374 ], [ -71.67737, -38.83501 ], [ -71.6774, -38.83773 ] ] } },
{ "type": "Feature", "properties": { "objectid": 649, "volcan": "Llaima", "Shape__Length": 0.084276161311301362 }, "geometry": { "type": "LineString", "coordinates": [ [ -71.83281, -38.8694 ], [ -71.82961, -38.86998 ], [ -71.82701, -38.87062 ], [ -71.82277, -38.87191 ], [ -71.81936, -38.87251 ], [ -71.80284, -38.86909 ], [ -71.79367, -38.86798 ], [ -71.7885, -38.86723 ], [ -71.78667, -38.86722 ], [ -71.78053, -38.86767 ], [ -71.77108, -38.87193 ], [ -71.76574, -38.87627 ], [ -71.7612, -38.87968 ], [ -71.75958, -38.88116 ], [ -71.75825, -38.88205 ], [ -71.75424, -38.8839 ] ] } },
{ "type": "Feature", "properties": { "objectid": 650, "volcan": "Llaima", "Shape__Length": 0.035012411044090523 }, "geometry": { "type": "LineString", "coordinates": [ [ -71.65948, -38.81183 ], [ -71.65898, -38.81238 ], [ -71.65903, -38.81371 ], [ -71.65865, -38.81452 ], [ -71.65951, -38.81611 ], [ -71.66062, -38.81736 ], [ -71.66295, -38.81856 ], [ -71.66296, -38.81906 ], [ -71.6637, -38.81965 ], [ -71.66427, -38.82267 ], [ -71.66268, -38.8263 ], [ -71.65963, -38.83012 ], [ -71.65851, -38.83181 ], [ -71.6582, -38.83246 ], [ -71.65808, -38.83317 ], [ -71.65818, -38.83353 ], [ -71.6588, -38.83436 ], [ -71.65892, -38.83529 ], [ -71.65984, -38.83643 ], [ -71.66053, -38.83707 ], [ -71.6616, -38.83745 ], [ -71.6641, -38.83945 ] ] } },
{ "type": "Feature", "properties": { "objectid": 651, "volcan": "Llaima", "Shape__Length": 0.05194991539282677 }, "geometry": { "type": "LineString", "coordinates": [ [ -71.73436, -38.86652 ], [ -71.7381, -38.8694 ], [ -71.73954, -38.86994 ], [ -71.74055, -38.87 ], [ -71.74205, -38.86966 ], [ -71.74497, -38.86937 ], [ -71.74712, -38.86854 ], [ -71.74779, -38.8686 ], [ -71.75536, -38.86761 ], [ -71.75727, -38.86696 ], [ -71.76183, -38.8668 ], [ -71.7628, -38.86653 ], [ -71.76399, -38.8664 ], [ -71.7662, -38.86636 ], [ -71.76615, -38.866 ], [ -71.7683, -38.86628 ], [ -71.7723, -38.8662 ], [ -71.77275, -38.86604 ], [ -71.7745, -38.8651 ], [ -71.77524, -38.86486 ], [ -71.77604, -38.86486 ], [ -71.77654, -38.86495 ], [ -71.77741, -38.86487 ], [ -71.77972, -38.86566 ], [ -71.78177, -38.86566 ], [ -71.782, -38.86585 ], [ -71.78196, -38.86625 ], [ -71.78174, -38.86685 ], [ -71.78135, -38.86754 ] ] } },
{ "type": "Feature", "properties": { "objectid": 652, "volcan": "Llaima", "Shape__Length": 0.062426441291565771 }, "geometry": { "type": "LineString", "coordinates": [ [ -71.97258, -38.92027 ], [ -71.97548, -38.92173 ], [ -71.97626, -38.92195 ], [ -71.97702, -38.92206 ], [ -71.98285, -38.92188 ], [ -71.98461, -38.92157 ], [ -71.99174, -38.91944 ], [ -71.99265, -38.9193 ], [ -71.99354, -38.91936 ], [ -71.9942, -38.91961 ], [ -71.99478, -38.91999 ], [ -71.99629, -38.92152 ], [ -71.99964, -38.92359 ], [ -72.00026, -38.92412 ], [ -72.00226, -38.92619 ], [ -72.00323, -38.92685 ], [ -72.00594, -38.92797 ], [ -72.00847, -38.92881 ], [ -72.01398, -38.93041 ], [ -72.02551, -38.93031 ], [ -72.02653, -38.93237 ], [ -72.02967, -38.93179 ] ] } },
{ "type": "Feature", "properties": { "objectid": 653, "volcan": "Llaima", "Shape__Length": 0.047517463629311814 }, "geometry": { "type": "LineString", "coordinates": [ [ -71.86229, -38.83387 ], [ -71.86468, -38.83895 ], [ -71.86552, -38.84178 ], [ -71.86105, -38.84812 ], [ -71.86091, -38.84901 ], [ -71.86236, -38.85437 ], [ -71.86468, -38.85698 ], [ -71.86516, -38.85799 ], [ -71.86474, -38.85972 ], [ -71.86337, -38.86347 ], [ -71.85855, -38.87316 ], [ -71.85748, -38.87453 ], [ -71.85647, -38.87602 ] ] } },
{ "type": "Feature", "properties": { "objectid": 654, "volcan": "Llaima", "Shape__Length": 0.14870346880712523 }, "geometry": { "type": "LineString", "coordinates": [ [ -71.85195, -38.64781 ], [ -71.85648, -38.65198 ], [ -71.86261, -38.6504 ], [ -71.86993, -38.65165 ], [ -71.87199, -38.65759 ], [ -71.87454, -38.65752 ], [ -71.87798, -38.66172 ], [ -71.87696, -38.66346 ], [ -71.88038, -38.66708 ], [ -71.88697, -38.66806 ], [ -71.89426, -38.66845 ], [ -71.89322, -38.66962 ], [ -71.89806, -38.67235 ], [ -71.90683, -38.67328 ], [ -71.90834, -38.67466 ], [ -71.91855, -38.67498 ], [ -71.9216, -38.67833 ], [ -71.92599, -38.67907 ], [ -71.93036, -38.67896 ], [ -71.93419, -38.6796 ], [ -71.93566, -38.68018 ], [ -71.93607, -38.68056 ], [ -71.93743, -38.68131 ], [ -71.93811, -38.68159 ], [ -71.94034, -38.68171 ], [ -71.94079, -38.68188 ], [ -71.94142, -38.68243 ], [ -71.94193, -38.68272 ], [ -71.94233, -38.68284 ], [ -71.94376, -38.68267 ], [ -71.94428, -38.68296 ], [ -71.9541, -38.68094 ], [ -71.95995, -38.68164 ], [ -71.96964, -38.6871 ], [ -71.97343, -38.69072 ], [ -71.97813, -38.68974 ] ] } },
{ "type": "Feature", "properties": { "objectid": 655, "volcan": "Llaima", "Shape__Length": 0.041698057373491741 }, "geometry": { "type": "LineString", "coordinates": [ [ -71.95903, -38.71779 ], [ -71.97209, -38.71101 ], [ -71.97408, -38.70639 ], [ -71.97262, -38.70614 ], [ -71.97392, -38.7024 ], [ -71.97713, -38.70089 ], [ -71.97583, -38.69579 ], [ -71.97573, -38.69351 ], [ -71.97758, -38.69403 ], [ -71.97816, -38.6906 ] ] } },
{ "type": "Feature", "properties": { "objectid": 656, "volcan": "Llaima", "Shape__Length": 0.038755142228169476 }, "geometry": { "type": "LineString", "coordinates": [ [ -71.77852, -38.64016 ], [ -71.78526, -38.6263 ], [ -71.78442, -38.62347 ], [ -71.7851, -38.62203 ], [ -71.7842, -38.61777 ], [ -71.78693, -38.61314 ], [ -71.79245, -38.60593 ] ] } },
{ "type": "Feature", "properties": { "objectid": 657, "volcan": "Llaima", "Shape__Length": 0.10886864963775002 }, "geometry": { "type": "LineString", "coordinates": [ [ -71.80933, -38.55696 ], [ -71.8102, -38.55694 ], [ -71.81441, -38.55313 ], [ -71.81145, -38.55177 ], [ -71.81055, -38.54723 ], [ -71.81149, -38.5435 ], [ -71.81354, -38.54002 ], [ -71.81492, -38.53828 ], [ -71.81512, -38.53399 ], [ -71.82123, -38.53242 ], [ -71.83225, -38.52616 ], [ -71.83395, -38.52327 ], [ -71.8386, -38.52144 ], [ -71.83422, -38.52098 ], [ -71.83024, -38.52136 ], [ -71.82508, -38.51007 ], [ -71.82375, -38.50382 ], [ -71.82352, -38.49812 ], [ -71.82647, -38.48978 ], [ -71.83679, -38.48616 ] ] } },
{ "type": "Feature", "properties": { "objectid": 658, "volcan": "Llaima", "Shape__Length": 0.035804680437688682 }, "geometry": { "type": "LineString", "coordinates": [ [ -71.83317, -38.55895 ], [ -71.83609, -38.55917 ], [ -71.83858, -38.55797 ], [ -71.83887, -38.54683 ], [ -71.83236, -38.52901 ] ] } },
{ "type": "Feature", "properties": { "objectid": 659, "volcan": "Llaima", "Shape__Length": 0.037363755539557314 }, "geometry": { "type": "LineString", "coordinates": [ [ -71.81644, -38.58646 ], [ -71.81774, -38.58244 ], [ -71.8197, -38.57697 ], [ -71.81894, -38.57613 ], [ -71.82018, -38.57068 ], [ -71.81979, -38.56983 ], [ -71.82107, -38.56552 ], [ -71.82097, -38.56296 ], [ -71.81867, -38.55987 ], [ -71.81887, -38.55559 ], [ -71.81735, -38.55391 ], [ -71.81516, -38.55368 ] ] } },
{ "type": "Feature", "properties": { "objectid": 660, "volcan": "Llaima", "Shape__Length": 0.051568197631510791 }, "geometry": { "type": "LineString", "coordinates": [ [ -71.84804, -38.68397 ], [ -71.85213, -38.68187 ], [ -71.85376, -38.6822 ], [ -71.85533, -38.68089 ], [ -71.86395, -38.67613 ], [ -71.86386, -38.67377 ], [ -71.86567, -38.67264 ], [ -71.88503, -38.6698 ], [ -71.88602, -38.67141 ], [ -71.88674, -38.67212 ], [ -71.88789, -38.67173 ], [ -71.88831, -38.67081 ], [ -71.89245, -38.66998 ] ] } },
{ "type": "Feature", "properties": { "objectid": 661, "volcan": "Llaima", "Shape__Length": 0.021442364551218483 }, "geometry": { "type": "LineString", "coordinates": [ [ -71.86956, -38.44946 ], [ -71.87113, -38.44868 ], [ -71.88177, -38.44618 ], [ -71.88213, -38.44596 ], [ -71.88852, -38.44549 ], [ -71.88831, -38.44357 ] ] } },
{ "type": "Feature", "properties": { "objectid": 662, "volcan": "Llaima", "Shape__Length": 0.11547445966915881 }, "geometry": { "type": "LineString", "coordinates": [ [ -72.00648, -38.68398 ], [ -72.00788, -38.68615 ], [ -72.00993, -38.6873 ], [ -72.01073, -38.68787 ], [ -72.01662, -38.69023 ], [ -72.01871, -38.69154 ], [ -72.02163, -38.69203 ], [ -72.02314, -38.69347 ], [ -72.03223, -38.69596 ], [ -72.03498, -38.69578 ], [ -72.04103, -38.69482 ], [ -72.04374, -38.69396 ], [ -72.05043, -38.69447 ], [ -72.0559, -38.69353 ], [ -72.06148, -38.69509 ], [ -72.06218, -38.70143 ], [ -72.06044, -38.70806 ], [ -72.05821, -38.71017 ], [ -72.06381, -38.71241 ], [ -72.06283, -38.71664 ], [ -72.06845, -38.71569 ], [ -72.07228, -38.71718 ], [ -72.0777, -38.715 ], [ -72.08262, -38.71475 ], [ -72.09167, -38.71292 ] ] } },
{ "type": "Feature", "properties": { "objectid": 663, "volcan": "Llaima", "Shape__Length": 0.044773259896592199 }, "geometry": { "type": "LineString", "coordinates": [ [ -71.96567, -38.66734 ], [ -71.96941, -38.6702 ], [ -71.9752, -38.67016 ], [ -71.98613, -38.67147 ], [ -71.99027, -38.67353 ], [ -71.99383, -38.67889 ], [ -71.99763, -38.67981 ], [ -72.00156, -38.68139 ], [ -72.00199, -38.68177 ], [ -72.00393, -38.68467 ] ] } },
{ "type": "Feature", "properties": { "objectid": 664, "volcan": "Llaima", "Shape__Length": 0.034082793316090161 }, "geometry": { "type": "LineString", "coordinates": [ [ -71.91046, -38.75457 ], [ -71.91583, -38.7493 ], [ -71.92105, -38.74791 ], [ -71.91796, -38.74538 ], [ -71.91997, -38.74407 ], [ -71.91626, -38.743 ], [ -71.91479, -38.74061 ], [ -71.9148, -38.73819 ], [ -71.91805, -38.73353 ] ] } },
{ "type": "Feature", "properties": { "objectid": 665, "volcan": "Llaima", "Shape__Length": 0.028948047979915844 }, "geometry": { "type": "LineString", "coordinates": [ [ -71.97848, -38.68985 ], [ -71.997, -38.68551 ], [ -71.99888, -38.68617 ], [ -72.00035, -38.68633 ], [ -72.00634, -38.6839 ] ] } },
{ "type": "Feature", "properties": { "objectid": 666, "volcan": "Llaima", "Shape__Length": 0.0099238743838506154 }, "geometry": { "type": "LineString", "coordinates": [ [ -71.69844, -38.84512 ], [ -71.6995, -38.84702 ], [ -71.69985, -38.85024 ], [ -71.69825, -38.85445 ] ] } },
{ "type": "Feature", "properties": { "objectid": 667, "volcan": "Llaima", "Shape__Length": 0.01471370880020199 }, "geometry": { "type": "LineString", "coordinates": [ [ -71.68414, -38.84091 ], [ -71.68456, -38.84123 ], [ -71.68553, -38.8413 ], [ -71.68591, -38.84123 ], [ -71.68705, -38.84052 ], [ -71.68811, -38.84042 ], [ -71.68938, -38.84011 ], [ -71.68975, -38.83995 ], [ -71.6901, -38.84001 ], [ -71.69104, -38.83997 ], [ -71.69149, -38.84008 ], [ -71.6918, -38.84019 ], [ -71.69305, -38.84121 ], [ -71.69445, -38.84205 ], [ -71.69569, -38.8425 ], [ -71.69612, -38.84282 ], [ -71.69659, -38.84346 ], [ -71.69662, -38.84418 ] ] } },
{ "type": "Feature", "properties": { "objectid": 668, "volcan": "Llaima", "Shape__Length": 0.019565655262223626 }, "geometry": { "type": "LineString", "coordinates": [ [ -71.66989, -38.84255 ], [ -71.67019, -38.84269 ], [ -71.67043, -38.84304 ], [ -71.67145, -38.84399 ], [ -71.67826, -38.84596 ], [ -71.67864, -38.84596 ], [ -71.67988, -38.84636 ], [ -71.68267, -38.84822 ], [ -71.68493, -38.84954 ], [ -71.68644, -38.85126 ], [ -71.68635, -38.85163 ] ] } },
{ "type": "Feature", "properties": { "objectid": 669, "volcan": "Llaima", "Shape__Length": 0.0077187676677881924 }, "geometry": { "type": "LineString", "coordinates": [ [ -71.68691, -38.8432 ], [ -71.68363, -38.84366 ], [ -71.68347, -38.84419 ], [ -71.68201, -38.84438 ], [ -71.67969, -38.8449 ] ] } },
{ "type": "Feature", "properties": { "objectid": 670, "volcan": "Llaima", "Shape__Length": 0.0049122786548815925 }, "geometry": { "type": "LineString", "coordinates": [ [ -71.75733, -38.87662 ], [ -71.75752, -38.87673 ], [ -71.75798, -38.87681 ], [ -71.76007, -38.87843 ], [ -71.76047, -38.87894 ], [ -71.76091, -38.87976 ] ] } },
{ "type": "Feature", "properties": { "objectid": 671, "volcan": "Llaima", "Shape__Length": 0.010329126243050372 }, "geometry": { "type": "LineString", "coordinates": [ [ -71.77224, -38.88016 ], [ -71.76872, -38.88081 ], [ -71.76771, -38.88088 ], [ -71.76649, -38.88079 ], [ -71.76561, -38.88058 ], [ -71.76512, -38.88018 ], [ -71.76476, -38.8793 ], [ -71.76453, -38.87729 ] ] } },
{ "type": "Feature", "properties": { "objectid": 672, "volcan": "Llaima", "Shape__Length": 0.0056723605920651612 }, "geometry": { "type": "LineString", "coordinates": [ [ -71.76696, -38.86842 ], [ -71.76832, -38.87281 ], [ -71.76843, -38.87388 ] ] } },
{ "type": "Feature", "properties": { "objectid": 673, "volcan": "Llaima", "Shape__Length": 0.0083256549843083259 }, "geometry": { "type": "LineString", "coordinates": [ [ -71.69737, -38.8316 ], [ -71.69682, -38.83236 ], [ -71.69654, -38.83309 ], [ -71.69553, -38.83519 ], [ -71.69523, -38.836 ], [ -71.6952, -38.837 ], [ -71.69529, -38.8377 ], [ -71.69553, -38.83834 ], [ -71.69608, -38.8392 ] ] } },
{ "type": "Feature", "properties": { "objectid": 674, "volcan": "Llaima", "Shape__Length": 0.057985425570188584 }, "geometry": { "type": "LineString", "coordinates": [ [ -71.9206, -38.90127 ], [ -71.92185, -38.90334 ], [ -71.92567, -38.90745 ], [ -71.92749, -38.9092 ], [ -71.93281, -38.9133 ], [ -71.93602, -38.91516 ], [ -71.93673, -38.91541 ], [ -71.93734, -38.91552 ], [ -71.95026, -38.91566 ], [ -71.96654, -38.91869 ], [ -71.97182, -38.91998 ], [ -71.9725, -38.92023 ] ] } },
{ "type": "Feature", "properties": { "objectid": 675, "volcan": "Llaima", "Shape__Length": 0.0005724797821918692 }, "geometry": { "type": "LineString", "coordinates": [ [ -71.6593, -38.81129 ], [ -71.65948, -38.81183 ] ] } },
{ "type": "Feature", "properties": { "objectid": 676, "volcan": "Llaima", "Shape__Length": 0.0078243193728684771 }, "geometry": { "type": "LineString", "coordinates": [ [ -71.67755, -38.83868 ], [ -71.6795, -38.84495 ], [ -71.6795, -38.84621 ] ] } },
{ "type": "Feature", "properties": { "objectid": 677, "volcan": "Llaima", "Shape__Length": 0.0020660626108680445 }, "geometry": { "type": "LineString", "coordinates": [ [ -71.69173, -38.84765 ], [ -71.69107, -38.84821 ], [ -71.69112, -38.8484 ], [ -71.69086, -38.84938 ] ] } },
{ "type": "Feature", "properties": { "objectid": 678, "volcan": "Llaima", "Shape__Length": 0.021309127516208459 }, "geometry": { "type": "LineString", "coordinates": [ [ -71.66425, -38.84002 ], [ -71.66465, -38.8405 ], [ -71.66532, -38.84109 ], [ -71.66793, -38.84282 ], [ -71.67556, -38.84754 ], [ -71.68252, -38.8508 ] ] } },
{ "type": "Feature", "properties": { "objectid": 679, "volcan": "Llaima", "Shape__Length": 0.021055264661776204 }, "geometry": { "type": "LineString", "coordinates": [ [ -71.68254, -38.8508 ], [ -71.70302, -38.85571 ] ] } },
{ "type": "Feature", "properties": { "objectid": 680, "volcan": "Llaima", "Shape__Length": 0.10020484166131631 }, "geometry": { "type": "LineString", "coordinates": [ [ -71.70311, -38.85577 ], [ -71.70899, -38.85718 ], [ -71.70985, -38.85725 ], [ -71.75631, -38.85266 ], [ -71.75753, -38.85242 ], [ -71.7582, -38.85209 ], [ -71.7601, -38.85007 ], [ -71.76094, -38.84964 ], [ -71.76183, -38.84946 ], [ -71.76329, -38.84964 ], [ -71.7685, -38.8508 ], [ -71.77759, -38.85151 ], [ -71.80161, -38.85288 ] ] } },
{ "type": "Feature", "properties": { "objectid": 681, "volcan": "Llaima", "Shape__Length": 0.042806705477126672 }, "geometry": { "type": "LineString", "coordinates": [ [ -71.83679, -38.48616 ], [ -71.84831, -38.48211 ], [ -71.8555, -38.48023 ], [ -71.85339, -38.47286 ], [ -71.85614, -38.46908 ], [ -71.85608, -38.46737 ], [ -71.86349, -38.46206 ] ] } },
{ "type": "Feature", "properties": { "objectid": 682, "volcan": "Llaima", "Shape__Length": 0.029077799181455317 }, "geometry": { "type": "LineString", "coordinates": [ [ -71.78594, -38.56941 ], [ -71.78845, -38.56773 ], [ -71.7891, -38.56572 ], [ -71.79182, -38.5608 ], [ -71.79429, -38.55903 ], [ -71.80149, -38.55715 ], [ -71.80933, -38.55696 ] ] } },
{ "type": "Feature", "properties": { "objectid": 683, "volcan": "Llaima", "Shape__Length": 0.032104136762181934 }, "geometry": { "type": "LineString", "coordinates": [ [ -71.79245, -38.60593 ], [ -71.79316, -38.605 ], [ -71.79366, -38.59899 ], [ -71.79547, -38.58953 ], [ -71.79049, -38.58281 ], [ -71.78785, -38.5803 ], [ -71.78488, -38.57894 ] ] } },
{ "type": "Feature", "properties": { "objectid": 684, "volcan": "Llaima", "Shape__Length": 0.037841915693926073 }, "geometry": { "type": "LineString", "coordinates": [ [ -71.72776, -38.63508 ], [ -71.73235, -38.63155 ], [ -71.74712, -38.61807 ], [ -71.74883, -38.61518 ], [ -71.75631, -38.61075 ] ] } },
{ "type": "Feature", "properties": { "objectid": 685, "volcan": "Llaima", "Shape__Length": 0.054225678760773818 }, "geometry": { "type": "LineString", "coordinates": [ [ -71.75631, -38.61075 ], [ -71.75736, -38.61013 ], [ -71.76362, -38.60256 ], [ -71.77002, -38.59899 ], [ -71.77097, -38.59525 ], [ -71.77298, -38.59064 ], [ -71.7835, -38.58069 ], [ -71.78486, -38.57837 ], [ -71.78391, -38.5724 ], [ -71.78491, -38.5701 ], [ -71.78594, -38.56941 ] ] } },
{ "type": "Feature", "properties": { "objectid": 686, "volcan": "Llaima", "Shape__Length": 0.044886410314237714 }, "geometry": { "type": "LineString", "coordinates": [ [ -71.91837, -38.73319 ], [ -71.92335, -38.73021 ], [ -71.93163, -38.72801 ], [ -71.93714, -38.72901 ], [ -71.93817, -38.72756 ], [ -71.93924, -38.72696 ], [ -71.94321, -38.72601 ], [ -71.95903, -38.71779 ] ] } },
{ "type": "Feature", "properties": { "objectid": 687, "volcan": "Llaima", "Shape__Length": 0.022861357337646156 }, "geometry": { "type": "LineString", "coordinates": [ [ -71.8942, -38.77003 ], [ -71.90118, -38.76133 ], [ -71.90513, -38.7598 ], [ -71.91046, -38.75457 ] ] } },
{ "type": "Feature", "properties": { "objectid": 810, "volcan": "Lonquimay", "Shape__Length": 0.032919966393238187 }, "geometry": { "type": "LineString", "coordinates": [ [ -71.58433, -38.4801 ], [ -71.58543, -38.47969 ], [ -71.5859, -38.479 ], [ -71.58804, -38.47743 ], [ -71.58845, -38.47818 ], [ -71.58851, -38.4794 ], [ -71.58926, -38.48167 ], [ -71.58979, -38.4819 ], [ -71.59164, -38.48155 ], [ -71.59089, -38.48283 ], [ -71.5906, -38.48318 ], [ -71.59118, -38.483 ], [ -71.59164, -38.4826 ], [ -71.5924, -38.4826 ], [ -71.59478, -38.48138 ], [ -71.59518, -38.4808 ], [ -71.59565, -38.48039 ], [ -71.5964, -38.48022 ], [ -71.59692, -38.48039 ], [ -71.59727, -38.48068 ], [ -71.59733, -38.48109 ], [ -71.5978, -38.48155 ], [ -71.59809, -38.48202 ], [ -71.5982, -38.48254 ], [ -71.59739, -38.48196 ], [ -71.59669, -38.48184 ], [ -71.59588, -38.48207 ], [ -71.59536, -38.4826 ], [ -71.59524, -38.48341 ], [ -71.59426, -38.48434 ], [ -71.59443, -38.48521 ], [ -71.59478, -38.48619 ], [ -71.59507, -38.48741 ], [ -71.59588, -38.4873 ] ] } },
{ "type": "Feature", "properties": { "objectid": 811, "volcan": "Lonquimay", "Shape__Length": 0.013516349487612957 }, "geometry": { "type": "LineString", "coordinates": [ [ -71.58021, -38.48056 ], [ -71.57975, -38.48103 ], [ -71.57986, -38.48184 ], [ -71.58073, -38.48289 ], [ -71.58108, -38.48492 ], [ -71.5823, -38.48585 ], [ -71.5834, -38.48619 ], [ -71.58445, -38.48677 ], [ -71.58508, -38.48764 ], [ -71.58532, -38.48834 ], [ -71.58543, -38.48939 ], [ -71.58613, -38.49026 ], [ -71.58642, -38.49095 ] ] } },
{ "type": "Feature", "properties": { "objectid": 812, "volcan": "Lonquimay", "Shape__Length": 0.037053458642991026 }, "geometry": { "type": "LineString", "coordinates": [ [ -71.53605, -38.48169 ], [ -71.53638, -38.48003 ], [ -71.53657, -38.47855 ], [ -71.53719, -38.47812 ], [ -71.54009, -38.47755 ], [ -71.54566, -38.47627 ], [ -71.55561, -38.47379 ], [ -71.55939, -38.47306 ], [ -71.56228, -38.47232 ], [ -71.56961, -38.47169 ] ] } },
{ "type": "Feature", "properties": { "objectid": 813, "volcan": "Lonquimay", "Shape__Length": 0.03071269688585546 }, "geometry": { "type": "LineString", "coordinates": [ [ -71.66893, -38.4693 ], [ -71.67047, -38.46937 ], [ -71.67544, -38.47042 ], [ -71.67577, -38.47061 ], [ -71.67656, -38.47149 ], [ -71.6772, -38.47185 ], [ -71.6782, -38.47213 ], [ -71.67879, -38.4724 ], [ -71.67941, -38.47294 ], [ -71.67991, -38.47325 ], [ -71.68103, -38.47368 ], [ -71.68531, -38.47385 ], [ -71.68648, -38.47373 ], [ -71.68774, -38.47335 ], [ -71.69746, -38.46883 ] ] } },
{ "type": "Feature", "properties": { "objectid": 814, "volcan": "Lonquimay", "Shape__Length": 0.034173606819077815 }, "geometry": { "type": "LineString", "coordinates": [ [ -71.63749, -38.46495 ], [ -71.63838, -38.4661 ], [ -71.641, -38.46806 ], [ -71.64391, -38.46913 ], [ -71.64481, -38.46967 ], [ -71.64522, -38.47002 ], [ -71.64647, -38.47002 ], [ -71.64784, -38.46973 ], [ -71.64891, -38.46913 ], [ -71.64968, -38.46848 ], [ -71.65034, -38.46842 ], [ -71.65159, -38.4686 ], [ -71.65238, -38.46883 ], [ -71.65307, -38.46878 ], [ -71.65552, -38.46771 ], [ -71.65643, -38.46745 ], [ -71.65716, -38.46738 ], [ -71.66435, -38.46769 ], [ -71.66556, -38.46799 ], [ -71.66813, -38.46914 ], [ -71.66893, -38.4693 ] ] } },
{ "type": "Feature", "properties": { "objectid": 815, "volcan": "Lonquimay", "Shape__Length": 0.029684167738453428 }, "geometry": { "type": "LineString", "coordinates": [ [ -71.56991, -38.47169 ], [ -71.57771, -38.47115 ], [ -71.58282, -38.47008 ], [ -71.58919, -38.46842 ], [ -71.59168, -38.46794 ], [ -71.59882, -38.46758 ], [ -71.59918, -38.46748 ] ] } },
{ "type": "Feature", "properties": { "objectid": 816, "volcan": "Lonquimay", "Shape__Length": 0.019939222029369489 }, "geometry": { "type": "LineString", "coordinates": [ [ -71.59918, -38.46748 ], [ -71.60221, -38.46657 ], [ -71.60578, -38.46526 ], [ -71.60947, -38.46443 ], [ -71.61862, -38.46354 ] ] } },
{ "type": "Feature", "properties": { "objectid": 817, "volcan": "Lonquimay", "Shape__Length": 0.040478875552587792 }, "geometry": { "type": "LineString", "coordinates": [ [ -71.51758, -38.4471 ], [ -71.51768, -38.44828 ], [ -71.51711, -38.4519 ], [ -71.51616, -38.45509 ], [ -71.51597, -38.4568 ], [ -71.51611, -38.45899 ], [ -71.51639, -38.46051 ], [ -71.51682, -38.46175 ], [ -71.51849, -38.46475 ], [ -71.52177, -38.46813 ], [ -71.52701, -38.47251 ], [ -71.53514, -38.47846 ], [ -71.53562, -38.4785 ] ] } },
{ "type": "Feature", "properties": { "objectid": 818, "volcan": "Lonquimay", "Shape__Length": 0.052385224898998738 }, "geometry": { "type": "LineString", "coordinates": [ [ -71.54211, -38.40831 ], [ -71.5419, -38.40893 ], [ -71.54233, -38.4104 ], [ -71.54219, -38.41131 ], [ -71.5419, -38.41221 ], [ -71.54185, -38.41402 ], [ -71.54209, -38.41478 ], [ -71.54347, -38.41664 ], [ -71.54447, -38.41864 ], [ -71.54466, -38.4194 ], [ -71.54423, -38.42035 ], [ -71.54404, -38.42149 ], [ -71.54419, -38.42249 ], [ -71.54366, -38.42444 ], [ -71.54285, -38.4262 ], [ -71.54124, -38.42701 ], [ -71.53852, -38.42892 ], [ -71.53776, -38.4302 ], [ -71.53481, -38.43463 ], [ -71.53196, -38.43672 ], [ -71.52429, -38.4421 ], [ -71.52106, -38.44424 ], [ -71.51896, -38.4461 ], [ -71.51758, -38.4471 ] ] } },
{ "type": "Feature", "properties": { "objectid": 819, "volcan": "Lonquimay", "Shape__Length": 0.056436598456825658 }, "geometry": { "type": "LineString", "coordinates": [ [ -71.53486, -38.36515 ], [ -71.536, -38.36529 ], [ -71.53714, -38.36634 ], [ -71.53819, -38.36657 ], [ -71.53957, -38.36714 ], [ -71.54005, -38.36838 ], [ -71.54, -38.36948 ], [ -71.53938, -38.371 ], [ -71.53905, -38.37233 ], [ -71.53919, -38.37362 ], [ -71.54057, -38.37623 ], [ -71.54214, -38.37771 ], [ -71.5449, -38.37828 ], [ -71.5468, -38.37899 ], [ -71.54842, -38.38118 ], [ -71.54975, -38.38337 ], [ -71.55004, -38.38437 ], [ -71.54956, -38.38523 ], [ -71.54842, -38.38656 ], [ -71.54671, -38.38737 ], [ -71.5449, -38.38766 ], [ -71.54452, -38.38799 ], [ -71.54457, -38.38894 ], [ -71.54547, -38.39118 ], [ -71.54576, -38.39379 ], [ -71.54557, -38.3986 ], [ -71.54461, -38.40198 ], [ -71.54428, -38.40365 ], [ -71.54338, -38.40603 ], [ -71.54211, -38.40831 ] ] } },
{ "type": "Feature", "properties": { "objectid": 820, "volcan": "Lonquimay", "Shape__Length": 0.020041360880577935 }, "geometry": { "type": "LineString", "coordinates": [ [ -71.86683, -38.43974 ], [ -71.88072, -38.4372 ], [ -71.88663, -38.43678 ] ] } },
{ "type": "Feature", "properties": { "objectid": 821, "volcan": "Lonquimay", "Shape__Length": 0.029143410594242657 }, "geometry": { "type": "LineString", "coordinates": [ [ -71.83818, -38.44564 ], [ -71.83938, -38.44517 ], [ -71.846, -38.44324 ], [ -71.85594, -38.4417 ], [ -71.86667, -38.43977 ] ] } },
{ "type": "Feature", "properties": { "objectid": 822, "volcan": "Lonquimay", "Shape__Length": 0.031529211279081253 }, "geometry": { "type": "LineString", "coordinates": [ [ -71.81026, -38.45768 ], [ -71.81786, -38.45472 ], [ -71.82045, -38.4524 ], [ -71.8215, -38.4518 ], [ -71.82442, -38.45069 ], [ -71.82602, -38.45031 ], [ -71.82889, -38.44997 ], [ -71.83232, -38.44975 ], [ -71.83447, -38.4492 ], [ -71.83728, -38.44749 ], [ -71.83818, -38.44564 ] ] } },
{ "type": "Feature", "properties": { "objectid": 823, "volcan": "Lonquimay", "Shape__Length": 0.032664661354726524 }, "geometry": { "type": "LineString", "coordinates": [ [ -71.77856, -38.46476 ], [ -71.7822, -38.4641 ], [ -71.78347, -38.4641 ], [ -71.78485, -38.46427 ], [ -71.78573, -38.46383 ], [ -71.78916, -38.46289 ], [ -71.79236, -38.46168 ], [ -71.80312, -38.45919 ], [ -71.81026, -38.45768 ] ] } },
{ "type": "Feature", "properties": { "objectid": 824, "volcan": "Lonquimay", "Shape__Length": 0.031439051820204601 }, "geometry": { "type": "LineString", "coordinates": [ [ -71.7476, -38.4615 ], [ -71.75229, -38.46306 ], [ -71.75339, -38.46289 ], [ -71.75482, -38.46245 ], [ -71.76393, -38.46388 ], [ -71.76923, -38.46444 ], [ -71.77856, -38.46476 ] ] } },
{ "type": "Feature", "properties": { "objectid": 825, "volcan": "Lonquimay", "Shape__Length": 0.048537541546770084 }, "geometry": { "type": "LineString", "coordinates": [ [ -71.70312, -38.46455 ], [ -71.70325, -38.46398 ], [ -71.70357, -38.46338 ], [ -71.70482, -38.46217 ], [ -71.70642, -38.4609 ], [ -71.70774, -38.46035 ], [ -71.7094, -38.46024 ], [ -71.71335, -38.46084 ], [ -71.71479, -38.46132 ], [ -71.71566, -38.46208 ], [ -71.71627, -38.46234 ], [ -71.71922, -38.46278 ], [ -71.72055, -38.46272 ], [ -71.7216, -38.46239 ], [ -71.73059, -38.4582 ], [ -71.73214, -38.45781 ], [ -71.73319, -38.45776 ], [ -71.73943, -38.46057 ], [ -71.74152, -38.46057 ], [ -71.74412, -38.46107 ], [ -71.7476, -38.4615 ] ] } },
{ "type": "Feature", "properties": { "objectid": 826, "volcan": "Lonquimay", "Shape__Length": 0.019451396036966436 }, "geometry": { "type": "LineString", "coordinates": [ [ -71.61886, -38.46353 ], [ -71.62507, -38.46339 ], [ -71.62613, -38.46316 ], [ -71.62791, -38.46228 ], [ -71.62928, -38.46223 ], [ -71.63071, -38.46199 ], [ -71.63151, -38.46207 ], [ -71.63652, -38.46426 ], [ -71.63741, -38.46486 ] ] } },
{ "type": "Feature", "properties": { "objectid": 827, "volcan": "Lonquimay", "Shape__Length": 0.052813779591814519 }, "geometry": { "type": "LineString", "coordinates": [ [ -71.73074, -38.42716 ], [ -71.73148, -38.42835 ], [ -71.73142, -38.42851 ], [ -71.73114, -38.42849 ], [ -71.73126, -38.42914 ], [ -71.73233, -38.42915 ], [ -71.73285, -38.42949 ], [ -71.73318, -38.42997 ], [ -71.73371, -38.43102 ], [ -71.73366, -38.43162 ], [ -71.73402, -38.43272 ], [ -71.73331, -38.43402 ], [ -71.73342, -38.43415 ], [ -71.73343, -38.4344 ], [ -71.73358, -38.43475 ], [ -71.73303, -38.43575 ], [ -71.73292, -38.43624 ], [ -71.73293, -38.43675 ], [ -71.73236, -38.43735 ], [ -71.73202, -38.43743 ], [ -71.73172, -38.43819 ], [ -71.73183, -38.43865 ], [ -71.73235, -38.43881 ], [ -71.73313, -38.43874 ], [ -71.73402, -38.43905 ], [ -71.73492, -38.43959 ], [ -71.73762, -38.43974 ], [ -71.73835, -38.43939 ], [ -71.73913, -38.43923 ], [ -71.73967, -38.43935 ], [ -71.74082, -38.44014 ], [ -71.74133, -38.44026 ], [ -71.74168, -38.44048 ], [ -71.74227, -38.44068 ], [ -71.74319, -38.44166 ], [ -71.74319, -38.44257 ], [ -71.74336, -38.44436 ], [ -71.7432, -38.44741 ], [ -71.74296, -38.44819 ], [ -71.74153, -38.45116 ], [ -71.74053, -38.45511 ], [ -71.74045, -38.45573 ], [ -71.73978, -38.45544 ], [ -71.73926, -38.45552 ], [ -71.73946, -38.45625 ], [ -71.7391, -38.4564 ], [ -71.738, -38.45585 ], [ -71.73713, -38.45601 ], [ -71.73754, -38.45532 ], [ -71.73726, -38.45522 ], [ -71.73364, -38.45553 ], [ -71.73366, -38.45574 ], [ -71.73341, -38.45644 ], [ -71.73366, -38.45676 ], [ -71.73364, -38.45692 ], [ -71.73342, -38.45711 ] ] } },
{ "type": "Feature", "properties": { "objectid": 828, "volcan": "Lonquimay", "Shape__Length": 0.077206368229148725 }, "geometry": { "type": "LineString", "coordinates": [ [ -71.74985, -38.4279 ], [ -71.75218, -38.42933 ], [ -71.75251, -38.4295 ], [ -71.75292, -38.42959 ], [ -71.76094, -38.42983 ], [ -71.76346, -38.42927 ], [ -71.76397, -38.42927 ], [ -71.76576, -38.42981 ], [ -71.76741, -38.43045 ], [ -71.76814, -38.43082 ], [ -71.77219, -38.43144 ], [ -71.77242, -38.43153 ], [ -71.77267, -38.43184 ], [ -71.77355, -38.43235 ], [ -71.77451, -38.43251 ], [ -71.77583, -38.43305 ], [ -71.77772, -38.43409 ], [ -71.78132, -38.43563 ], [ -71.78317, -38.43677 ], [ -71.78713, -38.44006 ], [ -71.78752, -38.44026 ], [ -71.78785, -38.44026 ], [ -71.78854, -38.44048 ], [ -71.78879, -38.44067 ], [ -71.79066, -38.44146 ], [ -71.79176, -38.44208 ], [ -71.79537, -38.44321 ], [ -71.79578, -38.44337 ], [ -71.79698, -38.44408 ], [ -71.79779, -38.4443 ], [ -71.79824, -38.44434 ], [ -71.79925, -38.44413 ], [ -71.8011, -38.44439 ], [ -71.80373, -38.44378 ], [ -71.80515, -38.44355 ], [ -71.80661, -38.44417 ], [ -71.80736, -38.44469 ], [ -71.80774, -38.44478 ], [ -71.81081, -38.44676 ], [ -71.8115, -38.44712 ], [ -71.81621, -38.44935 ], [ -71.82061, -38.45156 ] ] } },
{ "type": "Feature", "properties": { "objectid": 829, "volcan": "Lonquimay", "Shape__Length": 0.069033153944198539 }, "geometry": { "type": "LineString", "coordinates": [ [ -71.51227, -38.44137 ], [ -71.50888, -38.43907 ], [ -71.50798, -38.43828 ], [ -71.50793, -38.43802 ], [ -71.50803, -38.43779 ], [ -71.50841, -38.4374 ], [ -71.5084, -38.437 ], [ -71.508, -38.43653 ], [ -71.50761, -38.43638 ], [ -71.50718, -38.43643 ], [ -71.50681, -38.43634 ], [ -71.50671, -38.43625 ], [ -71.50674, -38.43612 ], [ -71.50713, -38.43584 ], [ -71.50713, -38.43571 ], [ -71.50622, -38.43522 ], [ -71.50512, -38.43512 ], [ -71.50449, -38.43527 ], [ -71.50383, -38.43515 ], [ -71.50353, -38.43521 ], [ -71.50354, -38.43531 ], [ -71.50368, -38.43538 ], [ -71.50423, -38.43547 ], [ -71.50451, -38.4356 ], [ -71.50468, -38.43582 ], [ -71.50462, -38.43593 ], [ -71.5039, -38.43583 ], [ -71.5034, -38.43603 ], [ -71.50288, -38.43609 ], [ -71.50286, -38.43623 ], [ -71.50385, -38.43622 ], [ -71.50398, -38.43628 ], [ -71.50404, -38.43644 ], [ -71.50397, -38.43675 ], [ -71.5048, -38.43748 ], [ -71.50484, -38.43761 ], [ -71.50428, -38.43803 ], [ -71.50349, -38.43826 ], [ -71.50313, -38.4385 ], [ -71.50266, -38.43896 ], [ -71.50205, -38.43898 ], [ -71.50176, -38.43909 ], [ -71.50098, -38.43909 ], [ -71.49995, -38.43839 ], [ -71.49855, -38.43797 ], [ -71.49802, -38.43801 ], [ -71.49725, -38.43841 ], [ -71.49655, -38.43831 ], [ -71.49636, -38.43842 ], [ -71.4963, -38.43861 ], [ -71.49642, -38.43883 ], [ -71.49672, -38.43905 ], [ -71.49669, -38.43919 ], [ -71.49651, -38.43932 ], [ -71.49639, -38.43932 ], [ -71.49626, -38.43891 ], [ -71.49557, -38.43871 ], [ -71.49536, -38.43871 ], [ -71.49475, -38.43907 ], [ -71.49448, -38.43913 ], [ -71.49437, -38.439 ], [ -71.49466, -38.43835 ], [ -71.49458, -38.43807 ], [ -71.4942, -38.43767 ], [ -71.4941, -38.43668 ], [ -71.49381, -38.43647 ], [ -71.49331, -38.43638 ], [ -71.49277, -38.4365 ], [ -71.49145, -38.43662 ], [ -71.49092, -38.43685 ], [ -71.49064, -38.43678 ], [ -71.49056, -38.43636 ], [ -71.49073, -38.43595 ], [ -71.49094, -38.43573 ], [ -71.49162, -38.43533 ], [ -71.49176, -38.4351 ], [ -71.49167, -38.43488 ], [ -71.48986, -38.43414 ], [ -71.48953, -38.43392 ], [ -71.48935, -38.43403 ], [ -71.49048, -38.43485 ], [ -71.49046, -38.43524 ], [ -71.4903, -38.43542 ], [ -71.48993, -38.43558 ], [ -71.48971, -38.43588 ], [ -71.48925, -38.43625 ], [ -71.48844, -38.43644 ], [ -71.48834, -38.43668 ], [ -71.48819, -38.4368 ], [ -71.48801, -38.43675 ], [ -71.48796, -38.43655 ], [ -71.48802, -38.4364 ], [ -71.48816, -38.43628 ], [ -71.48884, -38.436 ], [ -71.48909, -38.43571 ], [ -71.48925, -38.43536 ], [ -71.4892, -38.43506 ], [ -71.48907, -38.43486 ], [ -71.48779, -38.43462 ], [ -71.48765, -38.43452 ], [ -71.48752, -38.43387 ], [ -71.48607, -38.43373 ], [ -71.48515, -38.43342 ], [ -71.48474, -38.43339 ], [ -71.48395, -38.43337 ], [ -71.48265, -38.43369 ], [ -71.48227, -38.43371 ], [ -71.48049, -38.43325 ], [ -71.4784, -38.43302 ], [ -71.47819, -38.43285 ], [ -71.47819, -38.43251 ], [ -71.47864, -38.43203 ], [ -71.47874, -38.43175 ], [ -71.47862, -38.4315 ], [ -71.47811, -38.43144 ], [ -71.4767, -38.4315 ], [ -71.4763, -38.43141 ], [ -71.47527, -38.43167 ], [ -71.47455, -38.43163 ] ] } },
{ "type": "Feature", "properties": { "objectid": 830, "volcan": "Lonquimay", "Shape__Length": 0.053693633735134694 }, "geometry": { "type": "LineString", "coordinates": [ [ -71.43759, -38.42727 ], [ -71.4369, -38.42716 ], [ -71.4356, -38.4268 ], [ -71.43425, -38.42663 ], [ -71.43203, -38.42651 ], [ -71.43153, -38.42636 ], [ -71.43029, -38.42638 ], [ -71.42993, -38.42615 ], [ -71.42772, -38.42549 ], [ -71.42727, -38.42516 ], [ -71.4271, -38.42396 ], [ -71.42681, -38.42362 ], [ -71.42628, -38.42351 ], [ -71.42572, -38.42368 ], [ -71.42504, -38.42402 ], [ -71.42397, -38.42408 ], [ -71.4226, -38.42377 ], [ -71.42207, -38.42425 ], [ -71.42194, -38.42474 ], [ -71.42173, -38.42499 ], [ -71.42114, -38.42492 ], [ -71.42072, -38.4245 ], [ -71.41954, -38.424 ], [ -71.41912, -38.42413 ], [ -71.41845, -38.42514 ], [ -71.41796, -38.42568 ], [ -71.41678, -38.42627 ], [ -71.41367, -38.42743 ], [ -71.41328, -38.42777 ], [ -71.41276, -38.42794 ], [ -71.41206, -38.42844 ], [ -71.41152, -38.42887 ], [ -71.41124, -38.42956 ], [ -71.41088, -38.43015 ], [ -71.41034, -38.43063 ], [ -71.40983, -38.43085 ], [ -71.40895, -38.43152 ], [ -71.40873, -38.43152 ], [ -71.40829, -38.43082 ], [ -71.40812, -38.43036 ], [ -71.40787, -38.43004 ], [ -71.40743, -38.42994 ], [ -71.40566, -38.43061 ], [ -71.40524, -38.43125 ], [ -71.40408, -38.43144 ], [ -71.40292, -38.43209 ], [ -71.40246, -38.43228 ], [ -71.40185, -38.43234 ], [ -71.39997, -38.43323 ], [ -71.39955, -38.43329 ], [ -71.39907, -38.43308 ], [ -71.39864, -38.43264 ], [ -71.39807, -38.43245 ], [ -71.39696, -38.43232 ], [ -71.39645, -38.43238 ], [ -71.3938, -38.43331 ], [ -71.3927, -38.43445 ], [ -71.39244, -38.43494 ] ] } },
{ "type": "Feature", "properties": { "objectid": 831, "volcan": "Lonquimay", "Shape__Length": 0.047789070488795424 }, "geometry": { "type": "LineString", "coordinates": [ [ -71.47449, -38.4316 ], [ -71.47427, -38.43165 ], [ -71.47385, -38.432 ], [ -71.47326, -38.43224 ], [ -71.47196, -38.43236 ], [ -71.47135, -38.4327 ], [ -71.46977, -38.43321 ], [ -71.46882, -38.43329 ], [ -71.46795, -38.4332 ], [ -71.46758, -38.43297 ], [ -71.46758, -38.4323 ], [ -71.46827, -38.42992 ], [ -71.46825, -38.42939 ], [ -71.4681, -38.42927 ], [ -71.46772, -38.42926 ], [ -71.46736, -38.42946 ], [ -71.46703, -38.42988 ], [ -71.46654, -38.43013 ], [ -71.46591, -38.43005 ], [ -71.46559, -38.42966 ], [ -71.46541, -38.42886 ], [ -71.46534, -38.42781 ], [ -71.46578, -38.42669 ], [ -71.46572, -38.42659 ], [ -71.46421, -38.42617 ], [ -71.46233, -38.42661 ], [ -71.46119, -38.42709 ], [ -71.46024, -38.42714 ], [ -71.46003, -38.42792 ], [ -71.45978, -38.4284 ], [ -71.45928, -38.42874 ], [ -71.45869, -38.42874 ], [ -71.45789, -38.42832 ], [ -71.45746, -38.4283 ], [ -71.45595, -38.42916 ], [ -71.45477, -38.42916 ], [ -71.45192, -38.4299 ], [ -71.45091, -38.43004 ], [ -71.44857, -38.43002 ], [ -71.4475, -38.42983 ], [ -71.44609, -38.42926 ], [ -71.44539, -38.42939 ], [ -71.44495, -38.42933 ], [ -71.44219, -38.42836 ], [ -71.44151, -38.42838 ], [ -71.44091, -38.42821 ], [ -71.4388, -38.42718 ], [ -71.43759, -38.42727 ] ] } },
{ "type": "Feature", "properties": { "objectid": 832, "volcan": "Lonquimay", "Shape__Length": 0.035596908621099183 }, "geometry": { "type": "LineString", "coordinates": [ [ -71.39244, -38.43494 ], [ -71.39148, -38.43683 ], [ -71.38999, -38.43784 ], [ -71.38971, -38.43797 ], [ -71.38891, -38.43803 ], [ -71.3883, -38.43818 ], [ -71.38788, -38.43839 ], [ -71.38754, -38.43862 ], [ -71.38735, -38.43887 ], [ -71.38701, -38.43904 ], [ -71.38569, -38.43913 ], [ -71.38409, -38.43963 ], [ -71.38369, -38.43997 ], [ -71.38337, -38.44068 ], [ -71.38297, -38.44127 ], [ -71.38249, -38.4417 ], [ -71.38194, -38.44268 ], [ -71.3813, -38.44304 ], [ -71.38072, -38.44315 ], [ -71.38031, -38.44363 ], [ -71.38004, -38.44462 ], [ -71.37972, -38.44496 ], [ -71.37932, -38.44519 ], [ -71.37878, -38.44526 ], [ -71.37848, -38.44545 ], [ -71.37817, -38.44578 ], [ -71.37823, -38.44597 ], [ -71.37943, -38.44633 ], [ -71.38065, -38.44618 ], [ -71.38149, -38.44597 ], [ -71.38168, -38.44608 ], [ -71.38171, -38.44629 ], [ -71.38141, -38.44667 ], [ -71.38067, -38.44702 ], [ -71.37918, -38.44751 ], [ -71.37817, -38.44802 ], [ -71.37707, -38.44844 ], [ -71.37581, -38.44869 ], [ -71.37503, -38.44867 ], [ -71.37454, -38.44852 ], [ -71.37309, -38.44934 ], [ -71.37179, -38.45195 ] ] } }
]
}
