{
"type": "FeatureCollection",
"name": "PLP",
"crs": { "type": "name", "properties": { "name": "urn:ogc:def:crs:OGC:1.3:CRS84" } },
"xy_coordinate_resolution": 1e-05,
"features": [
{ "type": "Feature", "properties": { "objectid": 801, "volcan": "Descabezado", "Shape__Length": 0.0083598211534947099 }, "geometry": { "type": "LineString", "coordinates": [ [ -71.04043, -35.41645 ], [ -71.04081, -35.41644 ], [ -71.04229, -35.41704 ], [ -71.04281, -35.4175 ], [ -71.04346, -35.41784 ], [ -71.04423, -35.41845 ], [ -71.04529, -35.4189 ], [ -71.04591, -35.4189 ], [ -71.0462, -35.41873 ], [ -71.04795, -35.41812 ] ] } },
{ "type": "Feature", "properties": { "objectid": 802, "volcan": "Descabezado", "Shape__Length": 0.0035519222704138336 }, "geometry": { "type": "LineString", "coordinates": [ [ -71.05342, -35.41533 ], [ -71.05273, -35.41609 ], [ -71.05116, -35.41711 ], [ -71.05057, -35.41736 ] ] } },
{ "type": "Feature", "properties": { "objectid": 803, "volcan": "Descabezado", "Shape__Length": 0.015441603985836645 }, "geometry": { "type": "LineString", "coordinates": [ [ -71.11614, -35.18494 ], [ -71.11475, -35.18583 ], [ -71.11408, -35.18657 ], [ -71.11504, -35.19098 ], [ -71.11558, -35.19276 ], [ -71.11598, -35.19439 ], [ -71.11597, -35.19452 ], [ -71.11551, -35.19465 ], [ -71.11557, -35.19877 ] ] } },
{ "type": "Feature", "properties": { "objectid": 804, "volcan": "Descabezado", "Shape__Length": 0.062530146213662888 }, "geometry": { "type": "LineString", "coordinates": [ [ -71.12578, -35.17899 ], [ -71.12228, -35.17774 ], [ -71.12196, -35.17816 ], [ -71.12091, -35.17766 ], [ -71.11777, -35.18095 ], [ -71.11602, -35.18124 ], [ -71.11447, -35.1812 ], [ -71.1133, -35.18162 ], [ -71.11096, -35.18157 ], [ -71.10965, -35.18123 ], [ -71.10834, -35.18106 ], [ -71.10466, -35.17945 ], [ -71.10275, -35.17979 ], [ -71.10125, -35.18102 ], [ -71.09772, -35.183 ], [ -71.09032, -35.18701 ], [ -71.08885, -35.18749 ], [ -71.08805, -35.18829 ], [ -71.0866, -35.18869 ], [ -71.08472, -35.19015 ], [ -71.08435, -35.19068 ], [ -71.08416, -35.19131 ], [ -71.08339, -35.19209 ], [ -71.07944, -35.19504 ], [ -71.07898, -35.19612 ], [ -71.07864, -35.19738 ], [ -71.07827, -35.19944 ], [ -71.07767, -35.20044 ], [ -71.07615, -35.20166 ], [ -71.07563, -35.20258 ] ] } },
{ "type": "Feature", "properties": { "objectid": 806, "volcan": "Descabezado", "Shape__Length": 0.055119261979505119 }, "geometry": { "type": "LineString", "coordinates": [ [ -71.06341, -35.41329 ], [ -71.06888, -35.4119 ], [ -71.07199, -35.4109 ], [ -71.07406, -35.41009 ], [ -71.07501, -35.4101 ], [ -71.07578, -35.41037 ], [ -71.07615, -35.41041 ], [ -71.0764, -35.41034 ], [ -71.07753, -35.40955 ], [ -71.07799, -35.40935 ], [ -71.07925, -35.40917 ], [ -71.07961, -35.40905 ], [ -71.08035, -35.4084 ], [ -71.08456, -35.40664 ], [ -71.08506, -35.40626 ], [ -71.08713, -35.40374 ], [ -71.08789, -35.40325 ], [ -71.08811, -35.40323 ], [ -71.08861, -35.403 ], [ -71.09013, -35.40179 ], [ -71.09126, -35.40104 ], [ -71.09176, -35.40098 ], [ -71.09254, -35.40102 ], [ -71.09414, -35.40126 ], [ -71.09548, -35.40127 ], [ -71.09569, -35.40105 ], [ -71.09589, -35.40037 ], [ -71.096, -35.39952 ], [ -71.09597, -35.39912 ], [ -71.09557, -35.39841 ], [ -71.09548, -35.39808 ], [ -71.0956, -35.39764 ], [ -71.09607, -35.39723 ], [ -71.0967, -35.39705 ], [ -71.09798, -35.3965 ], [ -71.09896, -35.39633 ], [ -71.09951, -35.39607 ], [ -71.10143, -35.39371 ], [ -71.1018, -35.39314 ], [ -71.10188, -35.39264 ], [ -71.10169, -35.39201 ], [ -71.10117, -35.39102 ], [ -71.10098, -35.39034 ], [ -71.10114, -35.38979 ], [ -71.10174, -35.38896 ], [ -71.10367, -35.38676 ] ] } }
]
}
