{
"type": "FeatureCollection",
"name": "SOL",
"crs": { "type": "name", "properties": { "name": "urn:ogc:def:crs:OGC:1.3:CRS84" } },
"xy_coordinate_resolution": 1e-05,
"features": [
{ "type": "Feature", "properties": { "objectid": 641, "volcan": "Llaima", "Shape__Length": 0.042438978698705283 }, "geometry": { "type": "LineString", "coordinates": [ [ -71.63781, -38.77847 ], [ -71.63962, -38.78085 ], [ -71.64075, -38.78176 ], [ -71.64183, -38.7832 ], [ -71.64321, -38.78396 ], [ -71.64412, -38.78494 ], [ -71.645, -38.78718 ], [ -71.64764, -38.78779 ], [ -71.64721, -38.78948 ], [ -71.64757, -38.79246 ], [ -71.64747, -38.79429 ], [ -71.64802, -38.79462 ], [ -71.64953, -38.79716 ], [ -71.64902, -38.79967 ], [ -71.65592, -38.80738 ], [ -71.65666, -38.80747 ], [ -71.65786, -38.80854 ], [ -71.65913, -38.81096 ] ] } },
{ "type": "Feature", "properties": { "objectid": 642, "volcan": "Llaima", "Shape__Length": 0.015173251038587812 }, "geometry": { "type": "LineString", "coordinates": [ [ -71.64859, -38.83779 ], [ -71.65416, -38.83938 ], [ -71.65613, -38.83938 ], [ -71.6583, -38.83921 ], [ -71.66091, -38.83919 ], [ -71.66347, -38.83977 ] ] } },
{ "type": "Feature", "properties": { "objectid": 643, "volcan": "Llaima", "Shape__Length": 0.12812227793353184 }, "geometry": { "type": "LineString", "coordinates": [ [ -71.80161, -38.85288 ], [ -71.81596, -38.8579 ], [ -71.82586, -38.86084 ], [ -71.83001, -38.86236 ], [ -71.8465, -38.87063 ], [ -71.85267, -38.87481 ], [ -71.86214, -38.87877 ], [ -71.86492, -38.87935 ], [ -71.87897, -38.88357 ], [ -71.88161, -38.88304 ], [ -71.88518, -38.88211 ], [ -71.88832, -38.88152 ], [ -71.89005, -38.8813 ], [ -71.89135, -38.88165 ], [ -71.89498, -38.88308 ], [ -71.91678, -38.89614 ], [ -71.91748, -38.89674 ], [ -71.91837, -38.89806 ] ] } },
{ "type": "Feature", "properties": { "objectid": 644, "volcan": "Llaima", "Shape__Length": 0.022906509505313824 }, "geometry": { "type": "LineString", "coordinates": [ [ -71.74901, -38.83907 ], [ -71.74611, -38.83909 ], [ -71.74516, -38.84078 ], [ -71.74409, -38.84179 ], [ -71.74412, -38.84226 ], [ -71.74466, -38.8426 ], [ -71.7475, -38.84389 ], [ -71.74978, -38.84425 ], [ -71.75015, -38.84471 ], [ -71.75092, -38.84647 ], [ -71.75163, -38.8493 ], [ -71.75217, -38.85023 ], [ -71.75232, -38.85078 ], [ -71.7526, -38.85098 ], [ -71.75349, -38.851 ], [ -71.75388, -38.8527 ] ] } },
{ "type": "Feature", "properties": { "objectid": 645, "volcan": "Llaima", "Shape__Length": 0.0087355616901598973 }, "geometry": { "type": "LineString", "coordinates": [ [ -71.69086, -38.84938 ], [ -71.69936, -38.8514 ] ] } },
{ "type": "Feature", "properties": { "objectid": 646, "volcan": "Llaima", "Shape__Length": 0.024849624389183162 }, "geometry": { "type": "LineString", "coordinates": [ [ -71.68784, -38.83253 ], [ -71.68794, -38.83321 ], [ -71.68878, -38.83383 ], [ -71.68905, -38.83412 ], [ -71.68927, -38.83461 ], [ -71.6903, -38.83571 ], [ -71.69112, -38.83634 ], [ -71.69266, -38.83706 ], [ -71.69433, -38.83754 ], [ -71.69539, -38.83876 ], [ -71.69621, -38.83949 ], [ -71.697, -38.83975 ], [ -71.6977, -38.84382 ], [ -71.69795, -38.84428 ], [ -71.69626, -38.84432 ], [ -71.696, -38.84461 ], [ -71.69596, -38.84536 ], [ -71.69581, -38.84552 ], [ -71.69543, -38.84567 ], [ -71.69521, -38.8457 ], [ -71.69503, -38.84557 ], [ -71.69416, -38.84562 ], [ -71.69348, -38.84556 ], [ -71.69345, -38.84572 ], [ -71.69364, -38.84632 ], [ -71.69315, -38.84663 ], [ -71.69278, -38.84675 ], [ -71.69218, -38.84721 ] ] } },
{ "type": "Feature", "properties": { "objectid": 647, "volcan": "Llaima", "Shape__Length": 0.016172628112427957 }, "geometry": { "type": "LineString", "coordinates": [ [ -71.7128, -38.84142 ], [ -71.71246, -38.842 ], [ -71.71224, -38.84203 ], [ -71.71194, -38.84237 ], [ -71.71151, -38.84363 ], [ -71.71088, -38.84397 ], [ -71.70996, -38.84472 ], [ -71.70849, -38.84509 ], [ -71.70802, -38.84495 ], [ -71.70762, -38.84495 ], [ -71.70595, -38.84414 ], [ -71.69879, -38.84561 ] ] } },
{ "type": "Feature", "properties": { "objectid": 648, "volcan": "Llaima", "Shape__Length": 0.011787951537683698 }, "geometry": { "type": "LineString", "coordinates": [ [ -71.68388, -38.83281 ], [ -71.67761, -38.8335 ], [ -71.67645, -38.83374 ], [ -71.67737, -38.83501 ], [ -71.6774, -38.83773 ] ] } },
{ "type": "Feature", "properties": { "objectid": 649, "volcan": "Llaima", "Shape__Length": 0.084276161311301362 }, "geometry": { "type": "LineString", "coordinates": [ [ -71.83281, -38.8694 ], [ -71.82961, -38.86998 ], [ -71.82701, -38.87062 ], [ -71.82277, -38.87191 ], [ -71.81936, -38.87251 ], [ -71.80284, -38.86909 ], [ -71.79367, -38.86798 ], [ -71.7885, -38.86723 ], [ -71.78667, -38.86722 ], [ -71.78053, -38.86767 ], [ -71.77108, -38.87193 ], [ -71.76574, -38.87627 ], [ -71.7612, -38.87968 ], [ -71.75958, -38.88116 ], [ -71.75825, -38.88205 ], [ -71.75424, -38.8839 ] ] } },
{ "type": "Feature", "properties": { "objectid": 650, "volcan": "Llaima", "Shape__Length": 0.035012411044090523 }, "geometry": { "type": "LineString", "coordinates": [ [ -71.65948, -38.81183 ], [ -71.65898, -38.81238 ], [ -71.65903, -38.81371 ], [ -71.65865, -38.81452 ], [ -71.65951, -38.81611 ], [ -71.66062, -38.81736 ], [ -71.66295, -38.81856 ], [ -71.66296, -38.81906 ], [ -71.6637, -38.81965 ], [ -71.66427, -38.82267 ], [ -71.66268, -38.8263 ], [ -71.65963, -38.83012 ], [ -71.65851, -38.83181 ], [ -71.6582, -38.83246 ], [ -71.65808, -38.83317 ], [ -71.65818, -38.83353 ], [ -71.6588, -38.83436 ], [ -71.65892, -38.83529 ], [ -71.65984, -38.83643 ], [ -71.66053, -38.83707 ], [ -71.6616, -38.83745 ], [ -71.6641, -38.83945 ] ] } },
{ "type": "Feature", "properties": { "objectid": 651, "volcan": "Llaima", "Shape__Length": 0.05194991539282677 }, "geometry": { "type": "LineString", "coordinates": [ [ -71.73436, -38.86652 ], [ -71.7381, -38.8694 ], [ -71.73954, -38.86994 ], [ -71.74055, -38.87 ], [ -71.74205, -38.86966 ], [ -71.74497, -38.86937 ], [ -71.74712, -38.86854 ], [ -71.74779, -38.8686 ], [ -71.75536, -38.86761 ], [ -71.75727, -38.86696 ], [ -71.76183, -38.8668 ], [ -71.7628, -38.86653 ], [ -71.76399, -38.8664 ], [ -71.7662, -38.86636 ], [ -71.76615, -38.866 ], [ -71.7683, -38.86628 ], [ -71.7723, -38.8662 ], [ -71.77275, -38.86604 ], [ -71.7745, -38.8651 ], [ -71.77524, -38.86486 ], [ -71.77604, -38.86486 ], [ -71.77654, -38.86495 ], [ -71.77741, -38.86487 ], [ -71.77972, -38.86566 ], [ -71.78177, -38.86566 ], [ -71.782, -38.86585 ], [ -71.78196, -38.86625 ], [ -71.78174, -38.86685 ], [ -71.78135, -38.86754 ] ] } },
{ "type": "Feature", "properties": { "objectid": 652, "volcan": "Llaima", "Shape__Length": 0.062426441291565771 }, "geometry": { "type": "LineString", "coordinates": [ [ -71.97258, -38.92027 ], [ -71.97548, -38.92173 ], [ -71.97626, -38.92195 ], [ -71.97702, -38.92206 ], [ -71.98285, -38.92188 ], [ -71.98461, -38.92157 ], [ -71.99174, -38.91944 ], [ -71.99265, -38.9193 ], [ -71.99354, -38.91936 ], [ -71.9942, -38.91961 ], [ -71.99478, -38.91999 ], [ -71.99629, -38.92152 ], [ -71.99964, -38.92359 ], [ -72.00026, -38.92412 ], [ -72.00226, -38.92619 ], [ -72.00323, -38.92685 ], [ -72.00594, -38.92797 ], [ -72.00847, -38.92881 ], [ -72.01398, -38.93041 ], [ -72.02551, -38.93031 ], [ -72.02653, -38.93237 ], [ -72.02967, -38.93179 ] ] } },
{ "type": "Feature", "properties": { "objectid": 653, "volcan": "Llaima", "Shape__Length": 0.047517463629311814 }, "geometry": { "type": "LineString", "coordinates": [ [ -71.86229, -38.83387 ], [ -71.86468, -38.83895 ], [ -71.86552, -38.84178 ], [ -71.86105, -38.84812 ], [ -71.86091, -38.84901 ], [ -71.86236, -38.85437 ], [ -71.86468, -38.85698 ], [ -71.86516, -38.85799 ], [ -71.86474, -38.85972 ], [ -71.86337, -38.86347 ], [ -71.85855, -38.87316 ], [ -71.85748, -38.87453 ], [ -71.85647, -38.87602 ] ] } },
{ "type": "Feature", "properties": { "objectid": 654, "volcan": "Llaima", "Shape__Length": 0.14870346880712523 }, "geometry": { "type": "LineString", "coordinates": [ [ -71.85195, -38.64781 ], [ -71.85648, -38.65198 ], [ -71.86261, -38.6504 ], [ -71.86993, -38.65165 ], [ -71.87199, -38.65759 ], [ -71.87454, -38.65752 ], [ -71.87798, -38.66172 ], [ -71.87696, -38.66346 ], [ -71.88038, -38.66708 ], [ -71.88697, -38.66806 ], [ -71.89426, -38.66845 ], [ -71.89322, -38.66962 ], [ -71.89806, -38.67235 ], [ -71.90683, -38.67328 ], [ -71.90834, -38.67466 ], [ -71.91855, -38.67498 ], [ -71.9216, -38.67833 ], [ -71.92599, -38.67907 ], [ -71.93036, -38.67896 ], [ -71.93419, -38.6796 ], [ -71.93566, -38.68018 ], [ -71.93607, -38.68056 ], [ -71.93743, -38.68131 ], [ -71.93811, -38.68159 ], [ -71.94034, -38.68171 ], [ -71.94079, -38.68188 ], [ -71.94142, -38.68243 ], [ -71.94193, -38.68272 ], [ -71.94233, -38.68284 ], [ -71.94376, -38.68267 ], [ -71.94428, -38.68296 ], [ -71.9541, -38.68094 ], [ -71.95995, -38.68164 ], [ -71.96964, -38.6871 ], [ -71.97343, -38.69072 ], [ -71.97813, -38.68974 ] ] } },
{ "type": "Feature", "properties": { "objectid": 655, "volcan": "Llaima", "Shape__Length": 0.041698057373491741 }, "geometry": { "type": "LineString", "coordinates": [ [ -71.95903, -38.71779 ], [ -71.97209, -38.71101 ], [ -71.97408, -38.70639 ], [ -71.97262, -38.70614 ], [ -71.97392, -38.7024 ], [ -71.97713, -38.70089 ], [ -71.97583, -38.69579 ], [ -71.97573, -38.69351 ], [ -71.97758, -38.69403 ], [ -71.97816, -38.6906 ] ] } },
{ "type": "Feature", "properties": { "objectid": 656, "volcan": "Llaima", "Shape__Length": 0.038755142228169476 }, "geometry": { "type": "LineString", "coordinates": [ [ -71.77852, -38.64016 ], [ -71.78526, -38.6263 ], [ -71.78442, -38.62347 ], [ -71.7851, -38.62203 ], [ -71.7842, -38.61777 ], [ -71.78693, -38.61314 ], [ -71.79245, -38.60593 ] ] } },
{ "type": "Feature", "properties": { "objectid": 659, "volcan": "Llaima", "Shape__Length": 0.037363755539557314 }, "geometry": { "type": "LineString", "coordinates": [ [ -71.81644, -38.58646 ], [ -71.81774, -38.58244 ], [ -71.8197, -38.57697 ], [ -71.81894, -38.57613 ], [ -71.82018, -38.57068 ], [ -71.81979, -38.56983 ], [ -71.82107, -38.56552 ], [ -71.82097, -38.56296 ], [ -71.81867, -38.55987 ], [ -71.81887, -38.55559 ], [ -71.81735, -38.55391 ], [ -71.81516, -38.55368 ] ] } },
{ "type": "Feature", "properties": { "objectid": 660, "volcan": "Llaima", "Shape__Length": 0.051568197631510791 }, "geometry": { "type": "LineString", "coordinates": [ [ -71.84804, -38.68397 ], [ -71.85213, -38.68187 ], [ -71.85376, -38.6822 ], [ -71.85533, -38.68089 ], [ -71.86395, -38.67613 ], [ -71.86386, -38.67377 ], [ -71.86567, -38.67264 ], [ -71.88503, -38.6698 ], [ -71.88602, -38.67141 ], [ -71.88674, -38.67212 ], [ -71.88789, -38.67173 ], [ -71.88831, -38.67081 ], [ -71.89245, -38.66998 ] ] } },
{ "type": "Feature", "properties": { "objectid": 664, "volcan": "Llaima", "Shape__Length": 0.034082793316090161 }, "geometry": { "type": "LineString", "coordinates": [ [ -71.91046, -38.75457 ], [ -71.91583, -38.7493 ], [ -71.92105, -38.74791 ], [ -71.91796, -38.74538 ], [ -71.91997, -38.74407 ], [ -71.91626, -38.743 ], [ -71.91479, -38.74061 ], [ -71.9148, -38.73819 ], [ -71.91805, -38.73353 ] ] } },
{ "type": "Feature", "properties": { "objectid": 666, "volcan": "Llaima", "Shape__Length": 0.0099238743838506154 }, "geometry": { "type": "LineString", "coordinates": [ [ -71.69844, -38.84512 ], [ -71.6995, -38.84702 ], [ -71.69985, -38.85024 ], [ -71.69825, -38.85445 ] ] } },
{ "type": "Feature", "properties": { "objectid": 667, "volcan": "Llaima", "Shape__Length": 0.01471370880020199 }, "geometry": { "type": "LineString", "coordinates": [ [ -71.68414, -38.84091 ], [ -71.68456, -38.84123 ], [ -71.68553, -38.8413 ], [ -71.68591, -38.84123 ], [ -71.68705, -38.84052 ], [ -71.68811, -38.84042 ], [ -71.68938, -38.84011 ], [ -71.68975, -38.83995 ], [ -71.6901, -38.84001 ], [ -71.69104, -38.83997 ], [ -71.69149, -38.84008 ], [ -71.6918, -38.84019 ], [ -71.69305, -38.84121 ], [ -71.69445, -38.84205 ], [ -71.69569, -38.8425 ], [ -71.69612, -38.84282 ], [ -71.69659, -38.84346 ], [ -71.69662, -38.84418 ] ] } },
{ "type": "Feature", "properties": { "objectid": 668, "volcan": "Llaima", "Shape__Length": 0.019565655262223626 }, "geometry": { "type": "LineString", "coordinates": [ [ -71.66989, -38.84255 ], [ -71.67019, -38.84269 ], [ -71.67043, -38.84304 ], [ -71.67145, -38.84399 ], [ -71.67826, -38.84596 ], [ -71.67864, -38.84596 ], [ -71.67988, -38.84636 ], [ -71.68267, -38.84822 ], [ -71.68493, -38.84954 ], [ -71.68644, -38.85126 ], [ -71.68635, -38.85163 ] ] } },
{ "type": "Feature", "properties": { "objectid": 669, "volcan": "Llaima", "Shape__Length": 0.0077187676677881924 }, "geometry": { "type": "LineString", "coordinates": [ [ -71.68691, -38.8432 ], [ -71.68363, -38.84366 ], [ -71.68347, -38.84419 ], [ -71.68201, -38.84438 ], [ -71.67969, -38.8449 ] ] } },
{ "type": "Feature", "properties": { "objectid": 670, "volcan": "Llaima", "Shape__Length": 0.0049122786548815925 }, "geometry": { "type": "LineString", "coordinates": [ [ -71.75733, -38.87662 ], [ -71.75752, -38.87673 ], [ -71.75798, -38.87681 ], [ -71.76007, -38.87843 ], [ -71.76047, -38.87894 ], [ -71.76091, -38.87976 ] ] } },
{ "type": "Feature", "properties": { "objectid": 671, "volcan": "Llaima", "Shape__Length": 0.010329126243050372 }, "geometry": { "type": "LineString", "coordinates": [ [ -71.77224, -38.88016 ], [ -71.76872, -38.88081 ], [ -71.76771, -38.88088 ], [ -71.76649, -38.88079 ], [ -71.76561, -38.88058 ], [ -71.76512, -38.88018 ], [ -71.76476, -38.8793 ], [ -71.76453, -38.87729 ] ] } },
{ "type": "Feature", "properties": { "objectid": 672, "volcan": "Llaima", "Shape__Length": 0.0056723605920651612 }, "geometry": { "type": "LineString", "coordinates": [ [ -71.76696, -38.86842 ], [ -71.76832, -38.87281 ], [ -71.76843, -38.87388 ] ] } },
{ "type": "Feature", "properties": { "objectid": 673, "volcan": "Llaima", "Shape__Length": 0.0083256549843083259 }, "geometry": { "type": "LineString", "coordinates": [ [ -71.69737, -38.8316 ], [ -71.69682, -38.83236 ], [ -71.69654, -38.83309 ], [ -71.69553, -38.83519 ], [ -71.69523, -38.836 ], [ -71.6952, -38.837 ], [ -71.69529, -38.8377 ], [ -71.69553, -38.83834 ], [ -71.69608, -38.8392 ] ] } },
{ "type": "Feature", "properties": { "objectid": 674, "volcan": "Llaima", "Shape__Length": 0.057985425570188584 }, "geometry": { "type": "LineString", "coordinates": [ [ -71.9206, -38.90127 ], [ -71.92185, -38.90334 ], [ -71.92567, -38.90745 ], [ -71.92749, -38.9092 ], [ -71.93281, -38.9133 ], [ -71.93602, -38.91516 ], [ -71.93673, -38.91541 ], [ -71.93734, -38.91552 ], [ -71.95026, -38.91566 ], [ -71.96654, -38.91869 ], [ -71.97182, -38.91998 ], [ -71.9725, -38.92023 ] ] } },
{ "type": "Feature", "properties": { "objectid": 675, "volcan": "Llaima", "Shape__Length": 0.0005724797821918692 }, "geometry": { "type": "LineString", "coordinates": [ [ -71.6593, -38.81129 ], [ -71.65948, -38.81183 ] ] } },
{ "type": "Feature", "properties": { "objectid": 676, "volcan": "Llaima", "Shape__Length": 0.0078243193728684771 }, "geometry": { "type": "LineString", "coordinates": [ [ -71.67755, -38.83868 ], [ -71.6795, -38.84495 ], [ -71.6795, -38.84621 ] ] } },
{ "type": "Feature", "properties": { "objectid": 677, "volcan": "Llaima", "Shape__Length": 0.0020660626108680445 }, "geometry": { "type": "LineString", "coordinates": [ [ -71.69173, -38.84765 ], [ -71.69107, -38.84821 ], [ -71.69112, -38.8484 ], [ -71.69086, -38.84938 ] ] } },
{ "type": "Feature", "properties": { "objectid": 678, "volcan": "Llaima", "Shape__Length": 0.021309127516208459 }, "geometry": { "type": "LineString", "coordinates": [ [ -71.66425, -38.84002 ], [ -71.66465, -38.8405 ], [ -71.66532, -38.84109 ], [ -71.66793, -38.84282 ], [ -71.67556, -38.84754 ], [ -71.68252, -38.8508 ] ] } },
{ "type": "Feature", "properties": { "objectid": 679, "volcan": "Llaima", "Shape__Length": 0.021055264661776204 }, "geometry": { "type": "LineString", "coordinates": [ [ -71.68254, -38.8508 ], [ -71.70302, -38.85571 ] ] } },
{ "type": "Feature", "properties": { "objectid": 680, "volcan": "Llaima", "Shape__Length": 0.10020484166131631 }, "geometry": { "type": "LineString", "coordinates": [ [ -71.70311, -38.85577 ], [ -71.70899, -38.85718 ], [ -71.70985, -38.85725 ], [ -71.75631, -38.85266 ], [ -71.75753, -38.85242 ], [ -71.7582, -38.85209 ], [ -71.7601, -38.85007 ], [ -71.76094, -38.84964 ], [ -71.76183, -38.84946 ], [ -71.76329, -38.84964 ], [ -71.7685, -38.8508 ], [ -71.77759, -38.85151 ], [ -71.80161, -38.85288 ] ] } },
{ "type": "Feature", "properties": { "objectid": 683, "volcan": "Llaima", "Shape__Length": 0.032104136762181934 }, "geometry": { "type": "LineString", "coordinates": [ [ -71.79245, -38.60593 ], [ -71.79316, -38.605 ], [ -71.79366, -38.59899 ], [ -71.79547, -38.58953 ], [ -71.79049, -38.58281 ], [ -71.78785, -38.5803 ], [ -71.78488, -38.57894 ] ] } },
{ "type": "Feature", "properties": { "objectid": 684, "volcan": "Llaima", "Shape__Length": 0.037841915693926073 }, "geometry": { "type": "LineString", "coordinates": [ [ -71.72776, -38.63508 ], [ -71.73235, -38.63155 ], [ -71.74712, -38.61807 ], [ -71.74883, -38.61518 ], [ -71.75631, -38.61075 ] ] } },
{ "type": "Feature", "properties": { "objectid": 685, "volcan": "Llaima", "Shape__Length": 0.054225678760773818 }, "geometry": { "type": "LineString", "coordinates": [ [ -71.75631, -38.61075 ], [ -71.75736, -38.61013 ], [ -71.76362, -38.60256 ], [ -71.77002, -38.59899 ], [ -71.77097, -38.59525 ], [ -71.77298, -38.59064 ], [ -71.7835, -38.58069 ], [ -71.78486, -38.57837 ], [ -71.78391, -38.5724 ], [ -71.78491, -38.5701 ], [ -71.78594, -38.56941 ] ] } },
{ "type": "Feature", "properties": { "objectid": 686, "volcan": "Llaima", "Shape__Length": 0.044886410314237714 }, "geometry": { "type": "LineString", "coordinates": [ [ -71.91837, -38.73319 ], [ -71.92335, -38.73021 ], [ -71.93163, -38.72801 ], [ -71.93714, -38.72901 ], [ -71.93817, -38.72756 ], [ -71.93924, -38.72696 ], [ -71.94321, -38.72601 ], [ -71.95903, -38.71779 ] ] } },
{ "type": "Feature", "properties": { "objectid": 687, "volcan": "Llaima", "Shape__Length": 0.022861357337646156 }, "geometry": { "type": "LineString", "coordinates": [ [ -71.8942, -38.77003 ], [ -71.90118, -38.76133 ], [ -71.90513, -38.7598 ], [ -71.91046, -38.75457 ] ] } }
]
}
