{
"type": "FeatureCollection",
"name": "TAA",
"crs": { "type": "name", "properties": { "name": "urn:ogc:def:crs:OGC:1.3:CRS84" } },
"xy_coordinate_resolution": 1e-05,
"features": [
{ "type": "Feature", "properties": { "objectid": 772, "volcan": "Taapacá", "Shape__Length": 0.053175537177053908 }, "geometry": { "type": "LineString", "coordinates": [ [ -69.56662, -18.03318 ], [ -69.56864, -18.02977 ], [ -69.57057, -18.02765 ], [ -69.57153, -18.02605 ], [ -69.57336, -18.02436 ], [ -69.57757, -18.02073 ], [ -69.58347, -18.01501 ], [ -69.58734, -18.01201 ], [ -69.58951, -18.01113 ], [ -69.59097, -18.01097 ], [ -69.59338, -18.01029 ], [ -69.59831, -18.00979 ], [ -69.60213, -18.00868 ], [ -69.60459, -18.0085 ], [ -69.6072, -18.0085 ], [ -69.61014, -18.00798 ] ] } },
{ "type": "Feature", "properties": { "objectid": 773, "volcan": "Taapacá", "Shape__Length": 0.085363820498581849 }, "geometry": { "type": "LineString", "coordinates": [ [ -69.50232, -18.17748 ], [ -69.50946, -18.18115 ], [ -69.51031, -18.18148 ], [ -69.5126, -18.18141 ], [ -69.513, -18.1811 ], [ -69.5131, -18.1807 ], [ -69.51288, -18.1803 ], [ -69.5122, -18.17981 ], [ -69.51218, -18.17926 ], [ -69.5128, -18.17816 ], [ -69.51328, -18.17771 ], [ -69.51378, -18.17771 ], [ -69.51437, -18.17792 ], [ -69.51869, -18.18212 ], [ -69.5197, -18.18424 ], [ -69.51965, -18.18485 ], [ -69.51936, -18.18527 ], [ -69.5188, -18.18563 ], [ -69.51883, -18.18603 ], [ -69.51972, -18.18636 ], [ -69.52012, -18.18667 ], [ -69.52022, -18.18735 ], [ -69.5205, -18.18804 ], [ -69.52093, -18.18858 ], [ -69.52147, -18.18881 ], [ -69.52277, -18.1887 ], [ -69.52354, -18.18886 ], [ -69.52458, -18.18992 ], [ -69.52597, -18.19075 ], [ -69.52758, -18.19256 ], [ -69.52897, -18.19591 ], [ -69.52916, -18.19662 ], [ -69.52876, -18.19707 ], [ -69.52711, -18.19721 ], [ -69.52685, -18.19773 ], [ -69.52696, -18.19827 ], [ -69.52744, -18.19853 ], [ -69.52819, -18.19853 ], [ -69.52878, -18.19881 ], [ -69.52911, -18.19926 ], [ -69.52909, -18.19981 ], [ -69.52854, -18.2004 ], [ -69.52685, -18.20134 ], [ -69.52595, -18.20153 ], [ -69.52586, -18.20174 ], [ -69.5272, -18.20311 ], [ -69.5276, -18.20341 ], [ -69.52861, -18.20332 ], [ -69.52918, -18.20365 ], [ -69.52944, -18.2044 ], [ -69.52994, -18.20499 ], [ -69.53012, -18.20542 ], [ -69.52972, -18.20636 ], [ -69.52918, -18.20683 ], [ -69.52821, -18.20709 ], [ -69.52793, -18.20728 ], [ -69.5281, -18.20754 ], [ -69.52996, -18.20747 ], [ -69.53079, -18.20702 ], [ -69.53186, -18.20615 ], [ -69.53227, -18.20615 ], [ -69.53274, -18.20627 ], [ -69.53317, -18.20657 ], [ -69.53354, -18.20719 ], [ -69.53321, -18.20813 ], [ -69.53331, -18.20851 ], [ -69.5338, -18.20853 ], [ -69.53456, -18.20827 ], [ -69.53508, -18.20747 ], [ -69.53574, -18.207 ], [ -69.53722, -18.207 ], [ -69.53876, -18.20738 ], [ -69.53986, -18.20818 ], [ -69.54041, -18.2082 ], [ -69.54093, -18.20811 ], [ -69.54208, -18.2086 ], [ -69.54251, -18.20896 ], [ -69.54262, -18.2095 ], [ -69.54286, -18.20971 ], [ -69.54319, -18.20959 ], [ -69.54359, -18.20874 ], [ -69.54411, -18.20832 ], [ -69.54485, -18.20795 ] ] } },
{ "type": "Feature", "properties": { "objectid": 774, "volcan": "Taapacá", "Shape__Length": 0.016602451679244401 }, "geometry": { "type": "LineString", "coordinates": [ [ -69.54788, -18.19654 ], [ -69.54685, -18.19582 ], [ -69.5464, -18.19569 ], [ -69.54611, -18.19571 ], [ -69.54613, -18.19607 ], [ -69.54624, -18.19629 ], [ -69.54622, -18.19654 ], [ -69.54611, -18.19708 ], [ -69.54577, -18.19748 ], [ -69.54404, -18.19883 ], [ -69.54256, -18.1991 ], [ -69.54207, -18.19932 ], [ -69.54203, -18.19948 ], [ -69.54214, -18.19981 ], [ -69.54265, -18.2006 ], [ -69.54268, -18.2008 ], [ -69.54245, -18.20156 ], [ -69.54216, -18.20186 ], [ -69.54187, -18.20239 ], [ -69.54084, -18.2047 ], [ -69.54039, -18.20488 ], [ -69.53969, -18.20488 ], [ -69.53857, -18.2053 ] ] } },
{ "type": "Feature", "properties": { "objectid": 775, "volcan": "Taapacá", "Shape__Length": 0.011320845265793829 }, "geometry": { "type": "LineString", "coordinates": [ [ -69.55804, -18.19762 ], [ -69.55526, -18.19681 ], [ -69.5545, -18.19681 ], [ -69.55302, -18.19802 ], [ -69.5523, -18.19842 ], [ -69.55165, -18.19849 ], [ -69.551, -18.19833 ], [ -69.54788, -18.19654 ] ] } },
{ "type": "Feature", "properties": { "objectid": 776, "volcan": "Taapacá", "Shape__Length": 0.0094149241036118169 }, "geometry": { "type": "LineString", "coordinates": [ [ -69.53857, -18.2053 ], [ -69.53835, -18.20533 ], [ -69.53815, -18.20551 ], [ -69.53815, -18.20578 ], [ -69.53832, -18.20585 ], [ -69.53864, -18.20636 ], [ -69.54028, -18.20715 ], [ -69.54171, -18.20798 ], [ -69.54216, -18.20811 ], [ -69.54297, -18.20802 ], [ -69.54342, -18.20811 ], [ -69.54416, -18.20778 ], [ -69.54496, -18.20753 ], [ -69.5455, -18.2071 ], [ -69.54579, -18.20707 ] ] } },
{ "type": "Feature", "properties": { "objectid": 777, "volcan": "Taapacá", "Shape__Length": 0.0039122563314688075 }, "geometry": { "type": "LineString", "coordinates": [ [ -69.54579, -18.20707 ], [ -69.54676, -18.2074 ], [ -69.54837, -18.20726 ], [ -69.54954, -18.20677 ] ] } },
{ "type": "Feature", "properties": { "objectid": 778, "volcan": "Taapacá", "Shape__Length": 0.017476029232475324 }, "geometry": { "type": "LineString", "coordinates": [ [ -69.54485, -18.20795 ], [ -69.54536, -18.20778 ], [ -69.54586, -18.20775 ], [ -69.54623, -18.20804 ], [ -69.54652, -18.20867 ], [ -69.54699, -18.20877 ], [ -69.5488, -18.20757 ], [ -69.5497, -18.20677 ], [ -69.5502, -18.20645 ], [ -69.5542, -18.2044 ], [ -69.55468, -18.20431 ], [ -69.55508, -18.20448 ], [ -69.55708, -18.20606 ], [ -69.5577, -18.20686 ], [ -69.55876, -18.20749 ], [ -69.55911, -18.20799 ] ] } },
{ "type": "Feature", "properties": { "objectid": 779, "volcan": "Taapacá", "Shape__Length": 0.075845714774609996 }, "geometry": { "type": "LineString", "coordinates": [ [ -69.5615, -18.2576 ], [ -69.56123, -18.25881 ], [ -69.56037, -18.26111 ], [ -69.55904, -18.26292 ], [ -69.55894, -18.2633 ], [ -69.55913, -18.26368 ], [ -69.56056, -18.26492 ], [ -69.56094, -18.26549 ], [ -69.56113, -18.26749 ], [ -69.56132, -18.26796 ], [ -69.56228, -18.26796 ], [ -69.56294, -18.26682 ], [ -69.56389, -18.26615 ], [ -69.56446, -18.26606 ], [ -69.56561, -18.26701 ], [ -69.56627, -18.2672 ], [ -69.56741, -18.26825 ], [ -69.56789, -18.26844 ], [ -69.56894, -18.26825 ], [ -69.5697, -18.26844 ], [ -69.57017, -18.26958 ], [ -69.57075, -18.26977 ], [ -69.57113, -18.26948 ], [ -69.57189, -18.27034 ], [ -69.57246, -18.27053 ], [ -69.57379, -18.26967 ], [ -69.57427, -18.26977 ], [ -69.57455, -18.27044 ], [ -69.57512, -18.27053 ], [ -69.57598, -18.27034 ], [ -69.57665, -18.27034 ], [ -69.5776, -18.27015 ], [ -69.57846, -18.27091 ], [ -69.57912, -18.27091 ], [ -69.57941, -18.27139 ], [ -69.5795, -18.27234 ], [ -69.58055, -18.2731 ], [ -69.58074, -18.27377 ], [ -69.58026, -18.27462 ], [ -69.5795, -18.27539 ], [ -69.5795, -18.27586 ], [ -69.58083, -18.27634 ], [ -69.58122, -18.27662 ], [ -69.58112, -18.27796 ], [ -69.58131, -18.27805 ], [ -69.58283, -18.27777 ], [ -69.58331, -18.27777 ], [ -69.58398, -18.279 ], [ -69.58407, -18.27948 ], [ -69.58379, -18.28157 ], [ -69.58388, -18.28233 ], [ -69.58455, -18.283 ], [ -69.58578, -18.28329 ], [ -69.58702, -18.28528 ], [ -69.58693, -18.28595 ], [ -69.58559, -18.28747 ], [ -69.5855, -18.28804 ], [ -69.58607, -18.28843 ], [ -69.58788, -18.28938 ], [ -69.58826, -18.28995 ], [ -69.58921, -18.29366 ], [ -69.59226, -18.29509 ], [ -69.59492, -18.29575 ], [ -69.59511, -18.29632 ], [ -69.59502, -18.29709 ], [ -69.59435, -18.2987 ], [ -69.59433, -18.30023 ] ] } },
{ "type": "Feature", "properties": { "objectid": 780, "volcan": "Taapacá", "Shape__Length": 0.066869980314863353 }, "geometry": { "type": "LineString", "coordinates": [ [ -69.55911, -18.20811 ], [ -69.55916, -18.20917 ], [ -69.5606, -18.21042 ], [ -69.56107, -18.21058 ], [ -69.56258, -18.21025 ], [ -69.5631, -18.21028 ], [ -69.56354, -18.21051 ], [ -69.56369, -18.2111 ], [ -69.56345, -18.2115 ], [ -69.56204, -18.21231 ], [ -69.56166, -18.21299 ], [ -69.56161, -18.21367 ], [ -69.5617, -18.21466 ], [ -69.56149, -18.21558 ], [ -69.56102, -18.21654 ], [ -69.56012, -18.21735 ], [ -69.55991, -18.21948 ], [ -69.56031, -18.22016 ], [ -69.56043, -18.22103 ], [ -69.56001, -18.22202 ], [ -69.55957, -18.22274 ], [ -69.55953, -18.22337 ], [ -69.5597, -18.22391 ], [ -69.56047, -18.2248 ], [ -69.56069, -18.22556 ], [ -69.5606, -18.22628 ], [ -69.56032, -18.22683 ], [ -69.5597, -18.22731 ], [ -69.55639, -18.22776 ], [ -69.55545, -18.22839 ], [ -69.5546, -18.22915 ], [ -69.55348, -18.22928 ], [ -69.55262, -18.22897 ], [ -69.552, -18.22839 ], [ -69.55115, -18.22628 ], [ -69.54958, -18.22453 ], [ -69.54855, -18.22373 ], [ -69.54725, -18.22364 ], [ -69.54622, -18.224 ], [ -69.5455, -18.22537 ], [ -69.54577, -18.22615 ], [ -69.54586, -18.22709 ], [ -69.54537, -18.22785 ], [ -69.54465, -18.22843 ], [ -69.54438, -18.22906 ], [ -69.54442, -18.22987 ], [ -69.54546, -18.23197 ], [ -69.54559, -18.23291 ], [ -69.54519, -18.23363 ], [ -69.54425, -18.23462 ], [ -69.54384, -18.23515 ], [ -69.54384, -18.23596 ], [ -69.54411, -18.23668 ], [ -69.54487, -18.23721 ], [ -69.54644, -18.23744 ], [ -69.54808, -18.23838 ], [ -69.54877, -18.23865 ], [ -69.54976, -18.23946 ], [ -69.54998, -18.24004 ], [ -69.54976, -18.24111 ], [ -69.54806, -18.24233 ] ] } },
{ "type": "Feature", "properties": { "objectid": 781, "volcan": "Taapacá", "Shape__Length": 0.061420246881568892 }, "geometry": { "type": "LineString", "coordinates": [ [ -69.59433, -18.30023 ], [ -69.59426, -18.30527 ], [ -69.59702, -18.30927 ], [ -69.59711, -18.31003 ], [ -69.59635, -18.32117 ], [ -69.59606, -18.32164 ], [ -69.59426, -18.3225 ], [ -69.58873, -18.3225 ], [ -69.58797, -18.32259 ], [ -69.58769, -18.32307 ], [ -69.58674, -18.32745 ], [ -69.5855, -18.32792 ], [ -69.58398, -18.32707 ], [ -69.58283, -18.32659 ], [ -69.58226, -18.3265 ], [ -69.58217, -18.32764 ], [ -69.58226, -18.32859 ], [ -69.58207, -18.32926 ], [ -69.5816, -18.32964 ], [ -69.57893, -18.32973 ], [ -69.57827, -18.33011 ], [ -69.57827, -18.33068 ], [ -69.57865, -18.33116 ], [ -69.58122, -18.33192 ], [ -69.58198, -18.33297 ], [ -69.58207, -18.33355 ], [ -69.58154, -18.33505 ], [ -69.58158, -18.33526 ], [ -69.58182, -18.33548 ], [ -69.58234, -18.33554 ], [ -69.58329, -18.33536 ], [ -69.5874, -18.33746 ] ] } },
{ "type": "Feature", "properties": { "objectid": 782, "volcan": "Taapacá", "Shape__Length": 0.024167849832749909 }, "geometry": { "type": "LineString", "coordinates": [ [ -69.64821, -17.98205 ], [ -69.64938, -17.98225 ], [ -69.65031, -17.98265 ], [ -69.65091, -17.98302 ], [ -69.65366, -17.98294 ], [ -69.65523, -17.98213 ], [ -69.65596, -17.9814 ], [ -69.65645, -17.98108 ], [ -69.65754, -17.97966 ], [ -69.65782, -17.97954 ], [ -69.65802, -17.97966 ], [ -69.65818, -17.98003 ], [ -69.65822, -17.98148 ], [ -69.65847, -17.9833 ], [ -69.65883, -17.98475 ], [ -69.65923, -17.98588 ], [ -69.65968, -17.98653 ], [ -69.66069, -17.98746 ], [ -69.66081, -17.9879 ], [ -69.66089, -17.98847 ], [ -69.66045, -17.99166 ] ] } },
{ "type": "Feature", "properties": { "objectid": 783, "volcan": "Taapacá", "Shape__Length": 0.10677823231621777 }, "geometry": { "type": "LineString", "coordinates": [ [ -69.61014, -18.00798 ], [ -69.61707, -18.00673 ], [ -69.61939, -18.00644 ], [ -69.62073, -18.00608 ], [ -69.62163, -18.00601 ], [ -69.62232, -18.00557 ], [ -69.62275, -18.00568 ], [ -69.62391, -18.00814 ], [ -69.62485, -18.00952 ], [ -69.62434, -18.00749 ], [ -69.62426, -18.00462 ], [ -69.62221, -18.00409 ], [ -69.62084, -18.00319 ], [ -69.62044, -18.00199 ], [ -69.62058, -18.00174 ], [ -69.62138, -18.00167 ], [ -69.62236, -18.00206 ], [ -69.62315, -18.00159 ], [ -69.62377, -18.00098 ], [ -69.6246, -18.00094 ], [ -69.62481, -18.00026 ], [ -69.6251, -17.9999 ], [ -69.62599, -17.99938 ], [ -69.62623, -17.99938 ], [ -69.62676, -17.99958 ], [ -69.627, -17.99958 ], [ -69.62704, -17.9995 ], [ -69.62615, -17.99901 ], [ -69.62542, -17.99925 ], [ -69.62405, -17.99921 ], [ -69.62344, -17.99966 ], [ -69.62264, -17.9995 ], [ -69.62207, -17.99954 ], [ -69.62203, -17.99938 ], [ -69.62272, -17.99929 ], [ -69.62332, -17.99901 ], [ -69.62651, -17.99647 ], [ -69.62668, -17.99643 ], [ -69.62724, -17.99643 ], [ -69.62862, -17.99606 ], [ -69.62906, -17.99614 ], [ -69.6293, -17.99707 ], [ -69.62954, -17.99748 ], [ -69.62995, -17.9976 ], [ -69.63039, -17.9976 ], [ -69.63173, -17.99732 ], [ -69.63185, -17.99715 ], [ -69.63193, -17.99675 ], [ -69.63124, -17.99578 ], [ -69.63116, -17.99513 ], [ -69.63128, -17.99457 ], [ -69.6316, -17.99421 ], [ -69.63375, -17.99425 ], [ -69.63403, -17.99441 ], [ -69.63395, -17.99461 ], [ -69.63326, -17.99513 ], [ -69.63322, -17.9953 ], [ -69.63342, -17.99538 ], [ -69.63496, -17.99513 ], [ -69.63536, -17.99497 ], [ -69.63625, -17.99388 ], [ -69.63665, -17.99372 ], [ -69.63774, -17.99303 ], [ -69.63778, -17.99251 ], [ -69.63791, -17.99219 ], [ -69.63819, -17.99219 ], [ -69.63827, -17.99239 ], [ -69.63803, -17.99283 ], [ -69.6377, -17.99388 ], [ -69.6373, -17.99412 ], [ -69.63621, -17.99586 ], [ -69.63585, -17.99623 ], [ -69.63581, -17.99651 ], [ -69.63605, -17.99663 ], [ -69.63633, -17.99647 ], [ -69.63669, -17.99586 ], [ -69.63799, -17.99505 ], [ -69.639, -17.99457 ], [ -69.63944, -17.99368 ], [ -69.64033, -17.99267 ], [ -69.64094, -17.99178 ], [ -69.64174, -17.99178 ], [ -69.64207, -17.99162 ], [ -69.64267, -17.99093 ], [ -69.64304, -17.99017 ], [ -69.64332, -17.99009 ], [ -69.64352, -17.98988 ], [ -69.64312, -17.98903 ], [ -69.643, -17.98798 ], [ -69.64263, -17.98714 ], [ -69.64194, -17.98641 ], [ -69.64126, -17.98592 ], [ -69.64061, -17.98576 ], [ -69.64001, -17.9858 ], [ -69.63835, -17.98613 ], [ -69.63661, -17.98625 ], [ -69.63641, -17.98605 ], [ -69.63629, -17.98556 ], [ -69.63653, -17.98504 ], [ -69.63665, -17.98451 ], [ -69.63665, -17.98395 ], [ -69.63682, -17.98374 ], [ -69.6371, -17.98362 ], [ -69.63754, -17.9837 ], [ -69.63843, -17.98403 ], [ -69.64001, -17.98415 ], [ -69.6413, -17.9837 ], [ -69.6419, -17.98334 ], [ -69.64449, -17.98374 ], [ -69.64582, -17.98326 ], [ -69.64623, -17.98269 ], [ -69.64691, -17.98221 ], [ -69.64756, -17.98205 ], [ -69.64821, -17.98205 ] ] } },
{ "type": "Feature", "properties": { "objectid": 784, "volcan": "Taapacá", "Shape__Length": 0.034517641038359449 }, "geometry": { "type": "LineString", "coordinates": [ [ -69.55419, -18.06268 ], [ -69.55373, -18.06017 ], [ -69.55305, -18.05734 ], [ -69.55233, -18.05609 ], [ -69.55254, -18.05517 ], [ -69.55245, -18.05365 ], [ -69.55293, -18.05255 ], [ -69.55361, -18.05175 ], [ -69.55409, -18.05098 ], [ -69.55477, -18.04872 ], [ -69.55645, -18.04706 ], [ -69.56263, -18.0399 ], [ -69.56662, -18.03318 ] ] } },
{ "type": "Feature", "properties": { "objectid": 785, "volcan": "Taapacá", "Shape__Length": 0.038335239080539089 }, "geometry": { "type": "LineString", "coordinates": [ [ -69.54806, -18.24233 ], [ -69.54604, -18.24447 ], [ -69.54541, -18.24483 ], [ -69.54505, -18.24541 ], [ -69.54541, -18.24609 ], [ -69.54595, -18.24631 ], [ -69.54693, -18.24586 ], [ -69.5485, -18.24604 ], [ -69.54926, -18.24671 ], [ -69.54985, -18.24685 ], [ -69.55137, -18.24586 ], [ -69.55267, -18.24541 ], [ -69.55339, -18.24528 ], [ -69.55392, -18.24533 ], [ -69.55424, -18.24577 ], [ -69.55428, -18.24658 ], [ -69.55482, -18.24685 ], [ -69.55643, -18.24689 ], [ -69.55693, -18.24712 ], [ -69.55724, -18.24774 ], [ -69.55787, -18.24972 ], [ -69.55778, -18.25075 ], [ -69.55796, -18.25164 ], [ -69.55818, -18.25227 ], [ -69.55876, -18.25236 ], [ -69.55921, -18.25155 ], [ -69.55993, -18.24981 ], [ -69.56078, -18.24891 ], [ -69.5615, -18.24875 ], [ -69.56177, -18.24922 ], [ -69.56212, -18.25088 ], [ -69.56221, -18.25344 ], [ -69.56195, -18.2555 ], [ -69.5615, -18.2576 ] ] } },
{ "type": "Feature", "properties": { "objectid": 786, "volcan": "Taapacá", "Shape__Length": 0.079557141996284331 }, "geometry": { "type": "LineString", "coordinates": [ [ -69.48491, -18.16382 ], [ -69.48297, -18.1631 ], [ -69.48093, -18.16188 ], [ -69.47827, -18.15902 ], [ -69.47745, -18.15881 ], [ -69.47572, -18.15942 ], [ -69.47296, -18.16065 ], [ -69.47009, -18.16382 ], [ -69.46549, -18.1629 ], [ -69.46396, -18.1629 ], [ -69.46202, -18.16413 ], [ -69.4611, -18.16525 ], [ -69.46049, -18.16545 ], [ -69.45742, -18.16525 ], [ -69.45446, -18.16556 ], [ -69.45251, -18.16413 ], [ -69.45129, -18.1631 ], [ -69.44975, -18.163 ], [ -69.4473, -18.16351 ], [ -69.44567, -18.16341 ], [ -69.44301, -18.16423 ], [ -69.44137, -18.16505 ], [ -69.4379, -18.16402 ], [ -69.43667, -18.16505 ], [ -69.43493, -18.16668 ], [ -69.43258, -18.1675 ], [ -69.43054, -18.16924 ], [ -69.42921, -18.17067 ], [ -69.42655, -18.1723 ], [ -69.42533, -18.17353 ], [ -69.41848, -18.18171 ] ] } }
]
}
