{
"type": "FeatureCollection",
"name": "TRO",
"crs": { "type": "name", "properties": { "name": "urn:ogc:def:crs:OGC:1.3:CRS84" } },
"xy_coordinate_resolution": 1e-05,
"features": [
{ "type": "Feature", "properties": { "objectid": 691, "volcan": "Osorno", "Shape__Length": 0.064469519381849805 }, "geometry": { "type": "LineString", "coordinates": [ [ -72.45615, -41.17558 ], [ -72.45408, -41.17422 ], [ -72.45181, -41.1733 ], [ -72.45043, -41.17244 ], [ -72.44622, -41.16783 ], [ -72.44392, -41.16573 ], [ -72.43812, -41.15943 ], [ -72.43669, -41.15837 ], [ -72.43575, -41.15777 ], [ -72.43471, -41.15724 ], [ -72.4343, -41.15692 ], [ -72.43354, -41.1559 ], [ -72.43332, -41.15521 ], [ -72.43333, -41.15461 ], [ -72.43397, -41.15354 ], [ -72.43398, -41.15335 ], [ -72.43384, -41.153 ], [ -72.4313, -41.14994 ], [ -72.43032, -41.14909 ], [ -72.42974, -41.14872 ], [ -72.4289, -41.14832 ], [ -72.42698, -41.14749 ], [ -72.42622, -41.14725 ], [ -72.41951, -41.14611 ], [ -72.41774, -41.14558 ], [ -72.416, -41.14487 ], [ -72.41271, -41.14285 ], [ -72.41204, -41.14252 ], [ -72.41107, -41.14219 ], [ -72.40908, -41.14168 ], [ -72.40728, -41.14102 ], [ -72.40635, -41.14059 ] ] } },
{ "type": "Feature", "properties": { "objectid": 698, "volcan": "Osorno", "Shape__Length": 0.084657135277532949 }, "geometry": { "type": "LineString", "coordinates": [ [ -72.39432, -41.13567 ], [ -72.35149, -41.12259 ], [ -72.31182, -41.11862 ] ] } },
{ "type": "Feature", "properties": { "objectid": 699, "volcan": "Osorno", "Shape__Length": 0.083423245764540882 }, "geometry": { "type": "LineString", "coordinates": [ [ -72.30534, -41.11797 ], [ -72.28011, -41.11545 ], [ -72.22457, -41.09849 ] ] } },
{ "type": "Feature", "properties": { "objectid": 700, "volcan": "Osorno", "Shape__Length": 0.082254160987661321 }, "geometry": { "type": "LineString", "coordinates": [ [ -72.22004, -41.09665 ], [ -72.1879, -41.08273 ], [ -72.16768, -41.07262 ], [ -72.15221, -41.07143 ], [ -72.14322, -41.07285 ] ] } },
{ "type": "Feature", "properties": { "objectid": 701, "volcan": "Osorno", "Shape__Length": 0.067739726178994569 }, "geometry": { "type": "LineString", "coordinates": [ [ -72.13893, -41.07533 ], [ -72.13258, -41.08213 ], [ -72.12485, -41.09641 ], [ -72.11771, -41.10771 ], [ -72.10938, -41.11307 ], [ -72.09808, -41.11902 ], [ -72.09198, -41.11985 ] ] } },
{ "type": "Feature", "properties": { "objectid": 702, "volcan": "Osorno", "Shape__Length": 0.067996394867323132 }, "geometry": { "type": "LineString", "coordinates": [ [ -72.08722, -41.1205 ], [ -72.08499, -41.1208 ], [ -72.0725, -41.11723 ], [ -72.05882, -41.10771 ], [ -72.04097, -41.09701 ], [ -72.02612, -41.09346 ] ] } },
{ "type": "Feature", "properties": { "objectid": 706, "volcan": "Osorno", "Shape__Length": 0.055486286719802963 }, "geometry": { "type": "LineString", "coordinates": [ [ -72.46921, -41.18869 ], [ -72.47674, -41.19491 ], [ -72.47781, -41.19556 ], [ -72.48369, -41.19878 ], [ -72.48496, -41.19958 ], [ -72.48604, -41.20046 ], [ -72.49294, -41.20669 ], [ -72.49409, -41.20749 ], [ -72.49534, -41.20802 ], [ -72.51506, -41.21428 ], [ -72.51713, -41.21465 ] ] } },
{ "type": "Feature", "properties": { "objectid": 714, "volcan": "Osorno", "Shape__Length": 0.018644516718438382 }, "geometry": { "type": "LineString", "coordinates": [ [ -72.46921, -41.18869 ], [ -72.46795, -41.18758 ], [ -72.46709, -41.18668 ], [ -72.46155, -41.17979 ], [ -72.46086, -41.17903 ], [ -72.46016, -41.1784 ], [ -72.45615, -41.17558 ] ] } }
]
}
