{
"type": "FeatureCollection",
"name": "VIL",
"crs": { "type": "name", "properties": { "name": "urn:ogc:def:crs:OGC:1.3:CRS84" } },
"xy_coordinate_resolution": 1e-05,
"features": [
{ "type": "Feature", "properties": { "objectid": 787, "volcan": "Villarrica", "Shape__Length": 0.033028280441183881 }, "geometry": { "type": "LineString", "coordinates": [ [ -71.97885, -39.28573 ], [ -71.98431, -39.28208 ], [ -71.98285, -39.28141 ], [ -71.98181, -39.2813 ], [ -71.97977, -39.28176 ], [ -71.97902, -39.28173 ], [ -71.97799, -39.28133 ], [ -71.97677, -39.28101 ], [ -71.9779, -39.27829 ], [ -71.98008, -39.27431 ], [ -71.98055, -39.27324 ], [ -71.9805, -39.27264 ], [ -71.98058, -39.27243 ], [ -71.98293, -39.27169 ], [ -71.98327, -39.27167 ], [ -71.98398, -39.27179 ], [ -71.98439, -39.27172 ], [ -71.98549, -39.27141 ], [ -71.98611, -39.27091 ], [ -71.98645, -39.27085 ], [ -71.98684, -39.27097 ], [ -71.98715, -39.27122 ], [ -71.98767, -39.27136 ], [ -71.98825, -39.27122 ], [ -71.98879, -39.27138 ], [ -71.9891, -39.27161 ] ] } },
{ "type": "Feature", "properties": { "objectid": 788, "volcan": "Villarrica", "Shape__Length": 0.016688072394503744 }, "geometry": { "type": "LineString", "coordinates": [ [ -72.15212, -39.49238 ], [ -72.16191, -39.48634 ], [ -72.16466, -39.4829 ], [ -72.16415, -39.48231 ] ] } },
{ "type": "Feature", "properties": { "objectid": 789, "volcan": "Villarrica", "Shape__Length": 0.0077825556773240025 }, "geometry": { "type": "LineString", "coordinates": [ [ -72.15646, -39.48471 ], [ -72.15826, -39.48503 ], [ -72.16025, -39.48458 ], [ -72.16397, -39.48337 ] ] } },
{ "type": "Feature", "properties": { "objectid": 790, "volcan": "Villarrica", "Shape__Length": 0.012403452818130217 }, "geometry": { "type": "LineString", "coordinates": [ [ -72.14961, -39.48392 ], [ -72.14621, -39.48412 ], [ -72.14321, -39.48418 ], [ -72.13873, -39.48405 ], [ -72.13723, -39.4838 ] ] } },
{ "type": "Feature", "properties": { "objectid": 791, "volcan": "Villarrica", "Shape__Length": 0.0059166962189766779 }, "geometry": { "type": "LineString", "coordinates": [ [ -72.16116, -39.48789 ], [ -72.16214, -39.48896 ], [ -72.16457, -39.48918 ], [ -72.16472, -39.48807 ], [ -72.16562, -39.48815 ] ] } },
{ "type": "Feature", "properties": { "objectid": 792, "volcan": "Villarrica", "Shape__Length": 0.041920200018395679 }, "geometry": { "type": "LineString", "coordinates": [ [ -72.00666, -39.56783 ], [ -71.99873, -39.5758 ], [ -72.00203, -39.57812 ], [ -72.00283, -39.57938 ], [ -72.00592, -39.5898 ], [ -72.00628, -39.58984 ], [ -72.01229, -39.58639 ], [ -72.01319, -39.58639 ], [ -72.01889, -39.58855 ] ] } },
{ "type": "Feature", "properties": { "objectid": 793, "volcan": "Villarrica", "Shape__Length": 0.024983933298867982 }, "geometry": { "type": "LineString", "coordinates": [ [ -71.96266, -39.28342 ], [ -71.96706, -39.28226 ], [ -71.97295, -39.27101 ], [ -71.98035, -39.2733 ] ] } },
{ "type": "Feature", "properties": { "objectid": 794, "volcan": "Villarrica", "Shape__Length": 0.032889439558647822 }, "geometry": { "type": "LineString", "coordinates": [ [ -71.95642, -39.27946 ], [ -71.95391, -39.28086 ], [ -71.95186, -39.28261 ], [ -71.94959, -39.28518 ], [ -71.94865, -39.28565 ], [ -71.94071, -39.28845 ], [ -71.94371, -39.29752 ], [ -71.94316, -39.29783 ], [ -71.94064, -39.29982 ], [ -71.93991, -39.30053 ] ] } }
]
}
